{
"type": "FeatureCollection",
"name": "gis",
"crs": { "type": "name", "properties": { "name": "urn:ogc:def:crs:OGC:1.3:CRS84" } },
"features": [
{ "type": "Feature", "properties": { "@featureType": "CadastralParcel", "areaValue": { "value": 77858, "@uom": "m2" }, "beginLifespanVersion": { "@nilReason": "http://inspire.ec.europa.eu/codelist/VoidReasonValue/Unpopulated", "@nil": "true" }, "endLifespanVersion": { "@nilReason": "http://inspire.ec.europa.eu/codelist/VoidReasonValue/Unpopulated", "@nil": "true" }, "inspireId": { "@dataType": "Identifier", "localId": "812854_2174/1.C", "namespace": "SK.ESKN.CP", "versionId": "20260703T04:07:08" }, "label": "2174/1", "nationalCadastralReference": "812854_2174/1.C", "referencePoint": { "type": "Point", "coordinates": [ 18.06571709, 48.35360546 ] }, "validFrom": "2026-06-30T16:00:00Z", "validTo": { "@nilReason": "http://inspire.ec.europa.eu/codelist/VoidReasonValue/Unpopulated", "@nil": "true" }, "administrativeUnit": { "@href": "#auAdmUnitS.1810" } }, "geometry": { "type": "Polygon", "coordinates": [ [ [ 18.06588103, 48.35481976 ], [ 18.06590827, 48.35482679 ], [ 18.0659409, 48.35483404 ], [ 18.0660013, 48.35484745 ], [ 18.06605761, 48.35485999 ], [ 18.06610931, 48.35487153 ], [ 18.06613419, 48.35488005 ], [ 18.06617745, 48.35489497 ], [ 18.06628171, 48.35492994 ], [ 18.06642925, 48.35499193 ], [ 18.0665222, 48.35501421 ], [ 18.06656394, 48.35502426 ], [ 18.06662092, 48.35503792 ], [ 18.06664425, 48.35504075 ], [ 18.06669438, 48.35504678 ], [ 18.06670986, 48.3550486 ], [ 18.0667295, 48.35503026 ], [ 18.0667552, 48.35500613 ], [ 18.06677252, 48.35499 ], [ 18.06678443, 48.35497888 ], [ 18.0668177, 48.35494771 ], [ 18.06683672, 48.35492996 ], [ 18.06684541, 48.35492172 ], [ 18.06687697, 48.35489216 ], [ 18.06703579, 48.35495084 ], [ 18.06763421, 48.35446669 ], [ 18.06850796, 48.35377018 ], [ 18.06831437, 48.35374277 ], [ 18.06815026, 48.35346112 ], [ 18.06800165, 48.35338679 ], [ 18.067935, 48.35320354 ], [ 18.06776063, 48.35309681 ], [ 18.06774294, 48.35302209 ], [ 18.0673619, 48.35277042 ], [ 18.06727985, 48.35256242 ], [ 18.06711827, 48.35242069 ], [ 18.06708965, 48.35242604 ], [ 18.06698613, 48.35239772 ], [ 18.06674307, 48.35240213 ], [ 18.06661228, 48.35241896 ], [ 18.06651322, 48.35243243 ], [ 18.06644277, 48.3524437 ], [ 18.06638063, 48.35244445 ], [ 18.06626679, 48.3524398 ], [ 18.06611839, 48.35242805 ], [ 18.06594656, 48.35227894 ], [ 18.06582658, 48.35233261 ], [ 18.06576658, 48.35236202 ], [ 18.0656598, 48.35241422 ], [ 18.06558388, 48.35244828 ], [ 18.06525627, 48.35261166 ], [ 18.06511977, 48.35248811 ], [ 18.06499512, 48.35237529 ], [ 18.06494194, 48.35232908 ], [ 18.06487263, 48.35226972 ], [ 18.06474247, 48.3523357 ], [ 18.06471289, 48.35231373 ], [ 18.0645952, 48.35236745 ], [ 18.06445472, 48.35224637 ], [ 18.06435266, 48.35215827 ], [ 18.06383164, 48.35243435 ], [ 18.06378407, 48.35254855 ], [ 18.06374206, 48.3526443 ], [ 18.06366138, 48.35283113 ], [ 18.06357607, 48.35303447 ], [ 18.0634476, 48.35323842 ], [ 18.06340248, 48.3533087 ], [ 18.06331594, 48.35342864 ], [ 18.06323274, 48.35354579 ], [ 18.06322473, 48.35356021 ], [ 18.06317489, 48.35365071 ], [ 18.06337357, 48.35402759 ], [ 18.06347524, 48.35403622 ], [ 18.06404086, 48.35416717 ], [ 18.06448876, 48.35425433 ], [ 18.06507986, 48.35440556 ], [ 18.06518821, 48.35438641 ], [ 18.06535033, 48.35407204 ], [ 18.06565462, 48.35414312 ], [ 18.06549733, 48.35445778 ], [ 18.06535788, 48.35442561 ], [ 18.0650812, 48.35444943 ], [ 18.06454241, 48.35430418 ], [ 18.0639345, 48.35418156 ], [ 18.06348917, 48.35407506 ], [ 18.06339445, 48.35406711 ], [ 18.06341858, 48.35411278 ], [ 18.06343943, 48.35411491 ], [ 18.06349197, 48.35412425 ], [ 18.06352545, 48.3541302 ], [ 18.06353419, 48.35413171 ], [ 18.06355855, 48.35413803 ], [ 18.06359586, 48.35414773 ], [ 18.06362009, 48.35415403 ], [ 18.06367299, 48.35416773 ], [ 18.0637289, 48.3541853 ], [ 18.06377532, 48.35419987 ], [ 18.06382499, 48.35421554 ], [ 18.06387947, 48.35423266 ], [ 18.06392953, 48.35424835 ], [ 18.06397725, 48.35426336 ], [ 18.06397868, 48.35426381 ], [ 18.06405474, 48.35428781 ], [ 18.06410109, 48.35429172 ], [ 18.06416834, 48.35429741 ], [ 18.06422027, 48.35430518 ], [ 18.06432799, 48.35432229 ], [ 18.06438812, 48.35433975 ], [ 18.06444628, 48.35435465 ], [ 18.06450052, 48.35436851 ], [ 18.06452698, 48.35437532 ], [ 18.06458881, 48.35439116 ], [ 18.06467292, 48.35441265 ], [ 18.06469204, 48.35441758 ], [ 18.06472713, 48.35442164 ], [ 18.06480839, 48.35443096 ], [ 18.06483796, 48.35443677 ], [ 18.06486992, 48.35444299 ], [ 18.06489104, 48.35444713 ], [ 18.06492114, 48.35445306 ], [ 18.06493777, 48.3544563 ], [ 18.06505246, 48.35449847 ], [ 18.06513286, 48.35451731 ], [ 18.06518306, 48.35453906 ], [ 18.06523289, 48.3545606 ], [ 18.06531833, 48.35459762 ], [ 18.06538755, 48.35463123 ], [ 18.06541147, 48.35464285 ], [ 18.06544531, 48.35465731 ], [ 18.06549171, 48.35467712 ], [ 18.06551043, 48.35468508 ], [ 18.06553979, 48.35469756 ], [ 18.06556787, 48.35470952 ], [ 18.06560094, 48.35472366 ], [ 18.06567363, 48.35475459 ], [ 18.06574223, 48.35478375 ], [ 18.06577221, 48.35479157 ], [ 18.06579356, 48.35479707 ], [ 18.06582105, 48.35480421 ], [ 18.06588103, 48.35481976 ] ] ] } },
{ "type": "Feature", "properties": { "@featureType": "CadastralParcel", "areaValue": { "value": 1730, "@uom": "m2" }, "beginLifespanVersion": { "@nilReason": "http://inspire.ec.europa.eu/codelist/VoidReasonValue/Unpopulated", "@nil": "true" }, "endLifespanVersion": { "@nilReason": "http://inspire.ec.europa.eu/codelist/VoidReasonValue/Unpopulated", "@nil": "true" }, "inspireId": { "@dataType": "Identifier", "localId": "812854_2173.C", "namespace": "SK.ESKN.CP", "versionId": "20260703T04:07:08" }, "label": "2173", "nationalCadastralReference": "812854_2173.C", "referencePoint": { "type": "Point", "coordinates": [ 18.06778416, 48.35299308 ] }, "validFrom": "2026-06-30T16:00:00Z", "validTo": { "@nilReason": "http://inspire.ec.europa.eu/codelist/VoidReasonValue/Unpopulated", "@nil": "true" }, "administrativeUnit": { "@href": "#auAdmUnitS.1810" } }, "geometry": { "type": "Polygon", "coordinates": [ [ [ 18.067935, 48.35320354 ], [ 18.06800165, 48.35338679 ], [ 18.06815026, 48.35346112 ], [ 18.06831437, 48.35374277 ], [ 18.06850796, 48.35377018 ], [ 18.06822079, 48.35340543 ], [ 18.06810158, 48.35333013 ], [ 18.06801823, 48.3531318 ], [ 18.06783816, 48.35296406 ], [ 18.06746386, 48.35275342 ], [ 18.06736795, 48.35252131 ], [ 18.06713559, 48.35227418 ], [ 18.06713414, 48.35227284 ], [ 18.06702249, 48.35234027 ], [ 18.06711827, 48.35242069 ], [ 18.06727985, 48.35256242 ], [ 18.0673619, 48.35277042 ], [ 18.06774294, 48.35302209 ], [ 18.06776063, 48.35309681 ], [ 18.067935, 48.35320354 ] ] ] } },
{ "type": "Feature", "properties": { "@featureType": "CadastralParcel", "areaValue": { "value": 671, "@uom": "m2" }, "beginLifespanVersion": { "@nilReason": "http://inspire.ec.europa.eu/codelist/VoidReasonValue/Unpopulated", "@nil": "true" }, "endLifespanVersion": { "@nilReason": "http://inspire.ec.europa.eu/codelist/VoidReasonValue/Unpopulated", "@nil": "true" }, "inspireId": { "@dataType": "Identifier", "localId": "812854_2196/2.C", "namespace": "SK.ESKN.CP", "versionId": "20260703T04:07:08" }, "label": "2196/2", "nationalCadastralReference": "812854_2196/2.C", "referencePoint": { "type": "Point", "coordinates": [ 18.06333093, 48.35481329 ] }, "validFrom": "2026-06-30T16:00:00Z", "validTo": { "@nilReason": "http://inspire.ec.europa.eu/codelist/VoidReasonValue/Unpopulated", "@nil": "true" }, "administrativeUnit": { "@href": "#auAdmUnitS.1810" } }, "geometry": { "type": "Polygon", "coordinates": [ [ [ 18.06348503, 48.35470557 ], [ 18.06397868, 48.35426381 ], [ 18.06397725, 48.35426336 ], [ 18.06392953, 48.35424835 ], [ 18.06341898, 48.35471331 ], [ 18.06288081, 48.3551658 ], [ 18.06261115, 48.35538415 ], [ 18.06240751, 48.35554917 ], [ 18.06244109, 48.35556659 ], [ 18.06265423, 48.35539835 ], [ 18.0627266, 48.35534114 ], [ 18.06295832, 48.35515548 ], [ 18.06324741, 48.35491327 ], [ 18.06348503, 48.35470557 ] ] ] } },
{ "type": "Feature", "properties": { "@featureType": "CadastralParcel", "areaValue": { "value": 1165, "@uom": "m2" }, "beginLifespanVersion": { "@nilReason": "http://inspire.ec.europa.eu/codelist/VoidReasonValue/Unpopulated", "@nil": "true" }, "endLifespanVersion": { "@nilReason": "http://inspire.ec.europa.eu/codelist/VoidReasonValue/Unpopulated", "@nil": "true" }, "inspireId": { "@dataType": "Identifier", "localId": "812854_2163/1.C", "namespace": "SK.ESKN.CP", "versionId": "20260703T04:07:08" }, "label": "2163/1", "nationalCadastralReference": "812854_2163/1.C", "referencePoint": { "type": "Point", "coordinates": [ 18.06752073, 48.35202934 ] }, "validFrom": "2026-06-30T16:00:00Z", "validTo": { "@nilReason": "http://inspire.ec.europa.eu/codelist/VoidReasonValue/Unpopulated", "@nil": "true" }, "administrativeUnit": { "@href": "#auAdmUnitS.1810" } }, "geometry": { "type": "Polygon", "coordinates": [ [ [ 18.06766146, 48.35217633 ], [ 18.06815822, 48.35246029 ], [ 18.06827708, 48.35245883 ], [ 18.06837233, 48.3524576 ], [ 18.0678079, 48.35213451 ], [ 18.06780576, 48.3521333 ], [ 18.06741535, 48.35191548 ], [ 18.06716055, 48.35177293 ], [ 18.06711921, 48.35179857 ], [ 18.06707959, 48.3518235 ], [ 18.0672527, 48.35192537 ], [ 18.06766146, 48.35217633 ] ] ] } },
{ "type": "Feature", "properties": { "@featureType": "CadastralParcel", "areaValue": { "value": 321, "@uom": "m2" }, "beginLifespanVersion": { "@nilReason": "http://inspire.ec.europa.eu/codelist/VoidReasonValue/Unpopulated", "@nil": "true" }, "endLifespanVersion": { "@nilReason": "http://inspire.ec.europa.eu/codelist/VoidReasonValue/Unpopulated", "@nil": "true" }, "inspireId": { "@dataType": "Identifier", "localId": "812854_2161/1.C", "namespace": "SK.ESKN.CP", "versionId": "20260703T04:07:08" }, "label": "2161/1", "nationalCadastralReference": "812854_2161/1.C", "referencePoint": { "type": "Point", "coordinates": [ 18.06822183, 48.35233607 ] }, "validFrom": "2026-06-30T16:00:00Z", "validTo": { "@nilReason": "http://inspire.ec.europa.eu/codelist/VoidReasonValue/Unpopulated", "@nil": "true" }, "administrativeUnit": { "@href": "#auAdmUnitS.1810" } }, "geometry": { "type": "Polygon", "coordinates": [ [ [ 18.06837233, 48.3524576 ], [ 18.06845083, 48.35244797 ], [ 18.06811648, 48.35222416 ], [ 18.06785951, 48.3520907 ], [ 18.0678079, 48.35213451 ], [ 18.06837233, 48.3524576 ] ] ] } },
{ "type": "Feature", "properties": { "@featureType": "CadastralParcel", "areaValue": { "value": 889, "@uom": "m2" }, "beginLifespanVersion": { "@nilReason": "http://inspire.ec.europa.eu/codelist/VoidReasonValue/Unpopulated", "@nil": "true" }, "endLifespanVersion": { "@nilReason": "http://inspire.ec.europa.eu/codelist/VoidReasonValue/Unpopulated", "@nil": "true" }, "inspireId": { "@dataType": "Identifier", "localId": "812854_2159/2.C", "namespace": "SK.ESKN.CP", "versionId": "20260703T04:07:08" }, "label": "2159/2", "nationalCadastralReference": "812854_2159/2.C", "referencePoint": { "type": "Point", "coordinates": [ 18.06765534, 48.35179117 ] }, "validFrom": "2026-06-30T16:00:00Z", "validTo": { "@nilReason": "http://inspire.ec.europa.eu/codelist/VoidReasonValue/Unpopulated", "@nil": "true" }, "administrativeUnit": { "@href": "#auAdmUnitS.1810" } }, "geometry": { "type": "Polygon", "coordinates": [ [ [ 18.06772917, 48.3519036 ], [ 18.06785442, 48.35197014 ], [ 18.06800722, 48.35199867 ], [ 18.068243, 48.35211824 ], [ 18.06836429, 48.35209236 ], [ 18.06802946, 48.35191294 ], [ 18.06797495, 48.35189094 ], [ 18.06744076, 48.35159817 ], [ 18.06730914, 48.35168032 ], [ 18.06733015, 48.3516914 ], [ 18.06772917, 48.3519036 ] ] ] } },
{ "type": "Feature", "properties": { "@featureType": "CadastralParcel", "areaValue": { "value": 368, "@uom": "m2" }, "beginLifespanVersion": { "@nilReason": "http://inspire.ec.europa.eu/codelist/VoidReasonValue/Unpopulated", "@nil": "true" }, "endLifespanVersion": { "@nilReason": "http://inspire.ec.europa.eu/codelist/VoidReasonValue/Unpopulated", "@nil": "true" }, "inspireId": { "@dataType": "Identifier", "localId": "812854_2158/2.C", "namespace": "SK.ESKN.CP", "versionId": "20260703T04:07:08" }, "label": "2158/2", "nationalCadastralReference": "812854_2158/2.C", "referencePoint": { "type": "Point", "coordinates": [ 18.06780209, 48.35174169 ] }, "validFrom": "2026-06-30T16:00:00Z", "validTo": { "@nilReason": "http://inspire.ec.europa.eu/codelist/VoidReasonValue/Unpopulated", "@nil": "true" }, "administrativeUnit": { "@href": "#auAdmUnitS.1810" } }, "geometry": { "type": "Polygon", "coordinates": [ [ [ 18.06797495, 48.35189094 ], [ 18.06802946, 48.35191294 ], [ 18.06836429, 48.35209236 ], [ 18.06831924, 48.35199923 ], [ 18.0681763, 48.35190681 ], [ 18.06816657, 48.3518852 ], [ 18.06753175, 48.35154143 ], [ 18.06744076, 48.35159817 ], [ 18.06797495, 48.35189094 ] ] ] } },
{ "type": "Feature", "properties": { "@featureType": "CadastralParcel", "areaValue": { "value": 308763, "@uom": "m2" }, "beginLifespanVersion": { "@nilReason": "http://inspire.ec.europa.eu/codelist/VoidReasonValue/Unpopulated", "@nil": "true" }, "endLifespanVersion": { "@nilReason": "http://inspire.ec.europa.eu/codelist/VoidReasonValue/Unpopulated", "@nil": "true" }, "inspireId": { "@dataType": "Identifier", "localId": "812854_2178/1.C", "namespace": "SK.ESKN.CP", "versionId": "20260703T04:07:08" }, "label": "2178/1", "nationalCadastralReference": "812854_2178/1.C", "referencePoint": { "type": "Point", "coordinates": [ 18.0744604, 48.35092634 ] }, "validFrom": "2026-06-30T16:00:00Z", "validTo": { "@nilReason": "http://inspire.ec.europa.eu/codelist/VoidReasonValue/Unpopulated", "@nil": "true" }, "administrativeUnit": { "@href": "#auAdmUnitS.1810" } }, "geometry": { "type": "Polygon", "coordinates": [ [ [ 18.07465147, 48.35221709 ], [ 18.07578242, 48.35231905 ], [ 18.07888661, 48.35263115 ], [ 18.08204816, 48.35294501 ], [ 18.08433718, 48.35317051 ], [ 18.08367534, 48.35285694 ], [ 18.08323727, 48.35263032 ], [ 18.08254874, 48.35227408 ], [ 18.08213169, 48.35207686 ], [ 18.08153983, 48.35180072 ], [ 18.0813108, 48.35170559 ], [ 18.08030599, 48.35130757 ], [ 18.08047151, 48.35099953 ], [ 18.08010911, 48.35061122 ], [ 18.08049097, 48.35021626 ], [ 18.08139443, 48.35018576 ], [ 18.08187629, 48.35001699 ], [ 18.08150164, 48.34940261 ], [ 18.08033096, 48.34928301 ], [ 18.07847931, 48.3490936 ], [ 18.07706004, 48.34894485 ], [ 18.07577521, 48.34881195 ], [ 18.07576553, 48.34881138 ], [ 18.07578033, 48.34883763 ], [ 18.07582352, 48.34891421 ], [ 18.07586917, 48.34899681 ], [ 18.07587778, 48.3490105 ], [ 18.07596645, 48.34905673 ], [ 18.07606171, 48.34910641 ], [ 18.07607205, 48.34912038 ], [ 18.07610354, 48.34916269 ], [ 18.07595257, 48.3493692 ], [ 18.07595141, 48.34937184 ], [ 18.07582883, 48.34936262 ], [ 18.07581754, 48.34936196 ], [ 18.07550407, 48.34932756 ], [ 18.07534263, 48.34932742 ], [ 18.07532244, 48.34938356 ], [ 18.07530653, 48.34942786 ], [ 18.07500525, 48.34937107 ], [ 18.07483908, 48.34941471 ], [ 18.07472841, 48.34931789 ], [ 18.07458019, 48.34924269 ], [ 18.07446209, 48.34927111 ], [ 18.07443449, 48.34927905 ], [ 18.07441925, 48.34928267 ], [ 18.07441262, 48.34928462 ], [ 18.07437852, 48.34929254 ], [ 18.07436021, 48.34929579 ], [ 18.07421405, 48.34932129 ], [ 18.07399386, 48.34935759 ], [ 18.07396961, 48.34936374 ], [ 18.07396007, 48.34936625 ], [ 18.0739211, 48.34937614 ], [ 18.07384259, 48.34939606 ], [ 18.07382451, 48.34940068 ], [ 18.07373676, 48.34942295 ], [ 18.07370114, 48.34943204 ], [ 18.07356574, 48.34945718 ], [ 18.07347504, 48.34947404 ], [ 18.07344449, 48.34947973 ], [ 18.07338568, 48.34948808 ], [ 18.07329459, 48.34949977 ], [ 18.07321199, 48.34951078 ], [ 18.07314469, 48.34951981 ], [ 18.07308691, 48.3495275 ], [ 18.07299246, 48.34954007 ], [ 18.07297563, 48.34954233 ], [ 18.07291437, 48.34954666 ], [ 18.07278788, 48.3495363 ], [ 18.07272556, 48.349517 ], [ 18.07263801, 48.34948989 ], [ 18.07256302, 48.34950686 ], [ 18.07251105, 48.34951869 ], [ 18.07245365, 48.34953173 ], [ 18.07237335, 48.34952952 ], [ 18.07227011, 48.34952667 ], [ 18.07219467, 48.34954389 ], [ 18.07201334, 48.34958536 ], [ 18.07175476, 48.34964449 ], [ 18.07173031, 48.34965009 ], [ 18.07161089, 48.34967211 ], [ 18.07140705, 48.34970973 ], [ 18.0712754, 48.34959144 ], [ 18.07121489, 48.3496034 ], [ 18.07114532, 48.34961725 ], [ 18.07112403, 48.3496215 ], [ 18.07110181, 48.34962769 ], [ 18.07106637, 48.34963751 ], [ 18.07101263, 48.34965248 ], [ 18.07058378, 48.34932451 ], [ 18.07055785, 48.34938609 ], [ 18.07053271, 48.34944573 ], [ 18.07044558, 48.34951832 ], [ 18.07039105, 48.34956376 ], [ 18.07037643, 48.3495759 ], [ 18.0701516, 48.34969291 ], [ 18.07012256, 48.34970862 ], [ 18.06997643, 48.34977258 ], [ 18.06983289, 48.34983542 ], [ 18.069806, 48.3498472 ], [ 18.06944874, 48.35000351 ], [ 18.06924812, 48.35009124 ], [ 18.0690462, 48.35020391 ], [ 18.06929293, 48.35037559 ], [ 18.06905879, 48.35047696 ], [ 18.06884019, 48.35057149 ], [ 18.06874963, 48.35061074 ], [ 18.06860882, 48.35062048 ], [ 18.06860706, 48.35062146 ], [ 18.0685596, 48.35062389 ], [ 18.0684158, 48.35054407 ], [ 18.06830584, 48.35060186 ], [ 18.0686349, 48.35085316 ], [ 18.06797166, 48.35126695 ], [ 18.06800413, 48.35134769 ], [ 18.06800784, 48.35136055 ], [ 18.06801223, 48.35137029 ], [ 18.06802773, 48.35141364 ], [ 18.06804372, 48.35145846 ], [ 18.06805088, 48.35147487 ], [ 18.0680505, 48.35147773 ], [ 18.06805293, 48.35149918 ], [ 18.06805943, 48.35154805 ], [ 18.06806099, 48.35159844 ], [ 18.06934309, 48.3517178 ], [ 18.07193125, 48.35195969 ], [ 18.07465147, 48.35221709 ] ] ] } },
{ "type": "Feature", "properties": { "@featureType": "CadastralParcel", "areaValue": { "value": 9384, "@uom": "m2" }, "beginLifespanVersion": { "@nilReason": "http://inspire.ec.europa.eu/codelist/VoidReasonValue/Unpopulated", "@nil": "true" }, "endLifespanVersion": { "@nilReason": "http://inspire.ec.europa.eu/codelist/VoidReasonValue/Unpopulated", "@nil": "true" }, "inspireId": { "@dataType": "Identifier", "localId": "812854_2177.C", "namespace": "SK.ESKN.CP", "versionId": "20260703T04:07:08" }, "label": "2177", "nationalCadastralReference": "812854_2177.C", "referencePoint": { "type": "Point", "coordinates": [ 18.07684157, 48.35246241 ] }, "validFrom": "2026-06-30T16:00:00Z", "validTo": { "@nilReason": "http://inspire.ec.europa.eu/codelist/VoidReasonValue/Unpopulated", "@nil": "true" }, "administrativeUnit": { "@href": "#auAdmUnitS.1810" } }, "geometry": { "type": "Polygon", "coordinates": [ [ [ 18.07323205, 48.35215035 ], [ 18.07438769, 48.3522612 ], [ 18.07796194, 48.35260576 ], [ 18.08096186, 48.35290551 ], [ 18.08297789, 48.35310573 ], [ 18.08452526, 48.35326295 ], [ 18.08433718, 48.35317051 ], [ 18.08204816, 48.35294501 ], [ 18.07888661, 48.35263115 ], [ 18.07578242, 48.35231905 ], [ 18.07465147, 48.35221709 ], [ 18.07193125, 48.35195969 ], [ 18.06934309, 48.3517178 ], [ 18.06806099, 48.35159844 ], [ 18.06807473, 48.35166426 ], [ 18.06966488, 48.351814 ], [ 18.07149362, 48.35198486 ], [ 18.07323205, 48.35215035 ] ] ] } },
{ "type": "Feature", "properties": { "@featureType": "CadastralParcel", "areaValue": { "value": 289951, "@uom": "m2" }, "beginLifespanVersion": { "@nilReason": "http://inspire.ec.europa.eu/codelist/VoidReasonValue/Unpopulated", "@nil": "true" }, "endLifespanVersion": { "@nilReason": "http://inspire.ec.europa.eu/codelist/VoidReasonValue/Unpopulated", "@nil": "true" }, "inspireId": { "@dataType": "Identifier", "localId": "812854_2176.C", "namespace": "SK.ESKN.CP", "versionId": "20260703T04:07:08" }, "label": "2176", "nationalCadastralReference": "812854_2176.C", "referencePoint": { "type": "Point", "coordinates": [ 18.07974135, 48.35358744 ] }, "validFrom": "2026-06-30T16:00:00Z", "validTo": { "@nilReason": "http://inspire.ec.europa.eu/codelist/VoidReasonValue/Unpopulated", "@nil": "true" }, "administrativeUnit": { "@href": "#auAdmUnitS.1810" } }, "geometry": { "type": "Polygon", "coordinates": [ [ [ 18.07163371, 48.35500685 ], [ 18.07201065, 48.35505728 ], [ 18.07281366, 48.35546115 ], [ 18.07282135, 48.35526162 ], [ 18.07343905, 48.35491129 ], [ 18.07370484, 48.35441894 ], [ 18.07404231, 48.354115 ], [ 18.07293114, 48.3537946 ], [ 18.07330708, 48.35344382 ], [ 18.07419153, 48.35354669 ], [ 18.07492223, 48.35362819 ], [ 18.07590253, 48.35399763 ], [ 18.07576112, 48.35442059 ], [ 18.07587209, 48.35467733 ], [ 18.07671369, 48.3543402 ], [ 18.07729546, 48.35458941 ], [ 18.07780152, 48.35416034 ], [ 18.07858708, 48.35436631 ], [ 18.07883205, 48.35486272 ], [ 18.079417, 48.35494941 ], [ 18.07943196, 48.35483671 ], [ 18.07896271, 48.35434703 ], [ 18.07956531, 48.35397123 ], [ 18.07948666, 48.35369645 ], [ 18.08024239, 48.35386689 ], [ 18.08086029, 48.35422565 ], [ 18.08126382, 48.35474214 ], [ 18.08136536, 48.35513953 ], [ 18.0810143, 48.35540738 ], [ 18.0825313, 48.35530804 ], [ 18.08542408, 48.35511479 ], [ 18.08502486, 48.35465229 ], [ 18.08532467, 48.35445815 ], [ 18.08535284, 48.35393335 ], [ 18.08452526, 48.35326295 ], [ 18.08297789, 48.35310573 ], [ 18.08096186, 48.35290551 ], [ 18.07796194, 48.35260576 ], [ 18.07438769, 48.3522612 ], [ 18.07323205, 48.35215035 ], [ 18.07149362, 48.35198486 ], [ 18.06966488, 48.351814 ], [ 18.06807473, 48.35166426 ], [ 18.06810011, 48.35172498 ], [ 18.06810268, 48.3517311 ], [ 18.06810833, 48.35174461 ], [ 18.06813291, 48.35180322 ], [ 18.06816263, 48.35187413 ], [ 18.06816657, 48.3518852 ], [ 18.0681763, 48.35190681 ], [ 18.06831924, 48.35199923 ], [ 18.06836429, 48.35209236 ], [ 18.068243, 48.35211824 ], [ 18.06800722, 48.35199867 ], [ 18.06785442, 48.35197014 ], [ 18.06785856, 48.35206934 ], [ 18.06785951, 48.3520907 ], [ 18.06811648, 48.35222416 ], [ 18.06845083, 48.35244797 ], [ 18.06837233, 48.3524576 ], [ 18.06827708, 48.35245883 ], [ 18.06815822, 48.35246029 ], [ 18.06766146, 48.35217633 ], [ 18.0673885, 48.35223135 ], [ 18.06728375, 48.35225206 ], [ 18.06713414, 48.35227284 ], [ 18.06713559, 48.35227418 ], [ 18.06736795, 48.35252131 ], [ 18.06746386, 48.35275342 ], [ 18.06783816, 48.35296406 ], [ 18.06801823, 48.3531318 ], [ 18.06810158, 48.35333013 ], [ 18.06822079, 48.35340543 ], [ 18.06850796, 48.35377018 ], [ 18.06854325, 48.35377985 ], [ 18.0692845, 48.35405496 ], [ 18.07029231, 48.35442816 ], [ 18.07092729, 48.35470185 ], [ 18.07163371, 48.35500685 ] ] ] } },
{ "type": "Feature", "properties": { "@featureType": "CadastralParcel", "areaValue": { "value": 302, "@uom": "m2" }, "beginLifespanVersion": { "@nilReason": "http://inspire.ec.europa.eu/codelist/VoidReasonValue/Unpopulated", "@nil": "true" }, "endLifespanVersion": { "@nilReason": "http://inspire.ec.europa.eu/codelist/VoidReasonValue/Unpopulated", "@nil": "true" }, "inspireId": { "@dataType": "Identifier", "localId": "812854_2138.C", "namespace": "SK.ESKN.CP", "versionId": "20260703T04:07:08" }, "label": "2138", "nationalCadastralReference": "812854_2138.C", "referencePoint": { "type": "Point", "coordinates": [ 18.07082696, 48.34948101 ] }, "validFrom": "2026-06-30T16:00:00Z", "validTo": { "@nilReason": "http://inspire.ec.europa.eu/codelist/VoidReasonValue/Unpopulated", "@nil": "true" }, "administrativeUnit": { "@href": "#auAdmUnitS.1810" } }, "geometry": { "type": "Polygon", "coordinates": [ [ [ 18.07101263, 48.34965248 ], [ 18.07106637, 48.34963751 ], [ 18.07046777, 48.34917112 ], [ 18.07040988, 48.34920309 ], [ 18.07046888, 48.34924432 ], [ 18.0705228, 48.3492819 ], [ 18.07058378, 48.34932451 ], [ 18.07101263, 48.34965248 ] ] ] } },
{ "type": "Feature", "properties": { "@featureType": "CadastralParcel", "areaValue": { "value": 237, "@uom": "m2" }, "beginLifespanVersion": { "@nilReason": "http://inspire.ec.europa.eu/codelist/VoidReasonValue/Unpopulated", "@nil": "true" }, "endLifespanVersion": { "@nilReason": "http://inspire.ec.europa.eu/codelist/VoidReasonValue/Unpopulated", "@nil": "true" }, "inspireId": { "@dataType": "Identifier", "localId": "812854_2137/1.C", "namespace": "SK.ESKN.CP", "versionId": "20260703T04:07:08" }, "label": "2137/1", "nationalCadastralReference": "812854_2137/1.C", "referencePoint": { "type": "Point", "coordinates": [ 18.07082777, 48.34938427 ] }, "validFrom": "2026-06-30T16:00:00Z", "validTo": { "@nilReason": "http://inspire.ec.europa.eu/codelist/VoidReasonValue/Unpopulated", "@nil": "true" }, "administrativeUnit": { "@href": "#auAdmUnitS.1810" } }, "geometry": { "type": "Polygon", "coordinates": [ [ [ 18.07110181, 48.34962769 ], [ 18.07112403, 48.3496215 ], [ 18.07114532, 48.34961725 ], [ 18.07054625, 48.34912898 ], [ 18.07050346, 48.34915129 ], [ 18.07110181, 48.34962769 ] ] ] } },
{ "type": "Feature", "properties": { "@featureType": "CadastralParcel", "areaValue": { "value": 367, "@uom": "m2" }, "beginLifespanVersion": { "@nilReason": "http://inspire.ec.europa.eu/codelist/VoidReasonValue/Unpopulated", "@nil": "true" }, "endLifespanVersion": { "@nilReason": "http://inspire.ec.europa.eu/codelist/VoidReasonValue/Unpopulated", "@nil": "true" }, "inspireId": { "@dataType": "Identifier", "localId": "812854_2136/4.C", "namespace": "SK.ESKN.CP", "versionId": "20260703T04:07:08" }, "label": "2136/4", "nationalCadastralReference": "812854_2136/4.C", "referencePoint": { "type": "Point", "coordinates": [ 18.07088055, 48.34936619 ] }, "validFrom": "2026-06-30T16:00:00Z", "validTo": { "@nilReason": "http://inspire.ec.europa.eu/codelist/VoidReasonValue/Unpopulated", "@nil": "true" }, "administrativeUnit": { "@href": "#auAdmUnitS.1810" } }, "geometry": { "type": "Polygon", "coordinates": [ [ [ 18.07114532, 48.34961725 ], [ 18.07121489, 48.3496034 ], [ 18.07059674, 48.34909964 ], [ 18.07054644, 48.34912755 ], [ 18.07054625, 48.34912898 ], [ 18.07114532, 48.34961725 ] ] ] } }
]
}
