{
"type": "FeatureCollection",
"name": "gis",
"crs": { "type": "name", "properties": { "name": "urn:ogc:def:crs:OGC:1.3:CRS84" } },
"features": [
{ "type": "Feature", "properties": { "@featureType": "CadastralParcel", "areaValue": { "value": 424, "@uom": "m2" }, "beginLifespanVersion": { "@nilReason": "http://inspire.ec.europa.eu/codelist/VoidReasonValue/Unpopulated", "@nil": "true" }, "endLifespanVersion": { "@nilReason": "http://inspire.ec.europa.eu/codelist/VoidReasonValue/Unpopulated", "@nil": "true" }, "inspireId": { "@dataType": "Identifier", "localId": "812013_740/3.C", "namespace": "SK.ESKN.CP", "versionId": "20260703T06:07:55" }, "label": "740/3", "nationalCadastralReference": "812013_740/3.C", "referencePoint": { "type": "Point", "coordinates": [ 18.32486691, 49.09691173 ] }, "validFrom": "2026-06-30T16:00:00Z", "validTo": { "@nilReason": "http://inspire.ec.europa.eu/codelist/VoidReasonValue/Unpopulated", "@nil": "true" }, "administrativeUnit": { "@href": "#auAdmUnitS.1096" } }, "geometry": { "type": "Polygon", "coordinates": [ [ [ 18.32493412, 49.09678143 ], [ 18.32470176, 49.0967631 ], [ 18.32467629, 49.09690951 ], [ 18.32467939, 49.09691104 ], [ 18.3246789, 49.09691372 ], [ 18.32467722, 49.09692346 ], [ 18.32466125, 49.0970158 ], [ 18.32465969, 49.09702464 ], [ 18.32465811, 49.09703358 ], [ 18.32465524, 49.09704615 ], [ 18.32487992, 49.09706017 ], [ 18.32488279, 49.09706033 ], [ 18.32488681, 49.0970389 ], [ 18.32488823, 49.09703112 ], [ 18.32491393, 49.09689456 ], [ 18.32493412, 49.09678143 ] ], [ [ 18.32471856, 49.09680619 ], [ 18.32479835, 49.09681201 ], [ 18.32484087, 49.09681583 ], [ 18.32483595, 49.09683785 ], [ 18.32482126, 49.09692241 ], [ 18.32469954, 49.09691243 ], [ 18.32471856, 49.09680619 ] ] ] } },
{ "type": "Feature", "properties": { "@featureType": "CadastralParcel", "areaValue": { "value": 1103, "@uom": "m2" }, "beginLifespanVersion": { "@nilReason": "http://inspire.ec.europa.eu/codelist/VoidReasonValue/Unpopulated", "@nil": "true" }, "endLifespanVersion": { "@nilReason": "http://inspire.ec.europa.eu/codelist/VoidReasonValue/Unpopulated", "@nil": "true" }, "inspireId": { "@dataType": "Identifier", "localId": "812013_794/47.C", "namespace": "SK.ESKN.CP", "versionId": "20260703T06:07:55" }, "label": "794/47", "nationalCadastralReference": "812013_794/47.C", "referencePoint": { "type": "Point", "coordinates": [ 18.32754765, 49.09865972 ] }, "validFrom": "2026-06-30T16:00:00Z", "validTo": { "@nilReason": "http://inspire.ec.europa.eu/codelist/VoidReasonValue/Unpopulated", "@nil": "true" }, "administrativeUnit": { "@href": "#auAdmUnitS.1096" } }, "geometry": { "type": "Polygon", "coordinates": [ [ [ 18.32689621, 49.10001594 ], [ 18.32710015, 49.10005533 ], [ 18.32723161, 49.1000644 ], [ 18.32732959, 49.10004759 ], [ 18.32778451, 49.09740273 ], [ 18.32772237, 49.09740178 ], [ 18.32762074, 49.09740016 ], [ 18.32760743, 49.09739995 ], [ 18.32756182, 49.09739875 ], [ 18.3274551, 49.09739711 ], [ 18.32744592, 49.09745093 ], [ 18.32773404, 49.09745587 ], [ 18.32769659, 49.09767345 ], [ 18.32766087, 49.09788092 ], [ 18.32765799, 49.09789782 ], [ 18.32762529, 49.09808832 ], [ 18.32758322, 49.09833299 ], [ 18.32758202, 49.09834014 ], [ 18.32757272, 49.09839377 ], [ 18.32756468, 49.09844089 ], [ 18.32754792, 49.09853823 ], [ 18.32754575, 49.09855075 ], [ 18.32750825, 49.09876869 ], [ 18.3274707, 49.09898698 ], [ 18.32743316, 49.09920528 ], [ 18.32740835, 49.09934983 ], [ 18.32740534, 49.09936771 ], [ 18.32739264, 49.09944119 ], [ 18.32738612, 49.09947873 ], [ 18.3273831, 49.0994967 ], [ 18.32733283, 49.09978866 ], [ 18.32729197, 49.10002617 ], [ 18.32722841, 49.10003715 ], [ 18.32710812, 49.10002888 ], [ 18.32690057, 49.09998865 ], [ 18.32689621, 49.10001594 ] ] ] } },
{ "type": "Feature", "properties": { "@featureType": "CadastralParcel", "areaValue": { "value": 50, "@uom": "m2" }, "beginLifespanVersion": { "@nilReason": "http://inspire.ec.europa.eu/codelist/VoidReasonValue/Unpopulated", "@nil": "true" }, "endLifespanVersion": { "@nilReason": "http://inspire.ec.europa.eu/codelist/VoidReasonValue/Unpopulated", "@nil": "true" }, "inspireId": { "@dataType": "Identifier", "localId": "812013_794/60.C", "namespace": "SK.ESKN.CP", "versionId": "20260703T06:07:55" }, "label": "794/60", "nationalCadastralReference": "812013_794/60.C", "referencePoint": { "type": "Point", "coordinates": [ 18.3273944, 49.0974198 ] }, "validFrom": "2026-06-30T16:00:00Z", "validTo": { "@nilReason": "http://inspire.ec.europa.eu/codelist/VoidReasonValue/Unpopulated", "@nil": "true" }, "administrativeUnit": { "@href": "#auAdmUnitS.1096" } }, "geometry": { "type": "Polygon", "coordinates": [ [ [ 18.32733363, 49.09744248 ], [ 18.32744592, 49.09745093 ], [ 18.3274551, 49.09739711 ], [ 18.32734294, 49.09738876 ], [ 18.32733363, 49.09744248 ] ] ] } },
{ "type": "Feature", "properties": { "@featureType": "CadastralParcel", "areaValue": { "value": 139, "@uom": "m2" }, "beginLifespanVersion": { "@nilReason": "http://inspire.ec.europa.eu/codelist/VoidReasonValue/Unpopulated", "@nil": "true" }, "endLifespanVersion": { "@nilReason": "http://inspire.ec.europa.eu/codelist/VoidReasonValue/Unpopulated", "@nil": "true" }, "inspireId": { "@dataType": "Identifier", "localId": "812013_794/172.C", "namespace": "SK.ESKN.CP", "versionId": "20260703T06:07:55" }, "label": "794/172", "nationalCadastralReference": "812013_794/172.C", "referencePoint": { "type": "Point", "coordinates": [ 18.32696572, 49.09867 ] }, "validFrom": "2026-06-30T16:00:00Z", "validTo": { "@nilReason": "http://inspire.ec.europa.eu/codelist/VoidReasonValue/Unpopulated", "@nil": "true" }, "administrativeUnit": { "@href": "#auAdmUnitS.1096" } }, "geometry": { "type": "Polygon", "coordinates": [ [ [ 18.32689775, 49.09874625 ], [ 18.32700662, 49.0987546 ], [ 18.32701493, 49.09870543 ], [ 18.32702538, 49.09864292 ], [ 18.32703368, 49.09859375 ], [ 18.32692483, 49.09858531 ], [ 18.32691652, 49.09863448 ], [ 18.32690606, 49.09869708 ], [ 18.32689775, 49.09874625 ] ] ] } },
{ "type": "Feature", "properties": { "@featureType": "CadastralParcel", "areaValue": { "value": 52, "@uom": "m2" }, "beginLifespanVersion": { "@nilReason": "http://inspire.ec.europa.eu/codelist/VoidReasonValue/Unpopulated", "@nil": "true" }, "endLifespanVersion": { "@nilReason": "http://inspire.ec.europa.eu/codelist/VoidReasonValue/Unpopulated", "@nil": "true" }, "inspireId": { "@dataType": "Identifier", "localId": "812013_794/86.C", "namespace": "SK.ESKN.CP", "versionId": "20260703T06:07:55" }, "label": "794/86", "nationalCadastralReference": "812013_794/86.C", "referencePoint": { "type": "Point", "coordinates": [ 18.32707081, 49.09867809 ] }, "validFrom": "2026-06-30T16:00:00Z", "validTo": { "@nilReason": "http://inspire.ec.europa.eu/codelist/VoidReasonValue/Unpopulated", "@nil": "true" }, "administrativeUnit": { "@href": "#auAdmUnitS.1096" } }, "geometry": { "type": "Polygon", "coordinates": [ [ [ 18.32701493, 49.09870543 ], [ 18.32711617, 49.09871326 ], [ 18.32712676, 49.09865076 ], [ 18.32702538, 49.09864292 ], [ 18.32701493, 49.09870543 ] ] ] } },
{ "type": "Feature", "properties": { "@featureType": "CadastralParcel", "areaValue": { "value": 205, "@uom": "m2" }, "beginLifespanVersion": { "@nilReason": "http://inspire.ec.europa.eu/codelist/VoidReasonValue/Unpopulated", "@nil": "true" }, "endLifespanVersion": { "@nilReason": "http://inspire.ec.europa.eu/codelist/VoidReasonValue/Unpopulated", "@nil": "true" }, "inspireId": { "@dataType": "Identifier", "localId": "812013_794/125.C", "namespace": "SK.ESKN.CP", "versionId": "20260703T06:07:55" }, "label": "794/125", "nationalCadastralReference": "812013_794/125.C", "referencePoint": { "type": "Point", "coordinates": [ 18.32582128, 49.09857324 ] }, "validFrom": "2026-06-30T16:00:00Z", "validTo": { "@nilReason": "http://inspire.ec.europa.eu/codelist/VoidReasonValue/Unpopulated", "@nil": "true" }, "administrativeUnit": { "@href": "#auAdmUnitS.1096" } }, "geometry": { "type": "Polygon", "coordinates": [ [ [ 18.32557426, 49.09858245 ], [ 18.32605904, 49.09862042 ], [ 18.32606583, 49.09857766 ], [ 18.32606739, 49.09856881 ], [ 18.32599935, 49.09856356 ], [ 18.32596533, 49.09856093 ], [ 18.32593377, 49.09855844 ], [ 18.32576312, 49.09854528 ], [ 18.32559683, 49.09853245 ], [ 18.32558322, 49.09853142 ], [ 18.32557899, 49.09855555 ], [ 18.32557508, 49.09857825 ], [ 18.32557426, 49.09858245 ] ] ] } },
{ "type": "Feature", "properties": { "@featureType": "CadastralParcel", "areaValue": { "value": 84, "@uom": "m2" }, "beginLifespanVersion": { "@nilReason": "http://inspire.ec.europa.eu/codelist/VoidReasonValue/Unpopulated", "@nil": "true" }, "endLifespanVersion": { "@nilReason": "http://inspire.ec.europa.eu/codelist/VoidReasonValue/Unpopulated", "@nil": "true" }, "inspireId": { "@dataType": "Identifier", "localId": "812013_794/62.C", "namespace": "SK.ESKN.CP", "versionId": "20260703T06:07:55" }, "label": "794/62", "nationalCadastralReference": "812013_794/62.C", "referencePoint": { "type": "Point", "coordinates": [ 18.32570178, 49.09729296 ] }, "validFrom": "2026-06-30T16:00:00Z", "validTo": { "@nilReason": "http://inspire.ec.europa.eu/codelist/VoidReasonValue/Unpopulated", "@nil": "true" }, "administrativeUnit": { "@href": "#auAdmUnitS.1096" } }, "geometry": { "type": "Polygon", "coordinates": [ [ [ 18.32560211, 49.09731261 ], [ 18.32579212, 49.09732686 ], [ 18.32580141, 49.09727332 ], [ 18.32561153, 49.09725908 ], [ 18.32560211, 49.09731261 ] ] ] } },
{ "type": "Feature", "properties": { "@featureType": "CadastralParcel", "areaValue": { "value": 94, "@uom": "m2" }, "beginLifespanVersion": { "@nilReason": "http://inspire.ec.europa.eu/codelist/VoidReasonValue/Unpopulated", "@nil": "true" }, "endLifespanVersion": { "@nilReason": "http://inspire.ec.europa.eu/codelist/VoidReasonValue/Unpopulated", "@nil": "true" }, "inspireId": { "@dataType": "Identifier", "localId": "812013_794/58.C", "namespace": "SK.ESKN.CP", "versionId": "20260703T06:07:55" }, "label": "794/58", "nationalCadastralReference": "812013_794/58.C", "referencePoint": { "type": "Point", "coordinates": [ 18.32723136, 49.09740761 ] }, "validFrom": "2026-06-30T16:00:00Z", "validTo": { "@nilReason": "http://inspire.ec.europa.eu/codelist/VoidReasonValue/Unpopulated", "@nil": "true" }, "administrativeUnit": { "@href": "#auAdmUnitS.1096" } }, "geometry": { "type": "Polygon", "coordinates": [ [ [ 18.32712881, 49.0973728 ], [ 18.32711993, 49.09742646 ], [ 18.32733363, 49.09744248 ], [ 18.32734294, 49.09738876 ], [ 18.32728849, 49.09738472 ], [ 18.32714338, 49.09737389 ], [ 18.32712881, 49.0973728 ] ] ] } },
{ "type": "Feature", "properties": { "@featureType": "CadastralParcel", "areaValue": { "value": 95, "@uom": "m2" }, "beginLifespanVersion": { "@nilReason": "http://inspire.ec.europa.eu/codelist/VoidReasonValue/Unpopulated", "@nil": "true" }, "endLifespanVersion": { "@nilReason": "http://inspire.ec.europa.eu/codelist/VoidReasonValue/Unpopulated", "@nil": "true" }, "inspireId": { "@dataType": "Identifier", "localId": "812013_794/64.C", "namespace": "SK.ESKN.CP", "versionId": "20260703T06:07:55" }, "label": "794/64", "nationalCadastralReference": "812013_794/64.C", "referencePoint": { "type": "Point", "coordinates": [ 18.32701646, 49.09739155 ] }, "validFrom": "2026-06-30T16:00:00Z", "validTo": { "@nilReason": "http://inspire.ec.europa.eu/codelist/VoidReasonValue/Unpopulated", "@nil": "true" }, "administrativeUnit": { "@href": "#auAdmUnitS.1096" } }, "geometry": { "type": "Polygon", "coordinates": [ [ [ 18.32691334, 49.09735668 ], [ 18.3269039, 49.0974103 ], [ 18.32711993, 49.09742646 ], [ 18.32712881, 49.0973728 ], [ 18.32710431, 49.09737098 ], [ 18.32700182, 49.09736326 ], [ 18.32691334, 49.09735668 ] ] ] } },
{ "type": "Feature", "properties": { "@featureType": "CadastralParcel", "areaValue": { "value": 68, "@uom": "m2" }, "beginLifespanVersion": { "@nilReason": "http://inspire.ec.europa.eu/codelist/VoidReasonValue/Unpopulated", "@nil": "true" }, "endLifespanVersion": { "@nilReason": "http://inspire.ec.europa.eu/codelist/VoidReasonValue/Unpopulated", "@nil": "true" }, "inspireId": { "@dataType": "Identifier", "localId": "812013_794/82.C", "namespace": "SK.ESKN.CP", "versionId": "20260703T06:07:55" }, "label": "794/82", "nationalCadastralReference": "812013_794/82.C", "referencePoint": { "type": "Point", "coordinates": [ 18.32533516, 49.09726549 ] }, "validFrom": "2026-06-30T16:00:00Z", "validTo": { "@nilReason": "http://inspire.ec.europa.eu/codelist/VoidReasonValue/Unpopulated", "@nil": "true" }, "administrativeUnit": { "@href": "#auAdmUnitS.1096" } }, "geometry": { "type": "Polygon", "coordinates": [ [ [ 18.32525351, 49.0972865 ], [ 18.3254076, 49.09729802 ], [ 18.32541675, 49.09724447 ], [ 18.32526281, 49.09723287 ], [ 18.32525351, 49.0972865 ] ] ] } },
{ "type": "Feature", "properties": { "@featureType": "CadastralParcel", "areaValue": { "value": 2527, "@uom": "m2" }, "beginLifespanVersion": { "@nilReason": "http://inspire.ec.europa.eu/codelist/VoidReasonValue/Unpopulated", "@nil": "true" }, "endLifespanVersion": { "@nilReason": "http://inspire.ec.europa.eu/codelist/VoidReasonValue/Unpopulated", "@nil": "true" }, "inspireId": { "@dataType": "Identifier", "localId": "812013_794/13.C", "namespace": "SK.ESKN.CP", "versionId": "20260703T06:07:55" }, "label": "794/13", "nationalCadastralReference": "812013_794/13.C", "referencePoint": { "type": "Point", "coordinates": [ 18.32508599, 49.09768254 ] }, "validFrom": "2026-06-30T16:00:00Z", "validTo": { "@nilReason": "http://inspire.ec.europa.eu/codelist/VoidReasonValue/Unpopulated", "@nil": "true" }, "administrativeUnit": { "@href": "#auAdmUnitS.1096" } }, "geometry": { "type": "Polygon", "coordinates": [ [ [ 18.32510728, 49.09701017 ], [ 18.32510531, 49.09701584 ], [ 18.32503838, 49.09739477 ], [ 18.3249367, 49.09797031 ], [ 18.32484345, 49.09845345 ], [ 18.32484835, 49.09847502 ], [ 18.32504204, 49.09848957 ], [ 18.32507928, 49.0982801 ], [ 18.32513036, 49.09799252 ], [ 18.32525351, 49.0972865 ], [ 18.32526281, 49.09723287 ], [ 18.32531806, 49.09691638 ], [ 18.32512542, 49.09690117 ], [ 18.32510728, 49.09701017 ] ] ] } },
{ "type": "Feature", "properties": { "@featureType": "CadastralParcel", "areaValue": { "value": 75, "@uom": "m2" }, "beginLifespanVersion": { "@nilReason": "http://inspire.ec.europa.eu/codelist/VoidReasonValue/Unpopulated", "@nil": "true" }, "endLifespanVersion": { "@nilReason": "http://inspire.ec.europa.eu/codelist/VoidReasonValue/Unpopulated", "@nil": "true" }, "inspireId": { "@dataType": "Identifier", "localId": "812013_794/73.C", "namespace": "SK.ESKN.CP", "versionId": "20260703T06:07:55" }, "label": "794/73", "nationalCadastralReference": "812013_794/73.C", "referencePoint": { "type": "Point", "coordinates": [ 18.32637249, 49.09734323 ] }, "validFrom": "2026-06-30T16:00:00Z", "validTo": { "@nilReason": "http://inspire.ec.europa.eu/codelist/VoidReasonValue/Unpopulated", "@nil": "true" }, "administrativeUnit": { "@href": "#auAdmUnitS.1096" } }, "geometry": { "type": "Polygon", "coordinates": [ [ [ 18.32628281, 49.09736371 ], [ 18.32645269, 49.09737638 ], [ 18.32646185, 49.09732274 ], [ 18.32629279, 49.09731012 ], [ 18.32628281, 49.09736371 ] ] ] } },
{ "type": "Feature", "properties": { "@featureType": "CadastralParcel", "areaValue": { "value": 63, "@uom": "m2" }, "beginLifespanVersion": { "@nilReason": "http://inspire.ec.europa.eu/codelist/VoidReasonValue/Unpopulated", "@nil": "true" }, "endLifespanVersion": { "@nilReason": "http://inspire.ec.europa.eu/codelist/VoidReasonValue/Unpopulated", "@nil": "true" }, "inspireId": { "@dataType": "Identifier", "localId": "812013_794/75.C", "namespace": "SK.ESKN.CP", "versionId": "20260703T06:07:55" }, "label": "794/75", "nationalCadastralReference": "812013_794/75.C", "referencePoint": { "type": "Point", "coordinates": [ 18.32621598, 49.09733151 ] }, "validFrom": "2026-06-30T16:00:00Z", "validTo": { "@nilReason": "http://inspire.ec.europa.eu/codelist/VoidReasonValue/Unpopulated", "@nil": "true" }, "administrativeUnit": { "@href": "#auAdmUnitS.1096" } }, "geometry": { "type": "Polygon", "coordinates": [ [ [ 18.32613949, 49.09735289 ], [ 18.32628281, 49.09736371 ], [ 18.32629279, 49.09731012 ], [ 18.32614864, 49.09729934 ], [ 18.32613949, 49.09735289 ] ] ] } },
{ "type": "Feature", "properties": { "@featureType": "CadastralParcel", "areaValue": { "value": 86, "@uom": "m2" }, "beginLifespanVersion": { "@nilReason": "http://inspire.ec.europa.eu/codelist/VoidReasonValue/Unpopulated", "@nil": "true" }, "endLifespanVersion": { "@nilReason": "http://inspire.ec.europa.eu/codelist/VoidReasonValue/Unpopulated", "@nil": "true" }, "inspireId": { "@dataType": "Identifier", "localId": "812013_794/71.C", "namespace": "SK.ESKN.CP", "versionId": "20260703T06:07:55" }, "label": "794/71", "nationalCadastralReference": "812013_794/71.C", "referencePoint": { "type": "Point", "coordinates": [ 18.32681094, 49.09737613 ] }, "validFrom": "2026-06-30T16:00:00Z", "validTo": { "@nilReason": "http://inspire.ec.europa.eu/codelist/VoidReasonValue/Unpopulated", "@nil": "true" }, "administrativeUnit": { "@href": "#auAdmUnitS.1096" } }, "geometry": { "type": "Polygon", "coordinates": [ [ [ 18.32670859, 49.09739558 ], [ 18.3269039, 49.0974103 ], [ 18.32691334, 49.09735668 ], [ 18.32671789, 49.09734195 ], [ 18.32670859, 49.09739558 ] ] ] } },
{ "type": "Feature", "properties": { "@featureType": "CadastralParcel", "areaValue": { "value": 100, "@uom": "m2" }, "beginLifespanVersion": { "@nilReason": "http://inspire.ec.europa.eu/codelist/VoidReasonValue/Unpopulated", "@nil": "true" }, "endLifespanVersion": { "@nilReason": "http://inspire.ec.europa.eu/codelist/VoidReasonValue/Unpopulated", "@nil": "true" }, "inspireId": { "@dataType": "Identifier", "localId": "812013_794/68.C", "namespace": "SK.ESKN.CP", "versionId": "20260703T06:07:55" }, "label": "794/68", "nationalCadastralReference": "812013_794/68.C", "referencePoint": { "type": "Point", "coordinates": [ 18.32659185, 49.09864104 ] }, "validFrom": "2026-06-30T16:00:00Z", "validTo": { "@nilReason": "http://inspire.ec.europa.eu/codelist/VoidReasonValue/Unpopulated", "@nil": "true" }, "administrativeUnit": { "@href": "#auAdmUnitS.1096" } }, "geometry": { "type": "Polygon", "coordinates": [ [ [ 18.3264898, 49.09866484 ], [ 18.32652382, 49.09866747 ], [ 18.32667037, 49.09867883 ], [ 18.32668316, 49.09867982 ], [ 18.3266939, 49.09861724 ], [ 18.3266558, 49.09861429 ], [ 18.32652787, 49.09860452 ], [ 18.32651154, 49.09860324 ], [ 18.32650052, 49.09860235 ], [ 18.3264898, 49.09866484 ] ] ] } },
{ "type": "Feature", "properties": { "@featureType": "CadastralParcel", "areaValue": { "value": 57, "@uom": "m2" }, "beginLifespanVersion": { "@nilReason": "http://inspire.ec.europa.eu/codelist/VoidReasonValue/Unpopulated", "@nil": "true" }, "endLifespanVersion": { "@nilReason": "http://inspire.ec.europa.eu/codelist/VoidReasonValue/Unpopulated", "@nil": "true" }, "inspireId": { "@dataType": "Identifier", "localId": "812013_794/79.C", "namespace": "SK.ESKN.CP", "versionId": "20260703T06:07:55" }, "label": "794/79", "nationalCadastralReference": "812013_794/79.C", "referencePoint": { "type": "Point", "coordinates": [ 18.32664879, 49.09736394 ] }, "validFrom": "2026-06-30T16:00:00Z", "validTo": { "@nilReason": "http://inspire.ec.europa.eu/codelist/VoidReasonValue/Unpopulated", "@nil": "true" }, "administrativeUnit": { "@href": "#auAdmUnitS.1096" } }, "geometry": { "type": "Polygon", "coordinates": [ [ [ 18.32657968, 49.09738593 ], [ 18.32670859, 49.09739558 ], [ 18.32671789, 49.09734195 ], [ 18.32658898, 49.0973323 ], [ 18.32657968, 49.09738593 ] ] ] } },
{ "type": "Feature", "properties": { "@featureType": "CadastralParcel", "areaValue": { "value": 66, "@uom": "m2" }, "beginLifespanVersion": { "@nilReason": "http://inspire.ec.europa.eu/codelist/VoidReasonValue/Unpopulated", "@nil": "true" }, "endLifespanVersion": { "@nilReason": "http://inspire.ec.europa.eu/codelist/VoidReasonValue/Unpopulated", "@nil": "true" }, "inspireId": { "@dataType": "Identifier", "localId": "812013_794/78.C", "namespace": "SK.ESKN.CP", "versionId": "20260703T06:07:55" }, "label": "794/78", "nationalCadastralReference": "812013_794/78.C", "referencePoint": { "type": "Point", "coordinates": [ 18.32642996, 49.09863283 ] }, "validFrom": "2026-06-30T16:00:00Z", "validTo": { "@nilReason": "http://inspire.ec.europa.eu/codelist/VoidReasonValue/Unpopulated", "@nil": "true" }, "administrativeUnit": { "@href": "#auAdmUnitS.1096" } }, "geometry": { "type": "Polygon", "coordinates": [ [ [ 18.32636079, 49.09865491 ], [ 18.3264898, 49.09866484 ], [ 18.32650052, 49.09860235 ], [ 18.32637166, 49.09859234 ], [ 18.32636845, 49.09861075 ], [ 18.32636079, 49.09865491 ] ] ] } },
{ "type": "Feature", "properties": { "@featureType": "CadastralParcel", "areaValue": { "value": 58, "@uom": "m2" }, "beginLifespanVersion": { "@nilReason": "http://inspire.ec.europa.eu/codelist/VoidReasonValue/Unpopulated", "@nil": "true" }, "endLifespanVersion": { "@nilReason": "http://inspire.ec.europa.eu/codelist/VoidReasonValue/Unpopulated", "@nil": "true" }, "inspireId": { "@dataType": "Identifier", "localId": "812013_794/88.C", "namespace": "SK.ESKN.CP", "versionId": "20260703T06:07:55" }, "label": "794/88", "nationalCadastralReference": "812013_794/88.C", "referencePoint": { "type": "Point", "coordinates": [ 18.32717787, 49.09868634 ] }, "validFrom": "2026-06-30T16:00:00Z", "validTo": { "@nilReason": "http://inspire.ec.europa.eu/codelist/VoidReasonValue/Unpopulated", "@nil": "true" }, "administrativeUnit": { "@href": "#auAdmUnitS.1096" } }, "geometry": { "type": "Polygon", "coordinates": [ [ [ 18.32711617, 49.09871326 ], [ 18.32722897, 49.09872201 ], [ 18.32723957, 49.09865942 ], [ 18.32712676, 49.09865076 ], [ 18.32711617, 49.09871326 ] ] ] } },
{ "type": "Feature", "properties": { "@featureType": "CadastralParcel", "areaValue": { "value": 86, "@uom": "m2" }, "beginLifespanVersion": { "@nilReason": "http://inspire.ec.europa.eu/codelist/VoidReasonValue/Unpopulated", "@nil": "true" }, "endLifespanVersion": { "@nilReason": "http://inspire.ec.europa.eu/codelist/VoidReasonValue/Unpopulated", "@nil": "true" }, "inspireId": { "@dataType": "Identifier", "localId": "812013_761/3.C", "namespace": "SK.ESKN.CP", "versionId": "20260703T06:07:55" }, "label": "761/3", "nationalCadastralReference": "812013_761/3.C", "referencePoint": { "type": "Point", "coordinates": [ 18.32550951, 49.09727855 ] }, "validFrom": "2026-06-30T16:00:00Z", "validTo": { "@nilReason": "http://inspire.ec.europa.eu/codelist/VoidReasonValue/Unpopulated", "@nil": "true" }, "administrativeUnit": { "@href": "#auAdmUnitS.1096" } }, "geometry": { "type": "Polygon", "coordinates": [ [ [ 18.3254076, 49.09729802 ], [ 18.32560211, 49.09731261 ], [ 18.32561153, 49.09725908 ], [ 18.32541675, 49.09724447 ], [ 18.3254076, 49.09729802 ] ] ] } },
{ "type": "Feature", "properties": { "@featureType": "CadastralParcel", "areaValue": { "value": 86, "@uom": "m2" }, "beginLifespanVersion": { "@nilReason": "http://inspire.ec.europa.eu/codelist/VoidReasonValue/Unpopulated", "@nil": "true" }, "endLifespanVersion": { "@nilReason": "http://inspire.ec.europa.eu/codelist/VoidReasonValue/Unpopulated", "@nil": "true" }, "inspireId": { "@dataType": "Identifier", "localId": "812013_794/84.C", "namespace": "SK.ESKN.CP", "versionId": "20260703T06:07:55" }, "label": "794/84", "nationalCadastralReference": "812013_794/84.C", "referencePoint": { "type": "Point", "coordinates": [ 18.32615347, 49.09861136 ] }, "validFrom": "2026-06-30T16:00:00Z", "validTo": { "@nilReason": "http://inspire.ec.europa.eu/codelist/VoidReasonValue/Unpopulated", "@nil": "true" }, "administrativeUnit": { "@href": "#auAdmUnitS.1096" } }, "geometry": { "type": "Polygon", "coordinates": [ [ [ 18.32605734, 49.09863143 ], [ 18.3262405, 49.09864556 ], [ 18.32624804, 49.0986023 ], [ 18.32625086, 49.09858594 ], [ 18.32606583, 49.09857766 ], [ 18.32605904, 49.09862042 ], [ 18.32605734, 49.09863143 ] ] ] } },
{ "type": "Feature", "properties": { "@featureType": "CadastralParcel", "areaValue": { "value": 673, "@uom": "m2" }, "beginLifespanVersion": { "@nilReason": "http://inspire.ec.europa.eu/codelist/VoidReasonValue/Unpopulated", "@nil": "true" }, "endLifespanVersion": { "@nilReason": "http://inspire.ec.europa.eu/codelist/VoidReasonValue/Unpopulated", "@nil": "true" }, "inspireId": { "@dataType": "Identifier", "localId": "812013_739/1.C", "namespace": "SK.ESKN.CP", "versionId": "20260703T06:07:55" }, "label": "739/1", "nationalCadastralReference": "812013_739/1.C", "referencePoint": { "type": "Point", "coordinates": [ 18.3247281, 49.09727773 ] }, "validFrom": "2026-06-30T16:00:00Z", "validTo": { "@nilReason": "http://inspire.ec.europa.eu/codelist/VoidReasonValue/Unpopulated", "@nil": "true" }, "administrativeUnit": { "@href": "#auAdmUnitS.1096" } }, "geometry": { "type": "Polygon", "coordinates": [ [ [ 18.32488279, 49.09706033 ], [ 18.32487992, 49.09706017 ], [ 18.32465524, 49.09704615 ], [ 18.32465139, 49.097061 ], [ 18.3246485, 49.09707691 ], [ 18.32463626, 49.09714472 ], [ 18.32472172, 49.09714915 ], [ 18.32473383, 49.09713529 ], [ 18.32475539, 49.09713118 ], [ 18.32477617, 49.09713947 ], [ 18.32478384, 49.09715236 ], [ 18.32477951, 49.09717621 ], [ 18.32479175, 49.09717717 ], [ 18.32477436, 49.09727403 ], [ 18.3247411, 49.09727189 ], [ 18.32468758, 49.09726917 ], [ 18.32461492, 49.09726357 ], [ 18.32461163, 49.09728143 ], [ 18.32460523, 49.09731808 ], [ 18.32459693, 49.097364 ], [ 18.32459578, 49.09737071 ], [ 18.32457446, 49.09748937 ], [ 18.32457854, 49.09748969 ], [ 18.32462053, 49.09749339 ], [ 18.32466747, 49.09749602 ], [ 18.32480392, 49.09750682 ], [ 18.32482631, 49.09737883 ], [ 18.32483131, 49.09734987 ], [ 18.32487169, 49.09711828 ], [ 18.32488279, 49.09706033 ] ] ] } },
{ "type": "Feature", "properties": { "@featureType": "CadastralParcel", "areaValue": { "value": 1744, "@uom": "m2" }, "beginLifespanVersion": { "@nilReason": "http://inspire.ec.europa.eu/codelist/VoidReasonValue/Unpopulated", "@nil": "true" }, "endLifespanVersion": { "@nilReason": "http://inspire.ec.europa.eu/codelist/VoidReasonValue/Unpopulated", "@nil": "true" }, "inspireId": { "@dataType": "Identifier", "localId": "812013_744.C", "namespace": "SK.ESKN.CP", "versionId": "20260703T06:07:55" }, "label": "744", "nationalCadastralReference": "812013_744.C", "referencePoint": { "type": "Point", "coordinates": [ 18.32503012, 49.096838 ] }, "validFrom": "2026-06-30T16:00:00Z", "validTo": { "@nilReason": "http://inspire.ec.europa.eu/codelist/VoidReasonValue/Unpopulated", "@nil": "true" }, "administrativeUnit": { "@href": "#auAdmUnitS.1096" } }, "geometry": { "type": "Polygon", "coordinates": [ [ [ 18.32503838, 49.09739477 ], [ 18.32510531, 49.09701584 ], [ 18.32510728, 49.09701017 ], [ 18.32512542, 49.09690117 ], [ 18.3252121, 49.09639348 ], [ 18.32500315, 49.09637681 ], [ 18.32499746, 49.09641115 ], [ 18.32499524, 49.09642402 ], [ 18.32499451, 49.09642859 ], [ 18.32497008, 49.09653841 ], [ 18.32497202, 49.09654781 ], [ 18.32496886, 49.09656686 ], [ 18.32493412, 49.09678143 ], [ 18.32491393, 49.09689456 ], [ 18.32488823, 49.09703112 ], [ 18.32488681, 49.0970389 ], [ 18.32488279, 49.09706033 ], [ 18.32487169, 49.09711828 ], [ 18.32483131, 49.09734987 ], [ 18.32482631, 49.09737883 ], [ 18.32503838, 49.09739477 ] ] ] } },
{ "type": "Feature", "properties": { "@featureType": "CadastralParcel", "areaValue": { "value": 115, "@uom": "m2" }, "beginLifespanVersion": { "@nilReason": "http://inspire.ec.europa.eu/codelist/VoidReasonValue/Unpopulated", "@nil": "true" }, "endLifespanVersion": { "@nilReason": "http://inspire.ec.europa.eu/codelist/VoidReasonValue/Unpopulated", "@nil": "true" }, "inspireId": { "@dataType": "Identifier", "localId": "812013_794/92.C", "namespace": "SK.ESKN.CP", "versionId": "20260703T06:07:55" }, "label": "794/92", "nationalCadastralReference": "812013_794/92.C", "referencePoint": { "type": "Point", "coordinates": [ 18.32679989, 49.09865715 ] }, "validFrom": "2026-06-30T16:00:00Z", "validTo": { "@nilReason": "http://inspire.ec.europa.eu/codelist/VoidReasonValue/Unpopulated", "@nil": "true" }, "administrativeUnit": { "@href": "#auAdmUnitS.1096" } }, "geometry": { "type": "Polygon", "coordinates": [ [ [ 18.32668316, 49.09867982 ], [ 18.32671038, 49.09868188 ], [ 18.32681243, 49.09868985 ], [ 18.32690606, 49.09869708 ], [ 18.32691652, 49.09863448 ], [ 18.32689584, 49.09863287 ], [ 18.32682576, 49.09862742 ], [ 18.32677391, 49.09862343 ], [ 18.32675622, 49.09862208 ], [ 18.3266939, 49.09861724 ], [ 18.32668316, 49.09867982 ] ] ] } },
{ "type": "Feature", "properties": { "@featureType": "CadastralParcel", "areaValue": { "value": 84, "@uom": "m2" }, "beginLifespanVersion": { "@nilReason": "http://inspire.ec.europa.eu/codelist/VoidReasonValue/Unpopulated", "@nil": "true" }, "endLifespanVersion": { "@nilReason": "http://inspire.ec.europa.eu/codelist/VoidReasonValue/Unpopulated", "@nil": "true" }, "inspireId": { "@dataType": "Identifier", "localId": "812013_794/91.C", "namespace": "SK.ESKN.CP", "versionId": "20260703T06:07:55" }, "label": "794/91", "nationalCadastralReference": "812013_794/91.C", "referencePoint": { "type": "Point", "coordinates": [ 18.32589148, 49.09730716 ] }, "validFrom": "2026-06-30T16:00:00Z", "validTo": { "@nilReason": "http://inspire.ec.europa.eu/codelist/VoidReasonValue/Unpopulated", "@nil": "true" }, "administrativeUnit": { "@href": "#auAdmUnitS.1096" } }, "geometry": { "type": "Polygon", "coordinates": [ [ [ 18.32579212, 49.09732686 ], [ 18.32598118, 49.09734105 ], [ 18.32599103, 49.09728745 ], [ 18.32580141, 49.09727332 ], [ 18.32579212, 49.09732686 ] ] ] } },
{ "type": "Feature", "properties": { "@featureType": "CadastralParcel", "areaValue": { "value": 2029, "@uom": "m2" }, "beginLifespanVersion": { "@nilReason": "http://inspire.ec.europa.eu/codelist/VoidReasonValue/Unpopulated", "@nil": "true" }, "endLifespanVersion": { "@nilReason": "http://inspire.ec.europa.eu/codelist/VoidReasonValue/Unpopulated", "@nil": "true" }, "inspireId": { "@dataType": "Identifier", "localId": "812013_794/19.C", "namespace": "SK.ESKN.CP", "versionId": "20260703T06:07:55" }, "label": "794/19", "nationalCadastralReference": "812013_794/19.C", "referencePoint": { "type": "Point", "coordinates": [ 18.3259763, 49.09782069 ] }, "validFrom": "2026-06-30T16:00:00Z", "validTo": { "@nilReason": "http://inspire.ec.europa.eu/codelist/VoidReasonValue/Unpopulated", "@nil": "true" }, "administrativeUnit": { "@href": "#auAdmUnitS.1096" } }, "geometry": { "type": "Polygon", "coordinates": [ [ [ 18.3261917, 49.09704706 ], [ 18.32603593, 49.09704321 ], [ 18.32599103, 49.09728745 ], [ 18.32598118, 49.09734105 ], [ 18.32588529, 49.09786267 ], [ 18.32585111, 49.09804758 ], [ 18.32578127, 49.09844259 ], [ 18.32576312, 49.09854528 ], [ 18.32593377, 49.09855844 ], [ 18.32606675, 49.0977787 ], [ 18.32613949, 49.09735289 ], [ 18.32614864, 49.09729934 ], [ 18.3261917, 49.09704706 ] ] ] } },
{ "type": "Feature", "properties": { "@featureType": "CadastralParcel", "areaValue": { "value": 884, "@uom": "m2" }, "beginLifespanVersion": { "@nilReason": "http://inspire.ec.europa.eu/codelist/VoidReasonValue/Unpopulated", "@nil": "true" }, "endLifespanVersion": { "@nilReason": "http://inspire.ec.europa.eu/codelist/VoidReasonValue/Unpopulated", "@nil": "true" }, "inspireId": { "@dataType": "Identifier", "localId": "812013_794/97.C", "namespace": "SK.ESKN.CP", "versionId": "20260703T06:07:55" }, "label": "794/97", "nationalCadastralReference": "812013_794/97.C", "referencePoint": { "type": "Point", "coordinates": [ 18.32759014, 49.09865299 ] }, "validFrom": "2026-06-30T16:00:00Z", "validTo": { "@nilReason": "http://inspire.ec.europa.eu/codelist/VoidReasonValue/Unpopulated", "@nil": "true" }, "administrativeUnit": { "@href": "#auAdmUnitS.1096" } }, "geometry": { "type": "Polygon", "coordinates": [ [ [ 18.32732959, 49.10004759 ], [ 18.32737425, 49.10002861 ], [ 18.32741583, 49.09978671 ], [ 18.32747048, 49.09946838 ], [ 18.32747922, 49.09941797 ], [ 18.32750599, 49.09926261 ], [ 18.32752803, 49.09913406 ], [ 18.32755025, 49.09900524 ], [ 18.32757234, 49.09887634 ], [ 18.32759466, 49.09874681 ], [ 18.32762698, 49.09855918 ], [ 18.32765777, 49.09838021 ], [ 18.32768854, 49.09820143 ], [ 18.3277193, 49.09802264 ], [ 18.32775008, 49.09784377 ], [ 18.32778071, 49.09766498 ], [ 18.32781147, 49.09748619 ], [ 18.32782535, 49.09740574 ], [ 18.32778451, 49.09740273 ], [ 18.32732959, 49.10004759 ] ] ] } },
{ "type": "Feature", "properties": { "@featureType": "CadastralParcel", "areaValue": { "value": 509, "@uom": "m2" }, "beginLifespanVersion": { "@nilReason": "http://inspire.ec.europa.eu/codelist/VoidReasonValue/Unpopulated", "@nil": "true" }, "endLifespanVersion": { "@nilReason": "http://inspire.ec.europa.eu/codelist/VoidReasonValue/Unpopulated", "@nil": "true" }, "inspireId": { "@dataType": "Identifier", "localId": "812013_794/52.C", "namespace": "SK.ESKN.CP", "versionId": "20260703T06:07:55" }, "label": "794/52", "nationalCadastralReference": "812013_794/52.C", "referencePoint": { "type": "Point", "coordinates": [ 18.32739263, 49.09860509 ] }, "validFrom": "2026-06-30T16:00:00Z", "validTo": { "@nilReason": "http://inspire.ec.europa.eu/codelist/VoidReasonValue/Unpopulated", "@nil": "true" }, "administrativeUnit": { "@href": "#auAdmUnitS.1096" } }, "geometry": { "type": "Polygon", "coordinates": [ [ [ 18.32750825, 49.09876869 ], [ 18.32754575, 49.09855075 ], [ 18.32726177, 49.09852971 ], [ 18.32723957, 49.09865942 ], [ 18.32722897, 49.09872201 ], [ 18.32722454, 49.09874766 ], [ 18.32750825, 49.09876869 ] ] ] } },
{ "type": "Feature", "properties": { "@featureType": "CadastralParcel", "areaValue": { "value": 509, "@uom": "m2" }, "beginLifespanVersion": { "@nilReason": "http://inspire.ec.europa.eu/codelist/VoidReasonValue/Unpopulated", "@nil": "true" }, "endLifespanVersion": { "@nilReason": "http://inspire.ec.europa.eu/codelist/VoidReasonValue/Unpopulated", "@nil": "true" }, "inspireId": { "@dataType": "Identifier", "localId": "812013_794/101.C", "namespace": "SK.ESKN.CP", "versionId": "20260703T06:07:55" }, "label": "794/101", "nationalCadastralReference": "812013_794/101.C", "referencePoint": { "type": "Point", "coordinates": [ 18.3273477, 49.09886733 ] }, "validFrom": "2026-06-30T16:00:00Z", "validTo": { "@nilReason": "http://inspire.ec.europa.eu/codelist/VoidReasonValue/Unpopulated", "@nil": "true" }, "administrativeUnit": { "@href": "#auAdmUnitS.1096" } }, "geometry": { "type": "Polygon", "coordinates": [ [ [ 18.3274707, 49.09898698 ], [ 18.32750825, 49.09876869 ], [ 18.32722454, 49.09874766 ], [ 18.32718727, 49.09896598 ], [ 18.3274707, 49.09898698 ] ] ] } },
{ "type": "Feature", "properties": { "@featureType": "CadastralParcel", "areaValue": { "value": 56, "@uom": "m2" }, "beginLifespanVersion": { "@nilReason": "http://inspire.ec.europa.eu/codelist/VoidReasonValue/Unpopulated", "@nil": "true" }, "endLifespanVersion": { "@nilReason": "http://inspire.ec.europa.eu/codelist/VoidReasonValue/Unpopulated", "@nil": "true" }, "inspireId": { "@dataType": "Identifier", "localId": "812013_781/8.C", "namespace": "SK.ESKN.CP", "versionId": "20260703T06:07:55" }, "label": "781/8", "nationalCadastralReference": "812013_781/8.C", "referencePoint": { "type": "Point", "coordinates": [ 18.32652081, 49.09735434 ] }, "validFrom": "2026-06-30T16:00:00Z", "validTo": { "@nilReason": "http://inspire.ec.europa.eu/codelist/VoidReasonValue/Unpopulated", "@nil": "true" }, "administrativeUnit": { "@href": "#auAdmUnitS.1096" } }, "geometry": { "type": "Polygon", "coordinates": [ [ [ 18.32645269, 49.09737638 ], [ 18.32657968, 49.09738593 ], [ 18.32658898, 49.0973323 ], [ 18.32646185, 49.09732274 ], [ 18.32645269, 49.09737638 ] ] ] } },
{ "type": "Feature", "properties": { "@featureType": "CadastralParcel", "areaValue": { "value": 19, "@uom": "m2" }, "beginLifespanVersion": { "@nilReason": "http://inspire.ec.europa.eu/codelist/VoidReasonValue/Unpopulated", "@nil": "true" }, "endLifespanVersion": { "@nilReason": "http://inspire.ec.europa.eu/codelist/VoidReasonValue/Unpopulated", "@nil": "true" }, "inspireId": { "@dataType": "Identifier", "localId": "812013_781/6.C", "namespace": "SK.ESKN.CP", "versionId": "20260703T06:07:55" }, "label": "781/6", "nationalCadastralReference": "812013_781/6.C", "referencePoint": { "type": "Point", "coordinates": [ 18.32630985, 49.09859732 ] }, "validFrom": "2026-06-30T16:00:00Z", "validTo": { "@nilReason": "http://inspire.ec.europa.eu/codelist/VoidReasonValue/Unpopulated", "@nil": "true" }, "administrativeUnit": { "@href": "#auAdmUnitS.1096" } }, "geometry": { "type": "Polygon", "coordinates": [ [ [ 18.32624804, 49.0986023 ], [ 18.32636845, 49.09861075 ], [ 18.32637166, 49.09859234 ], [ 18.32625136, 49.09858308 ], [ 18.32625086, 49.09858594 ], [ 18.32624804, 49.0986023 ] ] ] } },
{ "type": "Feature", "properties": { "@featureType": "CadastralParcel", "areaValue": { "value": 43, "@uom": "m2" }, "beginLifespanVersion": { "@nilReason": "http://inspire.ec.europa.eu/codelist/VoidReasonValue/Unpopulated", "@nil": "true" }, "endLifespanVersion": { "@nilReason": "http://inspire.ec.europa.eu/codelist/VoidReasonValue/Unpopulated", "@nil": "true" }, "inspireId": { "@dataType": "Identifier", "localId": "812013_781/5.C", "namespace": "SK.ESKN.CP", "versionId": "20260703T06:07:55" }, "label": "781/5", "nationalCadastralReference": "812013_781/5.C", "referencePoint": { "type": "Point", "coordinates": [ 18.32630448, 49.09862816 ] }, "validFrom": "2026-06-30T16:00:00Z", "validTo": { "@nilReason": "http://inspire.ec.europa.eu/codelist/VoidReasonValue/Unpopulated", "@nil": "true" }, "administrativeUnit": { "@href": "#auAdmUnitS.1096" } }, "geometry": { "type": "Polygon", "coordinates": [ [ [ 18.3262405, 49.09864556 ], [ 18.32636079, 49.09865491 ], [ 18.32636845, 49.09861075 ], [ 18.32624804, 49.0986023 ], [ 18.3262405, 49.09864556 ] ] ] } },
{ "type": "Feature", "properties": { "@featureType": "CadastralParcel", "areaValue": { "value": 2025, "@uom": "m2" }, "beginLifespanVersion": { "@nilReason": "http://inspire.ec.europa.eu/codelist/VoidReasonValue/Unpopulated", "@nil": "true" }, "endLifespanVersion": { "@nilReason": "http://inspire.ec.europa.eu/codelist/VoidReasonValue/Unpopulated", "@nil": "true" }, "inspireId": { "@dataType": "Identifier", "localId": "812013_388/12.E", "namespace": "SK.ESKN.CP", "versionId": "20260703T06:07:55" }, "label": "388/12", "nationalCadastralReference": "812013_388/12.E", "referencePoint": { "type": "Point", "coordinates": [ 18.3260406, 49.09745808 ] }, "validFrom": "2026-06-30T16:00:00Z", "validTo": { "@nilReason": "http://inspire.ec.europa.eu/codelist/VoidReasonValue/Unpopulated", "@nil": "true" }, "administrativeUnit": { "@href": "#auAdmUnitS.1096" } }, "geometry": { "type": "Polygon", "coordinates": [ [ [ 18.32593377, 49.09855844 ], [ 18.32602174, 49.09804288 ], [ 18.32619059, 49.0970535 ], [ 18.3261917, 49.09704706 ], [ 18.32603593, 49.09704321 ], [ 18.32588529, 49.09786267 ], [ 18.32585111, 49.09804758 ], [ 18.32576312, 49.09854528 ], [ 18.32593377, 49.09855844 ] ] ] } },
{ "type": "Feature", "properties": { "@featureType": "CadastralParcel", "areaValue": { "value": 2511, "@uom": "m2" }, "beginLifespanVersion": { "@nilReason": "http://inspire.ec.europa.eu/codelist/VoidReasonValue/Unpopulated", "@nil": "true" }, "endLifespanVersion": { "@nilReason": "http://inspire.ec.europa.eu/codelist/VoidReasonValue/Unpopulated", "@nil": "true" }, "inspireId": { "@dataType": "Identifier", "localId": "812013_382/2.E", "namespace": "SK.ESKN.CP", "versionId": "20260703T06:07:55" }, "label": "382/2", "nationalCadastralReference": "812013_382/2.E", "referencePoint": { "type": "Point", "coordinates": [ 18.32511924, 49.09749307 ] }, "validFrom": "2026-06-30T16:00:00Z", "validTo": { "@nilReason": "http://inspire.ec.europa.eu/codelist/VoidReasonValue/Unpopulated", "@nil": "true" }, "administrativeUnit": { "@href": "#auAdmUnitS.1096" } }, "geometry": { "type": "Polygon", "coordinates": [ [ [ 18.3249367, 49.09797031 ], [ 18.32484835, 49.09847502 ], [ 18.32504204, 49.09848957 ], [ 18.32513036, 49.09799252 ], [ 18.32531806, 49.09691638 ], [ 18.32512542, 49.09690117 ], [ 18.32510728, 49.09701017 ], [ 18.32510531, 49.09701584 ], [ 18.3249367, 49.09797031 ] ] ] } }
]
}
