{
"type": "FeatureCollection",
"name": "gis",
"crs": { "type": "name", "properties": { "name": "urn:ogc:def:crs:OGC:1.3:CRS84" } },
"features": [
{ "type": "Feature", "properties": { "@featureType": "CadastralParcel", "areaValue": { "value": 1525, "@uom": "m2" }, "beginLifespanVersion": { "@nilReason": "http://inspire.ec.europa.eu/codelist/VoidReasonValue/Unpopulated", "@nil": "true" }, "endLifespanVersion": { "@nilReason": "http://inspire.ec.europa.eu/codelist/VoidReasonValue/Unpopulated", "@nil": "true" }, "inspireId": { "@dataType": "Identifier", "localId": "861375_2350/1.C", "namespace": "SK.ESKN.CP", "versionId": "20260703T06:07:14" }, "label": "2350/1", "nationalCadastralReference": "861375_2350/1.C", "referencePoint": { "type": "Point", "coordinates": [ 20.05845489, 49.08809032 ] }, "validFrom": "2026-06-30T16:00:00Z", "validTo": { "@nilReason": "http://inspire.ec.europa.eu/codelist/VoidReasonValue/Unpopulated", "@nil": "true" }, "administrativeUnit": { "@href": "#auAdmUnitS.1169" } }, "geometry": { "type": "Polygon", "coordinates": [ [ [ 20.05866121, 49.08789786 ], [ 20.05813775, 49.08800011 ], [ 20.05779445, 49.08806875 ], [ 20.05788227, 49.08827787 ], [ 20.05858888, 49.0881379 ], [ 20.05873702, 49.08806585 ], [ 20.05866121, 49.08789786 ] ], [ [ 20.05813205, 49.08809908 ], [ 20.05821904, 49.08808156 ], [ 20.05824304, 49.08813363 ], [ 20.05815605, 49.08815115 ], [ 20.05813205, 49.08809908 ] ], [ [ 20.05838922, 49.08804475 ], [ 20.05841819, 49.08803864 ], [ 20.05842157, 49.08804644 ], [ 20.0584326, 49.08804436 ], [ 20.05843792, 49.0880563 ], [ 20.05839783, 49.08806384 ], [ 20.05838922, 49.08804475 ] ] ] } },
{ "type": "Feature", "properties": { "@featureType": "CadastralParcel", "areaValue": { "value": 167, "@uom": "m2" }, "beginLifespanVersion": { "@nilReason": "http://inspire.ec.europa.eu/codelist/VoidReasonValue/Unpopulated", "@nil": "true" }, "endLifespanVersion": { "@nilReason": "http://inspire.ec.europa.eu/codelist/VoidReasonValue/Unpopulated", "@nil": "true" }, "inspireId": { "@dataType": "Identifier", "localId": "861375_2350/4.C", "namespace": "SK.ESKN.CP", "versionId": "20260703T06:07:14" }, "label": "2350/4", "nationalCadastralReference": "861375_2350/4.C", "referencePoint": { "type": "Point", "coordinates": [ 20.05817667, 49.08823552 ] }, "validFrom": "2026-06-30T16:00:00Z", "validTo": { "@nilReason": "http://inspire.ec.europa.eu/codelist/VoidReasonValue/Unpopulated", "@nil": "true" }, "administrativeUnit": { "@href": "#auAdmUnitS.1169" } }, "geometry": { "type": "Polygon", "coordinates": [ [ [ 20.05858888, 49.0881379 ], [ 20.05788227, 49.08827787 ], [ 20.05789491, 49.08830794 ], [ 20.05846922, 49.08819318 ], [ 20.05858888, 49.0881379 ] ] ] } }
]
}
