{
"type": "FeatureCollection",
"name": "gis",
"crs": { "type": "name", "properties": { "name": "urn:ogc:def:crs:OGC:1.3:CRS84" } },
"features": [
{ "type": "Feature", "properties": { "@featureType": "CadastralZoning", "beginLifespanVersion": { "@nilReason": "http://inspire.ec.europa.eu/codelist/VoidReasonValue/Unpopulated", "@nil": "true" }, "endLifespanVersion": { "@nilReason": "http://inspire.ec.europa.eu/codelist/VoidReasonValue/Unpopulated", "@nil": "true" }, "estimatedAccuracy": { "value": -1, "@uom": "m" }, "inspireId": { "@dataType": "Identifier", "localId": "800252", "namespace": "SK.ESKN.CP", "versionId": "20260703T04:07:40" }, "label": "Ardovo", "level": { "@href": "http://inspire.ec.europa.eu/codelist/CadastralZoningLevelValue/3rdOrder" }, "levelName": { "value": "Katastrálne územie", "@locale": "sk" }, "name": { "@dataType": "name", "GeographicalName": { "@dataType": "GeographicalName", "language": "SLK", "nativeness": { "@href": "http://inspire.ec.europa.eu/codelist/NativenessValue/endonym", "@title": "endonym" }, "nameStatus": { "@href": "http://inspire.ec.europa.eu/codelist/NameStatusValue/official", "@title": "official" }, "sourceOfName": { "@nilReason": "http://inspire.ec.europa.eu/codelist/VoidReasonValue/Unpopulated", "@nil": "true" }, "pronunciation": { "@dataType": "pronunciation", "@nilReason": "http://inspire.ec.europa.eu/codelist/VoidReasonValue/Unpopulated", "@nil": "true" }, "spelling": { "@dataType": "SpellingOfName", "text": "Ardovo", "script": "LATN" } } }, "nationalCadastalZoningReference": "800252", "validFrom": "2026-06-30T16:00:00Z", "validTo": { "@nilReason": "http://inspire.ec.europa.eu/codelist/VoidReasonValue/Unpopulated", "@nil": "true" } }, "geometry": { "type": "MultiPolygon", "coordinates": [ [ [ [ 20.45577229, 48.5391965 ], [ 20.45681498, 48.53917078 ], [ 20.45759985, 48.53917905 ], [ 20.45795933, 48.53917441 ], [ 20.45837576, 48.53914166 ], [ 20.45895873, 48.53904803 ], [ 20.4591707, 48.53901401 ], [ 20.45967937, 48.53885206 ], [ 20.45983399, 48.53880199 ], [ 20.46020559, 48.53868159 ], [ 20.46107262, 48.53841901 ], [ 20.46147547, 48.53824764 ], [ 20.46177469, 48.53805874 ], [ 20.46196015, 48.53787867 ], [ 20.46207262, 48.53767664 ], [ 20.46220918, 48.53739319 ], [ 20.46240028, 48.53718217 ], [ 20.46268019, 48.53711982 ], [ 20.46293402, 48.53716998 ], [ 20.46317353, 48.53727626 ], [ 20.46357164, 48.53752575 ], [ 20.46381832, 48.5376923 ], [ 20.46389819, 48.53774622 ], [ 20.4639346, 48.53777085 ], [ 20.46421419, 48.53778964 ], [ 20.46442169, 48.53689857 ], [ 20.464639, 48.53657503 ], [ 20.46460122, 48.53622552 ], [ 20.46470747, 48.53590308 ], [ 20.46473483, 48.53550902 ], [ 20.46485791, 48.53506498 ], [ 20.46495861, 48.53470134 ], [ 20.46514147, 48.53386149 ], [ 20.46533017, 48.5332677 ], [ 20.46548748, 48.53298558 ], [ 20.4654959, 48.53284654 ], [ 20.46568371, 48.53264818 ], [ 20.46617025, 48.5322834 ], [ 20.46629741, 48.5321358 ], [ 20.46640342, 48.53193587 ], [ 20.46618325, 48.53155431 ], [ 20.4662631, 48.53127213 ], [ 20.46610784, 48.53086754 ], [ 20.46589126, 48.53066205 ], [ 20.46484025, 48.5298366 ], [ 20.4641, 48.52815425 ], [ 20.46387488, 48.52633783 ], [ 20.46389291, 48.5254212 ], [ 20.46384914, 48.52480697 ], [ 20.4637368, 48.52406916 ], [ 20.46372142, 48.52351438 ], [ 20.46387271, 48.52270406 ], [ 20.4640201, 48.52165495 ], [ 20.46379649, 48.52121776 ], [ 20.46364864, 48.52105099 ], [ 20.46322946, 48.52041073 ], [ 20.46315117, 48.52023137 ], [ 20.46309852, 48.51995732 ], [ 20.46311896, 48.51924311 ], [ 20.46317402, 48.51888171 ], [ 20.46336932, 48.51742355 ], [ 20.46337024, 48.51689065 ], [ 20.4634582, 48.51656923 ], [ 20.4637597, 48.51609818 ], [ 20.46199884, 48.51570284 ], [ 20.46085824, 48.51548831 ], [ 20.46075043, 48.51546638 ], [ 20.46056729, 48.51543276 ], [ 20.46006005, 48.51533964 ], [ 20.45906572, 48.51494444 ], [ 20.45830869, 48.51465796 ], [ 20.45712227, 48.51420904 ], [ 20.45643819, 48.51459528 ], [ 20.45586456, 48.51493013 ], [ 20.45520013, 48.51531791 ], [ 20.45407124, 48.51692634 ], [ 20.4537518, 48.51736687 ], [ 20.4524768, 48.51795511 ], [ 20.45184739, 48.51798288 ], [ 20.45089703, 48.51802475 ], [ 20.44901308, 48.51760083 ], [ 20.44870515, 48.51738516 ], [ 20.44835247, 48.51713815 ], [ 20.44676878, 48.51604161 ], [ 20.44615995, 48.51549945 ], [ 20.4452911, 48.51470712 ], [ 20.44395588, 48.5146386 ], [ 20.44297903, 48.51431553 ], [ 20.44227724, 48.51481145 ], [ 20.44133326, 48.51471547 ], [ 20.43971842, 48.51455462 ], [ 20.43897106, 48.51447593 ], [ 20.43836465, 48.51441208 ], [ 20.43776311, 48.51442525 ], [ 20.43666839, 48.51444194 ], [ 20.43503709, 48.51444498 ], [ 20.43399213, 48.51444282 ], [ 20.43218157, 48.51479671 ], [ 20.4314832, 48.51483822 ], [ 20.43117244, 48.5148567 ], [ 20.43014034, 48.51491896 ], [ 20.4291502, 48.51494273 ], [ 20.42831522, 48.51496458 ], [ 20.42747625, 48.51498385 ], [ 20.4267722, 48.5150016 ], [ 20.42672125, 48.51500281 ], [ 20.42665099, 48.51499363 ], [ 20.42650605, 48.51497322 ], [ 20.42646199, 48.51496685 ], [ 20.42636447, 48.51498438 ], [ 20.42632494, 48.51499143 ], [ 20.42623706, 48.51500725 ], [ 20.4261715, 48.51501898 ], [ 20.42611007, 48.51503005 ], [ 20.42569233, 48.51513767 ], [ 20.42530375, 48.51529991 ], [ 20.42472968, 48.51553397 ], [ 20.42461965, 48.51558318 ], [ 20.4243907, 48.51568549 ], [ 20.42424357, 48.5157513 ], [ 20.42413361, 48.51579024 ], [ 20.42382178, 48.51590082 ], [ 20.42352572, 48.51579814 ], [ 20.42324511, 48.51570668 ], [ 20.42265201, 48.51549714 ], [ 20.42254623, 48.51545976 ], [ 20.42233678, 48.51538579 ], [ 20.42197875, 48.51526452 ], [ 20.42181541, 48.51520917 ], [ 20.42160754, 48.51513734 ], [ 20.42153337, 48.5151108 ], [ 20.42119762, 48.51499065 ], [ 20.42065769, 48.51480925 ], [ 20.41998407, 48.51458877 ], [ 20.41981636, 48.51453388 ], [ 20.41883013, 48.5142143 ], [ 20.41872712, 48.51429972 ], [ 20.41835503, 48.51422348 ], [ 20.41806408, 48.51416377 ], [ 20.41780315, 48.51415341 ], [ 20.4177654, 48.51414926 ], [ 20.41750725, 48.51412098 ], [ 20.41726176, 48.51406707 ], [ 20.41692582, 48.5139914 ], [ 20.41670367, 48.51394514 ], [ 20.4164823, 48.51392422 ], [ 20.41634136, 48.51391089 ], [ 20.41602536, 48.51383985 ], [ 20.41578671, 48.51376818 ], [ 20.41550497, 48.51366341 ], [ 20.41511106, 48.51349345 ], [ 20.41504218, 48.51346378 ], [ 20.41493879, 48.51348792 ], [ 20.41475167, 48.51353164 ], [ 20.41454753, 48.5135793 ], [ 20.41452422, 48.51358697 ], [ 20.41412782, 48.51371725 ], [ 20.41397163, 48.51376856 ], [ 20.4131777, 48.51402944 ], [ 20.41194324, 48.51406395 ], [ 20.41130175, 48.51408104 ], [ 20.41010807, 48.51408314 ], [ 20.40951669, 48.51407601 ], [ 20.40872668, 48.51407486 ], [ 20.40821874, 48.51411382 ], [ 20.40802985, 48.51399548 ], [ 20.40749257, 48.51392601 ], [ 20.40695029, 48.5142131 ], [ 20.40645815, 48.51449427 ], [ 20.40620663, 48.51476045 ], [ 20.40611474, 48.51502628 ], [ 20.40596579, 48.51531352 ], [ 20.405857, 48.51539808 ], [ 20.4055904, 48.5156053 ], [ 20.40553282, 48.5157729 ], [ 20.4050755, 48.51615216 ], [ 20.40452567, 48.5165457 ], [ 20.40428954, 48.51686544 ], [ 20.40364741, 48.51725984 ], [ 20.40326994, 48.51750361 ], [ 20.4032241, 48.51753329 ], [ 20.4030927, 48.5179721 ], [ 20.40284409, 48.51881612 ], [ 20.40279216, 48.51899655 ], [ 20.40263439, 48.51954497 ], [ 20.40257467, 48.51975249 ], [ 20.40244026, 48.51987263 ], [ 20.40229553, 48.51994139 ], [ 20.401988, 48.52027397 ], [ 20.40187481, 48.52039637 ], [ 20.40171608, 48.52062737 ], [ 20.40147085, 48.52092343 ], [ 20.40129815, 48.52106426 ], [ 20.40101675, 48.52130685 ], [ 20.40088613, 48.52133669 ], [ 20.40059837, 48.52140192 ], [ 20.40045638, 48.52141898 ], [ 20.40032527, 48.52143114 ], [ 20.40017834, 48.52143027 ], [ 20.4000388, 48.52141931 ], [ 20.39984471, 48.52139319 ], [ 20.39932992, 48.52124068 ], [ 20.39915473, 48.52130421 ], [ 20.39892159, 48.52127803 ], [ 20.39869537, 48.52124707 ], [ 20.39852986, 48.52122439 ], [ 20.39794657, 48.52090897 ], [ 20.39790625, 48.52088463 ], [ 20.39784698, 48.52084892 ], [ 20.39786691, 48.52082257 ], [ 20.39770278, 48.52076553 ], [ 20.39754269, 48.52072901 ], [ 20.39743789, 48.52071002 ], [ 20.39724545, 48.52073027 ], [ 20.39717677, 48.5207542 ], [ 20.39704969, 48.52077147 ], [ 20.39690248, 48.52076292 ], [ 20.39663795, 48.5207048 ], [ 20.39624036, 48.52070454 ], [ 20.39615818, 48.52068272 ], [ 20.39608686, 48.5206298 ], [ 20.39601291, 48.52060227 ], [ 20.3957717, 48.52056451 ], [ 20.39568607, 48.52053715 ], [ 20.39558764, 48.52048715 ], [ 20.3954942, 48.52045769 ], [ 20.39537449, 48.520462 ], [ 20.3949116, 48.52084461 ], [ 20.39454345, 48.52116718 ], [ 20.39445564, 48.52119902 ], [ 20.39396079, 48.52154842 ], [ 20.3938357, 48.52161422 ], [ 20.39374906, 48.52168701 ], [ 20.39368844, 48.52172116 ], [ 20.39363483, 48.52174495 ], [ 20.39354636, 48.52175632 ], [ 20.39348844, 48.52174408 ], [ 20.39339304, 48.52166563 ], [ 20.39332977, 48.52162293 ], [ 20.39322859, 48.52159353 ], [ 20.39311162, 48.52157722 ], [ 20.39299917, 48.52156046 ], [ 20.39283651, 48.52155491 ], [ 20.39274791, 48.52155852 ], [ 20.39266765, 48.52158002 ], [ 20.3925995, 48.52162424 ], [ 20.39256567, 48.52166068 ], [ 20.39252898, 48.52171738 ], [ 20.39252403, 48.5217943 ], [ 20.39251388, 48.52221471 ], [ 20.39218155, 48.52257721 ], [ 20.39209704, 48.52272963 ], [ 20.39209029, 48.5227572 ], [ 20.39220979, 48.52279577 ], [ 20.39235642, 48.52287935 ], [ 20.39293943, 48.52322425 ], [ 20.39337665, 48.52354128 ], [ 20.39365243, 48.52375793 ], [ 20.39390671, 48.52383881 ], [ 20.39396188, 48.52386706 ], [ 20.39418416, 48.52403797 ], [ 20.3945188, 48.52432311 ], [ 20.39471814, 48.52444772 ], [ 20.39518013, 48.52479497 ], [ 20.39523721, 48.5249459 ], [ 20.39539557, 48.52504434 ], [ 20.39616963, 48.52526595 ], [ 20.39630525, 48.52537172 ], [ 20.39658426, 48.52550966 ], [ 20.39661362, 48.52557115 ], [ 20.39656883, 48.5256306 ], [ 20.39666336, 48.52578604 ], [ 20.39686386, 48.5259424 ], [ 20.39699743, 48.52595673 ], [ 20.39702727, 48.52605148 ], [ 20.39729627, 48.52616742 ], [ 20.39740664, 48.52614609 ], [ 20.39750351, 48.52619234 ], [ 20.39749451, 48.52621001 ], [ 20.39748246, 48.52624081 ], [ 20.39744317, 48.52641749 ], [ 20.3974245, 48.52647767 ], [ 20.39696154, 48.52797026 ], [ 20.39690112, 48.52814198 ], [ 20.39689616, 48.52815369 ], [ 20.39690999, 48.52815539 ], [ 20.39714174, 48.52818386 ], [ 20.39785137, 48.52816523 ], [ 20.39884523, 48.52830889 ], [ 20.39927581, 48.52837951 ], [ 20.39971542, 48.52842436 ], [ 20.40197193, 48.52877151 ], [ 20.40305969, 48.52894307 ], [ 20.40368177, 48.52919761 ], [ 20.40409152, 48.52941551 ], [ 20.40441806, 48.52958914 ], [ 20.40474474, 48.52976277 ], [ 20.40499986, 48.5299014 ], [ 20.40560442, 48.53029507 ], [ 20.40581914, 48.5304617 ], [ 20.4061276, 48.53057985 ], [ 20.40629441, 48.5306268 ], [ 20.40638768, 48.53066633 ], [ 20.40678757, 48.53083583 ], [ 20.40704663, 48.53099172 ], [ 20.40720077, 48.53112196 ], [ 20.40740218, 48.53131528 ], [ 20.40741908, 48.53130962 ], [ 20.4074949, 48.53128947 ], [ 20.40777411, 48.53147253 ], [ 20.40838815, 48.53180142 ], [ 20.40862263, 48.53185177 ], [ 20.40898768, 48.53189489 ], [ 20.40941517, 48.53194544 ], [ 20.40960684, 48.53203577 ], [ 20.40971741, 48.5321383 ], [ 20.41001724, 48.53271276 ], [ 20.410137, 48.53289997 ], [ 20.41021461, 48.53302132 ], [ 20.41056886, 48.53357535 ], [ 20.41072027, 48.53372314 ], [ 20.41103935, 48.53395348 ], [ 20.41118966, 48.53404213 ], [ 20.41134192, 48.53413184 ], [ 20.41148401, 48.5341654 ], [ 20.41168286, 48.53421231 ], [ 20.41194697, 48.53431361 ], [ 20.41209425, 48.53438106 ], [ 20.41238004, 48.53449824 ], [ 20.4125256, 48.53455733 ], [ 20.41301106, 48.53475424 ], [ 20.41340585, 48.53491433 ], [ 20.41345262, 48.53493333 ], [ 20.41349892, 48.5349515 ], [ 20.41421883, 48.53523369 ], [ 20.41481756, 48.53546971 ], [ 20.41533361, 48.53567372 ], [ 20.41546292, 48.5357248 ], [ 20.41625195, 48.53624052 ], [ 20.41649729, 48.53642847 ], [ 20.41716521, 48.53687072 ], [ 20.41731053, 48.5369125 ], [ 20.41755524, 48.53698287 ], [ 20.41769495, 48.53698453 ], [ 20.41785811, 48.53698655 ], [ 20.41809687, 48.53695831 ], [ 20.41827574, 48.53693714 ], [ 20.41852181, 48.53692306 ], [ 20.41892369, 48.53683476 ], [ 20.4191336, 48.53680136 ], [ 20.41947212, 48.53674748 ], [ 20.4199172, 48.5367475 ], [ 20.42019391, 48.53677431 ], [ 20.42094747, 48.53693523 ], [ 20.42120188, 48.53696894 ], [ 20.42166698, 48.53703052 ], [ 20.42183623, 48.53705295 ], [ 20.42213767, 48.53701683 ], [ 20.42271206, 48.53680072 ], [ 20.42322919, 48.5365988 ], [ 20.42329736, 48.53655736 ], [ 20.42348039, 48.5364459 ], [ 20.42356498, 48.53637932 ], [ 20.42361144, 48.53634263 ], [ 20.42368729, 48.53628292 ], [ 20.4238138, 48.53596931 ], [ 20.423897, 48.53578737 ], [ 20.42405822, 48.53563336 ], [ 20.42436471, 48.5355405 ], [ 20.42446474, 48.53553361 ], [ 20.42487346, 48.53550528 ], [ 20.42522695, 48.53552898 ], [ 20.42569975, 48.53558922 ], [ 20.42601629, 48.53569952 ], [ 20.42644895, 48.53588948 ], [ 20.42684318, 48.5360096 ], [ 20.42807469, 48.53602281 ], [ 20.42915222, 48.53604408 ], [ 20.43051915, 48.53606775 ], [ 20.43059051, 48.53606922 ], [ 20.43063087, 48.53607004 ], [ 20.43179595, 48.53609373 ], [ 20.43261991, 48.53611547 ], [ 20.43349302, 48.53618835 ], [ 20.43435818, 48.5362966 ], [ 20.43575335, 48.5364784 ], [ 20.43684002, 48.53663246 ], [ 20.43779872, 48.53681533 ], [ 20.43823971, 48.53690331 ], [ 20.43907729, 48.53710182 ], [ 20.44010087, 48.53730804 ], [ 20.44103013, 48.53744723 ], [ 20.44209793, 48.53760179 ], [ 20.44302594, 48.53772894 ], [ 20.44380991, 48.53784637 ], [ 20.44463253, 48.53798129 ], [ 20.44518111, 48.53816055 ], [ 20.44568335, 48.53837524 ], [ 20.44622576, 48.53854264 ], [ 20.44664709, 48.53860092 ], [ 20.44760247, 48.53868007 ], [ 20.44883337, 48.53874969 ], [ 20.44980855, 48.53878949 ], [ 20.45096406, 48.5388619 ], [ 20.45187943, 48.53890634 ], [ 20.45260672, 48.53896407 ], [ 20.45324585, 48.538998 ], [ 20.45405539, 48.53910884 ], [ 20.45466198, 48.53916937 ], [ 20.4554932, 48.53920337 ], [ 20.45577229, 48.5391965 ] ] ] ] } },
{ "type": "Feature", "properties": { "@featureType": "CadastralZoning", "beginLifespanVersion": { "@nilReason": "http://inspire.ec.europa.eu/codelist/VoidReasonValue/Unpopulated", "@nil": "true" }, "endLifespanVersion": { "@nilReason": "http://inspire.ec.europa.eu/codelist/VoidReasonValue/Unpopulated", "@nil": "true" }, "estimatedAccuracy": { "value": -1, "@uom": "m" }, "inspireId": { "@dataType": "Identifier", "localId": "855502", "namespace": "SK.ESKN.CP", "versionId": "20260703T04:07:40" }, "label": "Silická Brezová", "level": { "@href": "http://inspire.ec.europa.eu/codelist/CadastralZoningLevelValue/3rdOrder" }, "levelName": { "value": "Katastrálne územie", "@locale": "sk" }, "name": { "@dataType": "name", "GeographicalName": { "@dataType": "GeographicalName", "language": "SLK", "nativeness": { "@href": "http://inspire.ec.europa.eu/codelist/NativenessValue/endonym", "@title": "endonym" }, "nameStatus": { "@href": "http://inspire.ec.europa.eu/codelist/NameStatusValue/official", "@title": "official" }, "sourceOfName": { "@nilReason": "http://inspire.ec.europa.eu/codelist/VoidReasonValue/Unpopulated", "@nil": "true" }, "pronunciation": { "@dataType": "pronunciation", "@nilReason": "http://inspire.ec.europa.eu/codelist/VoidReasonValue/Unpopulated", "@nil": "true" }, "spelling": { "@dataType": "SpellingOfName", "text": "Silická Brezová", "script": "LATN" } } }, "nationalCadastalZoningReference": "855502", "validFrom": "2026-06-30T16:00:00Z", "validTo": { "@nilReason": "http://inspire.ec.europa.eu/codelist/VoidReasonValue/Unpopulated", "@nil": "true" } }, "geometry": { "type": "MultiPolygon", "coordinates": [ [ [ [ 20.48425657, 48.55719191 ], [ 20.48524836, 48.55678801 ], [ 20.48611451, 48.55645034 ], [ 20.48683, 48.55616545 ], [ 20.4894345, 48.55509642 ], [ 20.49043447, 48.55472449 ], [ 20.49260559, 48.55387111 ], [ 20.49372782, 48.55340647 ], [ 20.49536558, 48.55271511 ], [ 20.49716308, 48.55196245 ], [ 20.49835053, 48.55151147 ], [ 20.49947584, 48.55107617 ], [ 20.50044081, 48.55069753 ], [ 20.50087651, 48.55051735 ], [ 20.50149291, 48.55026414 ], [ 20.5034284, 48.54942316 ], [ 20.50351956, 48.54938353 ], [ 20.50456852, 48.54915051 ], [ 20.50604603, 48.54909005 ], [ 20.50676947, 48.5490563 ], [ 20.50835862, 48.5492606 ], [ 20.50895403, 48.54896495 ], [ 20.50982629, 48.54863789 ], [ 20.51061948, 48.5476917 ], [ 20.51107126, 48.54691495 ], [ 20.51163331, 48.54594856 ], [ 20.51258138, 48.54510411 ], [ 20.51307213, 48.54464382 ], [ 20.51447135, 48.54347864 ], [ 20.51515283, 48.54288082 ], [ 20.51625453, 48.54174988 ], [ 20.51673605, 48.54107331 ], [ 20.51688577, 48.54086614 ], [ 20.51693237, 48.5408079 ], [ 20.51702766, 48.54068887 ], [ 20.51720854, 48.5405189 ], [ 20.517499, 48.54017189 ], [ 20.51756978, 48.54001735 ], [ 20.51765721, 48.53982804 ], [ 20.51773431, 48.53967887 ], [ 20.51799077, 48.53917934 ], [ 20.51804453, 48.53907506 ], [ 20.51835833, 48.53834753 ], [ 20.51837287, 48.53831366 ], [ 20.51844943, 48.53814844 ], [ 20.51850019, 48.53804747 ], [ 20.51851739, 48.53801262 ], [ 20.51853184, 48.53798461 ], [ 20.51857944, 48.53798477 ], [ 20.51860348, 48.53796999 ], [ 20.51871818, 48.53783484 ], [ 20.51901449, 48.53758633 ], [ 20.51904809, 48.53755651 ], [ 20.51906385, 48.53754503 ], [ 20.51909968, 48.53751916 ], [ 20.51782612, 48.5367604 ], [ 20.516539, 48.53632288 ], [ 20.51511521, 48.53584356 ], [ 20.51343089, 48.53566739 ], [ 20.51270922, 48.53565061 ], [ 20.51190907, 48.53562845 ], [ 20.5103347, 48.53541159 ], [ 20.50947563, 48.53504715 ], [ 20.50844479, 48.53478571 ], [ 20.50743539, 48.53452569 ], [ 20.50650682, 48.53441409 ], [ 20.50757988, 48.53337926 ], [ 20.50728538, 48.5332411 ], [ 20.50759497, 48.53274458 ], [ 20.50833601, 48.5323482 ], [ 20.50708072, 48.53167278 ], [ 20.50660807, 48.53221434 ], [ 20.50610409, 48.53262204 ], [ 20.50546693, 48.53308833 ], [ 20.50515781, 48.53279054 ], [ 20.50472272, 48.53237145 ], [ 20.50455905, 48.5322101 ], [ 20.5042256, 48.53193382 ], [ 20.50408798, 48.53171831 ], [ 20.50389047, 48.53140498 ], [ 20.50381714, 48.53127863 ], [ 20.50362619, 48.53070999 ], [ 20.50344082, 48.53007426 ], [ 20.50336512, 48.52959201 ], [ 20.50327274, 48.52932478 ], [ 20.50313377, 48.5290377 ], [ 20.50302533, 48.52883797 ], [ 20.50287011, 48.5286127 ], [ 20.50244598, 48.52798115 ], [ 20.50196694, 48.52726196 ], [ 20.50236973, 48.52706135 ], [ 20.50361143, 48.52639755 ], [ 20.50409383, 48.5261012 ], [ 20.50451542, 48.52585157 ], [ 20.5044802, 48.52575711 ], [ 20.50436863, 48.52557185 ], [ 20.50420578, 48.52506038 ], [ 20.50408529, 48.52478561 ], [ 20.50331648, 48.52409491 ], [ 20.50256628, 48.52341687 ], [ 20.50226794, 48.52328477 ], [ 20.50259024, 48.52304971 ], [ 20.5035294, 48.52275729 ], [ 20.50414221, 48.52255817 ], [ 20.50445946, 48.52246182 ], [ 20.504659, 48.52239743 ], [ 20.50513316, 48.52224985 ], [ 20.50459225, 48.52191047 ], [ 20.50365622, 48.52152453 ], [ 20.50279185, 48.52119073 ], [ 20.50297961, 48.52087124 ], [ 20.50322096, 48.52064862 ], [ 20.50250534, 48.51986613 ], [ 20.5024916, 48.51984913 ], [ 20.50260627, 48.51982732 ], [ 20.50273908, 48.51978682 ], [ 20.50288694, 48.51975112 ], [ 20.50299099, 48.51973945 ], [ 20.50311127, 48.51970757 ], [ 20.50341121, 48.51957391 ], [ 20.50356731, 48.51948438 ], [ 20.50400954, 48.519194 ], [ 20.50413009, 48.51912863 ], [ 20.50427631, 48.51906125 ], [ 20.50437101, 48.51902084 ], [ 20.50449072, 48.51894139 ], [ 20.50469845, 48.51879813 ], [ 20.50506604, 48.51855295 ], [ 20.50514196, 48.51848455 ], [ 20.50516175, 48.51845764 ], [ 20.50521529, 48.51832246 ], [ 20.5052776, 48.5182149 ], [ 20.50531767, 48.51810093 ], [ 20.50536776, 48.5180175 ], [ 20.50543226, 48.51796065 ], [ 20.50566205, 48.5178129 ], [ 20.50591001, 48.51768917 ], [ 20.50614986, 48.51758729 ], [ 20.50639118, 48.51747456 ], [ 20.50647354, 48.5174182 ], [ 20.50651766, 48.51738887 ], [ 20.50668743, 48.51723895 ], [ 20.50680608, 48.5171018 ], [ 20.50692409, 48.51699129 ], [ 20.50707912, 48.51679632 ], [ 20.50717356, 48.51670312 ], [ 20.50735226, 48.51660759 ], [ 20.50750614, 48.51655031 ], [ 20.5077289, 48.51645166 ], [ 20.50784206, 48.51642528 ], [ 20.50805313, 48.5163461 ], [ 20.50813252, 48.51630854 ], [ 20.50818756, 48.51627674 ], [ 20.50835221, 48.51616942 ], [ 20.50854741, 48.51600586 ], [ 20.50867111, 48.51591601 ], [ 20.50874141, 48.51585947 ], [ 20.50898433, 48.51562573 ], [ 20.50902502, 48.51557609 ], [ 20.50903687, 48.51554204 ], [ 20.509037, 48.51551015 ], [ 20.50902361, 48.515403 ], [ 20.50904452, 48.51526866 ], [ 20.50904884, 48.51519406 ], [ 20.50902588, 48.51514509 ], [ 20.5088942, 48.51498764 ], [ 20.50873539, 48.51483188 ], [ 20.50869255, 48.51478397 ], [ 20.50865735, 48.51470527 ], [ 20.50862568, 48.51459139 ], [ 20.50862554, 48.51445437 ], [ 20.50866745, 48.51435055 ], [ 20.50885505, 48.51406735 ], [ 20.50899907, 48.51384216 ], [ 20.50911547, 48.51367231 ], [ 20.50933805, 48.51324873 ], [ 20.50939128, 48.51318722 ], [ 20.50945806, 48.51313694 ], [ 20.50969681, 48.51299673 ], [ 20.51000575, 48.51287122 ], [ 20.5100929, 48.51282215 ], [ 20.51023124, 48.51272267 ], [ 20.5103367, 48.5126097 ], [ 20.5104186, 48.51246603 ], [ 20.51044542, 48.51237381 ], [ 20.51043781, 48.51227038 ], [ 20.51040025, 48.51215556 ], [ 20.5102858, 48.5119693 ], [ 20.51015291, 48.51178614 ], [ 20.51012827, 48.51173954 ], [ 20.51012184, 48.51171309 ], [ 20.51010313, 48.51154412 ], [ 20.51010734, 48.5114451 ], [ 20.51005729, 48.51141349 ], [ 20.50960259, 48.51110078 ], [ 20.50903044, 48.51069926 ], [ 20.5080955, 48.51005414 ], [ 20.50730045, 48.50950498 ], [ 20.5048448, 48.51005997 ], [ 20.50387015, 48.51034529 ], [ 20.5004198, 48.51107738 ], [ 20.49816829, 48.51146866 ], [ 20.49578195, 48.51318892 ], [ 20.49509757, 48.51359059 ], [ 20.49428064, 48.5141313 ], [ 20.49210717, 48.51529749 ], [ 20.49096157, 48.51574067 ], [ 20.49043615, 48.51562016 ], [ 20.48625324, 48.51466059 ], [ 20.4842793, 48.51450772 ], [ 20.48412009, 48.51452549 ], [ 20.48407902, 48.51453006 ], [ 20.48401235, 48.51453754 ], [ 20.47860474, 48.51514086 ], [ 20.4757644, 48.51613472 ], [ 20.4736034, 48.51636636 ], [ 20.47191703, 48.51650386 ], [ 20.46799625, 48.51595044 ], [ 20.46600606, 48.51580474 ], [ 20.46498348, 48.51593191 ], [ 20.46391213, 48.51607424 ], [ 20.46386932, 48.51608018 ], [ 20.4637597, 48.51609818 ], [ 20.4634582, 48.51656923 ], [ 20.46337024, 48.51689065 ], [ 20.46336932, 48.51742355 ], [ 20.46317402, 48.51888171 ], [ 20.46311896, 48.51924311 ], [ 20.46309852, 48.51995732 ], [ 20.46315117, 48.52023137 ], [ 20.46322946, 48.52041073 ], [ 20.46364864, 48.52105099 ], [ 20.46379649, 48.52121776 ], [ 20.4640201, 48.52165495 ], [ 20.46387271, 48.52270406 ], [ 20.46372142, 48.52351438 ], [ 20.4637368, 48.52406916 ], [ 20.46384914, 48.52480697 ], [ 20.46389291, 48.5254212 ], [ 20.46387488, 48.52633783 ], [ 20.4641, 48.52815425 ], [ 20.46484025, 48.5298366 ], [ 20.46589126, 48.53066205 ], [ 20.46610784, 48.53086754 ], [ 20.4662631, 48.53127213 ], [ 20.46618325, 48.53155431 ], [ 20.46640342, 48.53193587 ], [ 20.46629741, 48.5321358 ], [ 20.46617025, 48.5322834 ], [ 20.46568371, 48.53264818 ], [ 20.4654959, 48.53284654 ], [ 20.46548748, 48.53298558 ], [ 20.46533017, 48.5332677 ], [ 20.46514147, 48.53386149 ], [ 20.46495861, 48.53470134 ], [ 20.46485791, 48.53506498 ], [ 20.46473483, 48.53550902 ], [ 20.46470747, 48.53590308 ], [ 20.46460122, 48.53622552 ], [ 20.464639, 48.53657503 ], [ 20.46442169, 48.53689857 ], [ 20.46421419, 48.53778964 ], [ 20.46419316, 48.53782434 ], [ 20.4641815, 48.53783849 ], [ 20.46414107, 48.53788749 ], [ 20.46410997, 48.53792577 ], [ 20.46432012, 48.53796815 ], [ 20.46521018, 48.5380653 ], [ 20.46620067, 48.5381795 ], [ 20.4666266, 48.53820338 ], [ 20.46670837, 48.53821161 ], [ 20.46699145, 48.53822927 ], [ 20.46726038, 48.53824262 ], [ 20.46798225, 48.53963967 ], [ 20.46849658, 48.54164178 ], [ 20.46902731, 48.54228452 ], [ 20.46992484, 48.5427128 ], [ 20.46987179, 48.54324858 ], [ 20.47071109, 48.54412316 ], [ 20.47147113, 48.54498104 ], [ 20.47221264, 48.54610108 ], [ 20.47297579, 48.54704032 ], [ 20.4756183, 48.55019375 ], [ 20.47585978, 48.55068626 ], [ 20.47693879, 48.55202773 ], [ 20.47817549, 48.55360549 ], [ 20.47879417, 48.55427925 ], [ 20.47919826, 48.55480491 ], [ 20.47970374, 48.55547934 ], [ 20.48043601, 48.55638466 ], [ 20.48107994, 48.55725069 ], [ 20.48110533, 48.55729651 ], [ 20.48240627, 48.55735695 ], [ 20.4836727, 48.55743851 ], [ 20.48425657, 48.55719191 ] ] ] ] } }
]
}
