{
"type": "FeatureCollection",
"name": "gis",
"crs": { "type": "name", "properties": { "name": "urn:ogc:def:crs:OGC:1.3:CRS84" } },
"features": [
{ "type": "Feature", "properties": { "@featureType": "CadastralParcel", "areaValue": { "value": 6823, "@uom": "m2" }, "beginLifespanVersion": { "@nilReason": "http://inspire.ec.europa.eu/codelist/VoidReasonValue/Unpopulated", "@nil": "true" }, "endLifespanVersion": { "@nilReason": "http://inspire.ec.europa.eu/codelist/VoidReasonValue/Unpopulated", "@nil": "true" }, "inspireId": { "@dataType": "Identifier", "localId": "808555_3241.C", "namespace": "SK.ESKN.CP", "versionId": "20260703T07:07:39" }, "label": "3241", "nationalCadastralReference": "808555_3241.C", "referencePoint": { "type": "Point", "coordinates": [ 17.76138362, 48.72492499 ] }, "validFrom": "2026-06-30T16:00:00Z", "validTo": { "@nilReason": "http://inspire.ec.europa.eu/codelist/VoidReasonValue/Unpopulated", "@nil": "true" }, "administrativeUnit": { "@href": "#auAdmUnitS.132" } }, "geometry": { "type": "Polygon", "coordinates": [ [ [ 17.76077351, 48.72515053 ], [ 17.76050774, 48.72538305 ], [ 17.76064178, 48.72547672 ], [ 17.76154459, 48.72555343 ], [ 17.76171763, 48.72541267 ], [ 17.76151872, 48.72519942 ], [ 17.76160928, 48.72505486 ], [ 17.7616084, 48.72496476 ], [ 17.76160701, 48.72483443 ], [ 17.7618789, 48.72430685 ], [ 17.76160392, 48.72424482 ], [ 17.7614822, 48.72432532 ], [ 17.76122118, 48.7244325 ], [ 17.76109696, 48.72483565 ], [ 17.7611969, 48.72488523 ], [ 17.76101422, 48.72507823 ], [ 17.7608728, 48.72504408 ], [ 17.76077351, 48.72515053 ] ] ] } },
{ "type": "Feature", "properties": { "@featureType": "CadastralParcel", "areaValue": { "value": 98180, "@uom": "m2" }, "beginLifespanVersion": { "@nilReason": "http://inspire.ec.europa.eu/codelist/VoidReasonValue/Unpopulated", "@nil": "true" }, "endLifespanVersion": { "@nilReason": "http://inspire.ec.europa.eu/codelist/VoidReasonValue/Unpopulated", "@nil": "true" }, "inspireId": { "@dataType": "Identifier", "localId": "808555_3240/2.C", "namespace": "SK.ESKN.CP", "versionId": "20260703T07:07:39" }, "label": "3240/2", "nationalCadastralReference": "808555_3240/2.C", "referencePoint": { "type": "Point", "coordinates": [ 17.76233541, 48.72253678 ] }, "validFrom": "2026-06-30T16:00:00Z", "validTo": { "@nilReason": "http://inspire.ec.europa.eu/codelist/VoidReasonValue/Unpopulated", "@nil": "true" }, "administrativeUnit": { "@href": "#auAdmUnitS.132" } }, "geometry": { "type": "Polygon", "coordinates": [ [ [ 17.76178911, 48.71995769 ], [ 17.76198774, 48.72016208 ], [ 17.76207022, 48.72067419 ], [ 17.76150489, 48.72259826 ], [ 17.76119155, 48.72389879 ], [ 17.76087439, 48.72419906 ], [ 17.76036712, 48.72531499 ], [ 17.76045668, 48.7256003 ], [ 17.76176423, 48.72609799 ], [ 17.76201175, 48.72611155 ], [ 17.76252572, 48.72506159 ], [ 17.76293303, 48.72426901 ], [ 17.76360969, 48.72318197 ], [ 17.76380922, 48.72245061 ], [ 17.76333099, 48.72247529 ], [ 17.76288607, 48.72284377 ], [ 17.76263687, 48.72309755 ], [ 17.76243526, 48.72336246 ], [ 17.76213465, 48.72379309 ], [ 17.76200658, 48.7239656 ], [ 17.76184672, 48.72429096 ], [ 17.76187801, 48.72429758 ], [ 17.7618789, 48.72430685 ], [ 17.76160701, 48.72483443 ], [ 17.7616084, 48.72496476 ], [ 17.76162042, 48.72496468 ], [ 17.76164361, 48.72496873 ], [ 17.76166894, 48.72498085 ], [ 17.76168091, 48.72499477 ], [ 17.76168407, 48.72501221 ], [ 17.7616734, 48.72502989 ], [ 17.76165362, 48.7250434 ], [ 17.76160928, 48.72505486 ], [ 17.76151872, 48.72519942 ], [ 17.76171763, 48.72541267 ], [ 17.76162966, 48.72552505 ], [ 17.76156061, 48.72555306 ], [ 17.76154459, 48.72555343 ], [ 17.76064178, 48.72547672 ], [ 17.76059683, 48.72547206 ], [ 17.76050774, 48.72538305 ], [ 17.76047318, 48.72537641 ], [ 17.76052421, 48.72536491 ], [ 17.76059071, 48.72528102 ], [ 17.76051642, 48.72523447 ], [ 17.76057199, 48.72518088 ], [ 17.76062681, 48.72519301 ], [ 17.76069443, 48.72511768 ], [ 17.7607475, 48.72505753 ], [ 17.76088818, 48.72491289 ], [ 17.76102182, 48.72478344 ], [ 17.76109817, 48.72469257 ], [ 17.76110435, 48.72457933 ], [ 17.7611113, 48.72454534 ], [ 17.76115629, 48.72447079 ], [ 17.76123295, 48.72440983 ], [ 17.76140571, 48.72435088 ], [ 17.76160352, 48.72423305 ], [ 17.76177078, 48.72427176 ], [ 17.76197083, 48.72396647 ], [ 17.76199313, 48.72393397 ], [ 17.76196113, 48.72392271 ], [ 17.76217352, 48.7236394 ], [ 17.76218092, 48.72362947 ], [ 17.76259875, 48.7230822 ], [ 17.76284685, 48.72282755 ], [ 17.76321549, 48.72247145 ], [ 17.76364625, 48.72178697 ], [ 17.76405944, 48.72133986 ], [ 17.76398127, 48.72134148 ], [ 17.76392398, 48.72111614 ], [ 17.7637624, 48.72075046 ], [ 17.76379722, 48.72043864 ], [ 17.76376007, 48.7201319 ], [ 17.76381215, 48.72012651 ], [ 17.76384536, 48.72012232 ], [ 17.76384361, 48.72001888 ], [ 17.76390566, 48.72001339 ], [ 17.76389066, 48.71976391 ], [ 17.7638813, 48.71966507 ], [ 17.76387249, 48.71961593 ], [ 17.76385149, 48.71950663 ], [ 17.76383391, 48.71941776 ], [ 17.76381705, 48.71935982 ], [ 17.76379815, 48.71928821 ], [ 17.76377823, 48.7192384 ], [ 17.76374947, 48.71918452 ], [ 17.76370259, 48.71910903 ], [ 17.76364782, 48.71904199 ], [ 17.76357483, 48.71897944 ], [ 17.76352857, 48.71894228 ], [ 17.76345317, 48.71889394 ], [ 17.76287336, 48.7191996 ], [ 17.76270175, 48.71937422 ], [ 17.76263205, 48.71936407 ], [ 17.76178911, 48.71995769 ] ] ] } }
]
}
