{
"type": "FeatureCollection",
"name": "gis",
"crs": { "type": "name", "properties": { "name": "urn:ogc:def:crs:OGC:1.3:CRS84" } },
"features": [
{ "type": "Feature", "properties": { "@featureType": "CadastralParcel", "areaValue": { "value": 10463, "@uom": "m2" }, "beginLifespanVersion": { "@nilReason": "http://inspire.ec.europa.eu/codelist/VoidReasonValue/Unpopulated", "@nil": "true" }, "endLifespanVersion": { "@nilReason": "http://inspire.ec.europa.eu/codelist/VoidReasonValue/Unpopulated", "@nil": "true" }, "inspireId": { "@dataType": "Identifier", "localId": "856525_2326/4.C", "namespace": "SK.ESKN.CP", "versionId": "20260703T06:07:23" }, "label": "2326/4", "nationalCadastralReference": "856525_2326/4.C", "referencePoint": { "type": "Point", "coordinates": [ 19.28552673, 48.76213362 ] }, "validFrom": "2026-06-30T16:00:00Z", "validTo": { "@nilReason": "http://inspire.ec.europa.eu/codelist/VoidReasonValue/Unpopulated", "@nil": "true" }, "administrativeUnit": { "@href": "#auAdmUnitS.2586" } }, "geometry": { "type": "Polygon", "coordinates": [ [ [ 19.28407599, 48.76280985 ], [ 19.28422108, 48.76281014 ], [ 19.28426329, 48.76280216 ], [ 19.28428602, 48.76279135 ], [ 19.2842617, 48.7627918 ], [ 19.28424338, 48.76279219 ], [ 19.28407606, 48.76279182 ], [ 19.28396356, 48.76277425 ], [ 19.28390215, 48.76276463 ], [ 19.28375768, 48.76273885 ], [ 19.28364866, 48.76271937 ], [ 19.28332468, 48.76263655 ], [ 19.28323784, 48.76246358 ], [ 19.28315625, 48.76243406 ], [ 19.28314824, 48.76240761 ], [ 19.28309729, 48.76223943 ], [ 19.28316413, 48.76214868 ], [ 19.28323478, 48.76209274 ], [ 19.28337682, 48.76206115 ], [ 19.28356813, 48.76205663 ], [ 19.28380783, 48.76207102 ], [ 19.28389981, 48.76208544 ], [ 19.28428529, 48.76211855 ], [ 19.28425556, 48.76222533 ], [ 19.28426096, 48.76228429 ], [ 19.2843856, 48.7622497 ], [ 19.28451091, 48.76207104 ], [ 19.28533862, 48.76215964 ], [ 19.28544714, 48.76217125 ], [ 19.28557415, 48.76221575 ], [ 19.28581057, 48.76229851 ], [ 19.28623803, 48.76239774 ], [ 19.28634132, 48.76245085 ], [ 19.28656299, 48.76256482 ], [ 19.28663804, 48.76252352 ], [ 19.28682253, 48.76262335 ], [ 19.28696002, 48.76270037 ], [ 19.28695867, 48.76279092 ], [ 19.28733817, 48.76277919 ], [ 19.2876574, 48.76267413 ], [ 19.28798194, 48.76244236 ], [ 19.28818682, 48.76225697 ], [ 19.28865292, 48.76194317 ], [ 19.28903442, 48.7617428 ], [ 19.2893563, 48.76157375 ], [ 19.28920208, 48.76146401 ], [ 19.28833172, 48.76202776 ], [ 19.28802982, 48.7621489 ], [ 19.28775677, 48.76235275 ], [ 19.28744711, 48.76252229 ], [ 19.28732959, 48.76256165 ], [ 19.28737649, 48.76258536 ], [ 19.2872851, 48.76265753 ], [ 19.28715094, 48.76259744 ], [ 19.28701349, 48.76252503 ], [ 19.28694096, 48.76249621 ], [ 19.28675615, 48.76242287 ], [ 19.28614606, 48.76220181 ], [ 19.28583925, 48.76209061 ], [ 19.28570505, 48.76205207 ], [ 19.28564638, 48.76203978 ], [ 19.28563754, 48.7620582 ], [ 19.28554035, 48.76203785 ], [ 19.28554999, 48.76201839 ], [ 19.28553347, 48.7620148 ], [ 19.28542268, 48.7619965 ], [ 19.2857071, 48.76186939 ], [ 19.28544813, 48.76194488 ], [ 19.28521224, 48.76202256 ], [ 19.28504698, 48.76202337 ], [ 19.28483076, 48.76201381 ], [ 19.28438709, 48.76196285 ], [ 19.28410126, 48.76197239 ], [ 19.28356885, 48.7620215 ], [ 19.28331031, 48.76203343 ], [ 19.28331127, 48.76203961 ], [ 19.28328641, 48.76205483 ], [ 19.28318702, 48.76207684 ], [ 19.28301917, 48.76210124 ], [ 19.28299422, 48.76210491 ], [ 19.28298041, 48.76208784 ], [ 19.28258426, 48.7621543 ], [ 19.28258111, 48.76220906 ], [ 19.28261689, 48.76221484 ], [ 19.28258465, 48.7623022 ], [ 19.28257567, 48.76230077 ], [ 19.28256509, 48.76248277 ], [ 19.28260769, 48.76241908 ], [ 19.28264489, 48.76241933 ], [ 19.28267176, 48.76244416 ], [ 19.28269572, 48.76247813 ], [ 19.28273532, 48.76251745 ], [ 19.28278816, 48.76255416 ], [ 19.28282897, 48.76257506 ], [ 19.28287166, 48.76259244 ], [ 19.28300962, 48.76263657 ], [ 19.28307686, 48.76266018 ], [ 19.28313981, 48.76267564 ], [ 19.28322457, 48.76267998 ], [ 19.28340792, 48.7627107 ], [ 19.28349727, 48.76272797 ], [ 19.28354001, 48.76273255 ], [ 19.28360522, 48.76274605 ], [ 19.28369247, 48.76276006 ], [ 19.28407599, 48.76280985 ] ], [ [ 19.28281329, 48.76240361 ], [ 19.28293729, 48.76243941 ], [ 19.28289707, 48.76252747 ], [ 19.28277559, 48.76249233 ], [ 19.28281329, 48.76240361 ] ] ] } }
]
}
