{
"type": "FeatureCollection",
"name": "gis",
"crs": { "type": "name", "properties": { "name": "urn:ogc:def:crs:OGC:1.3:CRS84" } },
"features": [
{ "type": "Feature", "properties": { "@featureType": "CadastralParcel", "areaValue": { "value": 1255, "@uom": "m2" }, "beginLifespanVersion": { "@nilReason": "http://inspire.ec.europa.eu/codelist/VoidReasonValue/Unpopulated", "@nil": "true" }, "endLifespanVersion": { "@nilReason": "http://inspire.ec.europa.eu/codelist/VoidReasonValue/Unpopulated", "@nil": "true" }, "inspireId": { "@dataType": "Identifier", "localId": "802336_13308.C", "namespace": "SK.ESKN.CP", "versionId": "20260703T05:07:42" }, "label": "13308", "nationalCadastralReference": "802336_13308.C", "referencePoint": { "type": "Point", "coordinates": [ 19.01077311, 49.25397779 ] }, "validFrom": "2026-06-30T16:00:00Z", "validTo": { "@nilReason": "http://inspire.ec.europa.eu/codelist/VoidReasonValue/Unpopulated", "@nil": "true" }, "administrativeUnit": { "@href": "#auAdmUnitS.1178" } }, "geometry": { "type": "Polygon", "coordinates": [ [ [ 19.01095546, 49.2532897 ], [ 19.0108778, 49.25332596 ], [ 19.01085626, 49.25344122 ], [ 19.01084754, 49.25366886 ], [ 19.01079517, 49.25386429 ], [ 19.0106547, 49.25412413 ], [ 19.01060668, 49.25416385 ], [ 19.01057484, 49.25419121 ], [ 19.01054569, 49.25437418 ], [ 19.0105262, 49.25441497 ], [ 19.01049581, 49.25447009 ], [ 19.01048452, 49.25449486 ], [ 19.01047473, 49.25451629 ], [ 19.01044026, 49.25457328 ], [ 19.01042262, 49.2545899 ], [ 19.01031885, 49.25467887 ], [ 19.01012274, 49.25474683 ], [ 19.0100854, 49.25477526 ], [ 19.01000178, 49.25483909 ], [ 19.01012076, 49.25482419 ], [ 19.01033216, 49.25479776 ], [ 19.01039943, 49.25475837 ], [ 19.01044833, 49.25468037 ], [ 19.01049654, 49.25460116 ], [ 19.01065055, 49.25438474 ], [ 19.01076852, 49.2540849 ], [ 19.01085628, 49.25387067 ], [ 19.01088066, 49.25362812 ], [ 19.01089913, 49.25344336 ], [ 19.01095546, 49.2532897 ] ] ] } },
{ "type": "Feature", "properties": { "@featureType": "CadastralParcel", "areaValue": { "value": 819, "@uom": "m2" }, "beginLifespanVersion": { "@nilReason": "http://inspire.ec.europa.eu/codelist/VoidReasonValue/Unpopulated", "@nil": "true" }, "endLifespanVersion": { "@nilReason": "http://inspire.ec.europa.eu/codelist/VoidReasonValue/Unpopulated", "@nil": "true" }, "inspireId": { "@dataType": "Identifier", "localId": "802336_13403/2.C", "namespace": "SK.ESKN.CP", "versionId": "20260703T05:07:42" }, "label": "13403/2", "nationalCadastralReference": "802336_13403/2.C", "referencePoint": { "type": "Point", "coordinates": [ 19.01063534, 49.25444581 ] }, "validFrom": "2026-06-30T16:00:00Z", "validTo": { "@nilReason": "http://inspire.ec.europa.eu/codelist/VoidReasonValue/Unpopulated", "@nil": "true" }, "administrativeUnit": { "@href": "#auAdmUnitS.1178" } }, "geometry": { "type": "Polygon", "coordinates": [ [ [ 19.01050001, 49.25477728 ], [ 19.01055879, 49.2546581 ], [ 19.0105862, 49.25460256 ], [ 19.01063343, 49.25450689 ], [ 19.01069544, 49.25438138 ], [ 19.0107124, 49.25434688 ], [ 19.0107515, 49.25426784 ], [ 19.01079966, 49.25417014 ], [ 19.01084598, 49.25407641 ], [ 19.01087971, 49.25386941 ], [ 19.01088463, 49.25383899 ], [ 19.01090116, 49.25373728 ], [ 19.01091533, 49.25364978 ], [ 19.01093442, 49.25353314 ], [ 19.01096847, 49.25332345 ], [ 19.01097534, 49.25328104 ], [ 19.01095546, 49.2532897 ], [ 19.01089913, 49.25344336 ], [ 19.01088066, 49.25362812 ], [ 19.01085628, 49.25387067 ], [ 19.01076852, 49.2540849 ], [ 19.01065055, 49.25438474 ], [ 19.01049654, 49.25460116 ], [ 19.01044833, 49.25468037 ], [ 19.01039943, 49.25475837 ], [ 19.01033216, 49.25479776 ], [ 19.01006931, 49.25485671 ], [ 19.00985588, 49.25510299 ], [ 19.00971211, 49.25528944 ], [ 19.00955892, 49.25553422 ], [ 19.00954829, 49.25555218 ], [ 19.009595, 49.25556398 ], [ 19.00967731, 49.25543922 ], [ 19.00975478, 49.25530158 ], [ 19.00986271, 49.25514608 ], [ 19.00988501, 49.25510724 ], [ 19.01010323, 49.25487067 ], [ 19.01034113, 49.25481535 ], [ 19.01040067, 49.25478675 ], [ 19.01050001, 49.25477728 ] ] ] } }
]
}
