{
"type": "FeatureCollection",
"name": "gis",
"crs": { "type": "name", "properties": { "name": "urn:ogc:def:crs:OGC:1.3:CRS84" } },
"features": [
{ "type": "Feature", "properties": { "@featureType": "CadastralParcel", "areaValue": { "value": 11837, "@uom": "m2" }, "beginLifespanVersion": { "@nilReason": "http://inspire.ec.europa.eu/codelist/VoidReasonValue/Unpopulated", "@nil": "true" }, "endLifespanVersion": { "@nilReason": "http://inspire.ec.europa.eu/codelist/VoidReasonValue/Unpopulated", "@nil": "true" }, "inspireId": { "@dataType": "Identifier", "localId": "807745_3509/1.C", "namespace": "SK.ESKN.CP", "versionId": "20260703T05:07:49" }, "label": "3509/1", "nationalCadastralReference": "807745_3509/1.C", "referencePoint": { "type": "Point", "coordinates": [ 18.56701013, 49.22812999 ] }, "validFrom": "2026-06-30T16:00:00Z", "validTo": { "@nilReason": "http://inspire.ec.europa.eu/codelist/VoidReasonValue/Unpopulated", "@nil": "true" }, "administrativeUnit": { "@href": "#auAdmUnitS.123" } }, "geometry": { "type": "Polygon", "coordinates": [ [ [ 18.57047464, 49.23063517 ], [ 18.57049462, 49.23063182 ], [ 18.57053636, 49.23060546 ], [ 18.57060814, 49.23056033 ], [ 18.57064913, 49.23053447 ], [ 18.57055939, 49.23047217 ], [ 18.57049754, 49.23042807 ], [ 18.57040174, 49.23035147 ], [ 18.57035753, 49.23031616 ], [ 18.57026143, 49.23023972 ], [ 18.57021521, 49.23020286 ], [ 18.57012897, 49.23012912 ], [ 18.57008428, 49.23009108 ], [ 18.5699836, 49.23000825 ], [ 18.5699455, 49.22997697 ], [ 18.56982142, 49.2298809 ], [ 18.56980463, 49.22986754 ], [ 18.56978914, 49.22985588 ], [ 18.5696226, 49.22975121 ], [ 18.56951333, 49.22968209 ], [ 18.56946133, 49.22964627 ], [ 18.56936082, 49.22958746 ], [ 18.56929922, 49.22955131 ], [ 18.56919122, 49.2294874 ], [ 18.56914249, 49.22945853 ], [ 18.56902705, 49.22939133 ], [ 18.56897826, 49.22936291 ], [ 18.56884928, 49.22929607 ], [ 18.56879843, 49.22926979 ], [ 18.56878924, 49.22926505 ], [ 18.56866129, 49.22919213 ], [ 18.56858772, 49.22915037 ], [ 18.56846715, 49.22908345 ], [ 18.56838444, 49.22903768 ], [ 18.56836256, 49.2290254 ], [ 18.56828214, 49.22898003 ], [ 18.5682219, 49.22894395 ], [ 18.56817256, 49.22891441 ], [ 18.56812401, 49.2288841 ], [ 18.56806739, 49.22884885 ], [ 18.56804235, 49.22882883 ], [ 18.56794613, 49.22875229 ], [ 18.5678726, 49.22869375 ], [ 18.56777316, 49.22861984 ], [ 18.56724254, 49.2281927 ], [ 18.56718058, 49.22814192 ], [ 18.56715133, 49.22811806 ], [ 18.5670842, 49.22806113 ], [ 18.56704929, 49.22803083 ], [ 18.56694816, 49.22794185 ], [ 18.56683315, 49.22784048 ], [ 18.56673876, 49.22775709 ], [ 18.56638513, 49.22744475 ], [ 18.56631617, 49.22737942 ], [ 18.56630706, 49.22737081 ], [ 18.5661939, 49.2272635 ], [ 18.56614691, 49.22721739 ], [ 18.56610864, 49.22718204 ], [ 18.56606172, 49.22713865 ], [ 18.56601154, 49.22709607 ], [ 18.56600705, 49.22709231 ], [ 18.56576812, 49.22691246 ], [ 18.56565007, 49.22682328 ], [ 18.56555118, 49.22674615 ], [ 18.56539893, 49.2266287 ], [ 18.56534824, 49.22658799 ], [ 18.56532174, 49.22656861 ], [ 18.56531282, 49.22656172 ], [ 18.56530492, 49.22655552 ], [ 18.5652893, 49.22654386 ], [ 18.56522016, 49.22649205 ], [ 18.56518338, 49.22646454 ], [ 18.56503717, 49.22635391 ], [ 18.56497638, 49.22630806 ], [ 18.56466356, 49.22607145 ], [ 18.56456491, 49.22600894 ], [ 18.56443746, 49.22592774 ], [ 18.56427066, 49.22582205 ], [ 18.56424016, 49.22580272 ], [ 18.56423033, 49.22579651 ], [ 18.56416652, 49.22575609 ], [ 18.56414354, 49.22574592 ], [ 18.56406289, 49.22570684 ], [ 18.56395907, 49.22564496 ], [ 18.56401895, 49.22568923 ], [ 18.5641396, 49.22576312 ], [ 18.56420821, 49.22580263 ], [ 18.56422932, 49.22579907 ], [ 18.56420082, 49.22581983 ], [ 18.56410943, 49.22588619 ], [ 18.56386668, 49.22574565 ], [ 18.563751, 49.22568051 ], [ 18.5636925, 49.2256549 ], [ 18.56365362, 49.22564739 ], [ 18.563752, 49.22570438 ], [ 18.56384813, 49.22575954 ], [ 18.56388207, 49.22577896 ], [ 18.56390112, 49.22579072 ], [ 18.56406657, 49.2258874 ], [ 18.56412486, 49.22592356 ], [ 18.56423068, 49.22598934 ], [ 18.56457596, 49.22625377 ], [ 18.56461212, 49.22627746 ], [ 18.56490547, 49.22646936 ], [ 18.56503173, 49.22656881 ], [ 18.56505128, 49.22658429 ], [ 18.56511586, 49.22663396 ], [ 18.56525972, 49.22674473 ], [ 18.56537454, 49.22683761 ], [ 18.56541089, 49.2268642 ], [ 18.56545, 49.22689283 ], [ 18.56548128, 49.22692248 ], [ 18.56551132, 49.22695098 ], [ 18.56557212, 49.22699684 ], [ 18.56563262, 49.22704719 ], [ 18.56570438, 49.2271023 ], [ 18.56574232, 49.22713149 ], [ 18.56576786, 49.22715416 ], [ 18.56577605, 49.22716137 ], [ 18.56584091, 49.22721872 ], [ 18.56587778, 49.22724659 ], [ 18.56599922, 49.22735598 ], [ 18.56604902, 49.22739727 ], [ 18.56612839, 49.22746307 ], [ 18.56611748, 49.22746989 ], [ 18.56606769, 49.22750113 ], [ 18.56622781, 49.22761188 ], [ 18.56648564, 49.22782017 ], [ 18.56659569, 49.22791271 ], [ 18.56679512, 49.22808024 ], [ 18.56698171, 49.22823706 ], [ 18.56717004, 49.22839534 ], [ 18.56731011, 49.22850563 ], [ 18.5673856, 49.228565 ], [ 18.56741457, 49.22858785 ], [ 18.56746146, 49.22862483 ], [ 18.56753405, 49.22868206 ], [ 18.56768638, 49.2288023 ], [ 18.56774085, 49.22884583 ], [ 18.56774806, 49.22883557 ], [ 18.56775358, 49.22882784 ], [ 18.56783482, 49.22888093 ], [ 18.5678273, 49.22889144 ], [ 18.56781846, 49.22890378 ], [ 18.56785383, 49.22892932 ], [ 18.56788431, 49.22894774 ], [ 18.56801348, 49.2290219 ], [ 18.56826109, 49.22917 ], [ 18.56828201, 49.22918231 ], [ 18.56828269, 49.22918126 ], [ 18.56829472, 49.22916441 ], [ 18.56830377, 49.22915154 ], [ 18.56836857, 49.22918858 ], [ 18.5683602, 49.22920041 ], [ 18.56834917, 49.22921587 ], [ 18.56921967, 49.22966947 ], [ 18.56923241, 49.22967773 ], [ 18.56933949, 49.22974791 ], [ 18.56939717, 49.22978565 ], [ 18.5694497, 49.22981834 ], [ 18.56953976, 49.22987912 ], [ 18.56959057, 49.22991677 ], [ 18.5696995, 49.22999741 ], [ 18.56972094, 49.23001327 ], [ 18.56984658, 49.23011557 ], [ 18.56988109, 49.23014368 ], [ 18.56999089, 49.23023168 ], [ 18.57006439, 49.2302895 ], [ 18.570097, 49.23031507 ], [ 18.57017342, 49.23037376 ], [ 18.57020232, 49.23039597 ], [ 18.5702279, 49.23041729 ], [ 18.57030961, 49.23048538 ], [ 18.57040638, 49.23056086 ], [ 18.57047464, 49.23063517 ] ] ] } },
{ "type": "Feature", "properties": { "@featureType": "CadastralParcel", "areaValue": { "value": 710, "@uom": "m2" }, "beginLifespanVersion": { "@nilReason": "http://inspire.ec.europa.eu/codelist/VoidReasonValue/Unpopulated", "@nil": "true" }, "endLifespanVersion": { "@nilReason": "http://inspire.ec.europa.eu/codelist/VoidReasonValue/Unpopulated", "@nil": "true" }, "inspireId": { "@dataType": "Identifier", "localId": "807745_3498/1.C", "namespace": "SK.ESKN.CP", "versionId": "20260703T05:07:49" }, "label": "3498/1", "nationalCadastralReference": "807745_3498/1.C", "referencePoint": { "type": "Point", "coordinates": [ 18.56715374, 49.2328122 ] }, "validFrom": "2026-06-30T16:00:00Z", "validTo": { "@nilReason": "http://inspire.ec.europa.eu/codelist/VoidReasonValue/Unpopulated", "@nil": "true" }, "administrativeUnit": { "@href": "#auAdmUnitS.123" } }, "geometry": { "type": "Polygon", "coordinates": [ [ [ 18.56739307, 49.23291049 ], [ 18.56728581, 49.23285934 ], [ 18.56721894, 49.23283112 ], [ 18.56716053, 49.23280244 ], [ 18.56703844, 49.23272893 ], [ 18.56696666, 49.23268935 ], [ 18.56689609, 49.23264559 ], [ 18.56677092, 49.23257904 ], [ 18.56664767, 49.23250051 ], [ 18.56653813, 49.23243128 ], [ 18.56646752, 49.23239221 ], [ 18.56640143, 49.23235013 ], [ 18.56633716, 49.2323067 ], [ 18.56627248, 49.23226759 ], [ 18.56620801, 49.23223011 ], [ 18.56614827, 49.232189 ], [ 18.56602021, 49.23211256 ], [ 18.56599942, 49.23213995 ], [ 18.56612711, 49.23222044 ], [ 18.56619485, 49.23225927 ], [ 18.56625358, 49.23229418 ], [ 18.56631864, 49.23233242 ], [ 18.56638576, 49.23237292 ], [ 18.56644901, 49.23241792 ], [ 18.56651659, 49.23246351 ], [ 18.56662525, 49.23252989 ], [ 18.56675536, 49.23260536 ], [ 18.5668802, 49.23267676 ], [ 18.56695421, 49.23271394 ], [ 18.56701822, 49.2327551 ], [ 18.56714569, 49.23282195 ], [ 18.56720646, 49.23285372 ], [ 18.5672645, 49.23288644 ], [ 18.56737297, 49.23293341 ], [ 18.56757971, 49.23304169 ], [ 18.5675851, 49.23304487 ], [ 18.56777977, 49.23315936 ], [ 18.56783581, 49.23319485 ], [ 18.56790499, 49.23323872 ], [ 18.5680379, 49.2333138 ], [ 18.56817895, 49.23339329 ], [ 18.56828723, 49.23342969 ], [ 18.56833615, 49.23344613 ], [ 18.56852588, 49.23350766 ], [ 18.56857176, 49.23343623 ], [ 18.56851625, 49.23345364 ], [ 18.56836054, 49.23341089 ], [ 18.56820371, 49.23334851 ], [ 18.56806196, 49.23328126 ], [ 18.56793094, 49.23320529 ], [ 18.56779858, 49.23313565 ], [ 18.56760002, 49.2330149 ], [ 18.56739307, 49.23291049 ] ] ] } },
{ "type": "Feature", "properties": { "@featureType": "CadastralParcel", "areaValue": { "value": 975, "@uom": "m2" }, "beginLifespanVersion": { "@nilReason": "http://inspire.ec.europa.eu/codelist/VoidReasonValue/Unpopulated", "@nil": "true" }, "endLifespanVersion": { "@nilReason": "http://inspire.ec.europa.eu/codelist/VoidReasonValue/Unpopulated", "@nil": "true" }, "inspireId": { "@dataType": "Identifier", "localId": "807745_3498/2.E", "namespace": "SK.ESKN.CP", "versionId": "20260703T05:07:49" }, "label": "3498/2", "nationalCadastralReference": "807745_3498/2.E", "referencePoint": { "type": "Point", "coordinates": [ 18.56145242, 49.22938918 ] }, "validFrom": "2026-06-30T16:00:00Z", "validTo": { "@nilReason": "http://inspire.ec.europa.eu/codelist/VoidReasonValue/Unpopulated", "@nil": "true" }, "administrativeUnit": { "@href": "#auAdmUnitS.123" } }, "geometry": { "type": "MultiPolygon", "coordinates": [ [ [ [ 18.56103855, 49.22918229 ], [ 18.56118, 49.22926388 ], [ 18.56121097, 49.2292817 ], [ 18.56148206, 49.22943803 ], [ 18.56169751, 49.22956231 ], [ 18.56172154, 49.22957614 ], [ 18.56174759, 49.22953874 ], [ 18.56175113, 49.22953352 ], [ 18.5617376, 49.22952386 ], [ 18.56158563, 49.22943502 ], [ 18.56158075, 49.22943215 ], [ 18.56156124, 49.22942072 ], [ 18.5614537, 49.22935764 ], [ 18.5613777, 49.22931223 ], [ 18.56120015, 49.22920541 ], [ 18.56119032, 49.22920028 ], [ 18.56116991, 49.22918944 ], [ 18.56107898, 49.22914115 ], [ 18.56103855, 49.22918229 ] ] ], [ [ [ 18.56857176, 49.23343623 ], [ 18.56851625, 49.23345364 ], [ 18.56836054, 49.23341089 ], [ 18.56820371, 49.23334851 ], [ 18.56806196, 49.23328126 ], [ 18.56793094, 49.23320529 ], [ 18.56779858, 49.23313565 ], [ 18.56760002, 49.2330149 ], [ 18.56739307, 49.23291049 ], [ 18.56728581, 49.23285934 ], [ 18.56721894, 49.23283112 ], [ 18.56716053, 49.23280244 ], [ 18.56703844, 49.23272893 ], [ 18.56696666, 49.23268935 ], [ 18.56689609, 49.23264559 ], [ 18.56677092, 49.23257904 ], [ 18.56664767, 49.23250051 ], [ 18.56653813, 49.23243128 ], [ 18.56646752, 49.23239221 ], [ 18.56640143, 49.23235013 ], [ 18.56633716, 49.2323067 ], [ 18.56627248, 49.23226759 ], [ 18.56620801, 49.23223011 ], [ 18.56614827, 49.232189 ], [ 18.56602021, 49.23211256 ], [ 18.56599942, 49.23213995 ], [ 18.56612711, 49.23222044 ], [ 18.56619485, 49.23225927 ], [ 18.56625358, 49.23229418 ], [ 18.56631864, 49.23233242 ], [ 18.56638576, 49.23237292 ], [ 18.56644901, 49.23241792 ], [ 18.56651659, 49.23246351 ], [ 18.56662525, 49.23252989 ], [ 18.56675536, 49.23260536 ], [ 18.5668802, 49.23267676 ], [ 18.56695421, 49.23271394 ], [ 18.56701822, 49.2327551 ], [ 18.56714569, 49.23282195 ], [ 18.56720646, 49.23285372 ], [ 18.5672645, 49.23288644 ], [ 18.56737297, 49.23293341 ], [ 18.56757971, 49.23304169 ], [ 18.5675851, 49.23304487 ], [ 18.56777977, 49.23315936 ], [ 18.56783581, 49.23319485 ], [ 18.56790499, 49.23323872 ], [ 18.5680379, 49.2333138 ], [ 18.56817895, 49.23339329 ], [ 18.56828723, 49.23342969 ], [ 18.56833615, 49.23344613 ], [ 18.56852588, 49.23350766 ], [ 18.56857176, 49.23343623 ] ] ] ] } },
{ "type": "Feature", "properties": { "@featureType": "CadastralParcel", "areaValue": { "value": 11081, "@uom": "m2" }, "beginLifespanVersion": { "@nilReason": "http://inspire.ec.europa.eu/codelist/VoidReasonValue/Unpopulated", "@nil": "true" }, "endLifespanVersion": { "@nilReason": "http://inspire.ec.europa.eu/codelist/VoidReasonValue/Unpopulated", "@nil": "true" }, "inspireId": { "@dataType": "Identifier", "localId": "807745_3509.E", "namespace": "SK.ESKN.CP", "versionId": "20260703T05:07:49" }, "label": "3509", "nationalCadastralReference": "807745_3509.E", "referencePoint": { "type": "Point", "coordinates": [ 18.56703951, 49.22812999 ] }, "validFrom": "2026-06-30T16:00:00Z", "validTo": { "@nilReason": "http://inspire.ec.europa.eu/codelist/VoidReasonValue/Unpopulated", "@nil": "true" }, "administrativeUnit": { "@href": "#auAdmUnitS.123" } }, "geometry": { "type": "Polygon", "coordinates": [ [ [ 18.56584091, 49.22721872 ], [ 18.56587778, 49.22724659 ], [ 18.56599922, 49.22735598 ], [ 18.56604902, 49.22739727 ], [ 18.56612839, 49.22746307 ], [ 18.56619491, 49.22751709 ], [ 18.56623709, 49.22755319 ], [ 18.56627863, 49.22758889 ], [ 18.56633497, 49.22763731 ], [ 18.56640279, 49.22769301 ], [ 18.56645615, 49.22774217 ], [ 18.56650586, 49.22778409 ], [ 18.56661814, 49.22788089 ], [ 18.56681589, 49.22805086 ], [ 18.56700453, 49.22820445 ], [ 18.56714593, 49.22832276 ], [ 18.56721027, 49.22837665 ], [ 18.56727373, 49.22842978 ], [ 18.56733035, 49.22847712 ], [ 18.56740585, 49.22853649 ], [ 18.56747817, 49.22860137 ], [ 18.56755076, 49.22865868 ], [ 18.56761885, 49.22871233 ], [ 18.56768065, 49.22876112 ], [ 18.56775665, 49.22881979 ], [ 18.56775358, 49.22882784 ], [ 18.56783482, 49.22888093 ], [ 18.56791891, 49.22892893 ], [ 18.56799457, 49.2289727 ], [ 18.56807383, 49.22901855 ], [ 18.56815565, 49.2290659 ], [ 18.56830377, 49.22915154 ], [ 18.56836857, 49.22918858 ], [ 18.56844683, 49.22923032 ], [ 18.56850908, 49.22926678 ], [ 18.56857599, 49.22930674 ], [ 18.56864264, 49.2293465 ], [ 18.56870621, 49.22938456 ], [ 18.56882652, 49.22944805 ], [ 18.56895926, 49.22952231 ], [ 18.56908076, 49.22958947 ], [ 18.56914724, 49.22963175 ], [ 18.56923266, 49.22967793 ], [ 18.56933949, 49.22974791 ], [ 18.56939717, 49.22978565 ], [ 18.5694497, 49.22981834 ], [ 18.56953976, 49.22987912 ], [ 18.56972094, 49.23001327 ], [ 18.56984658, 49.23011557 ], [ 18.56988109, 49.23014368 ], [ 18.56999089, 49.23023168 ], [ 18.57006439, 49.2302895 ], [ 18.570097, 49.23031507 ], [ 18.57017342, 49.23037376 ], [ 18.57020232, 49.23039597 ], [ 18.5702279, 49.23041729 ], [ 18.57030961, 49.23048538 ], [ 18.57040638, 49.23056086 ], [ 18.57041802, 49.23057024 ], [ 18.57049462, 49.23063182 ], [ 18.57053636, 49.23060546 ], [ 18.57060814, 49.23056033 ], [ 18.57064913, 49.23053447 ], [ 18.57055939, 49.23047217 ], [ 18.57049754, 49.23042807 ], [ 18.57040174, 49.23035147 ], [ 18.57035753, 49.23031616 ], [ 18.57026143, 49.23023972 ], [ 18.57021521, 49.23020286 ], [ 18.57012897, 49.23012912 ], [ 18.57008428, 49.23009108 ], [ 18.5699836, 49.23000825 ], [ 18.5699455, 49.22997697 ], [ 18.56982142, 49.2298809 ], [ 18.56980463, 49.22986754 ], [ 18.56978914, 49.22985588 ], [ 18.5696226, 49.22975121 ], [ 18.56951333, 49.22968209 ], [ 18.56946133, 49.22964627 ], [ 18.56936082, 49.22958746 ], [ 18.56929922, 49.22955131 ], [ 18.56919122, 49.2294874 ], [ 18.56914249, 49.22945853 ], [ 18.56902705, 49.22939133 ], [ 18.56897826, 49.22936291 ], [ 18.56884928, 49.22929607 ], [ 18.56878924, 49.22926505 ], [ 18.56866129, 49.22919213 ], [ 18.56858772, 49.22915037 ], [ 18.56846715, 49.22908345 ], [ 18.56838444, 49.22903768 ], [ 18.56828214, 49.22898003 ], [ 18.5682219, 49.22894395 ], [ 18.56817256, 49.22891441 ], [ 18.56812401, 49.2288841 ], [ 18.56806739, 49.22884885 ], [ 18.56804235, 49.22882883 ], [ 18.56794613, 49.22875229 ], [ 18.5678726, 49.22869375 ], [ 18.56777316, 49.22861984 ], [ 18.56724254, 49.2281927 ], [ 18.56718058, 49.22814192 ], [ 18.56715133, 49.22811806 ], [ 18.5670842, 49.22806113 ], [ 18.56704929, 49.22803083 ], [ 18.56694816, 49.22794185 ], [ 18.56683315, 49.22784048 ], [ 18.56673876, 49.22775709 ], [ 18.56638513, 49.22744475 ], [ 18.56631617, 49.22737942 ], [ 18.56630706, 49.22737081 ], [ 18.5661939, 49.2272635 ], [ 18.56623982, 49.22723015 ], [ 18.56618768, 49.22719658 ], [ 18.56614691, 49.22721739 ], [ 18.56610864, 49.22718204 ], [ 18.56606172, 49.22713865 ], [ 18.56601154, 49.22709607 ], [ 18.56600705, 49.22709231 ], [ 18.56576812, 49.22691246 ], [ 18.56565007, 49.22682328 ], [ 18.56555118, 49.22674615 ], [ 18.56539893, 49.2266287 ], [ 18.56534824, 49.22658799 ], [ 18.56532174, 49.22656861 ], [ 18.56530492, 49.22655552 ], [ 18.56522016, 49.22649205 ], [ 18.56518338, 49.22646454 ], [ 18.56466356, 49.22607145 ], [ 18.56456491, 49.22600894 ], [ 18.56443746, 49.22592774 ], [ 18.56427066, 49.22582205 ], [ 18.56424016, 49.22580272 ], [ 18.56423033, 49.22579651 ], [ 18.56416652, 49.22575609 ], [ 18.56414354, 49.22574592 ], [ 18.56406289, 49.22570684 ], [ 18.56401855, 49.22568037 ], [ 18.56395907, 49.22564496 ], [ 18.56401895, 49.22568923 ], [ 18.5641396, 49.22576312 ], [ 18.56420821, 49.22580263 ], [ 18.56422932, 49.22579907 ], [ 18.56420082, 49.22581983 ], [ 18.56410943, 49.22588619 ], [ 18.56386668, 49.22574565 ], [ 18.563751, 49.22568051 ], [ 18.5636925, 49.2256549 ], [ 18.56365362, 49.22564739 ], [ 18.56365979, 49.22565097 ], [ 18.56367314, 49.22565873 ], [ 18.563752, 49.22570438 ], [ 18.56388207, 49.22577896 ], [ 18.56390112, 49.22579072 ], [ 18.56406657, 49.2258874 ], [ 18.56412486, 49.22592356 ], [ 18.56423068, 49.22598934 ], [ 18.56457596, 49.22625377 ], [ 18.56461212, 49.22627746 ], [ 18.56490547, 49.22646936 ], [ 18.56503173, 49.22656881 ], [ 18.56505128, 49.22658429 ], [ 18.56511586, 49.22663396 ], [ 18.56525972, 49.22674473 ], [ 18.56537454, 49.22683761 ], [ 18.56541089, 49.2268642 ], [ 18.56545, 49.22689283 ], [ 18.56548128, 49.22692248 ], [ 18.56551132, 49.22695098 ], [ 18.56557212, 49.22699684 ], [ 18.56563262, 49.22704719 ], [ 18.56574232, 49.22713149 ], [ 18.56577605, 49.22716137 ], [ 18.56584091, 49.22721872 ] ] ] } },
{ "type": "Feature", "properties": { "@featureType": "CadastralParcel", "areaValue": { "value": 4507, "@uom": "m2" }, "beginLifespanVersion": { "@nilReason": "http://inspire.ec.europa.eu/codelist/VoidReasonValue/Unpopulated", "@nil": "true" }, "endLifespanVersion": { "@nilReason": "http://inspire.ec.europa.eu/codelist/VoidReasonValue/Unpopulated", "@nil": "true" }, "inspireId": { "@dataType": "Identifier", "localId": "807711_992.C", "namespace": "SK.ESKN.CP", "versionId": "20260703T05:07:26" }, "label": "992", "nationalCadastralReference": "807711_992.C", "referencePoint": { "type": "Point", "coordinates": [ 18.57766539, 49.23521293 ] }, "validFrom": "2026-06-30T16:00:00Z", "validTo": { "@nilReason": "http://inspire.ec.europa.eu/codelist/VoidReasonValue/Unpopulated", "@nil": "true" }, "administrativeUnit": { "@href": "#auAdmUnitS.123" } }, "geometry": { "type": "Polygon", "coordinates": [ [ [ 18.57796682, 49.23527863 ], [ 18.57785517, 49.23524269 ], [ 18.57772019, 49.23519936 ], [ 18.5777349, 49.23517976 ], [ 18.57782371, 49.23506353 ], [ 18.5778885, 49.2350126 ], [ 18.57776168, 49.23496456 ], [ 18.57765712, 49.23493143 ], [ 18.57765474, 49.23493059 ], [ 18.57753305, 49.23488896 ], [ 18.57745966, 49.23486102 ], [ 18.5772923, 49.23480008 ], [ 18.57721081, 49.23477522 ], [ 18.57720723, 49.23477413 ], [ 18.5771174, 49.23474107 ], [ 18.57699517, 49.23469607 ], [ 18.57694993, 49.23468544 ], [ 18.5767612, 49.23464112 ], [ 18.57665478, 49.23461619 ], [ 18.57640617, 49.23454501 ], [ 18.57635303, 49.23452818 ], [ 18.57618075, 49.23447355 ], [ 18.57606128, 49.23442077 ], [ 18.5760524, 49.23441686 ], [ 18.57595369, 49.2343854 ], [ 18.57593669, 49.23438034 ], [ 18.57593364, 49.23437936 ], [ 18.57587471, 49.23436474 ], [ 18.57573053, 49.23432885 ], [ 18.5757157, 49.23432517 ], [ 18.57566641, 49.23431278 ], [ 18.57550408, 49.23427222 ], [ 18.57550889, 49.23426571 ], [ 18.57528264, 49.23419754 ], [ 18.57516872, 49.23416544 ], [ 18.57513487, 49.23414639 ], [ 18.57500685, 49.2341102 ], [ 18.5749768, 49.23416759 ], [ 18.57511486, 49.23421046 ], [ 18.57525132, 49.23425297 ], [ 18.5752983, 49.23426731 ], [ 18.57536877, 49.23428878 ], [ 18.57542178, 49.23431003 ], [ 18.57547936, 49.23433324 ], [ 18.5755657, 49.23436007 ], [ 18.57570655, 49.2344038 ], [ 18.57578099, 49.23442548 ], [ 18.57593439, 49.23447134 ], [ 18.57608805, 49.23451739 ], [ 18.57623751, 49.23455726 ], [ 18.57639467, 49.23460611 ], [ 18.57643707, 49.23462075 ], [ 18.57653018, 49.2346529 ], [ 18.57656765, 49.23466393 ], [ 18.57673604, 49.23471339 ], [ 18.57680802, 49.23473051 ], [ 18.57694223, 49.23476235 ], [ 18.57708989, 49.23481231 ], [ 18.57729757, 49.23488246 ], [ 18.57737358, 49.2349081 ], [ 18.57750247, 49.23495165 ], [ 18.57756507, 49.23497224 ], [ 18.57764594, 49.23499877 ], [ 18.57766088, 49.23501365 ], [ 18.57766792, 49.23503234 ], [ 18.57766505, 49.23505195 ], [ 18.57765854, 49.23507091 ], [ 18.57760325, 49.23515384 ], [ 18.57758018, 49.23519293 ], [ 18.57756027, 49.23522651 ], [ 18.57773965, 49.23528386 ], [ 18.5777831, 49.23529675 ], [ 18.57800638, 49.23536331 ], [ 18.57806486, 49.2353816 ], [ 18.57819414, 49.23542201 ], [ 18.57826308, 49.23544475 ], [ 18.57838192, 49.23548387 ], [ 18.57844724, 49.23551905 ], [ 18.57863567, 49.2355823 ], [ 18.5787072, 49.23560634 ], [ 18.57876232, 49.23562725 ], [ 18.57880211, 49.23564842 ], [ 18.57881368, 49.23565509 ], [ 18.57886821, 49.23581834 ], [ 18.57894266, 49.23583343 ], [ 18.57913538, 49.23587228 ], [ 18.57921963, 49.23588609 ], [ 18.57935777, 49.23590866 ], [ 18.57959955, 49.23595627 ], [ 18.57963895, 49.23596407 ], [ 18.57970835, 49.23597979 ], [ 18.57984677, 49.23601112 ], [ 18.57992793, 49.23603307 ], [ 18.58015889, 49.23609345 ], [ 18.58023908, 49.23611661 ], [ 18.58037776, 49.2361568 ], [ 18.58055629, 49.23620345 ], [ 18.58063515, 49.23622401 ], [ 18.58070026, 49.23624104 ], [ 18.58079526, 49.23626589 ], [ 18.58092867, 49.23630083 ], [ 18.58093881, 49.23630354 ], [ 18.58098337, 49.23631522 ], [ 18.58100342, 49.23628815 ], [ 18.58102349, 49.23626098 ], [ 18.58119339, 49.23603172 ], [ 18.5812161, 49.236001 ], [ 18.58145395, 49.23568001 ], [ 18.58145514, 49.23567827 ], [ 18.58168501, 49.23540783 ], [ 18.58168777, 49.23540455 ], [ 18.58166414, 49.23537197 ], [ 18.58140687, 49.2356709 ], [ 18.58138399, 49.23570071 ], [ 18.58130204, 49.23580738 ], [ 18.58126785, 49.2358549 ], [ 18.58112337, 49.23605612 ], [ 18.58102595, 49.23619173 ], [ 18.58094099, 49.23623644 ], [ 18.58088187, 49.23622001 ], [ 18.58074154, 49.2361809 ], [ 18.58071438, 49.23617331 ], [ 18.58061291, 49.23614514 ], [ 18.58047604, 49.23610802 ], [ 18.58025339, 49.23604294 ], [ 18.58023956, 49.23603895 ], [ 18.57999875, 49.23598246 ], [ 18.5799999, 49.23597873 ], [ 18.57984506, 49.23594327 ], [ 18.57980662, 49.23593444 ], [ 18.57974218, 49.23591971 ], [ 18.57960757, 49.23588885 ], [ 18.57949452, 49.23586953 ], [ 18.57946728, 49.23586482 ], [ 18.57936739, 49.23585044 ], [ 18.57915949, 49.23581836 ], [ 18.57896012, 49.23577428 ], [ 18.57893812, 49.23575515 ], [ 18.57897703, 49.23568749 ], [ 18.57902776, 49.23562453 ], [ 18.57904049, 49.2356087 ], [ 18.57902023, 49.23560211 ], [ 18.57883793, 49.23555263 ], [ 18.57864909, 49.23550145 ], [ 18.57846245, 49.23545138 ], [ 18.57840083, 49.23543292 ], [ 18.57839331, 49.23543026 ], [ 18.57807619, 49.23531301 ], [ 18.57796682, 49.23527863 ] ] ] } },
{ "type": "Feature", "properties": { "@featureType": "CadastralParcel", "areaValue": { "value": 11105, "@uom": "m2" }, "beginLifespanVersion": { "@nilReason": "http://inspire.ec.europa.eu/codelist/VoidReasonValue/Unpopulated", "@nil": "true" }, "endLifespanVersion": { "@nilReason": "http://inspire.ec.europa.eu/codelist/VoidReasonValue/Unpopulated", "@nil": "true" }, "inspireId": { "@dataType": "Identifier", "localId": "807711_186/1.C", "namespace": "SK.ESKN.CP", "versionId": "20260703T05:07:26" }, "label": "186/1", "nationalCadastralReference": "807711_186/1.C", "referencePoint": { "type": "Point", "coordinates": [ 18.56987367, 49.23531902 ] }, "validFrom": "2026-06-30T16:00:00Z", "validTo": { "@nilReason": "http://inspire.ec.europa.eu/codelist/VoidReasonValue/Unpopulated", "@nil": "true" }, "administrativeUnit": { "@href": "#auAdmUnitS.123" } }, "geometry": { "type": "Polygon", "coordinates": [ [ [ 18.57073932, 49.23492138 ], [ 18.57063174, 49.23481996 ], [ 18.56886923, 49.235196 ], [ 18.56881125, 49.23523754 ], [ 18.5687794, 49.2354005 ], [ 18.5705728, 49.23587036 ], [ 18.57088784, 49.23540448 ], [ 18.57117027, 49.23502843 ], [ 18.57073932, 49.23492138 ] ], [ [ 18.57044989, 49.2354886 ], [ 18.5704752, 49.2354527 ], [ 18.57048728, 49.23545632 ], [ 18.57049299, 49.23544815 ], [ 18.57057291, 49.23547229 ], [ 18.5705681, 49.2354788 ], [ 18.57057898, 49.23548218 ], [ 18.570575, 49.23548756 ], [ 18.57061996, 49.23550152 ], [ 18.57061678, 49.23550596 ], [ 18.57056467, 49.23548971 ], [ 18.57053919, 49.23552705 ], [ 18.57062744, 49.2355529 ], [ 18.57063, 49.23554898 ], [ 18.57063332, 49.23554997 ], [ 18.57059262, 49.23561194 ], [ 18.5705893, 49.23561095 ], [ 18.57059185, 49.23560711 ], [ 18.57050478, 49.2355751 ], [ 18.57049608, 49.23558735 ], [ 18.57040088, 49.23555869 ], [ 18.57040337, 49.23555531 ], [ 18.57041559, 49.23555894 ], [ 18.57046237, 49.23549243 ], [ 18.57044989, 49.2354886 ] ] ] } },
{ "type": "Feature", "properties": { "@featureType": "CadastralParcel", "areaValue": { "value": 1252, "@uom": "m2" }, "beginLifespanVersion": { "@nilReason": "http://inspire.ec.europa.eu/codelist/VoidReasonValue/Unpopulated", "@nil": "true" }, "endLifespanVersion": { "@nilReason": "http://inspire.ec.europa.eu/codelist/VoidReasonValue/Unpopulated", "@nil": "true" }, "inspireId": { "@dataType": "Identifier", "localId": "807711_996.C", "namespace": "SK.ESKN.CP", "versionId": "20260703T05:07:26" }, "label": "996", "nationalCadastralReference": "807711_996.C", "referencePoint": { "type": "Point", "coordinates": [ 18.57516143, 49.23527231 ] }, "validFrom": "2026-06-30T16:00:00Z", "validTo": { "@nilReason": "http://inspire.ec.europa.eu/codelist/VoidReasonValue/Unpopulated", "@nil": "true" }, "administrativeUnit": { "@href": "#auAdmUnitS.123" } }, "geometry": { "type": "Polygon", "coordinates": [ [ [ 18.57511688, 49.23539991 ], [ 18.57527342, 49.23518068 ], [ 18.57530138, 49.23513562 ], [ 18.57542129, 49.23496242 ], [ 18.57551966, 49.23482045 ], [ 18.57559579, 49.23470535 ], [ 18.57578099, 49.23442548 ], [ 18.57570655, 49.2344038 ], [ 18.57564697, 49.23449345 ], [ 18.57558393, 49.23458101 ], [ 18.57550901, 49.23469194 ], [ 18.57548617, 49.23472581 ], [ 18.57535858, 49.23490753 ], [ 18.57534324, 49.2349299 ], [ 18.57523482, 49.23508838 ], [ 18.57505511, 49.23536394 ], [ 18.57495281, 49.23551859 ], [ 18.57486056, 49.23565566 ], [ 18.57472383, 49.23585863 ], [ 18.57465848, 49.23595582 ], [ 18.57458343, 49.23606773 ], [ 18.57455531, 49.23609094 ], [ 18.57463684, 49.23611878 ], [ 18.57464588, 49.23609941 ], [ 18.57474157, 49.23595793 ], [ 18.57483334, 49.23582247 ], [ 18.57487237, 49.23576492 ], [ 18.57487591, 49.23575979 ], [ 18.57488353, 49.23574847 ], [ 18.57489535, 49.23573106 ], [ 18.57494775, 49.23565366 ], [ 18.5749726, 49.23561692 ], [ 18.57499997, 49.23557661 ], [ 18.57506217, 49.23548476 ], [ 18.57511688, 49.23539991 ] ] ] } },
{ "type": "Feature", "properties": { "@featureType": "CadastralParcel", "areaValue": { "value": 2292, "@uom": "m2" }, "beginLifespanVersion": { "@nilReason": "http://inspire.ec.europa.eu/codelist/VoidReasonValue/Unpopulated", "@nil": "true" }, "endLifespanVersion": { "@nilReason": "http://inspire.ec.europa.eu/codelist/VoidReasonValue/Unpopulated", "@nil": "true" }, "inspireId": { "@dataType": "Identifier", "localId": "807711_982/2.C", "namespace": "SK.ESKN.CP", "versionId": "20260703T05:07:26" }, "label": "982/2", "nationalCadastralReference": "807711_982/2.C", "referencePoint": { "type": "Point", "coordinates": [ 18.5730264, 49.23282246 ] }, "validFrom": "2026-06-30T16:00:00Z", "validTo": { "@nilReason": "http://inspire.ec.europa.eu/codelist/VoidReasonValue/Unpopulated", "@nil": "true" }, "administrativeUnit": { "@href": "#auAdmUnitS.123" } }, "geometry": { "type": "Polygon", "coordinates": [ [ [ 18.57303183, 49.2327515 ], [ 18.57280648, 49.23297561 ], [ 18.57267116, 49.23311008 ], [ 18.57254105, 49.23323699 ], [ 18.57242066, 49.2333545 ], [ 18.57239853, 49.23337614 ], [ 18.57230656, 49.23346585 ], [ 18.57218635, 49.23357307 ], [ 18.57207332, 49.23366815 ], [ 18.57190806, 49.23380724 ], [ 18.57176824, 49.23392479 ], [ 18.57177728, 49.23392744 ], [ 18.57188911, 49.2339597 ], [ 18.57189322, 49.2339555 ], [ 18.57198026, 49.23388321 ], [ 18.57210543, 49.23376271 ], [ 18.57233153, 49.23359215 ], [ 18.5723852, 49.23356399 ], [ 18.57242159, 49.23354736 ], [ 18.57235944, 49.23350568 ], [ 18.57268845, 49.23320638 ], [ 18.57272295, 49.23317404 ], [ 18.57279771, 49.23310398 ], [ 18.57284173, 49.23306276 ], [ 18.57291489, 49.23299343 ], [ 18.57299665, 49.23291589 ], [ 18.57303701, 49.23287746 ], [ 18.57314763, 49.23276746 ], [ 18.57315252, 49.23276258 ], [ 18.57317375, 49.23274152 ], [ 18.57325112, 49.23266501 ], [ 18.57330712, 49.23260946 ], [ 18.57337963, 49.23253757 ], [ 18.57342886, 49.23248878 ], [ 18.57353383, 49.23238218 ], [ 18.57361339, 49.23230128 ], [ 18.57366249, 49.2322514 ], [ 18.57385668, 49.23204718 ], [ 18.57386234, 49.23204929 ], [ 18.57389647, 49.23201223 ], [ 18.57397402, 49.23192211 ], [ 18.57407448, 49.23180525 ], [ 18.573981, 49.23176838 ], [ 18.57382821, 49.23194442 ], [ 18.57379972, 49.23197726 ], [ 18.57376807, 49.23200994 ], [ 18.57367395, 49.23210693 ], [ 18.57357904, 49.23220479 ], [ 18.57353928, 49.23224506 ], [ 18.57347017, 49.23231506 ], [ 18.57342167, 49.23236352 ], [ 18.57338499, 49.23240008 ], [ 18.57331289, 49.232472 ], [ 18.57329178, 49.23249315 ], [ 18.57321611, 49.23256822 ], [ 18.57313667, 49.23264705 ], [ 18.57303183, 49.2327515 ] ] ] } },
{ "type": "Feature", "properties": { "@featureType": "CadastralParcel", "areaValue": { "value": 6467, "@uom": "m2" }, "beginLifespanVersion": { "@nilReason": "http://inspire.ec.europa.eu/codelist/VoidReasonValue/Unpopulated", "@nil": "true" }, "endLifespanVersion": { "@nilReason": "http://inspire.ec.europa.eu/codelist/VoidReasonValue/Unpopulated", "@nil": "true" }, "inspireId": { "@dataType": "Identifier", "localId": "807711_1011.C", "namespace": "SK.ESKN.CP", "versionId": "20260703T05:07:26" }, "label": "1011", "nationalCadastralReference": "807711_1011.C", "referencePoint": { "type": "Point", "coordinates": [ 18.5743174, 49.2318513 ] }, "validFrom": "2026-06-30T16:00:00Z", "validTo": { "@nilReason": "http://inspire.ec.europa.eu/codelist/VoidReasonValue/Unpopulated", "@nil": "true" }, "administrativeUnit": { "@href": "#auAdmUnitS.123" } }, "geometry": { "type": "Polygon", "coordinates": [ [ [ 18.57064913, 49.23053447 ], [ 18.57060814, 49.23056033 ], [ 18.57053636, 49.23060546 ], [ 18.57049462, 49.23063182 ], [ 18.57064539, 49.23073051 ], [ 18.57068291, 49.23075544 ], [ 18.57079064, 49.230827 ], [ 18.57095191, 49.23093969 ], [ 18.57097552, 49.23095468 ], [ 18.57105735, 49.23100644 ], [ 18.57108889, 49.23102636 ], [ 18.57109872, 49.23103257 ], [ 18.57113029, 49.23105439 ], [ 18.57113879, 49.23106026 ], [ 18.57119178, 49.23109694 ], [ 18.57128332, 49.23114715 ], [ 18.57135182, 49.2311898 ], [ 18.57136106, 49.23119418 ], [ 18.57150627, 49.23126351 ], [ 18.57154194, 49.23127679 ], [ 18.57160275, 49.23129946 ], [ 18.57164868, 49.23131555 ], [ 18.57176719, 49.23135719 ], [ 18.57182075, 49.2313718 ], [ 18.57189174, 49.23139131 ], [ 18.57203333, 49.23143013 ], [ 18.57212704, 49.23144536 ], [ 18.57216013, 49.23145065 ], [ 18.57231259, 49.23147535 ], [ 18.5724061, 49.2314866 ], [ 18.5725744, 49.23150691 ], [ 18.57267159, 49.2315207 ], [ 18.57283877, 49.23154447 ], [ 18.57288127, 49.23154946 ], [ 18.57302152, 49.23156601 ], [ 18.57306231, 49.23157145 ], [ 18.57319282, 49.23158874 ], [ 18.57339938, 49.23162257 ], [ 18.5734447, 49.23163141 ], [ 18.57359129, 49.23166003 ], [ 18.57363437, 49.23166812 ], [ 18.5737518, 49.23169301 ], [ 18.57386642, 49.23172831 ], [ 18.573981, 49.23176838 ], [ 18.57407448, 49.23180525 ], [ 18.57414034, 49.23182944 ], [ 18.57418934, 49.23184741 ], [ 18.57418299, 49.23185519 ], [ 18.57422869, 49.23187975 ], [ 18.57444027, 49.23199784 ], [ 18.57448345, 49.23207117 ], [ 18.57451735, 49.23209536 ], [ 18.57457958, 49.23213976 ], [ 18.57453887, 49.23216446 ], [ 18.57450845, 49.23218295 ], [ 18.57446955, 49.23220648 ], [ 18.57435638, 49.2322752 ], [ 18.57434057, 49.23228924 ], [ 18.57431063, 49.23231597 ], [ 18.57428474, 49.23233903 ], [ 18.5742497, 49.23237017 ], [ 18.5742563, 49.23237251 ], [ 18.574362, 49.23227866 ], [ 18.57454358, 49.2321676 ], [ 18.57455621, 49.23217568 ], [ 18.57459174, 49.23219996 ], [ 18.5746649, 49.23223961 ], [ 18.57478261, 49.23239778 ], [ 18.57480492, 49.23243417 ], [ 18.57490626, 49.23255798 ], [ 18.57493092, 49.23258664 ], [ 18.57500037, 49.23265479 ], [ 18.57501197, 49.23266561 ], [ 18.57509813, 49.23273565 ], [ 18.57509165, 49.23274008 ], [ 18.57516028, 49.23278725 ], [ 18.57520177, 49.23281573 ], [ 18.57538908, 49.23293081 ], [ 18.57545186, 49.23296973 ], [ 18.57552923, 49.23301755 ], [ 18.57562613, 49.23308329 ], [ 18.57567646, 49.23311486 ], [ 18.57572891, 49.23314492 ], [ 18.57573138, 49.23315056 ], [ 18.57577492, 49.23317473 ], [ 18.5757982, 49.23315054 ], [ 18.57585059, 49.23309633 ], [ 18.5758832, 49.23306253 ], [ 18.57586864, 49.23305778 ], [ 18.5758258, 49.2330423 ], [ 18.57583598, 49.23303031 ], [ 18.57576228, 49.23300272 ], [ 18.57572267, 49.23299003 ], [ 18.57569303, 49.23297256 ], [ 18.57563271, 49.23293712 ], [ 18.57545392, 49.23282439 ], [ 18.57538918, 49.23278357 ], [ 18.5753325, 49.23275427 ], [ 18.57527582, 49.23272497 ], [ 18.5752387, 49.2327034 ], [ 18.57522805, 49.23269715 ], [ 18.57524631, 49.23268441 ], [ 18.57518609, 49.23264707 ], [ 18.57518247, 49.23264517 ], [ 18.57515052, 49.23262306 ], [ 18.57513946, 49.23261128 ], [ 18.57514154, 49.23260128 ], [ 18.57508789, 49.23255988 ], [ 18.57506754, 49.232543 ], [ 18.57503074, 49.23251008 ], [ 18.57501131, 49.23249252 ], [ 18.57497656, 49.23245421 ], [ 18.57493914, 49.23241304 ], [ 18.57492246, 49.23237786 ], [ 18.57489358, 49.23234112 ], [ 18.57489863, 49.2323404 ], [ 18.57487914, 49.23231012 ], [ 18.57486538, 49.23228466 ], [ 18.57478104, 49.23215156 ], [ 18.57473674, 49.2320817 ], [ 18.57472919, 49.23202093 ], [ 18.57467379, 49.2320277 ], [ 18.5746198, 49.23196589 ], [ 18.57441716, 49.23183023 ], [ 18.57439699, 49.23181751 ], [ 18.57439832, 49.23177165 ], [ 18.57435543, 49.23177305 ], [ 18.57434602, 49.23167321 ], [ 18.57428098, 49.23166674 ], [ 18.57416821, 49.23167494 ], [ 18.574135, 49.23167614 ], [ 18.57403536, 49.23164336 ], [ 18.57401286, 49.23163602 ], [ 18.57400985, 49.23163802 ], [ 18.57379209, 49.23158582 ], [ 18.57367996, 49.23156139 ], [ 18.57362447, 49.23154795 ], [ 18.5735476, 49.23153137 ], [ 18.57347496, 49.23151628 ], [ 18.5733523, 49.23148904 ], [ 18.57330043, 49.2314775 ], [ 18.57324064, 49.23146428 ], [ 18.57302905, 49.23144308 ], [ 18.57301465, 49.2314415 ], [ 18.57279995, 49.23141761 ], [ 18.57259848, 49.23139822 ], [ 18.572536, 49.23139216 ], [ 18.57234807, 49.23136357 ], [ 18.57213745, 49.23132916 ], [ 18.57210275, 49.23132351 ], [ 18.57198282, 49.23129875 ], [ 18.57185473, 49.23126436 ], [ 18.57172079, 49.2312227 ], [ 18.57163526, 49.23118725 ], [ 18.57161784, 49.23118009 ], [ 18.57152228, 49.23112569 ], [ 18.57141607, 49.23106513 ], [ 18.57137398, 49.23103815 ], [ 18.57126571, 49.23096864 ], [ 18.57114865, 49.23089351 ], [ 18.57112544, 49.23087855 ], [ 18.57093544, 49.23075764 ], [ 18.5708414, 49.23069782 ], [ 18.57081646, 49.23068024 ], [ 18.5708052, 49.23067223 ], [ 18.570767, 49.23063842 ], [ 18.57064913, 49.23053447 ] ] ] } },
{ "type": "Feature", "properties": { "@featureType": "CadastralParcel", "areaValue": { "value": 2130, "@uom": "m2" }, "beginLifespanVersion": { "@nilReason": "http://inspire.ec.europa.eu/codelist/VoidReasonValue/Unpopulated", "@nil": "true" }, "endLifespanVersion": { "@nilReason": "http://inspire.ec.europa.eu/codelist/VoidReasonValue/Unpopulated", "@nil": "true" }, "inspireId": { "@dataType": "Identifier", "localId": "807711_985.C", "namespace": "SK.ESKN.CP", "versionId": "20260703T05:07:26" }, "label": "985", "nationalCadastralReference": "807711_985.C", "referencePoint": { "type": "Point", "coordinates": [ 18.57143763, 49.232232 ] }, "validFrom": "2026-06-30T16:00:00Z", "validTo": { "@nilReason": "http://inspire.ec.europa.eu/codelist/VoidReasonValue/Unpopulated", "@nil": "true" }, "administrativeUnit": { "@href": "#auAdmUnitS.123" } }, "geometry": { "type": "Polygon", "coordinates": [ [ [ 18.57226325, 49.23242737 ], [ 18.57209591, 49.23237959 ], [ 18.57201038, 49.23235515 ], [ 18.57185457, 49.23231096 ], [ 18.57173389, 49.23227678 ], [ 18.57148869, 49.23220713 ], [ 18.57143202, 49.23219101 ], [ 18.57131136, 49.23215665 ], [ 18.57125868, 49.23214164 ], [ 18.57118071, 49.2321195 ], [ 18.57112429, 49.23210356 ], [ 18.5710636, 49.2320865 ], [ 18.57096989, 49.23206027 ], [ 18.57092837, 49.23204856 ], [ 18.57079076, 49.23200878 ], [ 18.57072054, 49.23198859 ], [ 18.57067613, 49.23197574 ], [ 18.57054017, 49.23193704 ], [ 18.57042509, 49.23190433 ], [ 18.57030837, 49.23187153 ], [ 18.57025633, 49.23185692 ], [ 18.57005708, 49.23179993 ], [ 18.57003061, 49.23179237 ], [ 18.56993139, 49.23176395 ], [ 18.5698307, 49.23173517 ], [ 18.5698146, 49.23169866 ], [ 18.5697358, 49.23181633 ], [ 18.56978979, 49.23180326 ], [ 18.56987602, 49.23182765 ], [ 18.56990077, 49.23183466 ], [ 18.57014348, 49.23190319 ], [ 18.5702898, 49.23194497 ], [ 18.57033797, 49.23195866 ], [ 18.57046938, 49.23199621 ], [ 18.57059367, 49.23203131 ], [ 18.5706437, 49.23204545 ], [ 18.57069719, 49.2320606 ], [ 18.57083478, 49.23209948 ], [ 18.57092514, 49.23212499 ], [ 18.5709761, 49.23213946 ], [ 18.57111236, 49.2321779 ], [ 18.57121513, 49.23220769 ], [ 18.57127137, 49.23222398 ], [ 18.57132668, 49.23224003 ], [ 18.57146203, 49.23227924 ], [ 18.57165072, 49.2323325 ], [ 18.57184048, 49.23238609 ], [ 18.57195885, 49.23242005 ], [ 18.57201671, 49.2324366 ], [ 18.57221798, 49.23249288 ], [ 18.5723076, 49.23251881 ], [ 18.572402, 49.23254616 ], [ 18.572597, 49.23260192 ], [ 18.57267255, 49.23262348 ], [ 18.57285602, 49.23267457 ], [ 18.57301404, 49.2327186 ], [ 18.57303183, 49.2327515 ], [ 18.57313667, 49.23264705 ], [ 18.57307478, 49.23265825 ], [ 18.5729348, 49.23261862 ], [ 18.57287294, 49.23260104 ], [ 18.57283994, 49.23259169 ], [ 18.57270821, 49.23255439 ], [ 18.57251541, 49.23249974 ], [ 18.57246887, 49.23248632 ], [ 18.57226325, 49.23242737 ] ] ] } },
{ "type": "Feature", "properties": { "@featureType": "CadastralParcel", "areaValue": { "value": 3070, "@uom": "m2" }, "beginLifespanVersion": { "@nilReason": "http://inspire.ec.europa.eu/codelist/VoidReasonValue/Unpopulated", "@nil": "true" }, "endLifespanVersion": { "@nilReason": "http://inspire.ec.europa.eu/codelist/VoidReasonValue/Unpopulated", "@nil": "true" }, "inspireId": { "@dataType": "Identifier", "localId": "807711_988/1.C", "namespace": "SK.ESKN.CP", "versionId": "20260703T05:07:26" }, "label": "988/1", "nationalCadastralReference": "807711_988/1.C", "referencePoint": { "type": "Point", "coordinates": [ 18.5712617, 49.23496111 ] }, "validFrom": "2026-06-30T16:00:00Z", "validTo": { "@nilReason": "http://inspire.ec.europa.eu/codelist/VoidReasonValue/Unpopulated", "@nil": "true" }, "administrativeUnit": { "@href": "#auAdmUnitS.123" } }, "geometry": { "type": "Polygon", "coordinates": [ [ [ 18.5717405, 49.23449957 ], [ 18.57181819, 49.23441613 ], [ 18.57187069, 49.23435994 ], [ 18.57194727, 49.23427428 ], [ 18.57198189, 49.23423554 ], [ 18.57214875, 49.2340968 ], [ 18.57224599, 49.23402 ], [ 18.57232258, 49.23395961 ], [ 18.57240274, 49.23385203 ], [ 18.57244165, 49.23381523 ], [ 18.57248059, 49.23378701 ], [ 18.57259913, 49.23371289 ], [ 18.57268329, 49.23366905 ], [ 18.57280238, 49.23361364 ], [ 18.5728333, 49.23361873 ], [ 18.57284862, 49.23359212 ], [ 18.57293427, 49.2335628 ], [ 18.57300718, 49.23354388 ], [ 18.57314144, 49.23352132 ], [ 18.57317613, 49.23351939 ], [ 18.57320923, 49.23352243 ], [ 18.57324199, 49.23353041 ], [ 18.57331534, 49.23351567 ], [ 18.57334971, 49.23351734 ], [ 18.5733827, 49.23352236 ], [ 18.573541, 49.23355874 ], [ 18.57393513, 49.23364946 ], [ 18.5740129, 49.23366662 ], [ 18.57407165, 49.23367609 ], [ 18.57448518, 49.23376262 ], [ 18.57471568, 49.23383201 ], [ 18.57483685, 49.23388219 ], [ 18.57487499, 49.23390544 ], [ 18.5749013, 49.23392977 ], [ 18.57490662, 49.23395992 ], [ 18.57508985, 49.23377838 ], [ 18.57497403, 49.23382305 ], [ 18.57489655, 49.233829 ], [ 18.5744069, 49.23367911 ], [ 18.57399029, 49.23358087 ], [ 18.573968, 49.23361035 ], [ 18.57370901, 49.23355061 ], [ 18.57362545, 49.23353133 ], [ 18.57344886, 49.23349352 ], [ 18.5733586, 49.23348155 ], [ 18.57327739, 49.23347538 ], [ 18.57323104, 49.23347587 ], [ 18.57315079, 49.23347968 ], [ 18.5730694, 49.23348822 ], [ 18.5729902, 49.23350336 ], [ 18.57295428, 49.23351298 ], [ 18.57281627, 49.23355998 ], [ 18.57281024, 49.23356083 ], [ 18.57275833, 49.23357816 ], [ 18.57269993, 49.23360552 ], [ 18.572572, 49.23367318 ], [ 18.57243784, 49.23360029 ], [ 18.57253107, 49.23353348 ], [ 18.57242503, 49.2335969 ], [ 18.57237176, 49.23362516 ], [ 18.57239492, 49.23365808 ], [ 18.57239585, 49.23371226 ], [ 18.57239295, 49.23372329 ], [ 18.57237304, 49.23377338 ], [ 18.57236045, 49.23380465 ], [ 18.5723364, 49.23382727 ], [ 18.57230087, 49.23386785 ], [ 18.5721332, 49.23402072 ], [ 18.57209461, 49.23405708 ], [ 18.57191201, 49.23422908 ], [ 18.57159128, 49.23455128 ], [ 18.57153639, 49.23461113 ], [ 18.57123774, 49.23493741 ], [ 18.57119086, 49.23499489 ], [ 18.57117027, 49.23502843 ], [ 18.57088784, 49.23540448 ], [ 18.5705728, 49.23587036 ], [ 18.57046397, 49.23601979 ], [ 18.5703408, 49.23618912 ], [ 18.57029361, 49.23625786 ], [ 18.5702522, 49.2364037 ], [ 18.57029737, 49.23634666 ], [ 18.57040041, 49.23620161 ], [ 18.57044741, 49.23613223 ], [ 18.57049161, 49.23607631 ], [ 18.5705082, 49.23605167 ], [ 18.57055406, 49.23598367 ], [ 18.57062047, 49.23589899 ], [ 18.57064159, 49.23585357 ], [ 18.57066171, 49.23582497 ], [ 18.57070406, 49.23576517 ], [ 18.57071224, 49.2357537 ], [ 18.57079546, 49.23564151 ], [ 18.57082634, 49.23558416 ], [ 18.57086705, 49.23553636 ], [ 18.57097013, 49.23540313 ], [ 18.57108987, 49.23524796 ], [ 18.57114044, 49.23518518 ], [ 18.57116396, 49.23515143 ], [ 18.57118517, 49.23512063 ], [ 18.57125869, 49.23502208 ], [ 18.5712854, 49.23498481 ], [ 18.57132601, 49.23493565 ], [ 18.57137458, 49.23489107 ], [ 18.57145663, 49.23480354 ], [ 18.57150484, 49.23475199 ], [ 18.57162292, 49.23462543 ], [ 18.5717405, 49.23449957 ] ] ] } },
{ "type": "Feature", "properties": { "@featureType": "CadastralParcel", "areaValue": { "value": 11386, "@uom": "m2" }, "beginLifespanVersion": { "@nilReason": "http://inspire.ec.europa.eu/codelist/VoidReasonValue/Unpopulated", "@nil": "true" }, "endLifespanVersion": { "@nilReason": "http://inspire.ec.europa.eu/codelist/VoidReasonValue/Unpopulated", "@nil": "true" }, "inspireId": { "@dataType": "Identifier", "localId": "807711_177/1.C", "namespace": "SK.ESKN.CP", "versionId": "20260703T05:07:26" }, "label": "177/1", "nationalCadastralReference": "807711_177/1.C", "referencePoint": { "type": "Point", "coordinates": [ 18.56857491, 49.23404904 ] }, "validFrom": "2026-06-30T16:00:00Z", "validTo": { "@nilReason": "http://inspire.ec.europa.eu/codelist/VoidReasonValue/Unpopulated", "@nil": "true" }, "administrativeUnit": { "@href": "#auAdmUnitS.123" } }, "geometry": { "type": "Polygon", "coordinates": [ [ [ 18.56870866, 49.233364 ], [ 18.56819064, 49.2341325 ], [ 18.57022972, 49.23477789 ], [ 18.57028311, 49.23476524 ], [ 18.57109454, 49.23457252 ], [ 18.5717504, 49.23394187 ], [ 18.57167323, 49.23397933 ], [ 18.57143534, 49.23390628 ], [ 18.57125689, 49.23385149 ], [ 18.57117569, 49.23382656 ], [ 18.5710739, 49.23379547 ], [ 18.57085549, 49.23372861 ], [ 18.57071204, 49.23368473 ], [ 18.57062473, 49.23365803 ], [ 18.57056428, 49.23363899 ], [ 18.57041663, 49.23359244 ], [ 18.57034622, 49.23357044 ], [ 18.57018952, 49.23352133 ], [ 18.5701617, 49.23351243 ], [ 18.56997878, 49.23345371 ], [ 18.56991533, 49.23343334 ], [ 18.5696848, 49.23335987 ], [ 18.56961308, 49.23333734 ], [ 18.56941515, 49.23327528 ], [ 18.56924428, 49.23349879 ], [ 18.56923184, 49.23351229 ], [ 18.56870866, 49.233364 ] ], [ [ 18.56910131, 49.23439589 ], [ 18.56903926, 49.23437434 ], [ 18.56906183, 49.2343492 ], [ 18.56906209, 49.23434931 ], [ 18.56912404, 49.23437068 ], [ 18.56910131, 49.23439589 ] ], [ [ 18.56929834, 49.23432771 ], [ 18.56923967, 49.23436823 ], [ 18.56906774, 49.23426137 ], [ 18.56901878, 49.23423095 ], [ 18.56907655, 49.23418993 ], [ 18.56911346, 49.23416367 ], [ 18.56933591, 49.23430167 ], [ 18.56929834, 49.23432771 ] ], [ [ 18.56884221, 49.23429635 ], [ 18.56868466, 49.23420786 ], [ 18.56896042, 49.23400721 ], [ 18.56911185, 49.23410061 ], [ 18.56884221, 49.23429635 ] ], [ [ 18.57049661, 49.23470083 ], [ 18.56999494, 49.23439391 ], [ 18.57088533, 49.23376974 ], [ 18.57138759, 49.23407632 ], [ 18.57049661, 49.23470083 ] ], [ [ 18.57051125, 49.23402176 ], [ 18.56979814, 49.23450758 ], [ 18.56874786, 49.23385071 ], [ 18.56946554, 49.23336794 ], [ 18.57051125, 49.23402176 ] ] ] } },
{ "type": "Feature", "properties": { "@featureType": "CadastralParcel", "areaValue": { "value": 2000, "@uom": "m2" }, "beginLifespanVersion": { "@nilReason": "http://inspire.ec.europa.eu/codelist/VoidReasonValue/Unpopulated", "@nil": "true" }, "endLifespanVersion": { "@nilReason": "http://inspire.ec.europa.eu/codelist/VoidReasonValue/Unpopulated", "@nil": "true" }, "inspireId": { "@dataType": "Identifier", "localId": "807711_983.C", "namespace": "SK.ESKN.CP", "versionId": "20260703T05:07:26" }, "label": "983", "nationalCadastralReference": "807711_983.C", "referencePoint": { "type": "Point", "coordinates": [ 18.57073574, 49.23309049 ] }, "validFrom": "2026-06-30T16:00:00Z", "validTo": { "@nilReason": "http://inspire.ec.europa.eu/codelist/VoidReasonValue/Unpopulated", "@nil": "true" }, "administrativeUnit": { "@href": "#auAdmUnitS.123" } }, "geometry": { "type": "Polygon", "coordinates": [ [ [ 18.56989854, 49.23281385 ], [ 18.56970998, 49.23275951 ], [ 18.56956223, 49.2327181 ], [ 18.56924212, 49.23262836 ], [ 18.569221, 49.2325924 ], [ 18.56914672, 49.23270913 ], [ 18.56919742, 49.2326948 ], [ 18.56941927, 49.23275734 ], [ 18.56947702, 49.23277361 ], [ 18.56948661, 49.23277629 ], [ 18.56953451, 49.23278987 ], [ 18.56970626, 49.23283871 ], [ 18.56976905, 49.23285661 ], [ 18.56990448, 49.23289519 ], [ 18.56992085, 49.23289977 ], [ 18.57005645, 49.23293809 ], [ 18.57011779, 49.23295546 ], [ 18.57015624, 49.23296637 ], [ 18.57021851, 49.23298397 ], [ 18.57027612, 49.23300033 ], [ 18.57034934, 49.23302077 ], [ 18.57046171, 49.23305207 ], [ 18.57050374, 49.23306407 ], [ 18.5706473, 49.2331048 ], [ 18.5708495, 49.23316249 ], [ 18.57088023, 49.23317127 ], [ 18.57089592, 49.23317581 ], [ 18.57101854, 49.233211 ], [ 18.571169, 49.23325499 ], [ 18.57118987, 49.23326107 ], [ 18.57125563, 49.23327949 ], [ 18.57138911, 49.23331706 ], [ 18.5715733, 49.23337008 ], [ 18.57160495, 49.23337918 ], [ 18.57168502, 49.23340216 ], [ 18.57175896, 49.23342345 ], [ 18.57216984, 49.23353989 ], [ 18.57218635, 49.23357307 ], [ 18.57230656, 49.23346585 ], [ 18.5722448, 49.23347931 ], [ 18.57211064, 49.23344161 ], [ 18.57197635, 49.23340381 ], [ 18.57191342, 49.23338591 ], [ 18.57178915, 49.23334847 ], [ 18.57160077, 49.23329486 ], [ 18.57143497, 49.23325014 ], [ 18.57137561, 49.23323342 ], [ 18.57122176, 49.23319015 ], [ 18.57118133, 49.23317851 ], [ 18.57114595, 49.23316839 ], [ 18.57102294, 49.23313301 ], [ 18.57092519, 49.23310493 ], [ 18.57090749, 49.23309992 ], [ 18.57084179, 49.23308105 ], [ 18.57066836, 49.2330324 ], [ 18.5706054, 49.23301476 ], [ 18.57046404, 49.23297514 ], [ 18.57037956, 49.23295111 ], [ 18.57027551, 49.23292162 ], [ 18.57017147, 49.23289203 ], [ 18.57008712, 49.2328681 ], [ 18.56999908, 49.2328428 ], [ 18.56994256, 49.2328265 ], [ 18.56989854, 49.23281385 ] ] ] } },
{ "type": "Feature", "properties": { "@featureType": "CadastralParcel", "areaValue": { "value": 220, "@uom": "m2" }, "beginLifespanVersion": { "@nilReason": "http://inspire.ec.europa.eu/codelist/VoidReasonValue/Unpopulated", "@nil": "true" }, "endLifespanVersion": { "@nilReason": "http://inspire.ec.europa.eu/codelist/VoidReasonValue/Unpopulated", "@nil": "true" }, "inspireId": { "@dataType": "Identifier", "localId": "807711_158/1.C", "namespace": "SK.ESKN.CP", "versionId": "20260703T05:07:26" }, "label": "158/1", "nationalCadastralReference": "807711_158/1.C", "referencePoint": { "type": "Point", "coordinates": [ 18.5700991, 49.23321773 ] }, "validFrom": "2026-06-30T16:00:00Z", "validTo": { "@nilReason": "http://inspire.ec.europa.eu/codelist/VoidReasonValue/Unpopulated", "@nil": "true" }, "administrativeUnit": { "@href": "#auAdmUnitS.123" } }, "geometry": { "type": "Polygon", "coordinates": [ [ [ 18.56994336, 49.23340426 ], [ 18.5699971, 49.23341959 ], [ 18.57011559, 49.23324145 ], [ 18.57017532, 49.23315172 ], [ 18.57017888, 49.23314641 ], [ 18.57027612, 49.23300033 ], [ 18.57021851, 49.23298397 ], [ 18.57021915, 49.23298545 ], [ 18.57021858, 49.23298785 ], [ 18.5701895, 49.23303194 ], [ 18.57015924, 49.23307769 ], [ 18.57012094, 49.23313599 ], [ 18.5700824, 49.23319401 ], [ 18.57004409, 49.23325231 ], [ 18.57000554, 49.23331042 ], [ 18.5699454, 49.23340121 ], [ 18.56994336, 49.23340426 ] ] ] } },
{ "type": "Feature", "properties": { "@featureType": "CadastralParcel", "areaValue": { "value": 1747, "@uom": "m2" }, "beginLifespanVersion": { "@nilReason": "http://inspire.ec.europa.eu/codelist/VoidReasonValue/Unpopulated", "@nil": "true" }, "endLifespanVersion": { "@nilReason": "http://inspire.ec.europa.eu/codelist/VoidReasonValue/Unpopulated", "@nil": "true" }, "inspireId": { "@dataType": "Identifier", "localId": "807711_937.E", "namespace": "SK.ESKN.CP", "versionId": "20260703T05:07:26" }, "label": "937", "nationalCadastralReference": "807711_937.E", "referencePoint": { "type": "Point", "coordinates": [ 18.57642518, 49.23458168 ] }, "validFrom": "2026-06-30T16:00:00Z", "validTo": { "@nilReason": "http://inspire.ec.europa.eu/codelist/VoidReasonValue/Unpopulated", "@nil": "true" }, "administrativeUnit": { "@href": "#auAdmUnitS.123" } }, "geometry": { "type": "MultiPolygon", "coordinates": [ [ [ [ 18.5778885, 49.2350126 ], [ 18.57776168, 49.23496456 ], [ 18.57765712, 49.23493143 ], [ 18.57765474, 49.23493059 ], [ 18.57753305, 49.23488896 ], [ 18.57745966, 49.23486102 ], [ 18.5772923, 49.23480008 ], [ 18.57721081, 49.23477522 ], [ 18.57720723, 49.23477413 ], [ 18.5771174, 49.23474107 ], [ 18.57699517, 49.23469607 ], [ 18.57694993, 49.23468544 ], [ 18.5767612, 49.23464112 ], [ 18.57665478, 49.23461619 ], [ 18.57640617, 49.23454501 ], [ 18.57635303, 49.23452818 ], [ 18.57618075, 49.23447355 ], [ 18.57606128, 49.23442077 ], [ 18.5760524, 49.23441686 ], [ 18.57595369, 49.2343854 ], [ 18.57593669, 49.23438034 ], [ 18.57593364, 49.23437936 ], [ 18.57573053, 49.23432885 ], [ 18.5757157, 49.23432517 ], [ 18.57566641, 49.23431278 ], [ 18.57550408, 49.23427222 ], [ 18.57550889, 49.23426571 ], [ 18.57528264, 49.23419754 ], [ 18.57516872, 49.23416544 ], [ 18.57513487, 49.23414639 ], [ 18.57500685, 49.2341102 ], [ 18.5749768, 49.23416759 ], [ 18.57511486, 49.23421046 ], [ 18.57525132, 49.23425297 ], [ 18.5752983, 49.23426731 ], [ 18.57536877, 49.23428878 ], [ 18.57542178, 49.23431003 ], [ 18.57547936, 49.23433324 ], [ 18.5755657, 49.23436007 ], [ 18.57570655, 49.2344038 ], [ 18.57578099, 49.23442548 ], [ 18.57593439, 49.23447134 ], [ 18.57608805, 49.23451739 ], [ 18.57623751, 49.23455726 ], [ 18.57639467, 49.23460611 ], [ 18.57643707, 49.23462075 ], [ 18.57653018, 49.2346529 ], [ 18.57656765, 49.23466393 ], [ 18.57673604, 49.23471339 ], [ 18.57680802, 49.23473051 ], [ 18.57694223, 49.23476235 ], [ 18.57708989, 49.23481231 ], [ 18.57729757, 49.23488246 ], [ 18.57737358, 49.2349081 ], [ 18.57750247, 49.23495165 ], [ 18.57756507, 49.23497224 ], [ 18.57764594, 49.23499877 ], [ 18.57782371, 49.23506353 ], [ 18.5778885, 49.2350126 ] ] ], [ [ [ 18.57904049, 49.2356087 ], [ 18.57912084, 49.23549391 ], [ 18.57916394, 49.23543243 ], [ 18.57916545, 49.23543026 ], [ 18.57923289, 49.23533391 ], [ 18.57921314, 49.23532879 ], [ 18.57907732, 49.23552126 ], [ 18.57902023, 49.23560211 ], [ 18.57904049, 49.2356087 ] ] ] ] } },
{ "type": "Feature", "properties": { "@featureType": "CadastralParcel", "areaValue": { "value": 2933, "@uom": "m2" }, "beginLifespanVersion": { "@nilReason": "http://inspire.ec.europa.eu/codelist/VoidReasonValue/Unpopulated", "@nil": "true" }, "endLifespanVersion": { "@nilReason": "http://inspire.ec.europa.eu/codelist/VoidReasonValue/Unpopulated", "@nil": "true" }, "inspireId": { "@dataType": "Identifier", "localId": "807711_933.E", "namespace": "SK.ESKN.CP", "versionId": "20260703T05:07:26" }, "label": "933", "nationalCadastralReference": "807711_933.E", "referencePoint": { "type": "Point", "coordinates": [ 18.57145923, 49.23115289 ] }, "validFrom": "2026-06-30T16:00:00Z", "validTo": { "@nilReason": "http://inspire.ec.europa.eu/codelist/VoidReasonValue/Unpopulated", "@nil": "true" }, "administrativeUnit": { "@href": "#auAdmUnitS.123" } }, "geometry": { "type": "Polygon", "coordinates": [ [ [ 18.57064913, 49.23053447 ], [ 18.57060814, 49.23056033 ], [ 18.57053636, 49.23060546 ], [ 18.57052813, 49.23061071 ], [ 18.57128675, 49.23111972 ], [ 18.57151664, 49.2312434 ], [ 18.57191689, 49.23138192 ], [ 18.57204316, 49.23140557 ], [ 18.57276314, 49.23150369 ], [ 18.57352224, 49.231603 ], [ 18.57384607, 49.23168399 ], [ 18.5740848, 49.23178334 ], [ 18.574135, 49.23167614 ], [ 18.57403536, 49.23164336 ], [ 18.57400985, 49.23163802 ], [ 18.57379209, 49.23158582 ], [ 18.57373388, 49.23157313 ], [ 18.57367996, 49.23156139 ], [ 18.57362447, 49.23154795 ], [ 18.5735476, 49.23153137 ], [ 18.57347496, 49.23151628 ], [ 18.5733523, 49.23148904 ], [ 18.57324064, 49.23146428 ], [ 18.57302905, 49.23144308 ], [ 18.57301465, 49.2314415 ], [ 18.57279995, 49.23141761 ], [ 18.57259848, 49.23139822 ], [ 18.572536, 49.23139216 ], [ 18.57234807, 49.23136357 ], [ 18.57210275, 49.23132351 ], [ 18.57198282, 49.23129875 ], [ 18.57185473, 49.23126436 ], [ 18.57172079, 49.2312227 ], [ 18.57163526, 49.23118725 ], [ 18.57161784, 49.23118009 ], [ 18.57152228, 49.23112569 ], [ 18.57141607, 49.23106513 ], [ 18.57137398, 49.23103815 ], [ 18.57126571, 49.23096864 ], [ 18.57114865, 49.23089351 ], [ 18.57112544, 49.23087855 ], [ 18.57093544, 49.23075764 ], [ 18.5708414, 49.23069782 ], [ 18.57081646, 49.23068024 ], [ 18.5708052, 49.23067223 ], [ 18.570767, 49.23063842 ], [ 18.57071315, 49.23059096 ], [ 18.57064913, 49.23053447 ] ] ] } },
{ "type": "Feature", "properties": { "@featureType": "CadastralParcel", "areaValue": { "value": 940, "@uom": "m2" }, "beginLifespanVersion": { "@nilReason": "http://inspire.ec.europa.eu/codelist/VoidReasonValue/Unpopulated", "@nil": "true" }, "endLifespanVersion": { "@nilReason": "http://inspire.ec.europa.eu/codelist/VoidReasonValue/Unpopulated", "@nil": "true" }, "inspireId": { "@dataType": "Identifier", "localId": "807711_934.E", "namespace": "SK.ESKN.CP", "versionId": "20260703T05:07:26" }, "label": "934", "nationalCadastralReference": "807711_934.E", "referencePoint": { "type": "Point", "coordinates": [ 18.57144175, 49.23121879 ] }, "validFrom": "2026-06-30T16:00:00Z", "validTo": { "@nilReason": "http://inspire.ec.europa.eu/codelist/VoidReasonValue/Unpopulated", "@nil": "true" }, "administrativeUnit": { "@href": "#auAdmUnitS.123" } }, "geometry": { "type": "Polygon", "coordinates": [ [ [ 18.57052813, 49.23061071 ], [ 18.57049462, 49.23063182 ], [ 18.57064539, 49.23073051 ], [ 18.57068291, 49.23075544 ], [ 18.57079064, 49.230827 ], [ 18.57095191, 49.23093969 ], [ 18.57109872, 49.23103257 ], [ 18.57113029, 49.23105439 ], [ 18.57113879, 49.23106026 ], [ 18.57119178, 49.23109694 ], [ 18.57128332, 49.23114715 ], [ 18.57135182, 49.2311898 ], [ 18.57136106, 49.23119418 ], [ 18.57150627, 49.23126351 ], [ 18.57154194, 49.23127679 ], [ 18.57160275, 49.23129946 ], [ 18.57164868, 49.23131555 ], [ 18.57176719, 49.23135719 ], [ 18.57182075, 49.2313718 ], [ 18.57189174, 49.23139131 ], [ 18.57203333, 49.23143013 ], [ 18.57212704, 49.23144536 ], [ 18.57216013, 49.23145065 ], [ 18.57231259, 49.23147535 ], [ 18.5724061, 49.2314866 ], [ 18.5725744, 49.23150691 ], [ 18.57267159, 49.2315207 ], [ 18.57283877, 49.23154447 ], [ 18.57288127, 49.23154946 ], [ 18.57302152, 49.23156601 ], [ 18.57306231, 49.23157145 ], [ 18.57319282, 49.23158874 ], [ 18.57339938, 49.23162257 ], [ 18.5734447, 49.23163141 ], [ 18.57359129, 49.23166003 ], [ 18.57363437, 49.23166812 ], [ 18.5737518, 49.23169301 ], [ 18.57386642, 49.23172831 ], [ 18.573981, 49.23176838 ], [ 18.57407448, 49.23180525 ], [ 18.5740848, 49.23178334 ], [ 18.57384607, 49.23168399 ], [ 18.57352224, 49.231603 ], [ 18.57276314, 49.23150369 ], [ 18.57204316, 49.23140557 ], [ 18.57191689, 49.23138192 ], [ 18.57151664, 49.2312434 ], [ 18.57128675, 49.23111972 ], [ 18.57052813, 49.23061071 ] ] ] } },
{ "type": "Feature", "properties": { "@featureType": "CadastralParcel", "areaValue": { "value": 242, "@uom": "m2" }, "beginLifespanVersion": { "@nilReason": "http://inspire.ec.europa.eu/codelist/VoidReasonValue/Unpopulated", "@nil": "true" }, "endLifespanVersion": { "@nilReason": "http://inspire.ec.europa.eu/codelist/VoidReasonValue/Unpopulated", "@nil": "true" }, "inspireId": { "@dataType": "Identifier", "localId": "807711_923/3.E", "namespace": "SK.ESKN.CP", "versionId": "20260703T05:07:26" }, "label": "923/3", "nationalCadastralReference": "807711_923/3.E", "referencePoint": { "type": "Point", "coordinates": [ 18.57500679, 49.23391997 ] }, "validFrom": "2026-06-30T16:00:00Z", "validTo": { "@nilReason": "http://inspire.ec.europa.eu/codelist/VoidReasonValue/Unpopulated", "@nil": "true" }, "administrativeUnit": { "@href": "#auAdmUnitS.123" } }, "geometry": { "type": "Polygon", "coordinates": [ [ [ 18.57514586, 49.23372608 ], [ 18.57508985, 49.23377838 ], [ 18.57489328, 49.23398943 ], [ 18.57495687, 49.23405708 ], [ 18.57510562, 49.23385051 ], [ 18.57510899, 49.23384563 ], [ 18.57512348, 49.23384984 ], [ 18.57524444, 49.23372442 ], [ 18.57514586, 49.23372608 ] ] ] } },
{ "type": "Feature", "properties": { "@featureType": "CadastralParcel", "areaValue": { "value": 2877, "@uom": "m2" }, "beginLifespanVersion": { "@nilReason": "http://inspire.ec.europa.eu/codelist/VoidReasonValue/Unpopulated", "@nil": "true" }, "endLifespanVersion": { "@nilReason": "http://inspire.ec.europa.eu/codelist/VoidReasonValue/Unpopulated", "@nil": "true" }, "inspireId": { "@dataType": "Identifier", "localId": "807711_935/1.E", "namespace": "SK.ESKN.CP", "versionId": "20260703T05:07:26" }, "label": "935/1", "nationalCadastralReference": "807711_935/1.E", "referencePoint": { "type": "Point", "coordinates": [ 18.5712617, 49.23496111 ] }, "validFrom": "2026-06-30T16:00:00Z", "validTo": { "@nilReason": "http://inspire.ec.europa.eu/codelist/VoidReasonValue/Unpopulated", "@nil": "true" }, "administrativeUnit": { "@href": "#auAdmUnitS.123" } }, "geometry": { "type": "Polygon", "coordinates": [ [ [ 18.57508985, 49.23377838 ], [ 18.57497403, 49.23382305 ], [ 18.57489655, 49.233829 ], [ 18.5744069, 49.23367911 ], [ 18.57399029, 49.23358087 ], [ 18.573968, 49.23361035 ], [ 18.57370901, 49.23355061 ], [ 18.57362545, 49.23353133 ], [ 18.57344886, 49.23349352 ], [ 18.57335888, 49.23348156 ], [ 18.57327739, 49.23347538 ], [ 18.57323104, 49.23347587 ], [ 18.57315079, 49.23347968 ], [ 18.5730694, 49.23348822 ], [ 18.5729902, 49.23350336 ], [ 18.57295428, 49.23351298 ], [ 18.57281627, 49.23355998 ], [ 18.57281024, 49.23356083 ], [ 18.57275833, 49.23357816 ], [ 18.57269993, 49.23360552 ], [ 18.57257687, 49.23367064 ], [ 18.572572, 49.23367318 ], [ 18.57254656, 49.23369148 ], [ 18.57250426, 49.23372674 ], [ 18.57227006, 49.23389597 ], [ 18.5721332, 49.23402072 ], [ 18.57209461, 49.23405708 ], [ 18.57191201, 49.23422908 ], [ 18.57159128, 49.23455128 ], [ 18.57153639, 49.23461113 ], [ 18.57123774, 49.23493741 ], [ 18.57119086, 49.23499489 ], [ 18.57117027, 49.23502843 ], [ 18.57088784, 49.23540448 ], [ 18.5705728, 49.23587036 ], [ 18.57046397, 49.23601979 ], [ 18.5703408, 49.23618912 ], [ 18.57029361, 49.23625786 ], [ 18.5702522, 49.2364037 ], [ 18.57029737, 49.23634666 ], [ 18.57040041, 49.23620161 ], [ 18.57040497, 49.23619491 ], [ 18.57042714, 49.23616208 ], [ 18.57044741, 49.23613223 ], [ 18.57049161, 49.23607631 ], [ 18.57055406, 49.23598367 ], [ 18.57058539, 49.23594367 ], [ 18.57062047, 49.23589899 ], [ 18.57064159, 49.23585357 ], [ 18.57066171, 49.23582497 ], [ 18.57070406, 49.23576517 ], [ 18.57071224, 49.2357537 ], [ 18.57073777, 49.23571934 ], [ 18.5707658, 49.23568142 ], [ 18.57079546, 49.23564151 ], [ 18.57082634, 49.23558416 ], [ 18.57086705, 49.23553636 ], [ 18.57097013, 49.23540313 ], [ 18.57108987, 49.23524796 ], [ 18.57114044, 49.23518518 ], [ 18.57116396, 49.23515143 ], [ 18.57118517, 49.23512063 ], [ 18.57125869, 49.23502208 ], [ 18.5712854, 49.23498481 ], [ 18.57132601, 49.23493565 ], [ 18.57137458, 49.23489107 ], [ 18.57145663, 49.23480354 ], [ 18.57150484, 49.23475199 ], [ 18.57162292, 49.23462543 ], [ 18.5717405, 49.23449957 ], [ 18.57181819, 49.23441613 ], [ 18.57187069, 49.23435994 ], [ 18.57194727, 49.23427428 ], [ 18.57198189, 49.23423554 ], [ 18.57214875, 49.2340968 ], [ 18.57224599, 49.23402 ], [ 18.57232258, 49.23395961 ], [ 18.57240274, 49.23385203 ], [ 18.57244165, 49.23381523 ], [ 18.57248059, 49.23378701 ], [ 18.57259913, 49.23371289 ], [ 18.57268329, 49.23366905 ], [ 18.57280238, 49.23361364 ], [ 18.57284862, 49.23359212 ], [ 18.57293427, 49.2335628 ], [ 18.57300718, 49.23354388 ], [ 18.57314144, 49.23352132 ], [ 18.57317613, 49.23351939 ], [ 18.57331534, 49.23351567 ], [ 18.57334971, 49.23351734 ], [ 18.5733827, 49.23352236 ], [ 18.573541, 49.23355874 ], [ 18.57393513, 49.23364946 ], [ 18.5740129, 49.23366662 ], [ 18.57407165, 49.23367609 ], [ 18.57448518, 49.23376262 ], [ 18.57471568, 49.23383201 ], [ 18.57483685, 49.23388219 ], [ 18.57487499, 49.23390544 ], [ 18.5749013, 49.23392977 ], [ 18.57490662, 49.23395992 ], [ 18.57489328, 49.23398943 ], [ 18.57508985, 49.23377838 ] ] ] } }
]
}
