{
"type": "FeatureCollection",
"name": "gis",
"crs": { "type": "name", "properties": { "name": "urn:ogc:def:crs:OGC:1.3:CRS84" } },
"features": [
{ "type": "Feature", "properties": { "@featureType": "CadastralZoning", "beginLifespanVersion": { "@nilReason": "http://inspire.ec.europa.eu/codelist/VoidReasonValue/Unpopulated", "@nil": "true" }, "endLifespanVersion": { "@nilReason": "http://inspire.ec.europa.eu/codelist/VoidReasonValue/Unpopulated", "@nil": "true" }, "estimatedAccuracy": { "value": -1, "@uom": "m" }, "inspireId": { "@dataType": "Identifier", "localId": "843466", "namespace": "SK.ESKN.CP", "versionId": "20261005T06:10:45" }, "label": "Olcnava", "level": { "@href": "http://inspire.ec.europa.eu/codelist/CadastralZoningLevelValue/3rdOrder" }, "levelName": { "value": "Katastrálne územie", "@locale": "sk" }, "name": { "@dataType": "name", "GeographicalName": { "@dataType": "GeographicalName", "language": "SLK", "nativeness": { "@href": "http://inspire.ec.europa.eu/codelist/NativenessValue/endonym", "@title": "endonym" }, "nameStatus": { "@href": "http://inspire.ec.europa.eu/codelist/NameStatusValue/official", "@title": "official" }, "sourceOfName": { "@nilReason": "http://inspire.ec.europa.eu/codelist/VoidReasonValue/Unpopulated", "@nil": "true" }, "pronunciation": { "@dataType": "pronunciation", "@nilReason": "http://inspire.ec.europa.eu/codelist/VoidReasonValue/Unpopulated", "@nil": "true" }, "spelling": { "@dataType": "SpellingOfName", "text": "Olcnava", "script": "LATN" } } }, "nationalCadastalZoningReference": "843466", "validFrom": "2026-09-30T16:00:00Z", "validTo": { "@nilReason": "http://inspire.ec.europa.eu/codelist/VoidReasonValue/Unpopulated", "@nil": "true" } }, "geometry": { "type": "MultiPolygon", "coordinates": [ [ [ [ 20.75370596, 48.94314831 ], [ 20.75430616, 48.9431918 ], [ 20.754357, 48.94319547 ], [ 20.7544187, 48.94319998 ], [ 20.7544868, 48.94320489 ], [ 20.75460105, 48.94283346 ], [ 20.75468279, 48.94263073 ], [ 20.75474605, 48.94247409 ], [ 20.75481154, 48.94231168 ], [ 20.75493464, 48.94200656 ], [ 20.75498185, 48.94188944 ], [ 20.75502048, 48.9417938 ], [ 20.75503262, 48.9417637 ], [ 20.75506936, 48.94163729 ], [ 20.75510153, 48.94152693 ], [ 20.7551216, 48.94145793 ], [ 20.75517267, 48.94128276 ], [ 20.75517808, 48.9411567 ], [ 20.75518835, 48.94091301 ], [ 20.75518032, 48.94075873 ], [ 20.75516877, 48.94051274 ], [ 20.75515847, 48.94030363 ], [ 20.75514751, 48.94023291 ], [ 20.7550933, 48.93988556 ], [ 20.75497526, 48.9396108 ], [ 20.75491809, 48.93947758 ], [ 20.75518373, 48.93915433 ], [ 20.75604452, 48.93836835 ], [ 20.7562382, 48.93815217 ], [ 20.75634859, 48.93801763 ], [ 20.75643882, 48.93790759 ], [ 20.75650765, 48.93782382 ], [ 20.75661927, 48.93765375 ], [ 20.7568119, 48.9375927 ], [ 20.75683785, 48.93755407 ], [ 20.75688587, 48.93748254 ], [ 20.7569327, 48.93742565 ], [ 20.75716537, 48.93714302 ], [ 20.75792349, 48.93618881 ], [ 20.75805058, 48.93605728 ], [ 20.75827402, 48.9358262 ], [ 20.75877031, 48.93483507 ], [ 20.75912834, 48.93412547 ], [ 20.75946712, 48.93345445 ], [ 20.7595723, 48.93325218 ], [ 20.75958396, 48.93322972 ], [ 20.75959772, 48.93320318 ], [ 20.75962523, 48.93315029 ], [ 20.75973448, 48.93293997 ], [ 20.75978221, 48.93284817 ], [ 20.75997082, 48.93289746 ], [ 20.76004351, 48.9329164 ], [ 20.76007523, 48.93292472 ], [ 20.76011445, 48.93293501 ], [ 20.76012703, 48.93293833 ], [ 20.76016103, 48.93294718 ], [ 20.76019476, 48.93295601 ], [ 20.76034415, 48.93299511 ], [ 20.76040921, 48.93301207 ], [ 20.76050156, 48.93303629 ], [ 20.76050652, 48.93303754 ], [ 20.7606468, 48.93307425 ], [ 20.76064557, 48.93307772 ], [ 20.76062835, 48.93312845 ], [ 20.76061485, 48.93322451 ], [ 20.76055699, 48.93331137 ], [ 20.76044936, 48.93349491 ], [ 20.76037438, 48.9335501 ], [ 20.76034408, 48.93361388 ], [ 20.7603372, 48.93363642 ], [ 20.76031631, 48.93370557 ], [ 20.7603157, 48.93372329 ], [ 20.76031369, 48.93377527 ], [ 20.76033106, 48.93386477 ], [ 20.76035824, 48.93394119 ], [ 20.76043679, 48.93406533 ], [ 20.76054976, 48.93417628 ], [ 20.76058159, 48.93419342 ], [ 20.76072202, 48.93426895 ], [ 20.76078582, 48.93430333 ], [ 20.76080638, 48.93431441 ], [ 20.76093254, 48.93438223 ], [ 20.76116381, 48.93440429 ], [ 20.76117375, 48.93440473 ], [ 20.76149316, 48.93441871 ], [ 20.76155755, 48.93442367 ], [ 20.76161482, 48.9344237 ], [ 20.76171911, 48.93442375 ], [ 20.76176039, 48.93442375 ], [ 20.76182217, 48.93442376 ], [ 20.76191651, 48.93443021 ], [ 20.76201902, 48.93443714 ], [ 20.76206238, 48.9344401 ], [ 20.76211499, 48.93444374 ], [ 20.76263047, 48.93447891 ], [ 20.76279047, 48.93448983 ], [ 20.76281725, 48.93449166 ], [ 20.76295484, 48.9344737 ], [ 20.76312153, 48.93441019 ], [ 20.76324709, 48.9343194 ], [ 20.76333085, 48.93425885 ], [ 20.76342666, 48.93418953 ], [ 20.76352798, 48.93411626 ], [ 20.76373671, 48.93396534 ], [ 20.76393626, 48.93381978 ], [ 20.76398738, 48.93378248 ], [ 20.76427247, 48.93357462 ], [ 20.76496933, 48.93303518 ], [ 20.76516981, 48.93310857 ], [ 20.76541528, 48.93319857 ], [ 20.76569302, 48.93330033 ], [ 20.76578158, 48.9333327 ], [ 20.76584159, 48.9333547 ], [ 20.76634823, 48.93259066 ], [ 20.76685547, 48.93182584 ], [ 20.76690011, 48.93176895 ], [ 20.7670434, 48.93158692 ], [ 20.76713791, 48.93144029 ], [ 20.76714806, 48.93142461 ], [ 20.76721848, 48.93128344 ], [ 20.76727464, 48.9311514 ], [ 20.76728055, 48.93113738 ], [ 20.76728427, 48.9311285 ], [ 20.76729122, 48.93111182 ], [ 20.7673709, 48.93092027 ], [ 20.76737529, 48.93090988 ], [ 20.76755326, 48.93045359 ], [ 20.76772991, 48.93001868 ], [ 20.76773974, 48.92999155 ], [ 20.76774464, 48.92997831 ], [ 20.76783486, 48.92973219 ], [ 20.76794177, 48.9294401 ], [ 20.76799005, 48.92929554 ], [ 20.76803586, 48.92915449 ], [ 20.76807262, 48.92906978 ], [ 20.76809768, 48.92907417 ], [ 20.76827289, 48.92865875 ], [ 20.76865257, 48.92767656 ], [ 20.7688581, 48.92729003 ], [ 20.76894254, 48.92708495 ], [ 20.76903552, 48.92677229 ], [ 20.76940628, 48.92565957 ], [ 20.76983969, 48.92470025 ], [ 20.77003522, 48.92425951 ], [ 20.770121, 48.92397659 ], [ 20.77021586, 48.92370145 ], [ 20.7703295, 48.92346291 ], [ 20.77046181, 48.92308426 ], [ 20.77082219, 48.92227952 ], [ 20.7710672, 48.92170435 ], [ 20.77126393, 48.92118729 ], [ 20.77129352, 48.92099966 ], [ 20.77129899, 48.92090106 ], [ 20.77134101, 48.92083067 ], [ 20.77139064, 48.92069624 ], [ 20.77143623, 48.92064092 ], [ 20.77146685, 48.92056265 ], [ 20.7715556, 48.92039213 ], [ 20.77160257, 48.92022284 ], [ 20.77157747, 48.92018153 ], [ 20.77145154, 48.92006033 ], [ 20.77129944, 48.91996369 ], [ 20.7706836, 48.91960689 ], [ 20.77005269, 48.91921659 ], [ 20.76998602, 48.91925217 ], [ 20.76967268, 48.91926922 ], [ 20.7695261, 48.91927715 ], [ 20.76940208, 48.9193019 ], [ 20.76924692, 48.91936041 ], [ 20.76905441, 48.91943302 ], [ 20.76867864, 48.91945832 ], [ 20.76810029, 48.91947438 ], [ 20.76757839, 48.91957661 ], [ 20.76620483, 48.91971874 ], [ 20.76535223, 48.91983288 ], [ 20.76266749, 48.91964321 ], [ 20.76214433, 48.91965766 ], [ 20.76107422, 48.91950543 ], [ 20.7594379, 48.91943041 ], [ 20.7564616, 48.91929467 ], [ 20.75644919, 48.91929442 ], [ 20.75644019, 48.91929419 ], [ 20.75644326, 48.91923072 ], [ 20.75644309, 48.91919226 ], [ 20.75645831, 48.91912228 ], [ 20.75672197, 48.91861578 ], [ 20.75689732, 48.91819084 ], [ 20.75689003, 48.91801722 ], [ 20.75686303, 48.917959 ], [ 20.75699634, 48.9177652 ], [ 20.75705531, 48.91746819 ], [ 20.75706837, 48.91725413 ], [ 20.75725515, 48.91708175 ], [ 20.75724073, 48.91661745 ], [ 20.75749588, 48.91649006 ], [ 20.75744425, 48.91613118 ], [ 20.75735486, 48.91603168 ], [ 20.7573765, 48.91589402 ], [ 20.75763867, 48.91585225 ], [ 20.75765703, 48.9158347 ], [ 20.75751485, 48.91571723 ], [ 20.75769556, 48.91568584 ], [ 20.75771501, 48.91566833 ], [ 20.75756824, 48.91551639 ], [ 20.75762793, 48.91538124 ], [ 20.75770116, 48.91516993 ], [ 20.7577689, 48.91509251 ], [ 20.75767013, 48.91498909 ], [ 20.75761319, 48.91470944 ], [ 20.75772998, 48.91452379 ], [ 20.75792201, 48.91436573 ], [ 20.75826453, 48.91432884 ], [ 20.75833756, 48.91416723 ], [ 20.75849446, 48.91407701 ], [ 20.7584369, 48.91397431 ], [ 20.75872082, 48.91354281 ], [ 20.75868863, 48.91329853 ], [ 20.75863242, 48.91321965 ], [ 20.75862563, 48.91310738 ], [ 20.7586077, 48.91300121 ], [ 20.75885292, 48.91286626 ], [ 20.75898232, 48.91265457 ], [ 20.75890438, 48.91258259 ], [ 20.75885033, 48.91249055 ], [ 20.7588441, 48.91239676 ], [ 20.75869021, 48.91228059 ], [ 20.75878077, 48.91197461 ], [ 20.7587872, 48.91194574 ], [ 20.76020064, 48.91106512 ], [ 20.76084019, 48.91062484 ], [ 20.76215321, 48.91006191 ], [ 20.76336297, 48.90915592 ], [ 20.76545513, 48.90787847 ], [ 20.76635744, 48.907389 ], [ 20.76640234, 48.90737256 ], [ 20.7668695, 48.90685957 ], [ 20.76719723, 48.90639672 ], [ 20.76738072, 48.90614387 ], [ 20.76768189, 48.90592757 ], [ 20.76792884, 48.90566514 ], [ 20.76795008, 48.90523362 ], [ 20.76796478, 48.904778 ], [ 20.76801217, 48.90443556 ], [ 20.76844595, 48.90403289 ], [ 20.76868823, 48.90355705 ], [ 20.76927009, 48.90300483 ], [ 20.76971207, 48.90252724 ], [ 20.77012548, 48.90216005 ], [ 20.77055463, 48.90173118 ], [ 20.77091931, 48.90156032 ], [ 20.77113515, 48.90131913 ], [ 20.77115515, 48.90130488 ], [ 20.77111214, 48.90125538 ], [ 20.77100257, 48.90097733 ], [ 20.77097737, 48.90052158 ], [ 20.77095558, 48.90033746 ], [ 20.77091704, 48.90015267 ], [ 20.77071913, 48.89941765 ], [ 20.77063006, 48.89923793 ], [ 20.77045973, 48.899114 ], [ 20.76995527, 48.89902773 ], [ 20.76958149, 48.8987842 ], [ 20.76929481, 48.89848707 ], [ 20.76907724, 48.89793372 ], [ 20.76914201, 48.89744311 ], [ 20.7691237, 48.89723291 ], [ 20.76912121, 48.89721464 ], [ 20.76913549, 48.89720856 ], [ 20.76915713, 48.89719941 ], [ 20.76936566, 48.89711332 ], [ 20.77082637, 48.89605873 ], [ 20.77185445, 48.8948584 ], [ 20.77185865, 48.89485369 ], [ 20.77186691, 48.89484443 ], [ 20.77189153, 48.89481503 ], [ 20.77189969, 48.89480532 ], [ 20.77235075, 48.89428824 ], [ 20.77259288, 48.89375718 ], [ 20.77256822, 48.89338286 ], [ 20.77284334, 48.89240746 ], [ 20.7751488, 48.8905017 ], [ 20.77536486, 48.890296 ], [ 20.7754527, 48.89005781 ], [ 20.77560023, 48.88986367 ], [ 20.77603132, 48.88929671 ], [ 20.77652191, 48.88889329 ], [ 20.77666653, 48.88852956 ], [ 20.77691018, 48.88832879 ], [ 20.77706407, 48.88816072 ], [ 20.77722529, 48.88813249 ], [ 20.77752056, 48.88790956 ], [ 20.77780509, 48.88782187 ], [ 20.77796706, 48.88782357 ], [ 20.77811113, 48.88773683 ], [ 20.77896895, 48.88761333 ], [ 20.77924099, 48.8874873 ], [ 20.78057176, 48.88710122 ], [ 20.78089478, 48.88661224 ], [ 20.78124371, 48.88575934 ], [ 20.78139054, 48.88513453 ], [ 20.78142855, 48.8848548 ], [ 20.78158436, 48.8844277 ], [ 20.78157326, 48.88429376 ], [ 20.7816148, 48.88416571 ], [ 20.78173808, 48.88402647 ], [ 20.78202869, 48.88382705 ], [ 20.78203142, 48.88378959 ], [ 20.78203929, 48.88375952 ], [ 20.78204497, 48.88373819 ], [ 20.78206869, 48.88371308 ], [ 20.78182595, 48.88363086 ], [ 20.78141436, 48.88355472 ], [ 20.78114732, 48.88358133 ], [ 20.7810292, 48.88361701 ], [ 20.78086119, 48.88369094 ], [ 20.78059035, 48.88376316 ], [ 20.7803586, 48.88377705 ], [ 20.78012999, 48.88379095 ], [ 20.77987493, 48.88378403 ], [ 20.77929538, 48.88374191 ], [ 20.77911462, 48.88374154 ], [ 20.77902399, 48.88374441 ], [ 20.77883556, 48.88372387 ], [ 20.77862333, 48.88368855 ], [ 20.77844343, 48.88363841 ], [ 20.77834894, 48.88361115 ], [ 20.77828144, 48.88355899 ], [ 20.7781393, 48.88350621 ], [ 20.77799888, 48.88346943 ], [ 20.77771465, 48.88335981 ], [ 20.7775855, 48.88333738 ], [ 20.77739385, 48.88327881 ], [ 20.77726678, 48.88323051 ], [ 20.77710569, 48.88317905 ], [ 20.77697041, 48.8831564 ], [ 20.77681536, 48.88314702 ], [ 20.77665661, 48.88310554 ], [ 20.77635629, 48.88296348 ], [ 20.77619664, 48.88289414 ], [ 20.77602545, 48.8827746 ], [ 20.77582176, 48.88259403 ], [ 20.77569336, 48.88248589 ], [ 20.77551368, 48.88239388 ], [ 20.77538793, 48.88229187 ], [ 20.7753679, 48.88226919 ], [ 20.77533609, 48.88216046 ], [ 20.77523608, 48.88204737 ], [ 20.77504028, 48.8819249 ], [ 20.77485583, 48.88177688 ], [ 20.77465092, 48.88168804 ], [ 20.77432359, 48.88157294 ], [ 20.77415379, 48.88147533 ], [ 20.77396099, 48.88135296 ], [ 20.77382426, 48.88127046 ], [ 20.77375368, 48.88118027 ], [ 20.77364936, 48.88112079 ], [ 20.77350265, 48.88100606 ], [ 20.7733955, 48.8809445 ], [ 20.77326282, 48.88088799 ], [ 20.77304806, 48.8807689 ], [ 20.77278367, 48.88060638 ], [ 20.7726868, 48.88055958 ], [ 20.77246697, 48.88046958 ], [ 20.77233764, 48.88039527 ], [ 20.7722333, 48.88033443 ], [ 20.77217291, 48.88030944 ], [ 20.77186199, 48.88027227 ], [ 20.77156386, 48.88014063 ], [ 20.77142149, 48.88007729 ], [ 20.77124479, 48.88003337 ], [ 20.77096589, 48.87992068 ], [ 20.77079046, 48.8798814 ], [ 20.77055016, 48.87974376 ], [ 20.77040384, 48.87968722 ], [ 20.77021413, 48.87967257 ], [ 20.7699635, 48.8796855 ], [ 20.76974467, 48.87964587 ], [ 20.76949693, 48.87962117 ], [ 20.7694188, 48.87964356 ], [ 20.76935056, 48.87962973 ], [ 20.76901552, 48.87961233 ], [ 20.76893804, 48.87962673 ], [ 20.76874847, 48.87961208 ], [ 20.76856862, 48.87958525 ], [ 20.76851635, 48.87952398 ], [ 20.76846846, 48.87938614 ], [ 20.76827921, 48.8793235 ], [ 20.76804027, 48.87929802 ], [ 20.76780907, 48.87924075 ], [ 20.76766277, 48.87926877 ], [ 20.76755523, 48.8792478 ], [ 20.76741172, 48.87924278 ], [ 20.76724909, 48.87930228 ], [ 20.76712718, 48.87935295 ], [ 20.76698728, 48.8793675 ], [ 20.76691995, 48.87934227 ], [ 20.7667655, 48.8793002 ], [ 20.76646441, 48.87924967 ], [ 20.76632095, 48.87924231 ], [ 20.76616107, 48.87922536 ], [ 20.76606759, 48.87920263 ], [ 20.76597298, 48.87919238 ], [ 20.76587624, 48.87916612 ], [ 20.76570506, 48.87909609 ], [ 20.76560933, 48.87905734 ], [ 20.76540282, 48.8790158 ], [ 20.76537485, 48.87900869 ], [ 20.76532833, 48.87902525 ], [ 20.7652902, 48.87902059 ], [ 20.76512876, 48.87900088 ], [ 20.76476804, 48.87891592 ], [ 20.76470603, 48.87885521 ], [ 20.76464141, 48.8788235 ], [ 20.76433379, 48.87874554 ], [ 20.76397719, 48.87872313 ], [ 20.76361589, 48.87862338 ], [ 20.76343944, 48.87856298 ], [ 20.7634037, 48.87855074 ], [ 20.7632815, 48.87849315 ], [ 20.76320332, 48.87844835 ], [ 20.76309852, 48.87840361 ], [ 20.76280069, 48.87820936 ], [ 20.76266655, 48.87816611 ], [ 20.76241671, 48.878137 ], [ 20.76210262, 48.87807673 ], [ 20.76192531, 48.87813715 ], [ 20.76151994, 48.87808961 ], [ 20.7614299, 48.87805142 ], [ 20.76129941, 48.87807467 ], [ 20.76127823, 48.87806636 ], [ 20.76123912, 48.87807904 ], [ 20.76103198, 48.87806907 ], [ 20.76099987, 48.87807956 ], [ 20.7609282, 48.87809119 ], [ 20.76038834, 48.87808945 ], [ 20.76015456, 48.87807801 ], [ 20.75975539, 48.8780857 ], [ 20.7596315, 48.87810495 ], [ 20.75932487, 48.87818749 ], [ 20.75926146, 48.87818824 ], [ 20.7591097, 48.87817219 ], [ 20.75888079, 48.87823738 ], [ 20.75879556, 48.87827158 ], [ 20.758684, 48.87830558 ], [ 20.75843613, 48.87835874 ], [ 20.75834112, 48.8783618 ], [ 20.75833964, 48.87837508 ], [ 20.75826721, 48.87891567 ], [ 20.75826303, 48.87895893 ], [ 20.75818808, 48.87972529 ], [ 20.75814133, 48.88011162 ], [ 20.75808019, 48.88061712 ], [ 20.75825407, 48.88159097 ], [ 20.75790463, 48.88218154 ], [ 20.75589229, 48.88352135 ], [ 20.75565024, 48.8852351 ], [ 20.75537215, 48.88619956 ], [ 20.75539302, 48.88684744 ], [ 20.75523716, 48.88696291 ], [ 20.7552055, 48.88698639 ], [ 20.75517833, 48.8870066 ], [ 20.75454171, 48.88809319 ], [ 20.75410758, 48.88824184 ], [ 20.75386671, 48.88832425 ], [ 20.75374365, 48.88836504 ], [ 20.75258572, 48.89054956 ], [ 20.75256221, 48.89090464 ], [ 20.75237143, 48.89130148 ], [ 20.75224139, 48.89157212 ], [ 20.75253123, 48.892604 ], [ 20.75253155, 48.89260509 ], [ 20.75238215, 48.8926962 ], [ 20.75233202, 48.89272668 ], [ 20.75232829, 48.89272889 ], [ 20.75228023, 48.89275071 ], [ 20.75124266, 48.89322018 ], [ 20.75029333, 48.89349678 ], [ 20.74959627, 48.89343048 ], [ 20.74851947, 48.89361459 ], [ 20.74678617, 48.8939078 ], [ 20.74545446, 48.89411426 ], [ 20.74412925, 48.89433633 ], [ 20.74287475, 48.89454196 ], [ 20.7428698, 48.89454917 ], [ 20.74249143, 48.89510077 ], [ 20.74247487, 48.89509775 ], [ 20.74104634, 48.89484002 ], [ 20.74068973, 48.89474892 ], [ 20.74065506, 48.89474013 ], [ 20.74009493, 48.89459701 ], [ 20.73984951, 48.89452946 ], [ 20.73930197, 48.89450052 ], [ 20.73857715, 48.89450873 ], [ 20.7381199, 48.89452179 ], [ 20.73808995, 48.89453406 ], [ 20.73757322, 48.89474665 ], [ 20.73754855, 48.89475272 ], [ 20.73722478, 48.89483261 ], [ 20.7369992, 48.89488418 ], [ 20.73660702, 48.89497391 ], [ 20.73634469, 48.89503391 ], [ 20.73633881, 48.89504244 ], [ 20.73628745, 48.89511655 ], [ 20.73627941, 48.89526108 ], [ 20.73613048, 48.89547367 ], [ 20.73583782, 48.89564481 ], [ 20.73582596, 48.89564457 ], [ 20.73557624, 48.89563999 ], [ 20.73532442, 48.89555699 ], [ 20.73509137, 48.89561631 ], [ 20.73491871, 48.8956602 ], [ 20.73481076, 48.89568773 ], [ 20.73480118, 48.89569639 ], [ 20.73472376, 48.89576679 ], [ 20.73464939, 48.89587691 ], [ 20.73426665, 48.89601011 ], [ 20.73425492, 48.8960133 ], [ 20.73423271, 48.89601936 ], [ 20.73378866, 48.89614048 ], [ 20.7336537, 48.89620452 ], [ 20.73347348, 48.89635495 ], [ 20.73313526, 48.89660084 ], [ 20.73295134, 48.89683714 ], [ 20.73286992, 48.89690451 ], [ 20.73274751, 48.89699565 ], [ 20.73269196, 48.89714472 ], [ 20.73262226, 48.89720403 ], [ 20.73260764, 48.8972209 ], [ 20.73236271, 48.89750368 ], [ 20.73097419, 48.89848778 ], [ 20.73050262, 48.89908657 ], [ 20.73040056, 48.89995067 ], [ 20.73019143, 48.90000939 ], [ 20.72903763, 48.90033308 ], [ 20.72873008, 48.90044307 ], [ 20.72865341, 48.90047044 ], [ 20.72864313, 48.90047412 ], [ 20.72840828, 48.90070133 ], [ 20.72784999, 48.90130938 ], [ 20.72745234, 48.90253191 ], [ 20.72723459, 48.90280393 ], [ 20.72701529, 48.90322432 ], [ 20.72537681, 48.90405696 ], [ 20.72480914, 48.90434127 ], [ 20.72440376, 48.9046977 ], [ 20.72410554, 48.90485366 ], [ 20.72402415, 48.90491716 ], [ 20.7236924, 48.90511741 ], [ 20.7235808, 48.90517768 ], [ 20.72354955, 48.90524943 ], [ 20.72357796, 48.90532329 ], [ 20.72358365, 48.9054095 ], [ 20.72346283, 48.90569197 ], [ 20.72344919, 48.90579235 ], [ 20.72347469, 48.90590204 ], [ 20.72346058, 48.90607526 ], [ 20.72348032, 48.90612135 ], [ 20.72346614, 48.90627377 ], [ 20.72347801, 48.90641819 ], [ 20.72340403, 48.90668079 ], [ 20.72339488, 48.90684014 ], [ 20.72352448, 48.90689444 ], [ 20.72351475, 48.90699208 ], [ 20.72341602, 48.90714754 ], [ 20.72304118, 48.90806295 ], [ 20.72296794, 48.90814024 ], [ 20.72302616, 48.90824911 ], [ 20.72295726, 48.90834358 ], [ 20.7229516, 48.90837607 ], [ 20.72306889, 48.90853467 ], [ 20.72307839, 48.90863101 ], [ 20.72318039, 48.90870387 ], [ 20.72323349, 48.90880175 ], [ 20.72331959, 48.90884325 ], [ 20.72334038, 48.90895881 ], [ 20.72348752, 48.90908299 ], [ 20.72361836, 48.90926638 ], [ 20.72373257, 48.90939227 ], [ 20.72386223, 48.9095197 ], [ 20.72391293, 48.90968576 ], [ 20.72390427, 48.90974345 ], [ 20.72392247, 48.90978327 ], [ 20.72398304, 48.90991023 ], [ 20.72406654, 48.91022208 ], [ 20.72415397, 48.91046221 ], [ 20.72433083, 48.91073486 ], [ 20.7244135, 48.91078335 ], [ 20.72451406, 48.91095784 ], [ 20.724678, 48.91103019 ], [ 20.72486066, 48.91123677 ], [ 20.724985, 48.91136589 ], [ 20.72512694, 48.91139973 ], [ 20.72514259, 48.91141055 ], [ 20.72513687, 48.91149248 ], [ 20.72519998, 48.91156316 ], [ 20.72525542, 48.91157539 ], [ 20.72535432, 48.91166291 ], [ 20.72534558, 48.91172321 ], [ 20.72580557, 48.91205954 ], [ 20.72584601, 48.91210825 ], [ 20.72664247, 48.91284319 ], [ 20.72665213, 48.9128655 ], [ 20.72684119, 48.91321684 ], [ 20.7273399, 48.9135612 ], [ 20.7275912, 48.91380766 ], [ 20.72761649, 48.91387978 ], [ 20.72790289, 48.91407444 ], [ 20.72818913, 48.91429457 ], [ 20.72820458, 48.91437851 ], [ 20.7283029, 48.91447159 ], [ 20.72848929, 48.91452176 ], [ 20.72862007, 48.91464418 ], [ 20.72918155, 48.91490249 ], [ 20.72920325, 48.91493469 ], [ 20.72925595, 48.91494358 ], [ 20.72938117, 48.91501518 ], [ 20.72941304, 48.91512393 ], [ 20.73009009, 48.91533895 ], [ 20.73012428, 48.91534529 ], [ 20.7303989, 48.91537417 ], [ 20.7306601, 48.91547237 ], [ 20.73082627, 48.915484 ], [ 20.73103863, 48.91559795 ], [ 20.73113756, 48.91568196 ], [ 20.73134893, 48.91571572 ], [ 20.73147054, 48.91578467 ], [ 20.73154923, 48.91579835 ], [ 20.73158817, 48.91580846 ], [ 20.73183494, 48.91612454 ], [ 20.73186005, 48.91614677 ], [ 20.73225707, 48.91638116 ], [ 20.7328745, 48.91653831 ], [ 20.73290134, 48.91654934 ], [ 20.73311279, 48.91675872 ], [ 20.73362719, 48.91726903 ], [ 20.73372356, 48.91736456 ], [ 20.73387787, 48.91754742 ], [ 20.73415801, 48.91775904 ], [ 20.73438769, 48.91785855 ], [ 20.73459757, 48.91794953 ], [ 20.73464856, 48.91794421 ], [ 20.73471772, 48.91798439 ], [ 20.73488072, 48.9179914 ], [ 20.73493449, 48.91797537 ], [ 20.73522563, 48.91802653 ], [ 20.73537302, 48.91800868 ], [ 20.73561934, 48.91800259 ], [ 20.73653979, 48.91835773 ], [ 20.73667798, 48.91841106 ], [ 20.73676068, 48.91841244 ], [ 20.73692538, 48.91841528 ], [ 20.73736685, 48.91850829 ], [ 20.73748366, 48.91855411 ], [ 20.73768044, 48.91863138 ], [ 20.73806378, 48.91873522 ], [ 20.73816363, 48.91883177 ], [ 20.7381877, 48.91885504 ], [ 20.7389274, 48.92017001 ], [ 20.73893613, 48.92025605 ], [ 20.73896362, 48.92052692 ], [ 20.73897429, 48.92061763 ], [ 20.73897882, 48.92065615 ], [ 20.73899193, 48.92076738 ], [ 20.73900506, 48.92087844 ], [ 20.73899646, 48.92092379 ], [ 20.73900343, 48.92097771 ], [ 20.73900855, 48.92101725 ], [ 20.73902137, 48.92111865 ], [ 20.73902483, 48.92114507 ], [ 20.73904404, 48.92129569 ], [ 20.73912413, 48.92158012 ], [ 20.73916829, 48.92172973 ], [ 20.73917993, 48.92180858 ], [ 20.73919068, 48.92188164 ], [ 20.73919479, 48.92191015 ], [ 20.73920025, 48.92194718 ], [ 20.73920503, 48.92197931 ], [ 20.73920704, 48.92199325 ], [ 20.73921569, 48.92205002 ], [ 20.73922605, 48.92211766 ], [ 20.73924583, 48.92224777 ], [ 20.73925726, 48.92232922 ], [ 20.73930274, 48.92261244 ], [ 20.73930322, 48.9226419 ], [ 20.73930382, 48.92268335 ], [ 20.73929267, 48.92308353 ], [ 20.73930715, 48.92328901 ], [ 20.73932296, 48.92346644 ], [ 20.73933399, 48.92348547 ], [ 20.73933284, 48.92351136 ], [ 20.73934953, 48.92358184 ], [ 20.73938479, 48.92362739 ], [ 20.73944961, 48.92367569 ], [ 20.73945541, 48.92367995 ], [ 20.73942415, 48.92376539 ], [ 20.7394233, 48.92389216 ], [ 20.73942188, 48.92411338 ], [ 20.73942153, 48.92414975 ], [ 20.73942082, 48.92426284 ], [ 20.73942216, 48.92432385 ], [ 20.73942647, 48.92453005 ], [ 20.73944761, 48.92475288 ], [ 20.73946154, 48.92489962 ], [ 20.73947196, 48.92497996 ], [ 20.73949972, 48.92519374 ], [ 20.73951301, 48.92529606 ], [ 20.73956737, 48.92578996 ], [ 20.7394974, 48.92583865 ], [ 20.7393679, 48.92601816 ], [ 20.73934542, 48.92604925 ], [ 20.73921115, 48.92623526 ], [ 20.73908395, 48.9264117 ], [ 20.73897031, 48.92656908 ], [ 20.73887376, 48.92670292 ], [ 20.73884782, 48.92673623 ], [ 20.73871005, 48.92691311 ], [ 20.73853749, 48.92713469 ], [ 20.73846102, 48.92722989 ], [ 20.738418, 48.92728339 ], [ 20.73838304, 48.92732683 ], [ 20.73818753, 48.92757012 ], [ 20.73816549, 48.92759753 ], [ 20.73800473, 48.927741 ], [ 20.737802, 48.92792171 ], [ 20.73758304, 48.92811707 ], [ 20.73757539, 48.92812383 ], [ 20.73747117, 48.92820048 ], [ 20.73737567, 48.92827069 ], [ 20.73727341, 48.92839569 ], [ 20.73724103, 48.92851838 ], [ 20.73724634, 48.92855729 ], [ 20.73725021, 48.92858543 ], [ 20.73759509, 48.92919755 ], [ 20.73761559, 48.92930535 ], [ 20.73768016, 48.92958905 ], [ 20.73768721, 48.92964541 ], [ 20.73766223, 48.92979817 ], [ 20.73762162, 48.92988256 ], [ 20.73748199, 48.93017311 ], [ 20.73745594, 48.93024145 ], [ 20.73740651, 48.93044278 ], [ 20.73729317, 48.93070239 ], [ 20.7371274, 48.9310438 ], [ 20.73709564, 48.93112355 ], [ 20.73707498, 48.93119784 ], [ 20.73704536, 48.9312883 ], [ 20.73705326, 48.93144347 ], [ 20.73720371, 48.93159044 ], [ 20.7372317, 48.93161772 ], [ 20.73727218, 48.93166967 ], [ 20.73729843, 48.93170319 ], [ 20.73730752, 48.93173098 ], [ 20.73734524, 48.93184722 ], [ 20.73736752, 48.9319903 ], [ 20.7373419, 48.93215258 ], [ 20.73724217, 48.93236232 ], [ 20.73708489, 48.93273042 ], [ 20.73704267, 48.93280773 ], [ 20.73682788, 48.93320055 ], [ 20.73666627, 48.93381535 ], [ 20.73662357, 48.93384464 ], [ 20.73643365, 48.93397501 ], [ 20.73633798, 48.93414311 ], [ 20.73626223, 48.93427633 ], [ 20.73622361, 48.93430415 ], [ 20.73604214, 48.93443473 ], [ 20.73599043, 48.934548 ], [ 20.73596063, 48.93460179 ], [ 20.73585488, 48.93479304 ], [ 20.73560177, 48.93503645 ], [ 20.73514766, 48.93531258 ], [ 20.73512102, 48.93536289 ], [ 20.73510684, 48.93538607 ], [ 20.73493505, 48.93566819 ], [ 20.73486737, 48.93577946 ], [ 20.73482503, 48.93584128 ], [ 20.73476408, 48.93593026 ], [ 20.73472499, 48.93598733 ], [ 20.73471914, 48.9359955 ], [ 20.73467481, 48.93605815 ], [ 20.73455848, 48.93625676 ], [ 20.73449948, 48.93639742 ], [ 20.73441075, 48.93656747 ], [ 20.73437022, 48.93664394 ], [ 20.73433258, 48.9367152 ], [ 20.73434736, 48.93672338 ], [ 20.73437288, 48.93673743 ], [ 20.73438779, 48.9367457 ], [ 20.73426715, 48.93684249 ], [ 20.7340191, 48.93705708 ], [ 20.73391372, 48.93718133 ], [ 20.73368147, 48.93736973 ], [ 20.73343884, 48.93755453 ], [ 20.73300014, 48.93795169 ], [ 20.73271264, 48.93830673 ], [ 20.732371, 48.93887023 ], [ 20.73232695, 48.93894297 ], [ 20.73230816, 48.93897392 ], [ 20.73227884, 48.93897306 ], [ 20.73226403, 48.9390073 ], [ 20.73185586, 48.93966418 ], [ 20.73156109, 48.94038747 ], [ 20.73132549, 48.94097128 ], [ 20.73126282, 48.94124933 ], [ 20.73134596, 48.94125253 ], [ 20.7336104, 48.94133856 ], [ 20.7360662, 48.94158312 ], [ 20.73757585, 48.94183283 ], [ 20.73808779, 48.94191751 ], [ 20.74008054, 48.94184957 ], [ 20.74049532, 48.94189335 ], [ 20.7409541, 48.94231818 ], [ 20.74105365, 48.94220164 ], [ 20.74132614, 48.94202779 ], [ 20.74154522, 48.94191744 ], [ 20.74171962, 48.94190449 ], [ 20.74219892, 48.94197864 ], [ 20.74243773, 48.94199083 ], [ 20.742833, 48.94192621 ], [ 20.74324422, 48.94185891 ], [ 20.74345247, 48.94183139 ], [ 20.74345913, 48.94184873 ], [ 20.74351001, 48.94183332 ], [ 20.74359552, 48.94183579 ], [ 20.74371663, 48.94183942 ], [ 20.7441262, 48.9418514 ], [ 20.7456791, 48.94243826 ], [ 20.74602737, 48.9426398 ], [ 20.74662259, 48.94285607 ], [ 20.74714904, 48.94291384 ], [ 20.74754536, 48.94288193 ], [ 20.74878647, 48.94267052 ], [ 20.75091915, 48.94226049 ], [ 20.75193998, 48.94261172 ], [ 20.75243098, 48.94287445 ], [ 20.7526679, 48.94300119 ], [ 20.75321412, 48.94317634 ], [ 20.75370596, 48.94314831 ] ] ] ] } },
{ "type": "Feature", "properties": { "@featureType": "CadastralZoning", "beginLifespanVersion": { "@nilReason": "http://inspire.ec.europa.eu/codelist/VoidReasonValue/Unpopulated", "@nil": "true" }, "endLifespanVersion": { "@nilReason": "http://inspire.ec.europa.eu/codelist/VoidReasonValue/Unpopulated", "@nil": "true" }, "estimatedAccuracy": { "value": -1, "@uom": "m" }, "inspireId": { "@dataType": "Identifier", "localId": "869759", "namespace": "SK.ESKN.CP", "versionId": "20261005T06:10:45" }, "label": "Vítkovce", "level": { "@href": "http://inspire.ec.europa.eu/codelist/CadastralZoningLevelValue/3rdOrder" }, "levelName": { "value": "Katastrálne územie", "@locale": "sk" }, "name": { "@dataType": "name", "GeographicalName": { "@dataType": "GeographicalName", "language": "SLK", "nativeness": { "@href": "http://inspire.ec.europa.eu/codelist/NativenessValue/endonym", "@title": "endonym" }, "nameStatus": { "@href": "http://inspire.ec.europa.eu/codelist/NameStatusValue/official", "@title": "official" }, "sourceOfName": { "@nilReason": "http://inspire.ec.europa.eu/codelist/VoidReasonValue/Unpopulated", "@nil": "true" }, "pronunciation": { "@dataType": "pronunciation", "@nilReason": "http://inspire.ec.europa.eu/codelist/VoidReasonValue/Unpopulated", "@nil": "true" }, "spelling": { "@dataType": "SpellingOfName", "text": "Vítkovce", "script": "LATN" } } }, "nationalCadastalZoningReference": "869759", "validFrom": "2026-09-30T16:00:00Z", "validTo": { "@nilReason": "http://inspire.ec.europa.eu/codelist/VoidReasonValue/Unpopulated", "@nil": "true" } }, "geometry": { "type": "MultiPolygon", "coordinates": [ [ [ [ 20.73230816, 48.93897392 ], [ 20.73232695, 48.93894297 ], [ 20.732371, 48.93887023 ], [ 20.73271264, 48.93830673 ], [ 20.73300014, 48.93795169 ], [ 20.73343884, 48.93755453 ], [ 20.73368147, 48.93736973 ], [ 20.73391372, 48.93718133 ], [ 20.7340191, 48.93705708 ], [ 20.73426715, 48.93684249 ], [ 20.73438779, 48.9367457 ], [ 20.73437288, 48.93673743 ], [ 20.73434736, 48.93672338 ], [ 20.73433258, 48.9367152 ], [ 20.73437022, 48.93664394 ], [ 20.73441075, 48.93656747 ], [ 20.73449948, 48.93639742 ], [ 20.73455848, 48.93625676 ], [ 20.73467481, 48.93605815 ], [ 20.73471914, 48.9359955 ], [ 20.73472499, 48.93598733 ], [ 20.73476408, 48.93593026 ], [ 20.73482503, 48.93584128 ], [ 20.73486737, 48.93577946 ], [ 20.73493505, 48.93566819 ], [ 20.73510684, 48.93538607 ], [ 20.73512102, 48.93536289 ], [ 20.73514766, 48.93531258 ], [ 20.73560177, 48.93503645 ], [ 20.73585488, 48.93479304 ], [ 20.73596063, 48.93460179 ], [ 20.73599043, 48.934548 ], [ 20.73604214, 48.93443473 ], [ 20.73622361, 48.93430415 ], [ 20.73626223, 48.93427633 ], [ 20.73633798, 48.93414311 ], [ 20.73643365, 48.93397501 ], [ 20.73662357, 48.93384464 ], [ 20.73666627, 48.93381535 ], [ 20.73682788, 48.93320055 ], [ 20.73704267, 48.93280773 ], [ 20.73708489, 48.93273042 ], [ 20.73724217, 48.93236232 ], [ 20.7373419, 48.93215258 ], [ 20.73736752, 48.9319903 ], [ 20.73734524, 48.93184722 ], [ 20.73730752, 48.93173098 ], [ 20.73729843, 48.93170319 ], [ 20.73727218, 48.93166967 ], [ 20.7372317, 48.93161772 ], [ 20.73720371, 48.93159044 ], [ 20.73705326, 48.93144347 ], [ 20.73704536, 48.9312883 ], [ 20.73707498, 48.93119784 ], [ 20.73709564, 48.93112355 ], [ 20.7371274, 48.9310438 ], [ 20.73729317, 48.93070239 ], [ 20.73740651, 48.93044278 ], [ 20.73745594, 48.93024145 ], [ 20.73748199, 48.93017311 ], [ 20.73762162, 48.92988256 ], [ 20.73766223, 48.92979817 ], [ 20.73768721, 48.92964541 ], [ 20.73768016, 48.92958905 ], [ 20.73761559, 48.92930535 ], [ 20.73759509, 48.92919755 ], [ 20.73725021, 48.92858543 ], [ 20.73724634, 48.92855729 ], [ 20.73724103, 48.92851838 ], [ 20.73727341, 48.92839569 ], [ 20.73737567, 48.92827069 ], [ 20.73747117, 48.92820048 ], [ 20.73757539, 48.92812383 ], [ 20.73758304, 48.92811707 ], [ 20.737802, 48.92792171 ], [ 20.73800473, 48.927741 ], [ 20.73816549, 48.92759753 ], [ 20.73818753, 48.92757012 ], [ 20.73838304, 48.92732683 ], [ 20.738418, 48.92728339 ], [ 20.73846102, 48.92722989 ], [ 20.73853749, 48.92713469 ], [ 20.73871005, 48.92691311 ], [ 20.73884782, 48.92673623 ], [ 20.73887376, 48.92670292 ], [ 20.73897031, 48.92656908 ], [ 20.73908395, 48.9264117 ], [ 20.73921115, 48.92623526 ], [ 20.73934542, 48.92604925 ], [ 20.7393679, 48.92601816 ], [ 20.7394974, 48.92583865 ], [ 20.73956737, 48.92578996 ], [ 20.73951301, 48.92529606 ], [ 20.73949972, 48.92519374 ], [ 20.73947196, 48.92497996 ], [ 20.73946154, 48.92489962 ], [ 20.73944761, 48.92475288 ], [ 20.73942647, 48.92453005 ], [ 20.73942216, 48.92432385 ], [ 20.73942082, 48.92426284 ], [ 20.73942153, 48.92414975 ], [ 20.73942188, 48.92411338 ], [ 20.7394233, 48.92389216 ], [ 20.73942415, 48.92376539 ], [ 20.73945541, 48.92367995 ], [ 20.73944961, 48.92367569 ], [ 20.73938479, 48.92362739 ], [ 20.73934953, 48.92358184 ], [ 20.73933284, 48.92351136 ], [ 20.73933399, 48.92348547 ], [ 20.73932296, 48.92346644 ], [ 20.73930715, 48.92328901 ], [ 20.73929267, 48.92308353 ], [ 20.73930382, 48.92268335 ], [ 20.73930322, 48.9226419 ], [ 20.73930274, 48.92261244 ], [ 20.73925726, 48.92232922 ], [ 20.73924583, 48.92224777 ], [ 20.73922605, 48.92211766 ], [ 20.73921569, 48.92205002 ], [ 20.73920704, 48.92199325 ], [ 20.73920503, 48.92197931 ], [ 20.73920025, 48.92194718 ], [ 20.73919479, 48.92191015 ], [ 20.73919068, 48.92188164 ], [ 20.73917993, 48.92180858 ], [ 20.73916829, 48.92172973 ], [ 20.73912413, 48.92158012 ], [ 20.73904404, 48.92129569 ], [ 20.73902483, 48.92114507 ], [ 20.73902137, 48.92111865 ], [ 20.73900855, 48.92101725 ], [ 20.73900343, 48.92097771 ], [ 20.73899646, 48.92092379 ], [ 20.73900506, 48.92087844 ], [ 20.73899193, 48.92076738 ], [ 20.73897882, 48.92065615 ], [ 20.73897429, 48.92061763 ], [ 20.73896362, 48.92052692 ], [ 20.73893613, 48.92025605 ], [ 20.7389274, 48.92017001 ], [ 20.7381877, 48.91885504 ], [ 20.73816363, 48.91883177 ], [ 20.73806378, 48.91873522 ], [ 20.73768044, 48.91863138 ], [ 20.73748366, 48.91855411 ], [ 20.73736685, 48.91850829 ], [ 20.73692538, 48.91841528 ], [ 20.73676068, 48.91841244 ], [ 20.73667798, 48.91841106 ], [ 20.73653979, 48.91835773 ], [ 20.73561934, 48.91800259 ], [ 20.73537302, 48.91800868 ], [ 20.73522563, 48.91802653 ], [ 20.73493449, 48.91797537 ], [ 20.73488072, 48.9179914 ], [ 20.73471772, 48.91798439 ], [ 20.73464856, 48.91794421 ], [ 20.73459757, 48.91794953 ], [ 20.73438769, 48.91785855 ], [ 20.73415801, 48.91775904 ], [ 20.73387787, 48.91754742 ], [ 20.73372356, 48.91736456 ], [ 20.73362719, 48.91726903 ], [ 20.73311279, 48.91675872 ], [ 20.73290134, 48.91654934 ], [ 20.7328745, 48.91653831 ], [ 20.73225707, 48.91638116 ], [ 20.73186005, 48.91614677 ], [ 20.73183494, 48.91612454 ], [ 20.73158817, 48.91580846 ], [ 20.73154923, 48.91579835 ], [ 20.73147054, 48.91578467 ], [ 20.73134893, 48.91571572 ], [ 20.73113756, 48.91568196 ], [ 20.73103863, 48.91559795 ], [ 20.73082627, 48.915484 ], [ 20.7306601, 48.91547237 ], [ 20.7303989, 48.91537417 ], [ 20.73012428, 48.91534529 ], [ 20.73009009, 48.91533895 ], [ 20.72941304, 48.91512393 ], [ 20.72938117, 48.91501518 ], [ 20.72925595, 48.91494358 ], [ 20.72920325, 48.91493469 ], [ 20.72918155, 48.91490249 ], [ 20.72862007, 48.91464418 ], [ 20.72848929, 48.91452176 ], [ 20.7283029, 48.91447159 ], [ 20.72820458, 48.91437851 ], [ 20.72818913, 48.91429457 ], [ 20.72790289, 48.91407444 ], [ 20.72761649, 48.91387978 ], [ 20.7275912, 48.91380766 ], [ 20.7273399, 48.9135612 ], [ 20.72684119, 48.91321684 ], [ 20.72665213, 48.9128655 ], [ 20.72664247, 48.91284319 ], [ 20.72584601, 48.91210825 ], [ 20.72580557, 48.91205954 ], [ 20.72534558, 48.91172321 ], [ 20.72535432, 48.91166291 ], [ 20.72525542, 48.91157539 ], [ 20.72519998, 48.91156316 ], [ 20.72513687, 48.91149248 ], [ 20.72514259, 48.91141055 ], [ 20.72512694, 48.91139973 ], [ 20.724985, 48.91136589 ], [ 20.72486066, 48.91123677 ], [ 20.724678, 48.91103019 ], [ 20.72451406, 48.91095784 ], [ 20.7244135, 48.91078335 ], [ 20.72433083, 48.91073486 ], [ 20.72415397, 48.91046221 ], [ 20.72406654, 48.91022208 ], [ 20.72398304, 48.90991023 ], [ 20.72392247, 48.90978327 ], [ 20.72390427, 48.90974345 ], [ 20.72391293, 48.90968576 ], [ 20.72386223, 48.9095197 ], [ 20.72373257, 48.90939227 ], [ 20.72361836, 48.90926638 ], [ 20.72348752, 48.90908299 ], [ 20.72334038, 48.90895881 ], [ 20.72331959, 48.90884325 ], [ 20.72323349, 48.90880175 ], [ 20.72318039, 48.90870387 ], [ 20.72307839, 48.90863101 ], [ 20.72306889, 48.90853467 ], [ 20.7229516, 48.90837607 ], [ 20.72295726, 48.90834358 ], [ 20.72302616, 48.90824911 ], [ 20.72296794, 48.90814024 ], [ 20.72304118, 48.90806295 ], [ 20.72341602, 48.90714754 ], [ 20.72351475, 48.90699208 ], [ 20.72352448, 48.90689444 ], [ 20.72339488, 48.90684014 ], [ 20.72340403, 48.90668079 ], [ 20.72347801, 48.90641819 ], [ 20.72346614, 48.90627377 ], [ 20.72348032, 48.90612135 ], [ 20.72346058, 48.90607526 ], [ 20.72347469, 48.90590204 ], [ 20.72344919, 48.90579235 ], [ 20.72346283, 48.90569197 ], [ 20.72358365, 48.9054095 ], [ 20.72357796, 48.90532329 ], [ 20.72354955, 48.90524943 ], [ 20.7235808, 48.90517768 ], [ 20.7236924, 48.90511741 ], [ 20.72299755, 48.90420881 ], [ 20.72278244, 48.90378378 ], [ 20.72200679, 48.90328892 ], [ 20.72191095, 48.90298293 ], [ 20.72167688, 48.90245383 ], [ 20.71983202, 48.90311437 ], [ 20.71876051, 48.90267313 ], [ 20.71810196, 48.90253037 ], [ 20.71672887, 48.90245919 ], [ 20.71661071, 48.90255299 ], [ 20.71655469, 48.90268879 ], [ 20.71640493, 48.90355002 ], [ 20.71692056, 48.90452734 ], [ 20.71743172, 48.90529339 ], [ 20.71744199, 48.90530483 ], [ 20.71986212, 48.90798138 ], [ 20.72059857, 48.90880529 ], [ 20.72076922, 48.91055387 ], [ 20.71826754, 48.91191484 ], [ 20.71645129, 48.91414066 ], [ 20.71419943, 48.91634273 ], [ 20.71237728, 48.91804595 ], [ 20.71220452, 48.91808998 ], [ 20.71207222, 48.91812365 ], [ 20.71190644, 48.91816586 ], [ 20.71100939, 48.91839439 ], [ 20.71090779, 48.91842032 ], [ 20.70987439, 48.91868354 ], [ 20.70921857, 48.91907507 ], [ 20.7086126, 48.91943684 ], [ 20.70757708, 48.9198944 ], [ 20.70730841, 48.9200131 ], [ 20.70723143, 48.92004711 ], [ 20.70719244, 48.92006437 ], [ 20.70701635, 48.92014214 ], [ 20.70691858, 48.92024647 ], [ 20.70680451, 48.92036805 ], [ 20.70679549, 48.92037466 ], [ 20.70672411, 48.92042706 ], [ 20.70667715, 48.92046151 ], [ 20.70668876, 48.92056351 ], [ 20.70654569, 48.92072053 ], [ 20.70653801, 48.92083607 ], [ 20.70656561, 48.92098646 ], [ 20.70650504, 48.92106374 ], [ 20.70656487, 48.92112918 ], [ 20.70668916, 48.92113837 ], [ 20.70682639, 48.92130022 ], [ 20.70685369, 48.92133235 ], [ 20.70684214, 48.92134986 ], [ 20.70670059, 48.9215634 ], [ 20.70670204, 48.92163595 ], [ 20.70657152, 48.92179135 ], [ 20.7065741, 48.92184836 ], [ 20.70663619, 48.92197484 ], [ 20.70678528, 48.92203508 ], [ 20.70683175, 48.92230726 ], [ 20.70694278, 48.9223901 ], [ 20.70706571, 48.9224159 ], [ 20.7071331, 48.92247926 ], [ 20.70717213, 48.92268211 ], [ 20.70728064, 48.92288265 ], [ 20.70736692, 48.92311267 ], [ 20.70763728, 48.92323088 ], [ 20.70797107, 48.92333712 ], [ 20.70803948, 48.92347148 ], [ 20.7081903, 48.92368946 ], [ 20.70844586, 48.92382156 ], [ 20.70849735, 48.92402917 ], [ 20.70891068, 48.92453332 ], [ 20.70937285, 48.924828 ], [ 20.70938325, 48.92483459 ], [ 20.70941832, 48.924857 ], [ 20.70943262, 48.92488605 ], [ 20.70944409, 48.92490951 ], [ 20.7094653, 48.92492423 ], [ 20.70951277, 48.92495707 ], [ 20.70961198, 48.9250258 ], [ 20.70965777, 48.9250575 ], [ 20.7097143, 48.92509661 ], [ 20.70986602, 48.92520169 ], [ 20.70988541, 48.92521355 ], [ 20.710065, 48.92532385 ], [ 20.71007022, 48.92532683 ], [ 20.71008259, 48.92533438 ], [ 20.7101042, 48.92534757 ], [ 20.71027833, 48.92541932 ], [ 20.71077709, 48.92543702 ], [ 20.71099398, 48.92542031 ], [ 20.71107526, 48.9254141 ], [ 20.71159399, 48.9253446 ], [ 20.71171656, 48.92532815 ], [ 20.7117403, 48.92540887 ], [ 20.71174814, 48.92543176 ], [ 20.71174869, 48.9254334 ], [ 20.71176011, 48.92547091 ], [ 20.71176722, 48.9254943 ], [ 20.71179677, 48.9255909 ], [ 20.71180139, 48.92560629 ], [ 20.71195346, 48.9256604 ], [ 20.7125702, 48.92588014 ], [ 20.71310873, 48.92612222 ], [ 20.71338149, 48.92624474 ], [ 20.71379983, 48.92651426 ], [ 20.71380997, 48.92652074 ], [ 20.71369737, 48.92693894 ], [ 20.71366969, 48.92704189 ], [ 20.71360474, 48.92728319 ], [ 20.71355443, 48.92744577 ], [ 20.71355813, 48.92755946 ], [ 20.71356029, 48.92762843 ], [ 20.71353416, 48.92780105 ], [ 20.71349086, 48.92792794 ], [ 20.71346352, 48.92800838 ], [ 20.71345455, 48.92803454 ], [ 20.71345112, 48.92803802 ], [ 20.713008, 48.9284934 ], [ 20.71280299, 48.92870407 ], [ 20.71240724, 48.9289576 ], [ 20.71239927, 48.92944841 ], [ 20.71244264, 48.92981594 ], [ 20.71242983, 48.92992257 ], [ 20.71242293, 48.92998023 ], [ 20.71241763, 48.93002507 ], [ 20.71303852, 48.93012607 ], [ 20.7130098, 48.93032201 ], [ 20.71300595, 48.93034908 ], [ 20.7129995, 48.93039289 ], [ 20.71320501, 48.93060614 ], [ 20.71321421, 48.93061565 ], [ 20.71323072, 48.9306328 ], [ 20.71324861, 48.93065136 ], [ 20.71345701, 48.9308694 ], [ 20.71377192, 48.93119424 ], [ 20.71377859, 48.93120123 ], [ 20.71379396, 48.93121726 ], [ 20.7140235, 48.93145937 ], [ 20.71274648, 48.93213501 ], [ 20.71326242, 48.9329188 ], [ 20.71348739, 48.93326549 ], [ 20.71368773, 48.93358906 ], [ 20.71381779, 48.93380756 ], [ 20.71417323, 48.93440454 ], [ 20.71449748, 48.9356013 ], [ 20.71453189, 48.93561179 ], [ 20.71456671, 48.9356223 ], [ 20.7146358, 48.9356433 ], [ 20.71467955, 48.93565656 ], [ 20.71471637, 48.93566768 ], [ 20.71472704, 48.93567094 ], [ 20.71476119, 48.93568134 ], [ 20.71477933, 48.93568684 ], [ 20.71478774, 48.9356893 ], [ 20.71481348, 48.93569715 ], [ 20.71481668, 48.93569816 ], [ 20.71484656, 48.93570724 ], [ 20.714929, 48.93573223 ], [ 20.71500276, 48.93575465 ], [ 20.71503518, 48.93576445 ], [ 20.71507066, 48.93577525 ], [ 20.71508493, 48.93577954 ], [ 20.71514429, 48.93579758 ], [ 20.71516457, 48.9358037 ], [ 20.71540094, 48.93587539 ], [ 20.71553407, 48.93591577 ], [ 20.7156173, 48.93594106 ], [ 20.71563971, 48.9359478 ], [ 20.71572762, 48.93597451 ], [ 20.7158184, 48.93596935 ], [ 20.71582828, 48.9359688 ], [ 20.71588446, 48.93596556 ], [ 20.71711333, 48.93589554 ], [ 20.71743854, 48.93587698 ], [ 20.71860108, 48.93581071 ], [ 20.71870426, 48.93592838 ], [ 20.71871614, 48.93594195 ], [ 20.71872543, 48.93596038 ], [ 20.7189867, 48.93648278 ], [ 20.71916217, 48.93643973 ], [ 20.71944966, 48.93636922 ], [ 20.71956536, 48.93651596 ], [ 20.71978056, 48.93678871 ], [ 20.71987038, 48.93690266 ], [ 20.71993996, 48.93698816 ], [ 20.719994, 48.93705464 ], [ 20.72021446, 48.93722608 ], [ 20.72023746, 48.93724401 ], [ 20.72033294, 48.93726342 ], [ 20.72053139, 48.93728404 ], [ 20.72053768, 48.9372839 ], [ 20.72071213, 48.93728035 ], [ 20.7209964, 48.93727447 ], [ 20.72134735, 48.93726726 ], [ 20.72136912, 48.93726677 ], [ 20.7215068, 48.9372648 ], [ 20.72160876, 48.93726336 ], [ 20.72173563, 48.93726154 ], [ 20.7217407, 48.93726145 ], [ 20.72198408, 48.93724899 ], [ 20.72209596, 48.93724322 ], [ 20.72240887, 48.93725159 ], [ 20.72258278, 48.93725621 ], [ 20.7227777, 48.93726149 ], [ 20.72307915, 48.93726954 ], [ 20.7232993, 48.93727543 ], [ 20.72359584, 48.93717092 ], [ 20.72378697, 48.93710356 ], [ 20.7238078, 48.93709619 ], [ 20.72384664, 48.93708253 ], [ 20.72473143, 48.93729645 ], [ 20.72499222, 48.93729009 ], [ 20.72511811, 48.93727005 ], [ 20.72537121, 48.93731285 ], [ 20.72577034, 48.93738046 ], [ 20.72617524, 48.93749968 ], [ 20.72636922, 48.93755679 ], [ 20.72671869, 48.93760129 ], [ 20.72699839, 48.93768844 ], [ 20.72708713, 48.93774192 ], [ 20.72738213, 48.93781584 ], [ 20.72756667, 48.93789656 ], [ 20.72823787, 48.93810318 ], [ 20.72827425, 48.93800882 ], [ 20.72900932, 48.93823534 ], [ 20.72940819, 48.93833643 ], [ 20.73019557, 48.938446 ], [ 20.73034941, 48.93853266 ], [ 20.73103052, 48.93870854 ], [ 20.73151538, 48.9388113 ], [ 20.73227884, 48.93897306 ], [ 20.73230816, 48.93897392 ] ] ] ] } },
{ "type": "Feature", "properties": { "@featureType": "CadastralZoning", "beginLifespanVersion": { "@nilReason": "http://inspire.ec.europa.eu/codelist/VoidReasonValue/Unpopulated", "@nil": "true" }, "endLifespanVersion": { "@nilReason": "http://inspire.ec.europa.eu/codelist/VoidReasonValue/Unpopulated", "@nil": "true" }, "estimatedAccuracy": { "value": -1, "@uom": "m" }, "inspireId": { "@dataType": "Identifier", "localId": "836125", "namespace": "SK.ESKN.CP", "versionId": "20261005T06:10:45" }, "label": "Markušovce", "level": { "@href": "http://inspire.ec.europa.eu/codelist/CadastralZoningLevelValue/3rdOrder" }, "levelName": { "value": "Katastrálne územie", "@locale": "sk" }, "name": { "@dataType": "name", "GeographicalName": { "@dataType": "GeographicalName", "language": "SLK", "nativeness": { "@href": "http://inspire.ec.europa.eu/codelist/NativenessValue/endonym", "@title": "endonym" }, "nameStatus": { "@href": "http://inspire.ec.europa.eu/codelist/NameStatusValue/official", "@title": "official" }, "sourceOfName": { "@nilReason": "http://inspire.ec.europa.eu/codelist/VoidReasonValue/Unpopulated", "@nil": "true" }, "pronunciation": { "@dataType": "pronunciation", "@nilReason": "http://inspire.ec.europa.eu/codelist/VoidReasonValue/Unpopulated", "@nil": "true" }, "spelling": { "@dataType": "SpellingOfName", "text": "Markušovce", "script": "LATN" } } }, "nationalCadastalZoningReference": "836125", "validFrom": "2026-09-30T16:00:00Z", "validTo": { "@nilReason": "http://inspire.ec.europa.eu/codelist/VoidReasonValue/Unpopulated", "@nil": "true" } }, "geometry": { "type": "MultiPolygon", "coordinates": [ [ [ [ 20.62135745, 48.93107791 ], [ 20.62175124, 48.93058044 ], [ 20.62211509, 48.93022553 ], [ 20.62232966, 48.93005732 ], [ 20.62327345, 48.92943081 ], [ 20.62439639, 48.92862615 ], [ 20.624668, 48.92841947 ], [ 20.6259112, 48.92743425 ], [ 20.62628775, 48.92712951 ], [ 20.62690862, 48.92653883 ], [ 20.62780693, 48.92615796 ], [ 20.62803941, 48.92598273 ], [ 20.62821889, 48.92569553 ], [ 20.62868605, 48.92537911 ], [ 20.62879689, 48.92531035 ], [ 20.62889907, 48.92524704 ], [ 20.62905882, 48.92517518 ], [ 20.62974169, 48.92466635 ], [ 20.63039653, 48.92433312 ], [ 20.63175575, 48.92386225 ], [ 20.63218081, 48.92362257 ], [ 20.63289399, 48.92314625 ], [ 20.63381661, 48.92268056 ], [ 20.63412919, 48.92254415 ], [ 20.63508235, 48.92204623 ], [ 20.63565559, 48.9218797 ], [ 20.63652219, 48.92157589 ], [ 20.63758031, 48.92082272 ], [ 20.63765047, 48.92077275 ], [ 20.63770942, 48.92068679 ], [ 20.63780319, 48.92055013 ], [ 20.63967231, 48.91966592 ], [ 20.64110673, 48.91894207 ], [ 20.64210323, 48.91835326 ], [ 20.64286764, 48.91783731 ], [ 20.64337589, 48.91653541 ], [ 20.64340088, 48.91647147 ], [ 20.64369434, 48.91559178 ], [ 20.64441269, 48.91498968 ], [ 20.64495155, 48.91465147 ], [ 20.64535728, 48.91446679 ], [ 20.64553111, 48.91438759 ], [ 20.6461309, 48.91401978 ], [ 20.64668716, 48.91404145 ], [ 20.647843, 48.91408634 ], [ 20.64807764, 48.91407949 ], [ 20.64799242, 48.91444793 ], [ 20.64800696, 48.91463182 ], [ 20.64817672, 48.91487182 ], [ 20.64844808, 48.9150565 ], [ 20.64869616, 48.91510849 ], [ 20.64910514, 48.91519428 ], [ 20.64953566, 48.91525914 ], [ 20.64973889, 48.91531149 ], [ 20.64988987, 48.91539087 ], [ 20.64995402, 48.9154609 ], [ 20.65010181, 48.91565455 ], [ 20.65034091, 48.91586093 ], [ 20.65036335, 48.91588038 ], [ 20.6505494, 48.91606748 ], [ 20.6508393, 48.91620671 ], [ 20.65119438, 48.91631316 ], [ 20.65154011, 48.9163873 ], [ 20.65179555, 48.91640821 ], [ 20.65245635, 48.91649441 ], [ 20.65286793, 48.9164714 ], [ 20.65321035, 48.91640906 ], [ 20.65350526, 48.91636095 ], [ 20.65390803, 48.91620019 ], [ 20.65405059, 48.91599682 ], [ 20.65446202, 48.91575288 ], [ 20.65459301, 48.91575354 ], [ 20.65495729, 48.91575548 ], [ 20.65550779, 48.91578258 ], [ 20.65664241, 48.91613716 ], [ 20.65695211, 48.91625205 ], [ 20.65717084, 48.91630873 ], [ 20.65722073, 48.91632169 ], [ 20.65747396, 48.91638096 ], [ 20.65755693, 48.91640042 ], [ 20.65787169, 48.91647415 ], [ 20.65841117, 48.91653533 ], [ 20.65904581, 48.91649528 ], [ 20.65930972, 48.91638408 ], [ 20.65957919, 48.91622877 ], [ 20.66012415, 48.91567034 ], [ 20.66036474, 48.91556848 ], [ 20.66050026, 48.91551111 ], [ 20.66102766, 48.91551007 ], [ 20.66126629, 48.91553926 ], [ 20.66187672, 48.9155439 ], [ 20.66213919, 48.91554594 ], [ 20.66290552, 48.91563164 ], [ 20.66363384, 48.91574092 ], [ 20.66435678, 48.91583919 ], [ 20.66486885, 48.9160022 ], [ 20.66515167, 48.91615492 ], [ 20.66539309, 48.91632741 ], [ 20.665565, 48.9165291 ], [ 20.66560735, 48.9166749 ], [ 20.66546171, 48.91702361 ], [ 20.66530229, 48.91712714 ], [ 20.66527403, 48.91735839 ], [ 20.66526989, 48.91755575 ], [ 20.6653047, 48.91766705 ], [ 20.66543008, 48.91772406 ], [ 20.66572426, 48.91782377 ], [ 20.66598937, 48.91794937 ], [ 20.66621931, 48.91799464 ], [ 20.66635221, 48.91792763 ], [ 20.66648966, 48.91780206 ], [ 20.66651771, 48.91711662 ], [ 20.66679949, 48.91662509 ], [ 20.66623487, 48.91642966 ], [ 20.66543633, 48.91595611 ], [ 20.66557657, 48.91591602 ], [ 20.66561085, 48.91590626 ], [ 20.6656408, 48.9158977 ], [ 20.66565464, 48.91587577 ], [ 20.66570307, 48.91579888 ], [ 20.665746, 48.91573081 ], [ 20.66578815, 48.91566396 ], [ 20.66581284, 48.91562477 ], [ 20.66579478, 48.91561836 ], [ 20.6657312, 48.91559572 ], [ 20.66564628, 48.91557665 ], [ 20.66562563, 48.91557185 ], [ 20.66559582, 48.91556385 ], [ 20.66555959, 48.91555417 ], [ 20.6654791, 48.91553273 ], [ 20.66545824, 48.91552712 ], [ 20.66542825, 48.91550803 ], [ 20.66539748, 48.91548855 ], [ 20.665308, 48.91547174 ], [ 20.66528647, 48.91546773 ], [ 20.66525518, 48.91545445 ], [ 20.66521675, 48.91543821 ], [ 20.66513737, 48.91541825 ], [ 20.66511488, 48.91541267 ], [ 20.66509089, 48.91540694 ], [ 20.66504105, 48.91539498 ], [ 20.66496017, 48.91537487 ], [ 20.66494196, 48.91537035 ], [ 20.66492587, 48.91536662 ], [ 20.6648544, 48.91535018 ], [ 20.66477488, 48.91533022 ], [ 20.66476336, 48.91532737 ], [ 20.66474013, 48.91531753 ], [ 20.66470474, 48.91530257 ], [ 20.66467844, 48.91529514 ], [ 20.66461928, 48.91527852 ], [ 20.66458883, 48.91526995 ], [ 20.66450081, 48.91524536 ], [ 20.66447239, 48.91523875 ], [ 20.66442628, 48.91522791 ], [ 20.66440277, 48.91522139 ], [ 20.66433957, 48.915204 ], [ 20.66432065, 48.91519656 ], [ 20.66419227, 48.91514611 ], [ 20.66412214, 48.91512666 ], [ 20.66402235, 48.91509903 ], [ 20.66401328, 48.91509628 ], [ 20.66400782, 48.91509455 ], [ 20.66382429, 48.91503528 ], [ 20.66380249, 48.91502783 ], [ 20.6637753, 48.91501289 ], [ 20.66374302, 48.91500336 ], [ 20.66364487, 48.91497417 ], [ 20.66357243, 48.91495283 ], [ 20.66351013, 48.91493448 ], [ 20.66345664, 48.91491869 ], [ 20.66334511, 48.91488604 ], [ 20.66325574, 48.9148596 ], [ 20.6631277, 48.91482168 ], [ 20.66302513, 48.91478629 ], [ 20.66300407, 48.91477986 ], [ 20.66292503, 48.91475586 ], [ 20.66287673, 48.91474341 ], [ 20.66270053, 48.91469791 ], [ 20.66271307, 48.91468178 ], [ 20.66299376, 48.91432099 ], [ 20.6631596, 48.91437279 ], [ 20.66321155, 48.91438906 ], [ 20.66341498, 48.91445229 ], [ 20.6635691, 48.91425564 ], [ 20.66387189, 48.91386718 ], [ 20.66392493, 48.9137991 ], [ 20.66417056, 48.91348397 ], [ 20.66419592, 48.91345147 ], [ 20.66421259, 48.91343 ], [ 20.66429311, 48.91348738 ], [ 20.66437687, 48.91354703 ], [ 20.66441037, 48.91356814 ], [ 20.66459193, 48.91352071 ], [ 20.66482859, 48.91344464 ], [ 20.66502626, 48.91338238 ], [ 20.66522785, 48.91331892 ], [ 20.66558186, 48.91320671 ], [ 20.66577011, 48.91315429 ], [ 20.66580036, 48.91315367 ], [ 20.66585046, 48.91315258 ], [ 20.66590981, 48.91315859 ], [ 20.66595035, 48.91311114 ], [ 20.66605804, 48.91298513 ], [ 20.66610418, 48.91293113 ], [ 20.66628357, 48.91272115 ], [ 20.66646386, 48.91261288 ], [ 20.66681076, 48.91240468 ], [ 20.66737115, 48.91199879 ], [ 20.6683452, 48.91137997 ], [ 20.66834961, 48.91133645 ], [ 20.66849759, 48.90986151 ], [ 20.66851665, 48.90967027 ], [ 20.66819593, 48.90891108 ], [ 20.66787301, 48.9074967 ], [ 20.66777254, 48.90697759 ], [ 20.66779979, 48.90612614 ], [ 20.66787733, 48.90558558 ], [ 20.66790365, 48.90502841 ], [ 20.66787854, 48.90459774 ], [ 20.66771151, 48.90393502 ], [ 20.66769725, 48.90388768 ], [ 20.66752574, 48.9037957 ], [ 20.66697301, 48.90349938 ], [ 20.66716438, 48.90318031 ], [ 20.66729125, 48.9022838 ], [ 20.66745178, 48.9020073 ], [ 20.66782202, 48.90160973 ], [ 20.66815881, 48.90128966 ], [ 20.66817422, 48.90127508 ], [ 20.66817881, 48.90080396 ], [ 20.66842812, 48.90011853 ], [ 20.66841958, 48.89966089 ], [ 20.66834028, 48.89967669 ], [ 20.66777808, 48.8995171 ], [ 20.66726194, 48.89938205 ], [ 20.66685651, 48.89927276 ], [ 20.66625797, 48.8991034 ], [ 20.66593558, 48.89901419 ], [ 20.6658254, 48.89897872 ], [ 20.6651709, 48.89879726 ], [ 20.66510319, 48.8987769 ], [ 20.66507901, 48.89876865 ], [ 20.66505922, 48.8987619 ], [ 20.66495746, 48.89883453 ], [ 20.6646961, 48.89902851 ], [ 20.66437318, 48.8992898 ], [ 20.66420265, 48.89939626 ], [ 20.66388352, 48.89957843 ], [ 20.66374582, 48.89967436 ], [ 20.66332118, 48.90000602 ], [ 20.66304491, 48.90024972 ], [ 20.6630179, 48.90027405 ], [ 20.66276349, 48.90049619 ], [ 20.66273628, 48.90051143 ], [ 20.6623321, 48.90075719 ], [ 20.66205988, 48.90090394 ], [ 20.66168102, 48.90109459 ], [ 20.66131037, 48.90128499 ], [ 20.66104033, 48.90146136 ], [ 20.66078962, 48.90162869 ], [ 20.66068068, 48.9017269 ], [ 20.66064626, 48.90170873 ], [ 20.66059992, 48.90168428 ], [ 20.66007891, 48.90140654 ], [ 20.65999595, 48.90136231 ], [ 20.66006758, 48.90127257 ], [ 20.6601145, 48.90119753 ], [ 20.66010515, 48.90117017 ], [ 20.66010142, 48.90115905 ], [ 20.66008757, 48.90111839 ], [ 20.66008394, 48.90110781 ], [ 20.66007304, 48.90107598 ], [ 20.66005841, 48.90103322 ], [ 20.6600187, 48.90092372 ], [ 20.66005776, 48.90083794 ], [ 20.6600506, 48.90068656 ], [ 20.66005789, 48.90065134 ], [ 20.66013972, 48.90047452 ], [ 20.66019137, 48.90037848 ], [ 20.66013901, 48.90031949 ], [ 20.65973017, 48.90002687 ], [ 20.65949246, 48.89980578 ], [ 20.65944641, 48.89976134 ], [ 20.65943097, 48.89974647 ], [ 20.65940926, 48.89970174 ], [ 20.65922403, 48.89933501 ], [ 20.65901411, 48.89898613 ], [ 20.65880752, 48.89866961 ], [ 20.6584196, 48.8975099 ], [ 20.65850375, 48.89722256 ], [ 20.65838787, 48.89702494 ], [ 20.6583926, 48.89668702 ], [ 20.65820947, 48.89609035 ], [ 20.65805986, 48.89591079 ], [ 20.65819412, 48.89582339 ], [ 20.65816145, 48.89557103 ], [ 20.65815226, 48.89518344 ], [ 20.65753262, 48.89514629 ], [ 20.65711501, 48.89511875 ], [ 20.65655751, 48.89508492 ], [ 20.65625897, 48.89506616 ], [ 20.65550171, 48.89501496 ], [ 20.65511875, 48.89498974 ], [ 20.65406594, 48.89491997 ], [ 20.65375225, 48.89489616 ], [ 20.65291916, 48.8948387 ], [ 20.65247746, 48.89481018 ], [ 20.65213063, 48.89478743 ], [ 20.65174767, 48.8947622 ], [ 20.65157528, 48.89474914 ], [ 20.6514201, 48.89473779 ], [ 20.65109056, 48.89471565 ], [ 20.65093781, 48.89469637 ], [ 20.6503342, 48.8946323 ], [ 20.65003455, 48.89460556 ], [ 20.649589, 48.89456087 ], [ 20.64872878, 48.89447151 ], [ 20.64782045, 48.89437933 ], [ 20.64708842, 48.89433691 ], [ 20.64595754, 48.89427325 ], [ 20.64562772, 48.89425451 ], [ 20.64485934, 48.89421077 ], [ 20.64429346, 48.89417432 ], [ 20.64428904, 48.89420622 ], [ 20.64427026, 48.89434856 ], [ 20.64423529, 48.89466622 ], [ 20.6442043, 48.89495564 ], [ 20.64420125, 48.89505496 ], [ 20.64418005, 48.89526927 ], [ 20.64415365, 48.89548203 ], [ 20.64409525, 48.89599806 ], [ 20.6440277, 48.89660282 ], [ 20.64400743, 48.89680095 ], [ 20.64399983, 48.89687606 ], [ 20.64398926, 48.89698204 ], [ 20.64398131, 48.8970367 ], [ 20.64398026, 48.89704602 ], [ 20.64393277, 48.89745356 ], [ 20.64387393, 48.89795344 ], [ 20.64382817, 48.89840103 ], [ 20.64378862, 48.89875075 ], [ 20.6437612, 48.89893629 ], [ 20.64376448, 48.89895928 ], [ 20.6436107, 48.89893086 ], [ 20.64329797, 48.89887382 ], [ 20.64300906, 48.89882107 ], [ 20.64286912, 48.89876909 ], [ 20.64247755, 48.89863824 ], [ 20.64211167, 48.89851066 ], [ 20.64167294, 48.89836216 ], [ 20.64143471, 48.8982634 ], [ 20.64125386, 48.898186 ], [ 20.64110782, 48.89812696 ], [ 20.64096891, 48.89806592 ], [ 20.64084878, 48.89805015 ], [ 20.64083875, 48.89806572 ], [ 20.64082574, 48.89813848 ], [ 20.64079416, 48.89826865 ], [ 20.64081142, 48.89833223 ], [ 20.6408354, 48.89846116 ], [ 20.64111024, 48.8989332 ], [ 20.64116584, 48.8990368 ], [ 20.64117808, 48.89905561 ], [ 20.64096153, 48.89907409 ], [ 20.64085955, 48.89904861 ], [ 20.64068999, 48.89900133 ], [ 20.64053379, 48.89895931 ], [ 20.64014853, 48.89885614 ], [ 20.64016593, 48.89881444 ], [ 20.64015005, 48.89879676 ], [ 20.63977584, 48.89866427 ], [ 20.63965644, 48.89861997 ], [ 20.63961484, 48.89855668 ], [ 20.63952369, 48.89852592 ], [ 20.63945384, 48.89849026 ], [ 20.63939296, 48.89845032 ], [ 20.63928608, 48.89835721 ], [ 20.63936049, 48.89829694 ], [ 20.63911939, 48.89819331 ], [ 20.63901495, 48.89819755 ], [ 20.6389563, 48.89819318 ], [ 20.63890886, 48.89817886 ], [ 20.63888299, 48.8981564 ], [ 20.63887138, 48.89812851 ], [ 20.63887566, 48.89799483 ], [ 20.63883081, 48.89792801 ], [ 20.63875245, 48.89780737 ], [ 20.63865324, 48.89776839 ], [ 20.63860673, 48.89768205 ], [ 20.63855308, 48.89757483 ], [ 20.63830651, 48.89751567 ], [ 20.63819769, 48.89759405 ], [ 20.63810441, 48.8975461 ], [ 20.63792575, 48.89744238 ], [ 20.63780288, 48.89745965 ], [ 20.63763925, 48.8973625 ], [ 20.63752068, 48.89734444 ], [ 20.63724846, 48.89719626 ], [ 20.63707059, 48.89710283 ], [ 20.63703884, 48.89706737 ], [ 20.63700877, 48.89703314 ], [ 20.63695204, 48.89692356 ], [ 20.63666551, 48.89667642 ], [ 20.6365959, 48.89661672 ], [ 20.6366263, 48.89656315 ], [ 20.63667665, 48.89649976 ], [ 20.63658051, 48.89646657 ], [ 20.63653158, 48.89638815 ], [ 20.63643638, 48.89638471 ], [ 20.63618409, 48.89633209 ], [ 20.63611428, 48.89627472 ], [ 20.63584664, 48.89619642 ], [ 20.63578687, 48.89616445 ], [ 20.63568916, 48.89608778 ], [ 20.6353984, 48.89620534 ], [ 20.6353395, 48.89622384 ], [ 20.6349307, 48.89630056 ], [ 20.63481076, 48.8963236 ], [ 20.63462631, 48.89633071 ], [ 20.63442242, 48.89634162 ], [ 20.6342689, 48.89633148 ], [ 20.63406154, 48.89632173 ], [ 20.63382775, 48.89633732 ], [ 20.63363627, 48.89634525 ], [ 20.63358448, 48.89634221 ], [ 20.63346635, 48.89630245 ], [ 20.6333236, 48.8962664 ], [ 20.63308536, 48.89629444 ], [ 20.63280188, 48.89628184 ], [ 20.63274049, 48.89626935 ], [ 20.6325903, 48.89621934 ], [ 20.63243317, 48.89616898 ], [ 20.63230041, 48.89612446 ], [ 20.63220022, 48.89609084 ], [ 20.63211734, 48.89606245 ], [ 20.63208693, 48.89605207 ], [ 20.63206939, 48.89604612 ], [ 20.63190842, 48.89599103 ], [ 20.63170572, 48.89592533 ], [ 20.63167585, 48.89590831 ], [ 20.63160237, 48.89585414 ], [ 20.63154687, 48.89580863 ], [ 20.63149153, 48.89574493 ], [ 20.63137842, 48.8956859 ], [ 20.63129586, 48.89561446 ], [ 20.63121075, 48.89553249 ], [ 20.63112782, 48.89546545 ], [ 20.63100435, 48.89538659 ], [ 20.63091024, 48.89530771 ], [ 20.63083085, 48.8952408 ], [ 20.63077601, 48.89519072 ], [ 20.63072489, 48.89513862 ], [ 20.63059609, 48.89504011 ], [ 20.63044815, 48.89496153 ], [ 20.63032008, 48.8948952 ], [ 20.63020487, 48.89484177 ], [ 20.63005637, 48.89481261 ], [ 20.62990122, 48.89477953 ], [ 20.62970653, 48.89474393 ], [ 20.62934301, 48.89460837 ], [ 20.62925647, 48.894524 ], [ 20.62916419, 48.89450697 ], [ 20.62884506, 48.89454684 ], [ 20.62873726, 48.89461273 ], [ 20.62846315, 48.8946337 ], [ 20.6281266, 48.89457117 ], [ 20.62778578, 48.89455999 ], [ 20.62762862, 48.89461491 ], [ 20.62752845, 48.89460894 ], [ 20.62742962, 48.89454592 ], [ 20.62726652, 48.89444274 ], [ 20.62717259, 48.89434216 ], [ 20.62691463, 48.89429391 ], [ 20.62675584, 48.89432589 ], [ 20.62658749, 48.89432664 ], [ 20.62622273, 48.89439124 ], [ 20.62612057, 48.89449273 ], [ 20.62612088, 48.89453165 ], [ 20.62602031, 48.894655 ], [ 20.62582135, 48.89471164 ], [ 20.62565367, 48.89470439 ], [ 20.62548258, 48.89469711 ], [ 20.62528222, 48.89468526 ], [ 20.62518146, 48.89466675 ], [ 20.62504139, 48.89464123 ], [ 20.62482076, 48.89460234 ], [ 20.62476866, 48.89458334 ], [ 20.62469716, 48.89454643 ], [ 20.62463478, 48.89454417 ], [ 20.62440898, 48.89452797 ], [ 20.62438129, 48.89452579 ], [ 20.62431788, 48.89455898 ], [ 20.62419801, 48.89468595 ], [ 20.62400083, 48.89484578 ], [ 20.62385995, 48.8949528 ], [ 20.62369348, 48.89499486 ], [ 20.623563, 48.89510334 ], [ 20.62327345, 48.89518317 ], [ 20.62316869, 48.89521252 ], [ 20.62295983, 48.89526331 ], [ 20.62284289, 48.89527167 ], [ 20.62273688, 48.8952735 ], [ 20.62262079, 48.89527164 ], [ 20.62232188, 48.89525737 ], [ 20.62221643, 48.89525238 ], [ 20.62209497, 48.89523311 ], [ 20.62198436, 48.89524738 ], [ 20.6219218, 48.89527024 ], [ 20.62168603, 48.8953096 ], [ 20.62162266, 48.89532099 ], [ 20.62152124, 48.89532992 ], [ 20.62141867, 48.89533305 ], [ 20.62138279, 48.89532598 ], [ 20.62134713, 48.89531784 ], [ 20.62116099, 48.89528137 ], [ 20.62097721, 48.89523949 ], [ 20.62095307, 48.89515395 ], [ 20.62109007, 48.89494619 ], [ 20.62113177, 48.89480008 ], [ 20.62114027, 48.8947604 ], [ 20.62108487, 48.89465653 ], [ 20.62088797, 48.89464596 ], [ 20.62062531, 48.89467192 ], [ 20.62046217, 48.89473463 ], [ 20.6202345, 48.89471952 ], [ 20.62000031, 48.89467779 ], [ 20.61968329, 48.89465142 ], [ 20.6196316, 48.89448032 ], [ 20.61965265, 48.89437372 ], [ 20.61951403, 48.89424746 ], [ 20.61947437, 48.89416136 ], [ 20.61936271, 48.89408526 ], [ 20.61922966, 48.89399694 ], [ 20.61884705, 48.89394639 ], [ 20.61858034, 48.8939196 ], [ 20.61853609, 48.89378533 ], [ 20.61839403, 48.89374126 ], [ 20.6182592, 48.89379698 ], [ 20.61815191, 48.89383542 ], [ 20.61806365, 48.89381276 ], [ 20.61800246, 48.89379793 ], [ 20.61793827, 48.89371445 ], [ 20.61789182, 48.89364755 ], [ 20.61773914, 48.893585 ], [ 20.61757624, 48.89356305 ], [ 20.61739114, 48.89357804 ], [ 20.61726922, 48.89350048 ], [ 20.61720174, 48.89343507 ], [ 20.61710616, 48.89333325 ], [ 20.61705214, 48.89327527 ], [ 20.61686988, 48.89321371 ], [ 20.61663198, 48.89313301 ], [ 20.61629573, 48.89315052 ], [ 20.61603751, 48.89314799 ], [ 20.61583303, 48.8930205 ], [ 20.6157399, 48.89291075 ], [ 20.61560285, 48.89274465 ], [ 20.6152496, 48.89267462 ], [ 20.61501461, 48.89276678 ], [ 20.6147134, 48.89279816 ], [ 20.61457426, 48.89274042 ], [ 20.61429821, 48.89272246 ], [ 20.61413367, 48.89263524 ], [ 20.61394502, 48.89252769 ], [ 20.61369544, 48.8924626 ], [ 20.61340194, 48.89250795 ], [ 20.61292043, 48.89247901 ], [ 20.61249996, 48.89236195 ], [ 20.61229972, 48.89224596 ], [ 20.61206587, 48.89222152 ], [ 20.61155168, 48.8921685 ], [ 20.61145107, 48.8920012 ], [ 20.61126567, 48.89200022 ], [ 20.61106398, 48.89198487 ], [ 20.61087599, 48.89188904 ], [ 20.61085922, 48.89186096 ], [ 20.61083843, 48.89173556 ], [ 20.61077602, 48.89163259 ], [ 20.61064839, 48.89158103 ], [ 20.610513, 48.89158295 ], [ 20.61042065, 48.89148358 ], [ 20.61028493, 48.89142595 ], [ 20.61009329, 48.89139502 ], [ 20.60981926, 48.89135299 ], [ 20.60961215, 48.89146443 ], [ 20.60972892, 48.89152011 ], [ 20.6096236, 48.89161814 ], [ 20.60925388, 48.8914514 ], [ 20.60910979, 48.89135006 ], [ 20.60895998, 48.89129426 ], [ 20.60880201, 48.89119241 ], [ 20.60867053, 48.89114763 ], [ 20.60852223, 48.8911571 ], [ 20.60826791, 48.8910657 ], [ 20.60797158, 48.89095882 ], [ 20.60769696, 48.89086191 ], [ 20.60764313, 48.89075925 ], [ 20.60749245, 48.89069433 ], [ 20.60732588, 48.89065278 ], [ 20.60715517, 48.89053677 ], [ 20.60716807, 48.89042511 ], [ 20.6070535, 48.89034321 ], [ 20.60687338, 48.89023506 ], [ 20.60668816, 48.89012762 ], [ 20.60645579, 48.89000252 ], [ 20.60636454, 48.88984933 ], [ 20.60614437, 48.88982645 ], [ 20.60608495, 48.8897499 ], [ 20.60610333, 48.88971625 ], [ 20.60618627, 48.88959687 ], [ 20.60615564, 48.88952713 ], [ 20.60613554, 48.88945569 ], [ 20.60602046, 48.88940115 ], [ 20.60575738, 48.88941445 ], [ 20.60562376, 48.88937419 ], [ 20.60552855, 48.88924715 ], [ 20.60538209, 48.88919381 ], [ 20.60519178, 48.88918796 ], [ 20.60496012, 48.88922068 ], [ 20.60477806, 48.88909516 ], [ 20.60484763, 48.88894783 ], [ 20.6048097, 48.88882179 ], [ 20.60460819, 48.88868061 ], [ 20.60442679, 48.88854719 ], [ 20.60426668, 48.88849218 ], [ 20.60400303, 48.88840476 ], [ 20.60370601, 48.88832765 ], [ 20.60340028, 48.88825013 ], [ 20.60314481, 48.8881939 ], [ 20.60301592, 48.8880142 ], [ 20.60299575, 48.88800545 ], [ 20.60297903, 48.88799799 ], [ 20.60300437, 48.8879646 ], [ 20.60304336, 48.88797521 ], [ 20.60302242, 48.88795616 ], [ 20.60287153, 48.88781241 ], [ 20.60238649, 48.88765981 ], [ 20.60195325, 48.88752964 ], [ 20.60178639, 48.88741025 ], [ 20.60167578, 48.88740514 ], [ 20.60153197, 48.88734153 ], [ 20.60139812, 48.88728288 ], [ 20.6010535, 48.88713189 ], [ 20.60100619, 48.88703316 ], [ 20.60086022, 48.88695461 ], [ 20.60069581, 48.88690863 ], [ 20.6005521, 48.88680152 ], [ 20.60050461, 48.88672774 ], [ 20.6004028, 48.88657533 ], [ 20.60021142, 48.88650089 ], [ 20.60012811, 48.88641778 ], [ 20.59995769, 48.88623674 ], [ 20.59979521, 48.88616786 ], [ 20.59970763, 48.8860755 ], [ 20.59937926, 48.88599949 ], [ 20.59907948, 48.88580896 ], [ 20.59900538, 48.88576275 ], [ 20.59892663, 48.88570836 ], [ 20.59884936, 48.88565754 ], [ 20.598772, 48.88560779 ], [ 20.59869132, 48.88555684 ], [ 20.59865683, 48.88549263 ], [ 20.59862726, 48.88545273 ], [ 20.59854366, 48.88537321 ], [ 20.59846265, 48.88528559 ], [ 20.59840871, 48.88522526 ], [ 20.59832877, 48.88509886 ], [ 20.59826481, 48.88499358 ], [ 20.59822294, 48.88491307 ], [ 20.59807417, 48.88490881 ], [ 20.59799629, 48.8849483 ], [ 20.59784627, 48.88502064 ], [ 20.59769894, 48.88501869 ], [ 20.59747855, 48.88495805 ], [ 20.59736051, 48.88487709 ], [ 20.5971725, 48.88478214 ], [ 20.5970183, 48.88463583 ], [ 20.59683449, 48.88455266 ], [ 20.5966472, 48.88442801 ], [ 20.59640799, 48.88438497 ], [ 20.59605277, 48.88423699 ], [ 20.59598139, 48.88403308 ], [ 20.59594642, 48.88399407 ], [ 20.59589752, 48.8839568 ], [ 20.59573528, 48.88390629 ], [ 20.5957042, 48.88388453 ], [ 20.59563587, 48.88381016 ], [ 20.59557715, 48.88370282 ], [ 20.59556405, 48.88352851 ], [ 20.59555327, 48.88343084 ], [ 20.59554652, 48.88338602 ], [ 20.59558588, 48.88320669 ], [ 20.59548891, 48.88312218 ], [ 20.5953552, 48.88312396 ], [ 20.59528894, 48.88310794 ], [ 20.59518955, 48.88307342 ], [ 20.59501692, 48.883002 ], [ 20.59492769, 48.88292776 ], [ 20.59480546, 48.88291646 ], [ 20.59484272, 48.88282406 ], [ 20.59481269, 48.88278972 ], [ 20.59473547, 48.88269774 ], [ 20.59463445, 48.88257849 ], [ 20.59446069, 48.88258241 ], [ 20.59432816, 48.88261072 ], [ 20.59427796, 48.88261006 ], [ 20.59422499, 48.88260011 ], [ 20.59418748, 48.88253128 ], [ 20.59403229, 48.88254164 ], [ 20.5938808, 48.88254862 ], [ 20.59385498, 48.88248364 ], [ 20.59375947, 48.88248592 ], [ 20.59365285, 48.88251634 ], [ 20.59355544, 48.882499 ], [ 20.59344313, 48.88247202 ], [ 20.59343977, 48.88238841 ], [ 20.59326519, 48.88242319 ], [ 20.59316485, 48.88241952 ], [ 20.59308495, 48.88246353 ], [ 20.59305532, 48.88244074 ], [ 20.59298821, 48.88239254 ], [ 20.59289046, 48.8824004 ], [ 20.59285094, 48.88247903 ], [ 20.59272651, 48.88243215 ], [ 20.59275438, 48.88232797 ], [ 20.59266788, 48.88230418 ], [ 20.59262323, 48.88225698 ], [ 20.59239998, 48.88223054 ], [ 20.59235396, 48.88222084 ], [ 20.59229892, 48.88217533 ], [ 20.59224207, 48.88212867 ], [ 20.59218459, 48.88209108 ], [ 20.59203195, 48.88200777 ], [ 20.591957, 48.88205304 ], [ 20.59188965, 48.88202887 ], [ 20.59178926, 48.88196576 ], [ 20.5916689, 48.88189156 ], [ 20.5915675, 48.88183867 ], [ 20.59142684, 48.88177859 ], [ 20.59120321, 48.88169494 ], [ 20.59101944, 48.88167336 ], [ 20.5909689, 48.88182139 ], [ 20.59084351, 48.88184761 ], [ 20.5906218, 48.88161767 ], [ 20.59053852, 48.88165804 ], [ 20.59040695, 48.88165557 ], [ 20.59030512, 48.88156718 ], [ 20.59007283, 48.88154608 ], [ 20.5899725, 48.88148062 ], [ 20.58977478, 48.88154203 ], [ 20.58948501, 48.88150288 ], [ 20.58934952, 48.88150477 ], [ 20.5891066, 48.88144437 ], [ 20.58902804, 48.88155363 ], [ 20.58894211, 48.88156535 ], [ 20.58883977, 48.88146208 ], [ 20.58867276, 48.8814068 ], [ 20.58856077, 48.88131597 ], [ 20.58833562, 48.88137393 ], [ 20.58812264, 48.88112152 ], [ 20.58775567, 48.88113322 ], [ 20.58768739, 48.88105525 ], [ 20.58766527, 48.88096752 ], [ 20.58748337, 48.88088305 ], [ 20.58725436, 48.88071912 ], [ 20.5866858, 48.88067427 ], [ 20.58653925, 48.88047815 ], [ 20.58645448, 48.88047613 ], [ 20.58641544, 48.88054891 ], [ 20.58632756, 48.88058227 ], [ 20.58615975, 48.88051551 ], [ 20.58611016, 48.88040525 ], [ 20.58606243, 48.880312 ], [ 20.58585275, 48.88030946 ], [ 20.58582861, 48.88030911 ], [ 20.58576816, 48.88032636 ], [ 20.58553927, 48.88036716 ], [ 20.58545126, 48.88023811 ], [ 20.58558086, 48.8802234 ], [ 20.58534763, 48.88012912 ], [ 20.58522732, 48.88013723 ], [ 20.58523667, 48.88004724 ], [ 20.58520656, 48.87997183 ], [ 20.58521489, 48.87991494 ], [ 20.58510748, 48.87989155 ], [ 20.5850866, 48.87989304 ], [ 20.58497145, 48.87990144 ], [ 20.5848801, 48.87976992 ], [ 20.58470624, 48.8796517 ], [ 20.58468656, 48.87961783 ], [ 20.58462533, 48.87950003 ], [ 20.58459837, 48.87942924 ], [ 20.58460484, 48.87942218 ], [ 20.58464042, 48.87938395 ], [ 20.58471821, 48.87934554 ], [ 20.58477708, 48.87932599 ], [ 20.58478821, 48.87921318 ], [ 20.58484736, 48.87917068 ], [ 20.58478808, 48.87911248 ], [ 20.58483047, 48.87906144 ], [ 20.58478417, 48.87897391 ], [ 20.58471693, 48.87894857 ], [ 20.58469034, 48.87889292 ], [ 20.58463361, 48.87876385 ], [ 20.58468539, 48.87870513 ], [ 20.58464522, 48.87862593 ], [ 20.5846914, 48.87855097 ], [ 20.58471245, 48.87846474 ], [ 20.58466863, 48.87836712 ], [ 20.58467286, 48.87831693 ], [ 20.58462124, 48.87827154 ], [ 20.58463313, 48.8781919 ], [ 20.5846813, 48.87807378 ], [ 20.58466977, 48.87802418 ], [ 20.58465317, 48.87795377 ], [ 20.58460375, 48.87790162 ], [ 20.58470868, 48.87785061 ], [ 20.5847927, 48.87778046 ], [ 20.58466323, 48.8775664 ], [ 20.58458498, 48.87742528 ], [ 20.58451417, 48.87729803 ], [ 20.58441893, 48.87717215 ], [ 20.5843113, 48.87704922 ], [ 20.58415831, 48.87688925 ], [ 20.58405857, 48.87675518 ], [ 20.58399293, 48.87667036 ], [ 20.58386424, 48.87659152 ], [ 20.583895, 48.87651483 ], [ 20.58366618, 48.87645277 ], [ 20.58355653, 48.87639606 ], [ 20.58348346, 48.87633619 ], [ 20.58343413, 48.87634474 ], [ 20.58336401, 48.87635362 ], [ 20.58332603, 48.87635222 ], [ 20.58323862, 48.87615457 ], [ 20.58318865, 48.87602799 ], [ 20.58313909, 48.87599871 ], [ 20.58305385, 48.87596019 ], [ 20.58291651, 48.87590139 ], [ 20.58292747, 48.87585396 ], [ 20.58289725, 48.87582196 ], [ 20.58277837, 48.87568836 ], [ 20.58272258, 48.875652 ], [ 20.58262341, 48.87563459 ], [ 20.58254273, 48.875563 ], [ 20.58242722, 48.87553364 ], [ 20.5824405, 48.87545865 ], [ 20.58250545, 48.8753878 ], [ 20.58246419, 48.875281 ], [ 20.58247872, 48.87521065 ], [ 20.58237941, 48.87515441 ], [ 20.58227583, 48.87506613 ], [ 20.58229043, 48.87501749 ], [ 20.58223327, 48.87495361 ], [ 20.58225632, 48.87486637 ], [ 20.58223573, 48.8748222 ], [ 20.5822675, 48.87477418 ], [ 20.58224193, 48.87472749 ], [ 20.58220032, 48.8747076 ], [ 20.58207698, 48.8746448 ], [ 20.58194373, 48.87455868 ], [ 20.58197812, 48.87450049 ], [ 20.58188773, 48.87439991 ], [ 20.58203755, 48.87420653 ], [ 20.58200141, 48.87414116 ], [ 20.5819971, 48.87413074 ], [ 20.58195303, 48.87413038 ], [ 20.58190349, 48.87411218 ], [ 20.58179012, 48.87407046 ], [ 20.57514439, 48.87170674 ], [ 20.57481913, 48.87238707 ], [ 20.57479766, 48.87243276 ], [ 20.57433651, 48.8733449 ], [ 20.57431947, 48.87339156 ], [ 20.57411141, 48.87396757 ], [ 20.5739023, 48.87453642 ], [ 20.57377221, 48.87489697 ], [ 20.57318688, 48.87641467 ], [ 20.57309076, 48.87666856 ], [ 20.57288679, 48.87717635 ], [ 20.57250167, 48.87813811 ], [ 20.57247988, 48.87819234 ], [ 20.57246725, 48.87822394 ], [ 20.57208606, 48.87927321 ], [ 20.57201669, 48.87946413 ], [ 20.5716229, 48.88051843 ], [ 20.57147344, 48.88086051 ], [ 20.57136412, 48.8811104 ], [ 20.57099583, 48.8819401 ], [ 20.57062767, 48.88298471 ], [ 20.57017328, 48.88394085 ], [ 20.570076, 48.88417272 ], [ 20.5700558, 48.88423232 ], [ 20.57002719, 48.8843172 ], [ 20.56945343, 48.88578253 ], [ 20.56924101, 48.88637161 ], [ 20.56921265, 48.88644713 ], [ 20.56920269, 48.88647774 ], [ 20.56901479, 48.88694947 ], [ 20.56898036, 48.88704016 ], [ 20.56897526, 48.88705367 ], [ 20.56897045, 48.88706367 ], [ 20.56841606, 48.88820843 ], [ 20.56788062, 48.88944548 ], [ 20.56746923, 48.89035871 ], [ 20.56710488, 48.89113207 ], [ 20.56708005, 48.89121735 ], [ 20.56700846, 48.89147448 ], [ 20.56677809, 48.89222367 ], [ 20.56646112, 48.89300661 ], [ 20.5661265, 48.89373647 ], [ 20.5673022, 48.89460426 ], [ 20.56758472, 48.89547669 ], [ 20.56792077, 48.89640441 ], [ 20.56801894, 48.89830432 ], [ 20.56802187, 48.89835693 ], [ 20.56803259, 48.89835616 ], [ 20.56895548, 48.89828711 ], [ 20.56894222, 48.89817079 ], [ 20.56908281, 48.89816083 ], [ 20.56923802, 48.8981396 ], [ 20.57042706, 48.89662562 ], [ 20.57129561, 48.89560623 ], [ 20.57241816, 48.89426858 ], [ 20.57292664, 48.89366099 ], [ 20.57295919, 48.89363949 ], [ 20.57299227, 48.89361323 ], [ 20.57360379, 48.89312796 ], [ 20.57474409, 48.89248663 ], [ 20.5751598, 48.8921897 ], [ 20.57558735, 48.89187204 ], [ 20.57683742, 48.89102027 ], [ 20.57776595, 48.89037871 ], [ 20.57856994, 48.88979491 ], [ 20.57951122, 48.88922027 ], [ 20.57981984, 48.88902001 ], [ 20.58003903, 48.88887763 ], [ 20.58025186, 48.88873952 ], [ 20.58045919, 48.8886049 ], [ 20.58068, 48.88845951 ], [ 20.58108541, 48.8881948 ], [ 20.58136185, 48.88801326 ], [ 20.58137269, 48.88800618 ], [ 20.58139427, 48.88799319 ], [ 20.58145311, 48.88794977 ], [ 20.58177272, 48.88812468 ], [ 20.58182847, 48.88815518 ], [ 20.58208407, 48.88829082 ], [ 20.58231787, 48.88825219 ], [ 20.58250721, 48.88822093 ], [ 20.58268729, 48.88819573 ], [ 20.58303307, 48.88817039 ], [ 20.58395517, 48.88811309 ], [ 20.58457227, 48.88806885 ], [ 20.58460604, 48.88807009 ], [ 20.58473064, 48.88895893 ], [ 20.58494184, 48.88925704 ], [ 20.58542213, 48.88982106 ], [ 20.58566544, 48.89010133 ], [ 20.58583951, 48.89029369 ], [ 20.58609759, 48.89058018 ], [ 20.58626277, 48.89073232 ], [ 20.58634428, 48.89078465 ], [ 20.58665703, 48.89093273 ], [ 20.58708746, 48.89114014 ], [ 20.58761354, 48.8913795 ], [ 20.58805766, 48.8915703 ], [ 20.5882608, 48.89163654 ], [ 20.58842664, 48.89168827 ], [ 20.58881086, 48.89180851 ], [ 20.58958596, 48.89203986 ], [ 20.59037864, 48.89224726 ], [ 20.59064856, 48.89235764 ], [ 20.59100005, 48.89262852 ], [ 20.59117738, 48.89274507 ], [ 20.59195273, 48.89319473 ], [ 20.5925093, 48.89350913 ], [ 20.59298665, 48.89381694 ], [ 20.59370046, 48.89423201 ], [ 20.59383382, 48.89432416 ], [ 20.59398207, 48.89445864 ], [ 20.59425186, 48.89471707 ], [ 20.59457626, 48.89509135 ], [ 20.59479854, 48.89540497 ], [ 20.59481563, 48.89545684 ], [ 20.59475593, 48.89576584 ], [ 20.59473052, 48.89588632 ], [ 20.59476926, 48.89597312 ], [ 20.59497546, 48.89618375 ], [ 20.59543927, 48.89658013 ], [ 20.59586501, 48.89699233 ], [ 20.59620657, 48.89734632 ], [ 20.59648195, 48.89753849 ], [ 20.5964524, 48.8975602 ], [ 20.59634876, 48.89762478 ], [ 20.59619955, 48.89768382 ], [ 20.59618767, 48.89771302 ], [ 20.5960991, 48.89793 ], [ 20.5960759, 48.8979867 ], [ 20.59605979, 48.89812491 ], [ 20.59605405, 48.89817378 ], [ 20.59608015, 48.89837865 ], [ 20.59609975, 48.89853239 ], [ 20.59610587, 48.89857989 ], [ 20.59613505, 48.89870093 ], [ 20.596174, 48.89885366 ], [ 20.59623839, 48.89900615 ], [ 20.59634775, 48.89920703 ], [ 20.59635931, 48.89922393 ], [ 20.59638729, 48.89926485 ], [ 20.59642121, 48.89930995 ], [ 20.59650488, 48.89941982 ], [ 20.59660011, 48.8996654 ], [ 20.59661089, 48.89969317 ], [ 20.59671803, 48.89988793 ], [ 20.59673865, 48.89992552 ], [ 20.59695638, 48.90024483 ], [ 20.59697085, 48.90026607 ], [ 20.59704764, 48.90045954 ], [ 20.59706715, 48.90050871 ], [ 20.59719507, 48.90073917 ], [ 20.5972193, 48.90077275 ], [ 20.59747272, 48.90112434 ], [ 20.59754907, 48.90122701 ], [ 20.59760416, 48.90130963 ], [ 20.59763584, 48.90136509 ], [ 20.59771824, 48.90150968 ], [ 20.59774515, 48.90155696 ], [ 20.5978149, 48.90167983 ], [ 20.5979333, 48.90188869 ], [ 20.59801279, 48.90207451 ], [ 20.59803917, 48.90219806 ], [ 20.59807983, 48.90239075 ], [ 20.59814235, 48.90268764 ], [ 20.59813616, 48.9027727 ], [ 20.59813249, 48.90282292 ], [ 20.59812271, 48.90295577 ], [ 20.59811525, 48.90308213 ], [ 20.59809132, 48.90321257 ], [ 20.59808705, 48.90323584 ], [ 20.59800432, 48.90345483 ], [ 20.59799446, 48.90360812 ], [ 20.59799262, 48.9036186 ], [ 20.59795833, 48.90381387 ], [ 20.59793692, 48.90393558 ], [ 20.59792983, 48.90397603 ], [ 20.5979267, 48.90399375 ], [ 20.59792903, 48.90403932 ], [ 20.59794504, 48.90431731 ], [ 20.59798272, 48.90453736 ], [ 20.59800059, 48.90464195 ], [ 20.59805383, 48.90506891 ], [ 20.59815759, 48.90506982 ], [ 20.5983419, 48.9050714 ], [ 20.59846163, 48.90507244 ], [ 20.59852803, 48.90504478 ], [ 20.59861731, 48.90500976 ], [ 20.59877486, 48.9049965 ], [ 20.59886255, 48.90501302 ], [ 20.59897931, 48.90508366 ], [ 20.59906264, 48.90512786 ], [ 20.59907925, 48.90513666 ], [ 20.59917575, 48.90515729 ], [ 20.59925957, 48.90514513 ], [ 20.59935208, 48.90516444 ], [ 20.59944661, 48.90518419 ], [ 20.59959573, 48.90520944 ], [ 20.59986434, 48.90525499 ], [ 20.60004566, 48.90528574 ], [ 20.60011046, 48.90524451 ], [ 20.60020876, 48.9052063 ], [ 20.60044688, 48.90524723 ], [ 20.60047503, 48.90525204 ], [ 20.60058854, 48.90525239 ], [ 20.60077767, 48.90524703 ], [ 20.60082231, 48.90524578 ], [ 20.60104621, 48.90521026 ], [ 20.60115391, 48.90520175 ], [ 20.6013737, 48.90518427 ], [ 20.601535, 48.90519961 ], [ 20.60173779, 48.90519754 ], [ 20.60187522, 48.90516841 ], [ 20.6018922, 48.90516786 ], [ 20.60201372, 48.90516391 ], [ 20.60220065, 48.90516694 ], [ 20.60228327, 48.9051478 ], [ 20.6024134, 48.90511777 ], [ 20.60251448, 48.90511956 ], [ 20.60260593, 48.90516469 ], [ 20.60264791, 48.9051936 ], [ 20.60274547, 48.90525704 ], [ 20.60297796, 48.90530154 ], [ 20.60306834, 48.90532194 ], [ 20.60325574, 48.90531922 ], [ 20.60325414, 48.90553064 ], [ 20.6032519, 48.90584092 ], [ 20.60351759, 48.90585628 ], [ 20.60351062, 48.90590349 ], [ 20.60347801, 48.90603506 ], [ 20.60423086, 48.90609661 ], [ 20.60418073, 48.90640128 ], [ 20.60414359, 48.90655259 ], [ 20.60406066, 48.90666341 ], [ 20.6040299, 48.90681027 ], [ 20.60412095, 48.90722536 ], [ 20.60413755, 48.90755705 ], [ 20.60414056, 48.90758796 ], [ 20.60417821, 48.9083956 ], [ 20.60560614, 48.90823621 ], [ 20.60561233, 48.90827804 ], [ 20.60563073, 48.90840417 ], [ 20.60565867, 48.90859586 ], [ 20.60566914, 48.9086682 ], [ 20.60568457, 48.90877423 ], [ 20.60569647, 48.90885563 ], [ 20.60571201, 48.90896212 ], [ 20.60572836, 48.90907349 ], [ 20.60574412, 48.90918223 ], [ 20.60575541, 48.90925947 ], [ 20.60576785, 48.90934422 ], [ 20.60578146, 48.90943776 ], [ 20.60579191, 48.90951532 ], [ 20.60581165, 48.90966294 ], [ 20.60590936, 48.90993183 ], [ 20.60591513, 48.90994771 ], [ 20.60599444, 48.91016072 ], [ 20.60604802, 48.9103301 ], [ 20.60605687, 48.91035816 ], [ 20.60594783, 48.91101375 ], [ 20.60594753, 48.91101572 ], [ 20.60592809, 48.911132 ], [ 20.60590986, 48.91133165 ], [ 20.60590449, 48.91136955 ], [ 20.60590025, 48.91139569 ], [ 20.60561766, 48.91139586 ], [ 20.60508172, 48.9113278 ], [ 20.60455476, 48.9112797 ], [ 20.6042197, 48.91129777 ], [ 20.60398954, 48.91133271 ], [ 20.60307144, 48.91146472 ], [ 20.60251668, 48.91157052 ], [ 20.60226365, 48.9115994 ], [ 20.60208103, 48.91162301 ], [ 20.60208637, 48.9116359 ], [ 20.60209088, 48.91164246 ], [ 20.60210255, 48.91165973 ], [ 20.60211435, 48.911677 ], [ 20.60258541, 48.91236893 ], [ 20.60298981, 48.91296297 ], [ 20.60303191, 48.91302475 ], [ 20.60309236, 48.91311378 ], [ 20.60314795, 48.91319551 ], [ 20.60323834, 48.91332841 ], [ 20.60326096, 48.91336175 ], [ 20.60334174, 48.91348042 ], [ 20.60341389, 48.91358645 ], [ 20.60360257, 48.91386387 ], [ 20.60365451, 48.91394025 ], [ 20.60371506, 48.91402811 ], [ 20.60377256, 48.91411162 ], [ 20.60381068, 48.91416381 ], [ 20.60389366, 48.91427752 ], [ 20.60397959, 48.91439521 ], [ 20.60407274, 48.91452289 ], [ 20.60411794, 48.91459164 ], [ 20.60419052, 48.91470227 ], [ 20.60421849, 48.91473382 ], [ 20.60425009, 48.91480027 ], [ 20.60432429, 48.9149568 ], [ 20.6043431, 48.91499315 ], [ 20.60435745, 48.91502087 ], [ 20.60452014, 48.91533464 ], [ 20.60453331, 48.91536016 ], [ 20.60453476, 48.91536724 ], [ 20.60454096, 48.91539763 ], [ 20.6040413, 48.91541133 ], [ 20.60368415, 48.91549532 ], [ 20.60364356, 48.91559481 ], [ 20.60296027, 48.91577437 ], [ 20.60283822, 48.91600104 ], [ 20.6026796, 48.91607236 ], [ 20.60250428, 48.91608849 ], [ 20.60233463, 48.91613815 ], [ 20.60224893, 48.91613503 ], [ 20.60207529, 48.91618175 ], [ 20.60220297, 48.91627413 ], [ 20.60223112, 48.91632298 ], [ 20.60216749, 48.91636632 ], [ 20.60214228, 48.91638342 ], [ 20.60198639, 48.91639773 ], [ 20.60174884, 48.91633459 ], [ 20.60161512, 48.91634035 ], [ 20.60143495, 48.91633775 ], [ 20.60106715, 48.91647043 ], [ 20.60093743, 48.91657991 ], [ 20.60081977, 48.91667929 ], [ 20.6003608, 48.91677145 ], [ 20.60023988, 48.9168672 ], [ 20.60007549, 48.91699739 ], [ 20.59988175, 48.91702626 ], [ 20.5993314, 48.91687849 ], [ 20.59917169, 48.91683565 ], [ 20.59891263, 48.91672128 ], [ 20.59867182, 48.91672313 ], [ 20.59860513, 48.91674925 ], [ 20.59855411, 48.91676927 ], [ 20.59837897, 48.91685989 ], [ 20.59816328, 48.9168441 ], [ 20.59817154, 48.9168988 ], [ 20.59816059, 48.91692506 ], [ 20.5981447, 48.91696294 ], [ 20.59785242, 48.91696417 ], [ 20.59767207, 48.91693769 ], [ 20.59758146, 48.9169932 ], [ 20.59756561, 48.91700289 ], [ 20.59772889, 48.91710575 ], [ 20.59737761, 48.91727091 ], [ 20.59718294, 48.91723598 ], [ 20.59715179, 48.91723268 ], [ 20.59716727, 48.91728098 ], [ 20.59717257, 48.9173091 ], [ 20.59717458, 48.91731926 ], [ 20.59726202, 48.91766785 ], [ 20.59728183, 48.91775738 ], [ 20.59670589, 48.91782806 ], [ 20.59579954, 48.91803178 ], [ 20.5950032, 48.91820285 ], [ 20.59452971, 48.91832932 ], [ 20.59356205, 48.91858429 ], [ 20.59297697, 48.91865462 ], [ 20.59248834, 48.91866353 ], [ 20.59159303, 48.91887041 ], [ 20.59078806, 48.91876356 ], [ 20.59025668, 48.91865669 ], [ 20.58958079, 48.9184516 ], [ 20.5892221, 48.91827079 ], [ 20.58885011, 48.91803032 ], [ 20.58853493, 48.91792855 ], [ 20.58822064, 48.91789734 ], [ 20.58703461, 48.91795693 ], [ 20.58592691, 48.91820447 ], [ 20.58593619, 48.91824524 ], [ 20.58595981, 48.91830231 ], [ 20.58619692, 48.91887372 ], [ 20.5862212, 48.91886614 ], [ 20.58654481, 48.91943278 ], [ 20.58714522, 48.92057687 ], [ 20.58715865, 48.92073552 ], [ 20.58720065, 48.92084217 ], [ 20.58739419, 48.92101902 ], [ 20.58767803, 48.92134237 ], [ 20.58797745, 48.92178104 ], [ 20.5882957, 48.92220076 ], [ 20.58892616, 48.92283905 ], [ 20.59014911, 48.92405603 ], [ 20.59044554, 48.92428536 ], [ 20.59075502, 48.92453669 ], [ 20.59102917, 48.92474007 ], [ 20.59124446, 48.92485853 ], [ 20.59143794, 48.92500214 ], [ 20.59165261, 48.92507753 ], [ 20.59177142, 48.92516329 ], [ 20.59190302, 48.92527887 ], [ 20.59191213, 48.92529578 ], [ 20.59192823, 48.92532537 ], [ 20.59203417, 48.92552017 ], [ 20.59207108, 48.92565014 ], [ 20.59218636, 48.92593886 ], [ 20.59224221, 48.92612806 ], [ 20.59229178, 48.92633342 ], [ 20.59235029, 48.92636906 ], [ 20.59238187, 48.92638841 ], [ 20.59239109, 48.92640396 ], [ 20.5924106, 48.92643692 ], [ 20.59266278, 48.9268335 ], [ 20.59270528, 48.92690683 ], [ 20.5928085, 48.92699265 ], [ 20.59286963, 48.92703785 ], [ 20.59290502, 48.927064 ], [ 20.5930422, 48.92716537 ], [ 20.59325068, 48.92723324 ], [ 20.59325017, 48.92719215 ], [ 20.59326199, 48.92716367 ], [ 20.59338138, 48.92687675 ], [ 20.59350625, 48.92666281 ], [ 20.59350975, 48.92665861 ], [ 20.59351583, 48.92665127 ], [ 20.59356218, 48.92659577 ], [ 20.59356506, 48.92659245 ], [ 20.59358094, 48.92657421 ], [ 20.59364252, 48.9265035 ], [ 20.59377579, 48.92641722 ], [ 20.59406878, 48.92629263 ], [ 20.59447529, 48.92619155 ], [ 20.59508328, 48.92611475 ], [ 20.59513884, 48.9261075 ], [ 20.59557359, 48.92605086 ], [ 20.59652621, 48.92581216 ], [ 20.59713643, 48.92562735 ], [ 20.59758133, 48.92546281 ], [ 20.59793077, 48.9252893 ], [ 20.59823806, 48.92507399 ], [ 20.5982947, 48.92503426 ], [ 20.5983718, 48.92498033 ], [ 20.59880688, 48.92462989 ], [ 20.5996513, 48.92400742 ], [ 20.59999256, 48.92371949 ], [ 20.60039625, 48.92335529 ], [ 20.60051485, 48.9232482 ], [ 20.60112865, 48.92255103 ], [ 20.60141653, 48.92213019 ], [ 20.60176758, 48.92159493 ], [ 20.60194261, 48.92141145 ], [ 20.60238135, 48.92109166 ], [ 20.60259902, 48.9209798 ], [ 20.60264526, 48.9209596 ], [ 20.60366782, 48.92054561 ], [ 20.60430125, 48.92023452 ], [ 20.60487669, 48.91989125 ], [ 20.60609413, 48.91928916 ], [ 20.60695903, 48.91878077 ], [ 20.60710015, 48.91868512 ], [ 20.60713277, 48.91871333 ], [ 20.60718464, 48.91875818 ], [ 20.60726237, 48.9188254 ], [ 20.60824356, 48.91969069 ], [ 20.60867543, 48.9200708 ], [ 20.60892758, 48.9202927 ], [ 20.6090577, 48.92040677 ], [ 20.60939014, 48.92069815 ], [ 20.61016083, 48.92137365 ], [ 20.61019885, 48.92140601 ], [ 20.61111701, 48.92219116 ], [ 20.61185258, 48.92281988 ], [ 20.61222298, 48.9231365 ], [ 20.61242109, 48.92332347 ], [ 20.61244707, 48.92334783 ], [ 20.61261931, 48.92322655 ], [ 20.61283251, 48.92305029 ], [ 20.61291111, 48.92298974 ], [ 20.61297052, 48.92295759 ], [ 20.61301801, 48.92294535 ], [ 20.61313064, 48.92292233 ], [ 20.61333933, 48.92290614 ], [ 20.61340746, 48.9229069 ], [ 20.61347328, 48.92291749 ], [ 20.61353989, 48.92294621 ], [ 20.61381353, 48.92313384 ], [ 20.61401184, 48.9232548 ], [ 20.6139928, 48.92328473 ], [ 20.61393479, 48.92335242 ], [ 20.61392253, 48.92336666 ], [ 20.61377794, 48.92349893 ], [ 20.61367286, 48.923595 ], [ 20.61356542, 48.92369323 ], [ 20.61348709, 48.92376523 ], [ 20.613391, 48.9238536 ], [ 20.61333631, 48.92390611 ], [ 20.61328459, 48.92395575 ], [ 20.61318436, 48.92404613 ], [ 20.61306743, 48.92415158 ], [ 20.61286144, 48.92434296 ], [ 20.61275251, 48.9244442 ], [ 20.61264373, 48.92454527 ], [ 20.61244245, 48.92472763 ], [ 20.61225212, 48.92490003 ], [ 20.61214785, 48.92499622 ], [ 20.6120489, 48.92508764 ], [ 20.61192477, 48.9252022 ], [ 20.61185842, 48.92526337 ], [ 20.61173952, 48.92536938 ], [ 20.61163008, 48.92546691 ], [ 20.61150806, 48.92558073 ], [ 20.61139536, 48.92568624 ], [ 20.61131695, 48.92575914 ], [ 20.61124553, 48.92582526 ], [ 20.611088, 48.92597157 ], [ 20.61096121, 48.92608521 ], [ 20.61099991, 48.92610941 ], [ 20.61182509, 48.926715 ], [ 20.61270936, 48.92735281 ], [ 20.61337376, 48.92782862 ], [ 20.61411831, 48.92836434 ], [ 20.6144467, 48.92860062 ], [ 20.61447268, 48.92862336 ], [ 20.61563687, 48.92911522 ], [ 20.6157418, 48.9291583 ], [ 20.61584672, 48.92920309 ], [ 20.61594399, 48.92924625 ], [ 20.61604126, 48.92928607 ], [ 20.61613593, 48.9293277 ], [ 20.61623306, 48.92936761 ], [ 20.61632007, 48.92940427 ], [ 20.61641747, 48.92944752 ], [ 20.61652226, 48.9294906 ], [ 20.61659642, 48.92952085 ], [ 20.61670395, 48.92956555 ], [ 20.61688043, 48.92964058 ], [ 20.61695212, 48.92967092 ], [ 20.61698782, 48.92968366 ], [ 20.61703133, 48.92970118 ], [ 20.61730754, 48.9298145 ], [ 20.61800148, 48.93009474 ], [ 20.61805265, 48.93011542 ], [ 20.61815645, 48.93015729 ], [ 20.61896733, 48.93049076 ], [ 20.61901071, 48.93050656 ], [ 20.61950446, 48.93071252 ], [ 20.62111756, 48.93137732 ], [ 20.62115028, 48.9313849 ], [ 20.62135745, 48.93107791 ] ] ] ] } }
]
}
