{
"type": "FeatureCollection",
"name": "gis",
"crs": { "type": "name", "properties": { "name": "urn:ogc:def:crs:OGC:1.3:CRS84" } },
"features": [
{ "type": "Feature", "properties": { "@featureType": "CadastralParcel", "areaValue": { "value": 169, "@uom": "m2" }, "beginLifespanVersion": { "@nilReason": "http://inspire.ec.europa.eu/codelist/VoidReasonValue/Unpopulated", "@nil": "true" }, "endLifespanVersion": { "@nilReason": "http://inspire.ec.europa.eu/codelist/VoidReasonValue/Unpopulated", "@nil": "true" }, "inspireId": { "@dataType": "Identifier", "localId": "831646_1110/15.C", "namespace": "SK.ESKN.CP", "versionId": "20260703T06:07:48" }, "label": "1110/15", "nationalCadastralReference": "831646_1110/15.C", "referencePoint": { "type": "Point", "coordinates": [ 18.58490643, 48.20730007 ] }, "validFrom": "2026-06-30T16:00:00Z", "validTo": { "@nilReason": "http://inspire.ec.europa.eu/codelist/VoidReasonValue/Unpopulated", "@nil": "true" }, "administrativeUnit": { "@href": "#auAdmUnitS.2799" } }, "geometry": { "type": "Polygon", "coordinates": [ [ [ 18.58450217, 48.20738224 ], [ 18.58492254, 48.20736146 ], [ 18.58490978, 48.20723082 ], [ 18.58448704, 48.20725002 ], [ 18.58450217, 48.20738224 ] ], [ [ 18.58489995, 48.20733757 ], [ 18.58451915, 48.20735384 ], [ 18.58450859, 48.20726257 ], [ 18.584891, 48.20724522 ], [ 18.58489995, 48.20733757 ] ] ] } },
{ "type": "Feature", "properties": { "@featureType": "CadastralParcel", "areaValue": { "value": 291, "@uom": "m2" }, "beginLifespanVersion": { "@nilReason": "http://inspire.ec.europa.eu/codelist/VoidReasonValue/Unpopulated", "@nil": "true" }, "endLifespanVersion": { "@nilReason": "http://inspire.ec.europa.eu/codelist/VoidReasonValue/Unpopulated", "@nil": "true" }, "inspireId": { "@dataType": "Identifier", "localId": "831646_1110/11.C", "namespace": "SK.ESKN.CP", "versionId": "20260703T06:07:48" }, "label": "1110/11", "nationalCadastralReference": "831646_1110/11.C", "referencePoint": { "type": "Point", "coordinates": [ 18.58470462, 48.20730007 ] }, "validFrom": "2026-06-30T16:00:00Z", "validTo": { "@nilReason": "http://inspire.ec.europa.eu/codelist/VoidReasonValue/Unpopulated", "@nil": "true" }, "administrativeUnit": { "@href": "#auAdmUnitS.2799" } }, "geometry": { "type": "Polygon", "coordinates": [ [ [ 18.58451915, 48.20735384 ], [ 18.58489995, 48.20733757 ], [ 18.584891, 48.20724522 ], [ 18.58450859, 48.20726257 ], [ 18.58451915, 48.20735384 ] ] ] } },
{ "type": "Feature", "properties": { "@featureType": "CadastralParcel", "areaValue": { "value": 6, "@uom": "m2" }, "beginLifespanVersion": { "@nilReason": "http://inspire.ec.europa.eu/codelist/VoidReasonValue/Unpopulated", "@nil": "true" }, "endLifespanVersion": { "@nilReason": "http://inspire.ec.europa.eu/codelist/VoidReasonValue/Unpopulated", "@nil": "true" }, "inspireId": { "@dataType": "Identifier", "localId": "831646_1110/12.C", "namespace": "SK.ESKN.CP", "versionId": "20260703T06:07:48" }, "label": "1110/12", "nationalCadastralReference": "831646_1110/12.C", "referencePoint": { "type": "Point", "coordinates": [ 18.58510708, 48.20730911 ] }, "validFrom": "2026-06-30T16:00:00Z", "validTo": { "@nilReason": "http://inspire.ec.europa.eu/codelist/VoidReasonValue/Unpopulated", "@nil": "true" }, "administrativeUnit": { "@href": "#auAdmUnitS.2799" } }, "geometry": { "type": "Polygon", "coordinates": [ [ [ 18.58508795, 48.20731817 ], [ 18.58512738, 48.20731698 ], [ 18.58512621, 48.20730004 ], [ 18.58508678, 48.20730123 ], [ 18.58508795, 48.20731817 ] ] ] } },
{ "type": "Feature", "properties": { "@featureType": "CadastralParcel", "areaValue": { "value": 520, "@uom": "m2" }, "beginLifespanVersion": { "@nilReason": "http://inspire.ec.europa.eu/codelist/VoidReasonValue/Unpopulated", "@nil": "true" }, "endLifespanVersion": { "@nilReason": "http://inspire.ec.europa.eu/codelist/VoidReasonValue/Unpopulated", "@nil": "true" }, "inspireId": { "@dataType": "Identifier", "localId": "831646_1110/13.C", "namespace": "SK.ESKN.CP", "versionId": "20260703T06:07:48" }, "label": "1110/13", "nationalCadastralReference": "831646_1110/13.C", "referencePoint": { "type": "Point", "coordinates": [ 18.58516064, 48.20726543 ] }, "validFrom": "2026-06-30T16:00:00Z", "validTo": { "@nilReason": "http://inspire.ec.europa.eu/codelist/VoidReasonValue/Unpopulated", "@nil": "true" }, "administrativeUnit": { "@href": "#auAdmUnitS.2799" } }, "geometry": { "type": "Polygon", "coordinates": [ [ [ 18.58492254, 48.20736146 ], [ 18.5851188, 48.2073518 ], [ 18.58540696, 48.20733462 ], [ 18.58540907, 48.20720822 ], [ 18.58490978, 48.20723082 ], [ 18.58492254, 48.20736146 ] ], [ [ 18.58512738, 48.20731698 ], [ 18.58508795, 48.20731817 ], [ 18.58508678, 48.20730123 ], [ 18.58512621, 48.20730004 ], [ 18.58512738, 48.20731698 ] ] ] } },
{ "type": "Feature", "properties": { "@featureType": "CadastralParcel", "areaValue": { "value": 335, "@uom": "m2" }, "beginLifespanVersion": { "@nilReason": "http://inspire.ec.europa.eu/codelist/VoidReasonValue/Unpopulated", "@nil": "true" }, "endLifespanVersion": { "@nilReason": "http://inspire.ec.europa.eu/codelist/VoidReasonValue/Unpopulated", "@nil": "true" }, "inspireId": { "@dataType": "Identifier", "localId": "831646_1110/23.C", "namespace": "SK.ESKN.CP", "versionId": "20260703T06:07:48" }, "label": "1110/23", "nationalCadastralReference": "831646_1110/23.C", "referencePoint": { "type": "Point", "coordinates": [ 18.58497813, 48.20662811 ] }, "validFrom": "2026-06-30T16:00:00Z", "validTo": { "@nilReason": "http://inspire.ec.europa.eu/codelist/VoidReasonValue/Unpopulated", "@nil": "true" }, "administrativeUnit": { "@href": "#auAdmUnitS.2799" } }, "geometry": { "type": "Polygon", "coordinates": [ [ [ 18.58473256, 48.20658639 ], [ 18.58473514, 48.20660945 ], [ 18.5847441, 48.20668845 ], [ 18.58514149, 48.2066712 ], [ 18.58516775, 48.20666731 ], [ 18.58519076, 48.20665792 ], [ 18.58520644, 48.20664677 ], [ 18.58523812, 48.20659969 ], [ 18.58473256, 48.20658639 ] ] ] } },
{ "type": "Feature", "properties": { "@featureType": "CadastralParcel", "areaValue": { "value": 193, "@uom": "m2" }, "beginLifespanVersion": { "@nilReason": "http://inspire.ec.europa.eu/codelist/VoidReasonValue/Unpopulated", "@nil": "true" }, "endLifespanVersion": { "@nilReason": "http://inspire.ec.europa.eu/codelist/VoidReasonValue/Unpopulated", "@nil": "true" }, "inspireId": { "@dataType": "Identifier", "localId": "831646_1110/22.C", "namespace": "SK.ESKN.CP", "versionId": "20260703T06:07:48" }, "label": "1110/22", "nationalCadastralReference": "831646_1110/22.C", "referencePoint": { "type": "Point", "coordinates": [ 18.58435563, 48.20666209 ] }, "validFrom": "2026-06-30T16:00:00Z", "validTo": { "@nilReason": "http://inspire.ec.europa.eu/codelist/VoidReasonValue/Unpopulated", "@nil": "true" }, "administrativeUnit": { "@href": "#auAdmUnitS.2799" } }, "geometry": { "type": "Polygon", "coordinates": [ [ [ 18.58426612, 48.20670571 ], [ 18.58445311, 48.20670114 ], [ 18.58444566, 48.20662304 ], [ 18.58444136, 48.20657877 ], [ 18.58431084, 48.20657533 ], [ 18.58425488, 48.20658914 ], [ 18.58425752, 48.20661717 ], [ 18.58426612, 48.20670571 ] ] ] } },
{ "type": "Feature", "properties": { "@featureType": "CadastralParcel", "areaValue": { "value": 113, "@uom": "m2" }, "beginLifespanVersion": { "@nilReason": "http://inspire.ec.europa.eu/codelist/VoidReasonValue/Unpopulated", "@nil": "true" }, "endLifespanVersion": { "@nilReason": "http://inspire.ec.europa.eu/codelist/VoidReasonValue/Unpopulated", "@nil": "true" }, "inspireId": { "@dataType": "Identifier", "localId": "831646_1110/21.C", "namespace": "SK.ESKN.CP", "versionId": "20260703T06:07:48" }, "label": "1110/21", "nationalCadastralReference": "831646_1110/21.C", "referencePoint": { "type": "Point", "coordinates": [ 18.58399193, 48.20667138 ] }, "validFrom": "2026-06-30T16:00:00Z", "validTo": { "@nilReason": "http://inspire.ec.europa.eu/codelist/VoidReasonValue/Unpopulated", "@nil": "true" }, "administrativeUnit": { "@href": "#auAdmUnitS.2799" } }, "geometry": { "type": "Polygon", "coordinates": [ [ [ 18.58406695, 48.20671603 ], [ 18.58405946, 48.20664379 ], [ 18.58405874, 48.20663752 ], [ 18.58380971, 48.20669898 ], [ 18.58381204, 48.20672735 ], [ 18.58406695, 48.20671603 ] ] ] } },
{ "type": "Feature", "properties": { "@featureType": "CadastralParcel", "areaValue": { "value": 884, "@uom": "m2" }, "beginLifespanVersion": { "@nilReason": "http://inspire.ec.europa.eu/codelist/VoidReasonValue/Unpopulated", "@nil": "true" }, "endLifespanVersion": { "@nilReason": "http://inspire.ec.europa.eu/codelist/VoidReasonValue/Unpopulated", "@nil": "true" }, "inspireId": { "@dataType": "Identifier", "localId": "831646_1110/20.C", "namespace": "SK.ESKN.CP", "versionId": "20260703T06:07:48" }, "label": "1110/20", "nationalCadastralReference": "831646_1110/20.C", "referencePoint": { "type": "Point", "coordinates": [ 18.583964, 48.20692639 ] }, "validFrom": "2026-06-30T16:00:00Z", "validTo": { "@nilReason": "http://inspire.ec.europa.eu/codelist/VoidReasonValue/Unpopulated", "@nil": "true" }, "administrativeUnit": { "@href": "#auAdmUnitS.2799" } }, "geometry": { "type": "Polygon", "coordinates": [ [ [ 18.58471597, 48.20704949 ], [ 18.58471508, 48.20704024 ], [ 18.58474888, 48.20703875 ], [ 18.58474817, 48.20703239 ], [ 18.58449541, 48.20704374 ], [ 18.58448918, 48.20698989 ], [ 18.58399958, 48.20701491 ], [ 18.58398126, 48.2068448 ], [ 18.58447085, 48.20681978 ], [ 18.58446444, 48.20676854 ], [ 18.58472622, 48.20675623 ], [ 18.58473746, 48.20686288 ], [ 18.58486334, 48.20685686 ], [ 18.58485958, 48.20681595 ], [ 18.58485304, 48.20674584 ], [ 18.58485212, 48.20673352 ], [ 18.583972, 48.20677599 ], [ 18.58395372, 48.20678085 ], [ 18.58394039, 48.20678825 ], [ 18.5839316, 48.20680049 ], [ 18.58392663, 48.20681357 ], [ 18.58395017, 48.20704804 ], [ 18.58396408, 48.20706341 ], [ 18.58398393, 48.20707551 ], [ 18.58400871, 48.20708264 ], [ 18.58404135, 48.20708397 ], [ 18.58471597, 48.20704949 ] ] ] } },
{ "type": "Feature", "properties": { "@featureType": "CadastralParcel", "areaValue": { "value": 2725, "@uom": "m2" }, "beginLifespanVersion": { "@nilReason": "http://inspire.ec.europa.eu/codelist/VoidReasonValue/Unpopulated", "@nil": "true" }, "endLifespanVersion": { "@nilReason": "http://inspire.ec.europa.eu/codelist/VoidReasonValue/Unpopulated", "@nil": "true" }, "inspireId": { "@dataType": "Identifier", "localId": "831646_1110/1.C", "namespace": "SK.ESKN.CP", "versionId": "20260703T06:07:48" }, "label": "1110/1", "nationalCadastralReference": "831646_1110/1.C", "referencePoint": { "type": "Point", "coordinates": [ 18.58534888, 48.20695068 ] }, "validFrom": "2026-06-30T16:00:00Z", "validTo": { "@nilReason": "http://inspire.ec.europa.eu/codelist/VoidReasonValue/Unpopulated", "@nil": "true" }, "administrativeUnit": { "@href": "#auAdmUnitS.2799" } }, "geometry": { "type": "Polygon", "coordinates": [ [ [ 18.58396743, 48.20719923 ], [ 18.58445865, 48.20717646 ], [ 18.58446695, 48.20725091 ], [ 18.58448704, 48.20725002 ], [ 18.58490978, 48.20723082 ], [ 18.58540907, 48.20720822 ], [ 18.58541898, 48.20660443 ], [ 18.58541831, 48.2066044 ], [ 18.58523812, 48.20659969 ], [ 18.58520644, 48.20664677 ], [ 18.58519076, 48.20665792 ], [ 18.58516775, 48.20666731 ], [ 18.58514149, 48.2066712 ], [ 18.5847441, 48.20668845 ], [ 18.58445311, 48.20670114 ], [ 18.58426612, 48.20670571 ], [ 18.58424576, 48.20670659 ], [ 18.58409791, 48.20671456 ], [ 18.58408705, 48.20671505 ], [ 18.58406695, 48.20671603 ], [ 18.58381204, 48.20672735 ], [ 18.58383406, 48.20699846 ], [ 18.58386568, 48.20699821 ], [ 18.58388729, 48.20720107 ], [ 18.58396743, 48.20719923 ] ], [ [ 18.5847815, 48.20720233 ], [ 18.5847704, 48.20720262 ], [ 18.58476178, 48.20720242 ], [ 18.58475326, 48.2072015 ], [ 18.58474499, 48.20719952 ], [ 18.58473792, 48.20719661 ], [ 18.58473207, 48.20719259 ], [ 18.5847294, 48.20718576 ], [ 18.58471597, 48.20704949 ], [ 18.58404135, 48.20708397 ], [ 18.58400871, 48.20708264 ], [ 18.58398393, 48.20707551 ], [ 18.58396408, 48.20706341 ], [ 18.58395017, 48.20704804 ], [ 18.58392663, 48.20681357 ], [ 18.5839316, 48.20680049 ], [ 18.58394039, 48.20678825 ], [ 18.58395372, 48.20678085 ], [ 18.583972, 48.20677599 ], [ 18.58485212, 48.20673352 ], [ 18.58485304, 48.20674584 ], [ 18.58485535, 48.20674128 ], [ 18.584859, 48.20673796 ], [ 18.58496794, 48.20673137 ], [ 18.58518857, 48.20672106 ], [ 18.5851989, 48.20672054 ], [ 18.58520938, 48.20672201 ], [ 18.58522025, 48.20672477 ], [ 18.58523409, 48.2067286 ], [ 18.58524436, 48.20673295 ], [ 18.58525122, 48.20673757 ], [ 18.5852556, 48.20674259 ], [ 18.58525915, 48.20674775 ], [ 18.58526172, 48.20675321 ], [ 18.58526408, 48.20676038 ], [ 18.58526512, 48.20676621 ], [ 18.58526591, 48.20677302 ], [ 18.5852727, 48.20684107 ], [ 18.58527988, 48.20690481 ], [ 18.58528904, 48.20699654 ], [ 18.58529281, 48.20703636 ], [ 18.58530765, 48.2071765 ], [ 18.58517052, 48.20718398 ], [ 18.58504208, 48.20718996 ], [ 18.5847815, 48.20720233 ] ] ] } },
{ "type": "Feature", "properties": { "@featureType": "CadastralParcel", "areaValue": { "value": 107, "@uom": "m2" }, "beginLifespanVersion": { "@nilReason": "http://inspire.ec.europa.eu/codelist/VoidReasonValue/Unpopulated", "@nil": "true" }, "endLifespanVersion": { "@nilReason": "http://inspire.ec.europa.eu/codelist/VoidReasonValue/Unpopulated", "@nil": "true" }, "inspireId": { "@dataType": "Identifier", "localId": "831646_1110/8.C", "namespace": "SK.ESKN.CP", "versionId": "20260703T06:07:48" }, "label": "1110/8", "nationalCadastralReference": "831646_1110/8.C", "referencePoint": { "type": "Point", "coordinates": [ 18.58416277, 48.2066747 ] }, "validFrom": "2026-06-30T16:00:00Z", "validTo": { "@nilReason": "http://inspire.ec.europa.eu/codelist/VoidReasonValue/Unpopulated", "@nil": "true" }, "administrativeUnit": { "@href": "#auAdmUnitS.2799" } }, "geometry": { "type": "Polygon", "coordinates": [ [ [ 18.58407956, 48.20664281 ], [ 18.58408705, 48.20671505 ], [ 18.58409791, 48.20671456 ], [ 18.58424576, 48.20670659 ], [ 18.58423716, 48.20661804 ], [ 18.58415129, 48.20662589 ], [ 18.58415171, 48.20663566 ], [ 18.58409018, 48.20664204 ], [ 18.58407956, 48.20664281 ] ] ] } },
{ "type": "Feature", "properties": { "@featureType": "CadastralParcel", "areaValue": { "value": 139, "@uom": "m2" }, "beginLifespanVersion": { "@nilReason": "http://inspire.ec.europa.eu/codelist/VoidReasonValue/Unpopulated", "@nil": "true" }, "endLifespanVersion": { "@nilReason": "http://inspire.ec.europa.eu/codelist/VoidReasonValue/Unpopulated", "@nil": "true" }, "inspireId": { "@dataType": "Identifier", "localId": "831646_1110/9.C", "namespace": "SK.ESKN.CP", "versionId": "20260703T06:07:48" }, "label": "1110/9", "nationalCadastralReference": "831646_1110/9.C", "referencePoint": { "type": "Point", "coordinates": [ 18.58459329, 48.20665093 ] }, "validFrom": "2026-06-30T16:00:00Z", "validTo": { "@nilReason": "http://inspire.ec.europa.eu/codelist/VoidReasonValue/Unpopulated", "@nil": "true" }, "administrativeUnit": { "@href": "#auAdmUnitS.2799" } }, "geometry": { "type": "Polygon", "coordinates": [ [ [ 18.58446564, 48.20662305 ], [ 18.58447207, 48.20668964 ], [ 18.58472139, 48.20667882 ], [ 18.58471368, 48.20661053 ], [ 18.58446564, 48.20662305 ] ] ] } },
{ "type": "Feature", "properties": { "@featureType": "CadastralParcel", "areaValue": { "value": 55, "@uom": "m2" }, "beginLifespanVersion": { "@nilReason": "http://inspire.ec.europa.eu/codelist/VoidReasonValue/Unpopulated", "@nil": "true" }, "endLifespanVersion": { "@nilReason": "http://inspire.ec.europa.eu/codelist/VoidReasonValue/Unpopulated", "@nil": "true" }, "inspireId": { "@dataType": "Identifier", "localId": "831646_1110/16.C", "namespace": "SK.ESKN.CP", "versionId": "20260703T06:07:48" }, "label": "1110/16", "nationalCadastralReference": "831646_1110/16.C", "referencePoint": { "type": "Point", "coordinates": [ 18.58425289, 48.20667475 ] }, "validFrom": "2026-06-30T16:00:00Z", "validTo": { "@nilReason": "http://inspire.ec.europa.eu/codelist/VoidReasonValue/Unpopulated", "@nil": "true" }, "administrativeUnit": { "@href": "#auAdmUnitS.2799" } }, "geometry": { "type": "Polygon", "coordinates": [ [ [ 18.58424576, 48.20670659 ], [ 18.58426612, 48.20670571 ], [ 18.58425752, 48.20661717 ], [ 18.58425488, 48.20658914 ], [ 18.58405874, 48.20663752 ], [ 18.58405946, 48.20664379 ], [ 18.58406695, 48.20671603 ], [ 18.58408705, 48.20671505 ], [ 18.58407956, 48.20664281 ], [ 18.58409018, 48.20664204 ], [ 18.58415171, 48.20663566 ], [ 18.58415129, 48.20662589 ], [ 18.58423716, 48.20661804 ], [ 18.58424576, 48.20670659 ] ] ] } },
{ "type": "Feature", "properties": { "@featureType": "CadastralParcel", "areaValue": { "value": 131, "@uom": "m2" }, "beginLifespanVersion": { "@nilReason": "http://inspire.ec.europa.eu/codelist/VoidReasonValue/Unpopulated", "@nil": "true" }, "endLifespanVersion": { "@nilReason": "http://inspire.ec.europa.eu/codelist/VoidReasonValue/Unpopulated", "@nil": "true" }, "inspireId": { "@dataType": "Identifier", "localId": "831646_1110/14.C", "namespace": "SK.ESKN.CP", "versionId": "20260703T06:07:48" }, "label": "1110/14", "nationalCadastralReference": "831646_1110/14.C", "referencePoint": { "type": "Point", "coordinates": [ 18.58472904, 48.20665093 ] }, "validFrom": "2026-06-30T16:00:00Z", "validTo": { "@nilReason": "http://inspire.ec.europa.eu/codelist/VoidReasonValue/Unpopulated", "@nil": "true" }, "administrativeUnit": { "@href": "#auAdmUnitS.2799" } }, "geometry": { "type": "Polygon", "coordinates": [ [ [ 18.58445311, 48.20670114 ], [ 18.5847441, 48.20668845 ], [ 18.58473514, 48.20660945 ], [ 18.58473256, 48.20658639 ], [ 18.58444136, 48.20657877 ], [ 18.58444566, 48.20662304 ], [ 18.58445311, 48.20670114 ] ], [ [ 18.58472139, 48.20667882 ], [ 18.58447207, 48.20668964 ], [ 18.58446564, 48.20662305 ], [ 18.58471368, 48.20661053 ], [ 18.58472139, 48.20667882 ] ] ] } },
{ "type": "Feature", "properties": { "@featureType": "CadastralParcel", "areaValue": { "value": 556, "@uom": "m2" }, "beginLifespanVersion": { "@nilReason": "http://inspire.ec.europa.eu/codelist/VoidReasonValue/Unpopulated", "@nil": "true" }, "endLifespanVersion": { "@nilReason": "http://inspire.ec.europa.eu/codelist/VoidReasonValue/Unpopulated", "@nil": "true" }, "inspireId": { "@dataType": "Identifier", "localId": "831646_1110/18.C", "namespace": "SK.ESKN.CP", "versionId": "20260703T06:07:48" }, "label": "1110/18", "nationalCadastralReference": "831646_1110/18.C", "referencePoint": { "type": "Point", "coordinates": [ 18.58391117, 48.20722555 ] }, "validFrom": "2026-06-30T16:00:00Z", "validTo": { "@nilReason": "http://inspire.ec.europa.eu/codelist/VoidReasonValue/Unpopulated", "@nil": "true" }, "administrativeUnit": { "@href": "#auAdmUnitS.2799" } }, "geometry": { "type": "Polygon", "coordinates": [ [ [ 18.58383406, 48.20699846 ], [ 18.58386759, 48.2074116 ], [ 18.58386775, 48.2074136 ], [ 18.58450217, 48.20738224 ], [ 18.58448704, 48.20725002 ], [ 18.58446695, 48.20725091 ], [ 18.58447444, 48.20731873 ], [ 18.58398041, 48.20734026 ], [ 18.58396743, 48.20719923 ], [ 18.58388729, 48.20720107 ], [ 18.58386568, 48.20699821 ], [ 18.58383406, 48.20699846 ] ] ] } },
{ "type": "Feature", "properties": { "@featureType": "CadastralParcel", "areaValue": { "value": 579, "@uom": "m2" }, "beginLifespanVersion": { "@nilReason": "http://inspire.ec.europa.eu/codelist/VoidReasonValue/Unpopulated", "@nil": "true" }, "endLifespanVersion": { "@nilReason": "http://inspire.ec.europa.eu/codelist/VoidReasonValue/Unpopulated", "@nil": "true" }, "inspireId": { "@dataType": "Identifier", "localId": "831646_1110/10.C", "namespace": "SK.ESKN.CP", "versionId": "20260703T06:07:48" }, "label": "1110/10", "nationalCadastralReference": "831646_1110/10.C", "referencePoint": { "type": "Point", "coordinates": [ 18.584223, 48.20728482 ] }, "validFrom": "2026-06-30T16:00:00Z", "validTo": { "@nilReason": "http://inspire.ec.europa.eu/codelist/VoidReasonValue/Unpopulated", "@nil": "true" }, "administrativeUnit": { "@href": "#auAdmUnitS.2799" } }, "geometry": { "type": "Polygon", "coordinates": [ [ [ 18.58398041, 48.20734026 ], [ 18.58447444, 48.20731873 ], [ 18.58446695, 48.20725091 ], [ 18.58445865, 48.20717646 ], [ 18.58396743, 48.20719923 ], [ 18.58398041, 48.20734026 ] ] ] } },
{ "type": "Feature", "properties": { "@featureType": "CadastralParcel", "areaValue": { "value": 692, "@uom": "m2" }, "beginLifespanVersion": { "@nilReason": "http://inspire.ec.europa.eu/codelist/VoidReasonValue/Unpopulated", "@nil": "true" }, "endLifespanVersion": { "@nilReason": "http://inspire.ec.europa.eu/codelist/VoidReasonValue/Unpopulated", "@nil": "true" }, "inspireId": { "@dataType": "Identifier", "localId": "831646_1110/6.C", "namespace": "SK.ESKN.CP", "versionId": "20260703T06:07:48" }, "label": "1110/6", "nationalCadastralReference": "831646_1110/6.C", "referencePoint": { "type": "Point", "coordinates": [ 18.58423522, 48.20691735 ] }, "validFrom": "2026-06-30T16:00:00Z", "validTo": { "@nilReason": "http://inspire.ec.europa.eu/codelist/VoidReasonValue/Unpopulated", "@nil": "true" }, "administrativeUnit": { "@href": "#auAdmUnitS.2799" } }, "geometry": { "type": "Polygon", "coordinates": [ [ [ 18.58399958, 48.20701491 ], [ 18.58448918, 48.20698989 ], [ 18.58447085, 48.20681978 ], [ 18.58398126, 48.2068448 ], [ 18.58399958, 48.20701491 ] ] ] } },
{ "type": "Feature", "properties": { "@featureType": "CadastralParcel", "areaValue": { "value": 778, "@uom": "m2" }, "beginLifespanVersion": { "@nilReason": "http://inspire.ec.europa.eu/codelist/VoidReasonValue/Unpopulated", "@nil": "true" }, "endLifespanVersion": { "@nilReason": "http://inspire.ec.europa.eu/codelist/VoidReasonValue/Unpopulated", "@nil": "true" }, "inspireId": { "@dataType": "Identifier", "localId": "831646_1110/19.C", "namespace": "SK.ESKN.CP", "versionId": "20260703T06:07:48" }, "label": "1110/19", "nationalCadastralReference": "831646_1110/19.C", "referencePoint": { "type": "Point", "coordinates": [ 18.58522044, 48.20695068 ] }, "validFrom": "2026-06-30T16:00:00Z", "validTo": { "@nilReason": "http://inspire.ec.europa.eu/codelist/VoidReasonValue/Unpopulated", "@nil": "true" }, "administrativeUnit": { "@href": "#auAdmUnitS.2799" } }, "geometry": { "type": "Polygon", "coordinates": [ [ [ 18.58530765, 48.2071765 ], [ 18.58529281, 48.20703636 ], [ 18.58528904, 48.20699654 ], [ 18.58527988, 48.20690481 ], [ 18.5852727, 48.20684107 ], [ 18.58526591, 48.20677302 ], [ 18.58526512, 48.20676621 ], [ 18.58526408, 48.20676038 ], [ 18.58526172, 48.20675321 ], [ 18.58525915, 48.20674775 ], [ 18.5852556, 48.20674259 ], [ 18.58525122, 48.20673757 ], [ 18.58524436, 48.20673295 ], [ 18.58523409, 48.2067286 ], [ 18.58522025, 48.20672477 ], [ 18.58520938, 48.20672201 ], [ 18.5851989, 48.20672054 ], [ 18.58518857, 48.20672106 ], [ 18.58496794, 48.20673137 ], [ 18.584859, 48.20673796 ], [ 18.58485535, 48.20674128 ], [ 18.58485304, 48.20674584 ], [ 18.58485958, 48.20681595 ], [ 18.58486334, 48.20685686 ], [ 18.58505439, 48.20684781 ], [ 18.58504797, 48.20677238 ], [ 18.58513763, 48.20676781 ], [ 18.58517946, 48.20717491 ], [ 18.58476485, 48.20719393 ], [ 18.58474888, 48.20703875 ], [ 18.58471508, 48.20704024 ], [ 18.58471597, 48.20704949 ], [ 18.5847294, 48.20718576 ], [ 18.58473207, 48.20719259 ], [ 18.58473792, 48.20719661 ], [ 18.58474499, 48.20719952 ], [ 18.58475326, 48.2072015 ], [ 18.58476178, 48.20720242 ], [ 18.5847704, 48.20720262 ], [ 18.5847815, 48.20720233 ], [ 18.58504208, 48.20718996 ], [ 18.58517052, 48.20718398 ], [ 18.58530765, 48.2071765 ] ] ] } },
{ "type": "Feature", "properties": { "@featureType": "CadastralParcel", "areaValue": { "value": 1192, "@uom": "m2" }, "beginLifespanVersion": { "@nilReason": "http://inspire.ec.europa.eu/codelist/VoidReasonValue/Unpopulated", "@nil": "true" }, "endLifespanVersion": { "@nilReason": "http://inspire.ec.europa.eu/codelist/VoidReasonValue/Unpopulated", "@nil": "true" }, "inspireId": { "@dataType": "Identifier", "localId": "831646_1110/7.C", "namespace": "SK.ESKN.CP", "versionId": "20260703T06:07:48" }, "label": "1110/7", "nationalCadastralReference": "831646_1110/7.C", "referencePoint": { "type": "Point", "coordinates": [ 18.58494946, 48.20694763 ] }, "validFrom": "2026-06-30T16:00:00Z", "validTo": { "@nilReason": "http://inspire.ec.europa.eu/codelist/VoidReasonValue/Unpopulated", "@nil": "true" }, "administrativeUnit": { "@href": "#auAdmUnitS.2799" } }, "geometry": { "type": "Polygon", "coordinates": [ [ [ 18.58476485, 48.20719393 ], [ 18.58517946, 48.20717491 ], [ 18.58513763, 48.20676781 ], [ 18.58504797, 48.20677238 ], [ 18.58505439, 48.20684781 ], [ 18.58486334, 48.20685686 ], [ 18.58473746, 48.20686288 ], [ 18.58474817, 48.20703239 ], [ 18.58474888, 48.20703875 ], [ 18.58476485, 48.20719393 ] ] ] } },
{ "type": "Feature", "properties": { "@featureType": "CadastralParcel", "areaValue": { "value": 591, "@uom": "m2" }, "beginLifespanVersion": { "@nilReason": "http://inspire.ec.europa.eu/codelist/VoidReasonValue/Unpopulated", "@nil": "true" }, "endLifespanVersion": { "@nilReason": "http://inspire.ec.europa.eu/codelist/VoidReasonValue/Unpopulated", "@nil": "true" }, "inspireId": { "@dataType": "Identifier", "localId": "831646_1110/5.C", "namespace": "SK.ESKN.CP", "versionId": "20260703T06:07:48" }, "label": "1110/5", "nationalCadastralReference": "831646_1110/5.C", "referencePoint": { "type": "Point", "coordinates": [ 18.58461191, 48.20692639 ] }, "validFrom": "2026-06-30T16:00:00Z", "validTo": { "@nilReason": "http://inspire.ec.europa.eu/codelist/VoidReasonValue/Unpopulated", "@nil": "true" }, "administrativeUnit": { "@href": "#auAdmUnitS.2799" } }, "geometry": { "type": "Polygon", "coordinates": [ [ [ 18.58472622, 48.20675623 ], [ 18.58446444, 48.20676854 ], [ 18.58447085, 48.20681978 ], [ 18.58448918, 48.20698989 ], [ 18.58449541, 48.20704374 ], [ 18.58474817, 48.20703239 ], [ 18.58473746, 48.20686288 ], [ 18.58472622, 48.20675623 ] ] ] } },
{ "type": "Feature", "properties": { "@featureType": "CadastralParcel", "areaValue": { "value": 106, "@uom": "m2" }, "beginLifespanVersion": { "@nilReason": "http://inspire.ec.europa.eu/codelist/VoidReasonValue/Unpopulated", "@nil": "true" }, "endLifespanVersion": { "@nilReason": "http://inspire.ec.europa.eu/codelist/VoidReasonValue/Unpopulated", "@nil": "true" }, "inspireId": { "@dataType": "Identifier", "localId": "831646_4629/2.E", "namespace": "SK.ESKN.CP", "versionId": "20260703T06:07:48" }, "label": "4629/2", "nationalCadastralReference": "831646_4629/2.E", "referencePoint": { "type": "Point", "coordinates": [ 18.58383384, 48.20717583 ] }, "validFrom": "2026-06-30T16:00:00Z", "validTo": { "@nilReason": "http://inspire.ec.europa.eu/codelist/VoidReasonValue/Unpopulated", "@nil": "true" }, "administrativeUnit": { "@href": "#auAdmUnitS.2799" } }, "geometry": { "type": "Polygon", "coordinates": [ [ [ 18.58381547, 48.20698824 ], [ 18.58382278, 48.20735311 ], [ 18.58382401, 48.20741581 ], [ 18.58386775, 48.2074136 ], [ 18.58386759, 48.2074116 ], [ 18.58383405, 48.20699855 ], [ 18.58381547, 48.20698824 ] ] ] } },
{ "type": "Feature", "properties": { "@featureType": "CadastralParcel", "areaValue": { "value": 120, "@uom": "m2" }, "beginLifespanVersion": { "@nilReason": "http://inspire.ec.europa.eu/codelist/VoidReasonValue/Unpopulated", "@nil": "true" }, "endLifespanVersion": { "@nilReason": "http://inspire.ec.europa.eu/codelist/VoidReasonValue/Unpopulated", "@nil": "true" }, "inspireId": { "@dataType": "Identifier", "localId": "831646_4630/2.E", "namespace": "SK.ESKN.CP", "versionId": "20260703T06:07:48" }, "label": "4630/2", "nationalCadastralReference": "831646_4630/2.E", "referencePoint": { "type": "Point", "coordinates": [ 18.58381649, 48.20683291 ] }, "validFrom": "2026-06-30T16:00:00Z", "validTo": { "@nilReason": "http://inspire.ec.europa.eu/codelist/VoidReasonValue/Unpopulated", "@nil": "true" }, "administrativeUnit": { "@href": "#auAdmUnitS.2799" } }, "geometry": { "type": "Polygon", "coordinates": [ [ [ 18.58383202, 48.20697435 ], [ 18.58380971, 48.20669898 ], [ 18.58381512, 48.20696683 ], [ 18.58383202, 48.20697435 ] ] ] } },
{ "type": "Feature", "properties": { "@featureType": "CadastralParcel", "areaValue": { "value": 724, "@uom": "m2" }, "beginLifespanVersion": { "@nilReason": "http://inspire.ec.europa.eu/codelist/VoidReasonValue/Unpopulated", "@nil": "true" }, "endLifespanVersion": { "@nilReason": "http://inspire.ec.europa.eu/codelist/VoidReasonValue/Unpopulated", "@nil": "true" }, "inspireId": { "@dataType": "Identifier", "localId": "831646_4631/2.E", "namespace": "SK.ESKN.CP", "versionId": "20260703T06:07:48" }, "label": "4631/2", "nationalCadastralReference": "831646_4631/2.E", "referencePoint": { "type": "Point", "coordinates": [ 18.5838357, 48.20659028 ] }, "validFrom": "2026-06-30T16:00:00Z", "validTo": { "@nilReason": "http://inspire.ec.europa.eu/codelist/VoidReasonValue/Unpopulated", "@nil": "true" }, "administrativeUnit": { "@href": "#auAdmUnitS.2799" } }, "geometry": { "type": "Polygon", "coordinates": [ [ [ 18.58412616, 48.20648266 ], [ 18.58392669, 48.20651308 ], [ 18.5834137, 48.20659141 ], [ 18.5835331, 48.20664929 ], [ 18.58377893, 48.20660968 ], [ 18.58379935, 48.20663913 ], [ 18.58381207, 48.2066576 ], [ 18.58380971, 48.20669898 ], [ 18.58405874, 48.20663752 ], [ 18.58425488, 48.20658914 ], [ 18.58431084, 48.20657533 ], [ 18.58433102, 48.20657589 ], [ 18.58412616, 48.20648266 ] ] ] } },
{ "type": "Feature", "properties": { "@featureType": "CadastralParcel", "areaValue": { "value": 967, "@uom": "m2" }, "beginLifespanVersion": { "@nilReason": "http://inspire.ec.europa.eu/codelist/VoidReasonValue/Unpopulated", "@nil": "true" }, "endLifespanVersion": { "@nilReason": "http://inspire.ec.europa.eu/codelist/VoidReasonValue/Unpopulated", "@nil": "true" }, "inspireId": { "@dataType": "Identifier", "localId": "831646_4632/2.E", "namespace": "SK.ESKN.CP", "versionId": "20260703T06:07:48" }, "label": "4632/2", "nationalCadastralReference": "831646_4632/2.E", "referencePoint": { "type": "Point", "coordinates": [ 18.58476269, 48.20653785 ] }, "validFrom": "2026-06-30T16:00:00Z", "validTo": { "@nilReason": "http://inspire.ec.europa.eu/codelist/VoidReasonValue/Unpopulated", "@nil": "true" }, "administrativeUnit": { "@href": "#auAdmUnitS.2799" } }, "geometry": { "type": "Polygon", "coordinates": [ [ [ 18.58519554, 48.20649981 ], [ 18.58429633, 48.20645668 ], [ 18.58412616, 48.20648266 ], [ 18.58433102, 48.20657589 ], [ 18.58444136, 48.20657877 ], [ 18.58473256, 48.20658639 ], [ 18.58539704, 48.20660387 ], [ 18.5853927, 48.20659082 ], [ 18.58519554, 48.20649981 ] ] ] } },
{ "type": "Feature", "properties": { "@featureType": "CadastralParcel", "areaValue": { "value": 20, "@uom": "m2" }, "beginLifespanVersion": { "@nilReason": "http://inspire.ec.europa.eu/codelist/VoidReasonValue/Unpopulated", "@nil": "true" }, "endLifespanVersion": { "@nilReason": "http://inspire.ec.europa.eu/codelist/VoidReasonValue/Unpopulated", "@nil": "true" }, "inspireId": { "@dataType": "Identifier", "localId": "831646_9716.E", "namespace": "SK.ESKN.CP", "versionId": "20260703T06:07:48" }, "label": "9716", "nationalCadastralReference": "831646_9716.E", "referencePoint": { "type": "Point", "coordinates": [ 18.58316135, 48.20666886 ] }, "validFrom": "2026-06-30T16:00:00Z", "validTo": { "@nilReason": "http://inspire.ec.europa.eu/codelist/VoidReasonValue/Unpopulated", "@nil": "true" }, "administrativeUnit": { "@href": "#auAdmUnitS.2799" } }, "geometry": { "type": "MultiPolygon", "coordinates": [ [ [ [ 18.58302866, 48.20661583 ], [ 18.58302509, 48.20659434 ], [ 18.58288157, 48.20652612 ], [ 18.58288675, 48.20654887 ], [ 18.58302866, 48.20661583 ] ] ], [ [ [ 18.58311312, 48.20663724 ], [ 18.58308175, 48.20664202 ], [ 18.58320769, 48.2067017 ], [ 18.58324474, 48.20669569 ], [ 18.58311312, 48.20663724 ] ] ], [ [ [ 18.58529075, 48.20768741 ], [ 18.58529612, 48.20766894 ], [ 18.58519199, 48.2076174 ], [ 18.58517911, 48.20763438 ], [ 18.58529075, 48.20768741 ] ] ], [ [ [ 18.58381547, 48.20698824 ], [ 18.58383405, 48.20699855 ], [ 18.58383202, 48.20697435 ], [ 18.58381512, 48.20696683 ], [ 18.58381547, 48.20698824 ] ] ] ] } }
]
}
