{
"type": "FeatureCollection",
"name": "gis",
"crs": { "type": "name", "properties": { "name": "urn:ogc:def:crs:OGC:1.3:CRS84" } },
"features": [
{ "type": "Feature", "properties": { "@featureType": "CadastralZoning", "beginLifespanVersion": { "@nilReason": "http://inspire.ec.europa.eu/codelist/VoidReasonValue/Unpopulated", "@nil": "true" }, "endLifespanVersion": { "@nilReason": "http://inspire.ec.europa.eu/codelist/VoidReasonValue/Unpopulated", "@nil": "true" }, "estimatedAccuracy": { "value": -1, "@uom": "m" }, "inspireId": { "@dataType": "Identifier", "localId": "867357", "namespace": "SK.ESKN.CP", "versionId": "20260703T04:07:40" }, "label": "Vaňovka", "level": { "@href": "http://inspire.ec.europa.eu/codelist/CadastralZoningLevelValue/3rdOrder" }, "levelName": { "value": "Katastrálne územie", "@locale": "sk" }, "name": { "@dataType": "name", "GeographicalName": { "@dataType": "GeographicalName", "language": "SLK", "nativeness": { "@href": "http://inspire.ec.europa.eu/codelist/NativenessValue/endonym", "@title": "endonym" }, "nameStatus": { "@href": "http://inspire.ec.europa.eu/codelist/NameStatusValue/official", "@title": "official" }, "sourceOfName": { "@nilReason": "http://inspire.ec.europa.eu/codelist/VoidReasonValue/Unpopulated", "@nil": "true" }, "pronunciation": { "@dataType": "pronunciation", "@nilReason": "http://inspire.ec.europa.eu/codelist/VoidReasonValue/Unpopulated", "@nil": "true" }, "spelling": { "@dataType": "SpellingOfName", "text": "Vaňovka", "script": "LATN" } } }, "nationalCadastalZoningReference": "867357", "validFrom": "2026-06-30T16:00:00Z", "validTo": { "@nilReason": "http://inspire.ec.europa.eu/codelist/VoidReasonValue/Unpopulated", "@nil": "true" } }, "geometry": { "type": "MultiPolygon", "coordinates": [ [ [ [ 19.34592244, 49.36255322 ], [ 19.34591567, 49.36225055 ], [ 19.34621283, 49.36183239 ], [ 19.34666452, 49.36165713 ], [ 19.34692822, 49.36129591 ], [ 19.34695843, 49.3612546 ], [ 19.34706234, 49.36109531 ], [ 19.34708592, 49.36091584 ], [ 19.34746783, 49.36069088 ], [ 19.34739885, 49.36034508 ], [ 19.34722073, 49.35982694 ], [ 19.34714776, 49.35951124 ], [ 19.34735881, 49.35930622 ], [ 19.34750651, 49.35854471 ], [ 19.34750927, 49.35853087 ], [ 19.34763369, 49.35832548 ], [ 19.34790909, 49.3581754 ], [ 19.34796504, 49.35817865 ], [ 19.34799947, 49.35818062 ], [ 19.34839675, 49.35820375 ], [ 19.34901839, 49.35792583 ], [ 19.34960893, 49.35786444 ], [ 19.35000396, 49.35783525 ], [ 19.35055942, 49.35773885 ], [ 19.35146101, 49.35741868 ], [ 19.35220648, 49.35698176 ], [ 19.3526055, 49.3567162 ], [ 19.35332096, 49.35646826 ], [ 19.35443644, 49.35609137 ], [ 19.35511364, 49.35589013 ], [ 19.35562169, 49.35574244 ], [ 19.35589936, 49.35553737 ], [ 19.35601738, 49.35548934 ], [ 19.35616356, 49.35542993 ], [ 19.35634557, 49.35535587 ], [ 19.35676614, 49.35523446 ], [ 19.35723021, 49.35500953 ], [ 19.35781159, 49.35491674 ], [ 19.35826467, 49.3548084 ], [ 19.3582974, 49.35480064 ], [ 19.35843798, 49.35476701 ], [ 19.35885198, 49.35434159 ], [ 19.35946802, 49.35382545 ], [ 19.35972724, 49.35371038 ], [ 19.36050149, 49.3534692 ], [ 19.36079441, 49.35342439 ], [ 19.36100831, 49.35339166 ], [ 19.36092287, 49.35291069 ], [ 19.36069785, 49.35252353 ], [ 19.36128407, 49.35202844 ], [ 19.36151966, 49.35159746 ], [ 19.36162671, 49.35133446 ], [ 19.36133002, 49.35093773 ], [ 19.36096889, 49.35052464 ], [ 19.3604944, 49.35011725 ], [ 19.36055313, 49.34994267 ], [ 19.36059035, 49.34950854 ], [ 19.36045202, 49.34909983 ], [ 19.36042477, 49.34874031 ], [ 19.36003334, 49.34841379 ], [ 19.35977751, 49.34825136 ], [ 19.35962695, 49.34815579 ], [ 19.35971889, 49.34783565 ], [ 19.35985479, 49.34757129 ], [ 19.36007303, 49.34732124 ], [ 19.36018612, 49.34698928 ], [ 19.3602228, 49.34682071 ], [ 19.35988935, 49.34648653 ], [ 19.35996561, 49.34628672 ], [ 19.3596269, 49.34611258 ], [ 19.35933141, 49.34571166 ], [ 19.35941022, 49.34546969 ], [ 19.35934741, 49.34521307 ], [ 19.3595012, 49.34510397 ], [ 19.35946581, 49.34475083 ], [ 19.35956404, 49.34447263 ], [ 19.35954513, 49.34431651 ], [ 19.35953363, 49.34422122 ], [ 19.35947669, 49.34395641 ], [ 19.35917555, 49.3436927 ], [ 19.358751, 49.34346486 ], [ 19.35827266, 49.34319412 ], [ 19.35815223, 49.34312592 ], [ 19.35806421, 49.34296603 ], [ 19.35813941, 49.34282369 ], [ 19.3579707, 49.34253768 ], [ 19.35802371, 49.3423952 ], [ 19.3581738, 49.34233372 ], [ 19.35819731, 49.34225512 ], [ 19.35820055, 49.34224446 ], [ 19.35824588, 49.34209269 ], [ 19.35826379, 49.34206144 ], [ 19.35833345, 49.34193948 ], [ 19.35834678, 49.34191604 ], [ 19.3584006, 49.3418605 ], [ 19.35840117, 49.34185908 ], [ 19.35847991, 49.34164172 ], [ 19.35838306, 49.34153334 ], [ 19.35823969, 49.34141142 ], [ 19.35820848, 49.34131224 ], [ 19.35818144, 49.34122668 ], [ 19.35812445, 49.3412041 ], [ 19.35797346, 49.34114411 ], [ 19.35760795, 49.34138745 ], [ 19.35735018, 49.34140549 ], [ 19.35724808, 49.34129849 ], [ 19.35701444, 49.3413457 ], [ 19.35698825, 49.3414046 ], [ 19.35696517, 49.34145653 ], [ 19.35677375, 49.34158676 ], [ 19.35677143, 49.34158773 ], [ 19.35675118, 49.34169695 ], [ 19.35676147, 49.34172519 ], [ 19.35674266, 49.34173693 ], [ 19.35672828, 49.341746 ], [ 19.35658845, 49.34177055 ], [ 19.35656342, 49.34177488 ], [ 19.3564807, 49.3417894 ], [ 19.35633838, 49.34178003 ], [ 19.3563192, 49.34177878 ], [ 19.35604498, 49.34176062 ], [ 19.35603252, 49.34175977 ], [ 19.35589601, 49.34168477 ], [ 19.35565124, 49.34155026 ], [ 19.3554472, 49.34143812 ], [ 19.35521106, 49.34133313 ], [ 19.35519054, 49.34132649 ], [ 19.35508423, 49.34129194 ], [ 19.35500537, 49.34126625 ], [ 19.35489866, 49.3412316 ], [ 19.35450646, 49.34110415 ], [ 19.35431819, 49.34101565 ], [ 19.35329953, 49.34053685 ], [ 19.35285922, 49.34032988 ], [ 19.35283023, 49.34031627 ], [ 19.35271035, 49.34028847 ], [ 19.35267685, 49.34028068 ], [ 19.35232148, 49.34018741 ], [ 19.35230904, 49.34017628 ], [ 19.35229408, 49.34016296 ], [ 19.35225262, 49.34012586 ], [ 19.35204509, 49.33994007 ], [ 19.35155927, 49.33993048 ], [ 19.35137742, 49.33992682 ], [ 19.35135107, 49.33993433 ], [ 19.35087762, 49.34006595 ], [ 19.35071813, 49.34011626 ], [ 19.34979116, 49.34040898 ], [ 19.34937747, 49.34047244 ], [ 19.34839468, 49.34042782 ], [ 19.34709265, 49.34023479 ], [ 19.34658946, 49.34015593 ], [ 19.34481618, 49.33996007 ], [ 19.34441214, 49.34008644 ], [ 19.34380806, 49.34019251 ], [ 19.34327164, 49.3402867 ], [ 19.34297394, 49.34025128 ], [ 19.34291443, 49.34026678 ], [ 19.34240472, 49.34039918 ], [ 19.3421147, 49.34060013 ], [ 19.34193326, 49.34057142 ], [ 19.34178564, 49.34062029 ], [ 19.3414563, 49.340953 ], [ 19.34055993, 49.34136582 ], [ 19.34023639, 49.34151515 ], [ 19.33948633, 49.34231734 ], [ 19.33925675, 49.34283791 ], [ 19.3390045, 49.34317314 ], [ 19.33867954, 49.34334404 ], [ 19.33853952, 49.34357582 ], [ 19.33836114, 49.34374243 ], [ 19.33811405, 49.34397306 ], [ 19.33814656, 49.34399857 ], [ 19.33757474, 49.34424351 ], [ 19.33713498, 49.34443192 ], [ 19.33658697, 49.34480518 ], [ 19.33649196, 49.34486986 ], [ 19.33633164, 49.34513179 ], [ 19.33585401, 49.34560148 ], [ 19.3354045, 49.34599478 ], [ 19.33536405, 49.34603012 ], [ 19.33496233, 49.34646803 ], [ 19.33446432, 49.34687185 ], [ 19.33382384, 49.34715972 ], [ 19.33375958, 49.34712172 ], [ 19.33370077, 49.34708686 ], [ 19.33331573, 49.34716387 ], [ 19.33292959, 49.34722073 ], [ 19.33254009, 49.34729437 ], [ 19.3320143, 49.34744022 ], [ 19.33196871, 49.3474269 ], [ 19.33194933, 49.34742121 ], [ 19.33142774, 49.34741742 ], [ 19.33061592, 49.34745037 ], [ 19.32985102, 49.34752835 ], [ 19.32889499, 49.34733851 ], [ 19.328859, 49.34736458 ], [ 19.32871996, 49.34747803 ], [ 19.32855332, 49.3475965 ], [ 19.32828843, 49.34783646 ], [ 19.32786557, 49.34815878 ], [ 19.32770918, 49.34833947 ], [ 19.3276349, 49.34849383 ], [ 19.32749471, 49.34862265 ], [ 19.32753034, 49.34864497 ], [ 19.32762103, 49.34870224 ], [ 19.32756825, 49.348768 ], [ 19.32751575, 49.34883865 ], [ 19.32746024, 49.34889779 ], [ 19.32740808, 49.34897665 ], [ 19.32736173, 49.34913422 ], [ 19.32730668, 49.34926559 ], [ 19.32725634, 49.34932795 ], [ 19.32721124, 49.34939534 ], [ 19.32720567, 49.34956104 ], [ 19.3271837, 49.34969893 ], [ 19.32718317, 49.34980393 ], [ 19.32713978, 49.34985328 ], [ 19.32710667, 49.34990581 ], [ 19.32706268, 49.34999939 ], [ 19.32704547, 49.35006664 ], [ 19.3270498, 49.35017007 ], [ 19.32711875, 49.35030944 ], [ 19.32710561, 49.35041611 ], [ 19.32710181, 49.3505031 ], [ 19.32703818, 49.35055077 ], [ 19.32693566, 49.35063457 ], [ 19.3268574, 49.35075115 ], [ 19.32672662, 49.35088094 ], [ 19.32661259, 49.35099268 ], [ 19.32656344, 49.35108304 ], [ 19.3264895, 49.3511241 ], [ 19.32635499, 49.35122766 ], [ 19.32629745, 49.35135901 ], [ 19.32623237, 49.35137227 ], [ 19.32623745, 49.35143128 ], [ 19.32619101, 49.35146579 ], [ 19.32615837, 49.35153151 ], [ 19.32612983, 49.35157254 ], [ 19.3261212, 49.35160702 ], [ 19.32602274, 49.35172526 ], [ 19.32595477, 49.35179103 ], [ 19.32590314, 49.35188127 ], [ 19.32579681, 49.35205206 ], [ 19.32577695, 49.35217842 ], [ 19.32575036, 49.352208 ], [ 19.32572431, 49.35224906 ], [ 19.32567911, 49.35231472 ], [ 19.32566093, 49.35236075 ], [ 19.32563353, 49.35249036 ], [ 19.32561818, 49.35260196 ], [ 19.32561409, 49.35262656 ], [ 19.32553691, 49.352712 ], [ 19.3254838, 49.35282688 ], [ 19.32545637, 49.35289419 ], [ 19.32550076, 49.35299094 ], [ 19.32563652, 49.35315644 ], [ 19.32562069, 49.35319744 ], [ 19.32564324, 49.35325322 ], [ 19.32568209, 49.3533352 ], [ 19.32560149, 49.35346158 ], [ 19.3256086, 49.35356983 ], [ 19.32564247, 49.35365184 ], [ 19.32559116, 49.35369296 ], [ 19.32560719, 49.35377161 ], [ 19.32552584, 49.35382097 ], [ 19.32552542, 49.35386855 ], [ 19.32557037, 49.35391772 ], [ 19.32551349, 49.35400303 ], [ 19.32538898, 49.35404586 ], [ 19.32542873, 49.35415086 ], [ 19.32539298, 49.35419849 ], [ 19.32541779, 49.35424762 ], [ 19.32543308, 49.35431162 ], [ 19.32543477, 49.35435263 ], [ 19.325422, 49.35440838 ], [ 19.32553368, 49.35453948 ], [ 19.32557087, 49.35464274 ], [ 19.32558517, 49.35486095 ], [ 19.3255373, 49.35492334 ], [ 19.32557398, 49.35507255 ], [ 19.32552525, 49.35511524 ], [ 19.32554722, 49.3551563 ], [ 19.32562576, 49.35528251 ], [ 19.32561425, 49.35536942 ], [ 19.32566154, 49.35541366 ], [ 19.32577195, 49.35545617 ], [ 19.32582521, 49.35552007 ], [ 19.32582752, 49.35557418 ], [ 19.32591341, 49.35571273 ], [ 19.32590502, 49.35581006 ], [ 19.32589978, 49.3559189 ], [ 19.32590253, 49.35598159 ], [ 19.32590069, 49.35605579 ], [ 19.32590214, 49.35614655 ], [ 19.32588159, 49.35619769 ], [ 19.32582276, 49.35635449 ], [ 19.32576926, 49.35640408 ], [ 19.32576733, 49.35647665 ], [ 19.32576225, 49.35653275 ], [ 19.32567165, 49.35660214 ], [ 19.32562269, 49.35663689 ], [ 19.32555642, 49.35674096 ], [ 19.32541002, 49.35686326 ], [ 19.32531386, 49.35698053 ], [ 19.32523497, 49.35696753 ], [ 19.32509669, 49.35698753 ], [ 19.32505934, 49.35700082 ], [ 19.32489336, 49.35708037 ], [ 19.32479703, 49.35713164 ], [ 19.32476867, 49.35711849 ], [ 19.32468877, 49.3571434 ], [ 19.32455254, 49.35726735 ], [ 19.3244384, 49.35731868 ], [ 19.32440874, 49.3573336 ], [ 19.32435413, 49.35741451 ], [ 19.32428066, 49.35747244 ], [ 19.32426479, 49.35751371 ], [ 19.32423073, 49.35754348 ], [ 19.32416005, 49.35760623 ], [ 19.32405911, 49.35766918 ], [ 19.32400531, 49.3577715 ], [ 19.32393145, 49.35787557 ], [ 19.32385274, 49.3580473 ], [ 19.3238049, 49.35816945 ], [ 19.32377588, 49.3582586 ], [ 19.32375677, 49.35828664 ], [ 19.32371633, 49.35828672 ], [ 19.32370246, 49.35831482 ], [ 19.32366963, 49.35837593 ], [ 19.32361389, 49.35843209 ], [ 19.32363658, 49.35854918 ], [ 19.32362601, 49.35859872 ], [ 19.32360369, 49.35866961 ], [ 19.32355742, 49.35876876 ], [ 19.32351867, 49.35887106 ], [ 19.323475, 49.35891408 ], [ 19.32350121, 49.35893542 ], [ 19.32343605, 49.35900817 ], [ 19.32333501, 49.35913205 ], [ 19.32327027, 49.35921465 ], [ 19.3232097, 49.35927581 ], [ 19.32314061, 49.35937659 ], [ 19.32316159, 49.35945411 ], [ 19.32313933, 49.35946569 ], [ 19.32299729, 49.35951715 ], [ 19.32296233, 49.35952875 ], [ 19.32293036, 49.35960965 ], [ 19.3229037, 49.35963607 ], [ 19.32277898, 49.35973694 ], [ 19.32273333, 49.35985415 ], [ 19.32271688, 49.36006703 ], [ 19.3227205, 49.36009172 ], [ 19.3228306, 49.36030606 ], [ 19.32278034, 49.36037374 ], [ 19.32276858, 49.36039527 ], [ 19.32273928, 49.36041183 ], [ 19.32272097, 49.3604052 ], [ 19.32266908, 49.36049769 ], [ 19.32267005, 49.36058022 ], [ 19.32268559, 49.36064947 ], [ 19.32286308, 49.36066458 ], [ 19.32499742, 49.36084673 ], [ 19.32501004, 49.36084741 ], [ 19.32505327, 49.36084963 ], [ 19.32529685, 49.36086244 ], [ 19.32535161, 49.36086529 ], [ 19.32739811, 49.36097294 ], [ 19.32744971, 49.36097563 ], [ 19.32934456, 49.36086633 ], [ 19.32939957, 49.36086315 ], [ 19.32989033, 49.36083484 ], [ 19.33059359, 49.36078451 ], [ 19.3312908, 49.36070514 ], [ 19.33134112, 49.36069939 ], [ 19.3313846, 49.36069441 ], [ 19.33142723, 49.36068956 ], [ 19.33145784, 49.36068613 ], [ 19.33148188, 49.36068338 ], [ 19.33232203, 49.36066833 ], [ 19.33256545, 49.36067382 ], [ 19.33282387, 49.36067975 ], [ 19.33307175, 49.36074503 ], [ 19.33342767, 49.36074914 ], [ 19.33421648, 49.36061131 ], [ 19.33483498, 49.36061233 ], [ 19.33506034, 49.36075553 ], [ 19.33526718, 49.36075479 ], [ 19.33529152, 49.3607544 ], [ 19.33514431, 49.36101712 ], [ 19.33514622, 49.36115144 ], [ 19.33563876, 49.36143286 ], [ 19.33570362, 49.36138659 ], [ 19.33587422, 49.36104437 ], [ 19.3359893, 49.3609681 ], [ 19.33600388, 49.36086205 ], [ 19.33613152, 49.36079088 ], [ 19.33618141, 49.36071632 ], [ 19.33636695, 49.36058557 ], [ 19.33648402, 49.36056024 ], [ 19.33658964, 49.36044205 ], [ 19.3366176, 49.36033852 ], [ 19.33674853, 49.36030771 ], [ 19.33695645, 49.36035101 ], [ 19.33710543, 49.3601951 ], [ 19.33720497, 49.36018355 ], [ 19.33734569, 49.36025056 ], [ 19.33767506, 49.36023628 ], [ 19.33778115, 49.36034962 ], [ 19.33790202, 49.36033366 ], [ 19.33802638, 49.36028721 ], [ 19.33812771, 49.36030711 ], [ 19.33826095, 49.36003453 ], [ 19.33831095, 49.36000533 ], [ 19.33842403, 49.36003254 ], [ 19.33847209, 49.3600009 ], [ 19.33843854, 49.35982543 ], [ 19.33864061, 49.3597087 ], [ 19.33867918, 49.35961405 ], [ 19.33866962, 49.35938228 ], [ 19.33868537, 49.35931072 ], [ 19.33884244, 49.35913374 ], [ 19.3389602, 49.35910212 ], [ 19.33896673, 49.35906538 ], [ 19.33882008, 49.35903217 ], [ 19.33891568, 49.35874286 ], [ 19.33892164, 49.35872502 ], [ 19.33925852, 49.35867007 ], [ 19.33958459, 49.35865427 ], [ 19.33986515, 49.35861064 ], [ 19.34013592, 49.35860082 ], [ 19.34041988, 49.35855131 ], [ 19.34057601, 49.35853844 ], [ 19.34057778, 49.35854997 ], [ 19.34117101, 49.35878813 ], [ 19.34231352, 49.35940562 ], [ 19.34249185, 49.35950729 ], [ 19.34334875, 49.35991079 ], [ 19.34322761, 49.36017781 ], [ 19.3432176, 49.36019979 ], [ 19.34317207, 49.36030006 ], [ 19.34289364, 49.36059171 ], [ 19.34252559, 49.36099544 ], [ 19.3422441, 49.36137754 ], [ 19.34235689, 49.36140997 ], [ 19.34312447, 49.36163069 ], [ 19.34326273, 49.36170389 ], [ 19.34372442, 49.36187339 ], [ 19.34422201, 49.36204907 ], [ 19.34496286, 49.36237752 ], [ 19.34575742, 49.36270713 ], [ 19.34592244, 49.36255322 ] ] ] ] } }
]
}
