{
"type": "FeatureCollection",
"name": "gis",
"crs": { "type": "name", "properties": { "name": "urn:ogc:def:crs:OGC:1.3:CRS84" } },
"features": [
{ "type": "Feature", "properties": { "@featureType": "CadastralParcel", "areaValue": { "value": 6058, "@uom": "m2" }, "beginLifespanVersion": { "@nilReason": "http://inspire.ec.europa.eu/codelist/VoidReasonValue/Unpopulated", "@nil": "true" }, "endLifespanVersion": { "@nilReason": "http://inspire.ec.europa.eu/codelist/VoidReasonValue/Unpopulated", "@nil": "true" }, "inspireId": { "@dataType": "Identifier", "localId": "812404_1012/1.C", "namespace": "SK.ESKN.CP", "versionId": "20260703T07:07:03" }, "label": "1012/1", "nationalCadastralReference": "812404_1012/1.C", "referencePoint": { "type": "Point", "coordinates": [ 19.30273547, 49.22440758 ] }, "validFrom": "2026-06-30T16:00:00Z", "validTo": { "@nilReason": "http://inspire.ec.europa.eu/codelist/VoidReasonValue/Unpopulated", "@nil": "true" }, "administrativeUnit": { "@href": "#auAdmUnitS.1358" } }, "geometry": { "type": "Polygon", "coordinates": [ [ [ 19.30044596, 49.22389616 ], [ 19.30053948, 49.22383955 ], [ 19.30065234, 49.2238459 ], [ 19.30084735, 49.22388985 ], [ 19.30092077, 49.22390677 ], [ 19.30099711, 49.22392229 ], [ 19.30100222, 49.22392334 ], [ 19.3011572, 49.22394214 ], [ 19.30116306, 49.22393394 ], [ 19.30121388, 49.22394617 ], [ 19.30140241, 49.22399144 ], [ 19.30144889, 49.224028 ], [ 19.30174551, 49.22409164 ], [ 19.3017717, 49.22409757 ], [ 19.30182985, 49.2241107 ], [ 19.30201683, 49.22416383 ], [ 19.30207134, 49.22417624 ], [ 19.30224414, 49.22421562 ], [ 19.30246454, 49.22429269 ], [ 19.30254968, 49.22432567 ], [ 19.30266057, 49.22439475 ], [ 19.30264457, 49.224415 ], [ 19.30264246, 49.22441788 ], [ 19.30275817, 49.22450928 ], [ 19.30283861, 49.22457242 ], [ 19.30281219, 49.22458604 ], [ 19.30284318, 49.22461699 ], [ 19.30284467, 49.2246185 ], [ 19.30287536, 49.22460734 ], [ 19.30297569, 49.22473461 ], [ 19.30298032, 49.22477243 ], [ 19.30299365, 49.22478632 ], [ 19.30310485, 49.22481899 ], [ 19.30310388, 49.22481282 ], [ 19.30309963, 49.22478773 ], [ 19.30309428, 49.22475637 ], [ 19.30308831, 49.22472066 ], [ 19.30301479, 49.22458122 ], [ 19.3030538, 49.22452221 ], [ 19.30318918, 49.22449536 ], [ 19.30335076, 49.22455783 ], [ 19.30366599, 49.224741 ], [ 19.3037096, 49.22477859 ], [ 19.30372619, 49.2247929 ], [ 19.30374544, 49.22482798 ], [ 19.30375438, 49.22483678 ], [ 19.30379073, 49.22491027 ], [ 19.30380723, 49.22494036 ], [ 19.30385448, 49.22509956 ], [ 19.30388021, 49.22526045 ], [ 19.30384998, 49.22542571 ], [ 19.30381445, 49.22559037 ], [ 19.30377036, 49.22574407 ], [ 19.30380129, 49.22574815 ], [ 19.30380682, 49.22571055 ], [ 19.30386392, 49.22547272 ], [ 19.3039073, 49.22533052 ], [ 19.30396769, 49.22517876 ], [ 19.30393181, 49.22504372 ], [ 19.30376962, 49.22479099 ], [ 19.30341821, 49.22457779 ], [ 19.30327227, 49.22451579 ], [ 19.30301494, 49.224444 ], [ 19.30291531, 49.22440015 ], [ 19.30296376, 49.22444383 ], [ 19.3030122, 49.22448751 ], [ 19.30294502, 49.22451877 ], [ 19.30289657, 49.22447509 ], [ 19.30284826, 49.22443142 ], [ 19.30278918, 49.22438065 ], [ 19.3028275, 49.22436146 ], [ 19.30280728, 49.22435257 ], [ 19.30265046, 49.22427193 ], [ 19.30248926, 49.22420849 ], [ 19.30227387, 49.22416456 ], [ 19.30168266, 49.22398652 ], [ 19.30146081, 49.2239201 ], [ 19.30114568, 49.22380716 ], [ 19.30101931, 49.22377863 ], [ 19.30063692, 49.22372138 ], [ 19.30051394, 49.22370698 ], [ 19.30041936, 49.22369592 ], [ 19.29967398, 49.22356772 ], [ 19.29954908, 49.22354584 ], [ 19.2991284, 49.22344772 ], [ 19.29849163, 49.22331582 ], [ 19.29811503, 49.22326352 ], [ 19.29784064, 49.22323536 ], [ 19.29714313, 49.22306154 ], [ 19.29709722, 49.22314817 ], [ 19.29730663, 49.22318253 ], [ 19.29757203, 49.22322596 ], [ 19.29769334, 49.22325173 ], [ 19.29775167, 49.22327315 ], [ 19.29781607, 49.22329325 ], [ 19.29797474, 49.22332845 ], [ 19.29811191, 49.22335398 ], [ 19.29829004, 49.2233875 ], [ 19.29852748, 49.22342355 ], [ 19.29852981, 49.2234187 ], [ 19.29864796, 49.22344811 ], [ 19.29876415, 49.22346921 ], [ 19.29876286, 49.22347213 ], [ 19.29893846, 49.22350606 ], [ 19.29912215, 49.22354281 ], [ 19.29929092, 49.22358012 ], [ 19.2995037, 49.22363384 ], [ 19.29960179, 49.22365553 ], [ 19.29961816, 49.22366055 ], [ 19.29978547, 49.22369607 ], [ 19.29983833, 49.22370723 ], [ 19.29997469, 49.22374011 ], [ 19.3000967, 49.22376952 ], [ 19.30024298, 49.22380476 ], [ 19.30032893, 49.22382543 ], [ 19.30036019, 49.22384647 ], [ 19.30035951, 49.22387872 ], [ 19.30044596, 49.22389616 ] ] ] } }
]
}
