{
"type": "FeatureCollection",
"name": "gis",
"crs": { "type": "name", "properties": { "name": "urn:ogc:def:crs:OGC:1.3:CRS84" } },
"features": [
{ "type": "Feature", "properties": { "@featureType": "CadastralParcel", "areaValue": { "value": 952, "@uom": "m2" }, "beginLifespanVersion": { "@nilReason": "http://inspire.ec.europa.eu/codelist/VoidReasonValue/Unpopulated", "@nil": "true" }, "endLifespanVersion": { "@nilReason": "http://inspire.ec.europa.eu/codelist/VoidReasonValue/Unpopulated", "@nil": "true" }, "inspireId": { "@dataType": "Identifier", "localId": "840165_4050/8.C", "namespace": "SK.ESKN.CP", "versionId": "20260703T04:07:53" }, "label": "4050/8", "nationalCadastralReference": "840165_4050/8.C", "referencePoint": { "type": "Point", "coordinates": [ 18.04261392, 48.28992781 ] }, "validFrom": "2026-06-30T16:00:00Z", "validTo": { "@nilReason": "http://inspire.ec.europa.eu/codelist/VoidReasonValue/Unpopulated", "@nil": "true" }, "administrativeUnit": { "@href": "#auAdmUnitS.1810" } }, "geometry": { "type": "Polygon", "coordinates": [ [ [ 18.04264296, 48.29001174 ], [ 18.04273527, 48.28986229 ], [ 18.0428279, 48.28971249 ], [ 18.04292035, 48.28956304 ], [ 18.04294363, 48.28952541 ], [ 18.04287964, 48.28949796 ], [ 18.04281577, 48.2894706 ], [ 18.0427064, 48.28964758 ], [ 18.04259809, 48.28982263 ], [ 18.04249252, 48.28999333 ], [ 18.04244456, 48.29007093 ], [ 18.04237677, 48.29018058 ], [ 18.04248956, 48.29026006 ], [ 18.04261206, 48.29006183 ], [ 18.04264296, 48.29001174 ] ] ] } },
{ "type": "Feature", "properties": { "@featureType": "CadastralParcel", "areaValue": { "value": 339, "@uom": "m2" }, "beginLifespanVersion": { "@nilReason": "http://inspire.ec.europa.eu/codelist/VoidReasonValue/Unpopulated", "@nil": "true" }, "endLifespanVersion": { "@nilReason": "http://inspire.ec.europa.eu/codelist/VoidReasonValue/Unpopulated", "@nil": "true" }, "inspireId": { "@dataType": "Identifier", "localId": "840165_4050/74.C", "namespace": "SK.ESKN.CP", "versionId": "20260703T04:07:53" }, "label": "4050/74", "nationalCadastralReference": "840165_4050/74.C", "referencePoint": { "type": "Point", "coordinates": [ 18.04208027, 48.28954569 ] }, "validFrom": "2026-06-30T16:00:00Z", "validTo": { "@nilReason": "http://inspire.ec.europa.eu/codelist/VoidReasonValue/Unpopulated", "@nil": "true" }, "administrativeUnit": { "@href": "#auAdmUnitS.1810" } }, "geometry": { "type": "Polygon", "coordinates": [ [ [ 18.04218745, 48.28940872 ], [ 18.04225772, 48.28925209 ], [ 18.04236712, 48.28900803 ], [ 18.04233316, 48.28898976 ], [ 18.04214928, 48.28939978 ], [ 18.04180617, 48.28995058 ], [ 18.04184384, 48.28996031 ], [ 18.04194696, 48.28979479 ], [ 18.04205042, 48.28962875 ], [ 18.04215388, 48.28946262 ], [ 18.04218745, 48.28940872 ] ] ] } },
{ "type": "Feature", "properties": { "@featureType": "CadastralParcel", "areaValue": { "value": 319, "@uom": "m2" }, "beginLifespanVersion": { "@nilReason": "http://inspire.ec.europa.eu/codelist/VoidReasonValue/Unpopulated", "@nil": "true" }, "endLifespanVersion": { "@nilReason": "http://inspire.ec.europa.eu/codelist/VoidReasonValue/Unpopulated", "@nil": "true" }, "inspireId": { "@dataType": "Identifier", "localId": "840165_4050/75.C", "namespace": "SK.ESKN.CP", "versionId": "20260703T04:07:53" }, "label": "4050/75", "nationalCadastralReference": "840165_4050/75.C", "referencePoint": { "type": "Point", "coordinates": [ 18.04327248, 48.29016698 ] }, "validFrom": "2026-06-30T16:00:00Z", "validTo": { "@nilReason": "http://inspire.ec.europa.eu/codelist/VoidReasonValue/Unpopulated", "@nil": "true" }, "administrativeUnit": { "@href": "#auAdmUnitS.1810" } }, "geometry": { "type": "Polygon", "coordinates": [ [ [ 18.04355134, 48.29002298 ], [ 18.04388698, 48.28982639 ], [ 18.04385503, 48.28980924 ], [ 18.0437027, 48.28989843 ], [ 18.04351602, 48.29000779 ], [ 18.04332889, 48.2901165 ], [ 18.04307809, 48.29026124 ], [ 18.04277863, 48.29043613 ], [ 18.04281012, 48.29045363 ], [ 18.04321666, 48.29021746 ], [ 18.04355134, 48.29002298 ] ] ] } },
{ "type": "Feature", "properties": { "@featureType": "CadastralParcel", "areaValue": { "value": 21058, "@uom": "m2" }, "beginLifespanVersion": { "@nilReason": "http://inspire.ec.europa.eu/codelist/VoidReasonValue/Unpopulated", "@nil": "true" }, "endLifespanVersion": { "@nilReason": "http://inspire.ec.europa.eu/codelist/VoidReasonValue/Unpopulated", "@nil": "true" }, "inspireId": { "@dataType": "Identifier", "localId": "840165_3814/1.E", "namespace": "SK.ESKN.CP", "versionId": "20260703T04:07:53" }, "label": "3814/1", "nationalCadastralReference": "840165_3814/1.E", "referencePoint": { "type": "Point", "coordinates": [ 18.01417442, 48.28036088 ] }, "validFrom": "2026-06-30T16:00:00Z", "validTo": { "@nilReason": "http://inspire.ec.europa.eu/codelist/VoidReasonValue/Unpopulated", "@nil": "true" }, "administrativeUnit": { "@href": "#auAdmUnitS.1810" } }, "geometry": { "type": "MultiPolygon", "coordinates": [ [ [ [ 18.03048087, 48.28552505 ], [ 18.03082725, 48.28563306 ], [ 18.03103534, 48.28576969 ], [ 18.03118685, 48.28596633 ], [ 18.03150827, 48.28652973 ], [ 18.03172667, 48.2867513 ], [ 18.03188952, 48.28689345 ], [ 18.03210055, 48.28714284 ], [ 18.03214356, 48.28727668 ], [ 18.0322001, 48.2875939 ], [ 18.03222334, 48.28763763 ], [ 18.03224203, 48.28767296 ], [ 18.03226066, 48.28770775 ], [ 18.03237879, 48.28781193 ], [ 18.03274601, 48.28805788 ], [ 18.03299025, 48.28827249 ], [ 18.03313134, 48.28839727 ], [ 18.03316358, 48.28845372 ], [ 18.03318334, 48.28848813 ], [ 18.03322538, 48.2885755 ], [ 18.0331714, 48.28893111 ], [ 18.03323224, 48.28921112 ], [ 18.03330343, 48.28927178 ], [ 18.03337478, 48.28929878 ], [ 18.03352678, 48.28931044 ], [ 18.03364243, 48.28928228 ], [ 18.0341381, 48.28914092 ], [ 18.03433864, 48.28910418 ], [ 18.03452969, 48.28912538 ], [ 18.03467946, 48.28918828 ], [ 18.03476075, 48.28922291 ], [ 18.03498261, 48.28932242 ], [ 18.03506275, 48.28932818 ], [ 18.03531121, 48.2893602 ], [ 18.03536935, 48.28937368 ], [ 18.03540504, 48.28938203 ], [ 18.03558303, 48.28943008 ], [ 18.03562877, 48.28944626 ], [ 18.03587932, 48.28953465 ], [ 18.03592041, 48.2895491 ], [ 18.03630909, 48.28959803 ], [ 18.03640242, 48.28960123 ], [ 18.03651543, 48.28960506 ], [ 18.03667395, 48.28960238 ], [ 18.0369217, 48.28961034 ], [ 18.03698342, 48.28960714 ], [ 18.03739691, 48.28958567 ], [ 18.0375366, 48.28956797 ], [ 18.03789328, 48.28957382 ], [ 18.03790975, 48.28957407 ], [ 18.0380778, 48.2895456 ], [ 18.03814535, 48.28953417 ], [ 18.03825567, 48.28951554 ], [ 18.03844463, 48.28948451 ], [ 18.03859236, 48.28946024 ], [ 18.03872578, 48.28945607 ], [ 18.03919624, 48.28944168 ], [ 18.03920489, 48.28944174 ], [ 18.03924193, 48.28944196 ], [ 18.03933073, 48.28944263 ], [ 18.03983702, 48.28944255 ], [ 18.04031499, 48.28944079 ], [ 18.04032717, 48.28944079 ], [ 18.04054329, 48.28947386 ], [ 18.04086497, 48.28956863 ], [ 18.04087631, 48.28957192 ], [ 18.04095935, 48.28959645 ], [ 18.04149649, 48.28988045 ], [ 18.04172277, 48.28996522 ], [ 18.04193518, 48.29005052 ], [ 18.04218196, 48.29011448 ], [ 18.04243671, 48.29030233 ], [ 18.04252244, 48.29036557 ], [ 18.04275774, 48.29049033 ], [ 18.04310397, 48.29067197 ], [ 18.04341267, 48.29079107 ], [ 18.04375771, 48.2909665 ], [ 18.04382794, 48.29092986 ], [ 18.04340398, 48.2907325 ], [ 18.043109, 48.29061593 ], [ 18.04285857, 48.29047989 ], [ 18.04281012, 48.29045363 ], [ 18.04277863, 48.29043613 ], [ 18.0426782, 48.2903806 ], [ 18.04262277, 48.29034986 ], [ 18.04259543, 48.29033469 ], [ 18.04248956, 48.29026006 ], [ 18.04237677, 48.29018058 ], [ 18.04230527, 48.29013029 ], [ 18.04228083, 48.29011981 ], [ 18.0421109, 48.29004669 ], [ 18.04200879, 48.29000279 ], [ 18.04184384, 48.28996031 ], [ 18.04180617, 48.28995058 ], [ 18.04174223, 48.28992177 ], [ 18.04151203, 48.28984002 ], [ 18.04095866, 48.28954584 ], [ 18.04051069, 48.28943526 ], [ 18.040293, 48.28940689 ], [ 18.04015333, 48.28939606 ], [ 18.03908261, 48.28938166 ], [ 18.03868342, 48.28939125 ], [ 18.03829331, 48.28942811 ], [ 18.03791826, 48.28949711 ], [ 18.03733409, 48.28949679 ], [ 18.03654339, 48.28954153 ], [ 18.03631097, 48.28953223 ], [ 18.03593833, 48.2894848 ], [ 18.03563076, 48.28937559 ], [ 18.03543751, 48.28932121 ], [ 18.03525715, 48.28928069 ], [ 18.03504801, 48.28925417 ], [ 18.03474402, 48.28911917 ], [ 18.03455439, 48.289065 ], [ 18.03435981, 48.28904395 ], [ 18.03413201, 48.28907501 ], [ 18.03351954, 48.28924716 ], [ 18.03338676, 48.2892445 ], [ 18.03331339, 48.28921034 ], [ 18.0332685, 48.28915639 ], [ 18.03320827, 48.28893367 ], [ 18.0332653, 48.28853797 ], [ 18.03316229, 48.28838737 ], [ 18.0327876, 48.2880413 ], [ 18.03241431, 48.28778407 ], [ 18.03230408, 48.2876855 ], [ 18.03224624, 48.28757254 ], [ 18.03220442, 48.28729511 ], [ 18.03215994, 48.28713581 ], [ 18.03193666, 48.28687278 ], [ 18.03175509, 48.28671173 ], [ 18.03156129, 48.28652278 ], [ 18.03125438, 48.28598136 ], [ 18.03106307, 48.28559653 ], [ 18.0310453, 48.28553408 ], [ 18.03043099, 48.28542547 ], [ 18.03035149, 48.2854109 ], [ 18.02972078, 48.28523468 ], [ 18.02904262, 48.28511387 ], [ 18.0283886, 48.28490456 ], [ 18.02817131, 48.28479736 ], [ 18.02804377, 48.2847597 ], [ 18.02766855, 48.28464879 ], [ 18.02754258, 48.2846115 ], [ 18.02738032, 48.28454405 ], [ 18.02718507, 48.28441369 ], [ 18.02703234, 48.28431142 ], [ 18.02690414, 48.28421286 ], [ 18.02661266, 48.2839826 ], [ 18.02654774, 48.28394803 ], [ 18.02625053, 48.2837911 ], [ 18.02593961, 48.28367598 ], [ 18.02569407, 48.28357775 ], [ 18.02518258, 48.28342684 ], [ 18.02458832, 48.28312897 ], [ 18.02424639, 48.28303438 ], [ 18.02388672, 48.28293287 ], [ 18.02292206, 48.28275748 ], [ 18.02254398, 48.28265704 ], [ 18.02250244, 48.28264598 ], [ 18.02247094, 48.28264483 ], [ 18.02232377, 48.28264978 ], [ 18.02148169, 48.28267871 ], [ 18.02115362, 48.28262819 ], [ 18.02025452, 48.28235619 ], [ 18.01971534, 48.28222437 ], [ 18.01965853, 48.28221015 ], [ 18.01949895, 48.2821703 ], [ 18.01923737, 48.28209105 ], [ 18.0187857, 48.28195424 ], [ 18.01873011, 48.28193802 ], [ 18.01841004, 48.28185203 ], [ 18.018275, 48.28182195 ], [ 18.01808366, 48.28181217 ], [ 18.01770138, 48.28184238 ], [ 18.0177244, 48.28188059 ], [ 18.01813845, 48.28187485 ], [ 18.01813685, 48.28187367 ], [ 18.01814138, 48.28187421 ], [ 18.01818123, 48.28187866 ], [ 18.01838063, 48.28190093 ], [ 18.01856603, 48.28194295 ], [ 18.0191028, 48.28212312 ], [ 18.0194841, 48.28223985 ], [ 18.02024853, 48.28243538 ], [ 18.02101209, 48.2826668 ], [ 18.02113756, 48.2827048 ], [ 18.02127288, 48.28273182 ], [ 18.02146669, 48.28277064 ], [ 18.02224878, 48.28273408 ], [ 18.02226649, 48.28273314 ], [ 18.02227832, 48.28273268 ], [ 18.0223226, 48.28273134 ], [ 18.02233483, 48.28273397 ], [ 18.02239644, 48.28274874 ], [ 18.02287849, 48.28284554 ], [ 18.02309669, 48.28287705 ], [ 18.02377709, 48.28299902 ], [ 18.02385296, 48.2830123 ], [ 18.02431862, 48.2831185 ], [ 18.02453995, 48.28318116 ], [ 18.02515015, 48.28347412 ], [ 18.02526324, 48.28350857 ], [ 18.02561123, 48.28361453 ], [ 18.0257532, 48.28366172 ], [ 18.02591463, 48.28371404 ], [ 18.02610864, 48.28378789 ], [ 18.02625836, 48.28384484 ], [ 18.02652535, 48.28398498 ], [ 18.02656251, 48.28400453 ], [ 18.02675551, 48.28415679 ], [ 18.02687578, 48.28424991 ], [ 18.02713906, 48.28444517 ], [ 18.02737349, 48.28456685 ], [ 18.02776011, 48.28472801 ], [ 18.02816662, 48.28484765 ], [ 18.02834741, 48.28494356 ], [ 18.02865291, 48.28507497 ], [ 18.02889248, 48.2851471 ], [ 18.02894177, 48.28516195 ], [ 18.02897346, 48.2851698 ], [ 18.02922218, 48.2852311 ], [ 18.02951276, 48.28528993 ], [ 18.02985603, 48.28534936 ], [ 18.03048087, 48.28552505 ] ] ], [ [ [ 18.00126966, 48.28352589 ], [ 18.00151216, 48.2834871 ], [ 18.00240389, 48.28319925 ], [ 18.00256844, 48.28313342 ], [ 18.00260713, 48.28311225 ], [ 18.00302879, 48.28288146 ], [ 18.00352962, 48.28270587 ], [ 18.00394486, 48.28260769 ], [ 18.00403628, 48.28257361 ], [ 18.00437549, 48.28244714 ], [ 18.00474025, 48.28230965 ], [ 18.00521518, 48.28217585 ], [ 18.00592328, 48.28203032 ], [ 18.00621176, 48.28193911 ], [ 18.00663226, 48.28175609 ], [ 18.00726048, 48.28152823 ], [ 18.00756373, 48.28136005 ], [ 18.00760962, 48.28133462 ], [ 18.00768095, 48.28129698 ], [ 18.00770263, 48.28127959 ], [ 18.00788895, 48.2811299 ], [ 18.00813976, 48.28103498 ], [ 18.00851351, 48.28096556 ], [ 18.00888995, 48.28092654 ], [ 18.00894367, 48.28092036 ], [ 18.0092556, 48.28086801 ], [ 18.00947212, 48.28083118 ], [ 18.00982194, 48.28074235 ], [ 18.00983553, 48.28073892 ], [ 18.00984911, 48.28073549 ], [ 18.00987546, 48.28072965 ], [ 18.00990277, 48.2807237 ], [ 18.00991615, 48.2807208 ], [ 18.01011965, 48.28067606 ], [ 18.01043322, 48.28066091 ], [ 18.01073658, 48.28064633 ], [ 18.01091587, 48.28064999 ], [ 18.01092842, 48.28065029 ], [ 18.01094218, 48.28065057 ], [ 18.01099646, 48.28064423 ], [ 18.01100924, 48.28064274 ], [ 18.01109087, 48.28063325 ], [ 18.01142273, 48.2805755 ], [ 18.01146087, 48.28056648 ], [ 18.01145817, 48.28052506 ], [ 18.01111972, 48.28058649 ], [ 18.01094781, 48.28061054 ], [ 18.01067655, 48.28060771 ], [ 18.01009325, 48.28063177 ], [ 18.00977101, 48.28069841 ], [ 18.00946984, 48.28077948 ], [ 18.00895643, 48.28088365 ], [ 18.00850133, 48.28093431 ], [ 18.0081158, 48.28100276 ], [ 18.00785408, 48.28110443 ], [ 18.00766828, 48.28125523 ], [ 18.00725043, 48.2814962 ], [ 18.00661386, 48.28172483 ], [ 18.00618404, 48.28192084 ], [ 18.00590812, 48.28200016 ], [ 18.00518802, 48.28214434 ], [ 18.00470708, 48.28228058 ], [ 18.00394128, 48.28257687 ], [ 18.00350927, 48.28267811 ], [ 18.00300663, 48.28285702 ], [ 18.00253609, 48.28311433 ], [ 18.00240624, 48.28316761 ], [ 18.00126966, 48.28352589 ] ] ], [ [ [ 18.05128107, 48.29331339 ], [ 18.05150261, 48.29331713 ], [ 18.05155613, 48.29334297 ], [ 18.05179222, 48.29345692 ], [ 18.05201648, 48.29356521 ], [ 18.05202613, 48.29357201 ], [ 18.05221553, 48.29370531 ], [ 18.05259434, 48.29397192 ], [ 18.05260955, 48.29398266 ], [ 18.05266547, 48.294022 ], [ 18.05267906, 48.29403175 ], [ 18.05273644, 48.29407226 ], [ 18.05296693, 48.29418055 ], [ 18.05309605, 48.2942413 ], [ 18.05314989, 48.2942109 ], [ 18.05277214, 48.29402878 ], [ 18.05251993, 48.29384173 ], [ 18.05227073, 48.29366877 ], [ 18.05204108, 48.29350951 ], [ 18.05188056, 48.2934255 ], [ 18.05160732, 48.29327964 ], [ 18.05145745, 48.29324475 ], [ 18.0511217, 48.29314863 ], [ 18.05076988, 48.29303305 ], [ 18.05060967, 48.29309912 ], [ 18.05062818, 48.29310546 ], [ 18.05083897, 48.29317259 ], [ 18.05128107, 48.29331339 ] ] ], [ [ [ 18.04523458, 48.29134871 ], [ 18.04576783, 48.29142262 ], [ 18.04591117, 48.2914425 ], [ 18.04613661, 48.29150419 ], [ 18.04616402, 48.29151169 ], [ 18.04626366, 48.29155191 ], [ 18.04628921, 48.29156219 ], [ 18.04656477, 48.29162251 ], [ 18.04681206, 48.29167665 ], [ 18.04687737, 48.29168711 ], [ 18.04702015, 48.29171012 ], [ 18.04714454, 48.29173015 ], [ 18.04722201, 48.29173664 ], [ 18.04724641, 48.29173123 ], [ 18.04733414, 48.29171558 ], [ 18.04753959, 48.29172226 ], [ 18.04778438, 48.29186012 ], [ 18.04785933, 48.29192416 ], [ 18.04795382, 48.292002 ], [ 18.04809879, 48.29205331 ], [ 18.04801071, 48.29197712 ], [ 18.04795152, 48.29192783 ], [ 18.04770905, 48.29173602 ], [ 18.04762808, 48.2916867 ], [ 18.0474622, 48.29165726 ], [ 18.04713676, 48.29167984 ], [ 18.04697759, 48.29167518 ], [ 18.04665231, 48.29162653 ], [ 18.04664903, 48.2916248 ], [ 18.04634925, 48.29156548 ], [ 18.04620576, 48.29147976 ], [ 18.04593291, 48.2914093 ], [ 18.04534078, 48.29131935 ], [ 18.04493797, 48.29126365 ], [ 18.04445838, 48.29116069 ], [ 18.04440773, 48.29114685 ], [ 18.04435112, 48.29117572 ], [ 18.04450424, 48.29122066 ], [ 18.04489993, 48.29130239 ], [ 18.04509668, 48.2913296 ], [ 18.04523458, 48.29134871 ] ] ], [ [ [ 18.01385688, 48.28031016 ], [ 18.0144869, 48.2804393 ], [ 18.01462407, 48.28049082 ], [ 18.01448411, 48.2804116 ], [ 18.01375362, 48.28025696 ], [ 18.01279075, 48.28019608 ], [ 18.01270772, 48.28021 ], [ 18.01283704, 48.28022819 ], [ 18.01312238, 48.28023293 ], [ 18.01385688, 48.28031016 ] ] ], [ [ [ 18.01512085, 48.28080786 ], [ 18.0154725, 48.28120961 ], [ 18.01521874, 48.28082742 ], [ 18.01472002, 48.28054513 ], [ 18.01496598, 48.28072178 ], [ 18.01512085, 48.28080786 ] ] ], [ [ [ 18.00113389, 48.28353655 ], [ 18.00086602, 48.28352542 ], [ 18.00074141, 48.28346497 ], [ 18.00074749, 48.28357197 ], [ 18.00082495, 48.28354816 ], [ 18.0010179, 48.2835661 ], [ 18.00126966, 48.28352589 ], [ 18.00113389, 48.28353655 ] ] ] ] } }
]
}
