{
"type": "FeatureCollection",
"name": "gis",
"crs": { "type": "name", "properties": { "name": "urn:ogc:def:crs:OGC:1.3:CRS84" } },
"features": [
{ "type": "Feature", "properties": { "@featureType": "CadastralParcel", "areaValue": { "value": 685, "@uom": "m2" }, "beginLifespanVersion": { "@nilReason": "http://inspire.ec.europa.eu/codelist/VoidReasonValue/Unpopulated", "@nil": "true" }, "endLifespanVersion": { "@nilReason": "http://inspire.ec.europa.eu/codelist/VoidReasonValue/Unpopulated", "@nil": "true" }, "inspireId": { "@dataType": "Identifier", "localId": "817201_1561/127.C", "namespace": "SK.ESKN.CP", "versionId": "20260703T06:07:34" }, "label": "1561/127", "nationalCadastralReference": "817201_1561/127.C", "referencePoint": { "type": "Point", "coordinates": [ 19.56698478, 48.87029476 ] }, "validFrom": "2026-06-30T16:00:00Z", "validTo": { "@nilReason": "http://inspire.ec.europa.eu/codelist/VoidReasonValue/Unpopulated", "@nil": "true" }, "administrativeUnit": { "@href": "#auAdmUnitS.2606" } }, "geometry": { "type": "Polygon", "coordinates": [ [ [ 19.56739645, 48.87048214 ], [ 19.56730201, 48.87043251 ], [ 19.56713577, 48.87034554 ], [ 19.56681433, 48.87020464 ], [ 19.56678515, 48.87017393 ], [ 19.56678058, 48.8701666 ], [ 19.56672381, 48.87007433 ], [ 19.56629259, 48.87001372 ], [ 19.56621527, 48.86986426 ], [ 19.56616693, 48.86987965 ], [ 19.56625227, 48.87003866 ], [ 19.56669596, 48.87010281 ], [ 19.56676859, 48.87021338 ], [ 19.56683482, 48.87024398 ], [ 19.56711173, 48.87036644 ], [ 19.56736553, 48.87050084 ], [ 19.56770336, 48.87064843 ], [ 19.56740261, 48.87069273 ], [ 19.56716272, 48.87071699 ], [ 19.56699266, 48.8707281 ], [ 19.56692021, 48.87072832 ], [ 19.56678946, 48.87070985 ], [ 19.56678637, 48.87074334 ], [ 19.56691942, 48.8707556 ], [ 19.56705188, 48.87075378 ], [ 19.5674086, 48.87072049 ], [ 19.56780012, 48.87066265 ], [ 19.56778158, 48.87062818 ], [ 19.567773, 48.8706122 ], [ 19.56763351, 48.87061587 ], [ 19.56744457, 48.87050416 ], [ 19.56739645, 48.87048214 ] ] ] } }
]
}
