{
"type": "FeatureCollection",
"name": "gis",
"crs": { "type": "name", "properties": { "name": "urn:ogc:def:crs:OGC:1.3:CRS84" } },
"features": [
{ "type": "Feature", "properties": { "@featureType": "CadastralParcel", "areaValue": { "value": 970, "@uom": "m2" }, "beginLifespanVersion": { "@nilReason": "http://inspire.ec.europa.eu/codelist/VoidReasonValue/Unpopulated", "@nil": "true" }, "endLifespanVersion": { "@nilReason": "http://inspire.ec.europa.eu/codelist/VoidReasonValue/Unpopulated", "@nil": "true" }, "inspireId": { "@dataType": "Identifier", "localId": "824089_652/77.C", "namespace": "SK.ESKN.CP", "versionId": "20260703T04:07:16" }, "label": "652/77", "nationalCadastralReference": "824089_652/77.C", "referencePoint": { "type": "Point", "coordinates": [ 18.81052486, 48.97429155 ] }, "validFrom": "2026-06-30T16:00:00Z", "validTo": { "@nilReason": "http://inspire.ec.europa.eu/codelist/VoidReasonValue/Unpopulated", "@nil": "true" }, "administrativeUnit": { "@href": "#auAdmUnitS.2625" } }, "geometry": { "type": "Polygon", "coordinates": [ [ [ 18.80881651, 48.97503877 ], [ 18.80886908, 48.97502318 ], [ 18.80874102, 48.97483043 ], [ 18.80901334, 48.97474895 ], [ 18.80928007, 48.97466835 ], [ 18.80955219, 48.97458739 ], [ 18.80982231, 48.97450931 ], [ 18.81009634, 48.97442728 ], [ 18.81022512, 48.97462314 ], [ 18.8103201, 48.97459668 ], [ 18.81018321, 48.97440103 ], [ 18.8104329, 48.97432649 ], [ 18.81067519, 48.97425661 ], [ 18.8109119, 48.97418636 ], [ 18.81115654, 48.97411282 ], [ 18.81163897, 48.97396907 ], [ 18.811773, 48.9741624 ], [ 18.81187068, 48.97413283 ], [ 18.81173276, 48.97394228 ], [ 18.81198868, 48.97386833 ], [ 18.81225021, 48.97379214 ], [ 18.81250773, 48.97371628 ], [ 18.81276597, 48.97364245 ], [ 18.81302205, 48.97356598 ], [ 18.81304677, 48.97355869 ], [ 18.81303343, 48.97354645 ], [ 18.81228709, 48.97376338 ], [ 18.8116442, 48.97395175 ], [ 18.81068952, 48.97423418 ], [ 18.80979704, 48.97449835 ], [ 18.8086832, 48.97482923 ], [ 18.80881651, 48.97503877 ] ] ] } },
{ "type": "Feature", "properties": { "@featureType": "CadastralParcel", "areaValue": { "value": 173, "@uom": "m2" }, "beginLifespanVersion": { "@nilReason": "http://inspire.ec.europa.eu/codelist/VoidReasonValue/Unpopulated", "@nil": "true" }, "endLifespanVersion": { "@nilReason": "http://inspire.ec.europa.eu/codelist/VoidReasonValue/Unpopulated", "@nil": "true" }, "inspireId": { "@dataType": "Identifier", "localId": "824089_652/213.C", "namespace": "SK.ESKN.CP", "versionId": "20260703T04:07:16" }, "label": "652/213", "nationalCadastralReference": "824089_652/213.C", "referencePoint": { "type": "Point", "coordinates": [ 18.81402665, 48.97434823 ] }, "validFrom": "2026-06-30T16:00:00Z", "validTo": { "@nilReason": "http://inspire.ec.europa.eu/codelist/VoidReasonValue/Unpopulated", "@nil": "true" }, "administrativeUnit": { "@href": "#auAdmUnitS.2625" } }, "geometry": { "type": "Polygon", "coordinates": [ [ [ 18.81414256, 48.974271 ], [ 18.81386126, 48.97435897 ], [ 18.81392178, 48.97442003 ], [ 18.81419298, 48.97433748 ], [ 18.81414256, 48.974271 ] ] ] } },
{ "type": "Feature", "properties": { "@featureType": "CadastralParcel", "areaValue": { "value": 262, "@uom": "m2" }, "beginLifespanVersion": { "@nilReason": "http://inspire.ec.europa.eu/codelist/VoidReasonValue/Unpopulated", "@nil": "true" }, "endLifespanVersion": { "@nilReason": "http://inspire.ec.europa.eu/codelist/VoidReasonValue/Unpopulated", "@nil": "true" }, "inspireId": { "@dataType": "Identifier", "localId": "824089_652/217.C", "namespace": "SK.ESKN.CP", "versionId": "20260703T04:07:16" }, "label": "652/217", "nationalCadastralReference": "824089_652/217.C", "referencePoint": { "type": "Point", "coordinates": [ 18.81423766, 48.97431733 ] }, "validFrom": "2026-06-30T16:00:00Z", "validTo": { "@nilReason": "http://inspire.ec.europa.eu/codelist/VoidReasonValue/Unpopulated", "@nil": "true" }, "administrativeUnit": { "@href": "#auAdmUnitS.2625" } }, "geometry": { "type": "Polygon", "coordinates": [ [ [ 18.8144621, 48.97418302 ], [ 18.81414256, 48.974271 ], [ 18.81419298, 48.97433748 ], [ 18.81392178, 48.97442003 ], [ 18.81392833, 48.97442596 ], [ 18.81398299, 48.97441012 ], [ 18.8142402, 48.97433569 ], [ 18.81435504, 48.97429898 ], [ 18.81451548, 48.97424767 ], [ 18.81452773, 48.9742438 ], [ 18.81453528, 48.97424139 ], [ 18.81448663, 48.97420252 ], [ 18.8144621, 48.97418302 ] ] ] } },
{ "type": "Feature", "properties": { "@featureType": "CadastralParcel", "areaValue": { "value": 199, "@uom": "m2" }, "beginLifespanVersion": { "@nilReason": "http://inspire.ec.europa.eu/codelist/VoidReasonValue/Unpopulated", "@nil": "true" }, "endLifespanVersion": { "@nilReason": "http://inspire.ec.europa.eu/codelist/VoidReasonValue/Unpopulated", "@nil": "true" }, "inspireId": { "@dataType": "Identifier", "localId": "824089_652/113.C", "namespace": "SK.ESKN.CP", "versionId": "20260703T04:07:16" }, "label": "652/113", "nationalCadastralReference": "824089_652/113.C", "referencePoint": { "type": "Point", "coordinates": [ 18.81189696, 48.9742542 ] }, "validFrom": "2026-06-30T16:00:00Z", "validTo": { "@nilReason": "http://inspire.ec.europa.eu/codelist/VoidReasonValue/Unpopulated", "@nil": "true" }, "administrativeUnit": { "@href": "#auAdmUnitS.2625" } }, "geometry": { "type": "Polygon", "coordinates": [ [ [ 18.81187068, 48.97413283 ], [ 18.811773, 48.9741624 ], [ 18.81192186, 48.97437598 ], [ 18.8120222, 48.97434601 ], [ 18.81187068, 48.97413283 ] ] ] } },
{ "type": "Feature", "properties": { "@featureType": "CadastralParcel", "areaValue": { "value": 599, "@uom": "m2" }, "beginLifespanVersion": { "@nilReason": "http://inspire.ec.europa.eu/codelist/VoidReasonValue/Unpopulated", "@nil": "true" }, "endLifespanVersion": { "@nilReason": "http://inspire.ec.europa.eu/codelist/VoidReasonValue/Unpopulated", "@nil": "true" }, "inspireId": { "@dataType": "Identifier", "localId": "824089_652/192.C", "namespace": "SK.ESKN.CP", "versionId": "20260703T04:07:16" }, "label": "652/192", "nationalCadastralReference": "824089_652/192.C", "referencePoint": { "type": "Point", "coordinates": [ 18.81064335, 48.9751562 ] }, "validFrom": "2026-06-30T16:00:00Z", "validTo": { "@nilReason": "http://inspire.ec.europa.eu/codelist/VoidReasonValue/Unpopulated", "@nil": "true" }, "administrativeUnit": { "@href": "#auAdmUnitS.2625" } }, "geometry": { "type": "Polygon", "coordinates": [ [ [ 18.81082052, 48.97549849 ], [ 18.81091474, 48.97547045 ], [ 18.81088455, 48.97542613 ], [ 18.81082883, 48.97534448 ], [ 18.81080378, 48.97530764 ], [ 18.81078449, 48.97527876 ], [ 18.81076401, 48.97524838 ], [ 18.81075657, 48.97523726 ], [ 18.81075053, 48.9752282 ], [ 18.81069343, 48.97514314 ], [ 18.81058094, 48.97497601 ], [ 18.81051089, 48.97487206 ], [ 18.81046586, 48.97480532 ], [ 18.81036698, 48.97483573 ], [ 18.81038469, 48.97486172 ], [ 18.81048276, 48.9750051 ], [ 18.81059329, 48.97516925 ], [ 18.81070923, 48.97533503 ], [ 18.81082052, 48.97549849 ] ] ] } },
{ "type": "Feature", "properties": { "@featureType": "CadastralParcel", "areaValue": { "value": 194, "@uom": "m2" }, "beginLifespanVersion": { "@nilReason": "http://inspire.ec.europa.eu/codelist/VoidReasonValue/Unpopulated", "@nil": "true" }, "endLifespanVersion": { "@nilReason": "http://inspire.ec.europa.eu/codelist/VoidReasonValue/Unpopulated", "@nil": "true" }, "inspireId": { "@dataType": "Identifier", "localId": "824089_652/118.C", "namespace": "SK.ESKN.CP", "versionId": "20260703T04:07:16" }, "label": "652/118", "nationalCadastralReference": "824089_652/118.C", "referencePoint": { "type": "Point", "coordinates": [ 18.81184336, 48.97148651 ] }, "validFrom": "2026-06-30T16:00:00Z", "validTo": { "@nilReason": "http://inspire.ec.europa.eu/codelist/VoidReasonValue/Unpopulated", "@nil": "true" }, "administrativeUnit": { "@href": "#auAdmUnitS.2625" } }, "geometry": { "type": "Polygon", "coordinates": [ [ [ 18.81198561, 48.97150568 ], [ 18.8118344, 48.9713941 ], [ 18.81170026, 48.97146733 ], [ 18.81184517, 48.97157083 ], [ 18.81198561, 48.97150568 ] ] ] } },
{ "type": "Feature", "properties": { "@featureType": "CadastralParcel", "areaValue": { "value": 583, "@uom": "m2" }, "beginLifespanVersion": { "@nilReason": "http://inspire.ec.europa.eu/codelist/VoidReasonValue/Unpopulated", "@nil": "true" }, "endLifespanVersion": { "@nilReason": "http://inspire.ec.europa.eu/codelist/VoidReasonValue/Unpopulated", "@nil": "true" }, "inspireId": { "@dataType": "Identifier", "localId": "824089_338.C", "namespace": "SK.ESKN.CP", "versionId": "20260703T04:07:16" }, "label": "338", "nationalCadastralReference": "824089_338.C", "referencePoint": { "type": "Point", "coordinates": [ 18.80857206, 48.97385158 ] }, "validFrom": "2026-06-30T16:00:00Z", "validTo": { "@nilReason": "http://inspire.ec.europa.eu/codelist/VoidReasonValue/Unpopulated", "@nil": "true" }, "administrativeUnit": { "@href": "#auAdmUnitS.2625" } }, "geometry": { "type": "Polygon", "coordinates": [ [ [ 18.80866497, 48.97370266 ], [ 18.80834308, 48.97382847 ], [ 18.80844153, 48.97395384 ], [ 18.80847487, 48.9739912 ], [ 18.80880044, 48.97387468 ], [ 18.80875984, 48.97382125 ], [ 18.80866497, 48.97370266 ] ] ] } }
]
}
