{
"type": "FeatureCollection",
"name": "gis",
"crs": { "type": "name", "properties": { "name": "urn:ogc:def:crs:OGC:1.3:CRS84" } },
"features": [
{ "type": "Feature", "properties": { "@featureType": "CadastralParcel", "areaValue": { "value": 252368, "@uom": "m2" }, "beginLifespanVersion": { "@nilReason": "http://inspire.ec.europa.eu/codelist/VoidReasonValue/Unpopulated", "@nil": "true" }, "endLifespanVersion": { "@nilReason": "http://inspire.ec.europa.eu/codelist/VoidReasonValue/Unpopulated", "@nil": "true" }, "inspireId": { "@dataType": "Identifier", "localId": "870293_4001/1.C", "namespace": "SK.ESKN.CP", "versionId": "20260703T04:07:23" }, "label": "4001/1", "nationalCadastralReference": "870293_4001/1.C", "referencePoint": { "type": "Point", "coordinates": [ 17.20396416, 48.15842691 ] }, "validFrom": "2026-06-30T16:00:00Z", "validTo": { "@nilReason": "http://inspire.ec.europa.eu/codelist/VoidReasonValue/Unpopulated", "@nil": "true" }, "administrativeUnit": { "@href": "#auAdmUnitS.2311" } }, "geometry": { "type": "Polygon", "coordinates": [ [ [ 17.19911258, 48.15697853 ], [ 17.19934065, 48.15710996 ], [ 17.19938317, 48.1571345 ], [ 17.19936899, 48.15714349 ], [ 17.19957995, 48.1572791 ], [ 17.19979681, 48.15742848 ], [ 17.19996495, 48.15750093 ], [ 17.20006572, 48.15748112 ], [ 17.20011267, 48.15751309 ], [ 17.2000845, 48.15758306 ], [ 17.20018551, 48.15770416 ], [ 17.20075277, 48.15809647 ], [ 17.20169969, 48.15875734 ], [ 17.20171032, 48.15876484 ], [ 17.20256267, 48.15936278 ], [ 17.20277844, 48.15944918 ], [ 17.20286719, 48.15943298 ], [ 17.20291116, 48.15946503 ], [ 17.20287972, 48.15953523 ], [ 17.20297197, 48.15965267 ], [ 17.20360148, 48.16008872 ], [ 17.20456148, 48.16075297 ], [ 17.20537812, 48.16131904 ], [ 17.20558458, 48.16139559 ], [ 17.20567036, 48.16138208 ], [ 17.20570114, 48.16140475 ], [ 17.2056796, 48.16149821 ], [ 17.20579792, 48.16160673 ], [ 17.20646019, 48.16207514 ], [ 17.20647953, 48.16208854 ], [ 17.20652578, 48.16212074 ], [ 17.20670052, 48.16198124 ], [ 17.20731337, 48.16240449 ], [ 17.20824734, 48.16166886 ], [ 17.2087325, 48.16128649 ], [ 17.20967933, 48.1605405 ], [ 17.20953326, 48.16039434 ], [ 17.20346121, 48.15617476 ], [ 17.20323508, 48.15601772 ], [ 17.20292761, 48.15580397 ], [ 17.20269284, 48.15566225 ], [ 17.20260519, 48.15559899 ], [ 17.20254309, 48.1555274 ], [ 17.20226031, 48.15522999 ], [ 17.20185142, 48.15494573 ], [ 17.20114052, 48.15506385 ], [ 17.20095846, 48.15492738 ], [ 17.20063585, 48.15468586 ], [ 17.20126795, 48.15455722 ], [ 17.20114413, 48.15449822 ], [ 17.20093839, 48.15445957 ], [ 17.20076367, 48.15446359 ], [ 17.20049758, 48.15451228 ], [ 17.20032482, 48.15454381 ], [ 17.19970284, 48.15465451 ], [ 17.1991727, 48.15482488 ], [ 17.19899493, 48.15489711 ], [ 17.19880869, 48.15495648 ], [ 17.19861658, 48.15500272 ], [ 17.19716792, 48.15529743 ], [ 17.19615184, 48.15550417 ], [ 17.20039333, 48.15469889 ], [ 17.20043188, 48.15471024 ], [ 17.20045846, 48.15472395 ], [ 17.20048007, 48.15474113 ], [ 17.20052961, 48.15473324 ], [ 17.20055577, 48.15478497 ], [ 17.20059195, 48.15483476 ], [ 17.2006347, 48.15487857 ], [ 17.20069053, 48.15492244 ], [ 17.20084732, 48.15503011 ], [ 17.20094127, 48.1550928 ], [ 17.20104608, 48.15513977 ], [ 17.20116597, 48.15517356 ], [ 17.20129208, 48.15519105 ], [ 17.20165959, 48.15521568 ], [ 17.2017579, 48.1552285 ], [ 17.20180928, 48.15524171 ], [ 17.19911258, 48.15697853 ] ] ] } },
{ "type": "Feature", "properties": { "@featureType": "CadastralParcel", "areaValue": { "value": 14185, "@uom": "m2" }, "beginLifespanVersion": { "@nilReason": "http://inspire.ec.europa.eu/codelist/VoidReasonValue/Unpopulated", "@nil": "true" }, "endLifespanVersion": { "@nilReason": "http://inspire.ec.europa.eu/codelist/VoidReasonValue/Unpopulated", "@nil": "true" }, "inspireId": { "@dataType": "Identifier", "localId": "870293_4001/2.C", "namespace": "SK.ESKN.CP", "versionId": "20260703T04:07:23" }, "label": "4001/2", "nationalCadastralReference": "870293_4001/2.C", "referencePoint": { "type": "Point", "coordinates": [ 17.20983153, 48.1614935 ] }, "validFrom": "2026-06-30T16:00:00Z", "validTo": { "@nilReason": "http://inspire.ec.europa.eu/codelist/VoidReasonValue/Unpopulated", "@nil": "true" }, "administrativeUnit": { "@href": "#auAdmUnitS.2311" } }, "geometry": { "type": "Polygon", "coordinates": [ [ [ 17.2087325, 48.16128649 ], [ 17.21013224, 48.1622575 ], [ 17.21049746, 48.16196976 ], [ 17.21083911, 48.16170052 ], [ 17.20967933, 48.1605405 ], [ 17.2087325, 48.16128649 ] ] ] } },
{ "type": "Feature", "properties": { "@featureType": "CadastralParcel", "areaValue": { "value": 1673, "@uom": "m2" }, "beginLifespanVersion": { "@nilReason": "http://inspire.ec.europa.eu/codelist/VoidReasonValue/Unpopulated", "@nil": "true" }, "endLifespanVersion": { "@nilReason": "http://inspire.ec.europa.eu/codelist/VoidReasonValue/Unpopulated", "@nil": "true" }, "inspireId": { "@dataType": "Identifier", "localId": "870293_4003.C", "namespace": "SK.ESKN.CP", "versionId": "20260703T04:07:23" }, "label": "4003", "nationalCadastralReference": "870293_4003.C", "referencePoint": { "type": "Point", "coordinates": [ 17.20112924, 48.15473817 ] }, "validFrom": "2026-06-30T16:00:00Z", "validTo": { "@nilReason": "http://inspire.ec.europa.eu/codelist/VoidReasonValue/Unpopulated", "@nil": "true" }, "administrativeUnit": { "@href": "#auAdmUnitS.2311" } }, "geometry": { "type": "Polygon", "coordinates": [ [ [ 17.20063585, 48.15468586 ], [ 17.20095846, 48.15492738 ], [ 17.201628, 48.15479049 ], [ 17.20134599, 48.15459444 ], [ 17.20126795, 48.15455722 ], [ 17.20063585, 48.15468586 ] ] ] } }
]
}
