{
"type": "FeatureCollection",
"name": "gis",
"crs": { "type": "name", "properties": { "name": "urn:ogc:def:crs:OGC:1.3:CRS84" } },
"features": [
{ "type": "Feature", "properties": { "@featureType": "CadastralZoning", "beginLifespanVersion": { "@nilReason": "http://inspire.ec.europa.eu/codelist/VoidReasonValue/Unpopulated", "@nil": "true" }, "endLifespanVersion": { "@nilReason": "http://inspire.ec.europa.eu/codelist/VoidReasonValue/Unpopulated", "@nil": "true" }, "estimatedAccuracy": { "value": -1, "@uom": "m" }, "inspireId": { "@dataType": "Identifier", "localId": "807753", "namespace": "SK.ESKN.CP", "versionId": "20260703T04:07:40" }, "label": "Bytčica", "level": { "@href": "http://inspire.ec.europa.eu/codelist/CadastralZoningLevelValue/3rdOrder" }, "levelName": { "value": "Katastrálne územie", "@locale": "sk" }, "name": { "@dataType": "name", "GeographicalName": { "@dataType": "GeographicalName", "language": "SLK", "nativeness": { "@href": "http://inspire.ec.europa.eu/codelist/NativenessValue/endonym", "@title": "endonym" }, "nameStatus": { "@href": "http://inspire.ec.europa.eu/codelist/NameStatusValue/official", "@title": "official" }, "sourceOfName": { "@nilReason": "http://inspire.ec.europa.eu/codelist/VoidReasonValue/Unpopulated", "@nil": "true" }, "pronunciation": { "@dataType": "pronunciation", "@nilReason": "http://inspire.ec.europa.eu/codelist/VoidReasonValue/Unpopulated", "@nil": "true" }, "spelling": { "@dataType": "SpellingOfName", "text": "Bytčica", "script": "LATN" } } }, "nationalCadastalZoningReference": "807753", "validFrom": "2026-06-30T16:00:00Z", "validTo": { "@nilReason": "http://inspire.ec.europa.eu/codelist/VoidReasonValue/Unpopulated", "@nil": "true" } }, "geometry": { "type": "MultiPolygon", "coordinates": [ [ [ [ 18.73468197, 49.19854398 ], [ 18.73466955, 49.19831149 ], [ 18.73458916, 49.19812732 ], [ 18.73452082, 49.19804192 ], [ 18.73451104, 49.19802959 ], [ 18.73445702, 49.19796226 ], [ 18.73452207, 49.19788592 ], [ 18.73459027, 49.19790915 ], [ 18.73461776, 49.19791853 ], [ 18.73492731, 49.19802395 ], [ 18.73504031, 49.19799811 ], [ 18.73515286, 49.197933 ], [ 18.73579826, 49.19749849 ], [ 18.73643538, 49.19706742 ], [ 18.73655081, 49.19699336 ], [ 18.73660248, 49.19696016 ], [ 18.73676287, 49.19685714 ], [ 18.73709968, 49.19668892 ], [ 18.73716212, 49.19665773 ], [ 18.73718364, 49.19664938 ], [ 18.73737053, 49.19657743 ], [ 18.73746585, 49.19654074 ], [ 18.73747408, 49.19653756 ], [ 18.73758846, 49.19649357 ], [ 18.73761502, 49.19648458 ], [ 18.73764259, 49.1964752 ], [ 18.73792919, 49.19637788 ], [ 18.73802325, 49.1963459 ], [ 18.73806505, 49.19633609 ], [ 18.73829075, 49.19628331 ], [ 18.73841417, 49.1962544 ], [ 18.73843429, 49.19624968 ], [ 18.73848374, 49.1962381 ], [ 18.73854838, 49.19622948 ], [ 18.73859203, 49.19622374 ], [ 18.73875725, 49.19620189 ], [ 18.73897636, 49.19617275 ], [ 18.73944516, 49.1961426 ], [ 18.73949462, 49.19614104 ], [ 18.73991748, 49.19612752 ], [ 18.73994677, 49.19612662 ], [ 18.73996332, 49.19612523 ], [ 18.74014238, 49.19611077 ], [ 18.74041237, 49.19608881 ], [ 18.74072453, 49.1960879 ], [ 18.74095349, 49.19610672 ], [ 18.74098076, 49.19610887 ], [ 18.7412104, 49.19612773 ], [ 18.74121885, 49.19612844 ], [ 18.74136345, 49.19614033 ], [ 18.74137776, 49.19614153 ], [ 18.74182533, 49.19617828 ], [ 18.74185081, 49.19618611 ], [ 18.74191597, 49.19620602 ], [ 18.74198684, 49.19622768 ], [ 18.74204271, 49.19624476 ], [ 18.74215977, 49.19628056 ], [ 18.74232447, 49.19633085 ], [ 18.7427053, 49.19642518 ], [ 18.7431667, 49.1965395 ], [ 18.74318755, 49.19654465 ], [ 18.74350715, 49.19662739 ], [ 18.7435225, 49.19663134 ], [ 18.74375711, 49.19669205 ], [ 18.74389003, 49.19672642 ], [ 18.74399919, 49.19675467 ], [ 18.74410568, 49.19678225 ], [ 18.74495261, 49.19698635 ], [ 18.7452356, 49.19705445 ], [ 18.74553315, 49.1971262 ], [ 18.74567109, 49.1971804 ], [ 18.74579714, 49.19723958 ], [ 18.7458947, 49.1972942 ], [ 18.74593881, 49.19732997 ], [ 18.74602471, 49.19739896 ], [ 18.74610304, 49.19749624 ], [ 18.74616433, 49.19758884 ], [ 18.7462444, 49.19771823 ], [ 18.74633189, 49.19790205 ], [ 18.74634813, 49.19805607 ], [ 18.74635102, 49.19807868 ], [ 18.74631961, 49.19822156 ], [ 18.7463183, 49.1982278 ], [ 18.74621921, 49.19848234 ], [ 18.74619458, 49.19854565 ], [ 18.74618881, 49.19856248 ], [ 18.74619779, 49.19856223 ], [ 18.74638419, 49.19855645 ], [ 18.74649722, 49.19855297 ], [ 18.74655553, 49.19855115 ], [ 18.74666303, 49.19885463 ], [ 18.74668193, 49.19886672 ], [ 18.74669112, 49.19887838 ], [ 18.7469054, 49.19882219 ], [ 18.74709373, 49.19876094 ], [ 18.74719718, 49.19873314 ], [ 18.74725493, 49.19872461 ], [ 18.74745876, 49.19863774 ], [ 18.74757816, 49.19860113 ], [ 18.74766337, 49.19858077 ], [ 18.74774524, 49.1985403 ], [ 18.74786648, 49.19850658 ], [ 18.74792255, 49.19853116 ], [ 18.74803118, 49.1985491 ], [ 18.74810415, 49.19854335 ], [ 18.74816446, 49.19850924 ], [ 18.74823485, 49.1984873 ], [ 18.74830338, 49.19842177 ], [ 18.74846773, 49.1984106 ], [ 18.74861337, 49.1984072 ], [ 18.74874103, 49.19837273 ], [ 18.74883151, 49.1983328 ], [ 18.74902184, 49.19822898 ], [ 18.74901392, 49.19822162 ], [ 18.74899096, 49.19819995 ], [ 18.74881775, 49.19800886 ], [ 18.7487397, 49.19778801 ], [ 18.74997627, 49.19748758 ], [ 18.74995601, 49.19741535 ], [ 18.74986651, 49.19709504 ], [ 18.74967995, 49.19642821 ], [ 18.74962598, 49.19621764 ], [ 18.74962934, 49.19608575 ], [ 18.74963503, 49.19585998 ], [ 18.7495285, 49.19553598 ], [ 18.74926095, 49.19498527 ], [ 18.74911902, 49.19474872 ], [ 18.74901679, 49.19447998 ], [ 18.74889586, 49.19369696 ], [ 18.74878497, 49.19328432 ], [ 18.7489143, 49.19254865 ], [ 18.74932335, 49.19139584 ], [ 18.74961978, 49.19056028 ], [ 18.7495815, 49.19037696 ], [ 18.74947589, 49.1897057 ], [ 18.7492852, 49.18910036 ], [ 18.74888159, 49.18782356 ], [ 18.74874732, 49.18595011 ], [ 18.74883692, 49.1859602 ], [ 18.75027632, 49.18610843 ], [ 18.75029564, 49.18602762 ], [ 18.75046607, 49.1848978 ], [ 18.75055722, 49.18404557 ], [ 18.75056687, 49.1838302 ], [ 18.75057494, 49.18365047 ], [ 18.75051594, 49.1834916 ], [ 18.75048056, 49.18339656 ], [ 18.75036185, 49.1832749 ], [ 18.75027374, 49.1831846 ], [ 18.75037571, 49.1831155 ], [ 18.75058953, 49.18287335 ], [ 18.75061633, 49.18271959 ], [ 18.75061694, 49.18271575 ], [ 18.75064151, 49.18257459 ], [ 18.75067698, 49.18252394 ], [ 18.75069314, 49.18250078 ], [ 18.75072259, 49.18245884 ], [ 18.75076405, 49.18239966 ], [ 18.75100283, 49.18244136 ], [ 18.75106738, 49.18245257 ], [ 18.75115888, 49.18246854 ], [ 18.75117822, 49.18244871 ], [ 18.7512037, 49.18242243 ], [ 18.75123969, 49.18238561 ], [ 18.75126861, 49.182356 ], [ 18.75128102, 49.1823433 ], [ 18.75135162, 49.18227076 ], [ 18.75136798, 49.18225393 ], [ 18.75138032, 49.18221344 ], [ 18.75139034, 49.18218085 ], [ 18.75141938, 49.18208566 ], [ 18.75144779, 49.18199225 ], [ 18.75146053, 49.18195078 ], [ 18.75147248, 49.18191126 ], [ 18.75148298, 49.18187699 ], [ 18.75149351, 49.18182991 ], [ 18.75150159, 49.18179398 ], [ 18.75151003, 49.18175626 ], [ 18.75151793, 49.18172068 ], [ 18.75152477, 49.18169036 ], [ 18.75152611, 49.18167708 ], [ 18.75153071, 49.18163357 ], [ 18.75153524, 49.18158943 ], [ 18.75153837, 49.18155919 ], [ 18.75159469, 49.18152713 ], [ 18.75164259, 49.18149986 ], [ 18.75168576, 49.18147523 ], [ 18.75172405, 49.18145341 ], [ 18.75176248, 49.1814316 ], [ 18.75180136, 49.18140946 ], [ 18.75181629, 49.18140094 ], [ 18.75182742, 49.18138186 ], [ 18.75184655, 49.18134894 ], [ 18.75186428, 49.18131856 ], [ 18.75187819, 49.18129466 ], [ 18.75188585, 49.18128144 ], [ 18.75188571, 49.18125996 ], [ 18.75188566, 49.18122974 ], [ 18.75188556, 49.18119771 ], [ 18.75188531, 49.18116693 ], [ 18.75188527, 49.18114122 ], [ 18.75188937, 49.18110292 ], [ 18.75189257, 49.18107205 ], [ 18.75189599, 49.1810393 ], [ 18.75189936, 49.18100818 ], [ 18.75190295, 49.18097408 ], [ 18.75190462, 49.18095802 ], [ 18.75190345, 49.18093821 ], [ 18.75190134, 49.18090463 ], [ 18.75189873, 49.18086155 ], [ 18.75189466, 49.18079648 ], [ 18.75188879, 49.18077912 ], [ 18.75185934, 49.18069297 ], [ 18.75182981, 49.18060645 ], [ 18.75180219, 49.18052563 ], [ 18.7518508, 49.18046303 ], [ 18.75189632, 49.18040434 ], [ 18.75193791, 49.18035085 ], [ 18.75198719, 49.1802873 ], [ 18.75201589, 49.18025036 ], [ 18.7520362, 49.18022815 ], [ 18.7520898, 49.18016979 ], [ 18.75214643, 49.18010797 ], [ 18.752165, 49.18008765 ], [ 18.75222765, 49.18006124 ], [ 18.75234687, 49.18001099 ], [ 18.75244201, 49.17997086 ], [ 18.75246594, 49.17991545 ], [ 18.75248511, 49.1798709 ], [ 18.75250695, 49.17982026 ], [ 18.75252977, 49.17976714 ], [ 18.75255351, 49.17971218 ], [ 18.75257551, 49.17966128 ], [ 18.75259679, 49.17961187 ], [ 18.75261766, 49.17956353 ], [ 18.75263913, 49.17951359 ], [ 18.75266137, 49.17946189 ], [ 18.75268414, 49.17940922 ], [ 18.75270656, 49.17935717 ], [ 18.75272767, 49.17930802 ], [ 18.75274778, 49.17926135 ], [ 18.75276941, 49.17921133 ], [ 18.75278759, 49.17916925 ], [ 18.75280697, 49.17912407 ], [ 18.75282707, 49.17907758 ], [ 18.75290186, 49.178992 ], [ 18.75296736, 49.17891711 ], [ 18.75298925, 49.17889209 ], [ 18.75307127, 49.17885353 ], [ 18.75318073, 49.17880196 ], [ 18.75330945, 49.17874138 ], [ 18.75341029, 49.17869396 ], [ 18.75366738, 49.1787412 ], [ 18.75378648, 49.17868391 ], [ 18.75380797, 49.17863605 ], [ 18.75383211, 49.17858228 ], [ 18.7538706, 49.17849651 ], [ 18.75387131, 49.17842493 ], [ 18.75387183, 49.17835603 ], [ 18.75387204, 49.17834071 ], [ 18.75385228, 49.17828925 ], [ 18.75382095, 49.17820724 ], [ 18.75378637, 49.17811694 ], [ 18.75375803, 49.1780432 ], [ 18.75373014, 49.17797039 ], [ 18.75369442, 49.17787696 ], [ 18.75365963, 49.17778611 ], [ 18.75362627, 49.1776993 ], [ 18.75361155, 49.17766074 ], [ 18.75359589, 49.17761978 ], [ 18.75356319, 49.17753436 ], [ 18.75354771, 49.17749413 ], [ 18.7535267, 49.17745298 ], [ 18.75347669, 49.17735492 ], [ 18.75344234, 49.17728764 ], [ 18.75337241, 49.17715075 ], [ 18.7533504, 49.17710765 ], [ 18.75331996, 49.17702858 ], [ 18.75328409, 49.17693523 ], [ 18.75325459, 49.17685864 ], [ 18.7532226, 49.17677533 ], [ 18.75321401, 49.17675314 ], [ 18.75320222, 49.17673241 ], [ 18.75317455, 49.17668378 ], [ 18.75313734, 49.17661851 ], [ 18.75311883, 49.17658625 ], [ 18.7530965, 49.17654692 ], [ 18.75307822, 49.17651503 ], [ 18.75305815, 49.17647979 ], [ 18.75303501, 49.17643916 ], [ 18.75301391, 49.17640215 ], [ 18.75299554, 49.17636989 ], [ 18.75297467, 49.17633326 ], [ 18.75295446, 49.17629793 ], [ 18.75293099, 49.17625665 ], [ 18.75290476, 49.1762155 ], [ 18.75288348, 49.17618218 ], [ 18.75286163, 49.17614802 ], [ 18.75283919, 49.17611293 ], [ 18.75281492, 49.17607486 ], [ 18.75278752, 49.17603194 ], [ 18.75276046, 49.17598966 ], [ 18.75273074, 49.17594318 ], [ 18.75270865, 49.17590865 ], [ 18.75268427, 49.17587039 ], [ 18.75265744, 49.1758284 ], [ 18.75262596, 49.17578851 ], [ 18.75259101, 49.17574437 ], [ 18.75256227, 49.17570796 ], [ 18.75252934, 49.17566637 ], [ 18.75249608, 49.17562413 ], [ 18.75245946, 49.17557784 ], [ 18.75242416, 49.17553314 ], [ 18.7523953, 49.17549664 ], [ 18.75238993, 49.17548986 ], [ 18.75237419, 49.17546991 ], [ 18.75233994, 49.17543358 ], [ 18.75228864, 49.17537903 ], [ 18.75223049, 49.17531736 ], [ 18.75217578, 49.1752592 ], [ 18.7521213, 49.17520133 ], [ 18.75209546, 49.17517391 ], [ 18.75192872, 49.17499696 ], [ 18.7518987, 49.17496662 ], [ 18.75186769, 49.17493532 ], [ 18.75183645, 49.17490365 ], [ 18.75180114, 49.17486807 ], [ 18.75175894, 49.17483601 ], [ 18.75171586, 49.17480327 ], [ 18.75167719, 49.17477391 ], [ 18.75163688, 49.1747433 ], [ 18.7516001, 49.17471531 ], [ 18.75155425, 49.17468044 ], [ 18.75151507, 49.1746507 ], [ 18.7514691, 49.17461574 ], [ 18.75142122, 49.17457941 ], [ 18.75138445, 49.17455142 ], [ 18.75132587, 49.17450695 ], [ 18.75130531, 49.1744836 ], [ 18.75100133, 49.17413846 ], [ 18.75056957, 49.17367858 ], [ 18.75045775, 49.1734925 ], [ 18.75022113, 49.17318525 ], [ 18.7503428, 49.17281227 ], [ 18.74976558, 49.17211268 ], [ 18.74932097, 49.17172149 ], [ 18.74870617, 49.17143678 ], [ 18.74835473, 49.17114617 ], [ 18.74841442, 49.1709335 ], [ 18.74855918, 49.17074982 ], [ 18.7492504, 49.17028075 ], [ 18.74931435, 49.16969773 ], [ 18.74931013, 49.16937004 ], [ 18.74901856, 49.16924476 ], [ 18.74895441, 49.1688102 ], [ 18.74930544, 49.16867247 ], [ 18.74941514, 49.16836969 ], [ 18.74943996, 49.1681653 ], [ 18.74936923, 49.16800013 ], [ 18.74933878, 49.1678091 ], [ 18.74928179, 49.16757609 ], [ 18.74926274, 49.16752909 ], [ 18.74978812, 49.16716772 ], [ 18.74998531, 49.16638237 ], [ 18.75028021, 49.16600446 ], [ 18.75006144, 49.16549507 ], [ 18.74981923, 49.16511075 ], [ 18.74980018, 49.16467855 ], [ 18.75126459, 49.1640947 ], [ 18.75106178, 49.16332246 ], [ 18.75054321, 49.16345478 ], [ 18.75006455, 49.16358007 ], [ 18.74954867, 49.16371288 ], [ 18.74921115, 49.16379845 ], [ 18.74874368, 49.16390754 ], [ 18.74853919, 49.16395685 ], [ 18.74810525, 49.16406047 ], [ 18.74771081, 49.16410391 ], [ 18.74738024, 49.16414816 ], [ 18.74698791, 49.16418439 ], [ 18.74592956, 49.16438428 ], [ 18.74587341, 49.16438225 ], [ 18.74544024, 49.16436628 ], [ 18.74538285, 49.16436419 ], [ 18.74502994, 49.16435115 ], [ 18.74484225, 49.16437878 ], [ 18.74458326, 49.16441693 ], [ 18.74375389, 49.1645391 ], [ 18.74356928, 49.16456625 ], [ 18.74321055, 49.16461912 ], [ 18.74265627, 49.164607 ], [ 18.74252633, 49.16485541 ], [ 18.7420684, 49.16552491 ], [ 18.74173426, 49.16601352 ], [ 18.74163371, 49.16614574 ], [ 18.74162718, 49.16615415 ], [ 18.7416115, 49.1662605 ], [ 18.74158114, 49.16633929 ], [ 18.74159067, 49.1663729 ], [ 18.7417719, 49.1665591 ], [ 18.74191095, 49.16670196 ], [ 18.74193943, 49.16673132 ], [ 18.74198092, 49.16681432 ], [ 18.74201731, 49.16691672 ], [ 18.74197731, 49.16703407 ], [ 18.74195616, 49.16709602 ], [ 18.74195171, 49.16719709 ], [ 18.74195661, 49.16729929 ], [ 18.74193482, 49.16737329 ], [ 18.74194611, 49.16745805 ], [ 18.74192868, 49.16751199 ], [ 18.74193679, 49.16755959 ], [ 18.7420181, 49.1676251 ], [ 18.74201297, 49.16767409 ], [ 18.74207913, 49.16774999 ], [ 18.74209589, 49.16774906 ], [ 18.74216721, 49.16774521 ], [ 18.74227117, 49.16781343 ], [ 18.74231917, 49.16788252 ], [ 18.74234877, 49.16790382 ], [ 18.74235384, 49.16790743 ], [ 18.74239014, 49.16793359 ], [ 18.74244871, 49.16797572 ], [ 18.74245238, 49.16801235 ], [ 18.74245869, 49.16807583 ], [ 18.74246283, 49.16808363 ], [ 18.74249571, 49.1681447 ], [ 18.74250698, 49.16824552 ], [ 18.74256338, 49.16830322 ], [ 18.74255138, 49.16834085 ], [ 18.74260513, 49.16833888 ], [ 18.74260733, 49.16834116 ], [ 18.74263706, 49.16837275 ], [ 18.74265036, 49.16840475 ], [ 18.74265441, 49.16841443 ], [ 18.74266182, 49.16849267 ], [ 18.74259835, 49.16854285 ], [ 18.74247108, 49.16858482 ], [ 18.74244184, 49.16859447 ], [ 18.74241508, 49.16864594 ], [ 18.74241148, 49.16865297 ], [ 18.74241496, 49.16865712 ], [ 18.74244711, 49.16869597 ], [ 18.74231437, 49.16878627 ], [ 18.74232611, 49.16881422 ], [ 18.74225565, 49.16890823 ], [ 18.74221238, 49.16891454 ], [ 18.74217288, 49.16892032 ], [ 18.74211371, 49.16896116 ], [ 18.74211673, 49.16896908 ], [ 18.74213241, 49.16900986 ], [ 18.74206512, 49.16908122 ], [ 18.74208129, 49.16918355 ], [ 18.74207811, 49.16921198 ], [ 18.74207778, 49.16921467 ], [ 18.74207445, 49.16924318 ], [ 18.74206862, 49.16929457 ], [ 18.74209847, 49.16933753 ], [ 18.74208503, 49.1694062 ], [ 18.74206845, 49.16943962 ], [ 18.74201649, 49.16954443 ], [ 18.74204323, 49.1695802 ], [ 18.74208452, 49.16963549 ], [ 18.74208571, 49.16963709 ], [ 18.74208017, 49.16966224 ], [ 18.74207321, 49.16969345 ], [ 18.74209351, 49.16975053 ], [ 18.74209914, 49.16976643 ], [ 18.74210685, 49.16976756 ], [ 18.74216524, 49.16977611 ], [ 18.74216546, 49.16985578 ], [ 18.74216541, 49.16986291 ], [ 18.7421053, 49.16989115 ], [ 18.74206111, 49.1699445 ], [ 18.74209413, 49.17002372 ], [ 18.74210905, 49.17005941 ], [ 18.74207555, 49.17014706 ], [ 18.74199009, 49.17016532 ], [ 18.74195825, 49.17015789 ], [ 18.74189111, 49.17014211 ], [ 18.74185644, 49.17018053 ], [ 18.74187325, 49.1702211 ], [ 18.74188003, 49.17023661 ], [ 18.74190066, 49.17028415 ], [ 18.74194671, 49.17033428 ], [ 18.74193674, 49.17040719 ], [ 18.74194197, 49.17044111 ], [ 18.74192168, 49.17046197 ], [ 18.74194238, 49.17048975 ], [ 18.7419438, 49.17049163 ], [ 18.74196348, 49.17049383 ], [ 18.7420631, 49.17050509 ], [ 18.7420507, 49.17054711 ], [ 18.74209636, 49.17059361 ], [ 18.74213994, 49.17060401 ], [ 18.74222456, 49.17062431 ], [ 18.7422802, 49.17069172 ], [ 18.74230843, 49.17072883 ], [ 18.7422983, 49.17080985 ], [ 18.74234747, 49.1708762 ], [ 18.74234885, 49.17096098 ], [ 18.74238022, 49.17099943 ], [ 18.74239853, 49.17102195 ], [ 18.74241407, 49.1710933 ], [ 18.74246932, 49.17134833 ], [ 18.74247718, 49.17139231 ], [ 18.74248832, 49.1715394 ], [ 18.74246388, 49.17162499 ], [ 18.74244173, 49.17167922 ], [ 18.74236748, 49.17176032 ], [ 18.74233893, 49.17180727 ], [ 18.74223996, 49.17192424 ], [ 18.74170648, 49.17249029 ], [ 18.74164056, 49.17258093 ], [ 18.74149235, 49.17272482 ], [ 18.74133596, 49.17284321 ], [ 18.74130424, 49.17290037 ], [ 18.74112218, 49.17297303 ], [ 18.74061949, 49.17318408 ], [ 18.7405138, 49.17318992 ], [ 18.74050297, 49.17321335 ], [ 18.74022667, 49.17325086 ], [ 18.74017046, 49.17324016 ], [ 18.74001996, 49.17326151 ], [ 18.73988831, 49.17327943 ], [ 18.73968977, 49.17331451 ], [ 18.73948381, 49.17337888 ], [ 18.73904793, 49.17353488 ], [ 18.7389866, 49.17356739 ], [ 18.7388958, 49.17357978 ], [ 18.73876587, 49.17361628 ], [ 18.73867933, 49.17365695 ], [ 18.73846958, 49.17372987 ], [ 18.73838108, 49.17376629 ], [ 18.73829936, 49.17378429 ], [ 18.73827193, 49.17381299 ], [ 18.73822945, 49.17381834 ], [ 18.7379445, 49.17393027 ], [ 18.73791273, 49.17396298 ], [ 18.73775604, 49.17401928 ], [ 18.73754278, 49.17407343 ], [ 18.73742085, 49.17412677 ], [ 18.7373611, 49.17413276 ], [ 18.73731984, 49.17412699 ], [ 18.73691287, 49.17419004 ], [ 18.73689151, 49.17418242 ], [ 18.73683728, 49.17420295 ], [ 18.73665029, 49.17423574 ], [ 18.73658035, 49.17425075 ], [ 18.73649655, 49.17425539 ], [ 18.73639591, 49.17428296 ], [ 18.73635994, 49.17431175 ], [ 18.73630596, 49.17434257 ], [ 18.73612354, 49.17438309 ], [ 18.73604028, 49.17441707 ], [ 18.73591834, 49.1744309 ], [ 18.73585698, 49.1744478 ], [ 18.73583305, 49.17446694 ], [ 18.73577467, 49.1744628 ], [ 18.73563212, 49.1744888 ], [ 18.73551595, 49.17449706 ], [ 18.73545406, 49.1745014 ], [ 18.73544055, 49.17450042 ], [ 18.73543496, 49.17450004 ], [ 18.73536894, 49.17449532 ], [ 18.7353489, 49.17449382 ], [ 18.73532816, 49.17449238 ], [ 18.73530839, 49.17449991 ], [ 18.73526771, 49.17451537 ], [ 18.73523308, 49.17452853 ], [ 18.73521698, 49.17454095 ], [ 18.73520604, 49.17454949 ], [ 18.73519922, 49.1745467 ], [ 18.7351563, 49.17454779 ], [ 18.73515255, 49.17454922 ], [ 18.73514693, 49.17455127 ], [ 18.73513995, 49.17454874 ], [ 18.73511081, 49.17453828 ], [ 18.73502595, 49.17454818 ], [ 18.73502109, 49.17456326 ], [ 18.73493471, 49.1745766 ], [ 18.73491859, 49.17457901 ], [ 18.73489994, 49.17458191 ], [ 18.7348408, 49.1746269 ], [ 18.73479986, 49.17465804 ], [ 18.7347401, 49.17470354 ], [ 18.73471509, 49.17472252 ], [ 18.73470854, 49.17472317 ], [ 18.73466702, 49.1747274 ], [ 18.73461199, 49.174733 ], [ 18.7346092, 49.17473331 ], [ 18.73456963, 49.17473737 ], [ 18.734496, 49.17475111 ], [ 18.73441198, 49.17477557 ], [ 18.73434961, 49.17478151 ], [ 18.7343194, 49.17478444 ], [ 18.73410379, 49.17479688 ], [ 18.73406554, 49.17479911 ], [ 18.7340291, 49.17480117 ], [ 18.73397665, 49.17480591 ], [ 18.73396539, 49.17480686 ], [ 18.73396025, 49.17480731 ], [ 18.73383866, 49.17481826 ], [ 18.73378749, 49.17482939 ], [ 18.73372941, 49.17484195 ], [ 18.73368978, 49.17485557 ], [ 18.73364526, 49.17487083 ], [ 18.73351853, 49.17487998 ], [ 18.73345453, 49.17488466 ], [ 18.7334462, 49.17488522 ], [ 18.73338456, 49.17487622 ], [ 18.73331236, 49.17486576 ], [ 18.7332649, 49.17485885 ], [ 18.73324326, 49.17484563 ], [ 18.73323188, 49.17483854 ], [ 18.73322534, 49.17483459 ], [ 18.73316846, 49.17483504 ], [ 18.73316392, 49.17483507 ], [ 18.73310873, 49.17484986 ], [ 18.73298229, 49.17485434 ], [ 18.73296335, 49.17485957 ], [ 18.73285257, 49.17489021 ], [ 18.73282645, 49.17493747 ], [ 18.73279458, 49.17494157 ], [ 18.73272984, 49.17495 ], [ 18.73271857, 49.1749477 ], [ 18.7326344, 49.17493039 ], [ 18.73260943, 49.17492529 ], [ 18.73253898, 49.17493098 ], [ 18.73244699, 49.17493835 ], [ 18.73242323, 49.17494026 ], [ 18.73241784, 49.17494611 ], [ 18.73240166, 49.17496376 ], [ 18.73237429, 49.17505064 ], [ 18.73234415, 49.17506539 ], [ 18.73232204, 49.17507632 ], [ 18.73224613, 49.17508272 ], [ 18.73217621, 49.17508853 ], [ 18.73214019, 49.17505669 ], [ 18.73210501, 49.17506423 ], [ 18.73209927, 49.17511364 ], [ 18.73208711, 49.17513212 ], [ 18.73202506, 49.17515576 ], [ 18.73195481, 49.17518239 ], [ 18.73193461, 49.17519008 ], [ 18.73188822, 49.17519135 ], [ 18.73186959, 49.17519182 ], [ 18.73183396, 49.17523352 ], [ 18.73180169, 49.17527144 ], [ 18.73179941, 49.17527204 ], [ 18.73172941, 49.17529092 ], [ 18.73172759, 49.17529344 ], [ 18.7317087, 49.17531979 ], [ 18.73168623, 49.17533142 ], [ 18.73162884, 49.17536089 ], [ 18.73160256, 49.1753744 ], [ 18.73147992, 49.17540298 ], [ 18.7314685, 49.17540409 ], [ 18.73142772, 49.17540791 ], [ 18.73141355, 49.17541926 ], [ 18.73136814, 49.1754554 ], [ 18.73133857, 49.17547902 ], [ 18.73125692, 49.17548737 ], [ 18.7312363, 49.17548945 ], [ 18.73118689, 49.17546584 ], [ 18.73117117, 49.17545825 ], [ 18.7311371, 49.17547812 ], [ 18.73109473, 49.17550287 ], [ 18.73105193, 49.17552778 ], [ 18.73102705, 49.17554227 ], [ 18.73100808, 49.17554551 ], [ 18.73093208, 49.17555831 ], [ 18.73088065, 49.17556707 ], [ 18.73086247, 49.17562368 ], [ 18.73085663, 49.17563095 ], [ 18.73083573, 49.17565683 ], [ 18.73079039, 49.17565968 ], [ 18.73075946, 49.17566167 ], [ 18.73069875, 49.17569015 ], [ 18.73066858, 49.17573675 ], [ 18.73063951, 49.1757585 ], [ 18.73060376, 49.1757854 ], [ 18.73058009, 49.17581249 ], [ 18.73052992, 49.17586967 ], [ 18.73050803, 49.1758946 ], [ 18.73046117, 49.17588961 ], [ 18.73036813, 49.1758796 ], [ 18.73032802, 49.17587569 ], [ 18.73031681, 49.17587285 ], [ 18.73031173, 49.17587159 ], [ 18.73018132, 49.1758386 ], [ 18.73011925, 49.1758229 ], [ 18.73011228, 49.17582479 ], [ 18.73010245, 49.17582752 ], [ 18.73009832, 49.17582866 ], [ 18.73007212, 49.17583594 ], [ 18.73005261, 49.17584133 ], [ 18.73001759, 49.17585095 ], [ 18.7300146, 49.17585178 ], [ 18.72998273, 49.17588187 ], [ 18.72996734, 49.17589631 ], [ 18.7299521, 49.17591075 ], [ 18.72994992, 49.17591281 ], [ 18.72993562, 49.17592631 ], [ 18.72991082, 49.17593674 ], [ 18.72986078, 49.17595775 ], [ 18.72980335, 49.17597179 ], [ 18.72974825, 49.17597116 ], [ 18.72971206, 49.17599037 ], [ 18.72967612, 49.17596233 ], [ 18.72964772, 49.17594018 ], [ 18.72958021, 49.17594097 ], [ 18.72954741, 49.17594133 ], [ 18.72952679, 49.17596262 ], [ 18.72951733, 49.1759725 ], [ 18.72945765, 49.17603433 ], [ 18.72943134, 49.17606164 ], [ 18.72941536, 49.17605953 ], [ 18.72934762, 49.17605084 ], [ 18.7293393, 49.17605023 ], [ 18.72931706, 49.1760487 ], [ 18.72924597, 49.1760438 ], [ 18.72922211, 49.17603182 ], [ 18.72920824, 49.17602487 ], [ 18.72918591, 49.17602965 ], [ 18.72915258, 49.17603674 ], [ 18.72910116, 49.17604767 ], [ 18.72909151, 49.1760625 ], [ 18.72908847, 49.17606712 ], [ 18.72906067, 49.17611005 ], [ 18.72902518, 49.17611902 ], [ 18.72897932, 49.1761306 ], [ 18.72891341, 49.17613174 ], [ 18.72890666, 49.17613184 ], [ 18.7288619, 49.17611632 ], [ 18.72882507, 49.17610357 ], [ 18.72880172, 49.17611335 ], [ 18.72875617, 49.17613261 ], [ 18.72875411, 49.17614162 ], [ 18.72875147, 49.17615312 ], [ 18.72874548, 49.1761537 ], [ 18.72868341, 49.17615947 ], [ 18.72867762, 49.17615953 ], [ 18.72867556, 49.17615951 ], [ 18.72864831, 49.17615953 ], [ 18.72864228, 49.17616165 ], [ 18.7285378, 49.17619812 ], [ 18.72850346, 49.17621003 ], [ 18.72846619, 49.17621214 ], [ 18.72846037, 49.17621246 ], [ 18.72835569, 49.17626526 ], [ 18.72834308, 49.17627163 ], [ 18.72823878, 49.17629422 ], [ 18.72818379, 49.17629044 ], [ 18.72817328, 49.1762897 ], [ 18.72812702, 49.17634069 ], [ 18.72807386, 49.17633204 ], [ 18.72801197, 49.17635667 ], [ 18.728006, 49.17635825 ], [ 18.72796978, 49.17636754 ], [ 18.72792504, 49.17637899 ], [ 18.72790103, 49.17638513 ], [ 18.72787217, 49.17639616 ], [ 18.72783927, 49.17640869 ], [ 18.72767003, 49.17642327 ], [ 18.72770916, 49.17692844 ], [ 18.72765699, 49.17706291 ], [ 18.72754958, 49.1774157 ], [ 18.72750313, 49.17760821 ], [ 18.7274779, 49.17768312 ], [ 18.72746859, 49.17771086 ], [ 18.72745696, 49.17774535 ], [ 18.72743275, 49.17781751 ], [ 18.72724631, 49.17818076 ], [ 18.72724299, 49.17818997 ], [ 18.72720216, 49.17830583 ], [ 18.72719601, 49.17832355 ], [ 18.72719351, 49.17833055 ], [ 18.72718798, 49.17834658 ], [ 18.72716185, 49.1784209 ], [ 18.72716078, 49.178424 ], [ 18.72715843, 49.17843092 ], [ 18.72715674, 49.1784357 ], [ 18.72713611, 49.17846836 ], [ 18.72703903, 49.1786224 ], [ 18.72681982, 49.17887406 ], [ 18.72633106, 49.17915606 ], [ 18.72602635, 49.17931104 ], [ 18.72575459, 49.17947451 ], [ 18.72560976, 49.17958897 ], [ 18.72548647, 49.17972432 ], [ 18.72538495, 49.17984818 ], [ 18.72534812, 49.17995495 ], [ 18.72534731, 49.17995708 ], [ 18.7253443, 49.17996594 ], [ 18.72514374, 49.1805474 ], [ 18.72506136, 49.18073207 ], [ 18.72496952, 49.18085319 ], [ 18.72496217, 49.18086381 ], [ 18.72489061, 49.18096642 ], [ 18.7247228, 49.18115645 ], [ 18.72466866, 49.18118969 ], [ 18.72463256, 49.18122497 ], [ 18.72417737, 49.18172325 ], [ 18.72409524, 49.18191371 ], [ 18.72401357, 49.18217365 ], [ 18.72398846, 49.18238731 ], [ 18.72399546, 49.18248448 ], [ 18.72401351, 49.18288921 ], [ 18.72399687, 49.18307292 ], [ 18.72399451, 49.18309904 ], [ 18.72396392, 49.18327985 ], [ 18.72376467, 49.18353119 ], [ 18.72349961, 49.18374887 ], [ 18.72346609, 49.18376984 ], [ 18.72344835, 49.183781 ], [ 18.72332534, 49.1838699 ], [ 18.7223894, 49.18454071 ], [ 18.72211838, 49.18495825 ], [ 18.72202517, 49.18492927 ], [ 18.72199055, 49.18491862 ], [ 18.72198485, 49.18491678 ], [ 18.72197372, 49.18491331 ], [ 18.72194892, 49.18490561 ], [ 18.7219277, 49.18489908 ], [ 18.72190993, 49.18489355 ], [ 18.72190569, 49.18489224 ], [ 18.72187188, 49.18488172 ], [ 18.72167299, 49.18522582 ], [ 18.72152413, 49.18596046 ], [ 18.72156877, 49.18625436 ], [ 18.72159299, 49.18641333 ], [ 18.72159354, 49.18641669 ], [ 18.72162723, 49.18663795 ], [ 18.72198201, 49.18731691 ], [ 18.7220573, 49.18740142 ], [ 18.72231372, 49.18768884 ], [ 18.72236511, 49.18774476 ], [ 18.72281692, 49.18823666 ], [ 18.72293675, 49.18846035 ], [ 18.72298225, 49.18854537 ], [ 18.72302854, 49.18863188 ], [ 18.72306956, 49.18870846 ], [ 18.72335305, 49.18923771 ], [ 18.72354138, 49.19011813 ], [ 18.72366041, 49.1916725 ], [ 18.72367611, 49.19179763 ], [ 18.72382388, 49.19301846 ], [ 18.72383155, 49.19308192 ], [ 18.72383778, 49.19313349 ], [ 18.72384307, 49.19317698 ], [ 18.72388807, 49.19328308 ], [ 18.72390755, 49.19332758 ], [ 18.72407575, 49.19371222 ], [ 18.72418799, 49.19397007 ], [ 18.72422927, 49.19405027 ], [ 18.72428325, 49.19415612 ], [ 18.72449712, 49.19457599 ], [ 18.72451932, 49.19461973 ], [ 18.72456273, 49.194705 ], [ 18.72463442, 49.19485075 ], [ 18.724764, 49.19526431 ], [ 18.72477758, 49.19530869 ], [ 18.72483318, 49.19549148 ], [ 18.72487444, 49.19562039 ], [ 18.72489419, 49.19581953 ], [ 18.72490262, 49.19590495 ], [ 18.72490528, 49.19593171 ], [ 18.72490752, 49.1959551 ], [ 18.72491392, 49.19601885 ], [ 18.72492629, 49.19614417 ], [ 18.72494521, 49.19633542 ], [ 18.72487095, 49.19692711 ], [ 18.72497229, 49.19692466 ], [ 18.72502654, 49.19692335 ], [ 18.72505305, 49.19692276 ], [ 18.72506879, 49.19692232 ], [ 18.72529741, 49.19691689 ], [ 18.72532558, 49.1969162 ], [ 18.72534187, 49.1969158 ], [ 18.7253971, 49.19691445 ], [ 18.72548255, 49.19691243 ], [ 18.72583875, 49.19690386 ], [ 18.72585269, 49.19690351 ], [ 18.72586941, 49.19690303 ], [ 18.72591845, 49.19690154 ], [ 18.72628243, 49.19689013 ], [ 18.72669801, 49.19687997 ], [ 18.72719061, 49.19686808 ], [ 18.72720966, 49.19686763 ], [ 18.72755248, 49.19685925 ], [ 18.7275021, 49.19708268 ], [ 18.72748616, 49.19714337 ], [ 18.72748586, 49.19714471 ], [ 18.72747917, 49.19717025 ], [ 18.72746603, 49.19723172 ], [ 18.72746019, 49.19725928 ], [ 18.7274428, 49.19734092 ], [ 18.72744062, 49.19735082 ], [ 18.72742, 49.19742172 ], [ 18.72739201, 49.19751805 ], [ 18.72750767, 49.19752907 ], [ 18.7276202, 49.19753984 ], [ 18.72765218, 49.19754286 ], [ 18.72771477, 49.19754885 ], [ 18.72772941, 49.1975507 ], [ 18.72773375, 49.1975512 ], [ 18.72789242, 49.19757079 ], [ 18.72886769, 49.19768954 ], [ 18.72951333, 49.19770956 ], [ 18.72958629, 49.19771184 ], [ 18.72966573, 49.19769255 ], [ 18.7298532, 49.19770625 ], [ 18.73001433, 49.19771803 ], [ 18.73005606, 49.19773483 ], [ 18.73007994, 49.19774447 ], [ 18.73015866, 49.19777619 ], [ 18.73017231, 49.19778169 ], [ 18.7302143, 49.19779859 ], [ 18.73024513, 49.19781103 ], [ 18.73026153, 49.19781767 ], [ 18.73028187, 49.19782586 ], [ 18.7303089, 49.19783675 ], [ 18.73033619, 49.19783529 ], [ 18.73040879, 49.19783151 ], [ 18.7304419, 49.19782973 ], [ 18.7305334, 49.19808864 ], [ 18.73055039, 49.19813671 ], [ 18.73124833, 49.19817498 ], [ 18.73125517, 49.19817534 ], [ 18.73208821, 49.19822103 ], [ 18.73276701, 49.19825819 ], [ 18.73275487, 49.19830131 ], [ 18.73272697, 49.19840034 ], [ 18.73272483, 49.19840781 ], [ 18.73271296, 49.19844985 ], [ 18.73267115, 49.19859859 ], [ 18.73266848, 49.1986081 ], [ 18.73266264, 49.1986289 ], [ 18.73270541, 49.19863259 ], [ 18.73272694, 49.19863444 ], [ 18.73283455, 49.19864377 ], [ 18.73306532, 49.1986637 ], [ 18.73309474, 49.19866623 ], [ 18.73313875, 49.19866998 ], [ 18.73314651, 49.19867065 ], [ 18.73326939, 49.19868123 ], [ 18.73329595, 49.19868587 ], [ 18.73339953, 49.19869328 ], [ 18.73345179, 49.19869701 ], [ 18.73349539, 49.19870073 ], [ 18.73421569, 49.1987544 ], [ 18.73447885, 49.19877395 ], [ 18.73448786, 49.1987746 ], [ 18.73453341, 49.19877806 ], [ 18.73468197, 49.19854398 ] ] ] ] } }
]
}
