{
"type": "FeatureCollection",
"name": "gis",
"crs": { "type": "name", "properties": { "name": "urn:ogc:def:crs:OGC:1.3:CRS84" } },
"features": [
{ "type": "Feature", "properties": { "@featureType": "CadastralParcel", "areaValue": { "value": 957, "@uom": "m2" }, "beginLifespanVersion": { "@nilReason": "http://inspire.ec.europa.eu/codelist/VoidReasonValue/Unpopulated", "@nil": "true" }, "endLifespanVersion": { "@nilReason": "http://inspire.ec.europa.eu/codelist/VoidReasonValue/Unpopulated", "@nil": "true" }, "inspireId": { "@dataType": "Identifier", "localId": "806528_693/8.C", "namespace": "SK.ESKN.CP", "versionId": "20260703T06:07:11" }, "label": "693/8", "nationalCadastralReference": "806528_693/8.C", "referencePoint": { "type": "Point", "coordinates": [ 19.62856475, 48.80586468 ] }, "validFrom": "2026-06-30T16:00:00Z", "validTo": { "@nilReason": "http://inspire.ec.europa.eu/codelist/VoidReasonValue/Unpopulated", "@nil": "true" }, "administrativeUnit": { "@href": "#auAdmUnitS.569" } }, "geometry": { "type": "Polygon", "coordinates": [ [ [ 19.62838578, 48.80555768 ], [ 19.62839983, 48.80569289 ], [ 19.62840083, 48.80569636 ], [ 19.62844348, 48.80604793 ], [ 19.6287286, 48.80603299 ], [ 19.62868674, 48.80568695 ], [ 19.62865002, 48.80568972 ], [ 19.62863658, 48.80568641 ], [ 19.62862444, 48.80567712 ], [ 19.62861843, 48.80566919 ], [ 19.62861093, 48.80561621 ], [ 19.62845405, 48.80562493 ], [ 19.62844514, 48.80562399 ], [ 19.62843729, 48.80562066 ], [ 19.62842756, 48.80561445 ], [ 19.6284137, 48.80560193 ], [ 19.62839755, 48.80558255 ], [ 19.62838987, 48.80556967 ], [ 19.62838578, 48.80555768 ] ] ] } },
{ "type": "Feature", "properties": { "@featureType": "CadastralParcel", "areaValue": { "value": 1295, "@uom": "m2" }, "beginLifespanVersion": { "@nilReason": "http://inspire.ec.europa.eu/codelist/VoidReasonValue/Unpopulated", "@nil": "true" }, "endLifespanVersion": { "@nilReason": "http://inspire.ec.europa.eu/codelist/VoidReasonValue/Unpopulated", "@nil": "true" }, "inspireId": { "@dataType": "Identifier", "localId": "806528_693/7.C", "namespace": "SK.ESKN.CP", "versionId": "20260703T06:07:11" }, "label": "693/7", "nationalCadastralReference": "806528_693/7.C", "referencePoint": { "type": "Point", "coordinates": [ 19.62853383, 48.80623517 ] }, "validFrom": "2026-06-30T16:00:00Z", "validTo": { "@nilReason": "http://inspire.ec.europa.eu/codelist/VoidReasonValue/Unpopulated", "@nil": "true" }, "administrativeUnit": { "@href": "#auAdmUnitS.569" } }, "geometry": { "type": "Polygon", "coordinates": [ [ [ 19.6282942, 48.80605574 ], [ 19.62829447, 48.80605845 ], [ 19.62829721, 48.80608084 ], [ 19.6283313, 48.80636848 ], [ 19.62833401, 48.80639123 ], [ 19.628336, 48.80640763 ], [ 19.62856806, 48.80639517 ], [ 19.62858192, 48.8063957 ], [ 19.6285949, 48.80639818 ], [ 19.62860671, 48.80640276 ], [ 19.62861324, 48.80640693 ], [ 19.62861732, 48.80641235 ], [ 19.62861988, 48.80642066 ], [ 19.62862168, 48.80642967 ], [ 19.62870887, 48.80642448 ], [ 19.62870715, 48.80641071 ], [ 19.62877188, 48.80640767 ], [ 19.62873693, 48.80610187 ], [ 19.6287286, 48.80603299 ], [ 19.62844348, 48.80604793 ], [ 19.62836197, 48.80605229 ], [ 19.6282942, 48.80605574 ] ] ] } },
{ "type": "Feature", "properties": { "@featureType": "CadastralParcel", "areaValue": { "value": 6312, "@uom": "m2" }, "beginLifespanVersion": { "@nilReason": "http://inspire.ec.europa.eu/codelist/VoidReasonValue/Unpopulated", "@nil": "true" }, "endLifespanVersion": { "@nilReason": "http://inspire.ec.europa.eu/codelist/VoidReasonValue/Unpopulated", "@nil": "true" }, "inspireId": { "@dataType": "Identifier", "localId": "806528_693/5.C", "namespace": "SK.ESKN.CP", "versionId": "20260703T06:07:11" }, "label": "693/5", "nationalCadastralReference": "806528_693/5.C", "referencePoint": { "type": "Point", "coordinates": [ 19.62849281, 48.80692798 ] }, "validFrom": "2026-06-30T16:00:00Z", "validTo": { "@nilReason": "http://inspire.ec.europa.eu/codelist/VoidReasonValue/Unpopulated", "@nil": "true" }, "administrativeUnit": { "@href": "#auAdmUnitS.569" } }, "geometry": { "type": "Polygon", "coordinates": [ [ [ 19.62741634, 48.80717304 ], [ 19.62752266, 48.80718755 ], [ 19.62757931, 48.80719398 ], [ 19.62763475, 48.80720026 ], [ 19.62769181, 48.80720679 ], [ 19.62806608, 48.80722064 ], [ 19.62815228, 48.8072238 ], [ 19.62823549, 48.80722682 ], [ 19.6282571, 48.8072277 ], [ 19.62831882, 48.80722993 ], [ 19.62835743, 48.8072314 ], [ 19.62895073, 48.80725329 ], [ 19.62895092, 48.80724879 ], [ 19.62895142, 48.80723205 ], [ 19.62895408, 48.80715853 ], [ 19.62895395, 48.80702863 ], [ 19.62894958, 48.80682733 ], [ 19.62894819, 48.80677859 ], [ 19.62891948, 48.80674196 ], [ 19.6288365, 48.8066361 ], [ 19.62880428, 48.80657399 ], [ 19.62879286, 48.80646891 ], [ 19.62878756, 48.80641973 ], [ 19.6287811, 48.80642016 ], [ 19.62877356, 48.80642054 ], [ 19.62870887, 48.80642448 ], [ 19.62862168, 48.80642967 ], [ 19.62861894, 48.80642982 ], [ 19.62834059, 48.8064466 ], [ 19.62790351, 48.80647283 ], [ 19.62765799, 48.80648748 ], [ 19.62758988, 48.80649154 ], [ 19.62702524, 48.80652537 ], [ 19.62702989, 48.8065637 ], [ 19.62706106, 48.80656312 ], [ 19.62705813, 48.8065346 ], [ 19.62765975, 48.80650486 ], [ 19.62798333, 48.80648885 ], [ 19.62805402, 48.80710328 ], [ 19.62745131, 48.80713432 ], [ 19.62740783, 48.80713642 ], [ 19.62740816, 48.80713986 ], [ 19.62723054, 48.80714719 ], [ 19.62733104, 48.80716118 ], [ 19.62741634, 48.80717304 ] ] ] } },
{ "type": "Feature", "properties": { "@featureType": "CadastralParcel", "areaValue": { "value": 64, "@uom": "m2" }, "beginLifespanVersion": { "@nilReason": "http://inspire.ec.europa.eu/codelist/VoidReasonValue/Unpopulated", "@nil": "true" }, "endLifespanVersion": { "@nilReason": "http://inspire.ec.europa.eu/codelist/VoidReasonValue/Unpopulated", "@nil": "true" }, "inspireId": { "@dataType": "Identifier", "localId": "806528_692/2.C", "namespace": "SK.ESKN.CP", "versionId": "20260703T06:07:11" }, "label": "692/2", "nationalCadastralReference": "806528_692/2.C", "referencePoint": { "type": "Point", "coordinates": [ 19.62878447, 48.80559982 ] }, "validFrom": "2026-06-30T16:00:00Z", "validTo": { "@nilReason": "http://inspire.ec.europa.eu/codelist/VoidReasonValue/Unpopulated", "@nil": "true" }, "administrativeUnit": { "@href": "#auAdmUnitS.569" } }, "geometry": { "type": "Polygon", "coordinates": [ [ [ 19.62882851, 48.80564483 ], [ 19.62882758, 48.80555447 ], [ 19.62875112, 48.80555481 ], [ 19.62874038, 48.80555442 ], [ 19.6287414, 48.80564524 ], [ 19.62875218, 48.80564518 ], [ 19.62882851, 48.80564483 ] ] ] } },
{ "type": "Feature", "properties": { "@featureType": "CadastralParcel", "areaValue": { "value": 531, "@uom": "m2" }, "beginLifespanVersion": { "@nilReason": "http://inspire.ec.europa.eu/codelist/VoidReasonValue/Unpopulated", "@nil": "true" }, "endLifespanVersion": { "@nilReason": "http://inspire.ec.europa.eu/codelist/VoidReasonValue/Unpopulated", "@nil": "true" }, "inspireId": { "@dataType": "Identifier", "localId": "806528_693/10.C", "namespace": "SK.ESKN.CP", "versionId": "20260703T06:07:11" }, "label": "693/10", "nationalCadastralReference": "806528_693/10.C", "referencePoint": { "type": "Point", "coordinates": [ 19.62835121, 48.80562528 ] }, "validFrom": "2026-06-30T16:00:00Z", "validTo": { "@nilReason": "http://inspire.ec.europa.eu/codelist/VoidReasonValue/Unpopulated", "@nil": "true" }, "administrativeUnit": { "@href": "#auAdmUnitS.569" } }, "geometry": { "type": "Polygon", "coordinates": [ [ [ 19.62831555, 48.80569757 ], [ 19.62836197, 48.80605229 ], [ 19.62844348, 48.80604793 ], [ 19.62840083, 48.80569636 ], [ 19.62839983, 48.80569289 ], [ 19.62838578, 48.80555768 ], [ 19.62837917, 48.80551853 ], [ 19.62835533, 48.80543606 ], [ 19.62834844, 48.80541818 ], [ 19.6283264, 48.80536986 ], [ 19.62831694, 48.80534906 ], [ 19.62831601, 48.80534614 ], [ 19.628317, 48.80531274 ], [ 19.62832103, 48.80530138 ], [ 19.62832668, 48.80529695 ], [ 19.62836341, 48.80527814 ], [ 19.62817825, 48.80531371 ], [ 19.62819707, 48.80532312 ], [ 19.62821452, 48.80533779 ], [ 19.62822651, 48.8053486 ], [ 19.62823873, 48.80536511 ], [ 19.62824952, 48.80538623 ], [ 19.62824996, 48.80538725 ], [ 19.6282731, 48.80544345 ], [ 19.62829599, 48.80552326 ], [ 19.62830151, 48.80555046 ], [ 19.62831711, 48.8056944 ], [ 19.62831555, 48.80569757 ] ] ] } },
{ "type": "Feature", "properties": { "@featureType": "CadastralParcel", "areaValue": { "value": 5917, "@uom": "m2" }, "beginLifespanVersion": { "@nilReason": "http://inspire.ec.europa.eu/codelist/VoidReasonValue/Unpopulated", "@nil": "true" }, "endLifespanVersion": { "@nilReason": "http://inspire.ec.europa.eu/codelist/VoidReasonValue/Unpopulated", "@nil": "true" }, "inspireId": { "@dataType": "Identifier", "localId": "806528_689/17.C", "namespace": "SK.ESKN.CP", "versionId": "20260703T06:07:11" }, "label": "689/17", "nationalCadastralReference": "806528_689/17.C", "referencePoint": { "type": "Point", "coordinates": [ 19.62718055, 48.805878 ] }, "validFrom": "2026-06-30T16:00:00Z", "validTo": { "@nilReason": "http://inspire.ec.europa.eu/codelist/VoidReasonValue/Unpopulated", "@nil": "true" }, "administrativeUnit": { "@href": "#auAdmUnitS.569" } }, "geometry": { "type": "Polygon", "coordinates": [ [ [ 19.6282942, 48.80605574 ], [ 19.62828872, 48.80600961 ], [ 19.62825188, 48.80571157 ], [ 19.62829034, 48.80570915 ], [ 19.62829857, 48.80570745 ], [ 19.62831027, 48.80570248 ], [ 19.62831555, 48.80569757 ], [ 19.62831711, 48.8056944 ], [ 19.62830151, 48.80555046 ], [ 19.62829599, 48.80552326 ], [ 19.6282731, 48.80544345 ], [ 19.62824996, 48.80538725 ], [ 19.62824952, 48.80538623 ], [ 19.62823873, 48.80536511 ], [ 19.62822651, 48.8053486 ], [ 19.62821452, 48.80533779 ], [ 19.62819707, 48.80532312 ], [ 19.62817825, 48.80531371 ], [ 19.62815583, 48.80531802 ], [ 19.62812701, 48.80532358 ], [ 19.62811574, 48.80532568 ], [ 19.62707771, 48.80552635 ], [ 19.62702647, 48.80553631 ], [ 19.62694664, 48.80555083 ], [ 19.62671083, 48.80559711 ], [ 19.62668618, 48.80560195 ], [ 19.62671654, 48.80560791 ], [ 19.62673348, 48.80561832 ], [ 19.62674237, 48.80563269 ], [ 19.6267633, 48.80570367 ], [ 19.62677111, 48.80572989 ], [ 19.62676828, 48.80574806 ], [ 19.6267507, 48.805769 ], [ 19.6267317, 48.80578257 ], [ 19.62671846, 48.80578657 ], [ 19.62667871, 48.80579226 ], [ 19.62665088, 48.80579741 ], [ 19.62668945, 48.80586675 ], [ 19.62682013, 48.80586073 ], [ 19.62690483, 48.80585985 ], [ 19.62707789, 48.80585033 ], [ 19.62708338, 48.80585003 ], [ 19.62708795, 48.80588783 ], [ 19.62714612, 48.80588476 ], [ 19.62715957, 48.80588411 ], [ 19.6272268, 48.80588055 ], [ 19.62724025, 48.8058798 ], [ 19.62730845, 48.8058762 ], [ 19.62732175, 48.80587554 ], [ 19.62733177, 48.80587499 ], [ 19.6273287, 48.80585313 ], [ 19.62727794, 48.80580803 ], [ 19.62730584, 48.8057982 ], [ 19.6273449, 48.8057886 ], [ 19.6273718, 48.80578449 ], [ 19.62739846, 48.80578271 ], [ 19.62745088, 48.80578787 ], [ 19.62749632, 48.80579586 ], [ 19.62745974, 48.80584622 ], [ 19.62746239, 48.80586816 ], [ 19.62747268, 48.80586763 ], [ 19.62748612, 48.80586697 ], [ 19.62755377, 48.80586334 ], [ 19.62756708, 48.80586268 ], [ 19.62763459, 48.80585914 ], [ 19.627649, 48.80585834 ], [ 19.62771541, 48.80585484 ], [ 19.62772981, 48.80585413 ], [ 19.62779705, 48.80585058 ], [ 19.62781118, 48.80584986 ], [ 19.62787731, 48.80584634 ], [ 19.62789186, 48.80584555 ], [ 19.62796006, 48.80584195 ], [ 19.62797377, 48.80584131 ], [ 19.628041, 48.80583775 ], [ 19.62805542, 48.80583695 ], [ 19.62812306, 48.80583342 ], [ 19.62813774, 48.80583263 ], [ 19.62813945, 48.80585047 ], [ 19.62814116, 48.8058537 ], [ 19.62822108, 48.80606741 ], [ 19.62822932, 48.8060895 ], [ 19.62822953, 48.80609006 ], [ 19.62820027, 48.80633167 ], [ 19.62819838, 48.80633537 ], [ 19.6282001, 48.80635311 ], [ 19.62818679, 48.80635387 ], [ 19.628119, 48.80635749 ], [ 19.62810541, 48.80635823 ], [ 19.62803791, 48.80636178 ], [ 19.62802432, 48.80636252 ], [ 19.62800484, 48.80636353 ], [ 19.62797505, 48.80636517 ], [ 19.6279564, 48.80636613 ], [ 19.62794322, 48.80636689 ], [ 19.62792319, 48.80636789 ], [ 19.62789341, 48.80636952 ], [ 19.62787447, 48.80637056 ], [ 19.6278613, 48.80637123 ], [ 19.62779282, 48.80637491 ], [ 19.62777938, 48.80637557 ], [ 19.62776085, 48.80637663 ], [ 19.62773067, 48.80637816 ], [ 19.62771296, 48.80637917 ], [ 19.62769937, 48.80637991 ], [ 19.62767962, 48.80638091 ], [ 19.62764956, 48.80638253 ], [ 19.6276309, 48.8063835 ], [ 19.62761732, 48.80638424 ], [ 19.6275498, 48.80638787 ], [ 19.62753594, 48.8063886 ], [ 19.62751618, 48.8063897 ], [ 19.62748654, 48.80639125 ], [ 19.62746733, 48.80639228 ], [ 19.62745374, 48.80639302 ], [ 19.62743522, 48.80639399 ], [ 19.62740489, 48.8063956 ], [ 19.62738624, 48.80639656 ], [ 19.62737265, 48.8063973 ], [ 19.62730458, 48.806401 ], [ 19.6272921, 48.80640161 ], [ 19.62722376, 48.8064053 ], [ 19.62721017, 48.80640604 ], [ 19.62715007, 48.8064092 ], [ 19.62715286, 48.80643249 ], [ 19.62721296, 48.80642924 ], [ 19.62721817, 48.80642903 ], [ 19.62722738, 48.80642845 ], [ 19.62740426, 48.80641901 ], [ 19.62740712, 48.80644023 ], [ 19.62833401, 48.80639123 ], [ 19.6283313, 48.80636848 ], [ 19.62829721, 48.80608084 ], [ 19.62829447, 48.80605845 ], [ 19.6282942, 48.80605574 ] ] ] } },
{ "type": "Feature", "properties": { "@featureType": "CadastralParcel", "areaValue": { "value": 89, "@uom": "m2" }, "beginLifespanVersion": { "@nilReason": "http://inspire.ec.europa.eu/codelist/VoidReasonValue/Unpopulated", "@nil": "true" }, "endLifespanVersion": { "@nilReason": "http://inspire.ec.europa.eu/codelist/VoidReasonValue/Unpopulated", "@nil": "true" }, "inspireId": { "@dataType": "Identifier", "localId": "806528_693/17.C", "namespace": "SK.ESKN.CP", "versionId": "20260703T06:07:11" }, "label": "693/17", "nationalCadastralReference": "806528_693/17.C", "referencePoint": { "type": "Point", "coordinates": [ 19.62880016, 48.80627111 ] }, "validFrom": "2026-06-30T16:00:00Z", "validTo": { "@nilReason": "http://inspire.ec.europa.eu/codelist/VoidReasonValue/Unpopulated", "@nil": "true" }, "administrativeUnit": { "@href": "#auAdmUnitS.569" } }, "geometry": { "type": "Polygon", "coordinates": [ [ [ 19.62884991, 48.80634835 ], [ 19.6288329, 48.80621273 ], [ 19.62881053, 48.80621398 ], [ 19.62876566, 48.80621638 ], [ 19.6287533, 48.80621709 ], [ 19.62876687, 48.80632514 ], [ 19.62877031, 48.8063527 ], [ 19.62878019, 48.80635215 ], [ 19.62878691, 48.80635182 ], [ 19.62882713, 48.80634958 ], [ 19.62884991, 48.80634835 ] ] ] } },
{ "type": "Feature", "properties": { "@featureType": "CadastralParcel", "areaValue": { "value": 51727, "@uom": "m2" }, "beginLifespanVersion": { "@nilReason": "http://inspire.ec.europa.eu/codelist/VoidReasonValue/Unpopulated", "@nil": "true" }, "endLifespanVersion": { "@nilReason": "http://inspire.ec.europa.eu/codelist/VoidReasonValue/Unpopulated", "@nil": "true" }, "inspireId": { "@dataType": "Identifier", "localId": "806528_687/1.C", "namespace": "SK.ESKN.CP", "versionId": "20260703T06:07:11" }, "label": "687/1", "nationalCadastralReference": "806528_687/1.C", "referencePoint": { "type": "Point", "coordinates": [ 19.62981719, 48.80489326 ] }, "validFrom": "2026-06-30T16:00:00Z", "validTo": { "@nilReason": "http://inspire.ec.europa.eu/codelist/VoidReasonValue/Unpopulated", "@nil": "true" }, "administrativeUnit": { "@href": "#auAdmUnitS.569" } }, "geometry": { "type": "Polygon", "coordinates": [ [ [ 19.62485895, 48.80641539 ], [ 19.62496526, 48.80646173 ], [ 19.62504857, 48.80649811 ], [ 19.62526327, 48.80659178 ], [ 19.62530206, 48.80660867 ], [ 19.62539832, 48.80636592 ], [ 19.62557003, 48.80629018 ], [ 19.6256983, 48.80623465 ], [ 19.62576832, 48.80620544 ], [ 19.6258178, 48.80617954 ], [ 19.6258468, 48.80614308 ], [ 19.62585071, 48.80610125 ], [ 19.62582013, 48.80606823 ], [ 19.62576885, 48.80605205 ], [ 19.62571879, 48.80604916 ], [ 19.62575194, 48.8060255 ], [ 19.62595135, 48.80588349 ], [ 19.62594365, 48.80593434 ], [ 19.62596898, 48.80601562 ], [ 19.62600565, 48.80599085 ], [ 19.626019, 48.80598316 ], [ 19.62605614, 48.80596176 ], [ 19.62608646, 48.80594428 ], [ 19.62611229, 48.8059294 ], [ 19.62622348, 48.80587671 ], [ 19.62626534, 48.80585858 ], [ 19.626259, 48.80581413 ], [ 19.62637865, 48.80580653 ], [ 19.62639362, 48.80580558 ], [ 19.62645643, 48.80578136 ], [ 19.62657588, 48.80574527 ], [ 19.62671852, 48.80571319 ], [ 19.6267594, 48.80570449 ], [ 19.6267633, 48.80570367 ], [ 19.62674237, 48.80563269 ], [ 19.62673348, 48.80561832 ], [ 19.62671654, 48.80560791 ], [ 19.62668618, 48.80560195 ], [ 19.62671083, 48.80559711 ], [ 19.62694664, 48.80555083 ], [ 19.62702647, 48.80553631 ], [ 19.62707771, 48.80552635 ], [ 19.62811574, 48.80532568 ], [ 19.62812701, 48.80532358 ], [ 19.62815583, 48.80531802 ], [ 19.62817825, 48.80531371 ], [ 19.62836341, 48.80527814 ], [ 19.62832668, 48.80529695 ], [ 19.62832103, 48.80530138 ], [ 19.628317, 48.80531274 ], [ 19.62831601, 48.80534614 ], [ 19.62831694, 48.80534906 ], [ 19.6283264, 48.80536986 ], [ 19.62852607, 48.80532719 ], [ 19.62858227, 48.80527446 ], [ 19.62964696, 48.80514204 ], [ 19.62995696, 48.80508819 ], [ 19.63010633, 48.80505695 ], [ 19.63009145, 48.80503979 ], [ 19.63007701, 48.80499055 ], [ 19.6303954, 48.80491887 ], [ 19.6304223, 48.80496236 ], [ 19.63061347, 48.80490028 ], [ 19.63058366, 48.80489028 ], [ 19.63073106, 48.80486626 ], [ 19.63084947, 48.80484806 ], [ 19.63082927, 48.80472221 ], [ 19.63081487, 48.8046673 ], [ 19.62994038, 48.80482919 ], [ 19.62982326, 48.80477525 ], [ 19.62977441, 48.80482029 ], [ 19.62969273, 48.80481833 ], [ 19.62963841, 48.80481706 ], [ 19.62960697, 48.80481628 ], [ 19.62953094, 48.80485622 ], [ 19.62950258, 48.8048334 ], [ 19.62947409, 48.80481057 ], [ 19.62944574, 48.80478776 ], [ 19.62941739, 48.80476494 ], [ 19.6293889, 48.80474211 ], [ 19.62936054, 48.8047193 ], [ 19.62934939, 48.80471104 ], [ 19.62932104, 48.80468813 ], [ 19.6292927, 48.80466523 ], [ 19.62926435, 48.80464232 ], [ 19.62923601, 48.80461941 ], [ 19.62920766, 48.8045965 ], [ 19.62917932, 48.80457359 ], [ 19.62915084, 48.80455068 ], [ 19.6291225, 48.80452777 ], [ 19.62909415, 48.80450486 ], [ 19.62906581, 48.80448196 ], [ 19.62903746, 48.80445905 ], [ 19.62900911, 48.80443623 ], [ 19.62898077, 48.80441332 ], [ 19.62895242, 48.80439041 ], [ 19.62892394, 48.8043675 ], [ 19.62889561, 48.8043445 ], [ 19.62886726, 48.80432159 ], [ 19.62883892, 48.80429869 ], [ 19.62881044, 48.80427577 ], [ 19.62878222, 48.80425296 ], [ 19.62875388, 48.80423005 ], [ 19.6287254, 48.80420714 ], [ 19.62869706, 48.80418423 ], [ 19.62866871, 48.80416132 ], [ 19.62864037, 48.80413841 ], [ 19.6286119, 48.80411541 ], [ 19.62858356, 48.8040925 ], [ 19.62855534, 48.80406969 ], [ 19.62852686, 48.80404678 ], [ 19.62849852, 48.80402387 ], [ 19.62847017, 48.80400096 ], [ 19.62846014, 48.80399501 ], [ 19.62843081, 48.80397107 ], [ 19.62840162, 48.80394713 ], [ 19.62837243, 48.80392319 ], [ 19.62834324, 48.80389925 ], [ 19.62831441, 48.80387569 ], [ 19.62828559, 48.80385213 ], [ 19.62825677, 48.80382857 ], [ 19.62822795, 48.80380501 ], [ 19.62820026, 48.80378231 ], [ 19.62816969, 48.80375723 ], [ 19.62815469, 48.80373465 ], [ 19.62810319, 48.80365698 ], [ 19.62801197, 48.80368677 ], [ 19.62801956, 48.8036634 ], [ 19.62794282, 48.80368907 ], [ 19.62787435, 48.80363308 ], [ 19.62784352, 48.80360789 ], [ 19.62781281, 48.80358271 ], [ 19.62778198, 48.80355753 ], [ 19.62775114, 48.80353235 ], [ 19.6277203, 48.80350716 ], [ 19.6276896, 48.80348199 ], [ 19.62765876, 48.8034568 ], [ 19.62762792, 48.80343162 ], [ 19.62758085, 48.80339317 ], [ 19.62754952, 48.80336752 ], [ 19.6275546, 48.8033407 ], [ 19.62755981, 48.80331399 ], [ 19.62763357, 48.8032908 ], [ 19.62770732, 48.80326762 ], [ 19.62774808, 48.80325485 ], [ 19.62769542, 48.80317658 ], [ 19.627458, 48.80324919 ], [ 19.62721966, 48.80334926 ], [ 19.62697367, 48.80344943 ], [ 19.62660665, 48.80362104 ], [ 19.62629574, 48.80379095 ], [ 19.62602662, 48.80398049 ], [ 19.62555734, 48.80428082 ], [ 19.62546789, 48.80432908 ], [ 19.62519682, 48.80447526 ], [ 19.62459989, 48.80470855 ], [ 19.62364039, 48.8050025 ], [ 19.62346893, 48.80504021 ], [ 19.62314152, 48.80512382 ], [ 19.62292718, 48.80517493 ], [ 19.62293233, 48.8052745 ], [ 19.62283748, 48.80532359 ], [ 19.62277982, 48.80538779 ], [ 19.62277618, 48.80547326 ], [ 19.62288096, 48.80561905 ], [ 19.62297836, 48.80566841 ], [ 19.62307478, 48.8056915 ], [ 19.62313168, 48.8057577 ], [ 19.62325912, 48.80578967 ], [ 19.62335974, 48.80577202 ], [ 19.62345446, 48.8057944 ], [ 19.62345992, 48.80579573 ], [ 19.62354938, 48.80581752 ], [ 19.62355878, 48.80580045 ], [ 19.62382753, 48.80586483 ], [ 19.62379964, 48.80591558 ], [ 19.62377176, 48.80596625 ], [ 19.62372701, 48.80595558 ], [ 19.62368227, 48.80594483 ], [ 19.62363739, 48.80593406 ], [ 19.62359264, 48.80592331 ], [ 19.62354789, 48.80591264 ], [ 19.62350301, 48.80590187 ], [ 19.62349376, 48.80591877 ], [ 19.62344889, 48.805908 ], [ 19.62340414, 48.80589724 ], [ 19.62339945, 48.80590569 ], [ 19.62339794, 48.80590841 ], [ 19.62346489, 48.80591819 ], [ 19.62390597, 48.80604909 ], [ 19.6241108, 48.80608886 ], [ 19.62452373, 48.80625843 ], [ 19.62467615, 48.80633136 ], [ 19.62485895, 48.80641539 ] ], [ [ 19.625807, 48.80544107 ], [ 19.62591546, 48.80542017 ], [ 19.62592031, 48.80543139 ], [ 19.62597034, 48.80554704 ], [ 19.62586175, 48.80556793 ], [ 19.62581608, 48.80557669 ], [ 19.62572057, 48.80559511 ], [ 19.6256245, 48.8056136 ], [ 19.62557883, 48.80562236 ], [ 19.62548207, 48.80564099 ], [ 19.625386, 48.80565948 ], [ 19.6253402, 48.80566823 ], [ 19.62524344, 48.80568687 ], [ 19.62514806, 48.80570529 ], [ 19.62510239, 48.80571405 ], [ 19.62499379, 48.80573495 ], [ 19.62494367, 48.80561884 ], [ 19.62493905, 48.80560809 ], [ 19.62504751, 48.80558719 ], [ 19.62509332, 48.80557834 ], [ 19.62518883, 48.80556001 ], [ 19.62528546, 48.80554138 ], [ 19.62533112, 48.80553261 ], [ 19.62542747, 48.80551405 ], [ 19.62552395, 48.8054955 ], [ 19.62556975, 48.80548674 ], [ 19.62566583, 48.80546817 ], [ 19.6257612, 48.80544983 ], [ 19.625807, 48.80544107 ] ], [ [ 19.62474587, 48.80547789 ], [ 19.62465078, 48.80549615 ], [ 19.6245543, 48.80551461 ], [ 19.6245085, 48.80552337 ], [ 19.62441203, 48.80554183 ], [ 19.62431625, 48.80556015 ], [ 19.62427045, 48.8055689 ], [ 19.62416228, 48.80558964 ], [ 19.62411141, 48.80547413 ], [ 19.62421972, 48.8054534 ], [ 19.62426539, 48.80544464 ], [ 19.62436116, 48.80542633 ], [ 19.62445764, 48.80540786 ], [ 19.62450344, 48.8053991 ], [ 19.62459991, 48.80538064 ], [ 19.62469499, 48.80536247 ], [ 19.62474079, 48.80535372 ], [ 19.62484938, 48.80533291 ], [ 19.62490012, 48.80544832 ], [ 19.62479167, 48.80546913 ], [ 19.62474587, 48.80547789 ] ], [ [ 19.62404597, 48.80526053 ], [ 19.62406974, 48.80531451 ], [ 19.62405665, 48.80531707 ], [ 19.62396701, 48.80533413 ], [ 19.62392134, 48.8053429 ], [ 19.62384477, 48.80535757 ], [ 19.62376056, 48.80537361 ], [ 19.62371476, 48.80538237 ], [ 19.62363068, 48.80539841 ], [ 19.62353434, 48.80541688 ], [ 19.62348854, 48.80542564 ], [ 19.62339221, 48.80544402 ], [ 19.62330784, 48.80546014 ], [ 19.62326218, 48.80546891 ], [ 19.6231781, 48.80548495 ], [ 19.623095, 48.80550077 ], [ 19.6230492, 48.80550953 ], [ 19.62295314, 48.80552792 ], [ 19.62290229, 48.80541233 ], [ 19.62299834, 48.80539402 ], [ 19.62304414, 48.80538527 ], [ 19.6231271, 48.80536944 ], [ 19.62321133, 48.80535331 ], [ 19.62325699, 48.80534455 ], [ 19.62334121, 48.80532851 ], [ 19.62343768, 48.80531004 ], [ 19.62348348, 48.80530129 ], [ 19.62357981, 48.80528291 ], [ 19.62366389, 48.80526686 ], [ 19.62370969, 48.8052581 ], [ 19.62379392, 48.80524197 ], [ 19.62387048, 48.80522739 ], [ 19.62391614, 48.80521863 ], [ 19.62401888, 48.805199 ], [ 19.62404597, 48.80526053 ] ], [ [ 19.624238, 48.8052259 ], [ 19.62422491, 48.80522846 ], [ 19.62423145, 48.80524309 ], [ 19.62419231, 48.8052508 ], [ 19.62418966, 48.80524473 ], [ 19.62413144, 48.80525608 ], [ 19.62413268, 48.80525866 ], [ 19.62410719, 48.80526364 ], [ 19.62410609, 48.80526107 ], [ 19.62409036, 48.80526415 ], [ 19.62408647, 48.8052555 ], [ 19.62405836, 48.80519195 ], [ 19.62420972, 48.8051627 ], [ 19.624238, 48.8052259 ] ], [ [ 19.62423611, 48.80502191 ], [ 19.62423092, 48.8050087 ], [ 19.62441273, 48.80497524 ], [ 19.6244402, 48.80503443 ], [ 19.6244444, 48.80505454 ], [ 19.62443251, 48.80505473 ], [ 19.62426416, 48.80508736 ], [ 19.62423611, 48.80502191 ] ], [ [ 19.6252197, 48.80464909 ], [ 19.62519867, 48.80460028 ], [ 19.62539098, 48.80456422 ], [ 19.62542201, 48.80463646 ], [ 19.62543499, 48.8046668 ], [ 19.62546183, 48.80472939 ], [ 19.62548947, 48.80479355 ], [ 19.62550245, 48.80482379 ], [ 19.62552972, 48.80488758 ], [ 19.62555712, 48.80495146 ], [ 19.62557024, 48.8049817 ], [ 19.62559763, 48.80504558 ], [ 19.62562436, 48.80510799 ], [ 19.62563733, 48.80513832 ], [ 19.62566838, 48.80521048 ], [ 19.62547607, 48.80524654 ], [ 19.62547176, 48.8052367 ], [ 19.62544503, 48.80517429 ], [ 19.62543205, 48.80514405 ], [ 19.62540519, 48.80508154 ], [ 19.62537779, 48.80501775 ], [ 19.62536481, 48.80498742 ], [ 19.62533742, 48.80492354 ], [ 19.62531014, 48.80485985 ], [ 19.62529717, 48.80482952 ], [ 19.62526952, 48.80476545 ], [ 19.62524269, 48.80470276 ], [ 19.6252297, 48.80467252 ], [ 19.6252197, 48.80464909 ] ], [ [ 19.62785571, 48.80413712 ], [ 19.62778509, 48.8040795 ], [ 19.62794094, 48.803996 ], [ 19.62801169, 48.80405363 ], [ 19.62802025, 48.80406059 ], [ 19.62804165, 48.80407805 ], [ 19.62810385, 48.80412871 ], [ 19.62816678, 48.80418013 ], [ 19.62817534, 48.80418709 ], [ 19.62819688, 48.80420456 ], [ 19.62825969, 48.80425579 ], [ 19.62832238, 48.80430692 ], [ 19.62833094, 48.80431389 ], [ 19.62835248, 48.80433135 ], [ 19.62841555, 48.80438277 ], [ 19.62847849, 48.8044341 ], [ 19.62848705, 48.80444106 ], [ 19.62850845, 48.80445852 ], [ 19.62857141, 48.80450976 ], [ 19.62863448, 48.80456118 ], [ 19.62864303, 48.80456823 ], [ 19.62866443, 48.80458569 ], [ 19.62872725, 48.80463683 ], [ 19.62879007, 48.80468806 ], [ 19.62882003, 48.80471248 ], [ 19.62888285, 48.80476371 ], [ 19.62894908, 48.80481762 ], [ 19.62895764, 48.80482459 ], [ 19.62897904, 48.80484204 ], [ 19.62904551, 48.80489623 ], [ 19.62888966, 48.80497973 ], [ 19.62882319, 48.80492554 ], [ 19.62879323, 48.80490112 ], [ 19.62872701, 48.80484712 ], [ 19.62866419, 48.80479598 ], [ 19.6286341, 48.80477146 ], [ 19.62857128, 48.80472023 ], [ 19.62850859, 48.8046691 ], [ 19.62847863, 48.80464467 ], [ 19.62841542, 48.80459325 ], [ 19.62835261, 48.80454202 ], [ 19.62832252, 48.8045175 ], [ 19.62825957, 48.80446626 ], [ 19.6281965, 48.80441484 ], [ 19.62816654, 48.80439033 ], [ 19.62810372, 48.80433919 ], [ 19.62804089, 48.80428805 ], [ 19.62801094, 48.80426353 ], [ 19.62794786, 48.8042122 ], [ 19.62788581, 48.80416155 ], [ 19.62785571, 48.80413712 ] ], [ [ 19.62579436, 48.80442786 ], [ 19.62575744, 48.80434526 ], [ 19.62581272, 48.80433449 ], [ 19.62580884, 48.80432584 ], [ 19.62590492, 48.80430718 ], [ 19.62594997, 48.80440764 ], [ 19.62585364, 48.80442602 ], [ 19.62584976, 48.80441737 ], [ 19.62579436, 48.80442786 ] ], [ [ 19.62760225, 48.80368736 ], [ 19.62760917, 48.80369308 ], [ 19.62761634, 48.80369899 ], [ 19.62765936, 48.80373437 ], [ 19.62766666, 48.80374038 ], [ 19.62782833, 48.80387312 ], [ 19.62781765, 48.80387877 ], [ 19.62786042, 48.80391396 ], [ 19.62774219, 48.8039767 ], [ 19.62775061, 48.80398375 ], [ 19.62758923, 48.80406934 ], [ 19.62795947, 48.8043684 ], [ 19.62797269, 48.80437918 ], [ 19.62852321, 48.80482389 ], [ 19.62801153, 48.80492393 ], [ 19.62799329, 48.80492744 ], [ 19.62760431, 48.80500351 ], [ 19.62751737, 48.80501952 ], [ 19.62733977, 48.80505453 ], [ 19.62731943, 48.80505858 ], [ 19.62709446, 48.80510299 ], [ 19.6270797, 48.80510585 ], [ 19.62673577, 48.80517376 ], [ 19.62674354, 48.80519105 ], [ 19.62664466, 48.8052104 ], [ 19.62660605, 48.8051242 ], [ 19.62659828, 48.80510691 ], [ 19.62659745, 48.8051203 ], [ 19.62655157, 48.80513113 ], [ 19.62656908, 48.80517041 ], [ 19.62656638, 48.80518209 ], [ 19.62655068, 48.80520068 ], [ 19.62651556, 48.80521442 ], [ 19.62675102, 48.80526017 ], [ 19.62685794, 48.80523965 ], [ 19.6269036, 48.80523088 ], [ 19.62699911, 48.80521255 ], [ 19.62709587, 48.80519392 ], [ 19.62714153, 48.80518516 ], [ 19.62723676, 48.8051669 ], [ 19.6273331, 48.80514834 ], [ 19.6273789, 48.80513958 ], [ 19.62747441, 48.80512125 ], [ 19.62757103, 48.8051027 ], [ 19.62761683, 48.80509385 ], [ 19.62771206, 48.8050756 ], [ 19.62780827, 48.80505703 ], [ 19.62785407, 48.80504827 ], [ 19.62794972, 48.80502986 ], [ 19.62804619, 48.80501139 ], [ 19.628092, 48.80500254 ], [ 19.62818736, 48.80498421 ], [ 19.62828287, 48.80496588 ], [ 19.62832867, 48.80495712 ], [ 19.62843587, 48.80493652 ], [ 19.6284918, 48.80506379 ], [ 19.62838432, 48.80508447 ], [ 19.62836734, 48.80508776 ], [ 19.62833852, 48.80509322 ], [ 19.62824344, 48.80511148 ], [ 19.62814765, 48.80512989 ], [ 19.62813066, 48.80513318 ], [ 19.62810184, 48.80513874 ], [ 19.62800579, 48.80515714 ], [ 19.62790972, 48.80517562 ], [ 19.62789273, 48.80517891 ], [ 19.62786392, 48.80518438 ], [ 19.62776814, 48.80520279 ], [ 19.62767249, 48.8052212 ], [ 19.6276555, 48.80522449 ], [ 19.62762669, 48.80522996 ], [ 19.62753048, 48.80524853 ], [ 19.62743456, 48.80526693 ], [ 19.62741757, 48.80527022 ], [ 19.62738876, 48.80527569 ], [ 19.62729283, 48.80529418 ], [ 19.62719719, 48.8053125 ], [ 19.6271802, 48.8053158 ], [ 19.62715152, 48.80532127 ], [ 19.62705504, 48.80533982 ], [ 19.62695926, 48.80535823 ], [ 19.62694227, 48.80536152 ], [ 19.62691359, 48.80536699 ], [ 19.62682142, 48.80538475 ], [ 19.62680681, 48.80538752 ], [ 19.626811, 48.80539582 ], [ 19.62670036, 48.80541672 ], [ 19.62670333, 48.80542361 ], [ 19.62646003, 48.80546982 ], [ 19.62644277, 48.8054731 ], [ 19.62645191, 48.80549433 ], [ 19.62632966, 48.80551786 ], [ 19.62629417, 48.80543324 ], [ 19.62631895, 48.8054285 ], [ 19.62631483, 48.80541813 ], [ 19.62618695, 48.80544338 ], [ 19.6261818, 48.80544441 ], [ 19.62614973, 48.80536761 ], [ 19.62619995, 48.80535833 ], [ 19.62618218, 48.8053176 ], [ 19.626224, 48.80529451 ], [ 19.62628767, 48.80525934 ], [ 19.62608116, 48.80528223 ], [ 19.62607372, 48.80526432 ], [ 19.62613661, 48.80525263 ], [ 19.62594129, 48.80478179 ], [ 19.62584655, 48.80456768 ], [ 19.62583744, 48.80454744 ], [ 19.62581174, 48.80448697 ], [ 19.62581368, 48.80448669 ], [ 19.62581425, 48.8044878 ], [ 19.62581578, 48.80448886 ], [ 19.62581782, 48.80448895 ], [ 19.62581939, 48.80448821 ], [ 19.62582005, 48.80448716 ], [ 19.62581954, 48.80448542 ], [ 19.6258024, 48.80444526 ], [ 19.62596734, 48.80441392 ], [ 19.62596266, 48.80440235 ], [ 19.62596208, 48.8043934 ], [ 19.62596597, 48.80438483 ], [ 19.62597238, 48.80437692 ], [ 19.62598065, 48.80436945 ], [ 19.62599017, 48.80436321 ], [ 19.62600135, 48.80435794 ], [ 19.62601834, 48.80435203 ], [ 19.62600771, 48.80433993 ], [ 19.62586571, 48.80417661 ], [ 19.62588733, 48.80416406 ], [ 19.62618584, 48.80397683 ], [ 19.62636618, 48.80386488 ], [ 19.626473, 48.80379766 ], [ 19.62649404, 48.8038133 ], [ 19.62706182, 48.80351171 ], [ 19.62734157, 48.80338061 ], [ 19.6273711, 48.80340781 ], [ 19.62748479, 48.80334541 ], [ 19.62762424, 48.8034594 ], [ 19.62778391, 48.80359043 ], [ 19.62769078, 48.80364005 ], [ 19.62766954, 48.80365145 ], [ 19.62764471, 48.80366466 ], [ 19.62760225, 48.80368736 ] ] ] } },
{ "type": "Feature", "properties": { "@featureType": "CadastralParcel", "areaValue": { "value": 1022, "@uom": "m2" }, "beginLifespanVersion": { "@nilReason": "http://inspire.ec.europa.eu/codelist/VoidReasonValue/Unpopulated", "@nil": "true" }, "endLifespanVersion": { "@nilReason": "http://inspire.ec.europa.eu/codelist/VoidReasonValue/Unpopulated", "@nil": "true" }, "inspireId": { "@dataType": "Identifier", "localId": "806528_692/1.C", "namespace": "SK.ESKN.CP", "versionId": "20260703T06:07:11" }, "label": "692/1", "nationalCadastralReference": "806528_692/1.C", "referencePoint": { "type": "Point", "coordinates": [ 19.62890846, 48.80611863 ] }, "validFrom": "2026-06-30T16:00:00Z", "validTo": { "@nilReason": "http://inspire.ec.europa.eu/codelist/VoidReasonValue/Unpopulated", "@nil": "true" }, "administrativeUnit": { "@href": "#auAdmUnitS.569" } }, "geometry": { "type": "Polygon", "coordinates": [ [ [ 19.62890084, 48.80582881 ], [ 19.6287857, 48.80583508 ], [ 19.62880627, 48.8059997 ], [ 19.62879405, 48.80600042 ], [ 19.62879716, 48.80602453 ], [ 19.62880937, 48.80602391 ], [ 19.6288329, 48.80621273 ], [ 19.62884991, 48.80634835 ], [ 19.62885006, 48.80634953 ], [ 19.62883784, 48.80635024 ], [ 19.62884082, 48.80637435 ], [ 19.62885303, 48.80637373 ], [ 19.62887355, 48.80653744 ], [ 19.62898869, 48.80653117 ], [ 19.62899063, 48.80654685 ], [ 19.62902315, 48.80654507 ], [ 19.62902135, 48.80655067 ], [ 19.62904771, 48.8065478 ], [ 19.62895798, 48.80580677 ], [ 19.62893223, 48.8058076 ], [ 19.62893143, 48.80581144 ], [ 19.62889905, 48.80581314 ], [ 19.62890084, 48.80582881 ] ] ] } },
{ "type": "Feature", "properties": { "@featureType": "CadastralParcel", "areaValue": { "value": 163, "@uom": "m2" }, "beginLifespanVersion": { "@nilReason": "http://inspire.ec.europa.eu/codelist/VoidReasonValue/Unpopulated", "@nil": "true" }, "endLifespanVersion": { "@nilReason": "http://inspire.ec.europa.eu/codelist/VoidReasonValue/Unpopulated", "@nil": "true" }, "inspireId": { "@dataType": "Identifier", "localId": "806528_694/2.C", "namespace": "SK.ESKN.CP", "versionId": "20260703T06:07:11" }, "label": "694/2", "nationalCadastralReference": "806528_694/2.C", "referencePoint": { "type": "Point", "coordinates": [ 19.63021011, 48.8049886 ] }, "validFrom": "2026-06-30T16:00:00Z", "validTo": { "@nilReason": "http://inspire.ec.europa.eu/codelist/VoidReasonValue/Unpopulated", "@nil": "true" }, "administrativeUnit": { "@href": "#auAdmUnitS.569" } }, "geometry": { "type": "Polygon", "coordinates": [ [ [ 19.6304223, 48.80496236 ], [ 19.6303954, 48.80491887 ], [ 19.63007701, 48.80499055 ], [ 19.63009145, 48.80503979 ], [ 19.63010633, 48.80505695 ], [ 19.63034106, 48.80498665 ], [ 19.6304223, 48.80496236 ] ] ] } },
{ "type": "Feature", "properties": { "@featureType": "CadastralParcel", "areaValue": { "value": 29347, "@uom": "m2" }, "beginLifespanVersion": { "@nilReason": "http://inspire.ec.europa.eu/codelist/VoidReasonValue/Unpopulated", "@nil": "true" }, "endLifespanVersion": { "@nilReason": "http://inspire.ec.europa.eu/codelist/VoidReasonValue/Unpopulated", "@nil": "true" }, "inspireId": { "@dataType": "Identifier", "localId": "806528_693/1.C", "namespace": "SK.ESKN.CP", "versionId": "20260703T06:07:11" }, "label": "693/1", "nationalCadastralReference": "806528_693/1.C", "referencePoint": { "type": "Point", "coordinates": [ 19.62993743, 48.80613067 ] }, "validFrom": "2026-06-30T16:00:00Z", "validTo": { "@nilReason": "http://inspire.ec.europa.eu/codelist/VoidReasonValue/Unpopulated", "@nil": "true" }, "administrativeUnit": { "@href": "#auAdmUnitS.569" } }, "geometry": { "type": "Polygon", "coordinates": [ [ [ 19.63080165, 48.80542497 ], [ 19.63072362, 48.80539424 ], [ 19.63001319, 48.80511469 ], [ 19.62999404, 48.80510184 ], [ 19.62995696, 48.80508819 ], [ 19.62964696, 48.80514204 ], [ 19.62858227, 48.80527446 ], [ 19.62852607, 48.80532719 ], [ 19.6283264, 48.80536986 ], [ 19.62834844, 48.80541818 ], [ 19.62835533, 48.80543606 ], [ 19.62837917, 48.80551853 ], [ 19.62838578, 48.80555768 ], [ 19.62838987, 48.80556967 ], [ 19.62839755, 48.80558255 ], [ 19.6284137, 48.80560193 ], [ 19.62842756, 48.80561445 ], [ 19.62843729, 48.80562066 ], [ 19.62844514, 48.80562399 ], [ 19.62845405, 48.80562493 ], [ 19.62861093, 48.80561621 ], [ 19.62861843, 48.80566919 ], [ 19.62862444, 48.80567712 ], [ 19.62863658, 48.80568641 ], [ 19.62865002, 48.80568972 ], [ 19.62868674, 48.80568695 ], [ 19.6287286, 48.80603299 ], [ 19.62873693, 48.80610187 ], [ 19.62877188, 48.80640767 ], [ 19.62870715, 48.80641071 ], [ 19.62870887, 48.80642448 ], [ 19.62877356, 48.80642054 ], [ 19.6287811, 48.80642016 ], [ 19.62878756, 48.80641973 ], [ 19.62879286, 48.80646891 ], [ 19.62880428, 48.80657399 ], [ 19.6288365, 48.8066361 ], [ 19.62891948, 48.80674196 ], [ 19.62894819, 48.80677859 ], [ 19.62894958, 48.80682733 ], [ 19.62895395, 48.80702863 ], [ 19.62895408, 48.80715853 ], [ 19.62897586, 48.80687565 ], [ 19.62897679, 48.80682422 ], [ 19.62897702, 48.80680738 ], [ 19.62952851, 48.8069635 ], [ 19.62962143, 48.8069968 ], [ 19.62965487, 48.80699803 ], [ 19.62987786, 48.80700607 ], [ 19.63015012, 48.80700199 ], [ 19.63039481, 48.80701001 ], [ 19.63052379, 48.80698201 ], [ 19.63059121, 48.80698458 ], [ 19.63053622, 48.8069448 ], [ 19.63089297, 48.80673124 ], [ 19.63094067, 48.80672392 ], [ 19.63087863, 48.80614036 ], [ 19.63087667, 48.80612098 ], [ 19.63086932, 48.8060479 ], [ 19.63086736, 48.80602853 ], [ 19.63086592, 48.80600935 ], [ 19.63080165, 48.80542497 ] ], [ [ 19.62881053, 48.80621398 ], [ 19.6288329, 48.80621273 ], [ 19.62880937, 48.80602391 ], [ 19.62879716, 48.80602453 ], [ 19.62879405, 48.80600042 ], [ 19.62880627, 48.8059997 ], [ 19.6287857, 48.80583508 ], [ 19.62890084, 48.80582881 ], [ 19.62889905, 48.80581314 ], [ 19.62893143, 48.80581144 ], [ 19.62893223, 48.8058076 ], [ 19.62895798, 48.80580677 ], [ 19.62904771, 48.8065478 ], [ 19.62902135, 48.80655067 ], [ 19.62902315, 48.80654507 ], [ 19.62899063, 48.80654685 ], [ 19.62898869, 48.80653117 ], [ 19.62887355, 48.80653744 ], [ 19.62885303, 48.80637373 ], [ 19.62884082, 48.80637435 ], [ 19.62883784, 48.80635024 ], [ 19.62885006, 48.80634953 ], [ 19.62884991, 48.80634835 ], [ 19.62882713, 48.80634958 ], [ 19.62878691, 48.80635182 ], [ 19.62878019, 48.80635215 ], [ 19.62877031, 48.8063527 ], [ 19.62876687, 48.80632514 ], [ 19.6287533, 48.80621709 ], [ 19.62876566, 48.80621638 ], [ 19.62881053, 48.80621398 ] ], [ [ 19.62882758, 48.80555447 ], [ 19.62882851, 48.80564483 ], [ 19.62875218, 48.80564518 ], [ 19.6287414, 48.80564524 ], [ 19.62874038, 48.80555442 ], [ 19.62875112, 48.80555481 ], [ 19.62882758, 48.80555447 ] ] ] } },
{ "type": "Feature", "properties": { "@featureType": "CadastralParcel", "areaValue": { "value": 4591, "@uom": "m2" }, "beginLifespanVersion": { "@nilReason": "http://inspire.ec.europa.eu/codelist/VoidReasonValue/Unpopulated", "@nil": "true" }, "endLifespanVersion": { "@nilReason": "http://inspire.ec.europa.eu/codelist/VoidReasonValue/Unpopulated", "@nil": "true" }, "inspireId": { "@dataType": "Identifier", "localId": "806528_2421/2.E", "namespace": "SK.ESKN.CP", "versionId": "20260703T06:07:11" }, "label": "2421/2", "nationalCadastralReference": "806528_2421/2.E", "referencePoint": { "type": "Point", "coordinates": [ 19.63094008, 48.80577149 ] }, "validFrom": "2026-06-30T16:00:00Z", "validTo": { "@nilReason": "http://inspire.ec.europa.eu/codelist/VoidReasonValue/Unpopulated", "@nil": "true" }, "administrativeUnit": { "@href": "#auAdmUnitS.569" } }, "geometry": { "type": "Polygon", "coordinates": [ [ [ 19.63047829, 48.80405445 ], [ 19.63053078, 48.80412775 ], [ 19.63059636, 48.80423833 ], [ 19.63070158, 48.80441712 ], [ 19.6307331, 48.8044582 ], [ 19.63078571, 48.80458333 ], [ 19.63079865, 48.80461934 ], [ 19.63081487, 48.8046673 ], [ 19.63082927, 48.80472221 ], [ 19.63084947, 48.80484806 ], [ 19.63072523, 48.80486717 ], [ 19.63073915, 48.8049692 ], [ 19.63076992, 48.80496987 ], [ 19.63080165, 48.80542497 ], [ 19.63081306, 48.80552887 ], [ 19.63086592, 48.80600935 ], [ 19.63086736, 48.80602853 ], [ 19.63086932, 48.8060479 ], [ 19.63087667, 48.80612098 ], [ 19.63087863, 48.80614036 ], [ 19.63094485, 48.80676413 ], [ 19.63094599, 48.80677428 ], [ 19.63098531, 48.80675297 ], [ 19.63099537, 48.80674666 ], [ 19.63105167, 48.80670754 ], [ 19.63106707, 48.80688527 ], [ 19.63106536, 48.80688997 ], [ 19.63105853, 48.80688209 ], [ 19.63104389, 48.80686656 ], [ 19.63102611, 48.80685368 ], [ 19.63101417, 48.806849 ], [ 19.63098948, 48.8068423 ], [ 19.63095322, 48.80684194 ], [ 19.63100497, 48.80732922 ], [ 19.63093523, 48.80732662 ], [ 19.63093937, 48.80738188 ], [ 19.63096622, 48.80738219 ], [ 19.63099547, 48.80738044 ], [ 19.63102384, 48.80737531 ], [ 19.63103541, 48.8073716 ], [ 19.63105023, 48.80736686 ], [ 19.63107408, 48.80735522 ], [ 19.63109215, 48.80734539 ], [ 19.63110808, 48.80733115 ], [ 19.63111587, 48.8073205 ], [ 19.63112358, 48.80730651 ], [ 19.63112784, 48.80729165 ], [ 19.63112928, 48.80727378 ], [ 19.63112244, 48.80722488 ], [ 19.63107135, 48.80689808 ], [ 19.63115906, 48.8068931 ], [ 19.63114824, 48.80676894 ], [ 19.63114483, 48.80673057 ], [ 19.63113843, 48.80666412 ], [ 19.63113562, 48.80663839 ], [ 19.63111246, 48.80642994 ], [ 19.63110912, 48.8064041 ], [ 19.63109707, 48.80629584 ], [ 19.63109299, 48.80627051 ], [ 19.63107109, 48.8060631 ], [ 19.63101536, 48.80553364 ], [ 19.63094262, 48.80484332 ], [ 19.63093804, 48.80480165 ], [ 19.63093885, 48.80476067 ], [ 19.63096531, 48.80468921 ], [ 19.63094764, 48.80461828 ], [ 19.63079721, 48.80424907 ], [ 19.63067611, 48.8041808 ], [ 19.63055165, 48.80411066 ], [ 19.63052015, 48.80408653 ], [ 19.63047829, 48.80405445 ] ] ] } }
]
}
