{
"type": "FeatureCollection",
"name": "gis",
"crs": { "type": "name", "properties": { "name": "urn:ogc:def:crs:OGC:1.3:CRS84" } },
"features": [
{ "type": "Feature", "properties": { "@featureType": "CadastralParcel", "areaValue": { "value": 63, "@uom": "m2" }, "beginLifespanVersion": { "@nilReason": "http://inspire.ec.europa.eu/codelist/VoidReasonValue/Unpopulated", "@nil": "true" }, "endLifespanVersion": { "@nilReason": "http://inspire.ec.europa.eu/codelist/VoidReasonValue/Unpopulated", "@nil": "true" }, "inspireId": { "@dataType": "Identifier", "localId": "801470_6268/3.C", "namespace": "SK.ESKN.CP", "versionId": "20260703T04:07:28" }, "label": "6268/3", "nationalCadastralReference": "801470_6268/3.C", "referencePoint": { "type": "Point", "coordinates": [ 18.91792814, 48.47243284 ] }, "validFrom": "2026-06-30T16:00:00Z", "validTo": { "@nilReason": "http://inspire.ec.europa.eu/codelist/VoidReasonValue/Unpopulated", "@nil": "true" }, "administrativeUnit": { "@href": "#auAdmUnitS.1988" } }, "geometry": { "type": "Polygon", "coordinates": [ [ [ 18.9178939, 48.47236455 ], [ 18.9178225, 48.47234275 ], [ 18.91797459, 48.47250113 ], [ 18.91811492, 48.47264736 ], [ 18.9178939, 48.47236455 ] ] ] } },
{ "type": "Feature", "properties": { "@featureType": "CadastralParcel", "areaValue": { "value": 168, "@uom": "m2" }, "beginLifespanVersion": { "@nilReason": "http://inspire.ec.europa.eu/codelist/VoidReasonValue/Unpopulated", "@nil": "true" }, "endLifespanVersion": { "@nilReason": "http://inspire.ec.europa.eu/codelist/VoidReasonValue/Unpopulated", "@nil": "true" }, "inspireId": { "@dataType": "Identifier", "localId": "801470_6268/2.C", "namespace": "SK.ESKN.CP", "versionId": "20260703T04:07:28" }, "label": "6268/2", "nationalCadastralReference": "801470_6268/2.C", "referencePoint": { "type": "Point", "coordinates": [ 18.91807214, 48.47253512 ] }, "validFrom": "2026-06-30T16:00:00Z", "validTo": { "@nilReason": "http://inspire.ec.europa.eu/codelist/VoidReasonValue/Unpopulated", "@nil": "true" }, "administrativeUnit": { "@href": "#auAdmUnitS.1988" } }, "geometry": { "type": "Polygon", "coordinates": [ [ [ 18.9178939, 48.47236455 ], [ 18.91811492, 48.47264736 ], [ 18.91815754, 48.47273227 ], [ 18.91812118, 48.47256803 ], [ 18.91813015, 48.47255857 ], [ 18.918104, 48.47251167 ], [ 18.91798651, 48.47239286 ], [ 18.9178939, 48.47236455 ] ] ] } },
{ "type": "Feature", "properties": { "@featureType": "CadastralParcel", "areaValue": { "value": 647, "@uom": "m2" }, "beginLifespanVersion": { "@nilReason": "http://inspire.ec.europa.eu/codelist/VoidReasonValue/Unpopulated", "@nil": "true" }, "endLifespanVersion": { "@nilReason": "http://inspire.ec.europa.eu/codelist/VoidReasonValue/Unpopulated", "@nil": "true" }, "inspireId": { "@dataType": "Identifier", "localId": "801470_7538/20.C", "namespace": "SK.ESKN.CP", "versionId": "20260703T04:07:28" }, "label": "7538/20", "nationalCadastralReference": "801470_7538/20.C", "referencePoint": { "type": "Point", "coordinates": [ 18.9199409, 48.47101222 ] }, "validFrom": "2026-06-30T16:00:00Z", "validTo": { "@nilReason": "http://inspire.ec.europa.eu/codelist/VoidReasonValue/Unpopulated", "@nil": "true" }, "administrativeUnit": { "@href": "#auAdmUnitS.1988" } }, "geometry": { "type": "Polygon", "coordinates": [ [ [ 18.9202071, 48.47103638 ], [ 18.91988701, 48.47086692 ], [ 18.91968706, 48.47098806 ], [ 18.91994486, 48.47117515 ], [ 18.9202071, 48.47103638 ] ] ] } },
{ "type": "Feature", "properties": { "@featureType": "CadastralParcel", "areaValue": { "value": 759, "@uom": "m2" }, "beginLifespanVersion": { "@nilReason": "http://inspire.ec.europa.eu/codelist/VoidReasonValue/Unpopulated", "@nil": "true" }, "endLifespanVersion": { "@nilReason": "http://inspire.ec.europa.eu/codelist/VoidReasonValue/Unpopulated", "@nil": "true" }, "inspireId": { "@dataType": "Identifier", "localId": "801470_7538/18.C", "namespace": "SK.ESKN.CP", "versionId": "20260703T04:07:28" }, "label": "7538/18", "nationalCadastralReference": "801470_7538/18.C", "referencePoint": { "type": "Point", "coordinates": [ 18.9202712, 48.47126474 ] }, "validFrom": "2026-06-30T16:00:00Z", "validTo": { "@nilReason": "http://inspire.ec.europa.eu/codelist/VoidReasonValue/Unpopulated", "@nil": "true" }, "administrativeUnit": { "@href": "#auAdmUnitS.1988" } }, "geometry": { "type": "Polygon", "coordinates": [ [ [ 18.92051556, 48.47133604 ], [ 18.92031316, 48.47109244 ], [ 18.92025054, 48.47105936 ], [ 18.91999713, 48.47119344 ], [ 18.92025497, 48.47140011 ], [ 18.92051556, 48.47133604 ] ] ] } },
{ "type": "Feature", "properties": { "@featureType": "CadastralParcel", "areaValue": { "value": 1227, "@uom": "m2" }, "beginLifespanVersion": { "@nilReason": "http://inspire.ec.europa.eu/codelist/VoidReasonValue/Unpopulated", "@nil": "true" }, "endLifespanVersion": { "@nilReason": "http://inspire.ec.europa.eu/codelist/VoidReasonValue/Unpopulated", "@nil": "true" }, "inspireId": { "@dataType": "Identifier", "localId": "801470_7538/17.C", "namespace": "SK.ESKN.CP", "versionId": "20260703T04:07:28" }, "label": "7538/17", "nationalCadastralReference": "801470_7538/17.C", "referencePoint": { "type": "Point", "coordinates": [ 18.92037036, 48.47155305 ] }, "validFrom": "2026-06-30T16:00:00Z", "validTo": { "@nilReason": "http://inspire.ec.europa.eu/codelist/VoidReasonValue/Unpopulated", "@nil": "true" }, "administrativeUnit": { "@href": "#auAdmUnitS.1988" } }, "geometry": { "type": "Polygon", "coordinates": [ [ [ 18.92051464, 48.47166677 ], [ 18.92068204, 48.47162721 ], [ 18.92063418, 48.47147889 ], [ 18.92051556, 48.47133604 ], [ 18.92025497, 48.47140011 ], [ 18.91994773, 48.47147568 ], [ 18.92023309, 48.47163938 ], [ 18.92042272, 48.47168035 ], [ 18.92051464, 48.47166677 ] ] ] } },
{ "type": "Feature", "properties": { "@featureType": "CadastralParcel", "areaValue": { "value": 40, "@uom": "m2" }, "beginLifespanVersion": { "@nilReason": "http://inspire.ec.europa.eu/codelist/VoidReasonValue/Unpopulated", "@nil": "true" }, "endLifespanVersion": { "@nilReason": "http://inspire.ec.europa.eu/codelist/VoidReasonValue/Unpopulated", "@nil": "true" }, "inspireId": { "@dataType": "Identifier", "localId": "801470_6168/3.C", "namespace": "SK.ESKN.CP", "versionId": "20260703T04:07:28" }, "label": "6168/3", "nationalCadastralReference": "801470_6168/3.C", "referencePoint": { "type": "Point", "coordinates": [ 18.91889797, 48.47237016 ] }, "validFrom": "2026-06-30T16:00:00Z", "validTo": { "@nilReason": "http://inspire.ec.europa.eu/codelist/VoidReasonValue/Unpopulated", "@nil": "true" }, "administrativeUnit": { "@href": "#auAdmUnitS.1988" } }, "geometry": { "type": "Polygon", "coordinates": [ [ [ 18.91883625, 48.4723593 ], [ 18.91880682, 48.47238376 ], [ 18.91894194, 48.47239072 ], [ 18.91910925, 48.47238102 ], [ 18.91883625, 48.4723593 ] ] ] } },
{ "type": "Feature", "properties": { "@featureType": "CadastralParcel", "areaValue": { "value": 61, "@uom": "m2" }, "beginLifespanVersion": { "@nilReason": "http://inspire.ec.europa.eu/codelist/VoidReasonValue/Unpopulated", "@nil": "true" }, "endLifespanVersion": { "@nilReason": "http://inspire.ec.europa.eu/codelist/VoidReasonValue/Unpopulated", "@nil": "true" }, "inspireId": { "@dataType": "Identifier", "localId": "801470_6168/4.C", "namespace": "SK.ESKN.CP", "versionId": "20260703T04:07:28" }, "label": "6168/4", "nationalCadastralReference": "801470_6168/4.C", "referencePoint": { "type": "Point", "coordinates": [ 18.918666, 48.4723648 ] }, "validFrom": "2026-06-30T16:00:00Z", "validTo": { "@nilReason": "http://inspire.ec.europa.eu/codelist/VoidReasonValue/Unpopulated", "@nil": "true" }, "administrativeUnit": { "@href": "#auAdmUnitS.1988" } }, "geometry": { "type": "Polygon", "coordinates": [ [ [ 18.91880682, 48.47238376 ], [ 18.91883625, 48.4723593 ], [ 18.91858231, 48.47234758 ], [ 18.91847683, 48.4723703 ], [ 18.9186214, 48.47237422 ], [ 18.91880682, 48.47238376 ] ] ] } },
{ "type": "Feature", "properties": { "@featureType": "CadastralParcel", "areaValue": { "value": 144, "@uom": "m2" }, "beginLifespanVersion": { "@nilReason": "http://inspire.ec.europa.eu/codelist/VoidReasonValue/Unpopulated", "@nil": "true" }, "endLifespanVersion": { "@nilReason": "http://inspire.ec.europa.eu/codelist/VoidReasonValue/Unpopulated", "@nil": "true" }, "inspireId": { "@dataType": "Identifier", "localId": "801470_6268/1.C", "namespace": "SK.ESKN.CP", "versionId": "20260703T04:07:28" }, "label": "6268/1", "nationalCadastralReference": "801470_6268/1.C", "referencePoint": { "type": "Point", "coordinates": [ 18.91820137, 48.47285834 ] }, "validFrom": "2026-06-30T16:00:00Z", "validTo": { "@nilReason": "http://inspire.ec.europa.eu/codelist/VoidReasonValue/Unpopulated", "@nil": "true" }, "administrativeUnit": { "@href": "#auAdmUnitS.1988" } }, "geometry": { "type": "Polygon", "coordinates": [ [ [ 18.91816317, 48.4725977 ], [ 18.91813015, 48.47255857 ], [ 18.91812118, 48.47256803 ], [ 18.91815754, 48.47273227 ], [ 18.91821569, 48.47299478 ], [ 18.91824194, 48.47311304 ], [ 18.91827432, 48.47313319 ], [ 18.91822288, 48.47288528 ], [ 18.91821165, 48.47283139 ], [ 18.91816317, 48.4725977 ] ] ] } },
{ "type": "Feature", "properties": { "@featureType": "CadastralParcel", "areaValue": { "value": 96, "@uom": "m2" }, "beginLifespanVersion": { "@nilReason": "http://inspire.ec.europa.eu/codelist/VoidReasonValue/Unpopulated", "@nil": "true" }, "endLifespanVersion": { "@nilReason": "http://inspire.ec.europa.eu/codelist/VoidReasonValue/Unpopulated", "@nil": "true" }, "inspireId": { "@dataType": "Identifier", "localId": "801470_7538/22.C", "namespace": "SK.ESKN.CP", "versionId": "20260703T04:07:28" }, "label": "7538/22", "nationalCadastralReference": "801470_7538/22.C", "referencePoint": { "type": "Point", "coordinates": [ 18.91921548, 48.47064625 ] }, "validFrom": "2026-06-30T16:00:00Z", "validTo": { "@nilReason": "http://inspire.ec.europa.eu/codelist/VoidReasonValue/Unpopulated", "@nil": "true" }, "administrativeUnit": { "@href": "#auAdmUnitS.1988" } }, "geometry": { "type": "Polygon", "coordinates": [ [ [ 18.91916782, 48.47059375 ], [ 18.91909434, 48.47063769 ], [ 18.919255, 48.47069088 ], [ 18.91927705, 48.47070076 ], [ 18.91933408, 48.47065481 ], [ 18.91916782, 48.47059375 ] ] ] } },
{ "type": "Feature", "properties": { "@featureType": "CadastralParcel", "areaValue": { "value": 246, "@uom": "m2" }, "beginLifespanVersion": { "@nilReason": "http://inspire.ec.europa.eu/codelist/VoidReasonValue/Unpopulated", "@nil": "true" }, "endLifespanVersion": { "@nilReason": "http://inspire.ec.europa.eu/codelist/VoidReasonValue/Unpopulated", "@nil": "true" }, "inspireId": { "@dataType": "Identifier", "localId": "801470_7538/25.C", "namespace": "SK.ESKN.CP", "versionId": "20260703T04:07:28" }, "label": "7538/25", "nationalCadastralReference": "801470_7538/25.C", "referencePoint": { "type": "Point", "coordinates": [ 18.91901104, 48.47084007 ] }, "validFrom": "2026-06-30T16:00:00Z", "validTo": { "@nilReason": "http://inspire.ec.europa.eu/codelist/VoidReasonValue/Unpopulated", "@nil": "true" }, "administrativeUnit": { "@href": "#auAdmUnitS.1988" } }, "geometry": { "type": "Polygon", "coordinates": [ [ [ 18.91908649, 48.47085657 ], [ 18.91915716, 48.47080184 ], [ 18.91906214, 48.47074761 ], [ 18.91901736, 48.47072212 ], [ 18.91896747, 48.47076033 ], [ 18.91888522, 48.47082357 ], [ 18.91899529, 48.47088606 ], [ 18.91898784, 48.47089181 ], [ 18.91907233, 48.47093973 ], [ 18.91913993, 48.47088692 ], [ 18.91908649, 48.47085657 ] ] ] } },
{ "type": "Feature", "properties": { "@featureType": "CadastralParcel", "areaValue": { "value": 1335, "@uom": "m2" }, "beginLifespanVersion": { "@nilReason": "http://inspire.ec.europa.eu/codelist/VoidReasonValue/Unpopulated", "@nil": "true" }, "endLifespanVersion": { "@nilReason": "http://inspire.ec.europa.eu/codelist/VoidReasonValue/Unpopulated", "@nil": "true" }, "inspireId": { "@dataType": "Identifier", "localId": "801470_7538/21.C", "namespace": "SK.ESKN.CP", "versionId": "20260703T04:07:28" }, "label": "7538/21", "nationalCadastralReference": "801470_7538/21.C", "referencePoint": { "type": "Point", "coordinates": [ 18.91951247, 48.47092419 ] }, "validFrom": "2026-06-30T16:00:00Z", "validTo": { "@nilReason": "http://inspire.ec.europa.eu/codelist/VoidReasonValue/Unpopulated", "@nil": "true" }, "administrativeUnit": { "@href": "#auAdmUnitS.1988" } }, "geometry": { "type": "Polygon", "coordinates": [ [ [ 18.91983397, 48.47083893 ], [ 18.91950816, 48.47071861 ], [ 18.91943956, 48.47076604 ], [ 18.91944673, 48.47076966 ], [ 18.91935583, 48.47083624 ], [ 18.91915213, 48.47098145 ], [ 18.91912255, 48.47100248 ], [ 18.9194004, 48.47116183 ], [ 18.91968706, 48.47098806 ], [ 18.91988701, 48.47086692 ], [ 18.91983397, 48.47083893 ] ] ] } },
{ "type": "Feature", "properties": { "@featureType": "CadastralParcel", "areaValue": { "value": 739, "@uom": "m2" }, "beginLifespanVersion": { "@nilReason": "http://inspire.ec.europa.eu/codelist/VoidReasonValue/Unpopulated", "@nil": "true" }, "endLifespanVersion": { "@nilReason": "http://inspire.ec.europa.eu/codelist/VoidReasonValue/Unpopulated", "@nil": "true" }, "inspireId": { "@dataType": "Identifier", "localId": "801470_7538/19.C", "namespace": "SK.ESKN.CP", "versionId": "20260703T04:07:28" }, "label": "7538/19", "nationalCadastralReference": "801470_7538/19.C", "referencePoint": { "type": "Point", "coordinates": [ 18.91996878, 48.47135554 ] }, "validFrom": "2026-06-30T16:00:00Z", "validTo": { "@nilReason": "http://inspire.ec.europa.eu/codelist/VoidReasonValue/Unpopulated", "@nil": "true" }, "administrativeUnit": { "@href": "#auAdmUnitS.1988" } }, "geometry": { "type": "Polygon", "coordinates": [ [ [ 18.92025497, 48.47140011 ], [ 18.91999713, 48.47119344 ], [ 18.91996172, 48.47121219 ], [ 18.91987649, 48.4712078 ], [ 18.91966046, 48.47131097 ], [ 18.91994773, 48.47147568 ], [ 18.92025497, 48.47140011 ] ] ] } },
{ "type": "Feature", "properties": { "@featureType": "CadastralParcel", "areaValue": { "value": 1209, "@uom": "m2" }, "beginLifespanVersion": { "@nilReason": "http://inspire.ec.europa.eu/codelist/VoidReasonValue/Unpopulated", "@nil": "true" }, "endLifespanVersion": { "@nilReason": "http://inspire.ec.europa.eu/codelist/VoidReasonValue/Unpopulated", "@nil": "true" }, "inspireId": { "@dataType": "Identifier", "localId": "801470_2427.E", "namespace": "SK.ESKN.CP", "versionId": "20260703T04:07:28" }, "label": "2427", "nationalCadastralReference": "801470_2427.E", "referencePoint": { "type": "Point", "coordinates": [ 18.91833572, 48.47225592 ] }, "validFrom": "2026-06-30T16:00:00Z", "validTo": { "@nilReason": "http://inspire.ec.europa.eu/codelist/VoidReasonValue/Unpopulated", "@nil": "true" }, "administrativeUnit": { "@href": "#auAdmUnitS.1988" } }, "geometry": { "type": "Polygon", "coordinates": [ [ [ 18.91884138, 48.47231293 ], [ 18.91884967, 48.47216831 ], [ 18.91865048, 48.47216284 ], [ 18.91820008, 48.47218051 ], [ 18.91806152, 48.47219954 ], [ 18.91798732, 48.47222053 ], [ 18.91788788, 48.47223913 ], [ 18.91776568, 48.47227271 ], [ 18.91774577, 48.47230271 ], [ 18.91774051, 48.47231065 ], [ 18.91790248, 48.47231412 ], [ 18.91793819, 48.47232552 ], [ 18.91831882, 48.4723572 ], [ 18.91856005, 48.47230458 ], [ 18.91884138, 48.47231293 ] ] ] } },
{ "type": "Feature", "properties": { "@featureType": "CadastralParcel", "areaValue": { "value": 252, "@uom": "m2" }, "beginLifespanVersion": { "@nilReason": "http://inspire.ec.europa.eu/codelist/VoidReasonValue/Unpopulated", "@nil": "true" }, "endLifespanVersion": { "@nilReason": "http://inspire.ec.europa.eu/codelist/VoidReasonValue/Unpopulated", "@nil": "true" }, "inspireId": { "@dataType": "Identifier", "localId": "801470_6761.E", "namespace": "SK.ESKN.CP", "versionId": "20260703T04:07:28" }, "label": "6761", "nationalCadastralReference": "801470_6761.E", "referencePoint": { "type": "Point", "coordinates": [ 18.91864091, 48.47233026 ] }, "validFrom": "2026-06-30T16:00:00Z", "validTo": { "@nilReason": "http://inspire.ec.europa.eu/codelist/VoidReasonValue/Unpopulated", "@nil": "true" }, "administrativeUnit": { "@href": "#auAdmUnitS.1988" } }, "geometry": { "type": "MultiPolygon", "coordinates": [ [ [ [ 18.91884138, 48.47231293 ], [ 18.91856005, 48.47230458 ], [ 18.91831882, 48.4723572 ], [ 18.91847683, 48.4723703 ], [ 18.91858231, 48.47234758 ], [ 18.91883625, 48.4723593 ], [ 18.91884138, 48.47231293 ] ] ], [ [ [ 18.9176244, 48.47230819 ], [ 18.9178225, 48.47234275 ], [ 18.9178939, 48.47236455 ], [ 18.91798651, 48.47239286 ], [ 18.91808713, 48.47239326 ], [ 18.91800321, 48.47236594 ], [ 18.91785825, 48.47231888 ], [ 18.91793819, 48.47232552 ], [ 18.91790248, 48.47231412 ], [ 18.91774051, 48.47231065 ], [ 18.9176244, 48.47230819 ] ] ] ] } },
{ "type": "Feature", "properties": { "@featureType": "CadastralParcel", "areaValue": { "value": 512, "@uom": "m2" }, "beginLifespanVersion": { "@nilReason": "http://inspire.ec.europa.eu/codelist/VoidReasonValue/Unpopulated", "@nil": "true" }, "endLifespanVersion": { "@nilReason": "http://inspire.ec.europa.eu/codelist/VoidReasonValue/Unpopulated", "@nil": "true" }, "inspireId": { "@dataType": "Identifier", "localId": "801470_6771/4.E", "namespace": "SK.ESKN.CP", "versionId": "20260703T04:07:28" }, "label": "6771/4", "nationalCadastralReference": "801470_6771/4.E", "referencePoint": { "type": "Point", "coordinates": [ 18.92312399, 48.47195746 ] }, "validFrom": "2026-06-30T16:00:00Z", "validTo": { "@nilReason": "http://inspire.ec.europa.eu/codelist/VoidReasonValue/Unpopulated", "@nil": "true" }, "administrativeUnit": { "@href": "#auAdmUnitS.1988" } }, "geometry": { "type": "Polygon", "coordinates": [ [ [ 18.9221954, 48.47183722 ], [ 18.92221292, 48.47183235 ], [ 18.92225, 48.47184364 ], [ 18.92234168, 48.47185206 ], [ 18.92238409, 48.47186524 ], [ 18.92277589, 48.47191291 ], [ 18.92293295, 48.47187471 ], [ 18.92302022, 48.47188948 ], [ 18.92319252, 48.47201525 ], [ 18.92353685, 48.47203477 ], [ 18.9236616, 48.47208773 ], [ 18.92404058, 48.47206248 ], [ 18.92445486, 48.47220962 ], [ 18.92448779, 48.47221456 ], [ 18.92449523, 48.4721821 ], [ 18.92446231, 48.47218637 ], [ 18.92404065, 48.47205256 ], [ 18.92378372, 48.47206767 ], [ 18.923669, 48.4720661 ], [ 18.92353687, 48.47202647 ], [ 18.92320003, 48.47200202 ], [ 18.92302029, 48.47187957 ], [ 18.92292046, 48.47186307 ], [ 18.92278828, 48.47189965 ], [ 18.92238886, 48.47184645 ], [ 18.92234412, 48.47182638 ], [ 18.92221439, 48.47181745 ], [ 18.92200973, 48.47174477 ], [ 18.92169538, 48.47175666 ], [ 18.92145818, 48.47169899 ], [ 18.92129354, 48.47169746 ], [ 18.92108891, 48.4716513 ], [ 18.92090427, 48.47164325 ], [ 18.9207932, 48.4716139 ], [ 18.92055494, 48.47167019 ], [ 18.92042762, 48.47169188 ], [ 18.92023488, 48.47165309 ], [ 18.9202367, 48.47166663 ], [ 18.92032029, 48.4716804 ], [ 18.92043522, 48.47170345 ], [ 18.92064477, 48.47166183 ], [ 18.92079309, 48.47162878 ], [ 18.92088678, 48.47165489 ], [ 18.92108391, 48.47166629 ], [ 18.92128358, 48.47171075 ], [ 18.92145575, 48.47171059 ], [ 18.92168293, 48.47177162 ], [ 18.92199723, 48.47175306 ], [ 18.9221954, 48.47183722 ] ] ] } },
{ "type": "Feature", "properties": { "@featureType": "CadastralParcel", "areaValue": { "value": 525, "@uom": "m2" }, "beginLifespanVersion": { "@nilReason": "http://inspire.ec.europa.eu/codelist/VoidReasonValue/Unpopulated", "@nil": "true" }, "endLifespanVersion": { "@nilReason": "http://inspire.ec.europa.eu/codelist/VoidReasonValue/Unpopulated", "@nil": "true" }, "inspireId": { "@dataType": "Identifier", "localId": "801470_6771/8.E", "namespace": "SK.ESKN.CP", "versionId": "20260703T04:07:28" }, "label": "6771/8", "nationalCadastralReference": "801470_6771/8.E", "referencePoint": { "type": "Point", "coordinates": [ 18.92277703, 48.47189388 ] }, "validFrom": "2026-06-30T16:00:00Z", "validTo": { "@nilReason": "http://inspire.ec.europa.eu/codelist/VoidReasonValue/Unpopulated", "@nil": "true" }, "administrativeUnit": { "@href": "#auAdmUnitS.1988" } }, "geometry": { "type": "Polygon", "coordinates": [ [ [ 18.92090427, 48.47164325 ], [ 18.92108891, 48.4716513 ], [ 18.92129354, 48.47169746 ], [ 18.92145818, 48.47169899 ], [ 18.92169538, 48.47175666 ], [ 18.92200973, 48.47174477 ], [ 18.92221439, 48.47181745 ], [ 18.92234412, 48.47182638 ], [ 18.92238886, 48.47184645 ], [ 18.92278828, 48.47189965 ], [ 18.92292046, 48.47186307 ], [ 18.92302029, 48.47187957 ], [ 18.92320003, 48.47200202 ], [ 18.92353687, 48.47202647 ], [ 18.923669, 48.4720661 ], [ 18.92378372, 48.47206767 ], [ 18.92404065, 48.47205256 ], [ 18.92446231, 48.47218637 ], [ 18.92449523, 48.4721821 ], [ 18.92449992, 48.4721616 ], [ 18.92447716, 48.47216485 ], [ 18.92403307, 48.47204423 ], [ 18.92378125, 48.47205275 ], [ 18.923669, 48.47204625 ], [ 18.92353422, 48.47201659 ], [ 18.92320752, 48.47198544 ], [ 18.9230177, 48.47186798 ], [ 18.92291543, 48.47185153 ], [ 18.92279329, 48.4718881 ], [ 18.92241658, 48.47182506 ], [ 18.92237186, 48.47180833 ], [ 18.92220385, 48.47178561 ], [ 18.92214441, 48.47176947 ], [ 18.92201713, 48.47173478 ], [ 18.92170281, 48.47174179 ], [ 18.9214533, 48.47168737 ], [ 18.92129608, 48.47168262 ], [ 18.92111137, 48.47164137 ], [ 18.92090041, 48.47163096 ], [ 18.92080847, 48.47159574 ], [ 18.92068204, 48.47162721 ], [ 18.92051464, 48.47166677 ], [ 18.92042272, 48.47168035 ], [ 18.92023309, 48.47163938 ], [ 18.92023488, 48.47165309 ], [ 18.92042762, 48.47169188 ], [ 18.92055494, 48.47167019 ], [ 18.9207932, 48.4716139 ], [ 18.92090427, 48.47164325 ] ] ] } },
{ "type": "Feature", "properties": { "@featureType": "CadastralParcel", "areaValue": { "value": 673, "@uom": "m2" }, "beginLifespanVersion": { "@nilReason": "http://inspire.ec.europa.eu/codelist/VoidReasonValue/Unpopulated", "@nil": "true" }, "endLifespanVersion": { "@nilReason": "http://inspire.ec.europa.eu/codelist/VoidReasonValue/Unpopulated", "@nil": "true" }, "inspireId": { "@dataType": "Identifier", "localId": "801038_2/1.E", "namespace": "SK.ESKN.CP", "versionId": "20260703T04:07:44" }, "label": "2/1", "nationalCadastralReference": "801038_2/1.E", "referencePoint": { "type": "Point", "coordinates": [ 18.91969262, 48.47182968 ] }, "validFrom": "2026-06-30T16:00:00Z", "validTo": { "@nilReason": "http://inspire.ec.europa.eu/codelist/VoidReasonValue/Unpopulated", "@nil": "true" }, "administrativeUnit": { "@href": "#auAdmUnitS.1892" } }, "geometry": { "type": "MultiPolygon", "coordinates": [ [ [ [ 18.92135308, 48.47176169 ], [ 18.92171542, 48.47181298 ], [ 18.92177856, 48.47183346 ], [ 18.92184274, 48.47185426 ], [ 18.92186475, 48.47186099 ], [ 18.92190104, 48.47187205 ], [ 18.92191899, 48.47187749 ], [ 18.92191965, 48.4718777 ], [ 18.92198462, 48.47189755 ], [ 18.92206991, 48.47192359 ], [ 18.92218802, 48.4718925 ], [ 18.92220857, 48.47184295 ], [ 18.92221292, 48.47183235 ], [ 18.9221954, 48.47183722 ], [ 18.92214788, 48.47185038 ], [ 18.92208794, 48.47184441 ], [ 18.92208672, 48.47184435 ], [ 18.9220544, 48.47184116 ], [ 18.92199004, 48.47183469 ], [ 18.92186639, 48.47182246 ], [ 18.92184197, 48.47181895 ], [ 18.92148762, 48.4717678 ], [ 18.92135308, 48.47176169 ] ] ], [ [ [ 18.92037557, 48.47171364 ], [ 18.92024055, 48.4716965 ], [ 18.92000912, 48.4717757 ], [ 18.91958574, 48.47179197 ], [ 18.91955333, 48.47180591 ], [ 18.91938484, 48.47192831 ], [ 18.91933624, 48.47194718 ], [ 18.9193513, 48.47195887 ], [ 18.91935521, 48.47198352 ], [ 18.9194771, 48.47194568 ], [ 18.91977407, 48.47185344 ], [ 18.92030049, 48.47171528 ], [ 18.92037557, 48.47171364 ] ] ] ] } },
{ "type": "Feature", "properties": { "@featureType": "CadastralParcel", "areaValue": { "value": 365, "@uom": "m2" }, "beginLifespanVersion": { "@nilReason": "http://inspire.ec.europa.eu/codelist/VoidReasonValue/Unpopulated", "@nil": "true" }, "endLifespanVersion": { "@nilReason": "http://inspire.ec.europa.eu/codelist/VoidReasonValue/Unpopulated", "@nil": "true" }, "inspireId": { "@dataType": "Identifier", "localId": "801038_2076.E", "namespace": "SK.ESKN.CP", "versionId": "20260703T04:07:44" }, "label": "2076", "nationalCadastralReference": "801038_2076.E", "referencePoint": { "type": "Point", "coordinates": [ 18.92535384, 48.47281924 ] }, "validFrom": "2026-06-30T16:00:00Z", "validTo": { "@nilReason": "http://inspire.ec.europa.eu/codelist/VoidReasonValue/Unpopulated", "@nil": "true" }, "administrativeUnit": { "@href": "#auAdmUnitS.1892" } }, "geometry": { "type": "MultiPolygon", "coordinates": [ [ [ [ 18.92135308, 48.47176169 ], [ 18.92135281, 48.47176167 ], [ 18.92111841, 48.47175105 ], [ 18.92070369, 48.4717197 ], [ 18.92040939, 48.47171791 ], [ 18.92037557, 48.47171364 ], [ 18.92030049, 48.47171528 ], [ 18.91977407, 48.47185344 ], [ 18.9194771, 48.47194568 ], [ 18.91955236, 48.47193422 ], [ 18.91966419, 48.47190471 ], [ 18.91971778, 48.47189303 ], [ 18.92019525, 48.47174883 ], [ 18.92062751, 48.47173554 ], [ 18.92103586, 48.47174933 ], [ 18.92170336, 48.47181399 ], [ 18.92179722, 48.47185499 ], [ 18.92215975, 48.47196059 ], [ 18.92216427, 48.47194973 ], [ 18.92213725, 48.47194176 ], [ 18.92208819, 48.4719285 ], [ 18.92206991, 48.47192359 ], [ 18.92198462, 48.47189755 ], [ 18.92191965, 48.4718777 ], [ 18.92191899, 48.47187749 ], [ 18.92190104, 48.47187205 ], [ 18.92186475, 48.47186099 ], [ 18.92184274, 48.47185426 ], [ 18.92177856, 48.47183346 ], [ 18.92171542, 48.47181298 ], [ 18.92135308, 48.47176169 ] ] ], [ [ [ 18.92487394, 48.47275399 ], [ 18.92524474, 48.4728085 ], [ 18.92555559, 48.47286634 ], [ 18.92571056, 48.47287178 ], [ 18.9257076, 48.47286108 ], [ 18.92559107, 48.47284354 ], [ 18.92552308, 48.47283328 ], [ 18.92549284, 48.47282965 ], [ 18.92531768, 48.47280883 ], [ 18.9253122, 48.47280818 ], [ 18.92524463, 48.47280011 ], [ 18.9252188, 48.47279707 ], [ 18.92487394, 48.47275399 ] ] ], [ [ [ 18.9223585, 48.47200131 ], [ 18.92236451, 48.47201957 ], [ 18.92260891, 48.47208419 ], [ 18.92290135, 48.47214632 ], [ 18.9223585, 48.47200131 ] ] ], [ [ [ 18.92290135, 48.47214632 ], [ 18.92305574, 48.47218935 ], [ 18.92313455, 48.47221739 ], [ 18.92321869, 48.47223922 ], [ 18.92335614, 48.47224016 ], [ 18.9231501, 48.47219916 ], [ 18.92290135, 48.47214632 ] ] ], [ [ [ 18.9240366, 48.47257833 ], [ 18.92409211, 48.47259796 ], [ 18.92410906, 48.47260271 ], [ 18.92412104, 48.47258718 ], [ 18.92418101, 48.4726139 ], [ 18.92416124, 48.47260079 ], [ 18.92413004, 48.47258909 ], [ 18.92410391, 48.47257935 ], [ 18.9240763, 48.47256828 ], [ 18.92405426, 48.47255948 ], [ 18.92404636, 48.47255628 ], [ 18.92403715, 48.47255265 ], [ 18.9240366, 48.47257833 ] ] ], [ [ [ 18.92427104, 48.47265398 ], [ 18.92428935, 48.47266214 ], [ 18.9244472, 48.472679 ], [ 18.92429357, 48.47265036 ], [ 18.92425441, 48.47264654 ], [ 18.92427104, 48.47265398 ] ] ] ] } }
]
}
