{
"type": "FeatureCollection",
"name": "gis",
"crs": { "type": "name", "properties": { "name": "urn:ogc:def:crs:OGC:1.3:CRS84" } },
"features": [
{ "type": "Feature", "properties": { "@featureType": "CadastralZoning", "beginLifespanVersion": { "@nilReason": "http://inspire.ec.europa.eu/codelist/VoidReasonValue/Unpopulated", "@nil": "true" }, "endLifespanVersion": { "@nilReason": "http://inspire.ec.europa.eu/codelist/VoidReasonValue/Unpopulated", "@nil": "true" }, "estimatedAccuracy": { "value": -1, "@uom": "m" }, "inspireId": { "@dataType": "Identifier", "localId": "832448", "namespace": "SK.ESKN.CP", "versionId": "20260703T04:07:40" }, "label": "Liptovská Porúbka", "level": { "@href": "http://inspire.ec.europa.eu/codelist/CadastralZoningLevelValue/3rdOrder" }, "levelName": { "value": "Katastrálne územie", "@locale": "sk" }, "name": { "@dataType": "name", "GeographicalName": { "@dataType": "GeographicalName", "language": "SLK", "nativeness": { "@href": "http://inspire.ec.europa.eu/codelist/NativenessValue/endonym", "@title": "endonym" }, "nameStatus": { "@href": "http://inspire.ec.europa.eu/codelist/NameStatusValue/official", "@title": "official" }, "sourceOfName": { "@nilReason": "http://inspire.ec.europa.eu/codelist/VoidReasonValue/Unpopulated", "@nil": "true" }, "pronunciation": { "@dataType": "pronunciation", "@nilReason": "http://inspire.ec.europa.eu/codelist/VoidReasonValue/Unpopulated", "@nil": "true" }, "spelling": { "@dataType": "SpellingOfName", "text": "Liptovská Porúbka", "script": "LATN" } } }, "nationalCadastalZoningReference": "832448", "validFrom": "2026-06-30T16:00:00Z", "validTo": { "@nilReason": "http://inspire.ec.europa.eu/codelist/VoidReasonValue/Unpopulated", "@nil": "true" } }, "geometry": { "type": "MultiPolygon", "coordinates": [ [ [ [ 19.74172405, 49.03677094 ], [ 19.74175203, 49.03676675 ], [ 19.74203309, 49.03672426 ], [ 19.7427382, 49.03661767 ], [ 19.74301913, 49.03657517 ], [ 19.74316851, 49.0365525 ], [ 19.74415566, 49.03640309 ], [ 19.74418844, 49.03639884 ], [ 19.74573381, 49.0361664 ], [ 19.74660936, 49.03603462 ], [ 19.74629963, 49.03520598 ], [ 19.74628581, 49.03516914 ], [ 19.74625247, 49.03507999 ], [ 19.7462295, 49.03501842 ], [ 19.74622907, 49.03501732 ], [ 19.7462197, 49.03499204 ], [ 19.74627753, 49.03498673 ], [ 19.74695758, 49.03492417 ], [ 19.74699453, 49.03492074 ], [ 19.74693303, 49.03484027 ], [ 19.74692796, 49.03483356 ], [ 19.74690053, 49.03479838 ], [ 19.74678487, 49.03465579 ], [ 19.74677916, 49.03464861 ], [ 19.74677501, 49.03464356 ], [ 19.74675047, 49.03461373 ], [ 19.7467302, 49.03458644 ], [ 19.74670597, 49.03455095 ], [ 19.74665381, 49.03452452 ], [ 19.7457292, 49.03359148 ], [ 19.74571427, 49.0335764 ], [ 19.74578347, 49.03350481 ], [ 19.74613717, 49.0333539 ], [ 19.74675263, 49.03308268 ], [ 19.74725102, 49.03278713 ], [ 19.74729156, 49.03276313 ], [ 19.74752297, 49.0326258 ], [ 19.7478764, 49.03224424 ], [ 19.74788115, 49.03222976 ], [ 19.7485419, 49.03192797 ], [ 19.74866875, 49.03187043 ], [ 19.74868695, 49.0317446 ], [ 19.74915389, 49.03155925 ], [ 19.7493292, 49.03149012 ], [ 19.74939887, 49.03147478 ], [ 19.74964129, 49.03126105 ], [ 19.74973307, 49.03118828 ], [ 19.74981234, 49.03113091 ], [ 19.74990332, 49.03109595 ], [ 19.75004328, 49.03104691 ], [ 19.75024576, 49.03099501 ], [ 19.7502564, 49.03099286 ], [ 19.7504558, 49.03094975 ], [ 19.75060016, 49.03092091 ], [ 19.75098667, 49.03084776 ], [ 19.75135243, 49.0307765 ], [ 19.7515275, 49.03074756 ], [ 19.75172935, 49.03070599 ], [ 19.75239313, 49.03056096 ], [ 19.7528814, 49.03054416 ], [ 19.75309782, 49.03054144 ], [ 19.75325419, 49.03053755 ], [ 19.75329565, 49.03054089 ], [ 19.75332982, 49.03055004 ], [ 19.75336818, 49.03056109 ], [ 19.75352153, 49.03063187 ], [ 19.75367377, 49.03073801 ], [ 19.75376295, 49.03081996 ], [ 19.75392891, 49.03101827 ], [ 19.75398558, 49.03107743 ], [ 19.75399008, 49.03110205 ], [ 19.75406397, 49.03124443 ], [ 19.75418008, 49.03154151 ], [ 19.75419791, 49.0316188 ], [ 19.75421718, 49.03174961 ], [ 19.75424447, 49.03182407 ], [ 19.7542611, 49.03193493 ], [ 19.75425834, 49.0319623 ], [ 19.75427417, 49.03201184 ], [ 19.7544156, 49.03221971 ], [ 19.75445214, 49.03227187 ], [ 19.75449899, 49.03231826 ], [ 19.75467729, 49.03244068 ], [ 19.75493314, 49.03262309 ], [ 19.75506512, 49.03269924 ], [ 19.7555288, 49.03296417 ], [ 19.75593225, 49.03318222 ], [ 19.75614069, 49.03328315 ], [ 19.75626138, 49.03333267 ], [ 19.75645233, 49.03342221 ], [ 19.75654188, 49.03345838 ], [ 19.75658801, 49.03348482 ], [ 19.75663694, 49.03350525 ], [ 19.75668523, 49.03353331 ], [ 19.75689719, 49.0336252 ], [ 19.75699686, 49.03367254 ], [ 19.75705491, 49.0336949 ], [ 19.75714806, 49.03374169 ], [ 19.75719867, 49.03376985 ], [ 19.75753093, 49.0339573 ], [ 19.75767915, 49.03405461 ], [ 19.75779035, 49.0341276 ], [ 19.75795858, 49.03425886 ], [ 19.75799885, 49.03427278 ], [ 19.75803723, 49.03428365 ], [ 19.7581543, 49.0343012 ], [ 19.75819403, 49.0343014 ], [ 19.75826197, 49.03431815 ], [ 19.75833828, 49.03434437 ], [ 19.75847504, 49.0343963 ], [ 19.75854467, 49.03442223 ], [ 19.7586101, 49.03444212 ], [ 19.7587337, 49.03446283 ], [ 19.75905533, 49.034503 ], [ 19.75912522, 49.0345046 ], [ 19.75946071, 49.03447669 ], [ 19.759716, 49.03446521 ], [ 19.75982555, 49.03446079 ], [ 19.75996459, 49.03446713 ], [ 19.76015638, 49.03448315 ], [ 19.76061992, 49.0345039 ], [ 19.76109087, 49.03452182 ], [ 19.76151307, 49.03449319 ], [ 19.76171501, 49.03447784 ], [ 19.76198304, 49.03447456 ], [ 19.76241329, 49.03445844 ], [ 19.76270646, 49.03443967 ], [ 19.76284889, 49.03443822 ], [ 19.76299889, 49.03442826 ], [ 19.76308303, 49.0344258 ], [ 19.76311996, 49.03443201 ], [ 19.76320911, 49.03446816 ], [ 19.76334651, 49.03451389 ], [ 19.76352105, 49.03458278 ], [ 19.76358973, 49.03461804 ], [ 19.76369693, 49.03466417 ], [ 19.76372541, 49.03468073 ], [ 19.76378814, 49.03472618 ], [ 19.76381895, 49.03474275 ], [ 19.7638503, 49.03475809 ], [ 19.76388606, 49.03477191 ], [ 19.76392878, 49.03478593 ], [ 19.76414379, 49.03482459 ], [ 19.76451357, 49.03487937 ], [ 19.7646392, 49.03490314 ], [ 19.76476772, 49.03489828 ], [ 19.76520397, 49.03491783 ], [ 19.76546843, 49.03492682 ], [ 19.76574936, 49.03483091 ], [ 19.76612089, 49.03466297 ], [ 19.76632619, 49.03455313 ], [ 19.76658409, 49.03442728 ], [ 19.76677832, 49.03433066 ], [ 19.76690839, 49.03427224 ], [ 19.76705522, 49.03420536 ], [ 19.76719419, 49.03413887 ], [ 19.76729385, 49.03409111 ], [ 19.76758669, 49.03393677 ], [ 19.76795734, 49.03379781 ], [ 19.76843358, 49.03364478 ], [ 19.76853252, 49.03362593 ], [ 19.76866745, 49.03359954 ], [ 19.76915514, 49.03354777 ], [ 19.7693779, 49.03352033 ], [ 19.76954009, 49.03352406 ], [ 19.76983019, 49.0335466 ], [ 19.77010227, 49.03359152 ], [ 19.77036438, 49.03368917 ], [ 19.77049022, 49.03373403 ], [ 19.77094215, 49.03405661 ], [ 19.77118405, 49.03426658 ], [ 19.7714344, 49.03446619 ], [ 19.77147, 49.03448153 ], [ 19.77170347, 49.03452611 ], [ 19.77207385, 49.03459675 ], [ 19.77239144, 49.03452738 ], [ 19.77249274, 49.034466 ], [ 19.77273845, 49.03432357 ], [ 19.77303301, 49.03418326 ], [ 19.77330285, 49.03408153 ], [ 19.77348162, 49.03403082 ], [ 19.77377811, 49.03396404 ], [ 19.77397169, 49.03393226 ], [ 19.77451379, 49.03394592 ], [ 19.77460328, 49.03395567 ], [ 19.77513089, 49.03409848 ], [ 19.77558347, 49.03422135 ], [ 19.77567931, 49.03426192 ], [ 19.77599526, 49.03440508 ], [ 19.77608553, 49.03443018 ], [ 19.77636096, 49.03449226 ], [ 19.77641622, 49.03449619 ], [ 19.77736513, 49.03445831 ], [ 19.77796566, 49.03442258 ], [ 19.77878571, 49.03437656 ], [ 19.77949114, 49.03433628 ], [ 19.78023921, 49.03429045 ], [ 19.78048365, 49.03426412 ], [ 19.78066227, 49.03424619 ], [ 19.78071311, 49.03424083 ], [ 19.78111152, 49.03418811 ], [ 19.78124701, 49.03416831 ], [ 19.78176299, 49.03404498 ], [ 19.78178853, 49.03402951 ], [ 19.78186703, 49.03398218 ], [ 19.78208356, 49.03386243 ], [ 19.78206594, 49.0338386 ], [ 19.78217804, 49.03361635 ], [ 19.78222497, 49.03345076 ], [ 19.78226147, 49.03330022 ], [ 19.78231751, 49.03306833 ], [ 19.7823508, 49.03292387 ], [ 19.78237923, 49.03273629 ], [ 19.782402, 49.03262832 ], [ 19.78245386, 49.03249413 ], [ 19.78249857, 49.03242289 ], [ 19.78252645, 49.03237859 ], [ 19.78272528, 49.03212253 ], [ 19.78297976, 49.03193458 ], [ 19.78302334, 49.03190187 ], [ 19.78326878, 49.03175616 ], [ 19.78367938, 49.03155039 ], [ 19.7839881, 49.03139417 ], [ 19.78432891, 49.03123097 ], [ 19.78445275, 49.03117561 ], [ 19.78453734, 49.03116441 ], [ 19.78472463, 49.03106547 ], [ 19.78484251, 49.03098758 ], [ 19.78500619, 49.03087942 ], [ 19.78501284, 49.03085411 ], [ 19.7852729, 49.0306418 ], [ 19.78533572, 49.03057171 ], [ 19.78556405, 49.03023996 ], [ 19.78563793, 49.02998451 ], [ 19.78563414, 49.02993487 ], [ 19.78559415, 49.02978434 ], [ 19.78545148, 49.02954942 ], [ 19.78522007, 49.0292782 ], [ 19.78518444, 49.02923312 ], [ 19.78512647, 49.02917843 ], [ 19.78510376, 49.02914797 ], [ 19.78508729, 49.02912779 ], [ 19.78503703, 49.02906595 ], [ 19.78492542, 49.02889438 ], [ 19.78481533, 49.02870899 ], [ 19.78463377, 49.02852979 ], [ 19.7845849, 49.02851965 ], [ 19.78447257, 49.0283402 ], [ 19.7843378, 49.02826838 ], [ 19.78414136, 49.02810088 ], [ 19.78402299, 49.02792018 ], [ 19.78400314, 49.02789814 ], [ 19.78397103, 49.02783708 ], [ 19.78393758, 49.0278003 ], [ 19.78388928, 49.02777225 ], [ 19.78384293, 49.02774663 ], [ 19.78380644, 49.02772648 ], [ 19.78376341, 49.02770316 ], [ 19.78372189, 49.02768126 ], [ 19.78369938, 49.02766938 ], [ 19.78366484, 49.02764346 ], [ 19.78362303, 49.02762028 ], [ 19.78356696, 49.02757819 ], [ 19.78340768, 49.02749648 ], [ 19.78333387, 49.02744136 ], [ 19.78325911, 49.02739972 ], [ 19.78324957, 49.02739093 ], [ 19.78324004, 49.02738213 ], [ 19.78322128, 49.02737375 ], [ 19.78317971, 49.02735509 ], [ 19.78317072, 49.02735182 ], [ 19.78280722, 49.02721987 ], [ 19.78278104, 49.0272035 ], [ 19.78270565, 49.02715183 ], [ 19.78270257, 49.02714971 ], [ 19.78260699, 49.02708752 ], [ 19.78258773, 49.02707596 ], [ 19.7825678, 49.02706284 ], [ 19.7825083, 49.02702349 ], [ 19.78238305, 49.02692648 ], [ 19.78234014, 49.02689109 ], [ 19.78226818, 49.02681749 ], [ 19.78217925, 49.02670683 ], [ 19.78212959, 49.02643431 ], [ 19.78211404, 49.02638172 ], [ 19.78206523, 49.02626181 ], [ 19.78199126, 49.02614414 ], [ 19.78191801, 49.02603696 ], [ 19.78172708, 49.02585166 ], [ 19.78170758, 49.02583703 ], [ 19.78149321, 49.02572678 ], [ 19.78136183, 49.02566763 ], [ 19.78131568, 49.02564273 ], [ 19.78130374, 49.02562239 ], [ 19.7812912, 49.02558219 ], [ 19.7812067, 49.02526363 ], [ 19.78114984, 49.02504117 ], [ 19.78109817, 49.02488148 ], [ 19.78103123, 49.02459288 ], [ 19.78104853, 49.02432785 ], [ 19.78101154, 49.02416123 ], [ 19.78095431, 49.02401067 ], [ 19.78092133, 49.02394192 ], [ 19.78089062, 49.02387795 ], [ 19.78086567, 49.02384938 ], [ 19.78063637, 49.02363006 ], [ 19.78037407, 49.02348411 ], [ 19.78032894, 49.02345592 ], [ 19.78028239, 49.02342677 ], [ 19.78016855, 49.02337731 ], [ 19.77988537, 49.02325514 ], [ 19.77971949, 49.02319296 ], [ 19.77965206, 49.02316714 ], [ 19.77962467, 49.02316288 ], [ 19.77950641, 49.02316279 ], [ 19.77933664, 49.02316263 ], [ 19.77913483, 49.02317981 ], [ 19.7789237, 49.02317668 ], [ 19.7788254, 49.02313888 ], [ 19.77873691, 49.02309078 ], [ 19.7786456, 49.02302571 ], [ 19.77863353, 49.02300815 ], [ 19.77851332, 49.02283791 ], [ 19.77838996, 49.02258047 ], [ 19.77836789, 49.02247551 ], [ 19.7783559, 49.02238342 ], [ 19.77834035, 49.02233228 ], [ 19.77830331, 49.0222099 ], [ 19.7782139, 49.02205776 ], [ 19.77819468, 49.02201727 ], [ 19.77819185, 49.02197587 ], [ 19.77818028, 49.02192598 ], [ 19.7781617, 49.02180946 ], [ 19.7781377, 49.02170198 ], [ 19.7780913, 49.02158686 ], [ 19.77804151, 49.02144689 ], [ 19.77800234, 49.02137435 ], [ 19.77799248, 49.0212993 ], [ 19.7778913, 49.02120298 ], [ 19.7777926, 49.02108883 ], [ 19.77770196, 49.0210035 ], [ 19.77742185, 49.02078278 ], [ 19.77731587, 49.02068237 ], [ 19.77721466, 49.02059317 ], [ 19.77713174, 49.020487 ], [ 19.77704391, 49.02038062 ], [ 19.77697462, 49.02020421 ], [ 19.77689055, 49.01999498 ], [ 19.77684071, 49.01979824 ], [ 19.77679636, 49.01967239 ], [ 19.77678269, 49.01962565 ], [ 19.77675834, 49.01951482 ], [ 19.77671268, 49.01939243 ], [ 19.77668277, 49.01928514 ], [ 19.77664389, 49.0191525 ], [ 19.77664166, 49.01888699 ], [ 19.77660033, 49.01877885 ], [ 19.77658864, 49.01865793 ], [ 19.77653176, 49.0185885 ], [ 19.7764281, 49.01852379 ], [ 19.77620964, 49.01843967 ], [ 19.77598901, 49.01837708 ], [ 19.77586191, 49.01831513 ], [ 19.77571488, 49.01821294 ], [ 19.77560781, 49.01812356 ], [ 19.77540231, 49.01796917 ], [ 19.77528954, 49.01787234 ], [ 19.77512689, 49.01775928 ], [ 19.77503159, 49.01766311 ], [ 19.77494619, 49.01758856 ], [ 19.77487055, 49.0174755 ], [ 19.77473723, 49.01735272 ], [ 19.774657, 49.01726352 ], [ 19.77461689, 49.01722365 ], [ 19.77449734, 49.01713707 ], [ 19.77426287, 49.01698195 ], [ 19.77402634, 49.01684738 ], [ 19.77386403, 49.016731 ], [ 19.77373467, 49.01662614 ], [ 19.77362014, 49.01655375 ], [ 19.77349545, 49.01645973 ], [ 19.77332605, 49.0163498 ], [ 19.77319021, 49.01625908 ], [ 19.77303851, 49.01614613 ], [ 19.77283141, 49.01601329 ], [ 19.77276882, 49.015919 ], [ 19.7727436, 49.01588095 ], [ 19.77272516, 49.01585311 ], [ 19.77272278, 49.01576099 ], [ 19.77273671, 49.01567977 ], [ 19.77276567, 49.01550763 ], [ 19.77285768, 49.01534887 ], [ 19.77287538, 49.0151729 ], [ 19.77288137, 49.01504933 ], [ 19.77286931, 49.01493903 ], [ 19.77282727, 49.01483798 ], [ 19.77278254, 49.01470508 ], [ 19.77267111, 49.01454468 ], [ 19.77255226, 49.01439404 ], [ 19.77244372, 49.01426215 ], [ 19.77234083, 49.01418305 ], [ 19.77219089, 49.01405279 ], [ 19.77210833, 49.01394997 ], [ 19.77199733, 49.01384257 ], [ 19.77181577, 49.01373923 ], [ 19.77171929, 49.0136605 ], [ 19.77163475, 49.01357201 ], [ 19.77154362, 49.0134972 ], [ 19.77142307, 49.01324781 ], [ 19.77132939, 49.01314117 ], [ 19.7712468, 49.01298157 ], [ 19.77116116, 49.0128468 ], [ 19.77112821, 49.01277119 ], [ 19.77108546, 49.01267731 ], [ 19.77100983, 49.01256425 ], [ 19.77092333, 49.01243674 ], [ 19.77085374, 49.01226365 ], [ 19.77073736, 49.01208861 ], [ 19.77066208, 49.01197213 ], [ 19.77060739, 49.01188116 ], [ 19.77051678, 49.01179583 ], [ 19.77044638, 49.01171526 ], [ 19.77042811, 49.01169662 ], [ 19.77032337, 49.01158562 ], [ 19.77019684, 49.01145294 ], [ 19.77009124, 49.01134912 ], [ 19.77002046, 49.01123969 ], [ 19.77002624, 49.01113053 ], [ 19.77001422, 49.01101302 ], [ 19.77002407, 49.01098056 ], [ 19.77005002, 49.01089418 ], [ 19.7700671, 49.01081976 ], [ 19.77007941, 49.01077505 ], [ 19.77007967, 49.01065132 ], [ 19.77003976, 49.01052917 ], [ 19.77002919, 49.0104613 ], [ 19.77001093, 49.0104113 ], [ 19.77000035, 49.01034351 ], [ 19.77007271, 49.01020165 ], [ 19.77009484, 49.01009618 ], [ 19.77008248, 49.01004607 ], [ 19.7700528, 49.00999521 ], [ 19.77001773, 49.00994069 ], [ 19.7699577, 49.00990284 ], [ 19.76985239, 49.0098139 ], [ 19.76980744, 49.00977589 ], [ 19.76952454, 49.00968047 ], [ 19.76919625, 49.00957461 ], [ 19.76889351, 49.00948301 ], [ 19.76849984, 49.0093679 ], [ 19.76820513, 49.00925376 ], [ 19.76807921, 49.00918591 ], [ 19.76796857, 49.00908871 ], [ 19.76779603, 49.00876666 ], [ 19.76773449, 49.00848802 ], [ 19.76770766, 49.00836392 ], [ 19.7675174, 49.00793763 ], [ 19.76744593, 49.00770046 ], [ 19.76743243, 49.00755828 ], [ 19.76745121, 49.00739084 ], [ 19.76751461, 49.007191 ], [ 19.76774266, 49.00660908 ], [ 19.7677118, 49.00631276 ], [ 19.76767164, 49.00625712 ], [ 19.7667396, 49.00530002 ], [ 19.76636297, 49.00493302 ], [ 19.76632705, 49.00488567 ], [ 19.76629849, 49.00483062 ], [ 19.76628324, 49.00478751 ], [ 19.76627641, 49.00476819 ], [ 19.7663062, 49.00465882 ], [ 19.76634709, 49.00455335 ], [ 19.76639329, 49.00445235 ], [ 19.76676184, 49.00401103 ], [ 19.76700979, 49.00371703 ], [ 19.76708887, 49.00357925 ], [ 19.76712165, 49.00341962 ], [ 19.76713945, 49.00322924 ], [ 19.76714977, 49.00312668 ], [ 19.76712846, 49.00276281 ], [ 19.76726248, 49.00230235 ], [ 19.76737377, 49.00195201 ], [ 19.76741988, 49.00189679 ], [ 19.76794225, 49.00156004 ], [ 19.76811869, 49.00142659 ], [ 19.76818136, 49.00132244 ], [ 19.7682293, 49.00107614 ], [ 19.76820922, 49.00099388 ], [ 19.76810187, 49.00091458 ], [ 19.76795589, 49.00084207 ], [ 19.76775759, 49.00083343 ], [ 19.76756295, 49.0007898 ], [ 19.76745437, 49.0007227 ], [ 19.76743565, 49.00068142 ], [ 19.76740742, 49.0006189 ], [ 19.76738659, 49.00044207 ], [ 19.76736274, 49.00035929 ], [ 19.76736322, 49.00022655 ], [ 19.76734438, 49.00011299 ], [ 19.76738502, 48.99993928 ], [ 19.76758609, 48.99973391 ], [ 19.76763295, 48.99961392 ], [ 19.76765759, 48.99948485 ], [ 19.76767156, 48.99939642 ], [ 19.76761413, 48.9993274 ], [ 19.76751119, 48.99926821 ], [ 19.76736979, 48.99920734 ], [ 19.76723247, 48.99916999 ], [ 19.76699797, 48.99914409 ], [ 19.76683211, 48.99913308 ], [ 19.76665238, 48.99913327 ], [ 19.76645308, 48.99907753 ], [ 19.76615466, 48.9989954 ], [ 19.76603071, 48.9989599 ], [ 19.76590991, 48.99889316 ], [ 19.7657302, 48.99871364 ], [ 19.7655793, 48.99853492 ], [ 19.76549921, 48.9984094 ], [ 19.76545575, 48.99831594 ], [ 19.7654508, 48.99825083 ], [ 19.76551188, 48.99798979 ], [ 19.76549907, 48.99782863 ], [ 19.76548749, 48.99777089 ], [ 19.76543979, 48.99766913 ], [ 19.76533737, 48.99752732 ], [ 19.76524149, 48.99744302 ], [ 19.76500986, 48.99726087 ], [ 19.7647268, 48.99717471 ], [ 19.76422145, 48.99703524 ], [ 19.76389343, 48.99692216 ], [ 19.76352953, 48.99683761 ], [ 19.76334285, 48.99679135 ], [ 19.76326245, 48.9967764 ], [ 19.76300748, 48.99671183 ], [ 19.76265649, 48.99656304 ], [ 19.76244881, 48.99648864 ], [ 19.7623095, 48.996433 ], [ 19.76215017, 48.99633826 ], [ 19.76173436, 48.99607976 ], [ 19.76133464, 48.99577581 ], [ 19.76118215, 48.9956199 ], [ 19.7609364, 48.99534169 ], [ 19.76085085, 48.99521205 ], [ 19.76085316, 48.99513203 ], [ 19.76088786, 48.99507586 ], [ 19.76092747, 48.99502802 ], [ 19.76118605, 48.99487861 ], [ 19.76153604, 48.99474896 ], [ 19.76168293, 48.99461378 ], [ 19.76173223, 48.99452815 ], [ 19.76165444, 48.9944942 ], [ 19.76117054, 48.99427814 ], [ 19.76086465, 48.9941999 ], [ 19.76047339, 48.99409892 ], [ 19.76003453, 48.99395386 ], [ 19.75990173, 48.99389084 ], [ 19.75969359, 48.99364859 ], [ 19.75960283, 48.99350683 ], [ 19.75958871, 48.9932964 ], [ 19.759611, 48.99289586 ], [ 19.75961916, 48.99252147 ], [ 19.75960097, 48.99241388 ], [ 19.75948757, 48.99221011 ], [ 19.75934024, 48.99205488 ], [ 19.75907559, 48.99173338 ], [ 19.75893973, 48.99152142 ], [ 19.75878028, 48.99113593 ], [ 19.75871644, 48.99084276 ], [ 19.75871387, 48.99039544 ], [ 19.75877937, 48.99019948 ], [ 19.75879932, 48.99000153 ], [ 19.75876893, 48.98983572 ], [ 19.75871442, 48.9897379 ], [ 19.75862812, 48.98961589 ], [ 19.75847062, 48.98944074 ], [ 19.7584083, 48.98918954 ], [ 19.7582937, 48.98888226 ], [ 19.7582511, 48.98866635 ], [ 19.75830195, 48.98832095 ], [ 19.75839663, 48.98818728 ], [ 19.75893827, 48.98764503 ], [ 19.75933806, 48.9872954 ], [ 19.75955422, 48.98704879 ], [ 19.75968928, 48.98685965 ], [ 19.75975984, 48.98637695 ], [ 19.75979987, 48.98614545 ], [ 19.75989807, 48.98597002 ], [ 19.76000772, 48.98586035 ], [ 19.760452, 48.9855351 ], [ 19.76065777, 48.9853915 ], [ 19.7608593, 48.98529683 ], [ 19.76096435, 48.98523274 ], [ 19.76107186, 48.98513063 ], [ 19.76117119, 48.98502691 ], [ 19.76132247, 48.98489399 ], [ 19.7614622, 48.98475346 ], [ 19.76164467, 48.98459099 ], [ 19.76184468, 48.98442163 ], [ 19.76210287, 48.98418577 ], [ 19.76225032, 48.98408405 ], [ 19.76246614, 48.98398883 ], [ 19.76263348, 48.98391935 ], [ 19.76280999, 48.98386775 ], [ 19.76303305, 48.98381475 ], [ 19.76324312, 48.98377516 ], [ 19.76344348, 48.98371099 ], [ 19.76355229, 48.98365301 ], [ 19.76366473, 48.9835604 ], [ 19.76376911, 48.98343219 ], [ 19.76388128, 48.98328369 ], [ 19.76396486, 48.98313764 ], [ 19.76403456, 48.98301522 ], [ 19.76412595, 48.98290051 ], [ 19.76421427, 48.98281749 ], [ 19.76431673, 48.9827138 ], [ 19.76439745, 48.98264784 ], [ 19.76449621, 48.98257545 ], [ 19.76465456, 48.98248096 ], [ 19.76481811, 48.98239067 ], [ 19.76500243, 48.98226262 ], [ 19.76514151, 48.98219235 ], [ 19.76536304, 48.98209052 ], [ 19.76550686, 48.98203019 ], [ 19.7656977, 48.98195163 ], [ 19.76588753, 48.98188321 ], [ 19.76606993, 48.98177968 ], [ 19.76626862, 48.98168019 ], [ 19.766448, 48.98159987 ], [ 19.7664882, 48.98157873 ], [ 19.76650561, 48.9815703 ], [ 19.76653886, 48.98155427 ], [ 19.76658703, 48.98153681 ], [ 19.7666077, 48.98152329 ], [ 19.76663116, 48.98150782 ], [ 19.76667594, 48.98147246 ], [ 19.76688325, 48.98131323 ], [ 19.76708041, 48.98117177 ], [ 19.76728913, 48.98103117 ], [ 19.76743782, 48.98091562 ], [ 19.76762268, 48.98078759 ], [ 19.76779647, 48.98059671 ], [ 19.76795158, 48.98041871 ], [ 19.76808085, 48.98026744 ], [ 19.76819556, 48.98015077 ], [ 19.76826681, 48.98006997 ], [ 19.7683976, 48.97996752 ], [ 19.76858677, 48.97984697 ], [ 19.768758, 48.97973862 ], [ 19.76885284, 48.97970508 ], [ 19.76902008, 48.97968822 ], [ 19.76918978, 48.97965362 ], [ 19.76939983, 48.97961401 ], [ 19.76966737, 48.97956637 ], [ 19.76995674, 48.97947461 ], [ 19.77020769, 48.97937406 ], [ 19.77045436, 48.97925214 ], [ 19.77063878, 48.97918006 ], [ 19.77074325, 48.97910791 ], [ 19.77085825, 48.97904677 ], [ 19.77090195, 48.97895116 ], [ 19.77097701, 48.9788324 ], [ 19.7710259, 48.97874377 ], [ 19.7711939, 48.97866754 ], [ 19.77134976, 48.97859764 ], [ 19.77155203, 48.97851957 ], [ 19.77193814, 48.97849096 ], [ 19.77216859, 48.97847306 ], [ 19.7723575, 48.97847065 ], [ 19.77254457, 48.97849746 ], [ 19.77265771, 48.97852699 ], [ 19.77280635, 48.97856023 ], [ 19.77296284, 48.97859841 ], [ 19.77303889, 48.97862371 ], [ 19.77307313, 48.9785705 ], [ 19.77319328, 48.97832175 ], [ 19.77319685, 48.97830668 ], [ 19.77320064, 48.9782908 ], [ 19.77321683, 48.97822238 ], [ 19.77322105, 48.97820625 ], [ 19.7732258, 48.97818762 ], [ 19.77319856, 48.97812073 ], [ 19.77310276, 48.97788602 ], [ 19.77308212, 48.97783528 ], [ 19.77305785, 48.97779475 ], [ 19.77265903, 48.97712848 ], [ 19.77250054, 48.97677784 ], [ 19.77267238, 48.97637579 ], [ 19.77256829, 48.97602067 ], [ 19.77204276, 48.97489221 ], [ 19.77201573, 48.97483416 ], [ 19.77198837, 48.97477538 ], [ 19.77132256, 48.97415335 ], [ 19.77056172, 48.97356701 ], [ 19.77001194, 48.97301527 ], [ 19.76962565, 48.97160437 ], [ 19.76891364, 48.97136073 ], [ 19.76843168, 48.97115866 ], [ 19.76708214, 48.97093281 ], [ 19.76664254, 48.97066228 ], [ 19.76622875, 48.97032708 ], [ 19.76614203, 48.96992233 ], [ 19.7660208, 48.96972579 ], [ 19.76577688, 48.96941675 ], [ 19.76537595, 48.9691716 ], [ 19.76503944, 48.9690603 ], [ 19.76474542, 48.96892409 ], [ 19.76428154, 48.96865159 ], [ 19.76366449, 48.9682893 ], [ 19.76264181, 48.96773429 ], [ 19.76166206, 48.96713111 ], [ 19.76047298, 48.96647003 ], [ 19.75937907, 48.9662858 ], [ 19.7593512, 48.96628116 ], [ 19.75888259, 48.96633739 ], [ 19.7580832, 48.96576531 ], [ 19.75722193, 48.96491374 ], [ 19.7567322, 48.96465539 ], [ 19.75645266, 48.96456332 ], [ 19.75576573, 48.96433718 ], [ 19.75497645, 48.9640496 ], [ 19.75446201, 48.9637935 ], [ 19.7539492, 48.96349006 ], [ 19.7537123, 48.96323465 ], [ 19.75333193, 48.96282461 ], [ 19.7532444, 48.96229471 ], [ 19.75303607, 48.96082382 ], [ 19.7530224, 48.96077203 ], [ 19.75290742, 48.9603379 ], [ 19.7528485, 48.96002925 ], [ 19.75273816, 48.9594568 ], [ 19.75228924, 48.9592926 ], [ 19.75152466, 48.95890774 ], [ 19.7507751, 48.95842431 ], [ 19.7500064, 48.95812524 ], [ 19.74960884, 48.95734518 ], [ 19.74950734, 48.95714534 ], [ 19.74798544, 48.9561503 ], [ 19.74730136, 48.95602752 ], [ 19.74677972, 48.95591436 ], [ 19.74658179, 48.95587127 ], [ 19.74633633, 48.9558178 ], [ 19.74532631, 48.95544792 ], [ 19.74480501, 48.95527457 ], [ 19.74429791, 48.95513284 ], [ 19.7430257, 48.95493765 ], [ 19.7428043, 48.95491425 ], [ 19.74237925, 48.95486939 ], [ 19.74138849, 48.95440415 ], [ 19.74133494, 48.95438018 ], [ 19.74089139, 48.95417038 ], [ 19.74058499, 48.95392252 ], [ 19.74020125, 48.95368694 ], [ 19.73955516, 48.95345555 ], [ 19.73756895, 48.95361176 ], [ 19.73710742, 48.95281694 ], [ 19.73708942, 48.95278524 ], [ 19.73687897, 48.95242242 ], [ 19.73640652, 48.95161405 ], [ 19.73564908, 48.95094449 ], [ 19.73451518, 48.94994926 ], [ 19.73344456, 48.94994469 ], [ 19.73213368, 48.9498087 ], [ 19.73146858, 48.94954289 ], [ 19.73024569, 48.94923815 ], [ 19.72852949, 48.948604 ], [ 19.72837515, 48.94855657 ], [ 19.72779294, 48.94837784 ], [ 19.72702165, 48.94811923 ], [ 19.72562007, 48.947526 ], [ 19.72551405, 48.94747303 ], [ 19.72322912, 48.94632509 ], [ 19.72298838, 48.94620409 ], [ 19.72288075, 48.94616844 ], [ 19.72143524, 48.94569228 ], [ 19.71898046, 48.94366882 ], [ 19.71813707, 48.94293685 ], [ 19.71636614, 48.9412041 ], [ 19.71399196, 48.94030494 ], [ 19.71340617, 48.94014265 ], [ 19.71196903, 48.94097841 ], [ 19.7114868, 48.94125899 ], [ 19.71123918, 48.94168267 ], [ 19.71086735, 48.94231999 ], [ 19.70966763, 48.94389032 ], [ 19.70915871, 48.94500875 ], [ 19.7082359, 48.94676001 ], [ 19.70812985, 48.94695371 ], [ 19.7079252, 48.9472194 ], [ 19.70793013, 48.94730686 ], [ 19.70798041, 48.94819525 ], [ 19.70794224, 48.94893084 ], [ 19.70809382, 48.94963614 ], [ 19.708491, 48.95066053 ], [ 19.70857115, 48.95086677 ], [ 19.70867625, 48.95113721 ], [ 19.70917016, 48.95253341 ], [ 19.70924541, 48.95273682 ], [ 19.70952946, 48.95343156 ], [ 19.70956976, 48.95352915 ], [ 19.70999542, 48.95431188 ], [ 19.71016654, 48.95471114 ], [ 19.7103742, 48.95519511 ], [ 19.71100117, 48.95644927 ], [ 19.71107936, 48.95675033 ], [ 19.71132133, 48.95768854 ], [ 19.71144107, 48.95842893 ], [ 19.71146522, 48.95922242 ], [ 19.71143826, 48.95967189 ], [ 19.71157748, 48.96012526 ], [ 19.71094322, 48.9604077 ], [ 19.71054584, 48.96063415 ], [ 19.71014, 48.96089782 ], [ 19.70982687, 48.96113421 ], [ 19.70946183, 48.96141527 ], [ 19.70891277, 48.9617641 ], [ 19.70896398, 48.9620263 ], [ 19.70952211, 48.96293231 ], [ 19.70917181, 48.96399663 ], [ 19.70877162, 48.96480989 ], [ 19.7086452, 48.9651469 ], [ 19.70885658, 48.96604393 ], [ 19.70905789, 48.96646281 ], [ 19.70926541, 48.96743691 ], [ 19.70927144, 48.96746512 ], [ 19.70934647, 48.96775288 ], [ 19.70937688, 48.96810654 ], [ 19.70937682, 48.96812601 ], [ 19.70932231, 48.96857417 ], [ 19.70930176, 48.96874253 ], [ 19.70901753, 48.96937235 ], [ 19.70815345, 48.97078832 ], [ 19.70782181, 48.97178549 ], [ 19.70733019, 48.97325123 ], [ 19.70668673, 48.97525187 ], [ 19.70830499, 48.97789713 ], [ 19.71110132, 48.98027839 ], [ 19.71115351, 48.98042354 ], [ 19.71195763, 48.98265592 ], [ 19.71028956, 48.98281258 ], [ 19.71016567, 48.98282424 ], [ 19.70963459, 48.98287446 ], [ 19.70875646, 48.98296003 ], [ 19.7082372, 48.98316985 ], [ 19.70546501, 48.98428847 ], [ 19.70531322, 48.98434955 ], [ 19.70416825, 48.98483872 ], [ 19.70349676, 48.98539835 ], [ 19.70317093, 48.98555188 ], [ 19.70306305, 48.98560264 ], [ 19.70332084, 48.98618257 ], [ 19.70337538, 48.98658939 ], [ 19.70375667, 48.98944075 ], [ 19.70423068, 48.99298209 ], [ 19.70391925, 48.99305442 ], [ 19.70282694, 48.99330976 ], [ 19.70269681, 48.99324679 ], [ 19.70254361, 48.99325823 ], [ 19.70093022, 48.99363891 ], [ 19.70093782, 48.99367728 ], [ 19.70105979, 48.99428907 ], [ 19.70134713, 48.99572916 ], [ 19.70144886, 48.9960775 ], [ 19.70185197, 48.99655442 ], [ 19.7017097, 48.99688172 ], [ 19.70228392, 48.9972967 ], [ 19.70258841, 48.99751447 ], [ 19.70259022, 48.99776809 ], [ 19.7024319, 48.99904952 ], [ 19.70242576, 48.99931801 ], [ 19.7024, 49.00045469 ], [ 19.70247186, 49.00058422 ], [ 19.70333791, 49.00172213 ], [ 19.70353777, 49.00210247 ], [ 19.70367788, 49.00236886 ], [ 19.70375338, 49.00314136 ], [ 19.70386611, 49.00429595 ], [ 19.70389721, 49.00458754 ], [ 19.70397411, 49.00531009 ], [ 19.7013913, 49.0060499 ], [ 19.7012082, 49.00609482 ], [ 19.70053567, 49.00648424 ], [ 19.69985468, 49.0068785 ], [ 19.69863377, 49.00758538 ], [ 19.69776623, 49.00847009 ], [ 19.69702545, 49.00922547 ], [ 19.69697941, 49.00927246 ], [ 19.69683126, 49.00938426 ], [ 19.69680164, 49.00945965 ], [ 19.69668252, 49.0101849 ], [ 19.69650607, 49.01126363 ], [ 19.69647387, 49.01146095 ], [ 19.69644055, 49.01166515 ], [ 19.69718864, 49.0124398 ], [ 19.69778519, 49.0130575 ], [ 19.69766712, 49.0132558 ], [ 19.69754938, 49.01345348 ], [ 19.6974624, 49.01359944 ], [ 19.69792825, 49.01409095 ], [ 19.69821068, 49.01438878 ], [ 19.69759454, 49.01494119 ], [ 19.69746437, 49.01505793 ], [ 19.69761328, 49.0153294 ], [ 19.69790717, 49.01586397 ], [ 19.69792473, 49.01589602 ], [ 19.69795572, 49.0159521 ], [ 19.69827072, 49.0163149 ], [ 19.69873298, 49.01684726 ], [ 19.69899502, 49.01714896 ], [ 19.70001717, 49.01810351 ], [ 19.70015006, 49.01821663 ], [ 19.70043775, 49.01844843 ], [ 19.70047149, 49.01852203 ], [ 19.70085524, 49.01901846 ], [ 19.70128389, 49.0195705 ], [ 19.70195328, 49.02006124 ], [ 19.70246086, 49.02043081 ], [ 19.70261791, 49.02068479 ], [ 19.70283732, 49.02103138 ], [ 19.70293563, 49.02118668 ], [ 19.70367834, 49.02166433 ], [ 19.70372083, 49.02199887 ], [ 19.70377204, 49.02237968 ], [ 19.70382091, 49.0224917 ], [ 19.70404272, 49.022999 ], [ 19.70415515, 49.02335195 ], [ 19.70429818, 49.02381612 ], [ 19.70468519, 49.02427735 ], [ 19.70481549, 49.02442955 ], [ 19.70515039, 49.02483197 ], [ 19.70533696, 49.02500504 ], [ 19.70568484, 49.02532592 ], [ 19.7060945, 49.0256324 ], [ 19.70621001, 49.02579801 ], [ 19.70644854, 49.02614029 ], [ 19.70653392, 49.02626276 ], [ 19.70660291, 49.02636305 ], [ 19.70680273, 49.0266536 ], [ 19.70686276, 49.02670203 ], [ 19.70705413, 49.02688992 ], [ 19.7073924, 49.0272219 ], [ 19.70793214, 49.02775186 ], [ 19.70794869, 49.02777097 ], [ 19.70798584, 49.02786643 ], [ 19.70808394, 49.02811825 ], [ 19.70834101, 49.02871867 ], [ 19.70836524, 49.02877552 ], [ 19.70857184, 49.02925925 ], [ 19.70859065, 49.02930334 ], [ 19.70870138, 49.02956311 ], [ 19.7087576, 49.02969474 ], [ 19.70875805, 49.02969566 ], [ 19.70881511, 49.02982309 ], [ 19.70885977, 49.02992285 ], [ 19.70886965, 49.02995096 ], [ 19.70889778, 49.03001249 ], [ 19.70900947, 49.0304768 ], [ 19.7090249, 49.03054598 ], [ 19.70903397, 49.03058613 ], [ 19.70911392, 49.03094359 ], [ 19.70913458, 49.0312157 ], [ 19.70901415, 49.03169132 ], [ 19.70883499, 49.03200753 ], [ 19.70812113, 49.03260059 ], [ 19.70800298, 49.0327176 ], [ 19.7074968, 49.03321886 ], [ 19.70727082, 49.03361772 ], [ 19.7073619, 49.03390483 ], [ 19.70807437, 49.03426583 ], [ 19.70813385, 49.03428747 ], [ 19.70898255, 49.03455469 ], [ 19.7093889, 49.03465641 ], [ 19.70970578, 49.03466766 ], [ 19.70999929, 49.03465121 ], [ 19.71005734, 49.03472992 ], [ 19.7103923, 49.03470502 ], [ 19.71075964, 49.03468379 ], [ 19.71095745, 49.03467159 ], [ 19.71118964, 49.03463279 ], [ 19.71134627, 49.03459823 ], [ 19.71140388, 49.03460329 ], [ 19.71146967, 49.03461817 ], [ 19.71156343, 49.03463167 ], [ 19.71167569, 49.03464653 ], [ 19.71173862, 49.03466255 ], [ 19.71178035, 49.03468214 ], [ 19.71224491, 49.03482751 ], [ 19.71236596, 49.03486105 ], [ 19.71244031, 49.03487938 ], [ 19.71283614, 49.03493646 ], [ 19.71302019, 49.03495573 ], [ 19.71331456, 49.0349713 ], [ 19.71370681, 49.03497604 ], [ 19.71453231, 49.03495442 ], [ 19.7148615, 49.03494294 ], [ 19.7153289, 49.03486256 ], [ 19.71549192, 49.03481908 ], [ 19.71559353, 49.03478642 ], [ 19.71566721, 49.03476154 ], [ 19.71581866, 49.03471323 ], [ 19.71591837, 49.03466822 ], [ 19.71663504, 49.0343487 ], [ 19.71707955, 49.03416843 ], [ 19.71718429, 49.03413194 ], [ 19.71745264, 49.03402721 ], [ 19.71789273, 49.03385666 ], [ 19.71795095, 49.03383146 ], [ 19.71816028, 49.0337774 ], [ 19.71820635, 49.03377059 ], [ 19.71823873, 49.03376751 ], [ 19.71860493, 49.03361047 ], [ 19.71882913, 49.03349379 ], [ 19.71941691, 49.03316209 ], [ 19.71944599, 49.03315787 ], [ 19.71959806, 49.03305352 ], [ 19.71973449, 49.03296281 ], [ 19.71975301, 49.03295047 ], [ 19.71977506, 49.03293584 ], [ 19.7199649, 49.03277547 ], [ 19.7201055, 49.03265177 ], [ 19.72040681, 49.03252072 ], [ 19.72047051, 49.03249017 ], [ 19.72054142, 49.0324722 ], [ 19.72071683, 49.03241998 ], [ 19.72084952, 49.0323903 ], [ 19.72127216, 49.03230892 ], [ 19.72160675, 49.03224819 ], [ 19.7216682, 49.03223971 ], [ 19.72172826, 49.03221243 ], [ 19.72213305, 49.03215694 ], [ 19.72267878, 49.03210656 ], [ 19.72325668, 49.03203759 ], [ 19.72347724, 49.03205503 ], [ 19.72368397, 49.03207628 ], [ 19.72379412, 49.03208896 ], [ 19.72390239, 49.03210534 ], [ 19.72406544, 49.03217469 ], [ 19.72413494, 49.03220433 ], [ 19.72420616, 49.03223188 ], [ 19.72453394, 49.03232181 ], [ 19.724717, 49.03237644 ], [ 19.72497536, 49.03245223 ], [ 19.7253329, 49.03258113 ], [ 19.72539998, 49.03260499 ], [ 19.72555397, 49.0326597 ], [ 19.7259721, 49.03285344 ], [ 19.72630766, 49.03299913 ], [ 19.7267512, 49.03317624 ], [ 19.72716062, 49.03328974 ], [ 19.72729571, 49.0333201 ], [ 19.72768334, 49.03338371 ], [ 19.72829397, 49.03340825 ], [ 19.72847945, 49.03340531 ], [ 19.72901087, 49.03337978 ], [ 19.72981282, 49.03334394 ], [ 19.73014983, 49.03334314 ], [ 19.73075008, 49.03333621 ], [ 19.73126675, 49.03335472 ], [ 19.73157703, 49.03337419 ], [ 19.73177079, 49.03339774 ], [ 19.73213085, 49.03347229 ], [ 19.73239727, 49.03353499 ], [ 19.73258403, 49.03359112 ], [ 19.7328406, 49.0336779 ], [ 19.73317234, 49.03379798 ], [ 19.73353652, 49.03392661 ], [ 19.73364374, 49.033956 ], [ 19.73372592, 49.03397286 ], [ 19.73387799, 49.03400746 ], [ 19.73405001, 49.03405087 ], [ 19.73421348, 49.03409066 ], [ 19.73435769, 49.0340987 ], [ 19.73475702, 49.03412134 ], [ 19.73494831, 49.03411521 ], [ 19.73526065, 49.03409807 ], [ 19.73553638, 49.03406897 ], [ 19.73575955, 49.03403909 ], [ 19.73586972, 49.03402049 ], [ 19.73608345, 49.033981 ], [ 19.7362137, 49.03395093 ], [ 19.73634044, 49.03390682 ], [ 19.73652496, 49.03384578 ], [ 19.73671054, 49.033781 ], [ 19.73683226, 49.03390278 ], [ 19.73684201, 49.03392826 ], [ 19.73684538, 49.03393697 ], [ 19.73684851, 49.03394531 ], [ 19.73666922, 49.03404804 ], [ 19.73661625, 49.03407843 ], [ 19.73634749, 49.03429035 ], [ 19.73625481, 49.03436353 ], [ 19.73608055, 49.03460059 ], [ 19.73602235, 49.03467979 ], [ 19.73592403, 49.03484924 ], [ 19.73574216, 49.03516267 ], [ 19.73574002, 49.03516618 ], [ 19.73559535, 49.03541553 ], [ 19.73556819, 49.03544958 ], [ 19.73548541, 49.03555618 ], [ 19.73547967, 49.03556277 ], [ 19.73533728, 49.03572606 ], [ 19.73533667, 49.03572667 ], [ 19.73531961, 49.03576648 ], [ 19.73530364, 49.03580372 ], [ 19.73532581, 49.03598657 ], [ 19.73532814, 49.03600551 ], [ 19.735326, 49.03604291 ], [ 19.73533218, 49.03607256 ], [ 19.73534132, 49.03610135 ], [ 19.73544739, 49.03609086 ], [ 19.73555386, 49.03608038 ], [ 19.7368312, 49.03595429 ], [ 19.73714413, 49.03597881 ], [ 19.74133691, 49.03552845 ], [ 19.74165626, 49.03678113 ], [ 19.74172405, 49.03677094 ] ] ] ] } }
]
}
