{
"type": "FeatureCollection",
"name": "gis",
"crs": { "type": "name", "properties": { "name": "urn:ogc:def:crs:OGC:1.3:CRS84" } },
"features": [
{ "type": "Feature", "properties": { "@featureType": "CadastralParcel", "areaValue": { "value": 5126, "@uom": "m2" }, "beginLifespanVersion": { "@nilReason": "http://inspire.ec.europa.eu/codelist/VoidReasonValue/Unpopulated", "@nil": "true" }, "endLifespanVersion": { "@nilReason": "http://inspire.ec.europa.eu/codelist/VoidReasonValue/Unpopulated", "@nil": "true" }, "inspireId": { "@dataType": "Identifier", "localId": "870641_399.C", "namespace": "SK.ESKN.CP", "versionId": "20260703T06:07:09" }, "label": "399", "nationalCadastralReference": "870641_399.C", "referencePoint": { "type": "Point", "coordinates": [ 18.14717438, 49.06843457 ] }, "validFrom": "2026-06-30T16:00:00Z", "validTo": { "@nilReason": "http://inspire.ec.europa.eu/codelist/VoidReasonValue/Unpopulated", "@nil": "true" }, "administrativeUnit": { "@href": "#auAdmUnitS.556" } }, "geometry": { "type": "Polygon", "coordinates": [ [ [ 18.14698133, 49.06795722 ], [ 18.14675369, 49.06810236 ], [ 18.14732508, 49.06916887 ], [ 18.14755532, 49.06915676 ], [ 18.14773353, 49.06921333 ], [ 18.14820727, 49.06920196 ], [ 18.14761045, 49.06883297 ], [ 18.14740587, 49.0685919 ], [ 18.14742832, 49.06827724 ], [ 18.14743408, 49.06819588 ], [ 18.14698133, 49.06795722 ] ] ] } },
{ "type": "Feature", "properties": { "@featureType": "CadastralParcel", "areaValue": { "value": 10395, "@uom": "m2" }, "beginLifespanVersion": { "@nilReason": "http://inspire.ec.europa.eu/codelist/VoidReasonValue/Unpopulated", "@nil": "true" }, "endLifespanVersion": { "@nilReason": "http://inspire.ec.europa.eu/codelist/VoidReasonValue/Unpopulated", "@nil": "true" }, "inspireId": { "@dataType": "Identifier", "localId": "870641_400.C", "namespace": "SK.ESKN.CP", "versionId": "20260703T06:07:09" }, "label": "400", "nationalCadastralReference": "870641_400.C", "referencePoint": { "type": "Point", "coordinates": [ 18.14832759, 49.06896821 ] }, "validFrom": "2026-06-30T16:00:00Z", "validTo": { "@nilReason": "http://inspire.ec.europa.eu/codelist/VoidReasonValue/Unpopulated", "@nil": "true" }, "administrativeUnit": { "@href": "#auAdmUnitS.556" } }, "geometry": { "type": "Polygon", "coordinates": [ [ [ 18.14890021, 49.06975694 ], [ 18.14922974, 49.06982348 ], [ 18.14938997, 49.06978612 ], [ 18.1495565, 49.06972322 ], [ 18.14968846, 49.06965164 ], [ 18.1497092, 49.06964038 ], [ 18.14980218, 49.06959626 ], [ 18.15000093, 49.06950398 ], [ 18.14978935, 49.06955752 ], [ 18.14973304, 49.06957179 ], [ 18.14970827, 49.06958752 ], [ 18.14942276, 49.06967111 ], [ 18.14931752, 49.0696896 ], [ 18.14924685, 49.06967552 ], [ 18.14916981, 49.06963714 ], [ 18.14909375, 49.06953157 ], [ 18.14904459, 49.06944479 ], [ 18.14896578, 49.06929392 ], [ 18.14894865, 49.06925755 ], [ 18.14889971, 49.06915263 ], [ 18.14884667, 49.06902383 ], [ 18.14880531, 49.06891258 ], [ 18.14873822, 49.06879236 ], [ 18.14871389, 49.06876875 ], [ 18.14861521, 49.06868553 ], [ 18.1484617, 49.06859103 ], [ 18.14841733, 49.06863009 ], [ 18.14767389, 49.06828921 ], [ 18.14751342, 49.06823764 ], [ 18.14743408, 49.06819588 ], [ 18.14742832, 49.06827724 ], [ 18.14740587, 49.0685919 ], [ 18.14761045, 49.06883297 ], [ 18.14820727, 49.06920196 ], [ 18.14773353, 49.06921333 ], [ 18.14804488, 49.06935646 ], [ 18.14854688, 49.06955768 ], [ 18.14890021, 49.06975694 ] ] ] } }
]
}
