{
"type": "FeatureCollection",
"name": "gis",
"crs": { "type": "name", "properties": { "name": "urn:ogc:def:crs:OGC:1.3:CRS84" } },
"features": [
{ "type": "Feature", "properties": { "@featureType": "CadastralParcel", "areaValue": { "value": 114358, "@uom": "m2" }, "beginLifespanVersion": { "@nilReason": "http://inspire.ec.europa.eu/codelist/VoidReasonValue/Unpopulated", "@nil": "true" }, "endLifespanVersion": { "@nilReason": "http://inspire.ec.europa.eu/codelist/VoidReasonValue/Unpopulated", "@nil": "true" }, "inspireId": { "@dataType": "Identifier", "localId": "874353_1108/1.C", "namespace": "SK.ESKN.CP", "versionId": "20260703T04:07:16" }, "label": "1108/1", "nationalCadastralReference": "874353_1108/1.C", "referencePoint": { "type": "Point", "coordinates": [ 19.67982299, 49.13641256 ] }, "validFrom": "2026-06-30T16:00:00Z", "validTo": { "@nilReason": "http://inspire.ec.europa.eu/codelist/VoidReasonValue/Unpopulated", "@nil": "true" }, "administrativeUnit": { "@href": "#auAdmUnitS.2332" } }, "geometry": { "type": "Polygon", "coordinates": [ [ [ 19.67652432, 49.13638871 ], [ 19.67650585, 49.13642412 ], [ 19.67659399, 49.1364419 ], [ 19.67662594, 49.13643178 ], [ 19.67667388, 49.136401 ], [ 19.67699735, 49.13608572 ], [ 19.67721842, 49.13595544 ], [ 19.67747534, 49.1358774 ], [ 19.67778718, 49.13585298 ], [ 19.67787205, 49.1358424 ], [ 19.6783659, 49.13536999 ], [ 19.67851482, 49.13535503 ], [ 19.67854952, 49.13535422 ], [ 19.67799929, 49.1358647 ], [ 19.67786379, 49.13592549 ], [ 19.67751695, 49.1359563 ], [ 19.6772921, 49.13603378 ], [ 19.67710609, 49.13615028 ], [ 19.67694122, 49.13629107 ], [ 19.67679752, 49.13644234 ], [ 19.67679889, 49.13647981 ], [ 19.67872432, 49.13684842 ], [ 19.68071061, 49.13726808 ], [ 19.68166129, 49.13748901 ], [ 19.68211178, 49.1376314 ], [ 19.68270226, 49.1378701 ], [ 19.68312948, 49.13808942 ], [ 19.68324498, 49.13815788 ], [ 19.68339078, 49.13824435 ], [ 19.68349838, 49.13830814 ], [ 19.68371276, 49.13843306 ], [ 19.6855916, 49.13820592 ], [ 19.68677051, 49.13814117 ], [ 19.68729048, 49.13810456 ], [ 19.68695392, 49.13786096 ], [ 19.68679706, 49.13772028 ], [ 19.68670885, 49.13764149 ], [ 19.68645474, 49.13756232 ], [ 19.68597618, 49.13760238 ], [ 19.68567323, 49.1374905 ], [ 19.68518568, 49.13736784 ], [ 19.68483247, 49.13709926 ], [ 19.6846071, 49.13686192 ], [ 19.68332884, 49.13684024 ], [ 19.6828802, 49.13665972 ], [ 19.68279446, 49.13630669 ], [ 19.68265854, 49.13612935 ], [ 19.68249994, 49.13604195 ], [ 19.68179072, 49.13601151 ], [ 19.68134685, 49.13589573 ], [ 19.68116838, 49.13562178 ], [ 19.68096617, 49.13543205 ], [ 19.68086863, 49.13540277 ], [ 19.68073377, 49.13545206 ], [ 19.68004722, 49.13548047 ], [ 19.67966148, 49.13531903 ], [ 19.67946978, 49.13530245 ], [ 19.67925203, 49.13512365 ], [ 19.67884605, 49.13472599 ], [ 19.67841503, 49.13447855 ], [ 19.67814566, 49.13440517 ], [ 19.67803068, 49.13437187 ], [ 19.67793869, 49.13491974 ], [ 19.67787437, 49.13530778 ], [ 19.67786808, 49.13534499 ], [ 19.67785572, 49.13541979 ], [ 19.67761073, 49.13555028 ], [ 19.67758424, 49.13559552 ], [ 19.67754447, 49.13558556 ], [ 19.67746454, 49.13562817 ], [ 19.67739986, 49.13566551 ], [ 19.67735276, 49.13574688 ], [ 19.67719933, 49.13578299 ], [ 19.67678825, 49.13587756 ], [ 19.67657275, 49.13629703 ], [ 19.67652432, 49.13638871 ] ] ] } },
{ "type": "Feature", "properties": { "@featureType": "CadastralParcel", "areaValue": { "value": 6860, "@uom": "m2" }, "beginLifespanVersion": { "@nilReason": "http://inspire.ec.europa.eu/codelist/VoidReasonValue/Unpopulated", "@nil": "true" }, "endLifespanVersion": { "@nilReason": "http://inspire.ec.europa.eu/codelist/VoidReasonValue/Unpopulated", "@nil": "true" }, "inspireId": { "@dataType": "Identifier", "localId": "874353_1109/1.C", "namespace": "SK.ESKN.CP", "versionId": "20260703T04:07:16" }, "label": "1109/1", "nationalCadastralReference": "874353_1109/1.C", "referencePoint": { "type": "Point", "coordinates": [ 19.68036277, 49.13533995 ] }, "validFrom": "2026-06-30T16:00:00Z", "validTo": { "@nilReason": "http://inspire.ec.europa.eu/codelist/VoidReasonValue/Unpopulated", "@nil": "true" }, "administrativeUnit": { "@href": "#auAdmUnitS.2332" } }, "geometry": { "type": "Polygon", "coordinates": [ [ [ 19.67945713, 49.13494282 ], [ 19.6791219, 49.13474702 ], [ 19.67941122, 49.13512898 ], [ 19.67953213, 49.13522499 ], [ 19.67969873, 49.13523849 ], [ 19.68007789, 49.13539576 ], [ 19.68069163, 49.13537143 ], [ 19.68086185, 49.13531226 ], [ 19.68104641, 49.13536764 ], [ 19.68127743, 49.13557775 ], [ 19.68143818, 49.13583298 ], [ 19.68182688, 49.13593217 ], [ 19.6825462, 49.13596063 ], [ 19.68241916, 49.13589084 ], [ 19.68084948, 49.135216 ], [ 19.68019929, 49.13508974 ], [ 19.68017297, 49.13509858 ], [ 19.68017855, 49.13510576 ], [ 19.68007726, 49.13513977 ], [ 19.68003641, 49.13508677 ], [ 19.68005274, 49.13508163 ], [ 19.68003837, 49.13506234 ], [ 19.68004549, 49.13505995 ], [ 19.67993492, 49.13503848 ], [ 19.67995086, 49.13505847 ], [ 19.67990253, 49.13507571 ], [ 19.67987063, 49.13503591 ], [ 19.6798886, 49.1350294 ], [ 19.67968511, 49.13498994 ], [ 19.67945713, 49.13494282 ] ], [ [ 19.67973378, 49.13515396 ], [ 19.6797152, 49.13513295 ], [ 19.67969281, 49.13510754 ], [ 19.67973356, 49.13509195 ], [ 19.67973984, 49.13508961 ], [ 19.67974723, 49.13509796 ], [ 19.67976301, 49.13511551 ], [ 19.6797693, 49.13512246 ], [ 19.67977706, 49.13513118 ], [ 19.67978149, 49.13513615 ], [ 19.67976607, 49.13514187 ], [ 19.67975064, 49.13514768 ], [ 19.67973378, 49.13515396 ] ] ] } },
{ "type": "Feature", "properties": { "@featureType": "CadastralParcel", "areaValue": { "value": 2090, "@uom": "m2" }, "beginLifespanVersion": { "@nilReason": "http://inspire.ec.europa.eu/codelist/VoidReasonValue/Unpopulated", "@nil": "true" }, "endLifespanVersion": { "@nilReason": "http://inspire.ec.europa.eu/codelist/VoidReasonValue/Unpopulated", "@nil": "true" }, "inspireId": { "@dataType": "Identifier", "localId": "874353_1108/46.C", "namespace": "SK.ESKN.CP", "versionId": "20260703T04:07:16" }, "label": "1108/46", "nationalCadastralReference": "874353_1108/46.C", "referencePoint": { "type": "Point", "coordinates": [ 19.67773474, 49.13542978 ] }, "validFrom": "2026-06-30T16:00:00Z", "validTo": { "@nilReason": "http://inspire.ec.europa.eu/codelist/VoidReasonValue/Unpopulated", "@nil": "true" }, "administrativeUnit": { "@href": "#auAdmUnitS.2332" } }, "geometry": { "type": "Polygon", "coordinates": [ [ [ 19.67764087, 49.13549889 ], [ 19.67761073, 49.13555028 ], [ 19.67785572, 49.13541979 ], [ 19.67786808, 49.13534499 ], [ 19.67787437, 49.13530778 ], [ 19.67771936, 49.13532048 ], [ 19.67754274, 49.13531357 ], [ 19.67743024, 49.13529625 ], [ 19.67737656, 49.13528801 ], [ 19.67710814, 49.13524676 ], [ 19.67696045, 49.13521229 ], [ 19.67676582, 49.13516681 ], [ 19.67658457, 49.13512337 ], [ 19.67654892, 49.13511477 ], [ 19.6764295, 49.13508596 ], [ 19.67641984, 49.13509437 ], [ 19.67639964, 49.13511186 ], [ 19.67630316, 49.13508965 ], [ 19.67619782, 49.13506544 ], [ 19.67615825, 49.1350562 ], [ 19.67616108, 49.13505273 ], [ 19.67616519, 49.13504885 ], [ 19.67593661, 49.13498619 ], [ 19.67590177, 49.13504053 ], [ 19.67599335, 49.13505558 ], [ 19.67618306, 49.13509552 ], [ 19.67622144, 49.13510424 ], [ 19.67646034, 49.13515339 ], [ 19.67669287, 49.13520703 ], [ 19.67692369, 49.13526257 ], [ 19.67715846, 49.1353118 ], [ 19.67719756, 49.13532029 ], [ 19.67719325, 49.13532884 ], [ 19.67708965, 49.13553363 ], [ 19.67694219, 49.13549159 ], [ 19.6768107, 49.13548524 ], [ 19.67656117, 49.13547005 ], [ 19.67659766, 49.13539839 ], [ 19.67655129, 49.1353885 ], [ 19.67647107, 49.13555556 ], [ 19.67644828, 49.13559817 ], [ 19.67644046, 49.13561288 ], [ 19.67647741, 49.13563425 ], [ 19.67654158, 49.13550839 ], [ 19.67674813, 49.13551672 ], [ 19.67702024, 49.1355849 ], [ 19.67705947, 49.1355934 ], [ 19.67697312, 49.13576406 ], [ 19.67693402, 49.13575557 ], [ 19.6769002, 49.13574651 ], [ 19.67685814, 49.13573609 ], [ 19.67685412, 49.1357351 ], [ 19.67675539, 49.13571072 ], [ 19.67666618, 49.13568866 ], [ 19.67664568, 49.13573173 ], [ 19.67671918, 49.13577437 ], [ 19.67680764, 49.13579306 ], [ 19.67679477, 49.13581809 ], [ 19.67680838, 49.13582599 ], [ 19.67681253, 49.13582843 ], [ 19.67678825, 49.13587756 ], [ 19.67719933, 49.13578299 ], [ 19.67702755, 49.13577035 ], [ 19.67711201, 49.13560347 ], [ 19.67739986, 49.13566551 ], [ 19.67746454, 49.13562817 ], [ 19.67715864, 49.13554939 ], [ 19.67714164, 49.13554503 ], [ 19.67724524, 49.13534016 ], [ 19.67727758, 49.13534763 ], [ 19.67767565, 49.13543977 ], [ 19.67764087, 49.13549889 ] ] ] } },
{ "type": "Feature", "properties": { "@featureType": "CadastralParcel", "areaValue": { "value": 15556, "@uom": "m2" }, "beginLifespanVersion": { "@nilReason": "http://inspire.ec.europa.eu/codelist/VoidReasonValue/Unpopulated", "@nil": "true" }, "endLifespanVersion": { "@nilReason": "http://inspire.ec.europa.eu/codelist/VoidReasonValue/Unpopulated", "@nil": "true" }, "inspireId": { "@dataType": "Identifier", "localId": "874353_1611/1.C", "namespace": "SK.ESKN.CP", "versionId": "20260703T04:07:16" }, "label": "1611/1", "nationalCadastralReference": "874353_1611/1.C", "referencePoint": { "type": "Point", "coordinates": [ 19.68288461, 49.13646166 ] }, "validFrom": "2026-06-30T16:00:00Z", "validTo": { "@nilReason": "http://inspire.ec.europa.eu/codelist/VoidReasonValue/Unpopulated", "@nil": "true" }, "administrativeUnit": { "@href": "#auAdmUnitS.2332" } }, "geometry": { "type": "Polygon", "coordinates": [ [ [ 19.67190432, 49.13259865 ], [ 19.6721747, 49.13269147 ], [ 19.67222087, 49.1327073 ], [ 19.67227884, 49.13272727 ], [ 19.67262658, 49.13276367 ], [ 19.67285435, 49.13291012 ], [ 19.67308502, 49.13294836 ], [ 19.67345625, 49.1329821 ], [ 19.673691, 49.13314752 ], [ 19.67375265, 49.1334337 ], [ 19.6739417, 49.13355734 ], [ 19.67411706, 49.13357114 ], [ 19.67435687, 49.13352714 ], [ 19.6745338, 49.13352299 ], [ 19.67476906, 49.13362606 ], [ 19.67502245, 49.1338963 ], [ 19.67515792, 49.13394673 ], [ 19.67528752, 49.13396733 ], [ 19.67537512, 49.13393957 ], [ 19.67561799, 49.13381639 ], [ 19.67571827, 49.13382425 ], [ 19.67582131, 49.13389082 ], [ 19.67592435, 49.13405635 ], [ 19.67608338, 49.13413278 ], [ 19.67681838, 49.13422352 ], [ 19.67760316, 49.13420552 ], [ 19.67791346, 49.13432027 ], [ 19.67803068, 49.13437187 ], [ 19.67814566, 49.13440517 ], [ 19.67841503, 49.13447855 ], [ 19.67884605, 49.13472599 ], [ 19.67925203, 49.13512365 ], [ 19.67946978, 49.13530245 ], [ 19.67966148, 49.13531903 ], [ 19.68004722, 49.13548047 ], [ 19.68073377, 49.13545206 ], [ 19.68086863, 49.13540277 ], [ 19.68096617, 49.13543205 ], [ 19.68116838, 49.13562178 ], [ 19.68134685, 49.13589573 ], [ 19.68179072, 49.13601151 ], [ 19.68249994, 49.13604195 ], [ 19.68265854, 49.13612935 ], [ 19.68279446, 49.13630669 ], [ 19.6828802, 49.13665972 ], [ 19.68332884, 49.13684024 ], [ 19.6846071, 49.13686192 ], [ 19.68483247, 49.13709926 ], [ 19.68518568, 49.13736784 ], [ 19.68567323, 49.1374905 ], [ 19.68597618, 49.13760238 ], [ 19.68645474, 49.13756232 ], [ 19.68670885, 49.13764149 ], [ 19.68679706, 49.13772028 ], [ 19.68695392, 49.13786096 ], [ 19.68729048, 49.13810456 ], [ 19.68740878, 49.13818999 ], [ 19.68787728, 49.13819319 ], [ 19.68790443, 49.13819366 ], [ 19.68821023, 49.13842518 ], [ 19.68821851, 49.13843149 ], [ 19.68825023, 49.13845569 ], [ 19.68825507, 49.13845942 ], [ 19.68860078, 49.13879346 ], [ 19.68901327, 49.13920227 ], [ 19.6896408, 49.13930647 ], [ 19.68976639, 49.13935834 ], [ 19.68980237, 49.139467 ], [ 19.68976663, 49.13970444 ], [ 19.68992863, 49.13990635 ], [ 19.69026729, 49.14001989 ], [ 19.69049462, 49.1399999 ], [ 19.69062685, 49.14013849 ], [ 19.69089436, 49.14027205 ], [ 19.69089366, 49.14064884 ], [ 19.69103136, 49.14085869 ], [ 19.69129281, 49.14109166 ], [ 19.69151498, 49.14116229 ], [ 19.69196774, 49.14126842 ], [ 19.69217401, 49.14137089 ], [ 19.69225231, 49.14155595 ], [ 19.69266768, 49.14164096 ], [ 19.69290596, 49.14186146 ], [ 19.69361188, 49.14206031 ], [ 19.69376088, 49.1421132 ], [ 19.69374699, 49.14229437 ], [ 19.69402435, 49.14287376 ], [ 19.69402554, 49.14314914 ], [ 19.69424661, 49.14315961 ], [ 19.69442911, 49.14321263 ], [ 19.69519379, 49.14336115 ], [ 19.69540397, 49.14349947 ], [ 19.69566253, 49.14371798 ], [ 19.6959172, 49.14399868 ], [ 19.69584949, 49.14399849 ], [ 19.69588376, 49.14403686 ], [ 19.69592749, 49.14403374 ], [ 19.69605116, 49.14413544 ], [ 19.69622557, 49.14427822 ], [ 19.69679941, 49.14446474 ], [ 19.697386, 49.14454556 ], [ 19.69764981, 49.14457737 ], [ 19.69816383, 49.14463967 ], [ 19.69852939, 49.14475653 ], [ 19.6988773, 49.14483521 ], [ 19.69940966, 49.14495725 ], [ 19.70002877, 49.14505327 ], [ 19.70022692, 49.14554164 ], [ 19.7003352, 49.14581534 ], [ 19.70049469, 49.14596593 ], [ 19.70052049, 49.14596617 ], [ 19.70063477, 49.14592208 ], [ 19.70066955, 49.14590847 ], [ 19.70074826, 49.14587769 ], [ 19.7006858, 49.14586782 ], [ 19.70039695, 49.14539979 ], [ 19.7001671, 49.14503728 ], [ 19.69950182, 49.14488227 ], [ 19.69868227, 49.14473 ], [ 19.69853973, 49.14469173 ], [ 19.69829479, 49.14460578 ], [ 19.6982099, 49.14457608 ], [ 19.69739104, 49.14447341 ], [ 19.69684033, 49.14438841 ], [ 19.69635567, 49.14426079 ], [ 19.69607761, 49.14402737 ], [ 19.696258, 49.14401784 ], [ 19.69623284, 49.14397374 ], [ 19.69604667, 49.14398608 ], [ 19.69563418, 49.14355216 ], [ 19.6955971, 49.14343129 ], [ 19.69549854, 49.14335268 ], [ 19.69542708, 49.14329519 ], [ 19.69537818, 49.14325626 ], [ 19.69445396, 49.14310954 ], [ 19.69434048, 49.14302108 ], [ 19.69403874, 49.14265683 ], [ 19.69390875, 49.14234593 ], [ 19.69385467, 49.14205857 ], [ 19.6936411, 49.14198967 ], [ 19.69300941, 49.14181447 ], [ 19.69297913, 49.14178952 ], [ 19.69270885, 49.14156626 ], [ 19.69236981, 49.14148849 ], [ 19.69220093, 49.14128384 ], [ 19.69200402, 49.14121865 ], [ 19.69169119, 49.1411305 ], [ 19.69131762, 49.14101714 ], [ 19.69112661, 49.1408555 ], [ 19.69115535, 49.14069175 ], [ 19.69122703, 49.14040786 ], [ 19.69097211, 49.14022249 ], [ 19.69070633, 49.14007206 ], [ 19.69054413, 49.13994837 ], [ 19.69023196, 49.13993965 ], [ 19.68997527, 49.13982125 ], [ 19.68988129, 49.13968336 ], [ 19.68989094, 49.13947136 ], [ 19.68984513, 49.13932856 ], [ 19.68966684, 49.13923462 ], [ 19.68912799, 49.13912036 ], [ 19.68869174, 49.13870743 ], [ 19.68838137, 49.13842264 ], [ 19.68837637, 49.13841917 ], [ 19.68834338, 49.13839663 ], [ 19.68833337, 49.13838978 ], [ 19.68795359, 49.13810544 ], [ 19.68788642, 49.13810409 ], [ 19.68745591, 49.13809482 ], [ 19.68702289, 49.13781263 ], [ 19.68679061, 49.13758229 ], [ 19.68643254, 49.13744129 ], [ 19.68598678, 49.13752715 ], [ 19.6857697, 49.13745537 ], [ 19.68525593, 49.13731101 ], [ 19.68470383, 49.13681878 ], [ 19.6833612, 49.13676046 ], [ 19.68299371, 49.13661111 ], [ 19.68289774, 49.13635767 ], [ 19.68322128, 49.13637187 ], [ 19.68350205, 49.13660599 ], [ 19.68400102, 49.13667886 ], [ 19.68468787, 49.13657005 ], [ 19.68486647, 49.13658578 ], [ 19.68511802, 49.13669918 ], [ 19.68539404, 49.13678158 ], [ 19.68578411, 49.13690642 ], [ 19.68624252, 49.13683383 ], [ 19.68651454, 49.13686414 ], [ 19.68686942, 49.13701743 ], [ 19.68699639, 49.13719779 ], [ 19.687019, 49.13719158 ], [ 19.68689111, 49.13700685 ], [ 19.68652672, 49.13684719 ], [ 19.68623533, 49.13681549 ], [ 19.68578446, 49.13688561 ], [ 19.6854586, 49.1367802 ], [ 19.68513587, 49.13668447 ], [ 19.68487753, 49.1365677 ], [ 19.68468895, 49.13655144 ], [ 19.68400063, 49.13665992 ], [ 19.68351868, 49.13658987 ], [ 19.68323821, 49.1363555 ], [ 19.68288321, 49.13622355 ], [ 19.68276189, 49.13607804 ], [ 19.6825462, 49.13596063 ], [ 19.68182688, 49.13593217 ], [ 19.68143818, 49.13583298 ], [ 19.68127743, 49.13557775 ], [ 19.68104641, 49.13536764 ], [ 19.68086185, 49.13531226 ], [ 19.68069163, 49.13537143 ], [ 19.68007789, 49.13539576 ], [ 19.67969873, 49.13523849 ], [ 19.67953213, 49.13522499 ], [ 19.67941122, 49.13512898 ], [ 19.6791219, 49.13474702 ], [ 19.67848125, 49.13437017 ], [ 19.67843162, 49.13436122 ], [ 19.67836103, 49.13434106 ], [ 19.67826598, 49.13431297 ], [ 19.67798356, 49.13420486 ], [ 19.67776716, 49.13412264 ], [ 19.6772803, 49.13404577 ], [ 19.67690322, 49.13407694 ], [ 19.67674308, 49.1340394 ], [ 19.67624826, 49.13375668 ], [ 19.67585723, 49.13379931 ], [ 19.67575728, 49.13375613 ], [ 19.67556725, 49.13374871 ], [ 19.67535894, 49.13383503 ], [ 19.67526288, 49.1338169 ], [ 19.6751395, 49.13376638 ], [ 19.67481848, 49.13354884 ], [ 19.67459524, 49.13344369 ], [ 19.67443868, 49.13341811 ], [ 19.67420542, 49.13345852 ], [ 19.67399899, 49.1334784 ], [ 19.67390465, 49.133374 ], [ 19.67389679, 49.13315393 ], [ 19.67354779, 49.13286926 ], [ 19.67295745, 49.13283988 ], [ 19.67272587, 49.13270371 ], [ 19.67241057, 49.13266172 ], [ 19.67197358, 49.13253025 ], [ 19.67183851, 49.13244396 ], [ 19.67142351, 49.13237384 ], [ 19.67130491, 49.13237715 ], [ 19.67118562, 49.13238043 ], [ 19.67089091, 49.13235196 ], [ 19.67083897, 49.1323228 ], [ 19.67045519, 49.13209346 ], [ 19.67014154, 49.13205685 ], [ 19.66991381, 49.13215969 ], [ 19.66953138, 49.13213743 ], [ 19.66934536, 49.1320551 ], [ 19.6691848, 49.13202572 ], [ 19.66879023, 49.13180788 ], [ 19.66840939, 49.13153936 ], [ 19.66803873, 49.13137341 ], [ 19.66752897, 49.13108583 ], [ 19.66700928, 49.13106811 ], [ 19.66685683, 49.13068786 ], [ 19.66629295, 49.13041906 ], [ 19.66576913, 49.13027488 ], [ 19.66548703, 49.13012537 ], [ 19.66542282, 49.13009143 ], [ 19.66527176, 49.12998586 ], [ 19.66445661, 49.12942723 ], [ 19.66405664, 49.12918344 ], [ 19.66336566, 49.12890358 ], [ 19.66300194, 49.12874666 ], [ 19.66286302, 49.12870065 ], [ 19.66278369, 49.12867208 ], [ 19.66270821, 49.12852227 ], [ 19.66268251, 49.12848904 ], [ 19.66263815, 49.12831042 ], [ 19.6623028, 49.12820478 ], [ 19.66169833, 49.12805853 ], [ 19.66146749, 49.12785306 ], [ 19.6614254, 49.12737522 ], [ 19.6610462, 49.12705807 ], [ 19.66093889, 49.12709188 ], [ 19.66130874, 49.12743304 ], [ 19.66136377, 49.12790398 ], [ 19.66158666, 49.12811594 ], [ 19.66188162, 49.1282124 ], [ 19.66219249, 49.12825702 ], [ 19.66259815, 49.12853343 ], [ 19.66262516, 49.12856049 ], [ 19.66271681, 49.12872941 ], [ 19.66292765, 49.12882384 ], [ 19.66312308, 49.12890786 ], [ 19.66394718, 49.12925276 ], [ 19.66436822, 49.12949198 ], [ 19.66502738, 49.12994492 ], [ 19.66527604, 49.13011367 ], [ 19.6653747, 49.13017988 ], [ 19.66543087, 49.13021067 ], [ 19.66567555, 49.13034472 ], [ 19.66620793, 49.13049118 ], [ 19.66671097, 49.13079586 ], [ 19.66692607, 49.13114797 ], [ 19.66707049, 49.13117934 ], [ 19.66743553, 49.13117831 ], [ 19.6679537, 49.13144688 ], [ 19.6683311, 49.13161403 ], [ 19.66870844, 49.13188861 ], [ 19.66897444, 49.1320292 ], [ 19.66898298, 49.13201696 ], [ 19.66934593, 49.13212299 ], [ 19.66970903, 49.13222894 ], [ 19.66987824, 49.13223707 ], [ 19.67010569, 49.1321343 ], [ 19.6704052, 49.13220688 ], [ 19.67073499, 49.13236696 ], [ 19.67074964, 49.13237409 ], [ 19.67077756, 49.13239642 ], [ 19.67102457, 49.13246126 ], [ 19.67113251, 49.13248957 ], [ 19.67129599, 49.13246247 ], [ 19.67139981, 49.13244535 ], [ 19.67190432, 49.13259865 ] ], [ [ 19.67591095, 49.1338646 ], [ 19.67605981, 49.13383017 ], [ 19.67620002, 49.13383178 ], [ 19.67645509, 49.13399881 ], [ 19.67669604, 49.13410419 ], [ 19.67685589, 49.13414452 ], [ 19.67673456, 49.13414501 ], [ 19.67643083, 49.13411066 ], [ 19.67611957, 49.1340667 ], [ 19.67596557, 49.133984 ], [ 19.67591095, 49.1338646 ] ] ] } },
{ "type": "Feature", "properties": { "@featureType": "CadastralParcel", "areaValue": { "value": 607276, "@uom": "m2" }, "beginLifespanVersion": { "@nilReason": "http://inspire.ec.europa.eu/codelist/VoidReasonValue/Unpopulated", "@nil": "true" }, "endLifespanVersion": { "@nilReason": "http://inspire.ec.europa.eu/codelist/VoidReasonValue/Unpopulated", "@nil": "true" }, "inspireId": { "@dataType": "Identifier", "localId": "874353_476/1.E", "namespace": "SK.ESKN.CP", "versionId": "20260703T04:07:16" }, "label": "476/1", "nationalCadastralReference": "874353_476/1.E", "referencePoint": { "type": "Point", "coordinates": [ 19.68691534, 49.13778159 ] }, "validFrom": "2026-06-30T16:00:00Z", "validTo": { "@nilReason": "http://inspire.ec.europa.eu/codelist/VoidReasonValue/Unpopulated", "@nil": "true" }, "administrativeUnit": { "@href": "#auAdmUnitS.2332" } }, "geometry": { "type": "Polygon", "coordinates": [ [ [ 19.67528208, 49.13629463 ], [ 19.67508058, 49.13621172 ], [ 19.67503478, 49.13629648 ], [ 19.67508217, 49.13633256 ], [ 19.67527755, 49.13646567 ], [ 19.67533124, 49.13642307 ], [ 19.67540633, 49.13646227 ], [ 19.67545054, 49.13648522 ], [ 19.67554454, 49.13653427 ], [ 19.67554466, 49.13653436 ], [ 19.67556161, 49.13654322 ], [ 19.67562928, 49.13657848 ], [ 19.67575797, 49.13664546 ], [ 19.67534693, 49.13697066 ], [ 19.67513723, 49.13685656 ], [ 19.67492753, 49.13674246 ], [ 19.67887193, 49.13995937 ], [ 19.67927943, 49.13947069 ], [ 19.68097983, 49.13743149 ], [ 19.68163849, 49.13760003 ], [ 19.68201018, 49.13769513 ], [ 19.68209427, 49.13771633 ], [ 19.68294543, 49.13813067 ], [ 19.68354534, 49.13847433 ], [ 19.68430054, 49.13898068 ], [ 19.68462831, 49.13914792 ], [ 19.68470073, 49.13918248 ], [ 19.68470885, 49.13918636 ], [ 19.6852503, 49.13945731 ], [ 19.6863675, 49.14005208 ], [ 19.68377159, 49.14152745 ], [ 19.68405694, 49.14154456 ], [ 19.68552937, 49.14166186 ], [ 19.68773509, 49.14184369 ], [ 19.68875448, 49.14139281 ], [ 19.68928314, 49.14173266 ], [ 19.68978736, 49.14198806 ], [ 19.69129281, 49.14109166 ], [ 19.69150306, 49.13784685 ], [ 19.69407848, 49.13615421 ], [ 19.69301824, 49.13510265 ], [ 19.69211868, 49.13416703 ], [ 19.69155212, 49.13358236 ], [ 19.69039077, 49.13406394 ], [ 19.68877304, 49.13473366 ], [ 19.68820703, 49.13497726 ], [ 19.68784635, 49.13513248 ], [ 19.68765078, 49.13521659 ], [ 19.68578335, 49.13600728 ], [ 19.68467125, 49.13648027 ], [ 19.68347869, 49.13646823 ], [ 19.68276217, 49.13607796 ], [ 19.68254662, 49.13596047 ], [ 19.68241916, 49.13589084 ], [ 19.68084978, 49.13521583 ], [ 19.67945727, 49.13494274 ], [ 19.6791219, 49.13474702 ], [ 19.67848125, 49.13437017 ], [ 19.67843162, 49.13436122 ], [ 19.67836103, 49.13434106 ], [ 19.67826598, 49.13431297 ], [ 19.67798356, 49.13420486 ], [ 19.67776716, 49.13412264 ], [ 19.67760316, 49.13420552 ], [ 19.67791346, 49.13432027 ], [ 19.67803068, 49.13437187 ], [ 19.67797443, 49.13470421 ], [ 19.67793869, 49.13491974 ], [ 19.67787437, 49.13530778 ], [ 19.67786808, 49.13534499 ], [ 19.67785572, 49.13541979 ], [ 19.67761073, 49.13555028 ], [ 19.67758424, 49.13559552 ], [ 19.67754447, 49.13558556 ], [ 19.67746454, 49.13562817 ], [ 19.67739986, 49.13566551 ], [ 19.67735276, 49.13574688 ], [ 19.67719933, 49.13578299 ], [ 19.67678825, 49.13587756 ], [ 19.67657275, 49.13629703 ], [ 19.67652432, 49.13638871 ], [ 19.67650585, 49.13642412 ], [ 19.67650311, 49.13642941 ], [ 19.67646113, 49.13650903 ], [ 19.67644954, 49.13653096 ], [ 19.67544142, 49.1363481 ], [ 19.67542739, 49.13634558 ], [ 19.67528208, 49.13629463 ] ] ] } },
{ "type": "Feature", "properties": { "@featureType": "CadastralParcel", "areaValue": { "value": 13082, "@uom": "m2" }, "beginLifespanVersion": { "@nilReason": "http://inspire.ec.europa.eu/codelist/VoidReasonValue/Unpopulated", "@nil": "true" }, "endLifespanVersion": { "@nilReason": "http://inspire.ec.europa.eu/codelist/VoidReasonValue/Unpopulated", "@nil": "true" }, "inspireId": { "@dataType": "Identifier", "localId": "874353_476/4.E", "namespace": "SK.ESKN.CP", "versionId": "20260703T04:07:16" }, "label": "476/4", "nationalCadastralReference": "874353_476/4.E", "referencePoint": { "type": "Point", "coordinates": [ 19.67761507, 49.13536806 ] }, "validFrom": "2026-06-30T16:00:00Z", "validTo": { "@nilReason": "http://inspire.ec.europa.eu/codelist/VoidReasonValue/Unpopulated", "@nil": "true" }, "administrativeUnit": { "@href": "#auAdmUnitS.2332" } }, "geometry": { "type": "MultiPolygon", "coordinates": [ [ [ [ 19.67545588, 49.13618741 ], [ 19.67543725, 49.13618154 ], [ 19.67524467, 49.13612272 ], [ 19.67522603, 49.13611703 ], [ 19.67514532, 49.13609237 ], [ 19.67513262, 49.13611569 ], [ 19.67508058, 49.13621172 ], [ 19.67528208, 49.13629463 ], [ 19.67542739, 49.13634558 ], [ 19.67544142, 49.1363481 ], [ 19.67644954, 49.13653096 ], [ 19.67646113, 49.13650903 ], [ 19.67650311, 49.13642941 ], [ 19.67650585, 49.13642412 ], [ 19.67652432, 49.13638871 ], [ 19.67657275, 49.13629703 ], [ 19.67678825, 49.13587756 ], [ 19.67719933, 49.13578299 ], [ 19.67702755, 49.13577035 ], [ 19.67711201, 49.13560347 ], [ 19.67739986, 49.13566551 ], [ 19.67746454, 49.13562817 ], [ 19.67715864, 49.13554939 ], [ 19.67714164, 49.13554503 ], [ 19.67724524, 49.13534016 ], [ 19.67727758, 49.13534763 ], [ 19.67767565, 49.13543977 ], [ 19.67764087, 49.13549889 ], [ 19.67761073, 49.13555028 ], [ 19.67785572, 49.13541979 ], [ 19.67786808, 49.13534499 ], [ 19.67787437, 49.13530778 ], [ 19.67771936, 49.13532048 ], [ 19.67754274, 49.13531357 ], [ 19.67743024, 49.13529625 ], [ 19.67758716, 49.13499892 ], [ 19.67763237, 49.13491313 ], [ 19.67793869, 49.13491974 ], [ 19.67797443, 49.13470421 ], [ 19.67803068, 49.13437187 ], [ 19.67791346, 49.13432027 ], [ 19.67760316, 49.13420552 ], [ 19.67643972, 49.13479134 ], [ 19.67664235, 49.13488196 ], [ 19.67666517, 49.13486034 ], [ 19.6769479, 49.13495343 ], [ 19.67709419, 49.13499883 ], [ 19.67721892, 49.13503752 ], [ 19.67719812, 49.13507688 ], [ 19.67746627, 49.13511804 ], [ 19.67737656, 49.13528801 ], [ 19.67710814, 49.13524676 ], [ 19.67696045, 49.13521229 ], [ 19.67676582, 49.13516681 ], [ 19.67658457, 49.13512337 ], [ 19.67654892, 49.13511477 ], [ 19.6764295, 49.13508596 ], [ 19.67641984, 49.13509437 ], [ 19.67639964, 49.13511186 ], [ 19.67630316, 49.13508965 ], [ 19.67619782, 49.13506544 ], [ 19.67615825, 49.1350562 ], [ 19.67616108, 49.13505273 ], [ 19.67616519, 49.13504885 ], [ 19.67593661, 49.13498619 ], [ 19.67593579, 49.13498751 ], [ 19.6759276, 49.13500039 ], [ 19.67590782, 49.13503106 ], [ 19.67590177, 49.13504053 ], [ 19.67599335, 49.13505558 ], [ 19.67618306, 49.13509552 ], [ 19.67622144, 49.13510424 ], [ 19.67646034, 49.13515339 ], [ 19.67669287, 49.13520703 ], [ 19.67692369, 49.13526257 ], [ 19.67715846, 49.1353118 ], [ 19.67709779, 49.13543304 ], [ 19.67708153, 49.13546567 ], [ 19.67706459, 49.13549953 ], [ 19.67683185, 49.13544922 ], [ 19.6768107, 49.13548524 ], [ 19.67656117, 49.13547005 ], [ 19.67659766, 49.13539839 ], [ 19.67655129, 49.1353885 ], [ 19.67647107, 49.13555556 ], [ 19.67644828, 49.13559817 ], [ 19.67644046, 49.13561288 ], [ 19.67625672, 49.13595724 ], [ 19.67615427, 49.13625643 ], [ 19.67595119, 49.1362543 ], [ 19.67569925, 49.13625189 ], [ 19.67569166, 49.13626426 ], [ 19.67544092, 49.13620865 ], [ 19.67545588, 49.13618741 ] ], [ [ 19.67647741, 49.13563425 ], [ 19.67654158, 49.13550839 ], [ 19.67674813, 49.13551672 ], [ 19.67702024, 49.1355849 ], [ 19.67705947, 49.1355934 ], [ 19.67697312, 49.13576406 ], [ 19.67693402, 49.13575557 ], [ 19.6769002, 49.13574651 ], [ 19.67685814, 49.13573609 ], [ 19.67685412, 49.1357351 ], [ 19.67675539, 49.13571072 ], [ 19.67666618, 49.13568866 ], [ 19.67664568, 49.13573173 ], [ 19.67647741, 49.13563425 ] ] ], [ [ [ 19.674984, 49.13640969 ], [ 19.67508217, 49.13633256 ], [ 19.67503478, 49.13629648 ], [ 19.674984, 49.13640969 ] ] ], [ [ [ 19.67746454, 49.13562817 ], [ 19.67754447, 49.13558556 ], [ 19.67751943, 49.13557923 ], [ 19.67746454, 49.13562817 ] ] ] ] } }
]
}
