{
"type": "FeatureCollection",
"name": "gis",
"crs": { "type": "name", "properties": { "name": "urn:ogc:def:crs:OGC:1.3:CRS84" } },
"features": [
{ "type": "Feature", "properties": { "@featureType": "CadastralZoning", "beginLifespanVersion": { "@nilReason": "http://inspire.ec.europa.eu/codelist/VoidReasonValue/Unpopulated", "@nil": "true" }, "endLifespanVersion": { "@nilReason": "http://inspire.ec.europa.eu/codelist/VoidReasonValue/Unpopulated", "@nil": "true" }, "estimatedAccuracy": { "value": -1, "@uom": "m" }, "inspireId": { "@dataType": "Identifier", "localId": "826804", "namespace": "SK.ESKN.CP", "versionId": "20260703T04:07:40" }, "label": "Kostolný Sek", "level": { "@href": "http://inspire.ec.europa.eu/codelist/CadastralZoningLevelValue/3rdOrder" }, "levelName": { "value": "Katastrálne územie", "@locale": "sk" }, "name": { "@dataType": "name", "GeographicalName": { "@dataType": "GeographicalName", "language": "SLK", "nativeness": { "@href": "http://inspire.ec.europa.eu/codelist/NativenessValue/endonym", "@title": "endonym" }, "nameStatus": { "@href": "http://inspire.ec.europa.eu/codelist/NameStatusValue/official", "@title": "official" }, "sourceOfName": { "@nilReason": "http://inspire.ec.europa.eu/codelist/VoidReasonValue/Unpopulated", "@nil": "true" }, "pronunciation": { "@dataType": "pronunciation", "@nilReason": "http://inspire.ec.europa.eu/codelist/VoidReasonValue/Unpopulated", "@nil": "true" }, "spelling": { "@dataType": "SpellingOfName", "text": "Kostolný Sek", "script": "LATN" } } }, "nationalCadastalZoningReference": "826804", "validFrom": "2026-06-30T16:00:00Z", "validTo": { "@nilReason": "http://inspire.ec.europa.eu/codelist/VoidReasonValue/Unpopulated", "@nil": "true" } }, "geometry": { "type": "MultiPolygon", "coordinates": [ [ [ [ 18.18970823, 48.10262994 ], [ 18.18989715, 48.10252964 ], [ 18.18999348, 48.10246665 ], [ 18.19021994, 48.10228801 ], [ 18.19027896, 48.10224144 ], [ 18.19037117, 48.10216863 ], [ 18.19076711, 48.10184632 ], [ 18.19201116, 48.10088616 ], [ 18.19217345, 48.10076977 ], [ 18.19226719, 48.10071114 ], [ 18.19339226, 48.10000764 ], [ 18.19360247, 48.09987924 ], [ 18.19636459, 48.09819121 ], [ 18.19709855, 48.09774458 ], [ 18.19887779, 48.09666179 ], [ 18.19901692, 48.09657717 ], [ 18.1993539, 48.09637201 ], [ 18.19935828, 48.09636937 ], [ 18.19941333, 48.09632834 ], [ 18.19903256, 48.09591239 ], [ 18.19779977, 48.09456529 ], [ 18.19714014, 48.09384457 ], [ 18.19712598, 48.09382903 ], [ 18.19708054, 48.09377944 ], [ 18.19701737, 48.09371166 ], [ 18.19908751, 48.093216 ], [ 18.19815685, 48.09218087 ], [ 18.19767415, 48.0916493 ], [ 18.19740321, 48.09135095 ], [ 18.19717619, 48.09109002 ], [ 18.19697365, 48.09089595 ], [ 18.19658123, 48.09103739 ], [ 18.19512513, 48.09141433 ], [ 18.19505475, 48.09154131 ], [ 18.19491308, 48.09150949 ], [ 18.19415956, 48.09172531 ], [ 18.1926526, 48.09213138 ], [ 18.19249892, 48.09217235 ], [ 18.19222609, 48.09219698 ], [ 18.19139164, 48.09231986 ], [ 18.19023053, 48.09266283 ], [ 18.18946358, 48.09288425 ], [ 18.18871797, 48.09309489 ], [ 18.18816011, 48.093243 ], [ 18.18806646, 48.09331238 ], [ 18.18795742, 48.09332814 ], [ 18.18794371, 48.09332996 ], [ 18.1877866, 48.09335058 ], [ 18.18764127, 48.09336973 ], [ 18.18747691, 48.09339328 ], [ 18.18728877, 48.09342554 ], [ 18.1871974, 48.09344116 ], [ 18.18704164, 48.09346791 ], [ 18.18700144, 48.09347451 ], [ 18.18687234, 48.09350977 ], [ 18.18672918, 48.09354953 ], [ 18.18659326, 48.09358647 ], [ 18.18643351, 48.0936305 ], [ 18.18627179, 48.09367415 ], [ 18.18626495, 48.09367601 ], [ 18.18611033, 48.0937189 ], [ 18.18598345, 48.09375366 ], [ 18.18597029, 48.09375749 ], [ 18.18581316, 48.09380312 ], [ 18.18565587, 48.09384892 ], [ 18.18550389, 48.09389332 ], [ 18.1855005, 48.09389448 ], [ 18.18540325, 48.09392211 ], [ 18.18539931, 48.09392342 ], [ 18.18535174, 48.09393382 ], [ 18.18513987, 48.09397861 ], [ 18.18499107, 48.09400992 ], [ 18.18483913, 48.09404149 ], [ 18.18480992, 48.09404746 ], [ 18.18469185, 48.09408598 ], [ 18.18451916, 48.09414244 ], [ 18.18436011, 48.09419455 ], [ 18.1841918, 48.09424945 ], [ 18.18416125, 48.0942595 ], [ 18.18416745, 48.09426988 ], [ 18.18402583, 48.09430603 ], [ 18.18391414, 48.0943349 ], [ 18.18385293, 48.09435272 ], [ 18.18368753, 48.09440283 ], [ 18.18351997, 48.094453 ], [ 18.18334664, 48.09450508 ], [ 18.18332943, 48.09450995 ], [ 18.18310596, 48.0945434 ], [ 18.1828769, 48.09459701 ], [ 18.18273749, 48.09463176 ], [ 18.18257413, 48.09467242 ], [ 18.18253702, 48.09465617 ], [ 18.18159068, 48.09480684 ], [ 18.18127144, 48.0948886 ], [ 18.18124174, 48.09483721 ], [ 18.18103808, 48.09482712 ], [ 18.18078153, 48.09483824 ], [ 18.18064563, 48.09484077 ], [ 18.18050645, 48.09483644 ], [ 18.18048123, 48.09483451 ], [ 18.18023694, 48.09481564 ], [ 18.18006287, 48.09480187 ], [ 18.17984829, 48.0947897 ], [ 18.17967644, 48.0947775 ], [ 18.1795731, 48.09480739 ], [ 18.17944447, 48.09487526 ], [ 18.17942256, 48.09487796 ], [ 18.17940475, 48.09488017 ], [ 18.17940202, 48.09488046 ], [ 18.17933108, 48.09488913 ], [ 18.17932519, 48.09488987 ], [ 18.17929889, 48.09489312 ], [ 18.17890719, 48.09463489 ], [ 18.17872585, 48.09456824 ], [ 18.17804728, 48.0943429 ], [ 18.17776718, 48.09425233 ], [ 18.17751552, 48.09417823 ], [ 18.17729924, 48.09410674 ], [ 18.17706632, 48.09403264 ], [ 18.17661744, 48.0938887 ], [ 18.17622551, 48.09377624 ], [ 18.17616673, 48.09376089 ], [ 18.17614412, 48.09373583 ], [ 18.17557307, 48.09356253 ], [ 18.17502562, 48.09339638 ], [ 18.17382883, 48.09302284 ], [ 18.17383006, 48.09305478 ], [ 18.17318049, 48.09284817 ], [ 18.17271599, 48.09268569 ], [ 18.1722814, 48.09241464 ], [ 18.17224761, 48.0923947 ], [ 18.17222434, 48.09238097 ], [ 18.17219067, 48.09236112 ], [ 18.17212198, 48.09232054 ], [ 18.1721007, 48.09230802 ], [ 18.17207341, 48.09229198 ], [ 18.17202047, 48.0922608 ], [ 18.17194702, 48.09221742 ], [ 18.17162532, 48.09243812 ], [ 18.17154094, 48.09239482 ], [ 18.17179474, 48.09209332 ], [ 18.1716028, 48.09186922 ], [ 18.17156069, 48.09182009 ], [ 18.1713594, 48.091554 ], [ 18.1712427, 48.09133169 ], [ 18.17117945, 48.09107034 ], [ 18.17088961, 48.09098026 ], [ 18.17050239, 48.09168309 ], [ 18.17034214, 48.09202463 ], [ 18.17022061, 48.09200073 ], [ 18.17012036, 48.09198097 ], [ 18.16992146, 48.09243192 ], [ 18.16990919, 48.09245991 ], [ 18.16983364, 48.09263118 ], [ 18.16979705, 48.09270929 ], [ 18.16989572, 48.09272048 ], [ 18.1700398, 48.09273685 ], [ 18.17061007, 48.09313935 ], [ 18.17065808, 48.09317321 ], [ 18.17078518, 48.09326298 ], [ 18.17086741, 48.0933104 ], [ 18.17092982, 48.09334646 ], [ 18.17098299, 48.09337277 ], [ 18.17100737, 48.09338114 ], [ 18.17100365, 48.09338589 ], [ 18.17098038, 48.09340006 ], [ 18.17098294, 48.0934021 ], [ 18.17100791, 48.09338731 ], [ 18.17102235, 48.09339231 ], [ 18.1711041, 48.09342065 ], [ 18.17112318, 48.09342728 ], [ 18.17111798, 48.09344855 ], [ 18.17112196, 48.09344905 ], [ 18.17118817, 48.09348904 ], [ 18.17414845, 48.09421314 ], [ 18.17420819, 48.09425419 ], [ 18.17428729, 48.09431325 ], [ 18.17420518, 48.09446563 ], [ 18.1741406, 48.09455384 ], [ 18.17410337, 48.09462037 ], [ 18.17407188, 48.09467793 ], [ 18.17402238, 48.0947673 ], [ 18.1739869, 48.09485867 ], [ 18.17394284, 48.09495585 ], [ 18.17391604, 48.09501784 ], [ 18.17388875, 48.09506698 ], [ 18.17383725, 48.09519857 ], [ 18.17382126, 48.09529442 ], [ 18.17379955, 48.09535147 ], [ 18.17379875, 48.09535341 ], [ 18.17377843, 48.09540702 ], [ 18.17377001, 48.0954365 ], [ 18.17376535, 48.09546295 ], [ 18.17373635, 48.09551596 ], [ 18.17370258, 48.09566556 ], [ 18.17362587, 48.09586755 ], [ 18.1735894, 48.09599235 ], [ 18.17353237, 48.09611567 ], [ 18.17352189, 48.09621482 ], [ 18.17348426, 48.09630813 ], [ 18.17343468, 48.09643117 ], [ 18.17338193, 48.09656197 ], [ 18.17331946, 48.09671053 ], [ 18.17325168, 48.09683774 ], [ 18.1732098, 48.09696575 ], [ 18.17316243, 48.09711735 ], [ 18.17315634, 48.09717857 ], [ 18.17316864, 48.09723417 ], [ 18.17323598, 48.09735249 ], [ 18.17329561, 48.09744508 ], [ 18.17335823, 48.0975717 ], [ 18.17341839, 48.09769655 ], [ 18.17344529, 48.09776312 ], [ 18.17347788, 48.09784402 ], [ 18.17352177, 48.09795302 ], [ 18.17353091, 48.09799879 ], [ 18.1735482, 48.09808538 ], [ 18.17356093, 48.09814905 ], [ 18.17357379, 48.09821281 ], [ 18.173611, 48.09828405 ], [ 18.17364183, 48.09834327 ], [ 18.17363662, 48.0984578 ], [ 18.17366655, 48.098525 ], [ 18.17371235, 48.09862761 ], [ 18.17376036, 48.09871636 ], [ 18.17380466, 48.09879948 ], [ 18.17385293, 48.09888725 ], [ 18.1739957, 48.09904311 ], [ 18.17410799, 48.09923646 ], [ 18.1741621, 48.09933838 ], [ 18.17427152, 48.09948552 ], [ 18.17434008, 48.09958513 ], [ 18.17436308, 48.09961862 ], [ 18.1743794, 48.09964232 ], [ 18.17445125, 48.0997219 ], [ 18.17457257, 48.09981593 ], [ 18.17472385, 48.09993337 ], [ 18.17474936, 48.09992899 ], [ 18.17493469, 48.1001007 ], [ 18.17502241, 48.10018364 ], [ 18.17504845, 48.10020828 ], [ 18.17512603, 48.10025316 ], [ 18.17517827, 48.10026804 ], [ 18.17522317, 48.10027717 ], [ 18.17556767, 48.10034749 ], [ 18.17568347, 48.10034622 ], [ 18.17569522, 48.10034402 ], [ 18.17590363, 48.10030537 ], [ 18.17595136, 48.10029073 ], [ 18.1760572, 48.10025828 ], [ 18.17618045, 48.10022052 ], [ 18.17618789, 48.10021825 ], [ 18.17624488, 48.10020081 ], [ 18.17632963, 48.10015855 ], [ 18.17638792, 48.10018082 ], [ 18.17639023, 48.10018168 ], [ 18.17639241, 48.10018253 ], [ 18.17640808, 48.1001885 ], [ 18.17651143, 48.10022803 ], [ 18.17653179, 48.10022795 ], [ 18.17658121, 48.10023138 ], [ 18.17665419, 48.10023808 ], [ 18.17670734, 48.10024083 ], [ 18.17838128, 48.10015886 ], [ 18.17992865, 48.10008311 ], [ 18.18033367, 48.10006324 ], [ 18.18043011, 48.10005858 ], [ 18.18054405, 48.10005296 ], [ 18.18081098, 48.10003893 ], [ 18.18101314, 48.10002852 ], [ 18.18107194, 48.10002618 ], [ 18.18111306, 48.10007688 ], [ 18.18241883, 48.10159004 ], [ 18.18332254, 48.10110491 ], [ 18.18336777, 48.10112606 ], [ 18.18376651, 48.10132762 ], [ 18.18392825, 48.10140946 ], [ 18.18503784, 48.10197054 ], [ 18.1852727, 48.10180929 ], [ 18.18547896, 48.10166894 ], [ 18.18568874, 48.10152951 ], [ 18.18589559, 48.10138774 ], [ 18.18608707, 48.1014306 ], [ 18.18744068, 48.10189792 ], [ 18.18790539, 48.1020691 ], [ 18.18930001, 48.10259133 ], [ 18.1895328, 48.102643 ], [ 18.18970823, 48.10262994 ] ] ] ] } },
{ "type": "Feature", "properties": { "@featureType": "CadastralZoning", "beginLifespanVersion": { "@nilReason": "http://inspire.ec.europa.eu/codelist/VoidReasonValue/Unpopulated", "@nil": "true" }, "endLifespanVersion": { "@nilReason": "http://inspire.ec.europa.eu/codelist/VoidReasonValue/Unpopulated", "@nil": "true" }, "estimatedAccuracy": { "value": -1, "@uom": "m" }, "inspireId": { "@dataType": "Identifier", "localId": "861898", "namespace": "SK.ESKN.CP", "versionId": "20260703T04:07:40" }, "label": "Šurany", "level": { "@href": "http://inspire.ec.europa.eu/codelist/CadastralZoningLevelValue/3rdOrder" }, "levelName": { "value": "Katastrálne územie", "@locale": "sk" }, "name": { "@dataType": "name", "GeographicalName": { "@dataType": "GeographicalName", "language": "SLK", "nativeness": { "@href": "http://inspire.ec.europa.eu/codelist/NativenessValue/endonym", "@title": "endonym" }, "nameStatus": { "@href": "http://inspire.ec.europa.eu/codelist/NameStatusValue/official", "@title": "official" }, "sourceOfName": { "@nilReason": "http://inspire.ec.europa.eu/codelist/VoidReasonValue/Unpopulated", "@nil": "true" }, "pronunciation": { "@dataType": "pronunciation", "@nilReason": "http://inspire.ec.europa.eu/codelist/VoidReasonValue/Unpopulated", "@nil": "true" }, "spelling": { "@dataType": "SpellingOfName", "text": "Šurany", "script": "LATN" } } }, "nationalCadastalZoningReference": "861898", "validFrom": "2026-06-30T16:00:00Z", "validTo": { "@nilReason": "http://inspire.ec.europa.eu/codelist/VoidReasonValue/Unpopulated", "@nil": "true" } }, "geometry": { "type": "MultiPolygon", "coordinates": [ [ [ [ 18.20953133, 48.13126979 ], [ 18.21087362, 48.13088501 ], [ 18.21154713, 48.13066811 ], [ 18.21227731, 48.13038426 ], [ 18.2126936, 48.13016975 ], [ 18.21345265, 48.1302261 ], [ 18.21397067, 48.13025582 ], [ 18.21509498, 48.13034175 ], [ 18.21511899, 48.13035001 ], [ 18.21512152, 48.1297474 ], [ 18.21512163, 48.12972158 ], [ 18.21512316, 48.12933386 ], [ 18.21509061, 48.12815452 ], [ 18.21524153, 48.12805532 ], [ 18.21556074, 48.12786242 ], [ 18.21567178, 48.12779006 ], [ 18.21568267, 48.12778302 ], [ 18.21570993, 48.12776727 ], [ 18.21572364, 48.12775931 ], [ 18.21574856, 48.12774487 ], [ 18.21576343, 48.12773625 ], [ 18.21583852, 48.12769267 ], [ 18.21585995, 48.12768029 ], [ 18.21589319, 48.127661 ], [ 18.21592088, 48.127645 ], [ 18.21595456, 48.12762547 ], [ 18.21644086, 48.12734379 ], [ 18.21710189, 48.12689458 ], [ 18.21730168, 48.12674179 ], [ 18.21779913, 48.12636144 ], [ 18.21836018, 48.1258417 ], [ 18.21850374, 48.12566596 ], [ 18.21859999, 48.12563797 ], [ 18.21956977, 48.12450514 ], [ 18.21947228, 48.12448324 ], [ 18.22139524, 48.12154959 ], [ 18.22165135, 48.12099247 ], [ 18.22427394, 48.11765369 ], [ 18.22461233, 48.11764848 ], [ 18.22520297, 48.11645004 ], [ 18.22522421, 48.11640469 ], [ 18.22551183, 48.11593173 ], [ 18.22626167, 48.11505531 ], [ 18.22665118, 48.11292913 ], [ 18.22675521, 48.11183311 ], [ 18.22639318, 48.1113363 ], [ 18.22624388, 48.11054417 ], [ 18.22570218, 48.10994206 ], [ 18.22520946, 48.1095441 ], [ 18.22502089, 48.10860967 ], [ 18.22439356, 48.10787044 ], [ 18.22432174, 48.1078818 ], [ 18.22428573, 48.10783394 ], [ 18.22334251, 48.10623648 ], [ 18.22196319, 48.10384268 ], [ 18.22191166, 48.10358666 ], [ 18.22163755, 48.10356868 ], [ 18.22234819, 48.10250785 ], [ 18.22243374, 48.10207553 ], [ 18.22282808, 48.10051601 ], [ 18.22286049, 48.09973775 ], [ 18.22287224, 48.09945507 ], [ 18.22296291, 48.09911025 ], [ 18.22327714, 48.09881343 ], [ 18.22353713, 48.09845767 ], [ 18.22298881, 48.09821137 ], [ 18.22295682, 48.09819092 ], [ 18.22255586, 48.09793376 ], [ 18.22255349, 48.09793227 ], [ 18.22198141, 48.09742785 ], [ 18.22149927, 48.09694391 ], [ 18.22117676, 48.09643447 ], [ 18.22096515, 48.09611274 ], [ 18.22084993, 48.0958689 ], [ 18.22076828, 48.09568118 ], [ 18.21980968, 48.09309654 ], [ 18.21986724, 48.0930088 ], [ 18.21995384, 48.09287679 ], [ 18.21997263, 48.09284818 ], [ 18.22013755, 48.09264408 ], [ 18.22015697, 48.09262002 ], [ 18.22017032, 48.0926022 ], [ 18.22019682, 48.09256708 ], [ 18.22027882, 48.09245819 ], [ 18.22035303, 48.09234072 ], [ 18.22036285, 48.09232522 ], [ 18.22037539, 48.09230536 ], [ 18.22062149, 48.09189536 ], [ 18.22063187, 48.09187764 ], [ 18.22102294, 48.09121038 ], [ 18.22108049, 48.09111225 ], [ 18.22109224, 48.09109226 ], [ 18.22165006, 48.09007097 ], [ 18.2219258, 48.08962441 ], [ 18.22233499, 48.08937959 ], [ 18.22403998, 48.08863518 ], [ 18.22405069, 48.08863048 ], [ 18.22430367, 48.08855271 ], [ 18.22456927, 48.08847117 ], [ 18.22565173, 48.08813864 ], [ 18.22638667, 48.08794809 ], [ 18.2274569, 48.08782374 ], [ 18.22825216, 48.08763342 ], [ 18.22896476, 48.08724016 ], [ 18.22966379, 48.08679321 ], [ 18.22903898, 48.08684275 ], [ 18.2276861, 48.0868972 ], [ 18.22634491, 48.08697903 ], [ 18.22368184, 48.0871453 ], [ 18.22233069, 48.0872415 ], [ 18.22200281, 48.08725975 ], [ 18.221611, 48.08728161 ], [ 18.2212192, 48.08730347 ], [ 18.22100315, 48.08731548 ], [ 18.219976, 48.08740978 ], [ 18.21985264, 48.08744685 ], [ 18.21951858, 48.08754725 ], [ 18.21911931, 48.08774768 ], [ 18.21883284, 48.0880229 ], [ 18.21872442, 48.08823714 ], [ 18.2186496, 48.08835729 ], [ 18.21863867, 48.08837092 ], [ 18.21857504, 48.08845036 ], [ 18.21832167, 48.08758302 ], [ 18.21811924, 48.08701256 ], [ 18.21810176, 48.08696334 ], [ 18.21796615, 48.08648993 ], [ 18.21790367, 48.08630422 ], [ 18.21784698, 48.08612372 ], [ 18.21777997, 48.08591058 ], [ 18.21773321, 48.08576162 ], [ 18.21769581, 48.08564245 ], [ 18.21761956, 48.0853997 ], [ 18.21756957, 48.08524036 ], [ 18.21754343, 48.08515705 ], [ 18.21749008, 48.08498722 ], [ 18.21722757, 48.08415121 ], [ 18.21689687, 48.08344773 ], [ 18.21649228, 48.08268444 ], [ 18.21639515, 48.08255314 ], [ 18.21634321, 48.08248287 ], [ 18.2162876, 48.08240769 ], [ 18.21605046, 48.08208708 ], [ 18.21529888, 48.0810143 ], [ 18.21524407, 48.08093601 ], [ 18.21504326, 48.08064927 ], [ 18.21465208, 48.08010955 ], [ 18.21455136, 48.07997073 ], [ 18.21443248, 48.07980665 ], [ 18.21426128, 48.07955035 ], [ 18.21419335, 48.07944863 ], [ 18.21410181, 48.0793117 ], [ 18.21390724, 48.07902054 ], [ 18.21386323, 48.07895461 ], [ 18.21382239, 48.07889338 ], [ 18.21380195, 48.07886285 ], [ 18.21352182, 48.07828661 ], [ 18.21302138, 48.07607967 ], [ 18.21292253, 48.07565578 ], [ 18.21277874, 48.07503897 ], [ 18.21259009, 48.07431611 ], [ 18.21248013, 48.07389482 ], [ 18.21227006, 48.07284726 ], [ 18.21219482, 48.07248567 ], [ 18.21213196, 48.0724822 ], [ 18.21200143, 48.07247497 ], [ 18.21195944, 48.07247262 ], [ 18.21183346, 48.07246566 ], [ 18.21164676, 48.07245534 ], [ 18.21114771, 48.07255623 ], [ 18.2110304, 48.07293912 ], [ 18.21096294, 48.07315953 ], [ 18.21093866, 48.07323891 ], [ 18.21086773, 48.0734705 ], [ 18.21080825, 48.07366465 ], [ 18.21057754, 48.0737768 ], [ 18.21052665, 48.07380156 ], [ 18.21038696, 48.07384011 ], [ 18.21023223, 48.07381901 ], [ 18.21019267, 48.07380516 ], [ 18.21011611, 48.0737785 ], [ 18.2100081, 48.07371589 ], [ 18.20995617, 48.0736457 ], [ 18.20987421, 48.0734027 ], [ 18.20966182, 48.07327236 ], [ 18.20953985, 48.07325001 ], [ 18.20937533, 48.0732483 ], [ 18.20920264, 48.07328682 ], [ 18.20915381, 48.07337372 ], [ 18.2092105, 48.07362048 ], [ 18.20919639, 48.07371905 ], [ 18.20920107, 48.07385663 ], [ 18.20920143, 48.07386839 ], [ 18.20901853, 48.07401077 ], [ 18.20886744, 48.07401038 ], [ 18.20874942, 48.07399187 ], [ 18.20838014, 48.07390701 ], [ 18.20828714, 48.07388563 ], [ 18.20806054, 48.07387335 ], [ 18.20796769, 48.07385495 ], [ 18.207803, 48.07386496 ], [ 18.2076826, 48.07392828 ], [ 18.20749629, 48.07398875 ], [ 18.2073544, 48.07403485 ], [ 18.2071491, 48.07410884 ], [ 18.20702677, 48.07410796 ], [ 18.20689694, 48.07409011 ], [ 18.20671939, 48.07403401 ], [ 18.2063867, 48.0739288 ], [ 18.20620439, 48.07391052 ], [ 18.20588895, 48.073955 ], [ 18.20567531, 48.07394564 ], [ 18.20541929, 48.0739255 ], [ 18.20513538, 48.07405622 ], [ 18.20497204, 48.07406928 ], [ 18.20472849, 48.07411307 ], [ 18.20452017, 48.0741375 ], [ 18.20419488, 48.07406874 ], [ 18.20375584, 48.07394957 ], [ 18.20355757, 48.07395464 ], [ 18.20343447, 48.07400444 ], [ 18.20320865, 48.07414729 ], [ 18.20312466, 48.07417273 ], [ 18.20300991, 48.07418618 ], [ 18.20281229, 48.0741457 ], [ 18.20260934, 48.07408821 ], [ 18.20253361, 48.07408632 ], [ 18.20237034, 48.07408639 ], [ 18.20184998, 48.07418925 ], [ 18.20179965, 48.07419101 ], [ 18.2016964, 48.07419466 ], [ 18.20061087, 48.07416828 ], [ 18.19833603, 48.07414628 ], [ 18.1982736, 48.07414571 ], [ 18.19823916, 48.07414533 ], [ 18.19820769, 48.07414702 ], [ 18.19813309, 48.07415098 ], [ 18.19805972, 48.07415483 ], [ 18.19793777, 48.07416136 ], [ 18.19787856, 48.07416089 ], [ 18.19783872, 48.07416064 ], [ 18.19781469, 48.07415689 ], [ 18.19775924, 48.07414825 ], [ 18.19774854, 48.07411548 ], [ 18.19777337, 48.07400815 ], [ 18.19777552, 48.07393551 ], [ 18.19777006, 48.0738488 ], [ 18.19776442, 48.07376036 ], [ 18.19772642, 48.07369406 ], [ 18.19768661, 48.07363125 ], [ 18.1976624, 48.07359256 ], [ 18.19764083, 48.07355212 ], [ 18.19762537, 48.07351042 ], [ 18.19761508, 48.07347235 ], [ 18.19761967, 48.07343073 ], [ 18.1976268, 48.07340795 ], [ 18.19764006, 48.07338985 ], [ 18.19765844, 48.07338108 ], [ 18.19769263, 48.07336773 ], [ 18.19772596, 48.07334963 ], [ 18.19775216, 48.07334502 ], [ 18.19781433, 48.07333817 ], [ 18.19786332, 48.07333127 ], [ 18.19793747, 48.07335256 ], [ 18.19809803, 48.07338584 ], [ 18.19817573, 48.07341303 ], [ 18.19825593, 48.07343548 ], [ 18.19828741, 48.07344201 ], [ 18.19833888, 48.07344808 ], [ 18.19846469, 48.07345956 ], [ 18.1985459, 48.07346799 ], [ 18.19857571, 48.07345519 ], [ 18.1985993, 48.07344465 ], [ 18.19860821, 48.07342892 ], [ 18.19862249, 48.07337911 ], [ 18.19862003, 48.07334926 ], [ 18.19861067, 48.07332173 ], [ 18.19859502, 48.0732959 ], [ 18.19858453, 48.07329059 ], [ 18.1985523, 48.07327527 ], [ 18.1985062, 48.07325579 ], [ 18.19840751, 48.07323153 ], [ 18.19834127, 48.0732126 ], [ 18.19828634, 48.07319893 ], [ 18.19826701, 48.07319419 ], [ 18.19815964, 48.07318396 ], [ 18.19798325, 48.07316475 ], [ 18.19790197, 48.07315685 ], [ 18.19783643, 48.07314906 ], [ 18.19776046, 48.07314184 ], [ 18.1977316, 48.07314521 ], [ 18.19757862, 48.07316356 ], [ 18.19751734, 48.07317182 ], [ 18.19750997, 48.07315487 ], [ 18.19750279, 48.07313342 ], [ 18.19739536, 48.07280993 ], [ 18.19727817, 48.07253164 ], [ 18.19724735, 48.07247541 ], [ 18.19721991, 48.07242525 ], [ 18.19723458, 48.07242222 ], [ 18.19731157, 48.07240603 ], [ 18.19738595, 48.07238924 ], [ 18.19745948, 48.07237069 ], [ 18.19755583, 48.07234642 ], [ 18.1976626, 48.07231978 ], [ 18.19775718, 48.07229369 ], [ 18.19782099, 48.07227629 ], [ 18.19787275, 48.07225421 ], [ 18.19790082, 48.07223724 ], [ 18.19795269, 48.07218412 ], [ 18.19797744, 48.07215017 ], [ 18.19798096, 48.07214378 ], [ 18.1979837, 48.07211334 ], [ 18.19798297, 48.07209398 ], [ 18.19794305, 48.07205283 ], [ 18.19791961, 48.07203522 ], [ 18.19788824, 48.07201642 ], [ 18.19784454, 48.07200746 ], [ 18.19781755, 48.0719975 ], [ 18.19776253, 48.07198969 ], [ 18.19773368, 48.07198259 ], [ 18.1976629, 48.07198415 ], [ 18.197593, 48.07198514 ], [ 18.19736917, 48.07199205 ], [ 18.19697514, 48.07200068 ], [ 18.19695755, 48.07197014 ], [ 18.19694403, 48.0719466 ], [ 18.19692588, 48.07191521 ], [ 18.19692181, 48.0719082 ], [ 18.19690836, 48.07188413 ], [ 18.1968356, 48.0717535 ], [ 18.19681057, 48.07170862 ], [ 18.19680651, 48.07170152 ], [ 18.19677006, 48.07163675 ], [ 18.19672966, 48.07156497 ], [ 18.19671061, 48.07153118 ], [ 18.19664403, 48.0714131 ], [ 18.19657243, 48.07128598 ], [ 18.19653127, 48.07121289 ], [ 18.19653259, 48.07120891 ], [ 18.19653796, 48.07118313 ], [ 18.19655386, 48.07115914 ], [ 18.19659606, 48.07111421 ], [ 18.19662167, 48.07108501 ], [ 18.19664802, 48.07106569 ], [ 18.19669619, 48.07104421 ], [ 18.19671982, 48.07104071 ], [ 18.19682306, 48.07102461 ], [ 18.1969201, 48.07101375 ], [ 18.19698732, 48.07101577 ], [ 18.19707039, 48.07102124 ], [ 18.19713496, 48.07103024 ], [ 18.19719865, 48.07104388 ], [ 18.19728668, 48.07108277 ], [ 18.19735728, 48.07111171 ], [ 18.19741571, 48.07113994 ], [ 18.19751149, 48.07118768 ], [ 18.19762656, 48.07124656 ], [ 18.1976954, 48.07128073 ], [ 18.19775637, 48.07131019 ], [ 18.19780257, 48.07132678 ], [ 18.19783569, 48.07134144 ], [ 18.19788363, 48.07134983 ], [ 18.19796494, 48.07136062 ], [ 18.19798679, 48.07136243 ], [ 18.19804274, 48.07134854 ], [ 18.19807596, 48.07134271 ], [ 18.19811542, 48.07132822 ], [ 18.19815828, 48.07131248 ], [ 18.1981995, 48.07129683 ], [ 18.19822755, 48.07128519 ], [ 18.19824885, 48.07123723 ], [ 18.19827101, 48.0711775 ], [ 18.19828356, 48.07114302 ], [ 18.19828888, 48.07112491 ], [ 18.19827942, 48.07109087 ], [ 18.19826923, 48.07105101 ], [ 18.19824781, 48.07097835 ], [ 18.19822371, 48.07093668 ], [ 18.19819946, 48.07089212 ], [ 18.19818121, 48.07086452 ], [ 18.19815342, 48.07084096 ], [ 18.19809431, 48.07078579 ], [ 18.19804226, 48.07074466 ], [ 18.19801521, 48.07072169 ], [ 18.19797687, 48.0707005 ], [ 18.19791775, 48.07066925 ], [ 18.19787328, 48.07064454 ], [ 18.19784969, 48.0706363 ], [ 18.19783236, 48.07062455 ], [ 18.19780102, 48.07061388 ], [ 18.19778174, 48.07060156 ], [ 18.19773546, 48.07059381 ], [ 18.19768053, 48.07058014 ], [ 18.1976133, 48.07056882 ], [ 18.19754171, 48.07056103 ], [ 18.19744049, 48.07054494 ], [ 18.1972937, 48.07052808 ], [ 18.19720116, 48.07051257 ], [ 18.19706766, 48.07049405 ], [ 18.19696284, 48.07047973 ], [ 18.19680308, 48.07045697 ], [ 18.19669569, 48.07043852 ], [ 18.19600318, 48.07031954 ], [ 18.19599698, 48.07030915 ], [ 18.19597176, 48.07026688 ], [ 18.19595278, 48.07023246 ], [ 18.19585496, 48.07005416 ], [ 18.19579765, 48.0699498 ], [ 18.19559042, 48.06957247 ], [ 18.19554152, 48.06947492 ], [ 18.19553313, 48.06945863 ], [ 18.19552313, 48.0694381 ], [ 18.19551445, 48.06942089 ], [ 18.1955095, 48.0694113 ], [ 18.19549616, 48.06938435 ], [ 18.19546643, 48.06932493 ], [ 18.19546212, 48.06931141 ], [ 18.19545265, 48.0692816 ], [ 18.19544021, 48.06924251 ], [ 18.19542672, 48.06920011 ], [ 18.19541954, 48.06917757 ], [ 18.19541009, 48.06914768 ], [ 18.19538702, 48.06907529 ], [ 18.19538149, 48.06903173 ], [ 18.19537445, 48.06897598 ], [ 18.19537059, 48.06894551 ], [ 18.19536069, 48.06886712 ], [ 18.19535295, 48.06880528 ], [ 18.19535768, 48.06877089 ], [ 18.19536552, 48.06871465 ], [ 18.19537813, 48.06862267 ], [ 18.19538834, 48.06854915 ], [ 18.19540985, 48.06843729 ], [ 18.19542239, 48.06837492 ], [ 18.195434, 48.06831557 ], [ 18.19543947, 48.0682879 ], [ 18.19545119, 48.06826087 ], [ 18.19547225, 48.0682128 ], [ 18.19549971, 48.06814959 ], [ 18.1955302, 48.0680796 ], [ 18.19555071, 48.06803258 ], [ 18.19557457, 48.0680003 ], [ 18.19559824, 48.06796837 ], [ 18.19576945, 48.06773668 ], [ 18.1958134, 48.06767714 ], [ 18.19584901, 48.06762902 ], [ 18.19589247, 48.06757016 ], [ 18.19616401, 48.06735308 ], [ 18.19645015, 48.06717395 ], [ 18.196744, 48.06701946 ], [ 18.19680442, 48.06698769 ], [ 18.19718856, 48.06685778 ], [ 18.19752291, 48.06676902 ], [ 18.19794453, 48.06669167 ], [ 18.19859277, 48.06658463 ], [ 18.19874609, 48.06655935 ], [ 18.19920687, 48.06648328 ], [ 18.19929799, 48.06646819 ], [ 18.20012475, 48.06630348 ], [ 18.20006419, 48.06621582 ], [ 18.19998379, 48.06609946 ], [ 18.19996564, 48.06604722 ], [ 18.20015304, 48.06601147 ], [ 18.20034043, 48.0659758 ], [ 18.20052781, 48.06594013 ], [ 18.20036785, 48.06585363 ], [ 18.20026212, 48.06579647 ], [ 18.20022286, 48.06577522 ], [ 18.20012017, 48.06577881 ], [ 18.19982618, 48.06578904 ], [ 18.19963994, 48.06578054 ], [ 18.19923118, 48.06573172 ], [ 18.19870413, 48.06565208 ], [ 18.19863122, 48.06564106 ], [ 18.19712207, 48.06541293 ], [ 18.19624261, 48.06527998 ], [ 18.19493056, 48.06508163 ], [ 18.19254636, 48.06472117 ], [ 18.19169814, 48.064604 ], [ 18.19199386, 48.06391213 ], [ 18.19302328, 48.06152769 ], [ 18.19306062, 48.0614413 ], [ 18.19308085, 48.06139437 ], [ 18.19448798, 48.05808333 ], [ 18.19456649, 48.05789851 ], [ 18.19453549, 48.0578967 ], [ 18.19441933, 48.05788171 ], [ 18.19438063, 48.05787594 ], [ 18.19395428, 48.05782724 ], [ 18.19360232, 48.05777187 ], [ 18.19267958, 48.05762381 ], [ 18.19205743, 48.05750664 ], [ 18.19166534, 48.05742852 ], [ 18.19116858, 48.05733825 ], [ 18.19032643, 48.05716797 ], [ 18.19030537, 48.05716322 ], [ 18.18993677, 48.0570805 ], [ 18.18980422, 48.05705074 ], [ 18.18767496, 48.05657287 ], [ 18.18677168, 48.05637679 ], [ 18.18653323, 48.05635068 ], [ 18.18639577, 48.05633282 ], [ 18.18619769, 48.05632558 ], [ 18.18462945, 48.056223 ], [ 18.18459761, 48.05622241 ], [ 18.18425607, 48.05621555 ], [ 18.18405945, 48.05621879 ], [ 18.18378222, 48.05619474 ], [ 18.18320884, 48.05612532 ], [ 18.1827989, 48.05605723 ], [ 18.18217666, 48.05595354 ], [ 18.18185356, 48.05590424 ], [ 18.18165678, 48.05586106 ], [ 18.18165194, 48.05585996 ], [ 18.18095726, 48.05570753 ], [ 18.18031278, 48.05561019 ], [ 18.17991793, 48.05555868 ], [ 18.17941229, 48.0555007 ], [ 18.1786078, 48.05543788 ], [ 18.17788625, 48.05536691 ], [ 18.17778228, 48.05535668 ], [ 18.17737912, 48.05532453 ], [ 18.1772892, 48.05531602 ], [ 18.17715564, 48.05530343 ], [ 18.17714234, 48.0553022 ], [ 18.17713169, 48.05530122 ], [ 18.17710774, 48.05529901 ], [ 18.176385, 48.05523093 ], [ 18.17555446, 48.05515628 ], [ 18.17472019, 48.05508122 ], [ 18.17413901, 48.05501708 ], [ 18.17365852, 48.05496974 ], [ 18.17280787, 48.05488821 ], [ 18.17229995, 48.05484577 ], [ 18.17120709, 48.05474436 ], [ 18.17079581, 48.05471876 ], [ 18.17055623, 48.05467034 ], [ 18.17022694, 48.05463257 ], [ 18.16976079, 48.05455681 ], [ 18.16930894, 48.05449019 ], [ 18.16911499, 48.05446159 ], [ 18.16903122, 48.05444929 ], [ 18.16890724, 48.05443038 ], [ 18.16753746, 48.054222 ], [ 18.16735742, 48.05420036 ], [ 18.16687252, 48.05417251 ], [ 18.16638723, 48.05415899 ], [ 18.16621241, 48.05415823 ], [ 18.16541403, 48.05400946 ], [ 18.16470341, 48.05391169 ], [ 18.16450434, 48.05389037 ], [ 18.1636068, 48.05380918 ], [ 18.16324262, 48.05378811 ], [ 18.16307474, 48.05376609 ], [ 18.16156794, 48.05364332 ], [ 18.15995482, 48.05351176 ], [ 18.15995136, 48.05351147 ], [ 18.15887946, 48.05342408 ], [ 18.15717275, 48.05328447 ], [ 18.15382432, 48.05303562 ], [ 18.1512812, 48.05303273 ], [ 18.15121457, 48.05303776 ], [ 18.15112894, 48.05303048 ], [ 18.15106219, 48.05303532 ], [ 18.15081619, 48.05304137 ], [ 18.15076918, 48.0530425 ], [ 18.15055385, 48.05304782 ], [ 18.15051197, 48.05304888 ], [ 18.15024436, 48.05305547 ], [ 18.14875147, 48.05237894 ], [ 18.14873456, 48.05237126 ], [ 18.14871766, 48.05236359 ], [ 18.14852836, 48.05227782 ], [ 18.14315371, 48.05166572 ], [ 18.14306799, 48.05165599 ], [ 18.14305923, 48.05165502 ], [ 18.14303973, 48.05165279 ], [ 18.14292391, 48.05163958 ], [ 18.14291183, 48.05163824 ], [ 18.14150693, 48.05147812 ], [ 18.14035449, 48.04902317 ], [ 18.14034564, 48.04900433 ], [ 18.14029057, 48.04888697 ], [ 18.14028816, 48.04888169 ], [ 18.14027278, 48.048849 ], [ 18.13839637, 48.04516915 ], [ 18.13833908, 48.04505438 ], [ 18.13833322, 48.04504256 ], [ 18.13809824, 48.04457147 ], [ 18.13809212, 48.04454105 ], [ 18.138072, 48.04451269 ], [ 18.1380695, 48.0445092 ], [ 18.13544648, 48.04081615 ], [ 18.13452331, 48.04134116 ], [ 18.13162702, 48.04297458 ], [ 18.1315523, 48.04301676 ], [ 18.12997012, 48.04390902 ], [ 18.12651206, 48.04570398 ], [ 18.12517396, 48.04544349 ], [ 18.12408062, 48.04545435 ], [ 18.12333579, 48.04546164 ], [ 18.12291382, 48.04546583 ], [ 18.12120983, 48.04511673 ], [ 18.11916386, 48.04446918 ], [ 18.1191384, 48.04446109 ], [ 18.11881114, 48.04440639 ], [ 18.11872147, 48.04438792 ], [ 18.118628, 48.04436869 ], [ 18.11860991, 48.04436491 ], [ 18.11853587, 48.04444595 ], [ 18.11668796, 48.04647031 ], [ 18.11182244, 48.05179902 ], [ 18.11065056, 48.0526741 ], [ 18.10860426, 48.05358727 ], [ 18.10784446, 48.05423712 ], [ 18.10749838, 48.05448708 ], [ 18.1074405, 48.05452889 ], [ 18.10583173, 48.05569086 ], [ 18.10527537, 48.05609271 ], [ 18.10489586, 48.05643494 ], [ 18.10440638, 48.0569609 ], [ 18.10439571, 48.05697137 ], [ 18.10436635, 48.05700006 ], [ 18.10313056, 48.05821167 ], [ 18.10181411, 48.05951376 ], [ 18.10179162, 48.0595322 ], [ 18.10171103, 48.05959813 ], [ 18.10166831, 48.05963307 ], [ 18.10160658, 48.05968359 ], [ 18.10009257, 48.06138722 ], [ 18.10014155, 48.06140799 ], [ 18.09920941, 48.06245172 ], [ 18.0991835, 48.06247357 ], [ 18.09916077, 48.06249272 ], [ 18.09905045, 48.06258596 ], [ 18.09903094, 48.06261343 ], [ 18.09821327, 48.06376026 ], [ 18.09669231, 48.06590656 ], [ 18.09632759, 48.06627448 ], [ 18.09626738, 48.06632563 ], [ 18.09522498, 48.06721104 ], [ 18.09463188, 48.06770917 ], [ 18.09377915, 48.06842541 ], [ 18.09374674, 48.06845266 ], [ 18.09372098, 48.06847434 ], [ 18.09375394, 48.06849308 ], [ 18.09384135, 48.06854123 ], [ 18.09387445, 48.06855989 ], [ 18.09416198, 48.06871784 ], [ 18.09587429, 48.06941369 ], [ 18.09750196, 48.070099 ], [ 18.0975391, 48.07011672 ], [ 18.09763201, 48.07016095 ], [ 18.09846002, 48.07055517 ], [ 18.09958238, 48.07109572 ], [ 18.09986734, 48.07127445 ], [ 18.09991874, 48.07130665 ], [ 18.09993617, 48.07131752 ], [ 18.09997275, 48.07134045 ], [ 18.10178318, 48.07247428 ], [ 18.10346774, 48.07360083 ], [ 18.10417886, 48.0740763 ], [ 18.10434316, 48.07418839 ], [ 18.10437493, 48.07421004 ], [ 18.10451725, 48.07429257 ], [ 18.10771842, 48.07614794 ], [ 18.10913369, 48.07709579 ], [ 18.10919755, 48.0771429 ], [ 18.10922264, 48.07716009 ], [ 18.11159566, 48.07878921 ], [ 18.11185928, 48.07893721 ], [ 18.11206994, 48.07905554 ], [ 18.11248261, 48.07928728 ], [ 18.11309779, 48.07963279 ], [ 18.11350156, 48.07985957 ], [ 18.11390069, 48.08008373 ], [ 18.11394386, 48.08010794 ], [ 18.11402198, 48.08019525 ], [ 18.11420341, 48.08039772 ], [ 18.11462217, 48.08086535 ], [ 18.11487586, 48.08114854 ], [ 18.11491391, 48.08119114 ], [ 18.1149427, 48.08122327 ], [ 18.11528558, 48.08160607 ], [ 18.11541272, 48.081748 ], [ 18.11610611, 48.08252217 ], [ 18.11612045, 48.08253819 ], [ 18.116226, 48.08265474 ], [ 18.11625342, 48.08268497 ], [ 18.11584692, 48.08305527 ], [ 18.11580913, 48.08308961 ], [ 18.11500872, 48.0838183 ], [ 18.11468993, 48.08410854 ], [ 18.11187924, 48.0867594 ], [ 18.11430031, 48.08789561 ], [ 18.11508861, 48.08830071 ], [ 18.11516246, 48.08833865 ], [ 18.11549128, 48.08850466 ], [ 18.11600778, 48.0887694 ], [ 18.11611477, 48.08882383 ], [ 18.1162249, 48.08887998 ], [ 18.11616098, 48.09020166 ], [ 18.11612462, 48.09095339 ], [ 18.1155466, 48.09225333 ], [ 18.11577076, 48.09361114 ], [ 18.11505539, 48.09497242 ], [ 18.11262627, 48.09736966 ], [ 18.11240335, 48.09756552 ], [ 18.11092103, 48.09886754 ], [ 18.10934607, 48.10024922 ], [ 18.10747418, 48.1018054 ], [ 18.1051482, 48.10412644 ], [ 18.10430466, 48.10486771 ], [ 18.10421549, 48.10494605 ], [ 18.10339221, 48.10566945 ], [ 18.10110735, 48.10777988 ], [ 18.09892142, 48.10982146 ], [ 18.09672559, 48.11165241 ], [ 18.09673436, 48.11172805 ], [ 18.09677901, 48.1121135 ], [ 18.09688398, 48.11232971 ], [ 18.0970464, 48.11258579 ], [ 18.09731847, 48.1128701 ], [ 18.09868352, 48.11404377 ], [ 18.09868727, 48.11404706 ], [ 18.09932038, 48.11458754 ], [ 18.09981284, 48.11499935 ], [ 18.10025717, 48.11540299 ], [ 18.10052986, 48.11569718 ], [ 18.1008623, 48.1159985 ], [ 18.1012937, 48.11624554 ], [ 18.1022866, 48.11678288 ], [ 18.10275098, 48.11703457 ], [ 18.10305871, 48.11724098 ], [ 18.10423768, 48.11803151 ], [ 18.10544207, 48.11878697 ], [ 18.10626246, 48.11928545 ], [ 18.1069, 48.11964269 ], [ 18.10753504, 48.11996067 ], [ 18.10790809, 48.12011062 ], [ 18.10792537, 48.12011759 ], [ 18.10794266, 48.12012457 ], [ 18.10798992, 48.12014352 ], [ 18.10799779, 48.12014624 ], [ 18.10800075, 48.12014732 ], [ 18.10807861, 48.12017449 ], [ 18.10810956, 48.12018525 ], [ 18.1082515, 48.12023479 ], [ 18.10856604, 48.12032829 ], [ 18.10875535, 48.12037448 ], [ 18.10919275, 48.12048118 ], [ 18.10965812, 48.12058538 ], [ 18.11049926, 48.12081799 ], [ 18.11146789, 48.12106552 ], [ 18.11214289, 48.12122658 ], [ 18.11222015, 48.12124504 ], [ 18.11239916, 48.12129568 ], [ 18.11408341, 48.1217719 ], [ 18.11428298, 48.12183549 ], [ 18.11477181, 48.12199115 ], [ 18.11525532, 48.12213196 ], [ 18.11601727, 48.12229956 ], [ 18.11604221, 48.12227493 ], [ 18.11610714, 48.12221078 ], [ 18.1185364, 48.11981097 ], [ 18.12029035, 48.11807828 ], [ 18.12040934, 48.1179607 ], [ 18.12121518, 48.11719723 ], [ 18.12142497, 48.11715514 ], [ 18.12155017, 48.11712992 ], [ 18.12161567, 48.11711681 ], [ 18.13502137, 48.11442303 ], [ 18.13508977, 48.11440926 ], [ 18.13518056, 48.1143142 ], [ 18.13516377, 48.11423557 ], [ 18.13865518, 48.11322876 ], [ 18.13896762, 48.11313868 ], [ 18.13905795, 48.11311393 ], [ 18.13922225, 48.11306896 ], [ 18.14086724, 48.11258622 ], [ 18.14535828, 48.11159087 ], [ 18.15840995, 48.11063318 ], [ 18.15848237, 48.11062785 ], [ 18.15860281, 48.11061911 ], [ 18.15865698, 48.11061515 ], [ 18.15867182, 48.11061403 ], [ 18.1587019, 48.11061182 ], [ 18.1644164, 48.11018952 ], [ 18.16627935, 48.11000069 ], [ 18.16640845, 48.10998756 ], [ 18.16649246, 48.10998011 ], [ 18.16672051, 48.10802772 ], [ 18.16682012, 48.107175 ], [ 18.16682168, 48.10716101 ], [ 18.1680722, 48.10715768 ], [ 18.16809903, 48.10715763 ], [ 18.16814273, 48.10715748 ], [ 18.16819994, 48.10715911 ], [ 18.16822541, 48.10715707 ], [ 18.17776859, 48.1063775 ], [ 18.1778543, 48.10637556 ], [ 18.17794596, 48.10637351 ], [ 18.1780322, 48.10637159 ], [ 18.18361438, 48.10586852 ], [ 18.18388936, 48.10553375 ], [ 18.18389785, 48.10552341 ], [ 18.18389138, 48.10544774 ], [ 18.18388937, 48.10541341 ], [ 18.18450116, 48.10536172 ], [ 18.18510037, 48.10525025 ], [ 18.18543431, 48.10521032 ], [ 18.18570169, 48.10521473 ], [ 18.18607525, 48.1052868 ], [ 18.1866356, 48.10553949 ], [ 18.1876317, 48.10624243 ], [ 18.1878533, 48.10642904 ], [ 18.18811571, 48.10654545 ], [ 18.18817854, 48.10657331 ], [ 18.18828635, 48.10651225 ], [ 18.18829945, 48.1065048 ], [ 18.18847129, 48.10640748 ], [ 18.18849355, 48.10639487 ], [ 18.18850577, 48.106388 ], [ 18.18855562, 48.10640996 ], [ 18.18888817, 48.10615147 ], [ 18.19020052, 48.10562737 ], [ 18.19027455, 48.10563024 ], [ 18.19027451, 48.10561598 ], [ 18.19027452, 48.10553608 ], [ 18.19027451, 48.1055081 ], [ 18.19027457, 48.10547858 ], [ 18.19027473, 48.10513301 ], [ 18.1901349, 48.10388446 ], [ 18.19006233, 48.10364218 ], [ 18.18998951, 48.10348888 ], [ 18.18987291, 48.10331372 ], [ 18.18969185, 48.10296969 ], [ 18.18970823, 48.10262994 ], [ 18.1895328, 48.102643 ], [ 18.18930001, 48.10259133 ], [ 18.18790539, 48.1020691 ], [ 18.18744068, 48.10189792 ], [ 18.18608707, 48.1014306 ], [ 18.18589559, 48.10138774 ], [ 18.18568874, 48.10152951 ], [ 18.18547896, 48.10166894 ], [ 18.1852727, 48.10180929 ], [ 18.18503784, 48.10197054 ], [ 18.18392825, 48.10140946 ], [ 18.18376651, 48.10132762 ], [ 18.18336777, 48.10112606 ], [ 18.18332254, 48.10110491 ], [ 18.18241883, 48.10159004 ], [ 18.18111306, 48.10007688 ], [ 18.18107194, 48.10002618 ], [ 18.18101314, 48.10002852 ], [ 18.18081098, 48.10003893 ], [ 18.18054405, 48.10005296 ], [ 18.18043011, 48.10005858 ], [ 18.18033367, 48.10006324 ], [ 18.17992865, 48.10008311 ], [ 18.17838128, 48.10015886 ], [ 18.17670734, 48.10024083 ], [ 18.17665419, 48.10023808 ], [ 18.17658121, 48.10023138 ], [ 18.17653179, 48.10022795 ], [ 18.17651143, 48.10022803 ], [ 18.17640808, 48.1001885 ], [ 18.17639241, 48.10018253 ], [ 18.17639023, 48.10018168 ], [ 18.17638792, 48.10018082 ], [ 18.17632963, 48.10015855 ], [ 18.17624488, 48.10020081 ], [ 18.17618789, 48.10021825 ], [ 18.17618045, 48.10022052 ], [ 18.1760572, 48.10025828 ], [ 18.17595136, 48.10029073 ], [ 18.17590363, 48.10030537 ], [ 18.17569522, 48.10034402 ], [ 18.17568347, 48.10034622 ], [ 18.17556767, 48.10034749 ], [ 18.17522317, 48.10027717 ], [ 18.17517827, 48.10026804 ], [ 18.17512603, 48.10025316 ], [ 18.17504845, 48.10020828 ], [ 18.17502241, 48.10018364 ], [ 18.17493469, 48.1001007 ], [ 18.17474936, 48.09992899 ], [ 18.17472385, 48.09993337 ], [ 18.17457257, 48.09981593 ], [ 18.17445125, 48.0997219 ], [ 18.1743794, 48.09964232 ], [ 18.17436308, 48.09961862 ], [ 18.17434008, 48.09958513 ], [ 18.17427152, 48.09948552 ], [ 18.1741621, 48.09933838 ], [ 18.17410799, 48.09923646 ], [ 18.1739957, 48.09904311 ], [ 18.17385293, 48.09888725 ], [ 18.17380466, 48.09879948 ], [ 18.17376036, 48.09871636 ], [ 18.17371235, 48.09862761 ], [ 18.17366655, 48.098525 ], [ 18.17363662, 48.0984578 ], [ 18.17364183, 48.09834327 ], [ 18.173611, 48.09828405 ], [ 18.17357379, 48.09821281 ], [ 18.17356093, 48.09814905 ], [ 18.1735482, 48.09808538 ], [ 18.17353091, 48.09799879 ], [ 18.17352177, 48.09795302 ], [ 18.17347788, 48.09784402 ], [ 18.17344529, 48.09776312 ], [ 18.17341839, 48.09769655 ], [ 18.17335823, 48.0975717 ], [ 18.17329561, 48.09744508 ], [ 18.17323598, 48.09735249 ], [ 18.17316864, 48.09723417 ], [ 18.17315634, 48.09717857 ], [ 18.17316243, 48.09711735 ], [ 18.1732098, 48.09696575 ], [ 18.17325168, 48.09683774 ], [ 18.17331946, 48.09671053 ], [ 18.17338193, 48.09656197 ], [ 18.17343468, 48.09643117 ], [ 18.17348426, 48.09630813 ], [ 18.17352189, 48.09621482 ], [ 18.17353237, 48.09611567 ], [ 18.1735894, 48.09599235 ], [ 18.17362587, 48.09586755 ], [ 18.17370258, 48.09566556 ], [ 18.17373635, 48.09551596 ], [ 18.17376535, 48.09546295 ], [ 18.17377001, 48.0954365 ], [ 18.17377843, 48.09540702 ], [ 18.17379875, 48.09535341 ], [ 18.17379955, 48.09535147 ], [ 18.17382126, 48.09529442 ], [ 18.17383725, 48.09519857 ], [ 18.17388875, 48.09506698 ], [ 18.17391604, 48.09501784 ], [ 18.17394284, 48.09495585 ], [ 18.1739869, 48.09485867 ], [ 18.17402238, 48.0947673 ], [ 18.17407188, 48.09467793 ], [ 18.17410337, 48.09462037 ], [ 18.1741406, 48.09455384 ], [ 18.17420518, 48.09446563 ], [ 18.17428729, 48.09431325 ], [ 18.17420819, 48.09425419 ], [ 18.17414845, 48.09421314 ], [ 18.17118817, 48.09348904 ], [ 18.17112196, 48.09344905 ], [ 18.17111798, 48.09344855 ], [ 18.17112318, 48.09342728 ], [ 18.1711041, 48.09342065 ], [ 18.17102235, 48.09339231 ], [ 18.17100791, 48.09338731 ], [ 18.17098294, 48.0934021 ], [ 18.17098038, 48.09340006 ], [ 18.17100365, 48.09338589 ], [ 18.17100737, 48.09338114 ], [ 18.17098299, 48.09337277 ], [ 18.17092982, 48.09334646 ], [ 18.17086741, 48.0933104 ], [ 18.17078518, 48.09326298 ], [ 18.17065808, 48.09317321 ], [ 18.17061007, 48.09313935 ], [ 18.1700398, 48.09273685 ], [ 18.16989572, 48.09272048 ], [ 18.16979705, 48.09270929 ], [ 18.16983364, 48.09263118 ], [ 18.16990919, 48.09245991 ], [ 18.16992146, 48.09243192 ], [ 18.17012036, 48.09198097 ], [ 18.17022061, 48.09200073 ], [ 18.17034214, 48.09202463 ], [ 18.17050239, 48.09168309 ], [ 18.17088961, 48.09098026 ], [ 18.17117945, 48.09107034 ], [ 18.1712427, 48.09133169 ], [ 18.1713594, 48.091554 ], [ 18.17156069, 48.09182009 ], [ 18.1716028, 48.09186922 ], [ 18.17179474, 48.09209332 ], [ 18.17154094, 48.09239482 ], [ 18.17162532, 48.09243812 ], [ 18.17194702, 48.09221742 ], [ 18.17202047, 48.0922608 ], [ 18.17207341, 48.09229198 ], [ 18.1721007, 48.09230802 ], [ 18.17212198, 48.09232054 ], [ 18.17219067, 48.09236112 ], [ 18.17222434, 48.09238097 ], [ 18.17224761, 48.0923947 ], [ 18.1722814, 48.09241464 ], [ 18.17271599, 48.09268569 ], [ 18.17318049, 48.09284817 ], [ 18.17383006, 48.09305478 ], [ 18.17382883, 48.09302284 ], [ 18.17502562, 48.09339638 ], [ 18.17557307, 48.09356253 ], [ 18.17614412, 48.09373583 ], [ 18.17616673, 48.09376089 ], [ 18.17622551, 48.09377624 ], [ 18.17661744, 48.0938887 ], [ 18.17706632, 48.09403264 ], [ 18.17729924, 48.09410674 ], [ 18.17751552, 48.09417823 ], [ 18.17776718, 48.09425233 ], [ 18.17804728, 48.0943429 ], [ 18.17872585, 48.09456824 ], [ 18.17890719, 48.09463489 ], [ 18.17929889, 48.09489312 ], [ 18.17932519, 48.09488987 ], [ 18.17933108, 48.09488913 ], [ 18.17940202, 48.09488046 ], [ 18.17940475, 48.09488017 ], [ 18.17942256, 48.09487796 ], [ 18.17944447, 48.09487526 ], [ 18.1795731, 48.09480739 ], [ 18.17967644, 48.0947775 ], [ 18.17984829, 48.0947897 ], [ 18.18006287, 48.09480187 ], [ 18.18023694, 48.09481564 ], [ 18.18048123, 48.09483451 ], [ 18.18050645, 48.09483644 ], [ 18.18064563, 48.09484077 ], [ 18.18078153, 48.09483824 ], [ 18.18103808, 48.09482712 ], [ 18.18124174, 48.09483721 ], [ 18.18127144, 48.0948886 ], [ 18.18159068, 48.09480684 ], [ 18.18253702, 48.09465617 ], [ 18.18257413, 48.09467242 ], [ 18.18273749, 48.09463176 ], [ 18.1828769, 48.09459701 ], [ 18.18310596, 48.0945434 ], [ 18.18332943, 48.09450995 ], [ 18.18334664, 48.09450508 ], [ 18.18351997, 48.094453 ], [ 18.18368753, 48.09440283 ], [ 18.18385293, 48.09435272 ], [ 18.18391414, 48.0943349 ], [ 18.18402583, 48.09430603 ], [ 18.18416745, 48.09426988 ], [ 18.18416125, 48.0942595 ], [ 18.1841918, 48.09424945 ], [ 18.18436011, 48.09419455 ], [ 18.18451916, 48.09414244 ], [ 18.18469185, 48.09408598 ], [ 18.18480992, 48.09404746 ], [ 18.18483913, 48.09404149 ], [ 18.18499107, 48.09400992 ], [ 18.18513987, 48.09397861 ], [ 18.18535174, 48.09393382 ], [ 18.18539931, 48.09392342 ], [ 18.18540325, 48.09392211 ], [ 18.1855005, 48.09389448 ], [ 18.18550389, 48.09389332 ], [ 18.18565587, 48.09384892 ], [ 18.18581316, 48.09380312 ], [ 18.18597029, 48.09375749 ], [ 18.18598345, 48.09375366 ], [ 18.18611033, 48.0937189 ], [ 18.18626495, 48.09367601 ], [ 18.18627179, 48.09367415 ], [ 18.18643351, 48.0936305 ], [ 18.18659326, 48.09358647 ], [ 18.18672918, 48.09354953 ], [ 18.18687234, 48.09350977 ], [ 18.18700144, 48.09347451 ], [ 18.18704164, 48.09346791 ], [ 18.1871974, 48.09344116 ], [ 18.18728877, 48.09342554 ], [ 18.18747691, 48.09339328 ], [ 18.18764127, 48.09336973 ], [ 18.1877866, 48.09335058 ], [ 18.18794371, 48.09332996 ], [ 18.18795742, 48.09332814 ], [ 18.18806646, 48.09331238 ], [ 18.18816011, 48.093243 ], [ 18.18871797, 48.09309489 ], [ 18.18946358, 48.09288425 ], [ 18.19023053, 48.09266283 ], [ 18.19139164, 48.09231986 ], [ 18.19222609, 48.09219698 ], [ 18.19249892, 48.09217235 ], [ 18.1926526, 48.09213138 ], [ 18.19415956, 48.09172531 ], [ 18.19491308, 48.09150949 ], [ 18.19505475, 48.09154131 ], [ 18.19512513, 48.09141433 ], [ 18.19658123, 48.09103739 ], [ 18.19697365, 48.09089595 ], [ 18.19717619, 48.09109002 ], [ 18.19740321, 48.09135095 ], [ 18.19767415, 48.0916493 ], [ 18.19815685, 48.09218087 ], [ 18.19908751, 48.093216 ], [ 18.19701737, 48.09371166 ], [ 18.19708054, 48.09377944 ], [ 18.19712598, 48.09382903 ], [ 18.19714014, 48.09384457 ], [ 18.19779977, 48.09456529 ], [ 18.19903256, 48.09591239 ], [ 18.19941333, 48.09632834 ], [ 18.19935828, 48.09636937 ], [ 18.1993539, 48.09637201 ], [ 18.19901692, 48.09657717 ], [ 18.19887779, 48.09666179 ], [ 18.19709855, 48.09774458 ], [ 18.19636459, 48.09819121 ], [ 18.19360247, 48.09987924 ], [ 18.19699317, 48.10234051 ], [ 18.19703629, 48.10206235 ], [ 18.19705889, 48.10194839 ], [ 18.1970497, 48.10175024 ], [ 18.19706962, 48.10176503 ], [ 18.19706334, 48.10171682 ], [ 18.19703293, 48.10135403 ], [ 18.19704176, 48.10125073 ], [ 18.19709833, 48.10107239 ], [ 18.19713863, 48.10097995 ], [ 18.19726575, 48.10081041 ], [ 18.19747692, 48.10065173 ], [ 18.19770189, 48.10052996 ], [ 18.19796913, 48.10043556 ], [ 18.19825449, 48.10041029 ], [ 18.19841279, 48.10039622 ], [ 18.19919459, 48.10032672 ], [ 18.20040669, 48.10023045 ], [ 18.20081059, 48.10019835 ], [ 18.20086929, 48.10019364 ], [ 18.20122194, 48.10016596 ], [ 18.2014737, 48.10014613 ], [ 18.20170463, 48.10012797 ], [ 18.20176509, 48.10012319 ], [ 18.20218787, 48.10008992 ], [ 18.20251302, 48.10006434 ], [ 18.20278387, 48.10004182 ], [ 18.20331073, 48.09999782 ], [ 18.20339753, 48.0999905 ], [ 18.20423816, 48.09992042 ], [ 18.20443225, 48.09990463 ], [ 18.20453979, 48.09989536 ], [ 18.20485656, 48.09986892 ], [ 18.20510371, 48.09984827 ], [ 18.20533029, 48.09982931 ], [ 18.20587187, 48.09978399 ], [ 18.20636792, 48.09974269 ], [ 18.20662815, 48.09972199 ], [ 18.20685542, 48.09970397 ], [ 18.20710827, 48.09968401 ], [ 18.20723382, 48.09967406 ], [ 18.20742323, 48.09965908 ], [ 18.20761537, 48.0996438 ], [ 18.20764123, 48.09964178 ], [ 18.2079378, 48.09961831 ], [ 18.20817515, 48.09959943 ], [ 18.20838468, 48.09958309 ], [ 18.20875173, 48.09955441 ], [ 18.20932778, 48.09950936 ], [ 18.20990167, 48.09946427 ], [ 18.21041432, 48.09942275 ], [ 18.21071586, 48.0993983 ], [ 18.21078411, 48.0993927 ], [ 18.21103957, 48.09934525 ], [ 18.21109675, 48.09933143 ], [ 18.21138566, 48.09922138 ], [ 18.2114649, 48.09919123 ], [ 18.21169626, 48.09904994 ], [ 18.21175808, 48.09910228 ], [ 18.21177958, 48.09911112 ], [ 18.21205906, 48.09922584 ], [ 18.21260213, 48.09944887 ], [ 18.2127987, 48.09952953 ], [ 18.21269075, 48.09967311 ], [ 18.21257107, 48.09983244 ], [ 18.21250823, 48.099916 ], [ 18.21241191, 48.10004374 ], [ 18.21246564, 48.10023138 ], [ 18.21222643, 48.10048216 ], [ 18.21227885, 48.10052701 ], [ 18.21240455, 48.10063451 ], [ 18.21245526, 48.1006779 ], [ 18.21330636, 48.10108483 ], [ 18.21395498, 48.10131732 ], [ 18.21440549, 48.10153099 ], [ 18.21464059, 48.10198662 ], [ 18.21471297, 48.10206991 ], [ 18.21485445, 48.10223258 ], [ 18.21488614, 48.10226891 ], [ 18.21492602, 48.10231482 ], [ 18.21496098, 48.10235504 ], [ 18.21499135, 48.10239003 ], [ 18.21508991, 48.10250327 ], [ 18.215013, 48.10256325 ], [ 18.21500956, 48.10256594 ], [ 18.21467872, 48.10282179 ], [ 18.21394308, 48.10342895 ], [ 18.21286545, 48.10433093 ], [ 18.21176367, 48.10524946 ], [ 18.21139021, 48.10559996 ], [ 18.21153768, 48.1059912 ], [ 18.21156118, 48.10605323 ], [ 18.21164173, 48.10626699 ], [ 18.21061439, 48.10678207 ], [ 18.21047015, 48.10681548 ], [ 18.20923118, 48.10703082 ], [ 18.20886692, 48.10714777 ], [ 18.20865858, 48.10722341 ], [ 18.20861971, 48.10724453 ], [ 18.2085606, 48.10727215 ], [ 18.20842761, 48.1073342 ], [ 18.20837927, 48.10735676 ], [ 18.20832217, 48.10738341 ], [ 18.20812009, 48.10749696 ], [ 18.20764834, 48.1078068 ], [ 18.20422553, 48.10978754 ], [ 18.20330048, 48.11033795 ], [ 18.20186632, 48.10930942 ], [ 18.20142413, 48.10900339 ], [ 18.20096058, 48.10869466 ], [ 18.20036986, 48.1082805 ], [ 18.20076567, 48.10762864 ], [ 18.20054424, 48.10743511 ], [ 18.2005206, 48.10731601 ], [ 18.20040882, 48.10710233 ], [ 18.20023547, 48.10694969 ], [ 18.20016769, 48.10678849 ], [ 18.20009298, 48.10656333 ], [ 18.19980311, 48.10650782 ], [ 18.19932735, 48.10649809 ], [ 18.19914764, 48.10638201 ], [ 18.19871696, 48.10635423 ], [ 18.19804371, 48.10624399 ], [ 18.19769877, 48.10622336 ], [ 18.19751167, 48.10621301 ], [ 18.19724478, 48.10619548 ], [ 18.19705186, 48.10618118 ], [ 18.19510549, 48.10628828 ], [ 18.19484217, 48.10628784 ], [ 18.19300457, 48.10616968 ], [ 18.1927998, 48.10616569 ], [ 18.19311667, 48.1063703 ], [ 18.19464966, 48.10677386 ], [ 18.1949494, 48.10693919 ], [ 18.19517559, 48.1072111 ], [ 18.19529716, 48.10729943 ], [ 18.19591457, 48.10723563 ], [ 18.19631092, 48.10746563 ], [ 18.19633676, 48.1075677 ], [ 18.19637452, 48.10830474 ], [ 18.1964854, 48.10885032 ], [ 18.19676881, 48.11012075 ], [ 18.19677697, 48.11048784 ], [ 18.19659961, 48.11113336 ], [ 18.19641006, 48.11142006 ], [ 18.19645389, 48.11218724 ], [ 18.19656958, 48.11222964 ], [ 18.19659041, 48.11258834 ], [ 18.19676552, 48.11271924 ], [ 18.19730954, 48.11280481 ], [ 18.19818655, 48.11269292 ], [ 18.19906029, 48.11267372 ], [ 18.19940952, 48.11274063 ], [ 18.19948471, 48.11278238 ], [ 18.19972199, 48.11291418 ], [ 18.19979927, 48.11327644 ], [ 18.19965603, 48.11340893 ], [ 18.19943195, 48.11344861 ], [ 18.19799785, 48.11340414 ], [ 18.19789658, 48.11345006 ], [ 18.19759906, 48.11358503 ], [ 18.19753562, 48.11372271 ], [ 18.19772941, 48.11388006 ], [ 18.19805073, 48.1139086 ], [ 18.19846466, 48.11397251 ], [ 18.19899222, 48.11445505 ], [ 18.19903391, 48.11445485 ], [ 18.19879762, 48.11518894 ], [ 18.19885005, 48.11536767 ], [ 18.1989518, 48.11547389 ], [ 18.1992112, 48.11554333 ], [ 18.19938232, 48.11556692 ], [ 18.20056411, 48.11511165 ], [ 18.2008705, 48.11487716 ], [ 18.2009921, 48.11476904 ], [ 18.20175132, 48.11455837 ], [ 18.20201129, 48.11455589 ], [ 18.2021174, 48.1145942 ], [ 18.2024234, 48.11483959 ], [ 18.20240091, 48.11498182 ], [ 18.2022498, 48.11511683 ], [ 18.20176658, 48.11558379 ], [ 18.20155, 48.11570389 ], [ 18.2015027, 48.1157349 ], [ 18.20145454, 48.11595021 ], [ 18.20155855, 48.11604112 ], [ 18.20171296, 48.11605633 ], [ 18.2021317, 48.11634312 ], [ 18.20225131, 48.11655699 ], [ 18.20224829, 48.11662497 ], [ 18.20205944, 48.11672557 ], [ 18.20187502, 48.11678056 ], [ 18.20139554, 48.11686217 ], [ 18.20140615, 48.11706617 ], [ 18.20215396, 48.11755889 ], [ 18.20235682, 48.11756545 ], [ 18.20265881, 48.11748128 ], [ 18.20292977, 48.11737336 ], [ 18.20318438, 48.1173146 ], [ 18.20333074, 48.11732121 ], [ 18.20351324, 48.11738392 ], [ 18.20367321, 48.11760474 ], [ 18.20372547, 48.11767684 ], [ 18.2040859, 48.11787383 ], [ 18.20486653, 48.11836013 ], [ 18.20555304, 48.11864812 ], [ 18.20578902, 48.11888798 ], [ 18.2061565, 48.11953712 ], [ 18.20631484, 48.12030616 ], [ 18.20670495, 48.12144861 ], [ 18.2068851, 48.12164496 ], [ 18.20788703, 48.12199947 ], [ 18.20796713, 48.12221988 ], [ 18.20786215, 48.12222886 ], [ 18.2073464, 48.12227273 ], [ 18.20583376, 48.12240155 ], [ 18.20498603, 48.12247368 ], [ 18.20493041, 48.12247839 ], [ 18.20439954, 48.12248291 ], [ 18.20421529, 48.12248448 ], [ 18.20401444, 48.12249762 ], [ 18.20173711, 48.12264656 ], [ 18.20182197, 48.12274592 ], [ 18.20554022, 48.12710134 ], [ 18.20560542, 48.12717771 ], [ 18.20571839, 48.12731003 ], [ 18.205753, 48.12735195 ], [ 18.20607988, 48.12774794 ], [ 18.20608734, 48.12775694 ], [ 18.20610133, 48.12777392 ], [ 18.20611834, 48.1277945 ], [ 18.20615924, 48.12784409 ], [ 18.20617159, 48.12785907 ], [ 18.20619956, 48.12789301 ], [ 18.20628475, 48.12799618 ], [ 18.20629221, 48.12800519 ], [ 18.20727034, 48.12927425 ], [ 18.20792804, 48.12997599 ], [ 18.208148, 48.13028162 ], [ 18.20917749, 48.13139656 ], [ 18.20953133, 48.13126979 ] ] ] ] } },
{ "type": "Feature", "properties": { "@featureType": "CadastralZoning", "beginLifespanVersion": { "@nilReason": "http://inspire.ec.europa.eu/codelist/VoidReasonValue/Unpopulated", "@nil": "true" }, "endLifespanVersion": { "@nilReason": "http://inspire.ec.europa.eu/codelist/VoidReasonValue/Unpopulated", "@nil": "true" }, "estimatedAccuracy": { "value": -1, "@uom": "m" }, "inspireId": { "@dataType": "Identifier", "localId": "840734", "namespace": "SK.ESKN.CP", "versionId": "20260703T04:07:40" }, "label": "Nitriansky Hrádok", "level": { "@href": "http://inspire.ec.europa.eu/codelist/CadastralZoningLevelValue/3rdOrder" }, "levelName": { "value": "Katastrálne územie", "@locale": "sk" }, "name": { "@dataType": "name", "GeographicalName": { "@dataType": "GeographicalName", "language": "SLK", "nativeness": { "@href": "http://inspire.ec.europa.eu/codelist/NativenessValue/endonym", "@title": "endonym" }, "nameStatus": { "@href": "http://inspire.ec.europa.eu/codelist/NameStatusValue/official", "@title": "official" }, "sourceOfName": { "@nilReason": "http://inspire.ec.europa.eu/codelist/VoidReasonValue/Unpopulated", "@nil": "true" }, "pronunciation": { "@dataType": "pronunciation", "@nilReason": "http://inspire.ec.europa.eu/codelist/VoidReasonValue/Unpopulated", "@nil": "true" }, "spelling": { "@dataType": "SpellingOfName", "text": "Nitriansky Hrádok", "script": "LATN" } } }, "nationalCadastalZoningReference": "840734", "validFrom": "2026-06-30T16:00:00Z", "validTo": { "@nilReason": "http://inspire.ec.europa.eu/codelist/VoidReasonValue/Unpopulated", "@nil": "true" } }, "geometry": { "type": "MultiPolygon", "coordinates": [ [ [ [ 18.21863867, 48.08837092 ], [ 18.2186496, 48.08835729 ], [ 18.21872442, 48.08823714 ], [ 18.21883284, 48.0880229 ], [ 18.21911931, 48.08774768 ], [ 18.21951858, 48.08754725 ], [ 18.21985264, 48.08744685 ], [ 18.219976, 48.08740978 ], [ 18.22100315, 48.08731548 ], [ 18.2212192, 48.08730347 ], [ 18.221611, 48.08728161 ], [ 18.22200281, 48.08725975 ], [ 18.22233069, 48.0872415 ], [ 18.22368184, 48.0871453 ], [ 18.22634491, 48.08697903 ], [ 18.2276861, 48.0868972 ], [ 18.22903898, 48.08684275 ], [ 18.22966379, 48.08679321 ], [ 18.22970352, 48.08675056 ], [ 18.22928914, 48.08612614 ], [ 18.22923883, 48.08605037 ], [ 18.22856404, 48.08503352 ], [ 18.2280454, 48.08435592 ], [ 18.22862016, 48.08407402 ], [ 18.22950254, 48.0838001 ], [ 18.23011532, 48.08365254 ], [ 18.23053233, 48.08331193 ], [ 18.23104964, 48.08296872 ], [ 18.23161164, 48.08277715 ], [ 18.23203579, 48.08260349 ], [ 18.23214621, 48.08253704 ], [ 18.23226179, 48.08242855 ], [ 18.23230788, 48.0822885 ], [ 18.23210773, 48.0815355 ], [ 18.23208483, 48.0809613 ], [ 18.23213954, 48.08068869 ], [ 18.23215364, 48.0804938 ], [ 18.23212288, 48.08035011 ], [ 18.23204401, 48.08013756 ], [ 18.23202196, 48.08003599 ], [ 18.23188696, 48.07966238 ], [ 18.23197097, 48.07892052 ], [ 18.23198957, 48.07856656 ], [ 18.23199993, 48.07775237 ], [ 18.23203903, 48.077252 ], [ 18.23190641, 48.07559162 ], [ 18.23205008, 48.07437586 ], [ 18.23232042, 48.0734759 ], [ 18.23316666, 48.07273082 ], [ 18.23346234, 48.07238813 ], [ 18.23366346, 48.07215505 ], [ 18.23325315, 48.07125736 ], [ 18.2332129, 48.07112143 ], [ 18.23331076, 48.07076168 ], [ 18.23339691, 48.07065663 ], [ 18.23367605, 48.07033031 ], [ 18.23432544, 48.06965001 ], [ 18.23447275, 48.06945706 ], [ 18.23454697, 48.06935989 ], [ 18.23498634, 48.06878414 ], [ 18.23534389, 48.06812114 ], [ 18.23481977, 48.06713164 ], [ 18.23403851, 48.06706679 ], [ 18.23349976, 48.06703882 ], [ 18.23294967, 48.06702987 ], [ 18.23264472, 48.06702492 ], [ 18.23263746, 48.06702486 ], [ 18.23224302, 48.06702349 ], [ 18.23203647, 48.06697721 ], [ 18.23125618, 48.06680253 ], [ 18.23099371, 48.06691514 ], [ 18.23075292, 48.06701835 ], [ 18.23071016, 48.06703664 ], [ 18.23070217, 48.06704006 ], [ 18.23068976, 48.06704547 ], [ 18.23066037, 48.06705821 ], [ 18.23063226, 48.0670704 ], [ 18.23062243, 48.06707461 ], [ 18.22996367, 48.06734731 ], [ 18.22980388, 48.06741352 ], [ 18.22978108, 48.06738042 ], [ 18.22978029, 48.0673792 ], [ 18.22886753, 48.06604585 ], [ 18.22805421, 48.06530097 ], [ 18.22723707, 48.0647235 ], [ 18.22710821, 48.06465762 ], [ 18.22653301, 48.06436354 ], [ 18.22579529, 48.06403693 ], [ 18.22436467, 48.06346021 ], [ 18.22431396, 48.06344725 ], [ 18.22360177, 48.06408882 ], [ 18.22254992, 48.06531199 ], [ 18.22250984, 48.06530433 ], [ 18.22144129, 48.06510021 ], [ 18.21969818, 48.06371116 ], [ 18.21931229, 48.06345106 ], [ 18.21887723, 48.06320155 ], [ 18.21842323, 48.06292567 ], [ 18.21800112, 48.06265416 ], [ 18.2172037, 48.06216902 ], [ 18.21680504, 48.06194229 ], [ 18.21658288, 48.06179406 ], [ 18.21626835, 48.06152076 ], [ 18.21549069, 48.06094765 ], [ 18.21537525, 48.06082404 ], [ 18.21492671, 48.06044058 ], [ 18.21478482, 48.0603017 ], [ 18.21447153, 48.06004608 ], [ 18.21365738, 48.05944203 ], [ 18.213426, 48.05925074 ], [ 18.21287905, 48.05880486 ], [ 18.21260521, 48.05853897 ], [ 18.21237057, 48.05859357 ], [ 18.21233114, 48.05860274 ], [ 18.21230198, 48.05860953 ], [ 18.21221327, 48.0586301 ], [ 18.21220993, 48.0586309 ], [ 18.21211538, 48.05865294 ], [ 18.21211053, 48.05865401 ], [ 18.21206568, 48.05866449 ], [ 18.21205652, 48.05866658 ], [ 18.21193254, 48.05869539 ], [ 18.21192754, 48.05869654 ], [ 18.21164002, 48.05876332 ], [ 18.21134278, 48.05883234 ], [ 18.21106915, 48.0589104 ], [ 18.21078154, 48.05899343 ], [ 18.21076755, 48.05899749 ], [ 18.21064194, 48.05903369 ], [ 18.21063452, 48.05903588 ], [ 18.21059689, 48.05904669 ], [ 18.210578, 48.05905218 ], [ 18.21043826, 48.05909253 ], [ 18.21035138, 48.05911763 ], [ 18.20896721, 48.05952324 ], [ 18.20886649, 48.05955231 ], [ 18.2083925, 48.0592494 ], [ 18.20820312, 48.05914468 ], [ 18.20782209, 48.05897563 ], [ 18.20729828, 48.05882464 ], [ 18.20714411, 48.05876213 ], [ 18.20699338, 48.05867717 ], [ 18.20687253, 48.0585684 ], [ 18.20683124, 48.05843077 ], [ 18.20691485, 48.05828731 ], [ 18.20722961, 48.05808716 ], [ 18.20740882, 48.0579574 ], [ 18.20745192, 48.05786683 ], [ 18.20740756, 48.05768939 ], [ 18.20729386, 48.0575275 ], [ 18.20716942, 48.0574559 ], [ 18.20702118, 48.0574089 ], [ 18.20683449, 48.05736148 ], [ 18.20665291, 48.05734116 ], [ 18.20650455, 48.05733262 ], [ 18.20629604, 48.05735596 ], [ 18.20609799, 48.05737964 ], [ 18.20591954, 48.05740789 ], [ 18.2057577, 48.05744938 ], [ 18.20560878, 48.05752413 ], [ 18.20524705, 48.05784359 ], [ 18.20514783, 48.05789857 ], [ 18.20497612, 48.05792676 ], [ 18.20477145, 48.05793497 ], [ 18.20435239, 48.05793811 ], [ 18.2038934, 48.05800518 ], [ 18.20368506, 48.0580864 ], [ 18.20348593, 48.058267 ], [ 18.20331683, 48.05839256 ], [ 18.20316455, 48.05848489 ], [ 18.20306538, 48.0585155 ], [ 18.20293987, 48.05852173 ], [ 18.20279813, 48.05850364 ], [ 18.20269284, 48.05847232 ], [ 18.20250563, 48.05833431 ], [ 18.20237461, 48.0581836 ], [ 18.2022476, 48.05818378 ], [ 18.20223468, 48.05818375 ], [ 18.20220962, 48.05818383 ], [ 18.2015986, 48.05818327 ], [ 18.20106864, 48.05818282 ], [ 18.19832037, 48.05808283 ], [ 18.19497282, 48.05790432 ], [ 18.19456649, 48.05789851 ], [ 18.19448798, 48.05808333 ], [ 18.19308085, 48.06139437 ], [ 18.19306062, 48.0614413 ], [ 18.19302328, 48.06152769 ], [ 18.19199386, 48.06391213 ], [ 18.19169814, 48.064604 ], [ 18.19254636, 48.06472117 ], [ 18.19493056, 48.06508163 ], [ 18.19624261, 48.06527998 ], [ 18.19712207, 48.06541293 ], [ 18.19863122, 48.06564106 ], [ 18.19870413, 48.06565208 ], [ 18.19923118, 48.06573172 ], [ 18.19963994, 48.06578054 ], [ 18.19982618, 48.06578904 ], [ 18.20012017, 48.06577881 ], [ 18.20022286, 48.06577522 ], [ 18.20026212, 48.06579647 ], [ 18.20036785, 48.06585363 ], [ 18.20052781, 48.06594013 ], [ 18.20034043, 48.0659758 ], [ 18.20015304, 48.06601147 ], [ 18.19996564, 48.06604722 ], [ 18.19998379, 48.06609946 ], [ 18.20006419, 48.06621582 ], [ 18.20012475, 48.06630348 ], [ 18.19929799, 48.06646819 ], [ 18.19920687, 48.06648328 ], [ 18.19874609, 48.06655935 ], [ 18.19859277, 48.06658463 ], [ 18.19794453, 48.06669167 ], [ 18.19752291, 48.06676902 ], [ 18.19718856, 48.06685778 ], [ 18.19680442, 48.06698769 ], [ 18.196744, 48.06701946 ], [ 18.19645015, 48.06717395 ], [ 18.19616401, 48.06735308 ], [ 18.19589247, 48.06757016 ], [ 18.19584901, 48.06762902 ], [ 18.1958134, 48.06767714 ], [ 18.19576945, 48.06773668 ], [ 18.19559824, 48.06796837 ], [ 18.19557457, 48.0680003 ], [ 18.19555071, 48.06803258 ], [ 18.1955302, 48.0680796 ], [ 18.19549971, 48.06814959 ], [ 18.19547225, 48.0682128 ], [ 18.19545119, 48.06826087 ], [ 18.19543947, 48.0682879 ], [ 18.195434, 48.06831557 ], [ 18.19542239, 48.06837492 ], [ 18.19540985, 48.06843729 ], [ 18.19538834, 48.06854915 ], [ 18.19537813, 48.06862267 ], [ 18.19536552, 48.06871465 ], [ 18.19535768, 48.06877089 ], [ 18.19535295, 48.06880528 ], [ 18.19536069, 48.06886712 ], [ 18.19537059, 48.06894551 ], [ 18.19537445, 48.06897598 ], [ 18.19538149, 48.06903173 ], [ 18.19538702, 48.06907529 ], [ 18.19541009, 48.06914768 ], [ 18.19541954, 48.06917757 ], [ 18.19542672, 48.06920011 ], [ 18.19544021, 48.06924251 ], [ 18.19545265, 48.0692816 ], [ 18.19546212, 48.06931141 ], [ 18.19546643, 48.06932493 ], [ 18.19549616, 48.06938435 ], [ 18.1955095, 48.0694113 ], [ 18.19551445, 48.06942089 ], [ 18.19552313, 48.0694381 ], [ 18.19553313, 48.06945863 ], [ 18.19554152, 48.06947492 ], [ 18.19559042, 48.06957247 ], [ 18.19579765, 48.0699498 ], [ 18.19585496, 48.07005416 ], [ 18.19595278, 48.07023246 ], [ 18.19597176, 48.07026688 ], [ 18.19599698, 48.07030915 ], [ 18.19600318, 48.07031954 ], [ 18.19669569, 48.07043852 ], [ 18.19680308, 48.07045697 ], [ 18.19696284, 48.07047973 ], [ 18.19706766, 48.07049405 ], [ 18.19720116, 48.07051257 ], [ 18.1972937, 48.07052808 ], [ 18.19744049, 48.07054494 ], [ 18.19754171, 48.07056103 ], [ 18.1976133, 48.07056882 ], [ 18.19768053, 48.07058014 ], [ 18.19773546, 48.07059381 ], [ 18.19778174, 48.07060156 ], [ 18.19780102, 48.07061388 ], [ 18.19783236, 48.07062455 ], [ 18.19784969, 48.0706363 ], [ 18.19787328, 48.07064454 ], [ 18.19791775, 48.07066925 ], [ 18.19797687, 48.0707005 ], [ 18.19801521, 48.07072169 ], [ 18.19804226, 48.07074466 ], [ 18.19809431, 48.07078579 ], [ 18.19815342, 48.07084096 ], [ 18.19818121, 48.07086452 ], [ 18.19819946, 48.07089212 ], [ 18.19822371, 48.07093668 ], [ 18.19824781, 48.07097835 ], [ 18.19826923, 48.07105101 ], [ 18.19827942, 48.07109087 ], [ 18.19828888, 48.07112491 ], [ 18.19828356, 48.07114302 ], [ 18.19827101, 48.0711775 ], [ 18.19824885, 48.07123723 ], [ 18.19822755, 48.07128519 ], [ 18.1981995, 48.07129683 ], [ 18.19815828, 48.07131248 ], [ 18.19811542, 48.07132822 ], [ 18.19807596, 48.07134271 ], [ 18.19804274, 48.07134854 ], [ 18.19798679, 48.07136243 ], [ 18.19796494, 48.07136062 ], [ 18.19788363, 48.07134983 ], [ 18.19783569, 48.07134144 ], [ 18.19780257, 48.07132678 ], [ 18.19775637, 48.07131019 ], [ 18.1976954, 48.07128073 ], [ 18.19762656, 48.07124656 ], [ 18.19751149, 48.07118768 ], [ 18.19741571, 48.07113994 ], [ 18.19735728, 48.07111171 ], [ 18.19728668, 48.07108277 ], [ 18.19719865, 48.07104388 ], [ 18.19713496, 48.07103024 ], [ 18.19707039, 48.07102124 ], [ 18.19698732, 48.07101577 ], [ 18.1969201, 48.07101375 ], [ 18.19682306, 48.07102461 ], [ 18.19671982, 48.07104071 ], [ 18.19669619, 48.07104421 ], [ 18.19664802, 48.07106569 ], [ 18.19662167, 48.07108501 ], [ 18.19659606, 48.07111421 ], [ 18.19655386, 48.07115914 ], [ 18.19653796, 48.07118313 ], [ 18.19653259, 48.07120891 ], [ 18.19653127, 48.07121289 ], [ 18.19657243, 48.07128598 ], [ 18.19664403, 48.0714131 ], [ 18.19671061, 48.07153118 ], [ 18.19672966, 48.07156497 ], [ 18.19677006, 48.07163675 ], [ 18.19680651, 48.07170152 ], [ 18.19681057, 48.07170862 ], [ 18.1968356, 48.0717535 ], [ 18.19690836, 48.07188413 ], [ 18.19692181, 48.0719082 ], [ 18.19692588, 48.07191521 ], [ 18.19694403, 48.0719466 ], [ 18.19695755, 48.07197014 ], [ 18.19697514, 48.07200068 ], [ 18.19736917, 48.07199205 ], [ 18.197593, 48.07198514 ], [ 18.1976629, 48.07198415 ], [ 18.19773368, 48.07198259 ], [ 18.19776253, 48.07198969 ], [ 18.19781755, 48.0719975 ], [ 18.19784454, 48.07200746 ], [ 18.19788824, 48.07201642 ], [ 18.19791961, 48.07203522 ], [ 18.19794305, 48.07205283 ], [ 18.19798297, 48.07209398 ], [ 18.1979837, 48.07211334 ], [ 18.19798096, 48.07214378 ], [ 18.19797744, 48.07215017 ], [ 18.19795269, 48.07218412 ], [ 18.19790082, 48.07223724 ], [ 18.19787275, 48.07225421 ], [ 18.19782099, 48.07227629 ], [ 18.19775718, 48.07229369 ], [ 18.1976626, 48.07231978 ], [ 18.19755583, 48.07234642 ], [ 18.19745948, 48.07237069 ], [ 18.19738595, 48.07238924 ], [ 18.19731157, 48.07240603 ], [ 18.19723458, 48.07242222 ], [ 18.19721991, 48.07242525 ], [ 18.19724735, 48.07247541 ], [ 18.19727817, 48.07253164 ], [ 18.19739536, 48.07280993 ], [ 18.19750279, 48.07313342 ], [ 18.19750997, 48.07315487 ], [ 18.19751734, 48.07317182 ], [ 18.19757862, 48.07316356 ], [ 18.1977316, 48.07314521 ], [ 18.19776046, 48.07314184 ], [ 18.19783643, 48.07314906 ], [ 18.19790197, 48.07315685 ], [ 18.19798325, 48.07316475 ], [ 18.19815964, 48.07318396 ], [ 18.19826701, 48.07319419 ], [ 18.19828634, 48.07319893 ], [ 18.19834127, 48.0732126 ], [ 18.19840751, 48.07323153 ], [ 18.1985062, 48.07325579 ], [ 18.1985523, 48.07327527 ], [ 18.19858453, 48.07329059 ], [ 18.19859502, 48.0732959 ], [ 18.19861067, 48.07332173 ], [ 18.19862003, 48.07334926 ], [ 18.19862249, 48.07337911 ], [ 18.19860821, 48.07342892 ], [ 18.1985993, 48.07344465 ], [ 18.19857571, 48.07345519 ], [ 18.1985459, 48.07346799 ], [ 18.19846469, 48.07345956 ], [ 18.19833888, 48.07344808 ], [ 18.19828741, 48.07344201 ], [ 18.19825593, 48.07343548 ], [ 18.19817573, 48.07341303 ], [ 18.19809803, 48.07338584 ], [ 18.19793747, 48.07335256 ], [ 18.19786332, 48.07333127 ], [ 18.19781433, 48.07333817 ], [ 18.19775216, 48.07334502 ], [ 18.19772596, 48.07334963 ], [ 18.19769263, 48.07336773 ], [ 18.19765844, 48.07338108 ], [ 18.19764006, 48.07338985 ], [ 18.1976268, 48.07340795 ], [ 18.19761967, 48.07343073 ], [ 18.19761508, 48.07347235 ], [ 18.19762537, 48.07351042 ], [ 18.19764083, 48.07355212 ], [ 18.1976624, 48.07359256 ], [ 18.19768661, 48.07363125 ], [ 18.19772642, 48.07369406 ], [ 18.19776442, 48.07376036 ], [ 18.19777006, 48.0738488 ], [ 18.19777552, 48.07393551 ], [ 18.19777337, 48.07400815 ], [ 18.19774854, 48.07411548 ], [ 18.19775924, 48.07414825 ], [ 18.19781469, 48.07415689 ], [ 18.19783872, 48.07416064 ], [ 18.19787856, 48.07416089 ], [ 18.19793777, 48.07416136 ], [ 18.19805972, 48.07415483 ], [ 18.19813309, 48.07415098 ], [ 18.19820769, 48.07414702 ], [ 18.19823916, 48.07414533 ], [ 18.1982736, 48.07414571 ], [ 18.19833603, 48.07414628 ], [ 18.20061087, 48.07416828 ], [ 18.2016964, 48.07419466 ], [ 18.20179965, 48.07419101 ], [ 18.20184998, 48.07418925 ], [ 18.20237034, 48.07408639 ], [ 18.20253361, 48.07408632 ], [ 18.20260934, 48.07408821 ], [ 18.20281229, 48.0741457 ], [ 18.20300991, 48.07418618 ], [ 18.20312466, 48.07417273 ], [ 18.20320865, 48.07414729 ], [ 18.20343447, 48.07400444 ], [ 18.20355757, 48.07395464 ], [ 18.20375584, 48.07394957 ], [ 18.20419488, 48.07406874 ], [ 18.20452017, 48.0741375 ], [ 18.20472849, 48.07411307 ], [ 18.20497204, 48.07406928 ], [ 18.20513538, 48.07405622 ], [ 18.20541929, 48.0739255 ], [ 18.20567531, 48.07394564 ], [ 18.20588895, 48.073955 ], [ 18.20620439, 48.07391052 ], [ 18.2063867, 48.0739288 ], [ 18.20671939, 48.07403401 ], [ 18.20689694, 48.07409011 ], [ 18.20702677, 48.07410796 ], [ 18.2071491, 48.07410884 ], [ 18.2073544, 48.07403485 ], [ 18.20749629, 48.07398875 ], [ 18.2076826, 48.07392828 ], [ 18.207803, 48.07386496 ], [ 18.20796769, 48.07385495 ], [ 18.20806054, 48.07387335 ], [ 18.20828714, 48.07388563 ], [ 18.20838014, 48.07390701 ], [ 18.20874942, 48.07399187 ], [ 18.20886744, 48.07401038 ], [ 18.20901853, 48.07401077 ], [ 18.20920143, 48.07386839 ], [ 18.20920107, 48.07385663 ], [ 18.20919639, 48.07371905 ], [ 18.2092105, 48.07362048 ], [ 18.20915381, 48.07337372 ], [ 18.20920264, 48.07328682 ], [ 18.20937533, 48.0732483 ], [ 18.20953985, 48.07325001 ], [ 18.20966182, 48.07327236 ], [ 18.20987421, 48.0734027 ], [ 18.20995617, 48.0736457 ], [ 18.2100081, 48.07371589 ], [ 18.21011611, 48.0737785 ], [ 18.21019267, 48.07380516 ], [ 18.21023223, 48.07381901 ], [ 18.21038696, 48.07384011 ], [ 18.21052665, 48.07380156 ], [ 18.21057754, 48.0737768 ], [ 18.21080825, 48.07366465 ], [ 18.21086773, 48.0734705 ], [ 18.21093866, 48.07323891 ], [ 18.21096294, 48.07315953 ], [ 18.2110304, 48.07293912 ], [ 18.21114771, 48.07255623 ], [ 18.21164676, 48.07245534 ], [ 18.21183346, 48.07246566 ], [ 18.21195944, 48.07247262 ], [ 18.21200143, 48.07247497 ], [ 18.21213196, 48.0724822 ], [ 18.21219482, 48.07248567 ], [ 18.21227006, 48.07284726 ], [ 18.21248013, 48.07389482 ], [ 18.21259009, 48.07431611 ], [ 18.21277874, 48.07503897 ], [ 18.21292253, 48.07565578 ], [ 18.21302138, 48.07607967 ], [ 18.21352182, 48.07828661 ], [ 18.21380195, 48.07886285 ], [ 18.21382239, 48.07889338 ], [ 18.21386323, 48.07895461 ], [ 18.21390724, 48.07902054 ], [ 18.21410181, 48.0793117 ], [ 18.21419335, 48.07944863 ], [ 18.21426128, 48.07955035 ], [ 18.21443248, 48.07980665 ], [ 18.21455136, 48.07997073 ], [ 18.21465208, 48.08010955 ], [ 18.21504326, 48.08064927 ], [ 18.21524407, 48.08093601 ], [ 18.21529888, 48.0810143 ], [ 18.21605046, 48.08208708 ], [ 18.2162876, 48.08240769 ], [ 18.21634321, 48.08248287 ], [ 18.21639515, 48.08255314 ], [ 18.21649228, 48.08268444 ], [ 18.21689687, 48.08344773 ], [ 18.21722757, 48.08415121 ], [ 18.21749008, 48.08498722 ], [ 18.21754343, 48.08515705 ], [ 18.21756957, 48.08524036 ], [ 18.21761956, 48.0853997 ], [ 18.21769581, 48.08564245 ], [ 18.21773321, 48.08576162 ], [ 18.21777997, 48.08591058 ], [ 18.21784698, 48.08612372 ], [ 18.21790367, 48.08630422 ], [ 18.21796615, 48.08648993 ], [ 18.21810176, 48.08696334 ], [ 18.21811924, 48.08701256 ], [ 18.21832167, 48.08758302 ], [ 18.21857504, 48.08845036 ], [ 18.21863867, 48.08837092 ] ] ] ] } }
]
}
