{
"type": "FeatureCollection",
"name": "gis",
"crs": { "type": "name", "properties": { "name": "urn:ogc:def:crs:OGC:1.3:CRS84" } },
"features": [
{ "type": "Feature", "properties": { "place_id": 189643122, "osm_type": "relation", "osm_id": 18402719, "place_rank": 18, "category": "natural", "type": "mountain_range", "importance": 0.16005402838178071, "addresstype": "mountain_range", "name": "Kráľova hoľa", "display_name": "Kráľova hoľa, okres Poprad, Prešovský kraj, Slovensko" }, "geometry": { "type": "Polygon", "coordinates": [ [ [ 20.0223906, 48.8661903 ], [ 20.023214, 48.8657113 ], [ 20.0263314, 48.8646218 ], [ 20.0273437, 48.8638325 ], [ 20.0293234, 48.8600057 ], [ 20.0316239, 48.8584663 ], [ 20.0324556, 48.8576479 ], [ 20.0339578, 48.856573 ], [ 20.0352858, 48.8550644 ], [ 20.0356348, 48.8536574 ], [ 20.0381158, 48.8524808 ], [ 20.0396445, 48.8522597 ], [ 20.0426548, 48.8523129 ], [ 20.0445387, 48.8528882 ], [ 20.0457053, 48.8530785 ], [ 20.046597, 48.8527599 ], [ 20.0478642, 48.8518883 ], [ 20.0515315, 48.8518263 ], [ 20.0586114, 48.8521179 ], [ 20.0603545, 48.8519053 ], [ 20.0614337, 48.8507416 ], [ 20.0626404, 48.850507 ], [ 20.0654494, 48.8504092 ], [ 20.0671657, 48.8504797 ], [ 20.0682918, 48.8499575 ], [ 20.0784824, 48.8503756 ], [ 20.0800375, 48.8498707 ], [ 20.0809282, 48.8484148 ], [ 20.0836165, 48.8484539 ], [ 20.0859299, 48.849046 ], [ 20.0874316, 48.8491075 ], [ 20.0886581, 48.8486602 ], [ 20.0912648, 48.8472744 ], [ 20.0924978, 48.8467562 ], [ 20.094569, 48.8464855 ], [ 20.0960774, 48.8464761 ], [ 20.097599, 48.846325 ], [ 20.0987048, 48.8460148 ], [ 20.0997762, 48.8449215 ], [ 20.1003113, 48.8438063 ], [ 20.1038297, 48.8430259 ], [ 20.1043859, 48.8428354 ], [ 20.1087834, 48.8430146 ], [ 20.1102586, 48.8433589 ], [ 20.1119416, 48.8437827 ], [ 20.1138723, 48.8438613 ], [ 20.1163723, 48.8436076 ], [ 20.1209169, 48.8433659 ], [ 20.1232617, 48.8424663 ], [ 20.1287318, 48.8426882 ], [ 20.1306757, 48.8426249 ], [ 20.132659, 48.8421368 ], [ 20.1344955, 48.8420691 ], [ 20.1377001, 48.8423409 ], [ 20.1416905, 48.8434262 ], [ 20.1448296, 48.8444058 ], [ 20.147717, 48.8469386 ], [ 20.1501341, 48.8487417 ], [ 20.1508545, 48.850263 ], [ 20.152593, 48.851257 ], [ 20.1543029, 48.851397 ], [ 20.1596668, 48.8516132 ], [ 20.1619616, 48.8524162 ], [ 20.1635119, 48.8531181 ], [ 20.1657649, 48.8532088 ], [ 20.1677091, 48.8531449 ], [ 20.1697475, 48.8532268 ], [ 20.1737301, 48.8532447 ], [ 20.1784506, 48.8534341 ], [ 20.1800955, 48.8542817 ], [ 20.1816201, 48.8552666 ], [ 20.1835252, 48.8556272 ], [ 20.1860481, 48.8562968 ], [ 20.1876541, 48.8575691 ], [ 20.1896277, 48.8583586 ], [ 20.1912274, 48.8597017 ], [ 20.1924207, 48.8619523 ], [ 20.1934548, 48.8647649 ], [ 20.1932662, 48.8668181 ], [ 20.1932305, 48.86838 ], [ 20.1930875, 48.8722825 ], [ 20.1935201, 48.8734367 ], [ 20.1949545, 48.8754126 ], [ 20.1968639, 48.8769101 ], [ 20.1963894, 48.8820784 ], [ 20.1956348, 48.8832562 ], [ 20.1944053, 48.8849125 ], [ 20.1936766, 48.8858072 ], [ 20.1929219, 48.886985 ], [ 20.1921736, 48.8880921 ], [ 20.1923591, 48.8895917 ], [ 20.1932213, 48.8907631 ], [ 20.1941974, 48.891868 ], [ 20.196026, 48.8930779 ], [ 20.1971581, 48.8939859 ], [ 20.1958509, 48.8943439 ], [ 20.1932088, 48.8949489 ], [ 20.1906935, 48.8953457 ], [ 20.187254, 48.8964161 ], [ 20.1860076, 48.8970768 ], [ 20.1840743, 48.8993444 ], [ 20.1824469, 48.9006293 ], [ 20.1804095, 48.9016846 ], [ 20.1779685, 48.9024394 ], [ 20.1750979, 48.903177 ], [ 20.1727838, 48.9037236 ], [ 20.1712345, 48.9041588 ], [ 20.1681096, 48.9053124 ], [ 20.1655543, 48.9061334 ], [ 20.1630933, 48.9071004 ], [ 20.159304, 48.9084401 ], [ 20.1564023, 48.9106683 ], [ 20.1551158, 48.9117534 ], [ 20.1539366, 48.9128429 ], [ 20.1535181, 48.9150289 ], [ 20.1535073, 48.9163076 ], [ 20.1546101, 48.9172048 ], [ 20.1551233, 48.9186467 ], [ 20.1553339, 48.9198632 ], [ 20.1554306, 48.9211462 ], [ 20.1546875, 48.9221822 ], [ 20.1538369, 48.9232138 ], [ 20.15271, 48.9237369 ], [ 20.1508179, 48.9243712 ], [ 20.1484017, 48.9248423 ], [ 20.1443279, 48.9257437 ], [ 20.1403679, 48.9265786 ], [ 20.1380259, 48.9274078 ], [ 20.1343287, 48.9288926 ], [ 20.1314229, 48.9299831 ], [ 20.1289534, 48.9310201 ], [ 20.1267335, 48.9328488 ], [ 20.1243927, 48.9348147 ], [ 20.1218567, 48.9365595 ], [ 20.1207109, 48.9384317 ], [ 20.1200705, 48.9398466 ], [ 20.1187127, 48.9397915 ], [ 20.1176159, 48.9400677 ], [ 20.1162654, 48.9409749 ], [ 20.1152537, 48.9413827 ], [ 20.1133019, 48.9414317 ], [ 20.1115561, 48.9413607 ], [ 20.1102712, 48.941565 ], [ 20.1104054, 48.9422118 ], [ 20.1104365, 48.9429186 ], [ 20.1095588, 48.9439732 ], [ 20.108323, 48.9446925 ], [ 20.1066872, 48.9455239 ], [ 20.1048992, 48.9459 ], [ 20.1036682, 48.9455293 ], [ 20.1017332, 48.9443602 ], [ 20.1004593, 48.9434104 ], [ 20.0991434, 48.9429078 ], [ 20.0975975, 48.9427806 ], [ 20.0954319, 48.9409607 ], [ 20.0922356, 48.9387137 ], [ 20.0889479, 48.9353727 ], [ 20.0873098, 48.9331251 ], [ 20.0856779, 48.9308137 ], [ 20.083895, 48.9290732 ], [ 20.0819364, 48.9271331 ], [ 20.078906, 48.9262394 ], [ 20.0759364, 48.925733 ], [ 20.0718457, 48.9247315 ], [ 20.0692638, 48.9232146 ], [ 20.0655123, 48.9206875 ], [ 20.0641274, 48.9187933 ], [ 20.0635302, 48.9179764 ], [ 20.0614578, 48.9162237 ], [ 20.0587371, 48.9141235 ], [ 20.05781, 48.9126102 ], [ 20.0572038, 48.9097632 ], [ 20.0574156, 48.9075271 ], [ 20.0578818, 48.9056862 ], [ 20.0578875, 48.9035699 ], [ 20.0569121, 48.9015415 ], [ 20.0557915, 48.9000202 ], [ 20.0542348, 48.898994 ], [ 20.0509462, 48.8977681 ], [ 20.0447083, 48.8958433 ], [ 20.0419289, 48.8943816 ], [ 20.0382535, 48.8921132 ], [ 20.0350689, 48.8898008 ], [ 20.0334051, 48.8858194 ], [ 20.0330179, 48.8847771 ], [ 20.0325772, 48.8812312 ], [ 20.0327535, 48.8793785 ], [ 20.033166, 48.8770865 ], [ 20.0332997, 48.8756809 ], [ 20.0332879, 48.8747825 ], [ 20.0318051, 48.8740156 ], [ 20.0299409, 48.8731687 ], [ 20.0262007, 48.8716026 ], [ 20.0231863, 48.8701466 ], [ 20.0243016, 48.8696047 ], [ 20.0245439, 48.8691016 ], [ 20.0238361, 48.8683668 ], [ 20.0226806, 48.8672285 ], [ 20.0223906, 48.8661903 ] ] ] } }
]
}
