{
"type": "FeatureCollection",
"name": "gis",
"crs": { "type": "name", "properties": { "name": "urn:ogc:def:crs:OGC:1.3:CRS84" } },
"features": [
{ "type": "Feature", "properties": { "@featureType": "CadastralParcel", "areaValue": { "value": 769, "@uom": "m2" }, "beginLifespanVersion": { "@nilReason": "http://inspire.ec.europa.eu/codelist/VoidReasonValue/Unpopulated", "@nil": "true" }, "endLifespanVersion": { "@nilReason": "http://inspire.ec.europa.eu/codelist/VoidReasonValue/Unpopulated", "@nil": "true" }, "inspireId": { "@dataType": "Identifier", "localId": "845337_3145/1.C", "namespace": "SK.ESKN.CP", "versionId": "20260703T07:07:27" }, "label": "3145/1", "nationalCadastralReference": "845337_3145/1.C", "referencePoint": { "type": "Point", "coordinates": [ 18.41358955, 49.23534683 ] }, "validFrom": "2026-06-30T16:00:00Z", "validTo": { "@nilReason": "http://inspire.ec.europa.eu/codelist/VoidReasonValue/Unpopulated", "@nil": "true" }, "administrativeUnit": { "@href": "#auAdmUnitS.2398" } }, "geometry": { "type": "Polygon", "coordinates": [ [ [ 18.41347533, 49.23559506 ], [ 18.41345217, 49.23560696 ], [ 18.41341113, 49.23564106 ], [ 18.41337064, 49.23566446 ], [ 18.41332766, 49.23567184 ], [ 18.41296669, 49.23571089 ], [ 18.41282753, 49.23571604 ], [ 18.41282825, 49.23572005 ], [ 18.41289944, 49.23577523 ], [ 18.41313416, 49.23576216 ], [ 18.41346006, 49.23571396 ], [ 18.41348954, 49.2356905 ], [ 18.41354572, 49.23564577 ], [ 18.41356122, 49.23563344 ], [ 18.41355737, 49.235628 ], [ 18.41360382, 49.2354369 ], [ 18.41364762, 49.23525675 ], [ 18.41371875, 49.2349636 ], [ 18.41365563, 49.23494325 ], [ 18.41358238, 49.23517673 ], [ 18.41360675, 49.23518655 ], [ 18.4135908, 49.23525065 ], [ 18.41357742, 49.23524432 ], [ 18.41353053, 49.23544423 ], [ 18.41350538, 49.23555105 ], [ 18.41347533, 49.23559506 ] ] ] } },
{ "type": "Feature", "properties": { "@featureType": "CadastralParcel", "areaValue": { "value": 106, "@uom": "m2" }, "beginLifespanVersion": { "@nilReason": "http://inspire.ec.europa.eu/codelist/VoidReasonValue/Unpopulated", "@nil": "true" }, "endLifespanVersion": { "@nilReason": "http://inspire.ec.europa.eu/codelist/VoidReasonValue/Unpopulated", "@nil": "true" }, "inspireId": { "@dataType": "Identifier", "localId": "845337_3192/5.C", "namespace": "SK.ESKN.CP", "versionId": "20260703T07:07:27" }, "label": "3192/5", "nationalCadastralReference": "845337_3192/5.C", "referencePoint": { "type": "Point", "coordinates": [ 18.4132064, 49.23426084 ] }, "validFrom": "2026-06-30T16:00:00Z", "validTo": { "@nilReason": "http://inspire.ec.europa.eu/codelist/VoidReasonValue/Unpopulated", "@nil": "true" }, "administrativeUnit": { "@href": "#auAdmUnitS.2398" } }, "geometry": { "type": "Polygon", "coordinates": [ [ [ 18.41271532, 49.23415808 ], [ 18.41281424, 49.23418086 ], [ 18.41303699, 49.23422976 ], [ 18.41305159, 49.234233 ], [ 18.41331041, 49.23428867 ], [ 18.41356526, 49.23434196 ], [ 18.41372429, 49.23437526 ], [ 18.41385068, 49.2344148 ], [ 18.4138572, 49.23438547 ], [ 18.41381126, 49.23437617 ], [ 18.41295881, 49.2342065 ], [ 18.41271532, 49.23415808 ] ] ] } },
{ "type": "Feature", "properties": { "@featureType": "CadastralParcel", "areaValue": { "value": 669, "@uom": "m2" }, "beginLifespanVersion": { "@nilReason": "http://inspire.ec.europa.eu/codelist/VoidReasonValue/Unpopulated", "@nil": "true" }, "endLifespanVersion": { "@nilReason": "http://inspire.ec.europa.eu/codelist/VoidReasonValue/Unpopulated", "@nil": "true" }, "inspireId": { "@dataType": "Identifier", "localId": "845337_3192/10.C", "namespace": "SK.ESKN.CP", "versionId": "20260703T07:07:27" }, "label": "3192/10", "nationalCadastralReference": "845337_3192/10.C", "referencePoint": { "type": "Point", "coordinates": [ 18.4136195, 49.23432086 ] }, "validFrom": "2026-06-30T16:00:00Z", "validTo": { "@nilReason": "http://inspire.ec.europa.eu/codelist/VoidReasonValue/Unpopulated", "@nil": "true" }, "administrativeUnit": { "@href": "#auAdmUnitS.2398" } }, "geometry": { "type": "Polygon", "coordinates": [ [ [ 18.41271532, 49.23415808 ], [ 18.41295881, 49.2342065 ], [ 18.41381126, 49.23437617 ], [ 18.4138572, 49.23438547 ], [ 18.4142103, 49.23443234 ], [ 18.41445256, 49.23446996 ], [ 18.41459012, 49.23448908 ], [ 18.41479017, 49.23451733 ], [ 18.41480596, 49.23447912 ], [ 18.41460959, 49.23445442 ], [ 18.41456049, 49.23444828 ], [ 18.41455576, 49.23444757 ], [ 18.41440501, 49.23442493 ], [ 18.41423509, 49.23440032 ], [ 18.41411252, 49.23438148 ], [ 18.41401077, 49.23436469 ], [ 18.4139248, 49.23435057 ], [ 18.41380653, 49.23434216 ], [ 18.41360474, 49.23429956 ], [ 18.41351339, 49.23427585 ], [ 18.41344437, 49.23426284 ], [ 18.41328025, 49.2342252 ], [ 18.41324531, 49.23421723 ], [ 18.41301883, 49.2341748 ], [ 18.4127537, 49.23412211 ], [ 18.41271532, 49.23415808 ] ] ] } },
{ "type": "Feature", "properties": { "@featureType": "CadastralParcel", "areaValue": { "value": 690, "@uom": "m2" }, "beginLifespanVersion": { "@nilReason": "http://inspire.ec.europa.eu/codelist/VoidReasonValue/Unpopulated", "@nil": "true" }, "endLifespanVersion": { "@nilReason": "http://inspire.ec.europa.eu/codelist/VoidReasonValue/Unpopulated", "@nil": "true" }, "inspireId": { "@dataType": "Identifier", "localId": "845337_3176/1.C", "namespace": "SK.ESKN.CP", "versionId": "20260703T07:07:27" }, "label": "3176/1", "nationalCadastralReference": "845337_3176/1.C", "referencePoint": { "type": "Point", "coordinates": [ 18.41409747, 49.23588437 ] }, "validFrom": "2026-06-30T16:00:00Z", "validTo": { "@nilReason": "http://inspire.ec.europa.eu/codelist/VoidReasonValue/Unpopulated", "@nil": "true" }, "administrativeUnit": { "@href": "#auAdmUnitS.2398" } }, "geometry": { "type": "Polygon", "coordinates": [ [ [ 18.41417046, 49.23594267 ], [ 18.41426396, 49.23598085 ], [ 18.41427679, 49.23598607 ], [ 18.41434554, 49.23601413 ], [ 18.41442868, 49.23603206 ], [ 18.414575, 49.2360624 ], [ 18.41464225, 49.23607639 ], [ 18.41465447, 49.23607887 ], [ 18.41490063, 49.23612906 ], [ 18.41490269, 49.23612159 ], [ 18.41490654, 49.23610773 ], [ 18.41472082, 49.23604941 ], [ 18.41470665, 49.23604493 ], [ 18.41466134, 49.2360307 ], [ 18.41465985, 49.23603694 ], [ 18.41458717, 49.23602129 ], [ 18.41452093, 49.236007 ], [ 18.41451797, 49.23600638 ], [ 18.41447572, 49.23599738 ], [ 18.41437458, 49.23596077 ], [ 18.41426205, 49.23591523 ], [ 18.41422458, 49.23590008 ], [ 18.414144, 49.23586866 ], [ 18.41406249, 49.23583692 ], [ 18.41396639, 49.23579761 ], [ 18.41375101, 49.23570941 ], [ 18.41356122, 49.23563344 ], [ 18.41354572, 49.23564577 ], [ 18.41348954, 49.2356905 ], [ 18.41346006, 49.23571396 ], [ 18.41364633, 49.2357466 ], [ 18.41370527, 49.2357641 ], [ 18.41376244, 49.23578467 ], [ 18.41386105, 49.23583233 ], [ 18.41396601, 49.23586816 ], [ 18.41406147, 49.23590283 ], [ 18.41417046, 49.23594267 ] ] ] } },
{ "type": "Feature", "properties": { "@featureType": "CadastralParcel", "areaValue": { "value": 304, "@uom": "m2" }, "beginLifespanVersion": { "@nilReason": "http://inspire.ec.europa.eu/codelist/VoidReasonValue/Unpopulated", "@nil": "true" }, "endLifespanVersion": { "@nilReason": "http://inspire.ec.europa.eu/codelist/VoidReasonValue/Unpopulated", "@nil": "true" }, "inspireId": { "@dataType": "Identifier", "localId": "845337_3187.C", "namespace": "SK.ESKN.CP", "versionId": "20260703T07:07:27" }, "label": "3187", "nationalCadastralReference": "845337_3187.C", "referencePoint": { "type": "Point", "coordinates": [ 18.41377818, 49.23457808 ] }, "validFrom": "2026-06-30T16:00:00Z", "validTo": { "@nilReason": "http://inspire.ec.europa.eu/codelist/VoidReasonValue/Unpopulated", "@nil": "true" }, "administrativeUnit": { "@href": "#auAdmUnitS.2398" } }, "geometry": { "type": "Polygon", "coordinates": [ [ [ 18.41372429, 49.23437526 ], [ 18.41376889, 49.23439604 ], [ 18.41377403, 49.23445904 ], [ 18.41370155, 49.23475519 ], [ 18.41365563, 49.23494325 ], [ 18.41371875, 49.2349636 ], [ 18.41372443, 49.23493973 ], [ 18.41373562, 49.23489342 ], [ 18.41375448, 49.23481522 ], [ 18.41375695, 49.23480453 ], [ 18.41378287, 49.23469713 ], [ 18.41385068, 49.2344148 ], [ 18.41372429, 49.23437526 ] ] ] } },
{ "type": "Feature", "properties": { "@featureType": "CadastralParcel", "areaValue": { "value": 564, "@uom": "m2" }, "beginLifespanVersion": { "@nilReason": "http://inspire.ec.europa.eu/codelist/VoidReasonValue/Unpopulated", "@nil": "true" }, "endLifespanVersion": { "@nilReason": "http://inspire.ec.europa.eu/codelist/VoidReasonValue/Unpopulated", "@nil": "true" }, "inspireId": { "@dataType": "Identifier", "localId": "845337_7945/1.E", "namespace": "SK.ESKN.CP", "versionId": "20260703T07:07:27" }, "label": "7945/1", "nationalCadastralReference": "845337_7945/1.E", "referencePoint": { "type": "Point", "coordinates": [ 18.4131749, 49.23571419 ] }, "validFrom": "2026-06-30T16:00:00Z", "validTo": { "@nilReason": "http://inspire.ec.europa.eu/codelist/VoidReasonValue/Unpopulated", "@nil": "true" }, "administrativeUnit": { "@href": "#auAdmUnitS.2398" } }, "geometry": { "type": "MultiPolygon", "coordinates": [ [ [ [ 18.41293802, 49.23577311 ], [ 18.41365769, 49.23567205 ], [ 18.41356122, 49.23563344 ], [ 18.41350686, 49.23563929 ], [ 18.41347606, 49.23563877 ], [ 18.41339253, 49.23565177 ], [ 18.41337064, 49.23566446 ], [ 18.41332766, 49.23567184 ], [ 18.41311916, 49.23569438 ], [ 18.41286518, 49.235734 ], [ 18.41293802, 49.23577311 ] ] ], [ [ [ 18.41490654, 49.23610773 ], [ 18.41472082, 49.23604941 ], [ 18.41470665, 49.23604493 ], [ 18.41466134, 49.2360307 ], [ 18.41465985, 49.23603694 ], [ 18.41458717, 49.23602129 ], [ 18.41452093, 49.236007 ], [ 18.41451797, 49.23600638 ], [ 18.41447572, 49.23599738 ], [ 18.41437458, 49.23596077 ], [ 18.41426205, 49.23591523 ], [ 18.41422458, 49.23590008 ], [ 18.414144, 49.23586866 ], [ 18.41406249, 49.23583692 ], [ 18.41396639, 49.23579761 ], [ 18.4137772, 49.23572015 ], [ 18.41420679, 49.23592915 ], [ 18.41437061, 49.23600991 ], [ 18.41442868, 49.23603206 ], [ 18.414575, 49.2360624 ], [ 18.41464225, 49.23607639 ], [ 18.41465447, 49.23607887 ], [ 18.41479401, 49.23612012 ], [ 18.41487558, 49.236146 ], [ 18.41489439, 49.23615191 ], [ 18.41490063, 49.23612906 ], [ 18.41490269, 49.23612159 ], [ 18.41490654, 49.23610773 ] ] ] ] } },
{ "type": "Feature", "properties": { "@featureType": "CadastralParcel", "areaValue": { "value": 565, "@uom": "m2" }, "beginLifespanVersion": { "@nilReason": "http://inspire.ec.europa.eu/codelist/VoidReasonValue/Unpopulated", "@nil": "true" }, "endLifespanVersion": { "@nilReason": "http://inspire.ec.europa.eu/codelist/VoidReasonValue/Unpopulated", "@nil": "true" }, "inspireId": { "@dataType": "Identifier", "localId": "845337_8052.E", "namespace": "SK.ESKN.CP", "versionId": "20260703T07:07:27" }, "label": "8052", "nationalCadastralReference": "845337_8052.E", "referencePoint": { "type": "Point", "coordinates": [ 18.41365435, 49.23507016 ] }, "validFrom": "2026-06-30T16:00:00Z", "validTo": { "@nilReason": "http://inspire.ec.europa.eu/codelist/VoidReasonValue/Unpopulated", "@nil": "true" }, "administrativeUnit": { "@href": "#auAdmUnitS.2398" } }, "geometry": { "type": "Polygon", "coordinates": [ [ [ 18.41356122, 49.23563344 ], [ 18.41355737, 49.235628 ], [ 18.41360382, 49.2354369 ], [ 18.41364762, 49.23525675 ], [ 18.41371875, 49.2349636 ], [ 18.41372443, 49.23493973 ], [ 18.41373562, 49.23489342 ], [ 18.41375448, 49.23481522 ], [ 18.41375695, 49.23480453 ], [ 18.41378287, 49.23469713 ], [ 18.41385068, 49.2344148 ], [ 18.4138572, 49.23438547 ], [ 18.41381126, 49.23437617 ], [ 18.41379521, 49.23446255 ], [ 18.41368517, 49.23489244 ], [ 18.41367045, 49.23494803 ], [ 18.41365563, 49.23494325 ], [ 18.41358238, 49.23517673 ], [ 18.41360675, 49.23518655 ], [ 18.4135908, 49.23525065 ], [ 18.4135645, 49.23537933 ], [ 18.41350686, 49.23563929 ], [ 18.41356122, 49.23563344 ] ] ] } }
]
}
