{
"type": "FeatureCollection",
"name": "gis",
"crs": { "type": "name", "properties": { "name": "urn:ogc:def:crs:OGC:1.3:CRS84" } },
"features": [
{ "type": "Feature", "properties": { "@featureType": "CadastralZoning", "beginLifespanVersion": { "@nilReason": "http://inspire.ec.europa.eu/codelist/VoidReasonValue/Unpopulated", "@nil": "true" }, "endLifespanVersion": { "@nilReason": "http://inspire.ec.europa.eu/codelist/VoidReasonValue/Unpopulated", "@nil": "true" }, "estimatedAccuracy": { "value": -1, "@uom": "m" }, "inspireId": { "@dataType": "Identifier", "localId": "832677", "namespace": "SK.ESKN.CP", "versionId": "20261005T06:10:45" }, "label": "Liptovský Ján", "level": { "@href": "http://inspire.ec.europa.eu/codelist/CadastralZoningLevelValue/3rdOrder" }, "levelName": { "value": "Katastrálne územie", "@locale": "sk" }, "name_1": { "@dataType": "name", "GeographicalName": { "@dataType": "GeographicalName", "language": "SLK", "nativeness": { "@href": "http://inspire.ec.europa.eu/codelist/NativenessValue/endonym", "@title": "endonym" }, "nameStatus": { "@href": "http://inspire.ec.europa.eu/codelist/NameStatusValue/official", "@title": "official" }, "sourceOfName": { "@nilReason": "http://inspire.ec.europa.eu/codelist/VoidReasonValue/Unpopulated", "@nil": "true" }, "pronunciation": { "@dataType": "pronunciation", "@nilReason": "http://inspire.ec.europa.eu/codelist/VoidReasonValue/Unpopulated", "@nil": "true" }, "spelling": { "@dataType": "SpellingOfName", "text": "Liptovský Ján", "script": "LATN" } } }, "nationalCadastalZoningReference": "832677", "validFrom": "2026-09-30T16:00:00Z", "validTo": { "@nilReason": "http://inspire.ec.europa.eu/codelist/VoidReasonValue/Unpopulated", "@nil": "true" }, "place_id": 185103924, "osm_type": "relation", "osm_id": 1215297, "place_rank": 25, "category": "boundary", "type": "protected_area", "importance": 0.39106112740783944, "addresstype": "protected_area", "name_2": "Jánska dolina", "display_name": "Jánska dolina, Liptovský Ján, okres Liptovský Mikuláš, Žilinský kraj, Slovensko" }, "geometry": { "type": "Polygon", "coordinates": [ [ [ 19.68607301, 49.02103376 ], [ 19.686185651101372, 49.020804901889278 ], [ 19.6861889, 49.0207982 ], [ 19.6863757, 49.0205 ], [ 19.6871831, 49.0194794 ], [ 19.687175, 49.0191834 ], [ 19.687210728503139, 49.019029091001052 ], [ 19.68725365, 49.01884354 ], [ 19.68726119, 49.01882206 ], [ 19.68727882, 49.01877165 ], [ 19.687436184591611, 49.01840368828001 ], [ 19.6874373, 49.018401 ], [ 19.687438249504428, 49.018399955683286 ], [ 19.68745254, 49.01838357 ], [ 19.68756752, 49.01825229 ], [ 19.6879064, 49.01788396 ], [ 19.68798704, 49.01779631 ], [ 19.68852887, 49.01714782 ], [ 19.688618207181339, 49.017018758332 ], [ 19.688737401966787, 49.016846531488639 ], [ 19.68873951, 49.01684348 ], [ 19.68874038684072, 49.016842470472056 ], [ 19.689539921203149, 49.01591429594405 ], [ 19.68954495, 49.0159084 ], [ 19.6895454922014, 49.015908263141441 ], [ 19.6903898, 49.0156735 ], [ 19.691954084587515, 49.015034323706246 ], [ 19.69227452, 49.01490338 ], [ 19.692464372713964, 49.014905052995282 ], [ 19.6932164, 49.0149116 ], [ 19.6946848, 49.0147422 ], [ 19.695303645287826, 49.014456802333932 ], [ 19.69561478, 49.01431331 ], [ 19.695646318488876, 49.014298769084384 ], [ 19.695964075024936, 49.014152226845873 ], [ 19.69617746, 49.0140538 ], [ 19.696177477942577, 49.014053810172392 ], [ 19.6961775, 49.0140538 ], [ 19.6974624, 49.0135994 ], [ 19.697763208305886, 49.013094418522428 ], [ 19.69778519, 49.0130575 ], [ 19.69718864, 49.0124398 ], [ 19.69644055, 49.01166515 ], [ 19.69647387, 49.01146095 ], [ 19.69650607, 49.01126363 ], [ 19.69668252, 49.0101849 ], [ 19.69680164, 49.00945965 ], [ 19.69683126, 49.00938426 ], [ 19.69683128336861, 49.009384242365094 ], [ 19.6968313, 49.0093842 ], [ 19.6969794, 49.0092724 ], [ 19.6986338, 49.0075853 ], [ 19.7012082, 49.0060948 ], [ 19.703971487138862, 49.005310841282096 ], [ 19.703974099301561, 49.005310093064423 ], [ 19.703973905372131, 49.00530816732293 ], [ 19.70389721, 49.00458754 ], [ 19.70386611, 49.00429595 ], [ 19.70375338, 49.00314136 ], [ 19.70367788, 49.00236886 ], [ 19.70353777, 49.00210247 ], [ 19.70333791, 49.00172213 ], [ 19.70247186, 49.00058422 ], [ 19.702407042025794, 49.000467383481784 ], [ 19.7024, 49.0004547 ], [ 19.702400000218052, 49.000454690393042 ], [ 19.7024, 49.00045469 ], [ 19.70242576, 48.99931801 ], [ 19.702431830647157, 48.999052552662057 ], [ 19.7024319, 48.9990495 ], [ 19.7025902, 48.9977681 ], [ 19.702588400448182, 48.997514463168578 ], [ 19.702340354079272, 48.997337061422193 ], [ 19.7022839, 48.9972967 ], [ 19.70204301692219, 48.997122603035024 ], [ 19.7017097, 48.99688172 ], [ 19.701709706615286, 48.996881704781167 ], [ 19.7017097, 48.9968817 ], [ 19.701750936415703, 48.99678685334603 ], [ 19.70185197, 48.99655442 ], [ 19.70144886, 48.9960775 ], [ 19.701371304784132, 48.995811938377123 ], [ 19.7013471, 48.9957291 ], [ 19.701223764381453, 48.995110876455719 ], [ 19.70105979, 48.99428907 ], [ 19.700955445646418, 48.993765688577696 ], [ 19.7009378, 48.9936772 ], [ 19.6961366, 48.9921965 ], [ 19.6937948, 48.991487 ], [ 19.6920825, 48.9909725 ], [ 19.6901705, 48.9903945 ], [ 19.6883363, 48.9898404 ], [ 19.6873346, 48.989536 ], [ 19.6858017, 48.989065 ], [ 19.6838561, 48.9884781 ], [ 19.6828269, 48.9881687 ], [ 19.6826176, 48.9881058 ], [ 19.6825026, 48.9880995 ], [ 19.6824409, 48.9879161 ], [ 19.6821041, 48.9875144 ], [ 19.68204, 48.9875058 ], [ 19.6817208, 48.9872081 ], [ 19.6817937, 48.9869578 ], [ 19.6821979, 48.9861512 ], [ 19.6822752, 48.9860646 ], [ 19.6817412, 48.9860199 ], [ 19.6816104, 48.9853701 ], [ 19.6817575, 48.9847933 ], [ 19.6818036, 48.9847599 ], [ 19.6819685, 48.9848115 ], [ 19.6818216, 48.9844527 ], [ 19.6819246, 48.9844083 ], [ 19.6817386, 48.9843016 ], [ 19.6816468, 48.9842229 ], [ 19.6814698, 48.9836796 ], [ 19.6811122, 48.9833316 ], [ 19.6811076, 48.9832589 ], [ 19.6813544, 48.9828336 ], [ 19.681681, 48.9818255 ], [ 19.6819115, 48.9816077 ], [ 19.6818984, 48.9814423 ], [ 19.6818414, 48.9812443 ], [ 19.6818517, 48.9810744 ], [ 19.6818251, 48.9808938 ], [ 19.6817522, 48.9807465 ], [ 19.6815785, 48.9805758 ], [ 19.6813139, 48.9803728 ], [ 19.681051, 48.9800836 ], [ 19.6810588, 48.9799601 ], [ 19.6811106, 48.979856 ], [ 19.6810433, 48.9798389 ], [ 19.6811491, 48.9796548 ], [ 19.6807337, 48.9796567 ], [ 19.6805313, 48.9796768 ], [ 19.6803437, 48.9795713 ], [ 19.6801045, 48.9788103 ], [ 19.6797638, 48.9783564 ], [ 19.6788361, 48.9783329 ], [ 19.6784238, 48.9784208 ], [ 19.6779909, 48.977876 ], [ 19.6786356, 48.9774252 ], [ 19.6784966, 48.9766243 ], [ 19.6780282, 48.9763551 ], [ 19.6779941, 48.9761619 ], [ 19.6777409, 48.9760549 ], [ 19.677219, 48.9760992 ], [ 19.6764004, 48.9764602 ], [ 19.6757669, 48.9767916 ], [ 19.67541, 48.9770036 ], [ 19.6753483, 48.9758658 ], [ 19.6747478, 48.9756918 ], [ 19.6732216, 48.9753074 ], [ 19.6727015, 48.9748232 ], [ 19.6722485, 48.9743295 ], [ 19.6718996, 48.9745559 ], [ 19.6711928, 48.9750596 ], [ 19.6705259, 48.9756106 ], [ 19.6701987, 48.975785 ], [ 19.6698658, 48.9760926 ], [ 19.6687545, 48.9770042 ], [ 19.6686557, 48.9771904 ], [ 19.6685597, 48.9774707 ], [ 19.6685217, 48.9776422 ], [ 19.6684983, 48.9781292 ], [ 19.6679191, 48.9785074 ], [ 19.667138, 48.9789488 ], [ 19.6668617, 48.9792841 ], [ 19.6665938, 48.9794267 ], [ 19.6661842, 48.9796889 ], [ 19.6653517, 48.9803323 ], [ 19.665124, 48.980448 ], [ 19.6648747, 48.9805343 ], [ 19.6642511, 48.9806276 ], [ 19.6639713, 48.9806231 ], [ 19.6637699, 48.9806262 ], [ 19.6635838, 48.9804816 ], [ 19.6635002, 48.9804658 ], [ 19.6633335, 48.9804747 ], [ 19.663129, 48.9804614 ], [ 19.6625199, 48.980342 ], [ 19.6620996, 48.9802419 ], [ 19.6616384, 48.9802696 ], [ 19.6612308, 48.9803118 ], [ 19.6612021, 48.9803227 ], [ 19.660716, 48.980506 ], [ 19.6600665, 48.9807549 ], [ 19.659706, 48.9808756 ], [ 19.6592456, 48.9810159 ], [ 19.6585724, 48.9812071 ], [ 19.6582392, 48.9814271 ], [ 19.6577681, 48.9815655 ], [ 19.6575142, 48.9816559 ], [ 19.6573165, 48.9820156 ], [ 19.6570258, 48.9821509 ], [ 19.6565734, 48.9822959 ], [ 19.6562751, 48.9823801 ], [ 19.6560902, 48.9826132 ], [ 19.6554754, 48.9828383 ], [ 19.6549002, 48.9831053 ], [ 19.6541423, 48.9835211 ], [ 19.6535511, 48.9838806 ], [ 19.653299, 48.9840692 ], [ 19.6530437, 48.9842466 ], [ 19.6523008, 48.9848922 ], [ 19.6517276, 48.9851829 ], [ 19.6513719, 48.9853229 ], [ 19.6509613, 48.9854587 ], [ 19.6508793, 48.985579 ], [ 19.6507224, 48.9856805 ], [ 19.6503447, 48.9858803 ], [ 19.6498521, 48.9861072 ], [ 19.6496125, 48.9861887 ], [ 19.6491179, 48.9863003 ], [ 19.6486321, 48.9865967 ], [ 19.6479402, 48.986787 ], [ 19.6476243, 48.9869988 ], [ 19.6475118, 48.9870795 ], [ 19.6474544, 48.9871081 ], [ 19.6466967, 48.9874879 ], [ 19.6463557, 48.9875544 ], [ 19.646102, 48.9875767 ], [ 19.6458355, 48.9875435 ], [ 19.6451892, 48.9874043 ], [ 19.644682, 48.9872684 ], [ 19.6443192, 48.9872215 ], [ 19.6439119, 48.9872003 ], [ 19.6434674, 48.9872233 ], [ 19.6430912, 48.9872617 ], [ 19.643008, 48.9872796 ], [ 19.6424484, 48.9874002 ], [ 19.6420254, 48.9875255 ], [ 19.6416675, 48.987648 ], [ 19.6414314, 48.9877289 ], [ 19.6405887, 48.9880308 ], [ 19.6404081, 48.9881003 ], [ 19.6402242, 48.9881711 ], [ 19.6398848, 48.9883402 ], [ 19.6387749, 48.9888703 ], [ 19.6381459, 48.9891712 ], [ 19.6379022, 48.9893092 ], [ 19.637902190466296, 48.989309233710962 ], [ 19.63790223, 48.98930926 ], [ 19.637674527347265, 48.990114245340344 ], [ 19.6375492, 48.9905574 ], [ 19.637549162614775, 48.990557440756113 ], [ 19.63754916, 48.99055745 ], [ 19.636557679784062, 48.991638348431678 ], [ 19.636417995850611, 48.991972991673691 ], [ 19.6361174, 48.99269319 ], [ 19.635967327216839, 48.993052666400423 ], [ 19.6353528, 48.9945249 ], [ 19.6351793, 48.9957138 ], [ 19.635155080737636, 48.996025849543656 ], [ 19.635076719293625, 48.997036061489901 ], [ 19.6350599, 48.9972531 ], [ 19.635031368584269, 48.997620709066808 ], [ 19.63496913, 48.99842307 ], [ 19.635096647597926, 48.999635818153727 ], [ 19.6352034, 49.0006509 ], [ 19.6353576, 49.0025375 ], [ 19.635295996840611, 49.002900073250842 ], [ 19.63525883, 49.00311903 ], [ 19.635256898352189, 49.003165959812165 ], [ 19.635161, 49.0055341 ], [ 19.6352833, 49.0069218 ], [ 19.6348452, 49.0084218 ], [ 19.63483794587431, 49.008443738553886 ], [ 19.63480234, 49.00855147 ], [ 19.634626145645147, 49.009084283112742 ], [ 19.6344458, 49.0096297 ], [ 19.634394906380859, 49.009681194469145 ], [ 19.63437723, 49.00969909 ], [ 19.6341324, 49.00994683 ], [ 19.634068527497433, 49.010142882494264 ], [ 19.6339121, 49.0106231 ], [ 19.633906, 49.0111576 ], [ 19.633905990245044, 49.011157658386864 ], [ 19.63390599, 49.01115768 ], [ 19.633708, 49.01234276 ], [ 19.633191997898862, 49.013939660100348 ], [ 19.6331757, 49.0139901 ], [ 19.6336567, 49.0161399 ], [ 19.6338473, 49.0168816 ], [ 19.633503063126906, 49.017642772696504 ], [ 19.63270705, 49.01940302 ], [ 19.6320285, 49.02090344 ], [ 19.631972202987495, 49.021027801310346 ], [ 19.6380384, 49.0236885 ], [ 19.6436436, 49.0246549 ], [ 19.6445893, 49.0248319 ], [ 19.644589462817791, 49.024831927310366 ], [ 19.64544264, 49.02497479 ], [ 19.6462187, 49.02510477 ], [ 19.64631502, 49.02512097 ], [ 19.6467394, 49.02519235 ], [ 19.64676002, 49.0251958 ], [ 19.6469675, 49.02523056 ], [ 19.647309798050262, 49.025288224721074 ], [ 19.6473955, 49.0253026 ], [ 19.6484352, 49.0254135 ], [ 19.648490482050022, 49.025420882286454 ], [ 19.64868344, 49.02544651 ], [ 19.6488546, 49.02546947 ], [ 19.648896640536528, 49.025475120113981 ], [ 19.6489549, 49.0254829 ], [ 19.6493354, 49.0257187 ], [ 19.6497455, 49.0258537 ], [ 19.650538, 49.0260448 ], [ 19.651591843672399, 49.026250734752843 ], [ 19.65171957, 49.02627569 ], [ 19.651723092745215, 49.026276318007781 ], [ 19.652907142329408, 49.026485824229361 ], [ 19.65430117, 49.02672797 ], [ 19.654730930792173, 49.026808526111864 ], [ 19.654737, 49.0268096 ], [ 19.6549717, 49.0266677 ], [ 19.6556401, 49.0263291 ], [ 19.6564216, 49.0258643 ], [ 19.6569986, 49.0259194 ], [ 19.6569642, 49.0262817 ], [ 19.6567363, 49.0263025 ], [ 19.6568082, 49.0265231 ], [ 19.6574427, 49.026653 ], [ 19.6577702, 49.0264794 ], [ 19.6574658, 49.0260786 ], [ 19.6575869, 49.0256541 ], [ 19.6582764, 49.0259627 ], [ 19.6582838, 49.0260686 ], [ 19.6599243, 49.0267133 ], [ 19.6599823, 49.0268677 ], [ 19.6602732, 49.0270871 ], [ 19.660185, 49.0271482 ], [ 19.6607947, 49.0274539 ], [ 19.6611196, 49.0273126 ], [ 19.6617884, 49.0274539 ], [ 19.6623428, 49.0278718 ], [ 19.6625334, 49.0277353 ], [ 19.6626252, 49.0274225 ], [ 19.6627422, 49.027348 ], [ 19.6635794, 49.0275318 ], [ 19.6649412, 49.0274594 ], [ 19.6659505, 49.0271181 ], [ 19.6672442, 49.026556 ], [ 19.6675269, 49.0264237 ], [ 19.6684263, 49.0258368 ], [ 19.6684328, 49.0257961 ], [ 19.667894, 49.0255974 ], [ 19.6675144, 49.0253671 ], [ 19.6670938, 49.0250358 ], [ 19.6668974, 49.0249374 ], [ 19.6665533, 49.0248677 ], [ 19.6660814, 49.0245517 ], [ 19.6652165, 49.0243097 ], [ 19.6649622, 49.0242216 ], [ 19.664956, 49.0241823 ], [ 19.6643971, 49.0242613 ], [ 19.6641807, 49.0242306 ], [ 19.6639601, 49.0240305 ], [ 19.6636819, 49.0238401 ], [ 19.6634608, 49.023715 ], [ 19.6635447, 49.0236669 ], [ 19.6633577, 49.0235445 ], [ 19.6630667, 49.0235167 ], [ 19.6628626, 49.02338 ], [ 19.6628967, 49.0233553 ], [ 19.6630131, 49.0231695 ], [ 19.6631498, 49.0231004 ], [ 19.6638275, 49.0225843 ], [ 19.6639503, 49.0223543 ], [ 19.6640376, 49.0219393 ], [ 19.6641856, 49.0215356 ], [ 19.6653986, 49.0214211 ], [ 19.6661209, 49.0216515 ], [ 19.6660714, 49.021546 ], [ 19.66666, 49.0207923 ], [ 19.6671534, 49.0205228 ], [ 19.6674824, 49.0202472 ], [ 19.6680884, 49.0198142 ], [ 19.6682854, 49.0193481 ], [ 19.6684272, 49.0188504 ], [ 19.6688419, 49.0181069 ], [ 19.6690044, 49.0175825 ], [ 19.6693657, 49.0166226 ], [ 19.6697687, 49.0166114 ], [ 19.6719366, 49.0167961 ], [ 19.6722038, 49.0161776 ], [ 19.6721917, 49.0159414 ], [ 19.6722971, 49.0156539 ], [ 19.672807, 49.0146805 ], [ 19.6728683, 49.0143601 ], [ 19.6732148, 49.013316 ], [ 19.6732379, 49.0122951 ], [ 19.6732981, 49.0120584 ], [ 19.6733107, 49.0112356 ], [ 19.6732804, 49.0111169 ], [ 19.6732678, 49.0106916 ], [ 19.6731817, 49.0100532 ], [ 19.6732551, 49.0095757 ], [ 19.673332, 49.0094258 ], [ 19.6734213, 49.0090482 ], [ 19.6734215, 49.0088429 ], [ 19.6733866, 49.0086236 ], [ 19.6734044, 49.0085004 ], [ 19.6730922, 49.0082705 ], [ 19.6729676, 49.008023 ], [ 19.6729158, 49.0078649 ], [ 19.6729956, 49.0072663 ], [ 19.6729397, 49.0070796 ], [ 19.6728466, 49.0069948 ], [ 19.6726995, 49.0067872 ], [ 19.6725761, 49.0067007 ], [ 19.6725134, 49.00662 ], [ 19.6725657, 49.0057791 ], [ 19.6725974, 49.0056001 ], [ 19.6726564, 49.0054383 ], [ 19.6726407, 49.0054342 ], [ 19.6726115, 49.0051629 ], [ 19.6725611, 49.0043971 ], [ 19.6725055, 49.0042748 ], [ 19.6724224, 49.0041963 ], [ 19.6722106, 49.0041171 ], [ 19.6719124, 49.0040873 ], [ 19.6709906, 49.0041834 ], [ 19.6705904, 49.0041606 ], [ 19.6700763, 49.0040627 ], [ 19.6697528, 49.0039585 ], [ 19.6684921, 49.0039574 ], [ 19.6674673, 49.0036571 ], [ 19.667246, 49.0035437 ], [ 19.6664351, 49.0034945 ], [ 19.6646515, 49.0035009 ], [ 19.6640745, 49.00345 ], [ 19.6628072, 49.0032759 ], [ 19.6634969, 49.0038806 ], [ 19.6641794, 49.0045264 ], [ 19.6650113, 49.0050054 ], [ 19.6656717, 49.0053412 ], [ 19.6664632, 49.0056236 ], [ 19.6669408, 49.005689 ], [ 19.6674586, 49.0059031 ], [ 19.6682414, 49.0063858 ], [ 19.6688607, 49.0067165 ], [ 19.6694115, 49.0069801 ], [ 19.6703858, 49.0077829 ], [ 19.6713919, 49.0087162 ], [ 19.6727291, 49.0095848 ], [ 19.6730658, 49.0100566 ], [ 19.6731892, 49.0101269 ], [ 19.6731231, 49.0101252 ], [ 19.6727224, 49.0099988 ], [ 19.6724971, 49.0099585 ], [ 19.6723285, 49.0099748 ], [ 19.6717436, 49.0100842 ], [ 19.6712435, 49.0103035 ], [ 19.6700356, 49.0105134 ], [ 19.6697738, 49.0113048 ], [ 19.6682499, 49.0116132 ], [ 19.6670506, 49.0113886 ], [ 19.6664305, 49.0115183 ], [ 19.6662244, 49.0113581 ], [ 19.6658267, 49.0113726 ], [ 19.665095, 49.0111845 ], [ 19.6640068, 49.0114462 ], [ 19.6648967, 49.0127184 ], [ 19.6653967, 49.0131095 ], [ 19.6653772, 49.0136371 ], [ 19.6654224, 49.0140518 ], [ 19.6648458, 49.0143053 ], [ 19.6635592, 49.0149083 ], [ 19.6630897, 49.0153416 ], [ 19.6628631, 49.0156516 ], [ 19.6628239, 49.0159571 ], [ 19.6619989, 49.0162947 ], [ 19.6617408, 49.0162676 ], [ 19.6613486, 49.0163922 ], [ 19.6606744, 49.0165486 ], [ 19.6600837, 49.0165396 ], [ 19.6596868, 49.0164354 ], [ 19.6593018, 49.0163898 ], [ 19.6588729, 49.0163029 ], [ 19.6588534, 49.0163111 ], [ 19.6578724, 49.0145156 ], [ 19.6574507, 49.0143954 ], [ 19.6568187, 49.0141738 ], [ 19.6563151, 49.0140679 ], [ 19.655664, 49.0140961 ], [ 19.654525, 49.0139969 ], [ 19.6533381, 49.0138499 ], [ 19.6524301, 49.0138314 ], [ 19.6518895, 49.0137909 ], [ 19.6528197, 49.0145623 ], [ 19.6532012, 49.016491 ], [ 19.6531509, 49.0164979 ], [ 19.6529821, 49.0163131 ], [ 19.6529308, 49.0161631 ], [ 19.6527393, 49.0160932 ], [ 19.6528626, 49.0159712 ], [ 19.6526367, 49.01578 ], [ 19.6519228, 49.0158006 ], [ 19.6510116, 49.0143621 ], [ 19.6501722, 49.0136478 ], [ 19.6489107, 49.0133915 ], [ 19.6465304, 49.0124014 ], [ 19.6468337, 49.0122678 ], [ 19.6478112, 49.0127716 ], [ 19.6481747, 49.0128069 ], [ 19.6481357, 49.0111952 ], [ 19.6481107, 49.0109471 ], [ 19.6486942, 49.0101993 ], [ 19.6494468, 49.0095103 ], [ 19.6497697, 49.0090206 ], [ 19.6498998, 49.0075158 ], [ 19.650022, 49.0067351 ], [ 19.65014, 49.0063464 ], [ 19.6505186, 49.0057199 ], [ 19.6512617, 49.0048563 ], [ 19.6517531, 49.0048676 ], [ 19.6523806, 49.0049699 ], [ 19.6528867, 49.0051518 ], [ 19.6535005, 49.0056998 ], [ 19.6540159, 49.0057918 ], [ 19.6543031, 49.005712 ], [ 19.6562328, 49.0054301 ], [ 19.6562866, 49.0054429 ], [ 19.6587789, 49.006409 ], [ 19.6599172, 49.0070683 ], [ 19.6621045, 49.0070888 ], [ 19.6632418, 49.0071358 ], [ 19.6629112, 49.0067343 ], [ 19.6623257, 49.0063154 ], [ 19.6606796, 49.0039595 ], [ 19.6600108, 49.0028824 ], [ 19.6597891, 49.0015951 ], [ 19.6603697, 49.0017882 ], [ 19.6612806, 49.001733 ], [ 19.6630214, 49.0014545 ], [ 19.665872, 49.0010351 ], [ 19.6663884, 49.0010326 ], [ 19.6668149, 49.0010898 ], [ 19.6671637, 49.0011954 ], [ 19.6677329, 49.0011617 ], [ 19.6689264, 49.0009478 ], [ 19.6698572, 49.0007573 ], [ 19.6712929, 48.9999747 ], [ 19.6720022, 48.9995528 ], [ 19.6735419, 48.9991964 ], [ 19.6745965, 48.9987414 ], [ 19.6747645, 48.9988104 ], [ 19.6750207, 48.9989542 ], [ 19.674836, 48.9985934 ], [ 19.6748301, 48.9984746 ], [ 19.6749596, 48.9974163 ], [ 19.6750221, 48.997155 ], [ 19.6751199, 48.996935 ], [ 19.6752232, 48.9969542 ], [ 19.6756702, 48.9965103 ], [ 19.6759638, 48.9958213 ], [ 19.6760475, 48.9956728 ], [ 19.6766735, 48.9952395 ], [ 19.6773405, 48.9948592 ], [ 19.6782416, 48.9940421 ], [ 19.67859, 48.993519 ], [ 19.6789861, 48.993193 ], [ 19.679421, 48.9929098 ], [ 19.6799919, 48.9930685 ], [ 19.6798648, 48.9932064 ], [ 19.6797064, 48.9934545 ], [ 19.6795627, 48.993575 ], [ 19.6797995, 48.9937598 ], [ 19.6802968, 48.9943099 ], [ 19.6804537, 48.9949916 ], [ 19.6795744, 48.9959575 ], [ 19.67921, 48.9959754 ], [ 19.6781956, 48.9969019 ], [ 19.6780282, 48.9977318 ], [ 19.6778033, 48.9980291 ], [ 19.6774183, 48.9982425 ], [ 19.6773422, 48.9984781 ], [ 19.6773972, 48.9993107 ], [ 19.6774145, 49.0000845 ], [ 19.6773234, 49.0004553 ], [ 19.6777954, 49.0007871 ], [ 19.6770894, 49.0009248 ], [ 19.6767526, 49.0009757 ], [ 19.6766298, 49.0009703 ], [ 19.6764672, 49.0009022 ], [ 19.6762852, 49.0007978 ], [ 19.6759324, 49.0005538 ], [ 19.6756648, 49.0004272 ], [ 19.6756518, 49.0004894 ], [ 19.6755689, 49.0005632 ], [ 19.6750379, 49.0009741 ], [ 19.6748775, 49.0011326 ], [ 19.674634, 49.0014276 ], [ 19.6743388, 49.0017017 ], [ 19.6742692, 49.0017883 ], [ 19.6741731, 49.0020841 ], [ 19.6741641, 49.0022456 ], [ 19.6741956, 49.0026035 ], [ 19.6741334, 49.0028717 ], [ 19.6737579, 49.0036834 ], [ 19.6736505, 49.0039582 ], [ 19.6735852, 49.0044853 ], [ 19.6735243, 49.0047425 ], [ 19.6734335, 49.0049361 ], [ 19.6733525, 49.0050475 ], [ 19.6731361, 49.0052749 ], [ 19.6728437, 49.005501 ], [ 19.6726934, 49.0057243 ], [ 19.672647, 49.0061604 ], [ 19.672644, 49.0065461 ], [ 19.6726817, 49.0066273 ], [ 19.6727524, 49.0066914 ], [ 19.6730152, 49.006843 ], [ 19.6730966, 49.007005 ], [ 19.6733742, 49.0077757 ], [ 19.6733761, 49.0078063 ], [ 19.6734867, 49.0083609 ], [ 19.6734688, 49.0084522 ], [ 19.6735389, 49.0085093 ], [ 19.6735993, 49.0085107 ], [ 19.6738076, 49.008716 ], [ 19.6739793, 49.0088079 ], [ 19.6740705, 49.0095343 ], [ 19.6738915, 49.0097648 ], [ 19.6737215, 49.0099071 ], [ 19.6737861, 49.0104892 ], [ 19.6740732, 49.0109211 ], [ 19.6741753, 49.0114225 ], [ 19.6741765, 49.0116559 ], [ 19.6742682, 49.011655 ], [ 19.674269, 49.0116958 ], [ 19.6742438, 49.0116961 ], [ 19.6742442, 49.0117164 ], [ 19.674207, 49.0117167 ], [ 19.6742076, 49.0117408 ], [ 19.674177, 49.0117411 ], [ 19.6741783, 49.0119803 ], [ 19.6741557, 49.0120889 ], [ 19.674197, 49.0121058 ], [ 19.6741394, 49.0121668 ], [ 19.6741023, 49.0123562 ], [ 19.6740186, 49.012364 ], [ 19.6738886, 49.0132677 ], [ 19.6740019, 49.0140137 ], [ 19.6740033, 49.0141992 ], [ 19.6738867, 49.0143388 ], [ 19.6739592, 49.0145726 ], [ 19.6748872, 49.0166823 ], [ 19.674907, 49.0170554 ], [ 19.674468, 49.0176553 ], [ 19.6741211, 49.0184096 ], [ 19.6739729, 49.0187965 ], [ 19.6738301, 49.0187863 ], [ 19.6735551, 49.019107 ], [ 19.6735045, 49.0190942 ], [ 19.6734715, 49.0191671 ], [ 19.6734867, 49.0193839 ], [ 19.6735473, 49.0193837 ], [ 19.6735481, 49.0194826 ], [ 19.6734841, 49.0194828 ], [ 19.673494, 49.0198648 ], [ 19.6727305, 49.020265 ], [ 19.6727444, 49.0203307 ], [ 19.6727254, 49.0203352 ], [ 19.6727061, 49.0205992 ], [ 19.672883, 49.0205567 ], [ 19.6731053, 49.0205511 ], [ 19.675018, 49.0211944 ], [ 19.6756621, 49.0213687 ], [ 19.6763888, 49.0215413 ], [ 19.6769922, 49.0219515 ], [ 19.6774678, 49.0223312 ], [ 19.6774961, 49.0224185 ], [ 19.6774887, 49.0225407 ], [ 19.6774153, 49.0225 ], [ 19.677279, 49.0225137 ], [ 19.6773691, 49.0229072 ], [ 19.6777454, 49.023309 ], [ 19.6780364, 49.0235103 ], [ 19.6783821, 49.0237173 ], [ 19.6785354, 49.0238399 ], [ 19.6786716, 49.0239814 ], [ 19.6788014, 49.0242934 ], [ 19.6787897, 49.0245543 ], [ 19.6787179, 49.0248622 ], [ 19.6786116, 49.0251123 ], [ 19.6784581, 49.0255846 ], [ 19.6791766, 49.025587 ], [ 19.6796894, 49.0256212 ], [ 19.6800946, 49.025669 ], [ 19.6822325, 49.0245007 ], [ 19.683017, 49.0241464 ], [ 19.6835663, 49.0238597 ], [ 19.6840432, 49.0233927 ], [ 19.6845152, 49.02263 ], [ 19.685037, 49.0222262 ], [ 19.685502793751493, 49.022213500170366 ], [ 19.68607301, 49.02103376 ] ], [ [ 19.6791089, 49.004163 ], [ 19.6826028, 49.0023733 ], [ 19.6828452, 49.0022448 ], [ 19.6833015, 49.0019626 ], [ 19.684078, 49.0015871 ], [ 19.6858652, 48.9997095 ], [ 19.6865978, 48.9990721 ], [ 19.6870334, 49.000086 ], [ 19.6871732, 49.0000911 ], [ 19.6877782, 49.0001703 ], [ 19.6880937, 49.0002427 ], [ 19.6885696, 49.0002867 ], [ 19.6890858, 49.0002593 ], [ 19.6894828, 49.0002768 ], [ 19.6904312, 49.0002433 ], [ 19.6908597, 49.0001652 ], [ 19.6912448, 49.0000574 ], [ 19.6913013, 48.9999744 ], [ 19.6912754, 48.9997663 ], [ 19.6912937, 48.9996637 ], [ 19.691412, 48.9995447 ], [ 19.691556, 48.9994813 ], [ 19.6922725, 48.9994715 ], [ 19.6924933, 48.999427 ], [ 19.6930938, 48.999244 ], [ 19.693366, 48.9991112 ], [ 19.6935687, 48.9989388 ], [ 19.6936409, 48.9987321 ], [ 19.6936991, 48.998652 ], [ 19.6938156, 48.9985922 ], [ 19.6939533, 48.9985567 ], [ 19.6941075, 48.9985532 ], [ 19.6943158, 48.9985987 ], [ 19.6944658, 48.9986755 ], [ 19.6947302, 48.9987131 ], [ 19.6949667, 48.9987132 ], [ 19.6950885, 48.9986695 ], [ 19.6951457, 48.9986051 ], [ 19.6955091, 48.9984403 ], [ 19.6957773, 48.9982488 ], [ 19.6958749, 48.998216 ], [ 19.6961271, 48.9982172 ], [ 19.6967629, 48.9983742 ], [ 19.6968504, 48.9983657 ], [ 19.6971064, 48.9982927 ], [ 19.6977523, 48.9980835 ], [ 19.6979053, 48.9980629 ], [ 19.6980623, 48.9980773 ], [ 19.6988364, 48.9982208 ], [ 19.6989721, 48.9982218 ], [ 19.6990787, 48.9982392 ], [ 19.6992252, 48.9982854 ], [ 19.6993252, 48.9983795 ], [ 19.6994152, 48.9985351 ], [ 19.6995275, 48.9986197 ], [ 19.6996896, 48.9986608 ], [ 19.7003737, 48.9986577 ], [ 19.7007633, 48.9986829 ], [ 19.7009543, 48.9987651 ], [ 19.7006533, 48.9990594 ], [ 19.7003969, 48.9995032 ], [ 19.7002169, 48.9998887 ], [ 19.6999717, 49.0001093 ], [ 19.6997707, 49.0003551 ], [ 19.6996197, 49.0005043 ], [ 19.6995603, 49.0006423 ], [ 19.6993974, 49.0009077 ], [ 19.6991763, 49.0011705 ], [ 19.6986182, 49.0015952 ], [ 19.6987024, 49.0016892 ], [ 19.698117, 49.0022667 ], [ 19.697819, 49.0027146 ], [ 19.6976028, 49.0029278 ], [ 19.6976822, 49.0031772 ], [ 19.6989876, 49.0032216 ], [ 19.7001775, 49.0030942 ], [ 19.7011871, 49.0034648 ], [ 19.7015924, 49.0037612 ], [ 19.701031, 49.0040115 ], [ 19.7007028, 49.0037082 ], [ 19.6994599, 49.0039132 ], [ 19.6976029, 49.003708 ], [ 19.6974989, 49.0033195 ], [ 19.6947253, 49.0040528 ], [ 19.695359, 49.0043862 ], [ 19.6928304, 49.0055451 ], [ 19.6899342, 49.0064378 ], [ 19.6898709, 49.0070142 ], [ 19.689461, 49.007108 ], [ 19.6894248, 49.0071349 ], [ 19.6885077, 49.0066512 ], [ 19.6888548, 49.006362 ], [ 19.6888723, 49.005934 ], [ 19.6888205, 49.0058906 ], [ 19.687697, 49.006133 ], [ 19.6862832, 49.0062139 ], [ 19.6849429, 49.0066157 ], [ 19.6841857, 49.0063194 ], [ 19.6817501, 49.0066787 ], [ 19.680303, 49.0073311 ], [ 19.6795378, 49.0071011 ], [ 19.6794935, 49.0071069 ], [ 19.6786697, 49.0045347 ], [ 19.6786679, 49.0045027 ], [ 19.6791089, 49.004163 ] ] ] } }
]
}
