{
"type": "FeatureCollection",
"name": "gis",
"crs": { "type": "name", "properties": { "name": "urn:ogc:def:crs:OGC:1.3:CRS84" } },
"features": [
{ "type": "Feature", "properties": { "@featureType": "CadastralParcel", "areaValue": { "value": 18371, "@uom": "m2" }, "beginLifespanVersion": { "@nilReason": "http://inspire.ec.europa.eu/codelist/VoidReasonValue/Unpopulated", "@nil": "true" }, "endLifespanVersion": { "@nilReason": "http://inspire.ec.europa.eu/codelist/VoidReasonValue/Unpopulated", "@nil": "true" }, "inspireId": { "@dataType": "Identifier", "localId": "830488_1875.E", "namespace": "SK.ESKN.CP", "versionId": "20260703T05:07:30" }, "label": "1875", "nationalCadastralReference": "830488_1875.E", "referencePoint": { "type": "Point", "coordinates": [ 18.28355135, 49.03263769 ] }, "validFrom": "2026-06-30T16:00:00Z", "validTo": { "@nilReason": "http://inspire.ec.europa.eu/codelist/VoidReasonValue/Unpopulated", "@nil": "true" }, "administrativeUnit": { "@href": "#auAdmUnitS.2114" } }, "geometry": { "type": "Polygon", "coordinates": [ [ [ 18.28268993, 49.03145104 ], [ 18.28272187, 49.03149454 ], [ 18.28274832, 49.0315306 ], [ 18.28277218, 49.03156336 ], [ 18.28279583, 49.03159565 ], [ 18.28281779, 49.03163146 ], [ 18.28283714, 49.03166306 ], [ 18.28288376, 49.03173916 ], [ 18.28295556, 49.03186 ], [ 18.28302736, 49.03198085 ], [ 18.28306322, 49.0320364 ], [ 18.28312011, 49.03212427 ], [ 18.28313423, 49.03214962 ], [ 18.28314578, 49.03217049 ], [ 18.28315344, 49.03218437 ], [ 18.28317698, 49.03222703 ], [ 18.2832012, 49.03227073 ], [ 18.28323349, 49.03231777 ], [ 18.28329093, 49.03240143 ], [ 18.28331024, 49.03243231 ], [ 18.2833394, 49.03247917 ], [ 18.28336811, 49.03252529 ], [ 18.28338728, 49.03255616 ], [ 18.28348432, 49.03271922 ], [ 18.28350142, 49.03274492 ], [ 18.28351485, 49.03276508 ], [ 18.2835433, 49.03280794 ], [ 18.28359095, 49.03287931 ], [ 18.28361057, 49.03287419 ], [ 18.28365365, 49.03294062 ], [ 18.28371252, 49.03303122 ], [ 18.2837492, 49.0330888 ], [ 18.28377964, 49.03313645 ], [ 18.28383239, 49.03321922 ], [ 18.28386586, 49.0332888 ], [ 18.28388118, 49.0333208 ], [ 18.28389805, 49.0333556 ], [ 18.28394262, 49.03344747 ], [ 18.28394467, 49.03345174 ], [ 18.28396562, 49.03351105 ], [ 18.28398821, 49.0335746 ], [ 18.28401431, 49.03364386 ], [ 18.28403831, 49.03371561 ], [ 18.28404638, 49.03378205 ], [ 18.2840743, 49.03387632 ], [ 18.28409262, 49.03394631 ], [ 18.28412571, 49.03407246 ], [ 18.28414735, 49.03412757 ], [ 18.2841773, 49.03420417 ], [ 18.28419041, 49.03422468 ], [ 18.28423182, 49.0342892 ], [ 18.28428357, 49.03435232 ], [ 18.28441177, 49.03446498 ], [ 18.28460373, 49.03460244 ], [ 18.28537414, 49.03513456 ], [ 18.28543567, 49.03517639 ], [ 18.28554192, 49.035248 ], [ 18.28561888, 49.03538619 ], [ 18.28571857, 49.03540707 ], [ 18.2859714, 49.03569246 ], [ 18.28651595, 49.03630714 ], [ 18.28654516, 49.03636737 ], [ 18.28657461, 49.03642788 ], [ 18.28658315, 49.03644551 ], [ 18.28660407, 49.0364883 ], [ 18.28661326, 49.03650515 ], [ 18.28663881, 49.03655235 ], [ 18.2866614, 49.03659388 ], [ 18.2867057, 49.03667527 ], [ 18.28675574, 49.03679046 ], [ 18.28676976, 49.03682293 ], [ 18.28679469, 49.0368812 ], [ 18.28684614, 49.03700143 ], [ 18.28685897, 49.03703149 ], [ 18.28689714, 49.03711876 ], [ 18.28691479, 49.0371592 ], [ 18.28692631, 49.03719189 ], [ 18.28695703, 49.03727846 ], [ 18.2870147, 49.03742775 ], [ 18.28706379, 49.03752294 ], [ 18.28708565, 49.03758474 ], [ 18.28711728, 49.0376738 ], [ 18.28713757, 49.03766348 ], [ 18.28723594, 49.03761343 ], [ 18.28714097, 49.0373512 ], [ 18.28712997, 49.03730608 ], [ 18.28710556, 49.03720588 ], [ 18.28710836, 49.0371508 ], [ 18.28707641, 49.03707363 ], [ 18.2870075, 49.03690737 ], [ 18.28695426, 49.03677882 ], [ 18.28703607, 49.03674941 ], [ 18.28699574, 49.03669442 ], [ 18.28688702, 49.03654604 ], [ 18.28686105, 49.03651046 ], [ 18.28668905, 49.03627566 ], [ 18.28666527, 49.03624327 ], [ 18.28661894, 49.03617964 ], [ 18.285998, 49.03550226 ], [ 18.28591293, 49.03541352 ], [ 18.28577145, 49.0352595 ], [ 18.28576997, 49.03525824 ], [ 18.28562803, 49.03513615 ], [ 18.28562136, 49.03513045 ], [ 18.28554111, 49.0350743 ], [ 18.2847381, 49.03451949 ], [ 18.28453662, 49.03436561 ], [ 18.28439381, 49.03414608 ], [ 18.28434622, 49.03402163 ], [ 18.28428907, 49.0338526 ], [ 18.28416197, 49.03350751 ], [ 18.28408624, 49.03330205 ], [ 18.2839631, 49.03308335 ], [ 18.28383126, 49.03288502 ], [ 18.28360729, 49.03254799 ], [ 18.28351891, 49.03240798 ], [ 18.28339922, 49.03221854 ], [ 18.28318824, 49.03188099 ], [ 18.28314861, 49.03181756 ], [ 18.28300026, 49.03157957 ], [ 18.28276181, 49.03119695 ], [ 18.28274913, 49.03117737 ], [ 18.28250279, 49.03079729 ], [ 18.2822673, 49.03043407 ], [ 18.28225662, 49.03041812 ], [ 18.28211585, 49.03020628 ], [ 18.28200007, 49.03003223 ], [ 18.28184133, 49.02977407 ], [ 18.28173544, 49.02962313 ], [ 18.281563, 49.02937737 ], [ 18.28150291, 49.02929618 ], [ 18.28147842, 49.02926303 ], [ 18.2814165, 49.02918949 ], [ 18.28138513, 49.02915225 ], [ 18.28130768, 49.02905265 ], [ 18.28128134, 49.02901885 ], [ 18.28124253, 49.02896919 ], [ 18.28116655, 49.02887202 ], [ 18.28115752, 49.02886122 ], [ 18.28111148, 49.028806 ], [ 18.28108499, 49.02877445 ], [ 18.28104225, 49.0287233 ], [ 18.28102028, 49.02869706 ], [ 18.2809412, 49.02861939 ], [ 18.2809069, 49.02858568 ], [ 18.28084162, 49.0285106 ], [ 18.28081022, 49.02847462 ], [ 18.28074692, 49.02840751 ], [ 18.2807093, 49.02836766 ], [ 18.28062244, 49.02829704 ], [ 18.28053545, 49.02822633 ], [ 18.28044622, 49.02815387 ], [ 18.28036777, 49.02809032 ], [ 18.28027896, 49.02801473 ], [ 18.28022275, 49.02796687 ], [ 18.28017267, 49.02792993 ], [ 18.28011081, 49.02787707 ], [ 18.28004647, 49.02782217 ], [ 18.28000259, 49.02778079 ], [ 18.27998346, 49.02776021 ], [ 18.27990669, 49.02767744 ], [ 18.27984509, 49.02761105 ], [ 18.27978245, 49.02753991 ], [ 18.27974934, 49.0275023 ], [ 18.2795551, 49.02757717 ], [ 18.27964234, 49.02766269 ], [ 18.27983181, 49.02783568 ], [ 18.27987927, 49.02787798 ], [ 18.27996339, 49.02795277 ], [ 18.2800307, 49.0280091 ], [ 18.28014978, 49.02810735 ], [ 18.28018165, 49.02813451 ], [ 18.28019943, 49.02814969 ], [ 18.28025351, 49.02819697 ], [ 18.28029345, 49.02823171 ], [ 18.28033928, 49.02827176 ], [ 18.28039171, 49.02831804 ], [ 18.28044464, 49.02836255 ], [ 18.28049658, 49.02840628 ], [ 18.28055299, 49.02845992 ], [ 18.28057572, 49.02848142 ], [ 18.2806435, 49.02854572 ], [ 18.28072676, 49.02864285 ], [ 18.28075033, 49.02866837 ], [ 18.28081504, 49.02873836 ], [ 18.28086672, 49.02879778 ], [ 18.28091373, 49.02885188 ], [ 18.28094357, 49.02888615 ], [ 18.28097918, 49.02892887 ], [ 18.28104633, 49.02900956 ], [ 18.28107445, 49.02904436 ], [ 18.28113925, 49.0291242 ], [ 18.28117078, 49.02916443 ], [ 18.28120526, 49.02920843 ], [ 18.28122815, 49.02923915 ], [ 18.28127858, 49.02930707 ], [ 18.28131012, 49.02935146 ], [ 18.28134419, 49.02939959 ], [ 18.28140525, 49.02948599 ], [ 18.2814527, 49.02955148 ], [ 18.28151398, 49.02963618 ], [ 18.28155561, 49.02969584 ], [ 18.28161512, 49.02978142 ], [ 18.28164772, 49.02982821 ], [ 18.28170831, 49.02991503 ], [ 18.28174261, 49.02996462 ], [ 18.28177703, 49.03001431 ], [ 18.28181725, 49.03007101 ], [ 18.28187602, 49.03015394 ], [ 18.28189412, 49.03017933 ], [ 18.28194585, 49.03025202 ], [ 18.2819639, 49.03027777 ], [ 18.28201538, 49.03035134 ], [ 18.28205264, 49.03040453 ], [ 18.28207683, 49.03044633 ], [ 18.2821017, 49.03048926 ], [ 18.2821361, 49.03054851 ], [ 18.28216678, 49.0306016 ], [ 18.28218146, 49.03062689 ], [ 18.28219537, 49.03065078 ], [ 18.28222214, 49.03069697 ], [ 18.28223503, 49.03071918 ], [ 18.2822562, 49.03075576 ], [ 18.28228049, 49.03079783 ], [ 18.28230615, 49.03084206 ], [ 18.2823261, 49.03087641 ], [ 18.28236408, 49.03094191 ], [ 18.28237943, 49.03096841 ], [ 18.28239657, 49.03099799 ], [ 18.28244675, 49.03108467 ], [ 18.28247106, 49.03112666 ], [ 18.28249818, 49.03117332 ], [ 18.2825273, 49.0312237 ], [ 18.28255161, 49.0312656 ], [ 18.28257946, 49.03130255 ], [ 18.28264078, 49.03138382 ], [ 18.28268993, 49.03145104 ] ] ] } }
]
}
