{
"type": "FeatureCollection",
"name": "gis",
"crs": { "type": "name", "properties": { "name": "urn:ogc:def:crs:OGC:1.3:CRS84" } },
"features": [
{ "type": "Feature", "properties": { "@featureType": "CadastralZoning", "beginLifespanVersion": { "@nilReason": "http://inspire.ec.europa.eu/codelist/VoidReasonValue/Unpopulated", "@nil": "true" }, "endLifespanVersion": { "@nilReason": "http://inspire.ec.europa.eu/codelist/VoidReasonValue/Unpopulated", "@nil": "true" }, "estimatedAccuracy": { "value": -1, "@uom": "m" }, "inspireId": { "@dataType": "Identifier", "localId": "858498", "namespace": "SK.ESKN.CP", "versionId": "20260703T04:07:40" }, "label": "Starňa", "level": { "@href": "http://inspire.ec.europa.eu/codelist/CadastralZoningLevelValue/3rdOrder" }, "levelName": { "value": "Katastrálne územie", "@locale": "sk" }, "name": { "@dataType": "name", "GeographicalName": { "@dataType": "GeographicalName", "language": "SLK", "nativeness": { "@href": "http://inspire.ec.europa.eu/codelist/NativenessValue/endonym", "@title": "endonym" }, "nameStatus": { "@href": "http://inspire.ec.europa.eu/codelist/NameStatusValue/official", "@title": "official" }, "sourceOfName": { "@nilReason": "http://inspire.ec.europa.eu/codelist/VoidReasonValue/Unpopulated", "@nil": "true" }, "pronunciation": { "@dataType": "pronunciation", "@nilReason": "http://inspire.ec.europa.eu/codelist/VoidReasonValue/Unpopulated", "@nil": "true" }, "spelling": { "@dataType": "SpellingOfName", "text": "Starňa", "script": "LATN" } } }, "nationalCadastalZoningReference": "858498", "validFrom": "2026-06-30T16:00:00Z", "validTo": { "@nilReason": "http://inspire.ec.europa.eu/codelist/VoidReasonValue/Unpopulated", "@nil": "true" } }, "geometry": { "type": "MultiPolygon", "coordinates": [ [ [ [ 20.3300988, 48.4489046 ], [ 20.33121679, 48.44871736 ], [ 20.33166569, 48.44864583 ], [ 20.33196528, 48.44859494 ], [ 20.33290071, 48.44844433 ], [ 20.33327405, 48.44833595 ], [ 20.3333407, 48.44831423 ], [ 20.33348161, 48.44826749 ], [ 20.33408197, 48.44805736 ], [ 20.33420364, 48.44801383 ], [ 20.33464509, 48.44786091 ], [ 20.33502314, 48.44773587 ], [ 20.33549644, 48.44767924 ], [ 20.3359799, 48.44762408 ], [ 20.336971, 48.44750517 ], [ 20.33723852, 48.44747229 ], [ 20.33772993, 48.44746501 ], [ 20.33797523, 48.44743072 ], [ 20.33822297, 48.44739643 ], [ 20.33830974, 48.44739379 ], [ 20.33855345, 48.44741737 ], [ 20.33863776, 48.44741643 ], [ 20.33870466, 48.44740571 ], [ 20.33900296, 48.44743529 ], [ 20.33908771, 48.44745095 ], [ 20.3392644, 48.44748353 ], [ 20.33932978, 48.44754221 ], [ 20.3394095, 48.44756109 ], [ 20.33955891, 48.44758675 ], [ 20.33957051, 48.44758874 ], [ 20.33958946, 48.447592 ], [ 20.33962601, 48.44759829 ], [ 20.33970553, 48.44760257 ], [ 20.3397159, 48.44760315 ], [ 20.33972629, 48.44760365 ], [ 20.33973693, 48.44760425 ], [ 20.33987941, 48.44761179 ], [ 20.34006637, 48.44753882 ], [ 20.34010647, 48.44752327 ], [ 20.34029448, 48.44748143 ], [ 20.34034654, 48.44747913 ], [ 20.34041926, 48.44749297 ], [ 20.34045363, 48.44749944 ], [ 20.34049064, 48.44748368 ], [ 20.34055411, 48.44745652 ], [ 20.34071528, 48.44738732 ], [ 20.34082605, 48.44733975 ], [ 20.34113879, 48.44733611 ], [ 20.34120362, 48.44735188 ], [ 20.3413121, 48.44738405 ], [ 20.34141807, 48.44741549 ], [ 20.34161362, 48.44738177 ], [ 20.34167261, 48.44733939 ], [ 20.34171179, 48.44731127 ], [ 20.34183338, 48.44731458 ], [ 20.34196509, 48.44731819 ], [ 20.34201457, 48.44731463 ], [ 20.34209278, 48.44730912 ], [ 20.34213121, 48.44730639 ], [ 20.34226547, 48.44731803 ], [ 20.34236416, 48.44727395 ], [ 20.34240831, 48.44725703 ], [ 20.34251091, 48.44721761 ], [ 20.34255117, 48.44720648 ], [ 20.3427173, 48.44716071 ], [ 20.34274957, 48.44715872 ], [ 20.34300458, 48.44719706 ], [ 20.34351594, 48.44727369 ], [ 20.3436722, 48.44726627 ], [ 20.34406658, 48.44724743 ], [ 20.34416138, 48.44728267 ], [ 20.34419444, 48.44732855 ], [ 20.34424304, 48.44740865 ], [ 20.3442791, 48.44746808 ], [ 20.34429827, 48.44749955 ], [ 20.34432879, 48.44754966 ], [ 20.34433162, 48.44755437 ], [ 20.34436256, 48.44760594 ], [ 20.34440022, 48.44763029 ], [ 20.34447286, 48.44767736 ], [ 20.34467793, 48.44769996 ], [ 20.34471655, 48.44770426 ], [ 20.34473622, 48.44771467 ], [ 20.34477168, 48.44773335 ], [ 20.34504741, 48.44790366 ], [ 20.34530262, 48.44786758 ], [ 20.34536978, 48.4478784 ], [ 20.34559414, 48.44794184 ], [ 20.34567005, 48.44802859 ], [ 20.34572976, 48.44803948 ], [ 20.34579486, 48.44804445 ], [ 20.34581221, 48.44804585 ], [ 20.34588014, 48.44805102 ], [ 20.34595345, 48.44805668 ], [ 20.34611391, 48.4480769 ], [ 20.34615744, 48.44808238 ], [ 20.34622198, 48.44807832 ], [ 20.34635859, 48.44804951 ], [ 20.34636025, 48.44804912 ], [ 20.34637915, 48.44804518 ], [ 20.34644069, 48.44803226 ], [ 20.34644869, 48.44803059 ], [ 20.34645104, 48.44803005 ], [ 20.34645449, 48.44802937 ], [ 20.34650168, 48.44802554 ], [ 20.34655301, 48.44803015 ], [ 20.34659855, 48.44803427 ], [ 20.34744796, 48.4482475 ], [ 20.34751831, 48.44826529 ], [ 20.3475607, 48.44827595 ], [ 20.34759848, 48.44828526 ], [ 20.34765535, 48.44829919 ], [ 20.34776245, 48.44832553 ], [ 20.34777742, 48.44832927 ], [ 20.34778829, 48.44833195 ], [ 20.34797135, 48.44837692 ], [ 20.34803007, 48.44839138 ], [ 20.34813029, 48.44841592 ], [ 20.3482543, 48.44842859 ], [ 20.34831874, 48.44842579 ], [ 20.34837442, 48.44841327 ], [ 20.34857986, 48.44835326 ], [ 20.34866201, 48.44832773 ], [ 20.34870838, 48.44831332 ], [ 20.3489998, 48.44822278 ], [ 20.3493253, 48.4482388 ], [ 20.34946356, 48.44823266 ], [ 20.34958578, 48.44822734 ], [ 20.34969268, 48.44822213 ], [ 20.34994305, 48.44821171 ], [ 20.35028297, 48.44819784 ], [ 20.35041533, 48.44821264 ], [ 20.35049686, 48.44822176 ], [ 20.35059102, 48.4482075 ], [ 20.35070491, 48.44817978 ], [ 20.35084814, 48.448145 ], [ 20.35092734, 48.44808214 ], [ 20.35093753, 48.44807406 ], [ 20.35102022, 48.44800855 ], [ 20.35103172, 48.44799944 ], [ 20.35106377, 48.44797384 ], [ 20.35158639, 48.44789664 ], [ 20.35169838, 48.44791514 ], [ 20.35178058, 48.44792907 ], [ 20.35197131, 48.44790533 ], [ 20.35216383, 48.44794895 ], [ 20.35227778, 48.44797447 ], [ 20.35269775, 48.44792038 ], [ 20.35306813, 48.44787264 ], [ 20.35331968, 48.44792424 ], [ 20.35334101, 48.44793886 ], [ 20.35342011, 48.44799248 ], [ 20.35351721, 48.44800788 ], [ 20.35361104, 48.44798199 ], [ 20.3536957, 48.44795249 ], [ 20.35380366, 48.44791525 ], [ 20.35403626, 48.44795737 ], [ 20.35408692, 48.44796655 ], [ 20.35415476, 48.44797893 ], [ 20.35420181, 48.44797058 ], [ 20.35423661, 48.44796436 ], [ 20.35436265, 48.44794179 ], [ 20.35440083, 48.44797112 ], [ 20.35445818, 48.44801507 ], [ 20.35455284, 48.44802884 ], [ 20.35457357, 48.44804569 ], [ 20.35464092, 48.44810056 ], [ 20.35470306, 48.44810848 ], [ 20.35477413, 48.44808575 ], [ 20.35484167, 48.44805531 ], [ 20.35490119, 48.44802844 ], [ 20.35497039, 48.44806077 ], [ 20.35504414, 48.44809527 ], [ 20.35512591, 48.44809242 ], [ 20.35514392, 48.4480678 ], [ 20.3551952, 48.44799754 ], [ 20.35520568, 48.44798308 ], [ 20.35523296, 48.44798243 ], [ 20.35527053, 48.4480002 ], [ 20.35531785, 48.44802259 ], [ 20.35557362, 48.4480093 ], [ 20.35575482, 48.44799996 ], [ 20.35577947, 48.44800614 ], [ 20.35581008, 48.44801373 ], [ 20.3558843, 48.4480322 ], [ 20.35605896, 48.44801864 ], [ 20.35631804, 48.44799845 ], [ 20.35642685, 48.44801314 ], [ 20.35658224, 48.44803405 ], [ 20.35660194, 48.44805788 ], [ 20.3566225, 48.44808283 ], [ 20.35664819, 48.44810031 ], [ 20.35692847, 48.44809149 ], [ 20.35694167, 48.44807083 ], [ 20.35694874, 48.44805967 ], [ 20.35696107, 48.44803339 ], [ 20.35696487, 48.44802561 ], [ 20.35699677, 48.44796009 ], [ 20.35701004, 48.44793241 ], [ 20.35709397, 48.44775711 ], [ 20.35715568, 48.44762825 ], [ 20.35736251, 48.44719646 ], [ 20.35781229, 48.44625771 ], [ 20.35770682, 48.44618505 ], [ 20.35757211, 48.44609232 ], [ 20.35755679, 48.44608173 ], [ 20.35694531, 48.44566053 ], [ 20.35679771, 48.44555884 ], [ 20.35460024, 48.44404486 ], [ 20.3540563, 48.44366917 ], [ 20.35459199, 48.44372453 ], [ 20.35590742, 48.44384106 ], [ 20.35599853, 48.44384893 ], [ 20.35604453, 48.44385406 ], [ 20.35658613, 48.4439146 ], [ 20.35706101, 48.44400407 ], [ 20.35812704, 48.44423286 ], [ 20.35925969, 48.44446179 ], [ 20.35967825, 48.44454654 ], [ 20.3598899, 48.4445882 ], [ 20.3614686, 48.44490059 ], [ 20.36163956, 48.44492453 ], [ 20.36181385, 48.44494896 ], [ 20.36393053, 48.44517087 ], [ 20.36438131, 48.44516794 ], [ 20.36486683, 48.44507463 ], [ 20.36498505, 48.44495427 ], [ 20.36616883, 48.444746 ], [ 20.36711589, 48.44457944 ], [ 20.3688993, 48.44444786 ], [ 20.36907403, 48.444435 ], [ 20.36976135, 48.44438428 ], [ 20.37144241, 48.44415031 ], [ 20.37152382, 48.44413923 ], [ 20.37219928, 48.44404759 ], [ 20.37244257, 48.4440218 ], [ 20.37248371, 48.44401745 ], [ 20.37312707, 48.44394924 ], [ 20.3739443, 48.44389786 ], [ 20.37539202, 48.44378587 ], [ 20.37562773, 48.44376771 ], [ 20.37627014, 48.443718 ], [ 20.37664899, 48.44370124 ], [ 20.37696198, 48.44358607 ], [ 20.37750275, 48.44330197 ], [ 20.37802733, 48.44302642 ], [ 20.37895476, 48.44252927 ], [ 20.37903407, 48.44248639 ], [ 20.37959117, 48.44218562 ], [ 20.3799139, 48.44208117 ], [ 20.38018146, 48.4419945 ], [ 20.38049625, 48.44188948 ], [ 20.3806858, 48.44182619 ], [ 20.38072931, 48.44181165 ], [ 20.38069394, 48.44176713 ], [ 20.38068661, 48.44174414 ], [ 20.38017281, 48.44167074 ], [ 20.37978343, 48.44160206 ], [ 20.37907416, 48.44137801 ], [ 20.37852315, 48.44108919 ], [ 20.37830853, 48.44093448 ], [ 20.37793894, 48.44060268 ], [ 20.37716703, 48.44027602 ], [ 20.37715163, 48.44026947 ], [ 20.37714379, 48.4402662 ], [ 20.37712142, 48.44024641 ], [ 20.37710696, 48.44023378 ], [ 20.37703619, 48.4401713 ], [ 20.37666722, 48.43984493 ], [ 20.37664837, 48.43982825 ], [ 20.37642153, 48.43941882 ], [ 20.37625571, 48.43911978 ], [ 20.37616741, 48.43896077 ], [ 20.37598854, 48.43794147 ], [ 20.37598532, 48.43792261 ], [ 20.37597505, 48.43786509 ], [ 20.37596304, 48.4377966 ], [ 20.37594507, 48.43769564 ], [ 20.37594044, 48.4376696 ], [ 20.37591189, 48.43750705 ], [ 20.37591762, 48.43747862 ], [ 20.37592791, 48.43742767 ], [ 20.3759483, 48.4373262 ], [ 20.37609188, 48.43711509 ], [ 20.37610867, 48.43709034 ], [ 20.37614083, 48.43704303 ], [ 20.37614468, 48.43703768 ], [ 20.37615447, 48.43702328 ], [ 20.37622424, 48.43692076 ], [ 20.37657853, 48.4363997 ], [ 20.37671132, 48.4360798 ], [ 20.37671632, 48.43606747 ], [ 20.37672825, 48.43603793 ], [ 20.37674344, 48.4360005 ], [ 20.37675987, 48.43596122 ], [ 20.37676484, 48.43595241 ], [ 20.37678574, 48.43591475 ], [ 20.37682943, 48.43583635 ], [ 20.37685741, 48.43578581 ], [ 20.37686415, 48.43577373 ], [ 20.37688604, 48.43573394 ], [ 20.37689375, 48.4357201 ], [ 20.37690223, 48.4357052 ], [ 20.37692967, 48.43565617 ], [ 20.37697797, 48.43550651 ], [ 20.37710894, 48.43510058 ], [ 20.3770879, 48.43504247 ], [ 20.37706902, 48.43499057 ], [ 20.37699421, 48.43478865 ], [ 20.37693982, 48.43464132 ], [ 20.37692719, 48.43444686 ], [ 20.37690577, 48.43410368 ], [ 20.37684058, 48.43346862 ], [ 20.37685644, 48.43298417 ], [ 20.3768676, 48.43264622 ], [ 20.37662255, 48.43262772 ], [ 20.3759009, 48.4325729 ], [ 20.37487039, 48.43266413 ], [ 20.37457125, 48.43269451 ], [ 20.37417001, 48.43274058 ], [ 20.37376157, 48.43277609 ], [ 20.3733931, 48.43280811 ], [ 20.37215986, 48.43287992 ], [ 20.37148437, 48.4329102 ], [ 20.37110369, 48.43292552 ], [ 20.37042549, 48.43294795 ], [ 20.37004691, 48.43295785 ], [ 20.3695426, 48.43299197 ], [ 20.36876496, 48.43304611 ], [ 20.36822524, 48.43313678 ], [ 20.36818469, 48.43314367 ], [ 20.36793913, 48.43318513 ], [ 20.36789578, 48.43318705 ], [ 20.36671736, 48.43324012 ], [ 20.36663622, 48.43324373 ], [ 20.3663585, 48.43325663 ], [ 20.36565199, 48.43322522 ], [ 20.36517822, 48.43323213 ], [ 20.36472994, 48.43323868 ], [ 20.36447341, 48.43325691 ], [ 20.36376324, 48.43330733 ], [ 20.36359636, 48.43331913 ], [ 20.36276534, 48.43336584 ], [ 20.36253556, 48.43337547 ], [ 20.36146171, 48.43342156 ], [ 20.36056577, 48.43343203 ], [ 20.36039392, 48.43343418 ], [ 20.35969696, 48.43350824 ], [ 20.35918135, 48.43353206 ], [ 20.35914003, 48.43353396 ], [ 20.3590412, 48.43353859 ], [ 20.3589871, 48.43354108 ], [ 20.35870039, 48.43355452 ], [ 20.35839492, 48.43356741 ], [ 20.3577532, 48.43359505 ], [ 20.35738392, 48.43361608 ], [ 20.35663827, 48.43365868 ], [ 20.35582428, 48.43370555 ], [ 20.35509273, 48.4337541 ], [ 20.35492436, 48.43375808 ], [ 20.35463768, 48.43375584 ], [ 20.35433837, 48.433754 ], [ 20.35387631, 48.43375078 ], [ 20.35371434, 48.4337806 ], [ 20.35326252, 48.43370408 ], [ 20.35308961, 48.43367518 ], [ 20.35277201, 48.43367956 ], [ 20.35227292, 48.43368651 ], [ 20.35185907, 48.43369237 ], [ 20.35177461, 48.43369367 ], [ 20.351559, 48.43367761 ], [ 20.35128635, 48.43362671 ], [ 20.35087162, 48.43359028 ], [ 20.3508405, 48.43358852 ], [ 20.35078001, 48.43358517 ], [ 20.35077274, 48.43358471 ], [ 20.35060567, 48.4335755 ], [ 20.34989311, 48.43353582 ], [ 20.34820182, 48.43345356 ], [ 20.34813234, 48.4332694 ], [ 20.34734596, 48.43325017 ], [ 20.34726301, 48.4332482 ], [ 20.34725437, 48.43324795 ], [ 20.34725004, 48.43324787 ], [ 20.34721168, 48.43324691 ], [ 20.34720235, 48.43324673 ], [ 20.34717466, 48.43324601 ], [ 20.34716197, 48.4332457 ], [ 20.34702187, 48.4332423 ], [ 20.3469192, 48.43324595 ], [ 20.34563097, 48.43329407 ], [ 20.34556035, 48.43329969 ], [ 20.34501745, 48.43334274 ], [ 20.34462289, 48.4333741 ], [ 20.34432676, 48.43339759 ], [ 20.34411884, 48.43341415 ], [ 20.34364178, 48.43345211 ], [ 20.34320644, 48.43348673 ], [ 20.34298339, 48.43350442 ], [ 20.34282962, 48.43344274 ], [ 20.34185495, 48.43353369 ], [ 20.34178505, 48.43354024 ], [ 20.34177973, 48.43354075 ], [ 20.34171051, 48.43354724 ], [ 20.34144719, 48.43357182 ], [ 20.34138767, 48.43357742 ], [ 20.34137113, 48.43357912 ], [ 20.34045198, 48.43367601 ], [ 20.33981871, 48.4337428 ], [ 20.33975366, 48.43374963 ], [ 20.33779625, 48.43388151 ], [ 20.33730784, 48.43391449 ], [ 20.33605486, 48.43393261 ], [ 20.33602991, 48.43393299 ], [ 20.3359853, 48.43393377 ], [ 20.33594788, 48.43393438 ], [ 20.33593161, 48.43393464 ], [ 20.33589975, 48.4339352 ], [ 20.33488264, 48.43394983 ], [ 20.33460515, 48.43395384 ], [ 20.33459458, 48.43395397 ], [ 20.33456774, 48.43395436 ], [ 20.33452029, 48.43395502 ], [ 20.33439923, 48.43395686 ], [ 20.33437551, 48.4339572 ], [ 20.33435707, 48.43395747 ], [ 20.33405802, 48.43396189 ], [ 20.33313887, 48.43390061 ], [ 20.33277397, 48.43387642 ], [ 20.33038273, 48.43376803 ], [ 20.32870709, 48.4336542 ], [ 20.32856417, 48.43364446 ], [ 20.32824052, 48.43362232 ], [ 20.32811348, 48.43361365 ], [ 20.32797382, 48.43360385 ], [ 20.32795391, 48.43360235 ], [ 20.32793991, 48.43360144 ], [ 20.32792995, 48.43360078 ], [ 20.32790942, 48.43360033 ], [ 20.32786956, 48.4335994 ], [ 20.32774831, 48.43359573 ], [ 20.32771469, 48.43359469 ], [ 20.32765379, 48.43359284 ], [ 20.32764704, 48.43359267 ], [ 20.32757747, 48.43359084 ], [ 20.32755087, 48.43359007 ], [ 20.32749589, 48.43358864 ], [ 20.32748388, 48.43358826 ], [ 20.32742662, 48.43358664 ], [ 20.32738705, 48.43358554 ], [ 20.3273861, 48.43358551 ], [ 20.32734626, 48.43358439 ], [ 20.32619906, 48.43355151 ], [ 20.32531642, 48.43353213 ], [ 20.32455393, 48.43349683 ], [ 20.32452117, 48.43349528 ], [ 20.32450081, 48.4334943 ], [ 20.32445279, 48.43352746 ], [ 20.32437794, 48.43357931 ], [ 20.32432589, 48.43366862 ], [ 20.32436339, 48.43372523 ], [ 20.32437088, 48.4337722 ], [ 20.32436167, 48.43378904 ], [ 20.3243363, 48.43383553 ], [ 20.32429277, 48.43384238 ], [ 20.32409707, 48.43386155 ], [ 20.32403242, 48.4338929 ], [ 20.32394929, 48.43393721 ], [ 20.32391275, 48.43395848 ], [ 20.32389412, 48.43397928 ], [ 20.32386378, 48.43402071 ], [ 20.32384204, 48.43404148 ], [ 20.32382871, 48.43404978 ], [ 20.32374088, 48.43410445 ], [ 20.32374931, 48.43424164 ], [ 20.32376001, 48.43429512 ], [ 20.32381977, 48.43435567 ], [ 20.32398389, 48.43437057 ], [ 20.32423367, 48.43437235 ], [ 20.32435626, 48.43441599 ], [ 20.32452954, 48.43438251 ], [ 20.32460784, 48.43442477 ], [ 20.32458982, 48.43449992 ], [ 20.32455549, 48.43464147 ], [ 20.32455003, 48.43466342 ], [ 20.32449716, 48.43465801 ], [ 20.32444749, 48.43465471 ], [ 20.32440084, 48.43466325 ], [ 20.32434185, 48.43467652 ], [ 20.32429222, 48.43468962 ], [ 20.32424323, 48.43472302 ], [ 20.32421896, 48.43474792 ], [ 20.32420416, 48.43479122 ], [ 20.32419803, 48.43482224 ], [ 20.32420176, 48.43483662 ], [ 20.32423298, 48.43486478 ], [ 20.32426111, 48.43489427 ], [ 20.3242678, 48.4349012 ], [ 20.32428084, 48.43491756 ], [ 20.32426923, 48.43495234 ], [ 20.32426053, 48.43498948 ], [ 20.32425632, 48.43501715 ], [ 20.32427497, 48.4350359 ], [ 20.32431833, 48.43507373 ], [ 20.32444205, 48.43503425 ], [ 20.32451972, 48.4350164 ], [ 20.32456503, 48.43500619 ], [ 20.32462909, 48.43499987 ], [ 20.32468373, 48.43501436 ], [ 20.32472423, 48.4350309 ], [ 20.32474891, 48.43504728 ], [ 20.32485953, 48.43512072 ], [ 20.32487006, 48.4351378 ], [ 20.32491687, 48.43521315 ], [ 20.32493865, 48.43524238 ], [ 20.32495149, 48.43525947 ], [ 20.32493079, 48.43532352 ], [ 20.32488493, 48.43533236 ], [ 20.324671, 48.4353737 ], [ 20.32448608, 48.43543916 ], [ 20.32426237, 48.43544273 ], [ 20.32415156, 48.43547857 ], [ 20.32413414, 48.43549023 ], [ 20.323979, 48.43559397 ], [ 20.32394492, 48.43572814 ], [ 20.32394453, 48.43572947 ], [ 20.32386541, 48.43583097 ], [ 20.32378693, 48.43587627 ], [ 20.32360168, 48.43590108 ], [ 20.32348831, 48.43597808 ], [ 20.32344379, 48.43600841 ], [ 20.32333227, 48.43603692 ], [ 20.3231718, 48.43609379 ], [ 20.32314594, 48.43610295 ], [ 20.32311755, 48.43611013 ], [ 20.32311589, 48.43611051 ], [ 20.32300066, 48.43613969 ], [ 20.32296557, 48.43614759 ], [ 20.32296674, 48.43642324 ], [ 20.32297594, 48.43705319 ], [ 20.32297712, 48.43713306 ], [ 20.32298043, 48.43735708 ], [ 20.32298253, 48.43750465 ], [ 20.32298438, 48.43763203 ], [ 20.32294367, 48.43763764 ], [ 20.32294398, 48.43770135 ], [ 20.32294435, 48.43776443 ], [ 20.32295968, 48.44050655 ], [ 20.32310785, 48.44048479 ], [ 20.32321924, 48.44045628 ], [ 20.32328892, 48.44041567 ], [ 20.32335646, 48.44041751 ], [ 20.32342006, 48.44043622 ], [ 20.32349871, 48.4404839 ], [ 20.32355376, 48.44060841 ], [ 20.32357119, 48.44073568 ], [ 20.32350931, 48.44081524 ], [ 20.32341026, 48.44089244 ], [ 20.3233027, 48.44089913 ], [ 20.32320648, 48.44093977 ], [ 20.32319627, 48.44100613 ], [ 20.3233412, 48.44115389 ], [ 20.32348744, 48.44120585 ], [ 20.32346214, 48.44125765 ], [ 20.32330658, 48.44130624 ], [ 20.32318136, 48.44135476 ], [ 20.32314499, 48.44140919 ], [ 20.32310218, 48.44150571 ], [ 20.32315904, 48.44155173 ], [ 20.3233375, 48.44153197 ], [ 20.3234305, 48.44153535 ], [ 20.32352786, 48.44156592 ], [ 20.32357406, 48.44163134 ], [ 20.32351314, 48.44176725 ], [ 20.32341537, 48.44189883 ], [ 20.32342808, 48.44198456 ], [ 20.32354344, 48.44214224 ], [ 20.32348442, 48.4421848 ], [ 20.32337519, 48.44212772 ], [ 20.32321127, 48.44211021 ], [ 20.32308424, 48.4421073 ], [ 20.3230694, 48.44211429 ], [ 20.32299241, 48.44215037 ], [ 20.32276875, 48.44251675 ], [ 20.3226429, 48.44253569 ], [ 20.32258385, 48.4425786 ], [ 20.32250173, 48.44276125 ], [ 20.32254523, 48.4428663 ], [ 20.32267299, 48.44295266 ], [ 20.32290926, 48.44304013 ], [ 20.32293738, 48.44312313 ], [ 20.32307382, 48.44325831 ], [ 20.32321008, 48.44335726 ], [ 20.32323715, 48.44340328 ], [ 20.32325972, 48.4434375 ], [ 20.32341862, 48.44355293 ], [ 20.32350251, 48.44364244 ], [ 20.32369531, 48.44362739 ], [ 20.32386057, 48.44369874 ], [ 20.32397258, 48.44369691 ], [ 20.32403898, 48.44368105 ], [ 20.32416806, 48.443618 ], [ 20.32429071, 48.44361848 ], [ 20.32418309, 48.4434483 ], [ 20.32419548, 48.44343843 ], [ 20.32436649, 48.44330098 ], [ 20.32439351, 48.44316564 ], [ 20.32475707, 48.44309394 ], [ 20.32485085, 48.44313437 ], [ 20.32489345, 48.44320235 ], [ 20.32482748, 48.44326229 ], [ 20.32487689, 48.44330829 ], [ 20.32493706, 48.44334146 ], [ 20.32503387, 48.44334769 ], [ 20.32505883, 48.44333794 ], [ 20.32509333, 48.44332452 ], [ 20.32513018, 48.44333353 ], [ 20.32543719, 48.44340818 ], [ 20.32562935, 48.44351815 ], [ 20.32564033, 48.4436894 ], [ 20.32570318, 48.44385287 ], [ 20.32586199, 48.44399549 ], [ 20.32597989, 48.44431266 ], [ 20.32573512, 48.44435325 ], [ 20.32567008, 48.44445467 ], [ 20.32564594, 48.44455292 ], [ 20.32567031, 48.44466316 ], [ 20.32575709, 48.44471845 ], [ 20.32589434, 48.44468707 ], [ 20.32604935, 48.44462323 ], [ 20.32635859, 48.44499402 ], [ 20.32638362, 48.4450387 ], [ 20.32639191, 48.44505362 ], [ 20.32640341, 48.44507362 ], [ 20.32641378, 48.44509268 ], [ 20.32654367, 48.4453249 ], [ 20.3263843, 48.44554047 ], [ 20.32595421, 48.44582183 ], [ 20.32574334, 48.4460852 ], [ 20.32570698, 48.44615937 ], [ 20.32565726, 48.44626058 ], [ 20.32559075, 48.44645041 ], [ 20.32576537, 48.44663177 ], [ 20.32575977, 48.44673021 ], [ 20.32607396, 48.44697794 ], [ 20.32606609, 48.44700403 ], [ 20.32604942, 48.44705932 ], [ 20.32596492, 48.44712196 ], [ 20.32583177, 48.44716819 ], [ 20.3258457, 48.44728307 ], [ 20.32585242, 48.44730513 ], [ 20.32598489, 48.44774224 ], [ 20.32604548, 48.44779678 ], [ 20.32617029, 48.44790897 ], [ 20.32644951, 48.44809596 ], [ 20.32649795, 48.44810254 ], [ 20.32655808, 48.44810409 ], [ 20.32672324, 48.44818273 ], [ 20.32695048, 48.44839236 ], [ 20.32711151, 48.44844894 ], [ 20.32729301, 48.44856183 ], [ 20.3274305, 48.44864262 ], [ 20.32749589, 48.44868113 ], [ 20.32755417, 48.44864386 ], [ 20.32770163, 48.44860279 ], [ 20.32772511, 48.44859911 ], [ 20.32791541, 48.44861567 ], [ 20.32799676, 48.44863913 ], [ 20.32808569, 48.44866865 ], [ 20.32817134, 48.44867714 ], [ 20.32850722, 48.44871984 ], [ 20.32867436, 48.4486981 ], [ 20.32875056, 48.44873541 ], [ 20.32889956, 48.44880846 ], [ 20.32908363, 48.44876386 ], [ 20.32915927, 48.44874772 ], [ 20.32920761, 48.44878142 ], [ 20.32924231, 48.44880557 ], [ 20.32928275, 48.44880616 ], [ 20.32946858, 48.44880902 ], [ 20.32951813, 48.44884133 ], [ 20.32953888, 48.44885475 ], [ 20.32965109, 48.44892428 ], [ 20.32968499, 48.44894525 ], [ 20.32970547, 48.44896633 ], [ 20.3300988, 48.4489046 ] ] ] ] } }
]
}
