{
"type": "FeatureCollection",
"name": "gis",
"crs": { "type": "name", "properties": { "name": "urn:ogc:def:crs:OGC:1.3:CRS84" } },
"features": [
{ "type": "Feature", "properties": { "@featureType": "CadastralParcel", "areaValue": { "value": 32, "@uom": "m2" }, "beginLifespanVersion": { "@nilReason": "http://inspire.ec.europa.eu/codelist/VoidReasonValue/Unpopulated", "@nil": "true" }, "endLifespanVersion": { "@nilReason": "http://inspire.ec.europa.eu/codelist/VoidReasonValue/Unpopulated", "@nil": "true" }, "inspireId": { "@dataType": "Identifier", "localId": "843385_22.C", "namespace": "SK.ESKN.CP", "versionId": "20260703T07:07:07" }, "label": "22", "nationalCadastralReference": "843385_22.C", "referencePoint": { "type": "Point", "coordinates": [ 19.65493958, 49.07295652 ] }, "validFrom": "2026-06-30T16:00:00Z", "validTo": { "@nilReason": "http://inspire.ec.europa.eu/codelist/VoidReasonValue/Unpopulated", "@nil": "true" }, "administrativeUnit": { "@href": "#auAdmUnitS.2758" } }, "geometry": { "type": "Polygon", "coordinates": [ [ [ 19.65500001, 49.07296182 ], [ 19.65498108, 49.07292718 ], [ 19.65487914, 49.07295121 ], [ 19.65489807, 49.07298585 ], [ 19.65500001, 49.07296182 ] ] ] } },
{ "type": "Feature", "properties": { "@featureType": "CadastralParcel", "areaValue": { "value": 241, "@uom": "m2" }, "beginLifespanVersion": { "@nilReason": "http://inspire.ec.europa.eu/codelist/VoidReasonValue/Unpopulated", "@nil": "true" }, "endLifespanVersion": { "@nilReason": "http://inspire.ec.europa.eu/codelist/VoidReasonValue/Unpopulated", "@nil": "true" }, "inspireId": { "@dataType": "Identifier", "localId": "802573_103.C", "namespace": "SK.ESKN.CP", "versionId": "20260703T07:07:23" }, "label": "103", "nationalCadastralReference": "802573_103.C", "referencePoint": { "type": "Point", "coordinates": [ 19.68102972, 49.07577764 ] }, "validFrom": "2026-06-30T16:00:00Z", "validTo": { "@nilReason": "http://inspire.ec.europa.eu/codelist/VoidReasonValue/Unpopulated", "@nil": "true" }, "administrativeUnit": { "@href": "#auAdmUnitS.1509" } }, "geometry": { "type": "Polygon", "coordinates": [ [ [ 19.68099912, 49.07588073 ], [ 19.68102804, 49.07587164 ], [ 19.68114399, 49.07583532 ], [ 19.6811097, 49.07579369 ], [ 19.68111417, 49.07578361 ], [ 19.68125998, 49.07574635 ], [ 19.68125123, 49.07572875 ], [ 19.6812472, 49.07571713 ], [ 19.68123133, 49.07568731 ], [ 19.68122966, 49.0756849 ], [ 19.68091742, 49.07577166 ], [ 19.68096518, 49.07583569 ], [ 19.68099912, 49.07588073 ] ] ] } },
{ "type": "Feature", "properties": { "@featureType": "CadastralParcel", "areaValue": { "value": 35, "@uom": "m2" }, "beginLifespanVersion": { "@nilReason": "http://inspire.ec.europa.eu/codelist/VoidReasonValue/Unpopulated", "@nil": "true" }, "endLifespanVersion": { "@nilReason": "http://inspire.ec.europa.eu/codelist/VoidReasonValue/Unpopulated", "@nil": "true" }, "inspireId": { "@dataType": "Identifier", "localId": "802573_106.C", "namespace": "SK.ESKN.CP", "versionId": "20260703T07:07:23" }, "label": "106", "nationalCadastralReference": "802573_106.C", "referencePoint": { "type": "Point", "coordinates": [ 19.68183871, 49.07554259 ] }, "validFrom": "2026-06-30T16:00:00Z", "validTo": { "@nilReason": "http://inspire.ec.europa.eu/codelist/VoidReasonValue/Unpopulated", "@nil": "true" }, "administrativeUnit": { "@href": "#auAdmUnitS.1509" } }, "geometry": { "type": "Polygon", "coordinates": [ [ [ 19.68181913, 49.07558101 ], [ 19.68188763, 49.07556187 ], [ 19.68186402, 49.07549909 ], [ 19.68186181, 49.07549521 ], [ 19.68184891, 49.07549932 ], [ 19.68178408, 49.07552007 ], [ 19.68178595, 49.0755233 ], [ 19.68181913, 49.07558101 ] ] ] } },
{ "type": "Feature", "properties": { "@featureType": "CadastralParcel", "areaValue": { "value": 859, "@uom": "m2" }, "beginLifespanVersion": { "@nilReason": "http://inspire.ec.europa.eu/codelist/VoidReasonValue/Unpopulated", "@nil": "true" }, "endLifespanVersion": { "@nilReason": "http://inspire.ec.europa.eu/codelist/VoidReasonValue/Unpopulated", "@nil": "true" }, "inspireId": { "@dataType": "Identifier", "localId": "802573_27.E", "namespace": "SK.ESKN.CP", "versionId": "20260703T07:07:23" }, "label": "27", "nationalCadastralReference": "802573_27.E", "referencePoint": { "type": "Point", "coordinates": [ 19.67857818, 49.07052777 ] }, "validFrom": "2026-06-30T16:00:00Z", "validTo": { "@nilReason": "http://inspire.ec.europa.eu/codelist/VoidReasonValue/Unpopulated", "@nil": "true" }, "administrativeUnit": { "@href": "#auAdmUnitS.1509" } }, "geometry": { "type": "Polygon", "coordinates": [ [ [ 19.67917338, 49.07030202 ], [ 19.67868503, 49.0704156 ], [ 19.67870535, 49.0704502 ], [ 19.67812988, 49.07060534 ], [ 19.67811667, 49.07068858 ], [ 19.6792264, 49.07040171 ], [ 19.67915595, 49.07033956 ], [ 19.67917338, 49.07030202 ] ] ] } },
{ "type": "Feature", "properties": { "@featureType": "CadastralParcel", "areaValue": { "value": 27094, "@uom": "m2" }, "beginLifespanVersion": { "@nilReason": "http://inspire.ec.europa.eu/codelist/VoidReasonValue/Unpopulated", "@nil": "true" }, "endLifespanVersion": { "@nilReason": "http://inspire.ec.europa.eu/codelist/VoidReasonValue/Unpopulated", "@nil": "true" }, "inspireId": { "@dataType": "Identifier", "localId": "866351_103.E", "namespace": "SK.ESKN.CP", "versionId": "20260703T04:07:28" }, "label": "103", "nationalCadastralReference": "866351_103.E", "referencePoint": { "type": "Point", "coordinates": [ 19.68234031, 49.06294647 ] }, "validFrom": "2026-06-30T16:00:00Z", "validTo": { "@nilReason": "http://inspire.ec.europa.eu/codelist/VoidReasonValue/Unpopulated", "@nil": "true" }, "administrativeUnit": { "@href": "#auAdmUnitS.2807" } }, "geometry": { "type": "Polygon", "coordinates": [ [ [ 19.68238386, 49.06331986 ], [ 19.68265578, 49.06314929 ], [ 19.68262044, 49.06313537 ], [ 19.68257336, 49.06311698 ], [ 19.68321048, 49.06271669 ], [ 19.6833307, 49.06264107 ], [ 19.68393981, 49.06225829 ], [ 19.68395922, 49.06229241 ], [ 19.68406455, 49.06223488 ], [ 19.6840794, 49.06222517 ], [ 19.68404483, 49.06219714 ], [ 19.68391126, 49.06207776 ], [ 19.68372002, 49.06190688 ], [ 19.68347642, 49.06206888 ], [ 19.6833081, 49.06217897 ], [ 19.68310964, 49.06229934 ], [ 19.6825513, 49.06267247 ], [ 19.68243613, 49.06273226 ], [ 19.68230327, 49.06277596 ], [ 19.68097002, 49.06326232 ], [ 19.68062697, 49.06337476 ], [ 19.68009544, 49.06339521 ], [ 19.67972101, 49.06337764 ], [ 19.67850561, 49.06357572 ], [ 19.6782621, 49.06364173 ], [ 19.67805304, 49.06372747 ], [ 19.67787579, 49.06375324 ], [ 19.67770084, 49.06375666 ], [ 19.67761677, 49.06374447 ], [ 19.67761316, 49.06369681 ], [ 19.6777917, 49.06350733 ], [ 19.67762106, 49.06357836 ], [ 19.67743321, 49.06366197 ], [ 19.67685894, 49.06386492 ], [ 19.67669728, 49.06392455 ], [ 19.67619702, 49.06401306 ], [ 19.67573463, 49.06402782 ], [ 19.67574487, 49.06406045 ], [ 19.67574506, 49.06406126 ], [ 19.67580031, 49.06423794 ], [ 19.67642321, 49.06416937 ], [ 19.6770501, 49.0640779 ], [ 19.67765697, 49.06391416 ], [ 19.67833911, 49.06389778 ], [ 19.6793363, 49.06380936 ], [ 19.68022863, 49.06391548 ], [ 19.68014923, 49.06402229 ], [ 19.68058721, 49.06394587 ], [ 19.68070901, 49.06391106 ], [ 19.68114887, 49.06378543 ], [ 19.68133539, 49.06373212 ], [ 19.68181473, 49.0635492 ], [ 19.68228, 49.0633697 ], [ 19.68238386, 49.06331986 ] ] ] } },
{ "type": "Feature", "properties": { "@featureType": "CadastralParcel", "areaValue": { "value": 361, "@uom": "m2" }, "beginLifespanVersion": { "@nilReason": "http://inspire.ec.europa.eu/codelist/VoidReasonValue/Unpopulated", "@nil": "true" }, "endLifespanVersion": { "@nilReason": "http://inspire.ec.europa.eu/codelist/VoidReasonValue/Unpopulated", "@nil": "true" }, "inspireId": { "@dataType": "Identifier", "localId": "832677_107.C", "namespace": "SK.ESKN.CP", "versionId": "20260703T07:07:42" }, "label": "107", "nationalCadastralReference": "832677_107.C", "referencePoint": { "type": "Point", "coordinates": [ 19.67804225, 49.0445037 ] }, "validFrom": "2026-06-30T16:00:00Z", "validTo": { "@nilReason": "http://inspire.ec.europa.eu/codelist/VoidReasonValue/Unpopulated", "@nil": "true" }, "administrativeUnit": { "@href": "#auAdmUnitS.1841" } }, "geometry": { "type": "Polygon", "coordinates": [ [ [ 19.67779304, 49.04446959 ], [ 19.67783277, 49.0445622 ], [ 19.67783929, 49.04457745 ], [ 19.67785285, 49.0445749 ], [ 19.67809156, 49.04454555 ], [ 19.67828319, 49.04452195 ], [ 19.67828125, 49.04451673 ], [ 19.67825049, 49.04442632 ], [ 19.67809709, 49.04444881 ], [ 19.67808964, 49.04442919 ], [ 19.67804365, 49.04443509 ], [ 19.67805307, 49.04446092 ], [ 19.67783352, 49.04449067 ], [ 19.6778106, 49.04446685 ], [ 19.67779304, 49.04446959 ] ] ] } },
{ "type": "Feature", "properties": { "@featureType": "CadastralParcel", "areaValue": { "value": 938, "@uom": "m2" }, "beginLifespanVersion": { "@nilReason": "http://inspire.ec.europa.eu/codelist/VoidReasonValue/Unpopulated", "@nil": "true" }, "endLifespanVersion": { "@nilReason": "http://inspire.ec.europa.eu/codelist/VoidReasonValue/Unpopulated", "@nil": "true" }, "inspireId": { "@dataType": "Identifier", "localId": "832677_107.E", "namespace": "SK.ESKN.CP", "versionId": "20260703T07:07:42" }, "label": "107", "nationalCadastralReference": "832677_107.E", "referencePoint": { "type": "Point", "coordinates": [ 19.67949225, 49.04525736 ] }, "validFrom": "2026-06-30T16:00:00Z", "validTo": { "@nilReason": "http://inspire.ec.europa.eu/codelist/VoidReasonValue/Unpopulated", "@nil": "true" }, "administrativeUnit": { "@href": "#auAdmUnitS.1841" } }, "geometry": { "type": "Polygon", "coordinates": [ [ [ 19.67921997, 49.04512597 ], [ 19.67925885, 49.0451733 ], [ 19.67936515, 49.04534142 ], [ 19.67943145, 49.04544638 ], [ 19.6794642, 49.0454399 ], [ 19.67950525, 49.04543397 ], [ 19.67954424, 49.04542948 ], [ 19.67958836, 49.04542314 ], [ 19.67981219, 49.04539168 ], [ 19.67948969, 49.04508159 ], [ 19.67937191, 49.04509494 ], [ 19.67934312, 49.04510033 ], [ 19.67928806, 49.04510907 ], [ 19.67924932, 49.04511249 ], [ 19.67921997, 49.04512597 ] ] ] } }
]
}
