{
"type": "FeatureCollection",
"name": "gis",
"crs": { "type": "name", "properties": { "name": "urn:ogc:def:crs:OGC:1.3:CRS84" } },
"features": [
{ "type": "Feature", "properties": { "@featureType": "CadastralZoning", "beginLifespanVersion": { "@nilReason": "http://inspire.ec.europa.eu/codelist/VoidReasonValue/Unpopulated", "@nil": "true" }, "endLifespanVersion": { "@nilReason": "http://inspire.ec.europa.eu/codelist/VoidReasonValue/Unpopulated", "@nil": "true" }, "estimatedAccuracy": { "value": -1, "@uom": "m" }, "inspireId": { "@dataType": "Identifier", "localId": "826626", "namespace": "SK.ESKN.CP", "versionId": "20260703T04:07:40" }, "label": "Kostolište", "level": { "@href": "http://inspire.ec.europa.eu/codelist/CadastralZoningLevelValue/3rdOrder" }, "levelName": { "value": "Katastrálne územie", "@locale": "sk" }, "name_1": { "@dataType": "name", "GeographicalName": { "@dataType": "GeographicalName", "language": "SLK", "nativeness": { "@href": "http://inspire.ec.europa.eu/codelist/NativenessValue/endonym", "@title": "endonym" }, "nameStatus": { "@href": "http://inspire.ec.europa.eu/codelist/NameStatusValue/official", "@title": "official" }, "sourceOfName": { "@nilReason": "http://inspire.ec.europa.eu/codelist/VoidReasonValue/Unpopulated", "@nil": "true" }, "pronunciation": { "@dataType": "pronunciation", "@nilReason": "http://inspire.ec.europa.eu/codelist/VoidReasonValue/Unpopulated", "@nil": "true" }, "spelling": { "@dataType": "SpellingOfName", "text": "Kostolište", "script": "LATN" } } }, "nationalCadastalZoningReference": "826626", "validFrom": "2026-06-30T16:00:00Z", "validTo": { "@nilReason": "http://inspire.ec.europa.eu/codelist/VoidReasonValue/Unpopulated", "@nil": "true" }, "place_id": 186953814, "osm_type": "way", "osm_id": 84717653, "place_rank": 19, "category": "place", "type": "village", "importance": 0.4246822253175736, "addresstype": "village", "name_2": "Kostolište", "display_name": "Kostolište, okres Malacky, Bratislavský kraj, Slovensko" }, "geometry": { "type": "Polygon", "coordinates": [ [ [ 16.9714938, 48.4422193 ], [ 16.9726826, 48.4430145 ], [ 16.9736038, 48.4439918 ], [ 16.9734623, 48.444074 ], [ 16.9735361, 48.444278 ], [ 16.9735693, 48.4443699 ], [ 16.9736179, 48.4444476 ], [ 16.9738069, 48.444742 ], [ 16.9739423, 48.4449082 ], [ 16.9746121, 48.4463207 ], [ 16.9748612, 48.4463656 ], [ 16.9754017, 48.446111 ], [ 16.9757452, 48.4459177 ], [ 16.9758235, 48.4459732 ], [ 16.9766685, 48.4457042 ], [ 16.9765738, 48.445548 ], [ 16.9780858, 48.4450738 ], [ 16.9788555, 48.4448238 ], [ 16.9788743, 48.4449976 ], [ 16.9788573, 48.44519 ], [ 16.9794196, 48.4450412 ], [ 16.9796311, 48.4453824 ], [ 16.9802975, 48.4451612 ], [ 16.9802389, 48.4450761 ], [ 16.9807595, 48.4449267 ], [ 16.9809208, 48.4450561 ], [ 16.9811857, 48.4451971 ], [ 16.9813358, 48.4452974 ], [ 16.9816078, 48.445526 ], [ 16.9816223, 48.4457047 ], [ 16.9817791, 48.4458499 ], [ 16.9818083, 48.446338 ], [ 16.9817838, 48.446625 ], [ 16.9801467, 48.4470469 ], [ 16.9790116, 48.449009 ], [ 16.9798563, 48.4491609 ], [ 16.9819508, 48.4487756 ], [ 16.982215, 48.4491434 ], [ 16.9830134, 48.4489015 ], [ 16.9837593, 48.4486756 ], [ 16.9838336, 48.4486882 ], [ 16.9846519, 48.4495937 ], [ 16.9853215, 48.4500764 ], [ 16.9855921, 48.4501042 ], [ 16.9857748, 48.4500937 ], [ 16.9857412, 48.4497259 ], [ 16.9863154, 48.4495281 ], [ 16.9866095, 48.449797 ], [ 16.9862227, 48.4499357 ], [ 16.9864051, 48.4501529 ], [ 16.9867005, 48.4505192 ], [ 16.9871797, 48.4503448 ], [ 16.9869995, 48.4501699 ], [ 16.9872425, 48.4500841 ], [ 16.9874112, 48.4502845 ], [ 16.9875455, 48.4504412 ], [ 16.9878388, 48.450334 ], [ 16.9876935, 48.4501726 ], [ 16.9875348, 48.449985 ], [ 16.9882152, 48.449758 ], [ 16.9883771, 48.4499723 ], [ 16.9886802, 48.4498929 ], [ 16.9888709, 48.449927 ], [ 16.9887784, 48.4502141 ], [ 16.9899044, 48.449869 ], [ 16.990684, 48.4496307 ], [ 16.991124, 48.4495701 ], [ 16.9925002, 48.4492888 ], [ 16.9925887, 48.4494474 ], [ 16.9928583, 48.4493931 ], [ 16.9927759, 48.449227 ], [ 16.992747, 48.4491021 ], [ 16.9928969, 48.4490691 ], [ 16.992824, 48.4488153 ], [ 16.9939496, 48.4484928 ], [ 16.992966, 48.4471095 ], [ 16.9924375, 48.4463544 ], [ 16.9924154, 48.4462742 ], [ 16.9929936, 48.4460861 ], [ 16.9929214, 48.4457631 ], [ 16.9929668, 48.4451898 ], [ 16.990003, 48.4451003 ], [ 16.9892113, 48.4439361 ], [ 16.9880563, 48.4438939 ], [ 16.9874569, 48.442576 ], [ 16.9859028, 48.4428848 ], [ 16.9848364, 48.4410504 ], [ 16.979171, 48.4422511 ], [ 16.9788797, 48.4400935 ], [ 16.9796255, 48.4364519 ], [ 16.9771975, 48.437079 ], [ 16.9766477, 48.4372178 ], [ 16.9765133, 48.4377326 ], [ 16.9763891, 48.4377854 ], [ 16.9761737, 48.4378811 ], [ 16.9758313, 48.4379133 ], [ 16.9752508, 48.4379043 ], [ 16.9744525, 48.4378919 ], [ 16.9732293, 48.4374346 ], [ 16.9720289, 48.4375861 ], [ 16.9719194, 48.4375656 ], [ 16.9717955, 48.4376272 ], [ 16.9718906, 48.4377278 ], [ 16.971841, 48.4377709 ], [ 16.9704149, 48.4389681 ], [ 16.9715915, 48.439941 ], [ 16.970441, 48.4404962 ], [ 16.9702652, 48.4412985 ], [ 16.9714938, 48.4422193 ] ] ] } },
{ "type": "Feature", "properties": { "@featureType": "CadastralZoning", "beginLifespanVersion": { "@nilReason": "http://inspire.ec.europa.eu/codelist/VoidReasonValue/Unpopulated", "@nil": "true" }, "endLifespanVersion": { "@nilReason": "http://inspire.ec.europa.eu/codelist/VoidReasonValue/Unpopulated", "@nil": "true" }, "estimatedAccuracy": { "value": -1, "@uom": "m" }, "inspireId": { "@dataType": "Identifier", "localId": "826626", "namespace": "SK.ESKN.CP", "versionId": "20260703T04:07:40" }, "label": "Kostolište", "level": { "@href": "http://inspire.ec.europa.eu/codelist/CadastralZoningLevelValue/3rdOrder" }, "levelName": { "value": "Katastrálne územie", "@locale": "sk" }, "name_1": { "@dataType": "name", "GeographicalName": { "@dataType": "GeographicalName", "language": "SLK", "nativeness": { "@href": "http://inspire.ec.europa.eu/codelist/NativenessValue/endonym", "@title": "endonym" }, "nameStatus": { "@href": "http://inspire.ec.europa.eu/codelist/NameStatusValue/official", "@title": "official" }, "sourceOfName": { "@nilReason": "http://inspire.ec.europa.eu/codelist/VoidReasonValue/Unpopulated", "@nil": "true" }, "pronunciation": { "@dataType": "pronunciation", "@nilReason": "http://inspire.ec.europa.eu/codelist/VoidReasonValue/Unpopulated", "@nil": "true" }, "spelling": { "@dataType": "SpellingOfName", "text": "Kostolište", "script": "LATN" } } }, "nationalCadastalZoningReference": "826626", "validFrom": "2026-06-30T16:00:00Z", "validTo": { "@nilReason": "http://inspire.ec.europa.eu/codelist/VoidReasonValue/Unpopulated", "@nil": "true" }, "place_id": 419619800, "osm_type": "relation", "osm_id": 2206918, "place_rank": 22, "category": "place", "type": "cadastral_community", "importance": 0.10671579842832073, "addresstype": "cadastral_community", "name_2": "Kostolište", "display_name": "Kostolište, okres Malacky, Bratislavský kraj, 900 62, Slovensko" }, "geometry": { "type": "Polygon", "coordinates": [ [ [ 16.99063987, 48.47506228 ], [ 16.9910151, 48.47491511 ], [ 16.991197388920156, 48.474852410488907 ], [ 16.992430878117101, 48.474386443679116 ], [ 16.99243588, 48.47438441 ], [ 16.99251437, 48.47435434 ], [ 16.992522297011476, 48.474351908986257 ], [ 16.992593, 48.4743252 ], [ 17.001641, 48.4725654 ], [ 17.003648175388317, 48.471819805525342 ], [ 17.00368287, 48.47180629 ], [ 17.00396984, 48.47169924 ], [ 17.00403931, 48.4716738 ], [ 17.00404853, 48.47167045 ], [ 17.004162857986842, 48.4716286191926 ], [ 17.004941756039923, 48.471339286188574 ], [ 17.00495618, 48.47133362 ], [ 17.00514196, 48.47126197 ], [ 17.00530945, 48.4711934 ], [ 17.00544575, 48.47114811 ], [ 17.005478822338542, 48.471139785105059 ], [ 17.0055337, 48.4711194 ], [ 17.011643872879521, 48.470267086909274 ], [ 17.01164048, 48.4702467 ], [ 17.01163887, 48.47023683 ], [ 17.01163664, 48.47022311 ], [ 17.01162092, 48.47012684 ], [ 17.01161553, 48.47009393 ], [ 17.01131378, 48.46824921 ], [ 17.01122064, 48.46767972 ], [ 17.01121856, 48.46766945 ], [ 17.01120138, 48.46758438 ], [ 17.0111918, 48.46753726 ], [ 17.01107552, 48.46696265 ], [ 17.01107369, 48.4669534 ], [ 17.01106683, 48.46691948 ], [ 17.01105933, 48.46688263 ], [ 17.01105394, 48.46685595 ], [ 17.01088229, 48.46575439 ], [ 17.01080136, 48.46507859 ], [ 17.01078051, 48.46458772 ], [ 17.01077678, 48.46447807 ], [ 17.01071533, 48.46342617 ], [ 17.01072147, 48.46331954 ], [ 17.01072334, 48.46328893 ], [ 17.01073202, 48.46313855 ], [ 17.01073382, 48.46310748 ], [ 17.01071383, 48.46247021 ], [ 17.01071141, 48.46239085 ], [ 17.01071111, 48.46238043 ], [ 17.01070897, 48.4623142 ], [ 17.01070806, 48.46228575 ], [ 17.01070048, 48.46203996 ], [ 17.01068345, 48.46149799 ], [ 17.01067009, 48.4614771 ], [ 17.01060617, 48.46137781 ], [ 17.01057472, 48.46132883 ], [ 17.01054426, 48.46128136 ], [ 17.01051324, 48.46123314 ], [ 17.01046217, 48.46115371 ], [ 17.0104443, 48.46112591 ], [ 17.01041681, 48.46108299 ], [ 17.0103765, 48.46103422 ], [ 17.01035269, 48.46100529 ], [ 17.01025767, 48.46089004 ], [ 17.0101582, 48.46076924 ], [ 17.01011594, 48.46071808 ], [ 17.01006924, 48.46066137 ], [ 17.00997252, 48.46054392 ], [ 17.00991963, 48.46047974 ], [ 17.00987083, 48.46042867 ], [ 17.00982662, 48.46038226 ], [ 17.00977468, 48.46032781 ], [ 17.00970343, 48.46025315 ], [ 17.00960585, 48.46015092 ], [ 17.00951854, 48.46003945 ], [ 17.00943238, 48.45992933 ], [ 17.00939118, 48.45987661 ], [ 17.0093787, 48.45986147 ], [ 17.00932798, 48.45979997 ], [ 17.00928618, 48.45974938 ], [ 17.00919711, 48.4596414 ], [ 17.00915726, 48.45959312 ], [ 17.00908957, 48.45951572 ], [ 17.00908799, 48.45951362 ], [ 17.00901564, 48.45942053 ], [ 17.00901484, 48.45941957 ], [ 17.00899124, 48.4593893 ], [ 17.00896651, 48.4593576 ], [ 17.00886351, 48.45922535 ], [ 17.00882096, 48.45917082 ], [ 17.0087884, 48.45912909 ], [ 17.00874483, 48.45907322 ], [ 17.00869776, 48.45901278 ], [ 17.00866202, 48.45896694 ], [ 17.00863565, 48.45893088 ], [ 17.00858034, 48.45885513 ], [ 17.0084283, 48.45864703 ], [ 17.00840643, 48.45861705 ], [ 17.00837064, 48.45856805 ], [ 17.00836075, 48.45855372 ], [ 17.00831206, 48.45848268 ], [ 17.00822101, 48.45834962 ], [ 17.00813304, 48.45822138 ], [ 17.00803233, 48.45807437 ], [ 17.00799716, 48.45802306 ], [ 17.00790643, 48.45787392 ], [ 17.00785549, 48.45779016 ], [ 17.00782037, 48.45773243 ], [ 17.00779705, 48.45769423 ], [ 17.00778471, 48.45767376 ], [ 17.00767423, 48.45749236 ], [ 17.00762621, 48.45741341 ], [ 17.00757613, 48.45733107 ], [ 17.00756226, 48.45730824 ], [ 17.00754091, 48.45727315 ], [ 17.00753671, 48.45727304 ], [ 17.00720017, 48.45724136 ], [ 17.00718813, 48.45723927 ], [ 17.00714472, 48.4572317 ], [ 17.00710012, 48.45722386 ], [ 17.00706267, 48.45721732 ], [ 17.00701715, 48.45721195 ], [ 17.00691128, 48.45719956 ], [ 17.00654723, 48.45715678 ], [ 17.00651025, 48.45715244 ], [ 17.00649077, 48.45715011 ], [ 17.0064681, 48.4571068 ], [ 17.00645947, 48.45709581 ], [ 17.00644539, 48.45707785 ], [ 17.00632532, 48.45692508 ], [ 17.00631306, 48.45690942 ], [ 17.00626863, 48.45685304 ], [ 17.00621629, 48.45678627 ], [ 17.00619288, 48.45675656 ], [ 17.0061416, 48.45668289 ], [ 17.00607354, 48.45658503 ], [ 17.00605306, 48.4565557 ], [ 17.00603048, 48.45652324 ], [ 17.0060108, 48.45649495 ], [ 17.0059881, 48.45646239 ], [ 17.0059068, 48.45634554 ], [ 17.00575097, 48.45612162 ], [ 17.00570359, 48.45605356 ], [ 17.0056573, 48.4559872 ], [ 17.00565342, 48.45598151 ], [ 17.00560194, 48.45591796 ], [ 17.00553302, 48.4558327 ], [ 17.00541069, 48.45568141 ], [ 17.00528685, 48.45552847 ], [ 17.004690810484945, 48.454791607708373 ], [ 17.004539612908886, 48.454608553802487 ], [ 17.00436728, 48.45440857 ], [ 17.00414311, 48.45414851 ], [ 17.00404836, 48.4540387 ], [ 17.0040463, 48.45403621 ], [ 17.00399537, 48.45404565 ], [ 17.0038861, 48.45406584 ], [ 17.00349679, 48.45415856 ], [ 17.00344509, 48.4540921 ], [ 17.00340097, 48.45403547 ], [ 17.00337952, 48.45400806 ], [ 17.00337055, 48.4539966 ], [ 17.00336081, 48.453984 ], [ 17.00334086, 48.45395831 ], [ 17.00332112, 48.45393301 ], [ 17.00327274, 48.45386614 ], [ 17.003216821683658, 48.453788741505932 ], [ 17.003184162308727, 48.45374843534259 ], [ 17.0031347, 48.45368999 ], [ 17.00308988, 48.45363702 ], [ 17.00304585, 48.4535851 ], [ 17.00283738, 48.45333877 ], [ 17.00276742, 48.45325678 ], [ 17.00271309, 48.45319231 ], [ 17.00233498, 48.45332077 ], [ 17.00229681, 48.45327142 ], [ 17.00217696, 48.4531165 ], [ 17.00211205, 48.45303259 ], [ 17.00185457, 48.45269539 ], [ 17.00158738, 48.45234803 ], [ 17.001603876259562, 48.452343287400907 ], [ 17.0016002, 48.4523385 ], [ 17.002266892310718, 48.452146844276392 ], [ 17.00223835, 48.45210028 ], [ 17.00218025, 48.45200572 ], [ 17.00212858, 48.45192145 ], [ 17.00197399, 48.4516845 ], [ 17.00194378, 48.45163813 ], [ 17.0018673, 48.45152098 ], [ 17.00184083, 48.45148734 ], [ 17.00179549, 48.45142982 ], [ 17.00175081, 48.45138743 ], [ 17.00160286, 48.45124731 ], [ 17.00152749, 48.45116513 ], [ 17.00154335954338, 48.451159415131315 ], [ 17.0015399, 48.4511558 ], [ 17.002026766673747, 48.450980838350709 ], [ 17.00163977, 48.45053544 ], [ 17.00142998, 48.45025999 ], [ 17.00133598, 48.45009879 ], [ 17.00131019, 48.45005372 ], [ 17.00128891, 48.45001646 ], [ 17.0012852, 48.4500097 ], [ 17.00125422, 48.44991383 ], [ 17.00123763, 48.44986288 ], [ 17.00121399, 48.44978984 ], [ 17.00113432, 48.44954391 ], [ 17.00112935, 48.44952594 ], [ 17.00112916, 48.44952539 ], [ 17.00109658, 48.44940825 ], [ 17.00106783, 48.44928125 ], [ 17.00106504, 48.44926849 ], [ 17.00106251, 48.44925765 ], [ 17.00104533, 48.44917005 ], [ 17.00064968, 48.44926358 ], [ 17.00033835, 48.44932763 ], [ 17.00013527, 48.44934989 ], [ 17.00011577, 48.44935209 ], [ 17.0000692, 48.4493527 ], [ 16.99995945, 48.44935405 ], [ 16.99976352, 48.44935646 ], [ 16.99960027, 48.44935759 ], [ 16.99935384, 48.44933675 ], [ 16.99940459497935, 48.449237966795422 ], [ 16.999537095523763, 48.448927608546228 ], [ 16.99954584, 48.44890093 ], [ 16.99956538, 48.44884133 ], [ 16.99956169, 48.44879226 ], [ 16.99955895, 48.44875726 ], [ 16.99954103, 48.44856546 ], [ 16.99930746, 48.44850807 ], [ 16.99916409, 48.44847294 ], [ 16.99911827, 48.44846167 ], [ 16.99908962, 48.44845447 ], [ 16.99906941, 48.44844631 ], [ 16.99894495, 48.44839602 ], [ 16.99880961, 48.44832655 ], [ 16.99879725, 48.44831151 ], [ 16.99879485, 48.44830863 ], [ 16.99878569, 48.44829752 ], [ 16.99871383, 48.44821033 ], [ 16.99866736, 48.44813121 ], [ 16.9985724, 48.44797102 ], [ 16.99847998, 48.4477856 ], [ 16.99840864, 48.44762033 ], [ 16.99840403, 48.44760971 ], [ 16.99839792, 48.44759564 ], [ 16.99833572, 48.44742929 ], [ 16.998209517907274, 48.447091614130272 ], [ 16.998149225462544, 48.446945807112549 ], [ 16.99809901, 48.44686404 ], [ 16.99751579, 48.44687702 ], [ 16.99750338, 48.44687725 ], [ 16.99741105, 48.44685393 ], [ 16.99723697, 48.44681002 ], [ 16.99724738, 48.44676028 ], [ 16.99748779, 48.44560714 ], [ 16.99757649, 48.44518206 ], [ 16.99759282, 48.44510371 ], [ 16.9976369, 48.44489246 ], [ 16.99766256, 48.44476955 ], [ 16.99766797, 48.44474334 ], [ 16.99766962, 48.44473532 ], [ 16.9978843, 48.44451576 ], [ 16.99795695, 48.44444136 ], [ 16.99813075, 48.44426123 ], [ 16.99809077, 48.44410932 ], [ 16.99807499, 48.44404885 ], [ 16.9980701, 48.44403034 ], [ 16.99779239, 48.44297373 ], [ 16.99774369, 48.44294418 ], [ 16.9975962, 48.44228984 ], [ 16.99737895, 48.44189861 ], [ 16.997393696617035, 48.441892865636738 ], [ 16.9973915, 48.4418889 ], [ 16.9997939, 48.4409362 ], [ 17.000616875323807, 48.440609785372104 ], [ 17.00014156, 48.44051822 ], [ 16.99997412, 48.440464 ], [ 16.99967688, 48.44033264 ], [ 16.99946738, 48.44025167 ], [ 16.99933481, 48.44020038 ], [ 16.99923917, 48.44016337 ], [ 16.99911492, 48.44008814 ], [ 16.99888224, 48.43991365 ], [ 16.99889392, 48.43991101 ], [ 16.998901687578577, 48.439909248449077 ], [ 16.9988949, 48.4399045 ], [ 17.004730592674754, 48.43860588380786 ], [ 17.00439038, 48.43808731 ], [ 17.00436199, 48.43804414 ], [ 17.00387623, 48.43734426 ], [ 17.00373096, 48.43713506 ], [ 17.00338992, 48.43666115 ], [ 17.00253392, 48.43548046 ], [ 17.00234316, 48.43522376 ], [ 17.00227016, 48.43512556 ], [ 17.00203039, 48.434793 ], [ 17.00155264, 48.43413045 ], [ 17.00130274, 48.43378445 ], [ 17.00111225, 48.43352081 ], [ 17.00033262, 48.43245227 ], [ 17.00030214, 48.43245435 ], [ 17.00027716, 48.43245598 ], [ 17.00027393, 48.43245314 ], [ 17.00021189, 48.43239926 ], [ 16.99998957, 48.43219925 ], [ 16.99997369, 48.43218505 ], [ 16.99921436, 48.4315015 ], [ 16.99913981, 48.43143447 ], [ 16.9989706, 48.43128203 ], [ 16.99881533, 48.43114221 ], [ 16.99876893, 48.43110052 ], [ 16.99871157, 48.43104886 ], [ 16.99781916, 48.43024562 ], [ 16.99778364, 48.43021353 ], [ 16.99774335, 48.43017714 ], [ 16.99653677, 48.4290882 ], [ 16.99541406, 48.42807488 ], [ 16.99394127, 48.42674654 ], [ 16.99373603, 48.42656197 ], [ 16.99363597, 48.42647203 ], [ 16.99337538, 48.42623783 ], [ 16.99307664, 48.42596929 ], [ 16.99306793, 48.42596146 ], [ 16.99304266, 48.42593866 ], [ 16.9929759, 48.42587849 ], [ 16.99283879, 48.425755 ], [ 16.99264075, 48.42557662 ], [ 16.99246216, 48.42541566 ], [ 16.99228488, 48.42525588 ], [ 16.99210926, 48.42509775 ], [ 16.9919315, 48.42493757 ], [ 16.99175559, 48.42478041 ], [ 16.99157693, 48.4246208 ], [ 16.99139755, 48.4244606 ], [ 16.99122225, 48.42430394 ], [ 16.991051, 48.42415089 ], [ 16.99086506, 48.42398482 ], [ 16.99068928, 48.42382776 ], [ 16.99068094, 48.42382022 ], [ 16.99063697, 48.42378041 ], [ 16.99060491, 48.42375146 ], [ 16.99059382, 48.42374148 ], [ 16.99053603, 48.42368924 ], [ 16.99051255, 48.42366801 ], [ 16.99022453, 48.4234076 ], [ 16.98971311, 48.42294501 ], [ 16.98948206, 48.42273615 ], [ 16.9892048, 48.42248434 ], [ 16.98869175, 48.42201838 ], [ 16.98824031, 48.42161784 ], [ 16.98823219, 48.42161059 ], [ 16.98819318, 48.42162573 ], [ 16.98817136, 48.42163418 ], [ 16.98797249, 48.42171149 ], [ 16.98774878, 48.42179841 ], [ 16.98758267, 48.4218598 ], [ 16.98754968, 48.421872 ], [ 16.98730143, 48.42196383 ], [ 16.98707599, 48.42204701 ], [ 16.98685124, 48.42213005 ], [ 16.98663211, 48.42221104 ], [ 16.98640346, 48.42229562 ], [ 16.98618593, 48.4223759 ], [ 16.98595366, 48.42246187 ], [ 16.9857308, 48.42254413 ], [ 16.98550766, 48.42262638 ], [ 16.98528089, 48.42271019 ], [ 16.98505617, 48.42279305 ], [ 16.98483387, 48.42287517 ], [ 16.98460668, 48.42295904 ], [ 16.98438424, 48.42304115 ], [ 16.98416109, 48.42312349 ], [ 16.98395039, 48.4232017 ], [ 16.9838328, 48.42324526 ], [ 16.98344141, 48.42339037 ], [ 16.9833127, 48.42343822 ], [ 16.98273872, 48.42365109 ], [ 16.98268259, 48.42366089 ], [ 16.98262389, 48.42355316 ], [ 16.98260599, 48.42352047 ], [ 16.9824193, 48.42317876 ], [ 16.9822741, 48.4229095 ], [ 16.98213733, 48.42265592 ], [ 16.98199032, 48.42238347 ], [ 16.98181344, 48.42205653 ], [ 16.98177035, 48.4219769 ], [ 16.98168154, 48.42181277 ], [ 16.9816503, 48.42175485 ], [ 16.98145936, 48.42140208 ], [ 16.98121686, 48.4209578 ], [ 16.9811977, 48.42092277 ], [ 16.98093468, 48.42044083 ], [ 16.98091926, 48.42041238 ], [ 16.98041292, 48.41947842 ], [ 16.98039927, 48.41945343 ], [ 16.97969666, 48.41815756 ], [ 16.9796783, 48.41812348 ], [ 16.97894771, 48.41676999 ], [ 16.97883658, 48.41656418 ], [ 16.97873612, 48.41637809 ], [ 16.97872544, 48.41635846 ], [ 16.9787208, 48.41634983 ], [ 16.97866733, 48.41625141 ], [ 16.97865633, 48.41623121 ], [ 16.97864753, 48.41621524 ], [ 16.97862765, 48.4161788 ], [ 16.97860779, 48.41614217 ], [ 16.97857977, 48.4160907 ], [ 16.97855587, 48.41604684 ], [ 16.97850896, 48.41596045 ], [ 16.9784894, 48.41592448 ], [ 16.97836825, 48.41570189 ], [ 16.97821918, 48.41542802 ], [ 16.97817064, 48.41533898 ], [ 16.97814855, 48.41529831 ], [ 16.97788444, 48.41480716 ], [ 16.97786281, 48.41476707 ], [ 16.977604777876703, 48.414287469347528 ], [ 16.9775982, 48.4143203 ], [ 16.977521987016416, 48.414586569111393 ], [ 16.9775146, 48.41461622 ], [ 16.97750085, 48.4146717 ], [ 16.97748509, 48.4147348 ], [ 16.97747746, 48.41476565 ], [ 16.97747636, 48.41476928 ], [ 16.977416906266015, 48.414953694983112 ], [ 16.9773422, 48.4152147 ], [ 16.977330027290506, 48.415223178222028 ], [ 16.97732993, 48.41522348 ], [ 16.97730898, 48.41523949 ], [ 16.97718753, 48.41533259 ], [ 16.97708044, 48.41541456 ], [ 16.97706086, 48.41542958 ], [ 16.97701325, 48.415466 ], [ 16.97693712, 48.41552433 ], [ 16.9769043, 48.41554947 ], [ 16.97686763, 48.41557752 ], [ 16.97686278, 48.4155808 ], [ 16.97683626, 48.41559851 ], [ 16.97653694, 48.41579918 ], [ 16.97649587, 48.41582665 ], [ 16.9764795, 48.41583764 ], [ 16.97646811, 48.41584545 ], [ 16.97580878, 48.41629733 ], [ 16.97521529, 48.41670374 ], [ 16.9749974, 48.41685124 ], [ 16.97488255, 48.41692888 ], [ 16.97447129, 48.41711997 ], [ 16.9743057, 48.41718237 ], [ 16.97420214, 48.41722137 ], [ 16.97416867, 48.41723398 ], [ 16.97415021, 48.41724094 ], [ 16.97401201, 48.41729311 ], [ 16.97378294, 48.41737954 ], [ 16.97354459, 48.41739788 ], [ 16.97343462, 48.41740633 ], [ 16.97326381, 48.41741919 ], [ 16.97299448, 48.41743938 ], [ 16.97294528, 48.41744306 ], [ 16.97275553, 48.41744232 ], [ 16.9726005, 48.41744179 ], [ 16.9725249, 48.41744239 ], [ 16.97243881, 48.41744316 ], [ 16.97237679, 48.41744369 ], [ 16.97227766, 48.41744448 ], [ 16.97223686, 48.41744484 ], [ 16.97210471, 48.41741243 ], [ 16.97208855, 48.41740888 ], [ 16.97190627, 48.41736869 ], [ 16.97184153, 48.41735439 ], [ 16.97174764, 48.41733365 ], [ 16.97171073, 48.41732551 ], [ 16.9715978, 48.41730058 ], [ 16.97158889, 48.41729933 ], [ 16.9714807, 48.41728412 ], [ 16.97138445, 48.41727064 ], [ 16.97134869, 48.41726565 ], [ 16.97129234, 48.41725771 ], [ 16.97128236, 48.41725549 ], [ 16.9711447, 48.41722532 ], [ 16.97103187, 48.41720057 ], [ 16.97032088, 48.41704467 ], [ 16.97019176, 48.41701636 ], [ 16.97016484, 48.41701044 ], [ 16.97010888, 48.41699819 ], [ 16.97010086, 48.41699646 ], [ 16.96959299, 48.41688471 ], [ 16.96949975, 48.41686419 ], [ 16.96878436, 48.41670599 ], [ 16.96875587, 48.41669969 ], [ 16.96829188, 48.41659574 ], [ 16.96827823, 48.41659272 ], [ 16.96821078, 48.41657751 ], [ 16.96820277, 48.41657569 ], [ 16.96818164, 48.41657099 ], [ 16.968065815243115, 48.416545530533647 ], [ 16.966992233010288, 48.416317036621052 ], [ 16.96698421, 48.41631761 ], [ 16.96697886, 48.41631797 ], [ 16.96695099, 48.41631994 ], [ 16.966901088164654, 48.416270305353791 ], [ 16.966800689547892, 48.416204898095216 ], [ 16.96672039, 48.41616928 ], [ 16.96651112, 48.41612189 ], [ 16.96617748, 48.41602084 ], [ 16.96598302, 48.41596118 ], [ 16.96591859, 48.41588189 ], [ 16.965881200659201, 48.415893706162002 ], [ 16.9660144, 48.4170482 ], [ 16.964572, 48.4186418 ], [ 16.9638398, 48.4248627 ], [ 16.963827691050714, 48.424870643658551 ], [ 16.9638276, 48.42487141 ], [ 16.96283302, 48.42552739 ], [ 16.96182871, 48.42618639 ], [ 16.96149155, 48.4264112 ], [ 16.96081942, 48.42685625 ], [ 16.96042459, 48.42711118 ], [ 16.95986419003685, 48.427472065736836 ], [ 16.9584702, 48.4288183 ], [ 16.958467488219412, 48.428818215942115 ], [ 16.95845753, 48.42882773 ], [ 16.95838496, 48.42882446 ], [ 16.95764954, 48.42879943 ], [ 16.95668967, 48.42876682 ], [ 16.95665691, 48.42876783 ], [ 16.95663575, 48.42876845 ], [ 16.956611105480334, 48.428769181202824 ], [ 16.956577052449024, 48.42883888543814 ], [ 16.95656616, 48.42886836 ], [ 16.95651102, 48.42901772 ], [ 16.95642119, 48.42922427 ], [ 16.95632909, 48.42939993 ], [ 16.95620018, 48.42964548 ], [ 16.955951376504423, 48.430119601473983 ], [ 16.955846, 48.4303353 ], [ 16.9545893, 48.4325914 ], [ 16.954581600672419, 48.432592646356845 ], [ 16.95457723, 48.43260071 ], [ 16.95457487, 48.432601 ], [ 16.9545605, 48.43260255 ], [ 16.95449318, 48.43261437 ], [ 16.95429145, 48.4326474 ], [ 16.95390153, 48.43270943 ], [ 16.95355087, 48.4327663 ], [ 16.953534040800033, 48.432769014553564 ], [ 16.957991, 48.4423391 ], [ 16.958494860925672, 48.443476635820552 ], [ 16.95858664, 48.44367893 ], [ 16.958584684600254, 48.443679425205815 ], [ 16.959192589395375, 48.445051854470925 ], [ 16.95924319, 48.44516435 ], [ 16.959249387938428, 48.44518008504803 ], [ 16.9593918, 48.4455016 ], [ 16.963488, 48.4513109 ], [ 16.9644957, 48.4539896 ], [ 16.9653816, 48.4538097 ], [ 16.9656398, 48.454882 ], [ 16.9685192, 48.4550502 ], [ 16.9684387, 48.4565366 ], [ 16.9678225, 48.4574899 ], [ 16.968598, 48.4583014 ], [ 16.9693677, 48.4593849 ], [ 16.9704046, 48.4606416 ], [ 16.970405659728812, 48.460642784421175 ], [ 16.97041, 48.46063999 ], [ 16.97083922, 48.46111681 ], [ 16.97150171, 48.46186171 ], [ 16.97234372, 48.4628059 ], [ 16.972989496039073, 48.463530646295517 ], [ 16.973504255007164, 48.464105974071707 ], [ 16.97366589, 48.46428643 ], [ 16.973672481382096, 48.464293994703084 ], [ 16.9744738, 48.4651896 ], [ 16.9735595, 48.4664807 ], [ 16.9729595, 48.4678938 ], [ 16.9737573, 48.4681295 ], [ 16.9738338, 48.4690456 ], [ 16.9747539, 48.4694942 ], [ 16.9755078, 48.469756 ], [ 16.9759486, 48.4698575 ], [ 16.9758666, 48.4701219 ], [ 16.9781244, 48.4704894 ], [ 16.9793622, 48.4705018 ], [ 16.9799985, 48.4713864 ], [ 16.980569579427556, 48.471628949573009 ], [ 16.98102784, 48.47181207 ], [ 16.98107774, 48.47183746 ], [ 16.98108694, 48.47184216 ], [ 16.981164691925468, 48.471881706501904 ], [ 16.9813528, 48.4719616 ], [ 16.9817865, 48.4728877 ], [ 16.9857103, 48.4733238 ], [ 16.986576865231168, 48.473734533381297 ], [ 16.98678188, 48.47382816 ], [ 16.98744722, 48.47413854 ], [ 16.98791602, 48.47435717 ], [ 16.988357063188779, 48.47457830912974 ], [ 16.9887674, 48.4747728 ], [ 16.9894502, 48.4750965 ], [ 16.989925, 48.4753211 ], [ 16.9903085, 48.4751882 ], [ 16.990584273327212, 48.475084022989108 ], [ 16.99063987, 48.47506228 ] ] ] } }
]
}
