{
"type": "FeatureCollection",
"name": "gis",
"crs": { "type": "name", "properties": { "name": "urn:ogc:def:crs:OGC:1.3:CRS84" } },
"features": [
{ "type": "Feature", "properties": { "@featureType": "CadastralParcel", "areaValue": { "value": 8464, "@uom": "m2" }, "beginLifespanVersion": { "@nilReason": "http://inspire.ec.europa.eu/codelist/VoidReasonValue/Unpopulated", "@nil": "true" }, "endLifespanVersion": { "@nilReason": "http://inspire.ec.europa.eu/codelist/VoidReasonValue/Unpopulated", "@nil": "true" }, "inspireId": { "@dataType": "Identifier", "localId": "852104_3746/1.C", "namespace": "SK.ESKN.CP", "versionId": "20260703T04:07:33" }, "label": "3746/1", "nationalCadastralReference": "852104_3746/1.C", "referencePoint": { "type": "Point", "coordinates": [ 20.09611512, 48.6879542 ] }, "validFrom": "2026-06-30T16:00:00Z", "validTo": { "@nilReason": "http://inspire.ec.europa.eu/codelist/VoidReasonValue/Unpopulated", "@nil": "true" }, "administrativeUnit": { "@href": "#auAdmUnitS.124" } }, "geometry": { "type": "Polygon", "coordinates": [ [ [ 20.09689238, 48.68775427 ], [ 20.09683547, 48.68756676 ], [ 20.0966109, 48.68747376 ], [ 20.09649475, 48.68750801 ], [ 20.09641636, 48.68756625 ], [ 20.0961852, 48.68765878 ], [ 20.0959696, 48.68764597 ], [ 20.09577209, 48.68767266 ], [ 20.09575582, 48.68767487 ], [ 20.09547254, 48.68786924 ], [ 20.09547868, 48.68817469 ], [ 20.09552468, 48.68823722 ], [ 20.0955683, 48.68836596 ], [ 20.09579598, 48.68842567 ], [ 20.09581478, 48.68848366 ], [ 20.09585318, 48.68857218 ], [ 20.09598822, 48.68851365 ], [ 20.09623179, 48.68847904 ], [ 20.09632092, 48.68843115 ], [ 20.09660438, 48.68843133 ], [ 20.09669216, 48.68843285 ], [ 20.09666606, 48.68808604 ], [ 20.09689238, 48.68775427 ] ], [ [ 20.09614611, 48.6880404 ], [ 20.09622108, 48.68803915 ], [ 20.09622313, 48.68809284 ], [ 20.09614816, 48.6880941 ], [ 20.09614611, 48.6880404 ] ] ] } }
]
}
