{
"type": "FeatureCollection",
"name": "gis",
"crs": { "type": "name", "properties": { "name": "urn:ogc:def:crs:OGC:1.3:CRS84" } },
"features": [
{ "type": "Feature", "properties": { "@featureType": "CadastralZoning", "beginLifespanVersion": { "@nilReason": "http://inspire.ec.europa.eu/codelist/VoidReasonValue/Unpopulated", "@nil": "true" }, "endLifespanVersion": { "@nilReason": "http://inspire.ec.europa.eu/codelist/VoidReasonValue/Unpopulated", "@nil": "true" }, "estimatedAccuracy": { "value": -1, "@uom": "m" }, "inspireId": { "@dataType": "Identifier", "localId": "856002", "namespace": "SK.ESKN.CP", "versionId": "20260703T04:07:40" }, "label": "Slanec", "level": { "@href": "http://inspire.ec.europa.eu/codelist/CadastralZoningLevelValue/3rdOrder" }, "levelName": { "value": "Katastrálne územie", "@locale": "sk" }, "name_1": { "@dataType": "name", "GeographicalName": { "@dataType": "GeographicalName", "language": "SLK", "nativeness": { "@href": "http://inspire.ec.europa.eu/codelist/NativenessValue/endonym", "@title": "endonym" }, "nameStatus": { "@href": "http://inspire.ec.europa.eu/codelist/NameStatusValue/official", "@title": "official" }, "sourceOfName": { "@nilReason": "http://inspire.ec.europa.eu/codelist/VoidReasonValue/Unpopulated", "@nil": "true" }, "pronunciation": { "@dataType": "pronunciation", "@nilReason": "http://inspire.ec.europa.eu/codelist/VoidReasonValue/Unpopulated", "@nil": "true" }, "spelling": { "@dataType": "SpellingOfName", "text": "Slanec", "script": "LATN" } } }, "nationalCadastalZoningReference": "856002", "validFrom": "2026-06-30T16:00:00Z", "validTo": { "@nilReason": "http://inspire.ec.europa.eu/codelist/VoidReasonValue/Unpopulated", "@nil": "true" }, "place_id": 418691597, "osm_type": "relation", "osm_id": 2384630, "place_rank": 22, "category": "place", "type": "cadastral_community", "importance": 0.1067255214770733, "addresstype": "cadastral_community", "name_2": "Slanec", "display_name": "Slanec, okres Košice-okolie, Košický kraj, 044 17, Slovensko" }, "geometry": { "type": "Polygon", "coordinates": [ [ [ 21.47306946, 48.66916611 ], [ 21.47421815, 48.66856294 ], [ 21.475657536605539, 48.667841142266077 ], [ 21.475849195895197, 48.66774130256784 ], [ 21.475875164637614, 48.667713595447324 ], [ 21.476256429478781, 48.667259554610524 ], [ 21.47625509, 48.66725719 ], [ 21.476259206899265, 48.667256247034828 ], [ 21.4762663, 48.6672478 ], [ 21.4765739, 48.6671409 ], [ 21.477631, 48.6669443 ], [ 21.477891351271602, 48.666988903942247 ], [ 21.47790147, 48.66695038 ], [ 21.47791505, 48.66689919 ], [ 21.477923882764458, 48.666898085484796 ], [ 21.4779261, 48.6668897 ], [ 21.4782251, 48.6668524 ], [ 21.4783806, 48.6668972 ], [ 21.4785947, 48.6668843 ], [ 21.478588050622918, 48.666831071057963 ], [ 21.47856387, 48.66673662 ], [ 21.4786349, 48.66663453 ], [ 21.478638843116844, 48.666635545452415 ], [ 21.4786463, 48.6666248 ], [ 21.478789088703785, 48.666661415032451 ], [ 21.4788422, 48.66660705 ], [ 21.478801298210648, 48.666548975089654 ], [ 21.478740278011141, 48.666492828031082 ], [ 21.47869805, 48.66647477 ], [ 21.4786953, 48.66641573 ], [ 21.47869407, 48.66639121 ], [ 21.47870582400116, 48.666387882755302 ], [ 21.4787055, 48.6663813 ], [ 21.47896292785369, 48.666321313997315 ], [ 21.478966465290306, 48.666308653697861 ], [ 21.478925759225536, 48.666231088932676 ], [ 21.47887476, 48.66616591 ], [ 21.478884584289432, 48.66609092800968 ], [ 21.478882231504979, 48.666001830762319 ], [ 21.47886887, 48.6659343 ], [ 21.478880275041465, 48.665927741734201 ], [ 21.4788802, 48.6659249 ], [ 21.478987193647985, 48.66586305289988 ], [ 21.47904188, 48.66573272 ], [ 21.479052779398909, 48.665724375846409 ], [ 21.4790534, 48.6657229 ], [ 21.479057248551261, 48.665720954438136 ], [ 21.47912719, 48.66566741 ], [ 21.47920500012863, 48.665646261439399 ], [ 21.479221539965007, 48.665637900039819 ], [ 21.479195516082591, 48.665574125502566 ], [ 21.479146191858224, 48.665500969711374 ], [ 21.47907742, 48.66542525 ], [ 21.479090624342913, 48.665418554111348 ], [ 21.4790887, 48.6654157 ], [ 21.4792979, 48.6653091 ], [ 21.4793774, 48.6653555 ], [ 21.4796419, 48.6652483 ], [ 21.479717256215288, 48.665273488242406 ], [ 21.47972017, 48.66527402 ], [ 21.479723055790831, 48.665275426783431 ], [ 21.4798226, 48.6653087 ], [ 21.4806145, 48.6649771 ], [ 21.480710977904891, 48.664977852998277 ], [ 21.48075467, 48.66490108 ], [ 21.480759926194175, 48.664902451312471 ], [ 21.4807661, 48.6648916 ], [ 21.4808529, 48.6649142 ], [ 21.480910444637761, 48.66487784263682 ], [ 21.480931034063428, 48.664824451563398 ], [ 21.480948422992622, 48.66474485032262 ], [ 21.48092371, 48.66467706 ], [ 21.48096431, 48.66463026 ], [ 21.480973177971094, 48.664631529543648 ], [ 21.4809755, 48.6646209 ], [ 21.4811497, 48.6646462 ], [ 21.481255942053327, 48.664608841191168 ], [ 21.48131254, 48.66452234 ], [ 21.48121532, 48.66437099 ], [ 21.48121254, 48.66433085 ], [ 21.481233531844964, 48.664308701281811 ], [ 21.481359523961547, 48.664152066736371 ], [ 21.48137082, 48.66413379 ], [ 21.48136649, 48.66403887 ], [ 21.4813837, 48.66401912 ], [ 21.481394407766359, 48.664014852056475 ], [ 21.481395, 48.6640096 ], [ 21.481404078760466, 48.664010997353699 ], [ 21.48140771, 48.66400955 ], [ 21.481438077204736, 48.664016230210336 ], [ 21.4816198, 48.6640442 ], [ 21.481811498651442, 48.664023109187625 ], [ 21.48196343, 48.66386893 ], [ 21.48196527557943, 48.663869423748004 ], [ 21.4819747, 48.6638599 ], [ 21.4821591, 48.6639091 ], [ 21.482347587804099, 48.663856646024726 ], [ 21.48241738, 48.66383509 ], [ 21.482429004474351, 48.663833988707296 ], [ 21.4824746, 48.6638213 ], [ 21.482457591258363, 48.663769636559984 ], [ 21.48242434, 48.66374402 ], [ 21.4824284, 48.66372586 ], [ 21.48244144873647, 48.663720604231237 ], [ 21.4824399, 48.6637159 ], [ 21.4825053, 48.6636895 ], [ 21.4826059, 48.6637464 ], [ 21.482661623360748, 48.663713316865284 ], [ 21.48266575, 48.66367728 ], [ 21.48263892, 48.66360611 ], [ 21.48263025, 48.66357696 ], [ 21.48262674, 48.6634818 ], [ 21.482638222701116, 48.663473886369815 ], [ 21.4826379, 48.6634717 ], [ 21.4827009, 48.6634285 ], [ 21.4828053, 48.6634652 ], [ 21.4829223, 48.6634394 ], [ 21.4831322, 48.6632959 ], [ 21.4832844, 48.663298 ], [ 21.4834183, 48.6632377 ], [ 21.4835487, 48.6632955 ], [ 21.483650038176759, 48.663290122493819 ], [ 21.4837015, 48.66315078 ], [ 21.48378913, 48.66294115 ], [ 21.48380186, 48.66291082 ], [ 21.4839855, 48.66261367 ], [ 21.48404551, 48.66254042 ], [ 21.48411877, 48.66243515 ], [ 21.484126173248978, 48.662431544958288 ], [ 21.48413, 48.6624258 ], [ 21.48414665312308, 48.662421572201659 ], [ 21.48422225, 48.66238476 ], [ 21.484304675253068, 48.66238145445945 ], [ 21.4843494, 48.6623701 ], [ 21.484593947250097, 48.66217147734141 ], [ 21.48476217, 48.66202186 ], [ 21.484845450086887, 48.661967205316003 ], [ 21.484859, 48.6619562 ], [ 21.4851669, 48.661892 ], [ 21.485284882221464, 48.661730952993601 ], [ 21.48529454, 48.66171159 ], [ 21.48530123041985, 48.661708637526253 ], [ 21.4853058, 48.6617024 ], [ 21.485514144057706, 48.661610101755699 ], [ 21.485529518263931, 48.661580499264048 ], [ 21.485574583676243, 48.661414186432907 ], [ 21.48557849, 48.66136837 ], [ 21.485568416475648, 48.66134024304511 ], [ 21.485527482405825, 48.661305322228102 ], [ 21.4853736, 48.66119293 ], [ 21.485386253837653, 48.66118211029994 ], [ 21.485723175234376, 48.660836877926421 ], [ 21.48573416, 48.6608233 ], [ 21.485736982471632, 48.660822730100435 ], [ 21.4857456, 48.6608139 ], [ 21.485781963381786, 48.660813647776784 ], [ 21.48585426, 48.66079905 ], [ 21.486041192267688, 48.660811849716737 ], [ 21.486246439162898, 48.660810426085874 ], [ 21.48631092, 48.66072972 ], [ 21.4863082, 48.66058768 ], [ 21.48640462, 48.66049992 ], [ 21.486405174352875, 48.660499775153539 ], [ 21.4864158, 48.66049 ], [ 21.486431867119393, 48.660492800620148 ], [ 21.48646574, 48.66048395 ], [ 21.48653858067841, 48.660511401598676 ], [ 21.4868346, 48.660563 ], [ 21.487157346509584, 48.66040099694866 ], [ 21.487172244262389, 48.660339081925052 ], [ 21.487172430819541, 48.660336753458601 ], [ 21.4871725, 48.66020536 ], [ 21.48705238, 48.66017028 ], [ 21.48690096, 48.66013187 ], [ 21.48690335, 48.66006884 ], [ 21.486914472518542, 48.660066429105079 ], [ 21.4869148, 48.6600588 ], [ 21.48718531752386, 48.660000852863618 ], [ 21.48723048, 48.65992374 ], [ 21.48716359, 48.65970378 ], [ 21.48717655, 48.65966995 ], [ 21.487187920804512, 48.659661435454808 ], [ 21.4871877, 48.6596604 ], [ 21.487189568271877, 48.659660201818674 ], [ 21.48719542, 48.65965582 ], [ 21.48724786889175, 48.659654017443529 ], [ 21.487363982651502, 48.659641700403824 ], [ 21.48745897, 48.65951662 ], [ 21.48745794, 48.65941685 ], [ 21.487509714372724, 48.659338843691614 ], [ 21.487528704138541, 48.65925760681877 ], [ 21.4875324, 48.6592026 ], [ 21.487543513506335, 48.659194253392521 ], [ 21.4875439, 48.6591926 ], [ 21.487713861301494, 48.659064848250807 ], [ 21.48770204, 48.65887803 ], [ 21.487713318631002, 48.65886928572629 ], [ 21.4877133, 48.658869 ], [ 21.487841125135411, 48.658608038194259 ], [ 21.48784891, 48.65857946 ], [ 21.48793057, 48.65850521 ], [ 21.488013754138219, 48.658493215432415 ], [ 21.488025705800144, 48.658487297355364 ], [ 21.4880473, 48.65839588 ], [ 21.48810779, 48.6583501 ], [ 21.48812344, 48.65832508 ], [ 21.48807456, 48.65825849 ], [ 21.488079457385574, 48.658184295918026 ], [ 21.488068816805114, 48.658159211110707 ], [ 21.488035, 48.65811665 ], [ 21.488058030176745, 48.658039249126311 ], [ 21.488068904191614, 48.657975731071204 ], [ 21.48808554, 48.65782194 ], [ 21.48795813, 48.65766865 ], [ 21.48792634, 48.65754494 ], [ 21.48797816, 48.65737108 ], [ 21.487989122438734, 48.657362906342435 ], [ 21.4879896, 48.6573613 ], [ 21.488342581602314, 48.657067390764603 ], [ 21.48830105, 48.65697245 ], [ 21.48845802, 48.65674933 ], [ 21.488463612136854, 48.656747741533962 ], [ 21.4884694, 48.6567395 ], [ 21.488588205406447, 48.656660752637663 ], [ 21.488584523420201, 48.656632300224025 ], [ 21.488562548791133, 48.656601838088001 ], [ 21.48848711, 48.65651612 ], [ 21.4884178, 48.65642356 ], [ 21.48834687, 48.65632869 ], [ 21.48835645, 48.6561916 ], [ 21.488367459574967, 48.656185204067015 ], [ 21.4883677, 48.6561817 ], [ 21.488379981944167, 48.656177929287153 ], [ 21.48842582, 48.6561513 ], [ 21.488617751292136, 48.656104931077621 ], [ 21.4887299, 48.6560705 ], [ 21.4888449, 48.6561719 ], [ 21.488953408224795, 48.656176854342597 ], [ 21.48898811, 48.65617539 ], [ 21.489013194426075, 48.656179584101785 ], [ 21.4891121, 48.6561841 ], [ 21.489229800870895, 48.656119856895167 ], [ 21.489236653065571, 48.656109641959148 ], [ 21.489221453749661, 48.656014008996308 ], [ 21.48920101, 48.65595092 ], [ 21.48917789, 48.65582125 ], [ 21.48930036, 48.65570714 ], [ 21.489301343131199, 48.655706882507467 ], [ 21.4893118, 48.6556971 ], [ 21.489502591986447, 48.655647159890727 ], [ 21.48950517, 48.6554692 ], [ 21.489516360635964, 48.655462801916698 ], [ 21.4895164, 48.6554599 ], [ 21.489659024128368, 48.655378135027384 ], [ 21.48966628, 48.65527788 ], [ 21.48970407, 48.65514152 ], [ 21.48972227, 48.65501998 ], [ 21.489732243486049, 48.655018098269906 ], [ 21.4897336, 48.6550104 ], [ 21.489945025338905, 48.654970146762317 ], [ 21.48997284, 48.6548669 ], [ 21.489983562927662, 48.654859532799762 ], [ 21.4899843, 48.6548568 ], [ 21.490101845993117, 48.654776163266902 ], [ 21.49008334, 48.65471166 ], [ 21.4901019, 48.65466709 ], [ 21.490113017855478, 48.654661276479949 ], [ 21.490113, 48.654658 ], [ 21.490274710431713, 48.654573417416039 ], [ 21.49032445, 48.6545042 ], [ 21.49039987, 48.65439268 ], [ 21.49039374, 48.65424019 ], [ 21.49041958, 48.65415119 ], [ 21.490430529519212, 48.654143721343438 ], [ 21.4904307, 48.6541416 ], [ 21.490532120205504, 48.654072021021804 ], [ 21.49057044, 48.65393996 ], [ 21.49056900457612, 48.653920533470057 ], [ 21.490531546419863, 48.653892602243715 ], [ 21.49044909, 48.65384958 ], [ 21.49042524, 48.65368775 ], [ 21.49042855, 48.65360233 ], [ 21.49050188, 48.65341523 ], [ 21.49057664, 48.65333421 ], [ 21.49053386, 48.65323494 ], [ 21.49046499, 48.65322026 ], [ 21.49020539, 48.65308763 ], [ 21.49020719, 48.65300873 ], [ 21.490283310420349, 48.652948885624454 ], [ 21.49039887740248, 48.652725060717643 ], [ 21.49039853, 48.65271315 ], [ 21.49045054, 48.65264552 ], [ 21.490634674808657, 48.652555754165469 ], [ 21.490653054677292, 48.652543634688769 ], [ 21.49069426, 48.65247873 ], [ 21.4908473, 48.65233544 ], [ 21.490850455895231, 48.652334498918776 ], [ 21.4908589, 48.6523254 ], [ 21.490987930679147, 48.652287460986749 ], [ 21.49102681, 48.65222567 ], [ 21.49098572, 48.65199538 ], [ 21.49104025, 48.65192251 ], [ 21.491043797500613, 48.651922825177742 ], [ 21.4910515, 48.6519124 ], [ 21.4912513, 48.6518619 ], [ 21.4913722, 48.6519712 ], [ 21.491437181928816, 48.651970813777538 ], [ 21.49152046, 48.65188013 ], [ 21.491518510262861, 48.651775639609617 ], [ 21.491517647300054, 48.651769558122972 ], [ 21.49146207, 48.6515721 ], [ 21.49146134, 48.65146154 ], [ 21.491473206214334, 48.651456372124279 ], [ 21.4914726, 48.6514521 ], [ 21.4920153, 48.6512303 ], [ 21.492559, 48.6513507 ], [ 21.492714463057023, 48.651308387819583 ], [ 21.49272749, 48.65130161 ], [ 21.492743071339095, 48.651300601540221 ], [ 21.4931612, 48.6511868 ], [ 21.493764122590296, 48.651197684865409 ], [ 21.493771296544086, 48.651183515906041 ], [ 21.49378113736552, 48.651007044546368 ], [ 21.49377706, 48.65088787 ], [ 21.49370205, 48.65078911 ], [ 21.49366996, 48.6506717 ], [ 21.49370653, 48.65053916 ], [ 21.49383399, 48.65040457 ], [ 21.49380806, 48.65024746 ], [ 21.4937579, 48.65007444 ], [ 21.49376749, 48.65002772 ], [ 21.493779212254704, 48.650020505853263 ], [ 21.4937787, 48.6500176 ], [ 21.493791417164548, 48.650013681738486 ], [ 21.49380928, 48.65000579 ], [ 21.49389212, 48.64996921 ], [ 21.493969908348689, 48.649958687157429 ], [ 21.4940192, 48.6499435 ], [ 21.4942989, 48.6500079 ], [ 21.494397890387081, 48.649870892896544 ], [ 21.49444939, 48.64979392 ], [ 21.494457075384325, 48.649788978225033 ], [ 21.4944606, 48.6497841 ], [ 21.4945449, 48.6497302 ], [ 21.4946258, 48.6497608 ], [ 21.49468914291241, 48.649649191918883 ], [ 21.49469183, 48.64963366 ], [ 21.494700941704384, 48.649628402844286 ], [ 21.4947031, 48.6496246 ], [ 21.494877, 48.6495238 ], [ 21.4950618, 48.6495381 ], [ 21.49524009664519, 48.649498917097951 ], [ 21.49525876, 48.64946639 ], [ 21.49520374, 48.64940224 ], [ 21.4950965, 48.64928941 ], [ 21.49527793, 48.649057 ], [ 21.495283560374105, 48.649054387058584 ], [ 21.4952891, 48.6490473 ], [ 21.495404665644507, 48.648993499006842 ], [ 21.49544524, 48.64888035 ], [ 21.495453767850098, 48.648878674340459 ], [ 21.4954565, 48.6488711 ], [ 21.495590002564086, 48.648851905225627 ], [ 21.49572408, 48.64882556 ], [ 21.495862142777614, 48.648812777362927 ], [ 21.4960303, 48.6487886 ], [ 21.496163720657307, 48.648697563324298 ], [ 21.496173985176615, 48.648681590525044 ], [ 21.496180900331211, 48.648619718089165 ], [ 21.49617278, 48.64859861 ], [ 21.49601457, 48.6485791 ], [ 21.49593055, 48.64842518 ], [ 21.49602584, 48.64829821 ], [ 21.49610633, 48.64824562 ], [ 21.496107838398032, 48.648246187314605 ], [ 21.4961175, 48.6482363 ], [ 21.496385345729379, 48.648337191219227 ], [ 21.49642885, 48.64829913 ], [ 21.49638353, 48.64812678 ], [ 21.49642405, 48.64802911 ], [ 21.496433182258265, 48.648024501358179 ], [ 21.4964353, 48.6480194 ], [ 21.49676709253324, 48.647851814362028 ], [ 21.49675018, 48.64775289 ], [ 21.49683886, 48.64758801 ], [ 21.496845468133639, 48.647587744672556 ], [ 21.4968503, 48.6475788 ], [ 21.496936550845007, 48.647584087551799 ], [ 21.49695492, 48.64758335 ], [ 21.496974327013685, 48.647586403395188 ], [ 21.497302055999295, 48.647606494606912 ], [ 21.49732463, 48.64753686 ], [ 21.497333785518489, 48.647534056742565 ], [ 21.4973358, 48.6475278 ], [ 21.4974484, 48.6474926 ], [ 21.4978961, 48.6473728 ], [ 21.4979765, 48.647401 ], [ 21.5001746, 48.6488846 ], [ 21.500586612717729, 48.649223689159584 ], [ 21.50064364, 48.64926796 ], [ 21.500705338122906, 48.649321400944025 ], [ 21.5013221, 48.649829 ], [ 21.5012431, 48.6500293 ], [ 21.501232133592634, 48.650038336452283 ], [ 21.5012318, 48.65003918 ], [ 21.50111469, 48.65015499 ], [ 21.50097042, 48.65027281 ], [ 21.500780857427607, 48.650411687292149 ], [ 21.5011761, 48.6507746 ], [ 21.5007542, 48.6511729 ], [ 21.5021317, 48.6522254 ], [ 21.5017126, 48.6526094 ], [ 21.5027347, 48.6533399 ], [ 21.5022806, 48.6537208 ], [ 21.502458790216568, 48.653845911174152 ], [ 21.50246137, 48.65384749 ], [ 21.502526974292948, 48.653893784677074 ], [ 21.5036523, 48.6546839 ], [ 21.5051654, 48.6536879 ], [ 21.5065923, 48.6525226 ], [ 21.506637537090654, 48.652532368176807 ], [ 21.50715582, 48.65194847 ], [ 21.507328221589137, 48.651600636177982 ], [ 21.507903545619705, 48.650393068911818 ], [ 21.50795363, 48.65027439 ], [ 21.50818295, 48.64982233 ], [ 21.50843054, 48.64942725 ], [ 21.50930175, 48.64852322 ], [ 21.50994649, 48.64796311 ], [ 21.51001516, 48.64780026 ], [ 21.51013624, 48.64757761 ], [ 21.51017935, 48.64745445 ], [ 21.51034165, 48.64721228 ], [ 21.51091757, 48.64661985 ], [ 21.51111569, 48.64642805 ], [ 21.511118878683888, 48.646426230865139 ], [ 21.5111268, 48.6464182 ], [ 21.512523085573701, 48.645622444995446 ], [ 21.51249599, 48.6456019 ], [ 21.51084731, 48.6443517 ], [ 21.51083015, 48.64425273 ], [ 21.51002864, 48.64400446 ], [ 21.510023453920734, 48.643932111724659 ], [ 21.51002192591362, 48.643926341020453 ], [ 21.50998982, 48.64381935 ], [ 21.50993751, 48.64364519 ], [ 21.50990361, 48.64353232 ], [ 21.50991613, 48.64348632 ], [ 21.50992900316179, 48.643439318283228 ], [ 21.510038123076491, 48.642783321471605 ], [ 21.51004199, 48.64270083 ], [ 21.5100429, 48.64268069 ], [ 21.51007159, 48.64251831 ], [ 21.510083, 48.64245401 ], [ 21.51010069, 48.64242868 ], [ 21.510113011388448, 48.642411128153022 ], [ 21.510277946944413, 48.642114677641239 ], [ 21.51031928, 48.64202979 ], [ 21.51035286, 48.64185909 ], [ 21.51005928, 48.64185983 ], [ 21.510099043088445, 48.641675299654182 ], [ 21.510115052529088, 48.641576385084889 ], [ 21.51012293, 48.64146846 ], [ 21.51010313, 48.64131648 ], [ 21.51010052, 48.6413065 ], [ 21.51003151, 48.64103689 ], [ 21.51000534, 48.64093451 ], [ 21.51000098, 48.64087875 ], [ 21.50998105, 48.64076817 ], [ 21.50993274, 48.6404915 ], [ 21.509964946613341, 48.64039929331107 ], [ 21.510068299981501, 48.639989727299586 ], [ 21.51006976, 48.6399484 ], [ 21.51000521, 48.63979531 ], [ 21.50999689, 48.6397813 ], [ 21.50987473, 48.63957668 ], [ 21.50977446, 48.63940898 ], [ 21.50976521, 48.63938855 ], [ 21.50954349, 48.63890165 ], [ 21.50950418, 48.63881545 ], [ 21.50946927, 48.63873037 ], [ 21.50940176, 48.63856243 ], [ 21.50936077, 48.63846034 ], [ 21.50934563, 48.63839698 ], [ 21.50928586, 48.63814807 ], [ 21.50927719, 48.63806482 ], [ 21.50924131, 48.63771875 ], [ 21.50923054, 48.63753885 ], [ 21.50922317, 48.63736922 ], [ 21.50922011, 48.63734969 ], [ 21.50920795, 48.63727184 ], [ 21.50920154, 48.63725158 ], [ 21.50913988, 48.63705437 ], [ 21.509079, 48.63685998 ], [ 21.50903091, 48.63670655 ], [ 21.50903924, 48.63644448 ], [ 21.5090926, 48.63623942 ], [ 21.50915173, 48.63601256 ], [ 21.509160266910733, 48.636019402342228 ], [ 21.5091632, 48.6360026 ], [ 21.509274971495454, 48.636092978468923 ], [ 21.50928674, 48.63605596 ], [ 21.50927982, 48.63601435 ], [ 21.50925899, 48.63588863 ], [ 21.50924294, 48.63579149 ], [ 21.50922452, 48.63568068 ], [ 21.50920653, 48.63557178 ], [ 21.50920069, 48.63553651 ], [ 21.5092322, 48.63549501 ], [ 21.50927173, 48.63544304 ], [ 21.50920261, 48.63536192 ], [ 21.50911279, 48.63528589 ], [ 21.50895675, 48.635294 ], [ 21.50889474, 48.63524541 ], [ 21.508878145511744, 48.635212743148294 ], [ 21.508749749728345, 48.635109521173739 ], [ 21.50868239, 48.63507429 ], [ 21.50839118, 48.63501443 ], [ 21.50840433546832, 48.635005672139627 ], [ 21.5084025, 48.6350053 ], [ 21.508625301302384, 48.634856019232281 ], [ 21.50862891, 48.63485185 ], [ 21.50875094, 48.63471187 ], [ 21.508809261007404, 48.634671267973452 ], [ 21.508960894404236, 48.634517273502965 ], [ 21.50896684, 48.63450932 ], [ 21.508969151037963, 48.634508888305739 ], [ 21.5089781, 48.6344998 ], [ 21.508996731015067, 48.634503739667046 ], [ 21.50901152, 48.63450098 ], [ 21.50903362, 48.63450566 ], [ 21.50908787, 48.63451722 ], [ 21.50911334641453, 48.63452839886272 ], [ 21.5093342, 48.6345751 ], [ 21.509413453668127, 48.634515075262954 ], [ 21.5094691, 48.63445085 ], [ 21.50952471, 48.63439799 ], [ 21.509621362978429, 48.634357609974906 ], [ 21.509625725131468, 48.634354306189792 ], [ 21.50969469, 48.6342268 ], [ 21.50972777, 48.63416546 ], [ 21.509735585126798, 48.634162491616593 ], [ 21.5097391, 48.634156 ], [ 21.5099405, 48.6340795 ], [ 21.510016088704226, 48.634071447699107 ], [ 21.51005041, 48.63406455 ], [ 21.510086785784473, 48.634063916492323 ], [ 21.5101902, 48.6340529 ], [ 21.5102983, 48.6340853 ], [ 21.510417, 48.6342012 ], [ 21.5105101, 48.6342085 ], [ 21.5106621, 48.6341318 ], [ 21.5110306, 48.6341379 ], [ 21.5114027, 48.6340618 ], [ 21.51151967858527, 48.633919956401435 ], [ 21.5115221, 48.63390225 ], [ 21.51153615, 48.63389518 ], [ 21.511540632261635, 48.633894548803525 ], [ 21.5115476, 48.6338861 ], [ 21.511938, 48.6338669 ], [ 21.512036348225035, 48.633788921343474 ], [ 21.51204243, 48.63364435 ], [ 21.511959, 48.6336055 ], [ 21.51139871, 48.63331592 ], [ 21.511418028057268, 48.633310302811431 ], [ 21.5114098, 48.6333061 ], [ 21.513522960116177, 48.632674454271651 ], [ 21.51345252, 48.63260436 ], [ 21.51270245, 48.63188373 ], [ 21.51239258, 48.63158613 ], [ 21.51214904, 48.63135211 ], [ 21.51197747, 48.63112852 ], [ 21.51174183, 48.63082153 ], [ 21.51162571, 48.63067012 ], [ 21.51131085, 48.63038885 ], [ 21.51099399, 48.630105 ], [ 21.51096512, 48.63007915 ], [ 21.51067676, 48.62981637 ], [ 21.51019477, 48.6293769 ], [ 21.51013583, 48.62932309 ], [ 21.5099843, 48.62934546 ], [ 21.50947324, 48.62942088 ], [ 21.50924109668588, 48.629455122662087 ], [ 21.5093624, 48.629661 ], [ 21.50935018176212, 48.629668817992759 ], [ 21.50935112, 48.62967041 ], [ 21.50906027, 48.62985657 ], [ 21.50867858, 48.62940144 ], [ 21.508611733917519, 48.629425156754571 ], [ 21.508057581528586, 48.629661334734159 ], [ 21.50792673, 48.62972179 ], [ 21.50759731, 48.62945171 ], [ 21.50748544, 48.62936 ], [ 21.50745669, 48.62933649 ], [ 21.50736352, 48.62926008 ], [ 21.50677708, 48.62940802 ], [ 21.50615695, 48.62956436 ], [ 21.50590451, 48.62943152 ], [ 21.50520734, 48.62906856 ], [ 21.50499223, 48.62895875 ], [ 21.50325466, 48.62804153 ], [ 21.503271854570233, 48.628034671914627 ], [ 21.503266, 48.6280316 ], [ 21.5036772, 48.627868 ], [ 21.5039051, 48.6280107 ], [ 21.5044239, 48.6277691 ], [ 21.5046609, 48.6279098 ], [ 21.5058066, 48.6275625 ], [ 21.506762025125067, 48.627403640247387 ], [ 21.50638249, 48.62642674 ], [ 21.50639594290756, 48.626422417860852 ], [ 21.5063938, 48.6264169 ], [ 21.507537415580298, 48.62604940438532 ], [ 21.50715585, 48.62564684 ], [ 21.507114469788345, 48.625536353260223 ], [ 21.506772535089866, 48.624884934090431 ], [ 21.50664379, 48.62465998 ], [ 21.50659287, 48.62457083 ], [ 21.50657532, 48.62454026 ], [ 21.50392429, 48.62520783 ], [ 21.50369662, 48.62526519 ], [ 21.50366643, 48.62522444 ], [ 21.50363946, 48.6251864 ], [ 21.50362741, 48.62516507 ], [ 21.50344953, 48.62489574 ], [ 21.5033721, 48.62481339 ], [ 21.50331511, 48.6247527 ], [ 21.50330013, 48.62473678 ], [ 21.50300018, 48.62441784 ], [ 21.50288836, 48.62429885 ], [ 21.50278235, 48.62417607 ], [ 21.50268529, 48.62406372 ], [ 21.50266712, 48.62404267 ], [ 21.50265198, 48.62402504 ], [ 21.50259421, 48.62394524 ], [ 21.502279867702882, 48.623495198285191 ], [ 21.502255224108911, 48.623461777232187 ], [ 21.50195009, 48.6230731 ], [ 21.50168152, 48.62296318 ], [ 21.50158364, 48.62287178 ], [ 21.501601666280088, 48.62286856995248 ], [ 21.5015951, 48.6228625 ], [ 21.5020359, 48.6227842 ], [ 21.502167224133554, 48.62271334165456 ], [ 21.5022956, 48.62252323 ], [ 21.502244, 48.62236393 ], [ 21.50200281, 48.62229415 ], [ 21.5017435, 48.62221916 ], [ 21.5016241, 48.62218466 ], [ 21.50135685, 48.62196792 ], [ 21.5011322, 48.62175368 ], [ 21.501119737649315, 48.621706825222972 ], [ 21.501028379526382, 48.621623830403678 ], [ 21.50093683, 48.62156098 ], [ 21.50068554, 48.62126855 ], [ 21.50057995, 48.62114578 ], [ 21.50042721670717, 48.621022178371852 ], [ 21.5002743, 48.6215697 ], [ 21.5000705, 48.6219982 ], [ 21.5004813, 48.6221058 ], [ 21.5004958, 48.6221882 ], [ 21.5004838192718, 48.622193103857846 ], [ 21.5004846, 48.62219744 ], [ 21.500025270834378, 48.622385645670569 ], [ 21.5000612, 48.6224594 ], [ 21.500049105117757, 48.622466279885757 ], [ 21.50005006, 48.62246891 ], [ 21.499944279449885, 48.622525907470845 ], [ 21.49982511639196, 48.622593690538849 ], [ 21.49931974, 48.6228839 ], [ 21.49893718, 48.6230502 ], [ 21.49841208, 48.62306701 ], [ 21.498382305781906, 48.623070651001235 ], [ 21.498386784155667, 48.623092313247355 ], [ 21.49840624, 48.62311455 ], [ 21.498396104562762, 48.623137396789545 ], [ 21.4983984, 48.6231485 ], [ 21.498389647577913, 48.623151951797922 ], [ 21.49838696, 48.62315801 ], [ 21.49824686, 48.62321753 ], [ 21.49811112, 48.62327671 ], [ 21.49803091, 48.62329888 ], [ 21.497893738152939, 48.623271143943199 ], [ 21.497547740270583, 48.623229818221965 ], [ 21.49734465, 48.62323694 ], [ 21.4972353, 48.62321695 ], [ 21.4971252, 48.62318974 ], [ 21.49682448, 48.62308771 ], [ 21.4963077, 48.62287456 ], [ 21.49618415, 48.62281248 ], [ 21.49604425, 48.62271176 ], [ 21.49594568, 48.62259386 ], [ 21.495874424334477, 48.62244831243293 ], [ 21.495834071108401, 48.622391612413885 ], [ 21.49578494, 48.62234761 ], [ 21.49558167, 48.62223398 ], [ 21.49516908, 48.62202042 ], [ 21.49509486, 48.62196588 ], [ 21.49501637, 48.62184011 ], [ 21.49499184, 48.6217609 ], [ 21.49499251, 48.62151516 ], [ 21.49466036, 48.62142887 ], [ 21.49459669, 48.62139147 ], [ 21.49387277, 48.62069261 ], [ 21.49384757, 48.62059889 ], [ 21.49385933, 48.6205274 ], [ 21.493885668103793, 48.620500303023292 ], [ 21.494185914476628, 48.62016385486362 ], [ 21.49420073, 48.6201445 ], [ 21.494169728021571, 48.620067800596608 ], [ 21.494123047693652, 48.619994602170152 ], [ 21.49406885, 48.61993653 ], [ 21.49376835, 48.61971197 ], [ 21.49322567, 48.61946601 ], [ 21.49316629, 48.61942748 ], [ 21.49313038, 48.61941807 ], [ 21.49278673, 48.61941192 ], [ 21.49243296, 48.61922939 ], [ 21.49226627, 48.61924527 ], [ 21.49200441, 48.61938272 ], [ 21.49169078, 48.61934341 ], [ 21.49153697, 48.6193864 ], [ 21.49120678, 48.61949343 ], [ 21.49089185, 48.61950484 ], [ 21.49068638, 48.61945389 ], [ 21.49024757, 48.61923901 ], [ 21.490169644583801, 48.61929308105465 ], [ 21.490156069609856, 48.619414315562203 ], [ 21.4901545, 48.61948342 ], [ 21.490147360652919, 48.619492092956826 ], [ 21.4901468, 48.6194971 ], [ 21.490142660438078, 48.619497802829159 ], [ 21.49013546, 48.61950655 ], [ 21.48993238, 48.61954109 ], [ 21.48989165, 48.61951623 ], [ 21.48982531, 48.61933796 ], [ 21.48936629, 48.61932918 ], [ 21.48903007, 48.61911952 ], [ 21.48858148, 48.61911733 ], [ 21.48834125, 48.6191715 ], [ 21.487728303855931, 48.619112896545424 ], [ 21.48670680847016, 48.619033369857561 ], [ 21.4864557, 48.61902382 ], [ 21.48556351, 48.61871099 ], [ 21.485508216244781, 48.618718537265856 ], [ 21.485233755797253, 48.61878721977962 ], [ 21.485164253759695, 48.61881036163129 ], [ 21.485083, 48.6189746 ], [ 21.485073536826658, 48.61897962749039 ], [ 21.48507179, 48.618984 ], [ 21.48490699, 48.61907212 ], [ 21.48434248, 48.61906945 ], [ 21.48372847, 48.61924907 ], [ 21.48358155, 48.61937273 ], [ 21.48352983, 48.61938905 ], [ 21.48247693, 48.6193226 ], [ 21.48162399, 48.61924016 ], [ 21.48117856, 48.61892882 ], [ 21.48014232, 48.61879721 ], [ 21.47998752, 48.61882431 ], [ 21.47959951, 48.61882782 ], [ 21.47927996, 48.61891315 ], [ 21.47891603, 48.61893256 ], [ 21.47844823, 48.6188449 ], [ 21.47824863, 48.61885746 ], [ 21.4778956, 48.6190467 ], [ 21.47752372, 48.61901781 ], [ 21.47722427, 48.61891612 ], [ 21.47686537, 48.61894548 ], [ 21.47674547, 48.61902995 ], [ 21.47638226, 48.61919035 ], [ 21.47614242, 48.61918716 ], [ 21.47539487, 48.61921531 ], [ 21.47513089, 48.61930621 ], [ 21.47453243, 48.61943483 ], [ 21.47426423, 48.6193615 ], [ 21.47406889, 48.61922754 ], [ 21.47335983, 48.61917263 ], [ 21.47317766, 48.61907749 ], [ 21.47302117, 48.61870934 ], [ 21.47303909, 48.61837273 ], [ 21.473142976284361, 48.618040967919654 ], [ 21.473167501005204, 48.617894403516509 ], [ 21.47317255, 48.61780651 ], [ 21.47304557, 48.61774538 ], [ 21.47289874, 48.61756161 ], [ 21.472739, 48.6173636 ], [ 21.47266014, 48.61709655 ], [ 21.47263852, 48.6169472 ], [ 21.47238482, 48.616452 ], [ 21.4724164, 48.61615738 ], [ 21.47246113, 48.61589572 ], [ 21.472472348913357, 48.615886872202694 ], [ 21.4724724, 48.6158865 ], [ 21.472555457782612, 48.615821328383419 ], [ 21.47270078, 48.61570672 ], [ 21.47290503, 48.61554585 ], [ 21.472943071640614, 48.615517185641551 ], [ 21.472981094435543, 48.615487350905603 ], [ 21.47299369, 48.61546371 ], [ 21.47305719, 48.61527544 ], [ 21.47313368, 48.61514533 ], [ 21.47285234, 48.61484008 ], [ 21.47234593, 48.61456725 ], [ 21.47173468, 48.61439761 ], [ 21.4711492, 48.61399456 ], [ 21.4708673, 48.61380055 ], [ 21.47063518, 48.61384114 ], [ 21.470588771791871, 48.613723132560928 ], [ 21.470468312899875, 48.613497215696853 ], [ 21.47039513, 48.61339035 ], [ 21.47016003, 48.61346759 ], [ 21.470044441860686, 48.613490659425118 ], [ 21.469733124810762, 48.613584890534511 ], [ 21.469725047276022, 48.613589503637222 ], [ 21.4698523, 48.6136227 ], [ 21.4698539, 48.6139378 ], [ 21.4696243, 48.6143598 ], [ 21.469616361024865, 48.614363372758 ], [ 21.46961306, 48.61436944 ], [ 21.46943174, 48.61445058 ], [ 21.469244648797059, 48.614356529011857 ], [ 21.4690696, 48.6146002 ], [ 21.4691182, 48.6150586 ], [ 21.4700092, 48.6156528 ], [ 21.4706736, 48.6159251 ], [ 21.4706876, 48.616154 ], [ 21.4709145, 48.6162979 ], [ 21.4706876, 48.6166424 ], [ 21.470682339784364, 48.616642214193369 ], [ 21.47067611, 48.61665165 ], [ 21.470162059485762, 48.616633452059929 ], [ 21.4702609, 48.6168832 ], [ 21.4701473, 48.6170138 ], [ 21.47014356710325, 48.617014518224593 ], [ 21.47013584, 48.61702337 ], [ 21.46961727, 48.61712279 ], [ 21.46879173, 48.616898 ], [ 21.46875855, 48.61629623 ], [ 21.46860623, 48.61614227 ], [ 21.46856679, 48.61610232 ], [ 21.46834895, 48.615882 ], [ 21.46810049, 48.61585136 ], [ 21.46754327, 48.61593784 ], [ 21.46717769, 48.61607033 ], [ 21.46670942, 48.61553375 ], [ 21.46662104, 48.61504001 ], [ 21.466560053326457, 48.614975961458818 ], [ 21.46639567010364, 48.614853346725511 ], [ 21.46622421, 48.6147429 ], [ 21.46562756, 48.61500242 ], [ 21.464926004706278, 48.615230610585151 ], [ 21.4649866, 48.6153207 ], [ 21.464971357623742, 48.615324306252376 ], [ 21.46497532, 48.61533017 ], [ 21.46457243, 48.61542546 ], [ 21.46376695, 48.61535129 ], [ 21.46370722, 48.61521821 ], [ 21.46332432, 48.6152209 ], [ 21.46293005, 48.61533138 ], [ 21.46256268, 48.61517771 ], [ 21.46274677, 48.61501006 ], [ 21.46256775, 48.61461243 ], [ 21.4628437, 48.61424095 ], [ 21.462848102035203, 48.614240516826534 ], [ 21.4628551, 48.6142311 ], [ 21.463845867644306, 48.614133397641837 ], [ 21.46429223, 48.61353376 ], [ 21.46427982, 48.61234339 ], [ 21.46425593, 48.61225736 ], [ 21.46419014, 48.6120212 ], [ 21.46404409, 48.61197778 ], [ 21.46400578, 48.61184523 ], [ 21.464018445296311, 48.611839932457578 ], [ 21.4640172, 48.6118356 ], [ 21.464195379940502, 48.611761043774898 ], [ 21.46423274, 48.61147718 ], [ 21.46387726, 48.61124905 ], [ 21.46372947, 48.61102922 ], [ 21.46347418, 48.61059858 ], [ 21.46333819, 48.61034832 ], [ 21.46339171, 48.61009619 ], [ 21.46317062, 48.609723 ], [ 21.46299272, 48.60961761 ], [ 21.462155863450807, 48.60975615785528 ], [ 21.4624704, 48.6103242 ], [ 21.46245598945406, 48.610327845097295 ], [ 21.46245921, 48.61033366 ], [ 21.46212826, 48.61041726 ], [ 21.46188222, 48.6103874 ], [ 21.46122897, 48.61054082 ], [ 21.4608978, 48.61050297 ], [ 21.46079575, 48.61040835 ], [ 21.46097443, 48.61019328 ], [ 21.460983159458031, 48.610187479765429 ], [ 21.4609859, 48.6101842 ], [ 21.4616049, 48.6097724 ], [ 21.461805774798087, 48.609712680465435 ], [ 21.46202517, 48.60948946 ], [ 21.46187558, 48.60933385 ], [ 21.461894304762417, 48.609331545887983 ], [ 21.4618868, 48.6093237 ], [ 21.4628844, 48.6092021 ], [ 21.4634188, 48.609042 ], [ 21.4637983, 48.6093254 ], [ 21.46425876028923, 48.609053952182435 ], [ 21.46441021, 48.60882184 ], [ 21.464419437792959, 48.608815762943529 ], [ 21.4644215, 48.6088126 ], [ 21.464671493431691, 48.60864728798537 ], [ 21.46476461, 48.60848252 ], [ 21.46475188, 48.60826718 ], [ 21.46487039, 48.60812597 ], [ 21.46495, 48.60802666 ], [ 21.46424123, 48.60772026 ], [ 21.46390897, 48.60762325 ], [ 21.46347999, 48.60749469 ], [ 21.46341396, 48.60743011 ], [ 21.46318477, 48.60734691 ], [ 21.4629802, 48.60726919 ], [ 21.46272746, 48.60717072 ], [ 21.462481485105062, 48.607001232500615 ], [ 21.462464088153531, 48.606990439076633 ], [ 21.46239489, 48.60696404 ], [ 21.46222348, 48.60692051 ], [ 21.46200904, 48.60696701 ], [ 21.46185899, 48.60696173 ], [ 21.46174115, 48.60693326 ], [ 21.461536, 48.60672319 ], [ 21.46145217, 48.60666502 ], [ 21.461300082950782, 48.606621487232168 ], [ 21.460987873737324, 48.606556043448037 ], [ 21.46080739, 48.60653827 ], [ 21.46059694, 48.60648576 ], [ 21.46053479, 48.60641796 ], [ 21.4604569, 48.60602922 ], [ 21.46038537, 48.60597996 ], [ 21.46010485, 48.60596268 ], [ 21.46000652, 48.6059165 ], [ 21.45987594, 48.60578162 ], [ 21.45985096, 48.6057366 ], [ 21.459862933248694, 48.605348053600189 ], [ 21.4597146, 48.6054794 ], [ 21.459714337213711, 48.605479171713078 ], [ 21.4597033, 48.60548895 ], [ 21.45926743, 48.60511091 ], [ 21.45899302, 48.6046788 ], [ 21.45881565, 48.60462303 ], [ 21.4587486, 48.60448603 ], [ 21.458760692860157, 48.604477014078356 ], [ 21.4587601, 48.6044758 ], [ 21.45897489568026, 48.604316554926704 ], [ 21.4589896, 48.60415819 ], [ 21.45883576, 48.60403423 ], [ 21.45882823, 48.60397181 ], [ 21.45883378, 48.60390661 ], [ 21.45877294, 48.60386622 ], [ 21.45868761, 48.60324635 ], [ 21.45867052, 48.60294373 ], [ 21.45867175, 48.60290074 ], [ 21.45868287, 48.60281707 ], [ 21.45875889, 48.60258604 ], [ 21.45886002, 48.60218137 ], [ 21.4588841, 48.60212329 ], [ 21.45882099, 48.60212325 ], [ 21.45876067, 48.60197691 ], [ 21.45892645, 48.60175949 ], [ 21.45892392, 48.60170567 ], [ 21.4588582, 48.60152623 ], [ 21.45886527, 48.60147692 ], [ 21.45894235, 48.6013688 ], [ 21.45884406, 48.60132218 ], [ 21.458847170042823, 48.601271843699188 ], [ 21.458477100072361, 48.600969138300016 ], [ 21.45815265, 48.60071134 ], [ 21.45766661, 48.60032516 ], [ 21.45756761, 48.60034234 ], [ 21.45743024, 48.60032006 ], [ 21.45734961, 48.60026305 ], [ 21.45727629, 48.60020834 ], [ 21.4572221, 48.60014554 ], [ 21.45711403, 48.59995396 ], [ 21.45694006, 48.59992295 ], [ 21.45661364, 48.59972688 ], [ 21.45650866, 48.59960525 ], [ 21.45650481, 48.59957129 ], [ 21.456519764248775, 48.599566665461438 ], [ 21.4565161, 48.5995614 ], [ 21.457079873896909, 48.599380107240584 ], [ 21.45676558, 48.59912745 ], [ 21.45672376, 48.59903989 ], [ 21.4564547, 48.59880598 ], [ 21.45630953, 48.59876843 ], [ 21.456050204627967, 48.59868076722821 ], [ 21.4563855, 48.599184 ], [ 21.456367574143144, 48.599188397834006 ], [ 21.45637398, 48.59919333 ], [ 21.456243758132068, 48.599218774193034 ], [ 21.456074473562655, 48.599260305565373 ], [ 21.45597206, 48.59929204 ], [ 21.45542907, 48.59892795 ], [ 21.45510962, 48.59894354 ], [ 21.453765161394415, 48.599173928214391 ], [ 21.4587061, 48.6078153 ], [ 21.459340527035579, 48.608864397567508 ], [ 21.46013963, 48.61015109 ], [ 21.46116502, 48.61184968 ], [ 21.461866927258036, 48.613042088900478 ], [ 21.4625036, 48.6140949 ], [ 21.462488170772961, 48.614097465217036 ], [ 21.4624923, 48.61410448 ], [ 21.46173695, 48.61422657 ], [ 21.45965439, 48.61457727 ], [ 21.45785933, 48.61487711 ], [ 21.4561915, 48.61515596 ], [ 21.45612395, 48.61516731 ], [ 21.45524554, 48.61531421 ], [ 21.45508381, 48.61534126 ], [ 21.45341828, 48.61561969 ], [ 21.45223001, 48.6158179 ], [ 21.45214282, 48.61583255 ], [ 21.4518519, 48.61588102 ], [ 21.45172723, 48.61590186 ], [ 21.45155218, 48.61593103 ], [ 21.44747971, 48.61659983 ], [ 21.44739103, 48.61661443 ], [ 21.4465586, 48.61675109 ], [ 21.44406824, 48.61714817 ], [ 21.44181614, 48.61751241 ], [ 21.43929183, 48.61791038 ], [ 21.436640093525309, 48.618336414626512 ], [ 21.4368192, 48.618555 ], [ 21.4390069, 48.6196186 ], [ 21.4446549, 48.6294766 ], [ 21.4459161, 48.6307388 ], [ 21.4472151, 48.632331 ], [ 21.447203511588235, 48.63234021587747 ], [ 21.44720367, 48.63234041 ], [ 21.44709682, 48.6324255 ], [ 21.44658677, 48.63283168 ], [ 21.44544818, 48.63356315 ], [ 21.44442182004585, 48.634222420951609 ], [ 21.44465691239585, 48.634528912243702 ], [ 21.4446669, 48.6345368 ], [ 21.444679794166458, 48.63455874334386 ], [ 21.4447524, 48.6346534 ], [ 21.4446597, 48.6348792 ], [ 21.4446846, 48.6351938 ], [ 21.444604, 48.635394 ], [ 21.4447608, 48.6354705 ], [ 21.4447537, 48.6355189 ], [ 21.4448853, 48.6355406 ], [ 21.4450056, 48.6354857 ], [ 21.4459824, 48.6357977 ], [ 21.4513854, 48.6393296 ], [ 21.4516096, 48.6396908 ], [ 21.4515599, 48.6398343 ], [ 21.4513852, 48.6400261 ], [ 21.4513194, 48.6402831 ], [ 21.451377674834983, 48.640458385672709 ], [ 21.45139815, 48.64050696 ], [ 21.451409370141924, 48.640553722419703 ], [ 21.4514584, 48.6407012 ], [ 21.4516097, 48.6408912 ], [ 21.451594520681418, 48.640972703165794 ], [ 21.45158327, 48.64118421 ], [ 21.45149364671591, 48.641514331401034 ], [ 21.4514746, 48.6416166 ], [ 21.451648, 48.641994 ], [ 21.451713760554711, 48.642064919381831 ], [ 21.45178546, 48.64212141 ], [ 21.45181862, 48.6421619 ], [ 21.45192543, 48.64229186 ], [ 21.451934994179794, 48.642303508487423 ], [ 21.4521018, 48.6424834 ], [ 21.4524569, 48.642676 ], [ 21.4525041, 48.6427899 ], [ 21.4524611, 48.642981 ], [ 21.4528729, 48.6434119 ], [ 21.4536107, 48.6436551 ], [ 21.4578228, 48.6459475 ], [ 21.4573442, 48.6464028 ], [ 21.4570547, 48.6470482 ], [ 21.456548948107262, 48.64782505606501 ], [ 21.45648286, 48.64798139 ], [ 21.45638162162858, 48.648082076536248 ], [ 21.456331603355849, 48.648158906695642 ], [ 21.45604151, 48.64863007 ], [ 21.455957098870073, 48.648734161252918 ], [ 21.4558117, 48.6489575 ], [ 21.455702730639189, 48.649337241711919 ], [ 21.4557025, 48.64933917 ], [ 21.455700157164536, 48.649346209881159 ], [ 21.45565, 48.649521 ], [ 21.4555109, 48.6496485 ], [ 21.455505218178956, 48.649723933237375 ], [ 21.45551425, 48.64982852 ], [ 21.455487646566009, 48.649957218242456 ], [ 21.4554566, 48.6503694 ], [ 21.4555667, 48.6506507 ], [ 21.4558013, 48.6520235 ], [ 21.4563569, 48.6529681 ], [ 21.4564052, 48.6531204 ], [ 21.4564544, 48.6536212 ], [ 21.4565932, 48.6542049 ], [ 21.4569261, 48.6546197 ], [ 21.4571856, 48.6550628 ], [ 21.4571195, 48.6554525 ], [ 21.4571621, 48.6557542 ], [ 21.4573048, 48.6562467 ], [ 21.4575595, 48.6567401 ], [ 21.4574881, 48.6571938 ], [ 21.4592036, 48.6581409 ], [ 21.4595843, 48.6585771 ], [ 21.4601828, 48.6588794 ], [ 21.460288886424919, 48.659028202715355 ], [ 21.4604391, 48.65920576 ], [ 21.4606398458786, 48.659520477949698 ], [ 21.4608079, 48.6597562 ], [ 21.4613514, 48.6600838 ], [ 21.4621096, 48.6604469 ], [ 21.4628435, 48.6614011 ], [ 21.463981, 48.6634135 ], [ 21.4645629, 48.6640056 ], [ 21.4645601, 48.6646591 ], [ 21.4652249, 48.6653583 ], [ 21.4654885, 48.6657147 ], [ 21.466073, 48.6662785 ], [ 21.4674264, 48.6700077 ], [ 21.4686902, 48.6703302 ], [ 21.4703067, 48.6703963 ], [ 21.4705419, 48.6704527 ], [ 21.4723387, 48.66957 ], [ 21.472438512841709, 48.669518005212716 ], [ 21.47306946, 48.66916611 ] ] ] } }
]
}
