{
"type": "FeatureCollection",
"name": "gis",
"crs": { "type": "name", "properties": { "name": "urn:ogc:def:crs:OGC:1.3:CRS84" } },
"features": [
{ "type": "Feature", "properties": { "@featureType": "CadastralParcel", "areaValue": { "value": 3502, "@uom": "m2" }, "beginLifespanVersion": { "@nilReason": "http://inspire.ec.europa.eu/codelist/VoidReasonValue/Unpopulated", "@nil": "true" }, "endLifespanVersion": { "@nilReason": "http://inspire.ec.europa.eu/codelist/VoidReasonValue/Unpopulated", "@nil": "true" }, "inspireId": { "@dataType": "Identifier", "localId": "821403_641/1.C", "namespace": "SK.ESKN.CP", "versionId": "20260703T05:07:44" }, "label": "641/1", "nationalCadastralReference": "821403_641/1.C", "referencePoint": { "type": "Point", "coordinates": [ 19.39139623, 49.0903949 ] }, "validFrom": "2026-06-30T16:00:00Z", "validTo": { "@nilReason": "http://inspire.ec.europa.eu/codelist/VoidReasonValue/Unpopulated", "@nil": "true" }, "administrativeUnit": { "@href": "#auAdmUnitS.2761" } }, "geometry": { "type": "Polygon", "coordinates": [ [ [ 19.39073007, 49.08995715 ], [ 19.39116427, 49.09012034 ], [ 19.39127799, 49.09066946 ], [ 19.3913538, 49.09067292 ], [ 19.39155474, 49.09068204 ], [ 19.39160131, 49.08987626 ], [ 19.39100831, 49.08983691 ], [ 19.39055336, 49.08974108 ], [ 19.39054054, 49.08975292 ], [ 19.39053118, 49.08976204 ], [ 19.39052152, 49.08977268 ], [ 19.39051344, 49.08978258 ], [ 19.39050536, 49.08979383 ], [ 19.39049956, 49.08980302 ], [ 19.39057411, 49.08985096 ], [ 19.39055175, 49.08988633 ], [ 19.39073007, 49.08995715 ] ] ] } },
{ "type": "Feature", "properties": { "@featureType": "CadastralParcel", "areaValue": { "value": 12797, "@uom": "m2" }, "beginLifespanVersion": { "@nilReason": "http://inspire.ec.europa.eu/codelist/VoidReasonValue/Unpopulated", "@nil": "true" }, "endLifespanVersion": { "@nilReason": "http://inspire.ec.europa.eu/codelist/VoidReasonValue/Unpopulated", "@nil": "true" }, "inspireId": { "@dataType": "Identifier", "localId": "821403_614.C", "namespace": "SK.ESKN.CP", "versionId": "20260703T05:07:44" }, "label": "614", "nationalCadastralReference": "821403_614.C", "referencePoint": { "type": "Point", "coordinates": [ 19.38735483, 49.09211466 ] }, "validFrom": "2026-06-30T16:00:00Z", "validTo": { "@nilReason": "http://inspire.ec.europa.eu/codelist/VoidReasonValue/Unpopulated", "@nil": "true" }, "administrativeUnit": { "@href": "#auAdmUnitS.2761" } }, "geometry": { "type": "Polygon", "coordinates": [ [ [ 19.38915277, 49.09140328 ], [ 19.38889051, 49.09142545 ], [ 19.38846616, 49.0913498 ], [ 19.38806187, 49.09138669 ], [ 19.38777206, 49.09141975 ], [ 19.3874294, 49.09166669 ], [ 19.38737968, 49.09166824 ], [ 19.38719716, 49.0915361 ], [ 19.38716294, 49.09177693 ], [ 19.38709172, 49.09217901 ], [ 19.38681305, 49.09247638 ], [ 19.38607145, 49.09281185 ], [ 19.38738961, 49.09282817 ], [ 19.3876261, 49.0920503 ], [ 19.38794258, 49.09158279 ], [ 19.38815393, 49.09151622 ], [ 19.38893726, 49.09158676 ], [ 19.38976385, 49.09179004 ], [ 19.39041999, 49.09183343 ], [ 19.39069262, 49.09156499 ], [ 19.39069194, 49.09154341 ], [ 19.39076926, 49.0914393 ], [ 19.39081522, 49.09137744 ], [ 19.3905045, 49.09150472 ], [ 19.39048496, 49.09143042 ], [ 19.390287, 49.09143811 ], [ 19.38997438, 49.09162463 ], [ 19.38993562, 49.09162894 ], [ 19.38983159, 49.09154006 ], [ 19.3896074, 49.09142635 ], [ 19.38943254, 49.09137291 ], [ 19.38938857, 49.09137203 ], [ 19.38934859, 49.09137737 ], [ 19.38915277, 49.09140328 ] ] ] } },
{ "type": "Feature", "properties": { "@featureType": "CadastralParcel", "areaValue": { "value": 3191, "@uom": "m2" }, "beginLifespanVersion": { "@nilReason": "http://inspire.ec.europa.eu/codelist/VoidReasonValue/Unpopulated", "@nil": "true" }, "endLifespanVersion": { "@nilReason": "http://inspire.ec.europa.eu/codelist/VoidReasonValue/Unpopulated", "@nil": "true" }, "inspireId": { "@dataType": "Identifier", "localId": "821403_639.C", "namespace": "SK.ESKN.CP", "versionId": "20260703T05:07:44" }, "label": "639", "nationalCadastralReference": "821403_639.C", "referencePoint": { "type": "Point", "coordinates": [ 19.3908665, 49.09026054 ] }, "validFrom": "2026-06-30T16:00:00Z", "validTo": { "@nilReason": "http://inspire.ec.europa.eu/codelist/VoidReasonValue/Unpopulated", "@nil": "true" }, "administrativeUnit": { "@href": "#auAdmUnitS.2761" } }, "geometry": { "type": "Polygon", "coordinates": [ [ [ 19.39127799, 49.09066946 ], [ 19.39116427, 49.09012034 ], [ 19.39073007, 49.08995715 ], [ 19.39041395, 49.09046093 ], [ 19.39047675, 49.09042104 ], [ 19.3906129, 49.09041118 ], [ 19.39075226, 49.09040075 ], [ 19.39076319, 49.09047212 ], [ 19.39075361, 49.09051747 ], [ 19.39090047, 49.09051388 ], [ 19.39090214, 49.09054028 ], [ 19.39090525, 49.09059136 ], [ 19.39075745, 49.09059851 ], [ 19.39069818, 49.0906932 ], [ 19.39070958, 49.090759 ], [ 19.39071535, 49.09076531 ], [ 19.39090489, 49.09074659 ], [ 19.39128176, 49.0907094 ], [ 19.39127799, 49.09066946 ] ] ] } },
{ "type": "Feature", "properties": { "@featureType": "CadastralParcel", "areaValue": { "value": 4641, "@uom": "m2" }, "beginLifespanVersion": { "@nilReason": "http://inspire.ec.europa.eu/codelist/VoidReasonValue/Unpopulated", "@nil": "true" }, "endLifespanVersion": { "@nilReason": "http://inspire.ec.europa.eu/codelist/VoidReasonValue/Unpopulated", "@nil": "true" }, "inspireId": { "@dataType": "Identifier", "localId": "821403_621.E", "namespace": "SK.ESKN.CP", "versionId": "20260703T05:07:44" }, "label": "621", "nationalCadastralReference": "821403_621.E", "referencePoint": { "type": "Point", "coordinates": [ 19.38729385, 49.09225663 ] }, "validFrom": "2026-06-30T16:00:00Z", "validTo": { "@nilReason": "http://inspire.ec.europa.eu/codelist/VoidReasonValue/Unpopulated", "@nil": "true" }, "administrativeUnit": { "@href": "#auAdmUnitS.2761" } }, "geometry": { "type": "Polygon", "coordinates": [ [ [ 19.38417117, 49.09263032 ], [ 19.3841655, 49.0928887 ], [ 19.38419786, 49.09296234 ], [ 19.38515897, 49.09308747 ], [ 19.3853114, 49.09310723 ], [ 19.3853817, 49.09310709 ], [ 19.38546161, 49.09310696 ], [ 19.38568774, 49.09304596 ], [ 19.38593958, 49.09294163 ], [ 19.38620378, 49.09289539 ], [ 19.38706133, 49.09252243 ], [ 19.38724673, 49.09234331 ], [ 19.38739379, 49.09218603 ], [ 19.38757911, 49.09193803 ], [ 19.38769797, 49.09172947 ], [ 19.38793992, 49.09155039 ], [ 19.38823584, 49.09143558 ], [ 19.38851124, 49.09137084 ], [ 19.38914009, 49.09143163 ], [ 19.38979554, 49.0914978 ], [ 19.38993706, 49.09157762 ], [ 19.38993562, 49.09149344 ], [ 19.38993241, 49.09149266 ], [ 19.38970578, 49.09143816 ], [ 19.38967762, 49.091418 ], [ 19.38943254, 49.09137291 ], [ 19.38938857, 49.09137203 ], [ 19.38934859, 49.09137737 ], [ 19.38915277, 49.09140328 ], [ 19.38852545, 49.0913157 ], [ 19.38820565, 49.09138873 ], [ 19.38793619, 49.09150126 ], [ 19.38766165, 49.09169225 ], [ 19.387464, 49.09199187 ], [ 19.38720551, 49.09232723 ], [ 19.38682301, 49.09254779 ], [ 19.38636191, 49.09278162 ], [ 19.38558996, 49.09301596 ], [ 19.38521745, 49.0929521 ], [ 19.38504253, 49.09288026 ], [ 19.38417117, 49.09263032 ] ] ] } },
{ "type": "Feature", "properties": { "@featureType": "CadastralParcel", "areaValue": { "value": 19937, "@uom": "m2" }, "beginLifespanVersion": { "@nilReason": "http://inspire.ec.europa.eu/codelist/VoidReasonValue/Unpopulated", "@nil": "true" }, "endLifespanVersion": { "@nilReason": "http://inspire.ec.europa.eu/codelist/VoidReasonValue/Unpopulated", "@nil": "true" }, "inspireId": { "@dataType": "Identifier", "localId": "821403_625.E", "namespace": "SK.ESKN.CP", "versionId": "20260703T05:07:44" }, "label": "625", "nationalCadastralReference": "821403_625.E", "referencePoint": { "type": "Point", "coordinates": [ 19.38888098, 49.09058661 ] }, "validFrom": "2026-06-30T16:00:00Z", "validTo": { "@nilReason": "http://inspire.ec.europa.eu/codelist/VoidReasonValue/Unpopulated", "@nil": "true" }, "administrativeUnit": { "@href": "#auAdmUnitS.2761" } }, "geometry": { "type": "Polygon", "coordinates": [ [ [ 19.39005375, 49.09018237 ], [ 19.39026922, 49.08981191 ], [ 19.39014324, 49.08971027 ], [ 19.38986255, 49.08976061 ], [ 19.38953883, 49.08982427 ], [ 19.38921409, 49.08988724 ], [ 19.38888939, 49.08995229 ], [ 19.38886094, 49.08995763 ], [ 19.38871315, 49.09019765 ], [ 19.38758715, 49.09097556 ], [ 19.38748372, 49.09109261 ], [ 19.38739857, 49.09159277 ], [ 19.3874416, 49.09161371 ], [ 19.3872723, 49.09173047 ], [ 19.38723485, 49.09216561 ], [ 19.38760615, 49.0916774 ], [ 19.38786023, 49.09144722 ], [ 19.38819977, 49.09133409 ], [ 19.38850583, 49.09126502 ], [ 19.38909954, 49.09133588 ], [ 19.38916456, 49.09118828 ], [ 19.38926352, 49.09120616 ], [ 19.38984706, 49.0901681 ], [ 19.39005375, 49.09018237 ] ] ] } }
]
}
