{
"type": "FeatureCollection",
"name": "gis",
"crs": { "type": "name", "properties": { "name": "urn:ogc:def:crs:OGC:1.3:CRS84" } },
"features": [
{ "type": "Feature", "properties": { "@featureType": "CadastralParcel", "areaValue": { "value": 2057, "@uom": "m2" }, "beginLifespanVersion": { "@nilReason": "http://inspire.ec.europa.eu/codelist/VoidReasonValue/Unpopulated", "@nil": "true" }, "endLifespanVersion": { "@nilReason": "http://inspire.ec.europa.eu/codelist/VoidReasonValue/Unpopulated", "@nil": "true" }, "inspireId": { "@dataType": "Identifier", "localId": "822884_5569.E", "namespace": "SK.ESKN.CP", "versionId": "20260703T04:07:59" }, "label": "5569", "nationalCadastralReference": "822884_5569.E", "referencePoint": { "type": "Point", "coordinates": [ 17.23818383, 48.22758343 ] }, "validFrom": "2026-06-30T16:00:00Z", "validTo": { "@nilReason": "http://inspire.ec.europa.eu/codelist/VoidReasonValue/Unpopulated", "@nil": "true" }, "administrativeUnit": { "@href": "#auAdmUnitS.1485" } }, "geometry": { "type": "Polygon", "coordinates": [ [ [ 17.2393157, 48.22813714 ], [ 17.23928971, 48.22811914 ], [ 17.23907269, 48.22798621 ], [ 17.23860516, 48.22773537 ], [ 17.23800675, 48.22742159 ], [ 17.23758463, 48.22720739 ], [ 17.23733014, 48.22707539 ], [ 17.23701423, 48.22709041 ], [ 17.23695864, 48.22709312 ], [ 17.2376655, 48.22743149 ], [ 17.23844225, 48.22773663 ], [ 17.23885836, 48.22788599 ], [ 17.23903913, 48.22799627 ], [ 17.23925055, 48.22818857 ], [ 17.23927507, 48.22816923 ], [ 17.2393157, 48.22813714 ] ] ] } },
{ "type": "Feature", "properties": { "@featureType": "CadastralParcel", "areaValue": { "value": 860, "@uom": "m2" }, "beginLifespanVersion": { "@nilReason": "http://inspire.ec.europa.eu/codelist/VoidReasonValue/Unpopulated", "@nil": "true" }, "endLifespanVersion": { "@nilReason": "http://inspire.ec.europa.eu/codelist/VoidReasonValue/Unpopulated", "@nil": "true" }, "inspireId": { "@dataType": "Identifier", "localId": "822884_4124/3.E", "namespace": "SK.ESKN.CP", "versionId": "20260703T04:07:59" }, "label": "4124/3", "nationalCadastralReference": "822884_4124/3.E", "referencePoint": { "type": "Point", "coordinates": [ 17.18723135, 48.23259243 ] }, "validFrom": "2026-06-30T16:00:00Z", "validTo": { "@nilReason": "http://inspire.ec.europa.eu/codelist/VoidReasonValue/Unpopulated", "@nil": "true" }, "administrativeUnit": { "@href": "#auAdmUnitS.1485" } }, "geometry": { "type": "Polygon", "coordinates": [ [ [ 17.18741494, 48.23304855 ], [ 17.18751858, 48.23301066 ], [ 17.18704896, 48.23214801 ], [ 17.18699847, 48.232159 ], [ 17.18694673, 48.23217026 ], [ 17.18694884, 48.2321742 ], [ 17.18741494, 48.23304855 ] ] ] } },
{ "type": "Feature", "properties": { "@featureType": "CadastralParcel", "areaValue": { "value": 2349, "@uom": "m2" }, "beginLifespanVersion": { "@nilReason": "http://inspire.ec.europa.eu/codelist/VoidReasonValue/Unpopulated", "@nil": "true" }, "endLifespanVersion": { "@nilReason": "http://inspire.ec.europa.eu/codelist/VoidReasonValue/Unpopulated", "@nil": "true" }, "inspireId": { "@dataType": "Identifier", "localId": "822884_4129.E", "namespace": "SK.ESKN.CP", "versionId": "20260703T04:07:59" }, "label": "4129", "nationalCadastralReference": "822884_4129.E", "referencePoint": { "type": "Point", "coordinates": [ 17.18757597, 48.23237481 ] }, "validFrom": "2026-06-30T16:00:00Z", "validTo": { "@nilReason": "http://inspire.ec.europa.eu/codelist/VoidReasonValue/Unpopulated", "@nil": "true" }, "administrativeUnit": { "@href": "#auAdmUnitS.1485" } }, "geometry": { "type": "Polygon", "coordinates": [ [ [ 17.18771067, 48.23294048 ], [ 17.18794944, 48.23285318 ], [ 17.18799606, 48.2328328 ], [ 17.18798866, 48.23281721 ], [ 17.1879325, 48.23269839 ], [ 17.18784022, 48.2326048 ], [ 17.18777451, 48.23249826 ], [ 17.18771825, 48.23225136 ], [ 17.18761798, 48.23203982 ], [ 17.18759245, 48.23201073 ], [ 17.18741597, 48.23206705 ], [ 17.18725786, 48.23210101 ], [ 17.18771067, 48.23294048 ] ] ] } },
{ "type": "Feature", "properties": { "@featureType": "CadastralParcel", "areaValue": { "value": 345, "@uom": "m2" }, "beginLifespanVersion": { "@nilReason": "http://inspire.ec.europa.eu/codelist/VoidReasonValue/Unpopulated", "@nil": "true" }, "endLifespanVersion": { "@nilReason": "http://inspire.ec.europa.eu/codelist/VoidReasonValue/Unpopulated", "@nil": "true" }, "inspireId": { "@dataType": "Identifier", "localId": "822884_4124/4.E", "namespace": "SK.ESKN.CP", "versionId": "20260703T04:07:59" }, "label": "4124/4", "nationalCadastralReference": "822884_4124/4.E", "referencePoint": { "type": "Point", "coordinates": [ 17.18730433, 48.23257246 ] }, "validFrom": "2026-06-30T16:00:00Z", "validTo": { "@nilReason": "http://inspire.ec.europa.eu/codelist/VoidReasonValue/Unpopulated", "@nil": "true" }, "administrativeUnit": { "@href": "#auAdmUnitS.1485" } }, "geometry": { "type": "Polygon", "coordinates": [ [ [ 17.18751858, 48.23301066 ], [ 17.18755622, 48.23299692 ], [ 17.18709566, 48.23213794 ], [ 17.18704896, 48.23214801 ], [ 17.18751858, 48.23301066 ] ] ] } },
{ "type": "Feature", "properties": { "@featureType": "CadastralParcel", "areaValue": { "value": 403, "@uom": "m2" }, "beginLifespanVersion": { "@nilReason": "http://inspire.ec.europa.eu/codelist/VoidReasonValue/Unpopulated", "@nil": "true" }, "endLifespanVersion": { "@nilReason": "http://inspire.ec.europa.eu/codelist/VoidReasonValue/Unpopulated", "@nil": "true" }, "inspireId": { "@dataType": "Identifier", "localId": "822884_4124/12.E", "namespace": "SK.ESKN.CP", "versionId": "20260703T04:07:59" }, "label": "4124/12", "nationalCadastralReference": "822884_4124/12.E", "referencePoint": { "type": "Point", "coordinates": [ 17.18705467, 48.23265125 ] }, "validFrom": "2026-06-30T16:00:00Z", "validTo": { "@nilReason": "http://inspire.ec.europa.eu/codelist/VoidReasonValue/Unpopulated", "@nil": "true" }, "administrativeUnit": { "@href": "#auAdmUnitS.1485" } }, "geometry": { "type": "Polygon", "coordinates": [ [ [ 17.18724951, 48.23310516 ], [ 17.18730556, 48.23308596 ], [ 17.18685553, 48.23220283 ], [ 17.18681058, 48.23221654 ], [ 17.18724951, 48.23310516 ] ] ] } },
{ "type": "Feature", "properties": { "@featureType": "CadastralParcel", "areaValue": { "value": 853, "@uom": "m2" }, "beginLifespanVersion": { "@nilReason": "http://inspire.ec.europa.eu/codelist/VoidReasonValue/Unpopulated", "@nil": "true" }, "endLifespanVersion": { "@nilReason": "http://inspire.ec.europa.eu/codelist/VoidReasonValue/Unpopulated", "@nil": "true" }, "inspireId": { "@dataType": "Identifier", "localId": "822884_4124/22.E", "namespace": "SK.ESKN.CP", "versionId": "20260703T04:07:59" }, "label": "4124/22", "nationalCadastralReference": "822884_4124/22.E", "referencePoint": { "type": "Point", "coordinates": [ 17.18713027, 48.23262569 ] }, "validFrom": "2026-06-30T16:00:00Z", "validTo": { "@nilReason": "http://inspire.ec.europa.eu/codelist/VoidReasonValue/Unpopulated", "@nil": "true" }, "administrativeUnit": { "@href": "#auAdmUnitS.1485" } }, "geometry": { "type": "Polygon", "coordinates": [ [ [ 17.18730556, 48.23308596 ], [ 17.18741494, 48.23304855 ], [ 17.18694884, 48.2321742 ], [ 17.18685553, 48.23220283 ], [ 17.18730556, 48.23308596 ] ] ] } },
{ "type": "Feature", "properties": { "@featureType": "CadastralParcel", "areaValue": { "value": 2248, "@uom": "m2" }, "beginLifespanVersion": { "@nilReason": "http://inspire.ec.europa.eu/codelist/VoidReasonValue/Unpopulated", "@nil": "true" }, "endLifespanVersion": { "@nilReason": "http://inspire.ec.europa.eu/codelist/VoidReasonValue/Unpopulated", "@nil": "true" }, "inspireId": { "@dataType": "Identifier", "localId": "822884_4121/2.E", "namespace": "SK.ESKN.CP", "versionId": "20260703T04:07:59" }, "label": "4121/2", "nationalCadastralReference": "822884_4121/2.E", "referencePoint": { "type": "Point", "coordinates": [ 17.18690767, 48.23272872 ] }, "validFrom": "2026-06-30T16:00:00Z", "validTo": { "@nilReason": "http://inspire.ec.europa.eu/codelist/VoidReasonValue/Unpopulated", "@nil": "true" }, "administrativeUnit": { "@href": "#auAdmUnitS.1485" } }, "geometry": { "type": "Polygon", "coordinates": [ [ [ 17.18697719, 48.23319337 ], [ 17.18703787, 48.23317756 ], [ 17.18724951, 48.23310516 ], [ 17.18681058, 48.23221654 ], [ 17.18656914, 48.23235229 ], [ 17.18697719, 48.23319337 ] ] ] } },
{ "type": "Feature", "properties": { "@featureType": "CadastralParcel", "areaValue": { "value": 2194, "@uom": "m2" }, "beginLifespanVersion": { "@nilReason": "http://inspire.ec.europa.eu/codelist/VoidReasonValue/Unpopulated", "@nil": "true" }, "endLifespanVersion": { "@nilReason": "http://inspire.ec.europa.eu/codelist/VoidReasonValue/Unpopulated", "@nil": "true" }, "inspireId": { "@dataType": "Identifier", "localId": "822884_4120/2.E", "namespace": "SK.ESKN.CP", "versionId": "20260703T04:07:59" }, "label": "4120/2", "nationalCadastralReference": "822884_4120/2.E", "referencePoint": { "type": "Point", "coordinates": [ 17.18663689, 48.23281489 ] }, "validFrom": "2026-06-30T16:00:00Z", "validTo": { "@nilReason": "http://inspire.ec.europa.eu/codelist/VoidReasonValue/Unpopulated", "@nil": "true" }, "administrativeUnit": { "@href": "#auAdmUnitS.1485" } }, "geometry": { "type": "Polygon", "coordinates": [ [ [ 17.18670567, 48.23326637 ], [ 17.18697719, 48.23319337 ], [ 17.18656914, 48.23235229 ], [ 17.18650664, 48.2323856 ], [ 17.18646327, 48.23238432 ], [ 17.18646299, 48.23238801 ], [ 17.18629121, 48.23243642 ], [ 17.18670567, 48.23326637 ] ] ] } },
{ "type": "Feature", "properties": { "@featureType": "CadastralParcel", "areaValue": { "value": 1284, "@uom": "m2" }, "beginLifespanVersion": { "@nilReason": "http://inspire.ec.europa.eu/codelist/VoidReasonValue/Unpopulated", "@nil": "true" }, "endLifespanVersion": { "@nilReason": "http://inspire.ec.europa.eu/codelist/VoidReasonValue/Unpopulated", "@nil": "true" }, "inspireId": { "@dataType": "Identifier", "localId": "822884_4125.E", "namespace": "SK.ESKN.CP", "versionId": "20260703T04:07:59" }, "label": "4125", "nationalCadastralReference": "822884_4125.E", "referencePoint": { "type": "Point", "coordinates": [ 17.18740252, 48.23253921 ] }, "validFrom": "2026-06-30T16:00:00Z", "validTo": { "@nilReason": "http://inspire.ec.europa.eu/codelist/VoidReasonValue/Unpopulated", "@nil": "true" }, "administrativeUnit": { "@href": "#auAdmUnitS.1485" } }, "geometry": { "type": "Polygon", "coordinates": [ [ [ 17.18755622, 48.23299692 ], [ 17.18771067, 48.23294048 ], [ 17.18725786, 48.23210101 ], [ 17.18709566, 48.23213794 ], [ 17.18755622, 48.23299692 ] ] ] } },
{ "type": "Feature", "properties": { "@featureType": "CadastralParcel", "areaValue": { "value": 158170, "@uom": "m2" }, "beginLifespanVersion": { "@nilReason": "http://inspire.ec.europa.eu/codelist/VoidReasonValue/Unpopulated", "@nil": "true" }, "endLifespanVersion": { "@nilReason": "http://inspire.ec.europa.eu/codelist/VoidReasonValue/Unpopulated", "@nil": "true" }, "inspireId": { "@dataType": "Identifier", "localId": "822884_7406/1.C", "namespace": "SK.ESKN.CP", "versionId": "20260703T04:07:59" }, "label": "7406/1", "nationalCadastralReference": "822884_7406/1.C", "referencePoint": { "type": "Point", "coordinates": [ 17.21751909, 48.22643312 ] }, "validFrom": "2026-06-30T16:00:00Z", "validTo": { "@nilReason": "http://inspire.ec.europa.eu/codelist/VoidReasonValue/Unpopulated", "@nil": "true" }, "administrativeUnit": { "@href": "#auAdmUnitS.1485" } }, "geometry": { "type": "Polygon", "coordinates": [ [ [ 17.21477596, 48.22453619 ], [ 17.21471756, 48.22457305 ], [ 17.21427954, 48.22484999 ], [ 17.21382056, 48.2248666 ], [ 17.21377255, 48.22486836 ], [ 17.21375226, 48.22484758 ], [ 17.21369828, 48.22485129 ], [ 17.21349502, 48.2250671 ], [ 17.213453, 48.22509836 ], [ 17.21484835, 48.22603953 ], [ 17.21388891, 48.22678182 ], [ 17.21393339, 48.22681091 ], [ 17.21374009, 48.22728913 ], [ 17.21462064, 48.22735898 ], [ 17.21541096, 48.22742162 ], [ 17.21603525, 48.22747109 ], [ 17.21665967, 48.22752065 ], [ 17.21729585, 48.22757109 ], [ 17.2179263, 48.22762105 ], [ 17.21855366, 48.2276708 ], [ 17.21879603, 48.22768997 ], [ 17.21903826, 48.22770921 ], [ 17.21928063, 48.22772837 ], [ 17.21949211, 48.2277452 ], [ 17.21979076, 48.22776884 ], [ 17.22119215, 48.22787992 ], [ 17.22119713, 48.22786561 ], [ 17.2211936, 48.22773541 ], [ 17.22112149, 48.22743686 ], [ 17.22101876, 48.22716582 ], [ 17.22054618, 48.22608442 ], [ 17.22031988, 48.22570987 ], [ 17.21989389, 48.2251801 ], [ 17.21958101, 48.22477139 ], [ 17.21961743, 48.22473857 ], [ 17.21946873, 48.22465029 ], [ 17.21918675, 48.22461022 ], [ 17.21877317, 48.22460819 ], [ 17.21863977, 48.22462468 ], [ 17.21850116, 48.22463169 ], [ 17.21778592, 48.22460002 ], [ 17.21705576, 48.22456409 ], [ 17.21634052, 48.22453241 ], [ 17.21562425, 48.22449677 ], [ 17.21489717, 48.22447098 ], [ 17.21478113, 48.22450707 ], [ 17.21477596, 48.22453619 ] ] ] } },
{ "type": "Feature", "properties": { "@featureType": "CadastralParcel", "areaValue": { "value": 47663, "@uom": "m2" }, "beginLifespanVersion": { "@nilReason": "http://inspire.ec.europa.eu/codelist/VoidReasonValue/Unpopulated", "@nil": "true" }, "endLifespanVersion": { "@nilReason": "http://inspire.ec.europa.eu/codelist/VoidReasonValue/Unpopulated", "@nil": "true" }, "inspireId": { "@dataType": "Identifier", "localId": "822884_7405.C", "namespace": "SK.ESKN.CP", "versionId": "20260703T04:07:59" }, "label": "7405", "nationalCadastralReference": "822884_7405.C", "referencePoint": { "type": "Point", "coordinates": [ 17.21267593, 48.2262481 ] }, "validFrom": "2026-06-30T16:00:00Z", "validTo": { "@nilReason": "http://inspire.ec.europa.eu/codelist/VoidReasonValue/Unpopulated", "@nil": "true" }, "administrativeUnit": { "@href": "#auAdmUnitS.1485" } }, "geometry": { "type": "Polygon", "coordinates": [ [ [ 17.21251416, 48.22570029 ], [ 17.2119217, 48.22568682 ], [ 17.21151627, 48.22587692 ], [ 17.21120041, 48.22594574 ], [ 17.21047832, 48.22645666 ], [ 17.21003332, 48.22681249 ], [ 17.20984617, 48.2269802 ], [ 17.21059089, 48.22703928 ], [ 17.21130674, 48.22709607 ], [ 17.21250074, 48.22719087 ], [ 17.21374009, 48.22728913 ], [ 17.21393339, 48.22681091 ], [ 17.21388891, 48.22678182 ], [ 17.21484835, 48.22603953 ], [ 17.213453, 48.22509836 ], [ 17.21299931, 48.22555683 ], [ 17.21264167, 48.22566263 ], [ 17.21251416, 48.22570029 ] ] ] } },
{ "type": "Feature", "properties": { "@featureType": "CadastralParcel", "areaValue": { "value": 7718, "@uom": "m2" }, "beginLifespanVersion": { "@nilReason": "http://inspire.ec.europa.eu/codelist/VoidReasonValue/Unpopulated", "@nil": "true" }, "endLifespanVersion": { "@nilReason": "http://inspire.ec.europa.eu/codelist/VoidReasonValue/Unpopulated", "@nil": "true" }, "inspireId": { "@dataType": "Identifier", "localId": "822884_4559/109.C", "namespace": "SK.ESKN.CP", "versionId": "20260703T04:07:59" }, "label": "4559/109", "nationalCadastralReference": "822884_4559/109.C", "referencePoint": { "type": "Point", "coordinates": [ 17.21305184, 48.22761144 ] }, "validFrom": "2026-06-30T16:00:00Z", "validTo": { "@nilReason": "http://inspire.ec.europa.eu/codelist/VoidReasonValue/Unpopulated", "@nil": "true" }, "administrativeUnit": { "@href": "#auAdmUnitS.1485" } }, "geometry": { "type": "Polygon", "coordinates": [ [ [ 17.21374009, 48.22728913 ], [ 17.21250074, 48.22719087 ], [ 17.21236359, 48.22793376 ], [ 17.21360295, 48.22803202 ], [ 17.21374009, 48.22728913 ] ] ] } },
{ "type": "Feature", "properties": { "@featureType": "CadastralParcel", "areaValue": { "value": 5483, "@uom": "m2" }, "beginLifespanVersion": { "@nilReason": "http://inspire.ec.europa.eu/codelist/VoidReasonValue/Unpopulated", "@nil": "true" }, "endLifespanVersion": { "@nilReason": "http://inspire.ec.europa.eu/codelist/VoidReasonValue/Unpopulated", "@nil": "true" }, "inspireId": { "@dataType": "Identifier", "localId": "822884_4559/40.C", "namespace": "SK.ESKN.CP", "versionId": "20260703T04:07:59" }, "label": "4559/40", "nationalCadastralReference": "822884_4559/40.C", "referencePoint": { "type": "Point", "coordinates": [ 17.21411177, 48.2276955 ] }, "validFrom": "2026-06-30T16:00:00Z", "validTo": { "@nilReason": "http://inspire.ec.europa.eu/codelist/VoidReasonValue/Unpopulated", "@nil": "true" }, "administrativeUnit": { "@href": "#auAdmUnitS.1485" } }, "geometry": { "type": "Polygon", "coordinates": [ [ [ 17.21462064, 48.22735898 ], [ 17.21374009, 48.22728913 ], [ 17.21360295, 48.22803202 ], [ 17.21448338, 48.22810187 ], [ 17.21462064, 48.22735898 ] ] ] } }
]
}
