{
"type": "FeatureCollection",
"name": "gis",
"crs": { "type": "name", "properties": { "name": "urn:ogc:def:crs:OGC:1.3:CRS84" } },
"features": [
{ "type": "Feature", "properties": { "@featureType": "CadastralParcel", "areaValue": { "value": 3806, "@uom": "m2" }, "beginLifespanVersion": { "@nilReason": "http://inspire.ec.europa.eu/codelist/VoidReasonValue/Unpopulated", "@nil": "true" }, "endLifespanVersion": { "@nilReason": "http://inspire.ec.europa.eu/codelist/VoidReasonValue/Unpopulated", "@nil": "true" }, "inspireId": { "@dataType": "Identifier", "localId": "871664_815/83.C", "namespace": "SK.ESKN.CP", "versionId": "20260703T07:07:43" }, "label": "815/83", "nationalCadastralReference": "871664_815/83.C", "referencePoint": { "type": "Point", "coordinates": [ 17.99906619, 48.88855735 ] }, "validFrom": "2026-06-30T16:00:00Z", "validTo": { "@nilReason": "http://inspire.ec.europa.eu/codelist/VoidReasonValue/Unpopulated", "@nil": "true" }, "administrativeUnit": { "@href": "#auAdmUnitS.672" } }, "geometry": { "type": "Polygon", "coordinates": [ [ [ 17.99888955, 48.88866929 ], [ 17.99892112, 48.88868181 ], [ 17.99894524, 48.88869778 ], [ 17.99895022, 48.88871658 ], [ 17.99894259, 48.88873446 ], [ 17.99892179, 48.88875752 ], [ 17.99890494, 48.88879183 ], [ 17.99888547, 48.88885352 ], [ 17.99888432, 48.88887205 ], [ 17.99889563, 48.88890676 ], [ 17.99891261, 48.88893088 ], [ 17.99895277, 48.88896792 ], [ 17.99899072, 48.88899797 ], [ 17.9990537, 48.88902724 ], [ 17.99916019, 48.88907182 ], [ 18.00139202, 48.89001246 ], [ 18.00151181, 48.89006306 ], [ 18.00208918, 48.89030635 ], [ 18.00228795, 48.89035104 ], [ 18.00241018, 48.89035239 ], [ 18.00257237, 48.89033777 ], [ 18.0030293, 48.89023581 ], [ 18.00341366, 48.89015006 ], [ 18.00348313, 48.89013457 ], [ 18.00367431, 48.89009195 ], [ 18.00384897, 48.89005206 ], [ 18.00395991, 48.89001446 ], [ 18.00409107, 48.889945 ], [ 18.00416591, 48.88988694 ], [ 18.00483945, 48.88919389 ], [ 18.0048966, 48.88913496 ], [ 18.00527266, 48.88874805 ], [ 18.00528407, 48.88873464 ], [ 18.00534961, 48.88866736 ], [ 18.00537885, 48.88863351 ], [ 18.00543237, 48.88857112 ], [ 18.00544473, 48.88854359 ], [ 18.00489879, 48.88910575 ], [ 18.00479946, 48.88920806 ], [ 18.00471812, 48.88929183 ], [ 18.00471366, 48.88929644 ], [ 18.00463693, 48.88937552 ], [ 18.00462279, 48.88938995 ], [ 18.0045728, 48.88944144 ], [ 18.00455879, 48.88945587 ], [ 18.00439739, 48.88962205 ], [ 18.00435808, 48.88966253 ], [ 18.00412919, 48.88989822 ], [ 18.00406829, 48.8899423 ], [ 18.00401437, 48.88998147 ], [ 18.00386403, 48.89003489 ], [ 18.00348832, 48.89011853 ], [ 18.00340359, 48.89013746 ], [ 18.00337974, 48.89014273 ], [ 18.00318573, 48.890186 ], [ 18.00309382, 48.89020639 ], [ 18.00255924, 48.89032553 ], [ 18.00238671, 48.89033972 ], [ 18.00231027, 48.89034604 ], [ 18.0020983, 48.89029569 ], [ 18.00209414, 48.890294 ], [ 18.00173557, 48.89014254 ], [ 18.00155155, 48.89006486 ], [ 18.00151736, 48.89005038 ], [ 18.00140742, 48.89000398 ], [ 18.00091081, 48.88979416 ], [ 18.00088814, 48.88978461 ], [ 18.00081887, 48.88975532 ], [ 18.00069183, 48.88970168 ], [ 18.0004836, 48.88961372 ], [ 18.00046068, 48.88960406 ], [ 18.00035735, 48.8895604 ], [ 18.00034038, 48.88955326 ], [ 18.00013072, 48.88946476 ], [ 18.00009278, 48.8894487 ], [ 17.99994386, 48.88938582 ], [ 17.99954412, 48.88921693 ], [ 17.99954307, 48.8892166 ], [ 17.99935765, 48.8891382 ], [ 17.99902278, 48.8889968 ], [ 17.99900162, 48.88889758 ], [ 17.99896583, 48.88873068 ], [ 17.99918662, 48.88850337 ], [ 17.99965636, 48.8880198 ], [ 17.99985295, 48.88781742 ], [ 18.00003824, 48.88762665 ], [ 18.00010733, 48.88755543 ], [ 18.0008214, 48.88682029 ], [ 18.00229058, 48.88710406 ], [ 18.00239274, 48.88712915 ], [ 18.00240149, 48.88713129 ], [ 18.00251649, 48.88715957 ], [ 18.00255797, 48.88716969 ], [ 18.00260885, 48.88718218 ], [ 18.00263099, 48.88718755 ], [ 18.00264431, 48.88719231 ], [ 18.00276232, 48.88723476 ], [ 18.00294992, 48.88730209 ], [ 18.00329529, 48.88744789 ], [ 18.00386091, 48.88768678 ], [ 18.00407237, 48.8877761 ], [ 18.00415875, 48.88781253 ], [ 18.00468981, 48.88803683 ], [ 18.00473034, 48.88805394 ], [ 18.00477022, 48.88807083 ], [ 18.00481451, 48.88808952 ], [ 18.00485996, 48.88810872 ], [ 18.00493973, 48.88814242 ], [ 18.0051442, 48.88822879 ], [ 18.0052351, 48.88826721 ], [ 18.00506931, 48.88818239 ], [ 18.00482611, 48.88807973 ], [ 18.00473895, 48.88804298 ], [ 18.00404419, 48.8877497 ], [ 18.00312757, 48.88736314 ], [ 18.00286952, 48.88725599 ], [ 18.00257771, 48.8871584 ], [ 18.00229475, 48.88709257 ], [ 18.0019557, 48.88702732 ], [ 18.00063233, 48.88677075 ], [ 18.00056557, 48.88684599 ], [ 18.00051695, 48.88695598 ], [ 18.00047895, 48.887022 ], [ 18.00042822, 48.88708401 ], [ 18.00009153, 48.88743089 ], [ 17.99985783, 48.88767162 ], [ 17.99888955, 48.88866929 ] ] ] } },
{ "type": "Feature", "properties": { "@featureType": "CadastralParcel", "areaValue": { "value": 4278, "@uom": "m2" }, "beginLifespanVersion": { "@nilReason": "http://inspire.ec.europa.eu/codelist/VoidReasonValue/Unpopulated", "@nil": "true" }, "endLifespanVersion": { "@nilReason": "http://inspire.ec.europa.eu/codelist/VoidReasonValue/Unpopulated", "@nil": "true" }, "inspireId": { "@dataType": "Identifier", "localId": "871664_815/2.C", "namespace": "SK.ESKN.CP", "versionId": "20260703T07:07:43" }, "label": "815/2", "nationalCadastralReference": "871664_815/2.C", "referencePoint": { "type": "Point", "coordinates": [ 17.99988431, 48.88839645 ] }, "validFrom": "2026-06-30T16:00:00Z", "validTo": { "@nilReason": "http://inspire.ec.europa.eu/codelist/VoidReasonValue/Unpopulated", "@nil": "true" }, "administrativeUnit": { "@href": "#auAdmUnitS.672" } }, "geometry": { "type": "Polygon", "coordinates": [ [ [ 17.99987656, 48.88879468 ], [ 18.00045083, 48.88841452 ], [ 18.00050544, 48.88837838 ], [ 17.99965636, 48.8880198 ], [ 17.99918662, 48.88850337 ], [ 17.99987656, 48.88879468 ] ] ] } }
]
}
