{
"type": "FeatureCollection",
"name": "gis",
"crs": { "type": "name", "properties": { "name": "urn:ogc:def:crs:OGC:1.3:CRS84" } },
"features": [
{ "type": "Feature", "properties": { "@featureType": "CadastralZoning", "beginLifespanVersion": { "@nilReason": "http://inspire.ec.europa.eu/codelist/VoidReasonValue/Unpopulated", "@nil": "true" }, "endLifespanVersion": { "@nilReason": "http://inspire.ec.europa.eu/codelist/VoidReasonValue/Unpopulated", "@nil": "true" }, "estimatedAccuracy": { "value": -1, "@uom": "m" }, "inspireId": { "@dataType": "Identifier", "localId": "829412", "namespace": "SK.ESKN.CP", "versionId": "20260703T04:07:40" }, "label": "Krpeľany", "level": { "@href": "http://inspire.ec.europa.eu/codelist/CadastralZoningLevelValue/3rdOrder" }, "levelName": { "value": "Katastrálne územie", "@locale": "sk" }, "name_1": { "@dataType": "name", "GeographicalName": { "@dataType": "GeographicalName", "language": "SLK", "nativeness": { "@href": "http://inspire.ec.europa.eu/codelist/NativenessValue/endonym", "@title": "endonym" }, "nameStatus": { "@href": "http://inspire.ec.europa.eu/codelist/NameStatusValue/official", "@title": "official" }, "sourceOfName": { "@nilReason": "http://inspire.ec.europa.eu/codelist/VoidReasonValue/Unpopulated", "@nil": "true" }, "pronunciation": { "@dataType": "pronunciation", "@nilReason": "http://inspire.ec.europa.eu/codelist/VoidReasonValue/Unpopulated", "@nil": "true" }, "spelling": { "@dataType": "SpellingOfName", "text": "Krpeľany", "script": "LATN" } } }, "nationalCadastalZoningReference": "829412", "validFrom": "2026-06-30T16:00:00Z", "validTo": { "@nilReason": "http://inspire.ec.europa.eu/codelist/VoidReasonValue/Unpopulated", "@nil": "true" }, "place_id": 419246524, "osm_type": "relation", "osm_id": 2228457, "place_rank": 22, "category": "place", "type": "cadastral_community", "importance": 0.10671904707408253, "addresstype": "cadastral_community", "name_2": "Krpeľany", "display_name": "Krpeľany, okres Martin, Žilinský kraj, Slovensko" }, "geometry": { "type": "Polygon", "coordinates": [ [ [ 19.09681976, 49.14992037 ], [ 19.096866322735313, 49.149706016618218 ], [ 19.096954, 49.149301 ], [ 19.097015, 49.149042 ], [ 19.097309, 49.148433 ], [ 19.098171824633305, 49.14654772817623 ], [ 19.09850859, 49.14581186 ], [ 19.09841119, 49.1456479 ], [ 19.098411038098195, 49.145647063756158 ], [ 19.098411, 49.145647 ], [ 19.098406681102578, 49.145623077795456 ], [ 19.09825617, 49.14479449 ], [ 19.09821359, 49.14397348 ], [ 19.09818543, 49.14333282 ], [ 19.098186011322674, 49.143332259208442 ], [ 19.098186, 49.143332 ], [ 19.098432, 49.143094 ], [ 19.0991046370421, 49.142266946740705 ], [ 19.09952114, 49.14175418 ], [ 19.10065888, 49.14108398 ], [ 19.10149763, 49.14017469 ], [ 19.102315876030204, 49.139463401646033 ], [ 19.102737, 49.139097 ], [ 19.103301, 49.138997 ], [ 19.103592, 49.139043 ], [ 19.103865988019784, 49.139146554527166 ], [ 19.1039732, 49.13918685 ], [ 19.104066526837126, 49.139201804061742 ], [ 19.10451, 49.139272 ], [ 19.104950693209247, 49.139115032660683 ], [ 19.10525345, 49.13900661 ], [ 19.105590586681203, 49.138968400609954 ], [ 19.10569, 49.138957 ], [ 19.106762, 49.139146 ], [ 19.107039489102615, 49.139185310956201 ], [ 19.10724197, 49.1392136 ], [ 19.107532666725696, 49.139192038514061 ], [ 19.107917, 49.139163 ], [ 19.10836, 49.139157 ], [ 19.109389, 49.13895 ], [ 19.109881, 49.138979 ], [ 19.110868, 49.139212 ], [ 19.111669, 49.138932 ], [ 19.112406, 49.139042 ], [ 19.112479137150629, 49.139044721382355 ], [ 19.11326585, 49.13907313 ], [ 19.113817387137296, 49.139039013506519 ], [ 19.114054, 49.139024 ], [ 19.115148458578982, 49.139070976760927 ], [ 19.11514877, 49.13907099 ], [ 19.115221025704852, 49.139062762456042 ], [ 19.115831, 49.138993 ], [ 19.116073, 49.139024 ], [ 19.11657, 49.139087 ], [ 19.116696304110267, 49.139142189404708 ], [ 19.11702972, 49.13928731 ], [ 19.11733201, 49.13946888 ], [ 19.117403832883976, 49.139518978490344 ], [ 19.117733, 49.139748 ], [ 19.118367422362944, 49.140113365091253 ], [ 19.11920201, 49.14059325 ], [ 19.119441720932357, 49.140768729924034 ], [ 19.119652, 49.140922 ], [ 19.120721356639972, 49.141432750486302 ], [ 19.120881156380651, 49.141508966270841 ], [ 19.122105, 49.141245 ], [ 19.122448994864676, 49.141225629415388 ], [ 19.12261971, 49.1412158 ], [ 19.122877, 49.14115672 ], [ 19.123135807764609, 49.141115810435338 ], [ 19.123631, 49.141037 ], [ 19.123744, 49.140935 ], [ 19.124071, 49.140909 ], [ 19.124443497321554, 49.140899687566964 ], [ 19.12463122, 49.14089481 ], [ 19.12471352925186, 49.140868784825877 ], [ 19.124886, 49.140814 ], [ 19.124956614976966, 49.140809200923897 ], [ 19.12509149, 49.14079969 ], [ 19.125286695332193, 49.140691692662884 ], [ 19.125394, 49.140632 ], [ 19.125716, 49.140498 ], [ 19.126019029873589, 49.140419268873963 ], [ 19.12625044, 49.14035871 ], [ 19.126511060031142, 49.140353146558788 ], [ 19.126562, 49.140352 ], [ 19.126729, 49.140359 ], [ 19.126991, 49.140271 ], [ 19.127248, 49.140076 ], [ 19.127425, 49.140028 ], [ 19.127583373142556, 49.139926888808006 ], [ 19.12773187, 49.13983144 ], [ 19.128044537872196, 49.139545613255891 ], [ 19.128222, 49.139383 ], [ 19.128284747705408, 49.139314276322651 ], [ 19.12845247, 49.13912964 ], [ 19.12872049, 49.13890245 ], [ 19.12892011, 49.13887895 ], [ 19.129095807876308, 49.138824795543208 ], [ 19.129413, 49.138727 ], [ 19.129441824389048, 49.138719462880601 ], [ 19.12969585, 49.13865264 ], [ 19.13000199, 49.13859774 ], [ 19.13016569, 49.13859881 ], [ 19.130326811353566, 49.138515652652117 ], [ 19.130494, 49.138429 ], [ 19.130699, 49.138357 ], [ 19.131059, 49.138197 ], [ 19.131622, 49.137912 ], [ 19.131753833843618, 49.137845464720577 ], [ 19.13215486, 49.13764232 ], [ 19.132379981137451, 49.137546963275661 ], [ 19.13249, 49.1375 ], [ 19.132682226619259, 49.137455640010941 ], [ 19.13287933, 49.13740978 ], [ 19.133008289296004, 49.1372672419864 ], [ 19.133013, 49.137262 ], [ 19.133013077405831, 49.137261949714457 ], [ 19.13301324, 49.13726177 ], [ 19.13328679, 49.13708354 ], [ 19.133556978429638, 49.136990029607361 ], [ 19.133649, 49.136958 ], [ 19.133748848857579, 49.136940347163303 ], [ 19.13382999, 49.1369258 ], [ 19.133895744196185, 49.136898096939994 ], [ 19.134002, 49.136853 ], [ 19.134793, 49.136713 ], [ 19.135132501272079, 49.136766517441906 ], [ 19.13540178, 49.13680874 ], [ 19.135439468038875, 49.136823689174335 ], [ 19.135578, 49.136878 ], [ 19.135754, 49.136973 ], [ 19.136267, 49.136931 ], [ 19.1363556898533, 49.136926928990334 ], [ 19.13657161, 49.13691628 ], [ 19.13705674, 49.13695381 ], [ 19.13723477, 49.13695458 ], [ 19.13781771, 49.13706866 ], [ 19.13789245, 49.13705681 ], [ 19.13837998, 49.13695097 ], [ 19.138551758036062, 49.136926904448181 ], [ 19.138936, 49.136873 ], [ 19.139473, 49.136726 ], [ 19.140079, 49.136594 ], [ 19.140499, 49.136656 ], [ 19.141404, 49.136587 ], [ 19.141909503318871, 49.136553033373829 ], [ 19.14185487, 49.13638374 ], [ 19.14182445, 49.13628974 ], [ 19.141769994396192, 49.136015516590902 ], [ 19.141724, 49.135786 ], [ 19.141647, 49.135482 ], [ 19.141417, 49.135073 ], [ 19.141332973109144, 49.134922654364701 ], [ 19.1411744, 49.13464078 ], [ 19.14107698347339, 49.134363247454282 ], [ 19.141039, 49.134256 ], [ 19.141015589484507, 49.134043718206982 ], [ 19.14097958, 49.13372149 ], [ 19.1409696, 49.13363263 ], [ 19.14058934, 49.13309283 ], [ 19.14014354, 49.13224919 ], [ 19.14020461, 49.13213729 ], [ 19.14031795, 49.13192939 ], [ 19.14038649, 49.1318037 ], [ 19.140316860156918, 49.131698443008439 ], [ 19.140185, 49.1315 ], [ 19.140100685769159, 49.131369204847033 ], [ 19.13995025, 49.13113744 ], [ 19.14006962, 49.13077591 ], [ 19.14006977646677, 49.130775679991842 ], [ 19.14007, 49.130775 ], [ 19.140372848138767, 49.130330160766661 ], [ 19.14037525, 49.13032663 ], [ 19.1405531, 49.13019672 ], [ 19.140608313114488, 49.130109728197148 ], [ 19.140688, 49.129984 ], [ 19.141118490217902, 49.129570366326774 ], [ 19.14168392, 49.1290267 ], [ 19.14200642, 49.12864407 ], [ 19.14226641, 49.12828914 ], [ 19.14340269, 49.12743598 ], [ 19.143513504531644, 49.127362665174459 ], [ 19.143622490664153, 49.127290338013793 ], [ 19.14369162, 49.12707533 ], [ 19.143554675135722, 49.126725897031768 ], [ 19.143443, 49.126442 ], [ 19.143402191798671, 49.126305796003358 ], [ 19.1433658, 49.12618543 ], [ 19.14299166, 49.12567552 ], [ 19.14271133, 49.12507632 ], [ 19.14226874, 49.12480292 ], [ 19.14206656, 49.12456012 ], [ 19.14208182, 49.12423912 ], [ 19.14201386, 49.1238585 ], [ 19.14160877, 49.12334671 ], [ 19.1415266, 49.12312528 ], [ 19.14127715, 49.1226816 ], [ 19.141230231519604, 49.122582724382603 ], [ 19.14105, 49.122204 ], [ 19.140925718347585, 49.122141157017566 ], [ 19.14069569, 49.12202565 ], [ 19.14025679, 49.12167162 ], [ 19.140101906071237, 49.121398767618707 ], [ 19.14002, 49.121255 ], [ 19.139965201813528, 49.121214857142469 ], [ 19.13984777, 49.12112942 ], [ 19.13949032, 49.12081689 ], [ 19.139076155068899, 49.120762696180613 ], [ 19.138931, 49.120744 ], [ 19.138163164512445, 49.120593673474296 ], [ 19.13807854, 49.12057714 ], [ 19.137934787921353, 49.120556083779867 ], [ 19.137407, 49.120479 ], [ 19.137143506040406, 49.119985277098969 ], [ 19.13710623, 49.11991557 ], [ 19.137049459009379, 49.119836832080466 ], [ 19.136706, 49.119362 ], [ 19.136606, 49.119265 ], [ 19.136511, 49.119173 ], [ 19.136453596235917, 49.119132339000444 ], [ 19.13622267, 49.11896986 ], [ 19.13534766, 49.11873542 ], [ 19.135060355776492, 49.118585886773765 ], [ 19.135049, 49.11858 ], [ 19.135048937886292, 49.118579944104575 ], [ 19.13504893, 49.11857994 ], [ 19.13455559, 49.11825831 ], [ 19.13415025, 49.11777154 ], [ 19.13378043, 49.11756226 ], [ 19.133780405114045, 49.117562228834693 ], [ 19.13378, 49.117562 ], [ 19.133704212436054, 49.117466810819678 ], [ 19.13352992, 49.11724854 ], [ 19.133373506492966, 49.117155594310127 ], [ 19.13332, 49.117124 ], [ 19.132860695095093, 49.116709797179951 ], [ 19.13282132, 49.11667432 ], [ 19.132821264425488, 49.116674238459865 ], [ 19.132821, 49.116674 ], [ 19.132539, 49.116261 ], [ 19.132284065119212, 49.116099177355267 ], [ 19.13214186, 49.11600937 ], [ 19.13174782, 49.11557229 ], [ 19.13154575, 49.11547068 ], [ 19.131374710103088, 49.115283596288656 ], [ 19.131308, 49.115211 ], [ 19.131282952281737, 49.115160591466996 ], [ 19.13122794, 49.11505067 ], [ 19.13114429, 49.11498526 ], [ 19.13110905, 49.11492311 ], [ 19.131085055857287, 49.114918799273205 ], [ 19.131052, 49.114913 ], [ 19.130914, 49.114805 ], [ 19.130829108821928, 49.114725768233804 ], [ 19.130793894298399, 49.114692954236475 ], [ 19.130533, 49.11458 ], [ 19.130478115808859, 49.114559607250079 ], [ 19.13031511, 49.11449953 ], [ 19.1300854, 49.11447313 ], [ 19.130085277448206, 49.114473031363708 ], [ 19.130085, 49.114473 ], [ 19.129792, 49.114237 ], [ 19.129785700053187, 49.114232738271276 ], [ 19.12941784, 49.11398449 ], [ 19.129232774358314, 49.113879195653091 ], [ 19.128985, 49.113739 ], [ 19.128752743717182, 49.113630690960385 ], [ 19.12858394, 49.11355254 ], [ 19.12834157, 49.11359404 ], [ 19.12829293, 49.11360987 ], [ 19.12754506, 49.11385412 ], [ 19.12685793, 49.11398095 ], [ 19.1264402, 49.11397959 ], [ 19.12614387, 49.11401602 ], [ 19.126122786475023, 49.114015901789237 ], [ 19.125928, 49.114015 ], [ 19.12575, 49.113935 ], [ 19.125678824117735, 49.113891899049072 ], [ 19.12538953, 49.11371689 ], [ 19.125394812309889, 49.113680105624177 ], [ 19.125396, 49.113671 ], [ 19.125159560896758, 49.113575676725176 ], [ 19.12463704, 49.11336545 ], [ 19.12458174, 49.11334317 ], [ 19.12369121, 49.113093 ], [ 19.12321582, 49.1129997 ], [ 19.123035715017185, 49.112915994890614 ], [ 19.122875, 49.112842 ], [ 19.12285651359046, 49.11282784019695 ], [ 19.12282772, 49.11280689 ], [ 19.12275894720042, 49.112756982307999 ], [ 19.122695535103368, 49.112735734275475 ], [ 19.12237691, 49.11262922 ], [ 19.12202402, 49.11243011 ], [ 19.12169715, 49.11208926 ], [ 19.121696875217335, 49.112088846139017 ], [ 19.1215644, 49.1119255 ], [ 19.121477007004891, 49.11175769397547 ], [ 19.12147237, 49.11175071 ], [ 19.12144479, 49.1116672 ], [ 19.121439716174486, 49.111651903355664 ], [ 19.121431, 49.111627 ], [ 19.121395, 49.111519 ], [ 19.121380124218661, 49.1114720238484 ], [ 19.12137588, 49.11145921 ], [ 19.121323281630783, 49.111335826180493 ], [ 19.121281, 49.111237 ], [ 19.121272, 49.111206 ], [ 19.121258908869113, 49.111159912046055 ], [ 19.12119833, 49.11094956 ], [ 19.12115242, 49.11066145 ], [ 19.12094175, 49.11032449 ], [ 19.120463195682753, 49.109739420611362 ], [ 19.120177, 49.10939 ], [ 19.120151086056833, 49.109345460410182 ], [ 19.12008039, 49.10922534 ], [ 19.11980398, 49.1083899 ], [ 19.11967194, 49.10792342 ], [ 19.119619070654796, 49.10786683832837 ], [ 19.119541, 49.107784 ], [ 19.119541250316853, 49.107783553680328 ], [ 19.11954106, 49.10778335 ], [ 19.11964687, 49.10759485 ], [ 19.1202129, 49.10697002 ], [ 19.120242918433529, 49.106931319175644 ], [ 19.120592, 49.10648 ], [ 19.120819, 49.105565 ], [ 19.12091, 49.105425 ], [ 19.120586, 49.105354 ], [ 19.120586072591436, 49.105353782755557 ], [ 19.12058606, 49.10535378 ], [ 19.12085947, 49.10453387 ], [ 19.12091773, 49.10445521 ], [ 19.120944061845417, 49.104409220311013 ], [ 19.12107, 49.104188 ], [ 19.121085657786399, 49.104087487113112 ], [ 19.12110059, 49.10398904 ], [ 19.12175029, 49.10329834 ], [ 19.12235459, 49.10311012 ], [ 19.122322653936493, 49.102956214329652 ], [ 19.122298, 49.102839 ], [ 19.122138, 49.102568 ], [ 19.122138010433929, 49.102567958264281 ], [ 19.12213781, 49.10256762 ], [ 19.122232604677247, 49.102189581291007 ], [ 19.122240904426555, 49.102156382293785 ], [ 19.122185582768857, 49.102022438246294 ], [ 19.122063, 49.101727 ], [ 19.121843, 49.1013 ], [ 19.121834509295613, 49.101150705114598 ], [ 19.12181848, 49.10087853 ], [ 19.121727638615237, 49.100670360489175 ], [ 19.121665, 49.100528 ], [ 19.121525006993625, 49.100374788769848 ], [ 19.12143172, 49.10027304 ], [ 19.12117382, 49.09990499 ], [ 19.12076983, 49.09921577 ], [ 19.12064822, 49.09887497 ], [ 19.120491337878196, 49.098655987676651 ], [ 19.120362, 49.098476 ], [ 19.120244262075083, 49.098209423566225 ], [ 19.12020322, 49.09811674 ], [ 19.1200021, 49.09794365 ], [ 19.11988795, 49.09775219 ], [ 19.119760224975579, 49.097537863472589 ], [ 19.119521, 49.097137 ], [ 19.119034, 49.096551 ], [ 19.119033781320944, 49.096550579860711 ], [ 19.11903369, 49.09655047 ], [ 19.118997228285753, 49.096480351982073 ], [ 19.118907, 49.096307 ], [ 19.118832752333923, 49.096228235365643 ], [ 19.11864356, 49.0960283 ], [ 19.11851645, 49.09573962 ], [ 19.11818164, 49.09545282 ], [ 19.117951, 49.09499412 ], [ 19.11769403, 49.09460745 ], [ 19.11765273, 49.09452399 ], [ 19.117533861192886, 49.094283812820713 ], [ 19.117336208784515, 49.094017281542754 ], [ 19.117300214068077, 49.093984135368643 ], [ 19.11714, 49.093837 ], [ 19.11700804066643, 49.093614095720319 ], [ 19.11699232, 49.0935876 ], [ 19.11658814, 49.09319279 ], [ 19.11653772, 49.09300617 ], [ 19.11641242, 49.09286574 ], [ 19.11628117, 49.09247495 ], [ 19.116279598016657, 49.092466949046461 ], [ 19.116164717446999, 49.092081893034134 ], [ 19.11615317, 49.09212562 ], [ 19.116061768542419, 49.092192050686741 ], [ 19.1160396, 49.0922274 ], [ 19.1154889, 49.0926094 ], [ 19.115430107464107, 49.092651142700483 ], [ 19.1153666, 49.0926973 ], [ 19.115080147739608, 49.092877344048318 ], [ 19.115031, 49.0929194 ], [ 19.1142063, 49.0936252 ], [ 19.1139411, 49.0942323 ], [ 19.1136606, 49.0946264 ], [ 19.1137733, 49.095278 ], [ 19.1136148, 49.0956184 ], [ 19.1134227, 49.0961827 ], [ 19.1133245, 49.096338 ], [ 19.113312395197127, 49.096346706293552 ], [ 19.11331203, 49.09634728 ], [ 19.11299512, 49.09657581 ], [ 19.112508678609611, 49.096771305075201 ], [ 19.1123799, 49.0969915 ], [ 19.1122306, 49.097496 ], [ 19.1121054, 49.097872 ], [ 19.1116472, 49.0982777 ], [ 19.111643729936556, 49.098279548039379 ], [ 19.11163492, 49.09828735 ], [ 19.111007894677261, 49.098621684888109 ], [ 19.1110838, 49.098648 ], [ 19.111314, 49.0987742 ], [ 19.1115761, 49.0989777 ], [ 19.111699, 49.0990005 ], [ 19.1117273, 49.09909 ], [ 19.111712824754512, 49.099091693911703 ], [ 19.11171535, 49.09909957 ], [ 19.11154613, 49.09911902 ], [ 19.1112494, 49.09901994 ], [ 19.11115377, 49.09889864 ], [ 19.110844845592993, 49.0988438486566 ], [ 19.1107595, 49.0989205 ], [ 19.1108422, 49.0991795 ], [ 19.1108578, 49.0993808 ], [ 19.1108525, 49.0995598 ], [ 19.110840418082653, 49.099560375565673 ], [ 19.11084014, 49.09956911 ], [ 19.11059696, 49.09958087 ], [ 19.110445267669764, 49.099554970586709 ], [ 19.1101873, 49.0998089 ], [ 19.1103153, 49.1001759 ], [ 19.1104198, 49.1003851 ], [ 19.11025, 49.1007171 ], [ 19.1100815, 49.1013175 ], [ 19.1101816, 49.1014769 ], [ 19.109999, 49.1018263 ], [ 19.1099701, 49.1021518 ], [ 19.1099149, 49.1023206 ], [ 19.1096566, 49.1026166 ], [ 19.1084512, 49.1040882 ], [ 19.108258, 49.1043378 ], [ 19.1080193, 49.1046858 ], [ 19.107717, 49.1049955 ], [ 19.1070617, 49.1057094 ], [ 19.107054124412439, 49.105714104315688 ], [ 19.10704911, 49.10571957 ], [ 19.106135164093821, 49.106286937064375 ], [ 19.105971721904169, 49.106419225783036 ], [ 19.105786517403878, 49.106569236796872 ], [ 19.1052383, 49.1072226 ], [ 19.1048059, 49.1078372 ], [ 19.10449, 49.10848 ], [ 19.104046, 49.1091918 ], [ 19.1038585, 49.1096177 ], [ 19.1037143, 49.109976 ], [ 19.1031357, 49.1109214 ], [ 19.1030376, 49.1114306 ], [ 19.1029455, 49.1116639 ], [ 19.1019972, 49.11244 ], [ 19.1011582, 49.113677 ], [ 19.1010052, 49.1143514 ], [ 19.100995504003496, 49.114349414992837 ], [ 19.1009929, 49.11436089 ], [ 19.10089137, 49.11434056 ], [ 19.10044265, 49.11423162 ], [ 19.10016475, 49.11432047 ], [ 19.09949793, 49.1143181 ], [ 19.09898895, 49.11408382 ], [ 19.09664464, 49.11364421 ], [ 19.09474905, 49.11298454 ], [ 19.09353468, 49.11246827 ], [ 19.09267613, 49.11210318 ], [ 19.09266183, 49.1121105 ], [ 19.092341837745966, 49.112274617738969 ], [ 19.0922045, 49.1125888 ], [ 19.092196273724969, 49.112589155935034 ], [ 19.09219242, 49.11259795 ], [ 19.09080673, 49.11265819 ], [ 19.09052785, 49.11267032 ], [ 19.090126946940362, 49.11268778250853 ], [ 19.0893518, 49.1134997 ], [ 19.089349403090601, 49.113499305291995 ], [ 19.08933981, 49.11350935 ], [ 19.08904665, 49.11346143 ], [ 19.08764486, 49.11378778 ], [ 19.08756406, 49.11380119 ], [ 19.08744938, 49.11382015 ], [ 19.08730472, 49.11384412 ], [ 19.08697775, 49.11389823 ], [ 19.08602917, 49.1140553 ], [ 19.08497934, 49.11422918 ], [ 19.084318544869351, 49.114338607713066 ], [ 19.0832185, 49.117822 ], [ 19.0834212, 49.1183708 ], [ 19.083452, 49.1184626 ], [ 19.0837268, 49.1192179 ], [ 19.083708701744516, 49.119210612746464 ], [ 19.08371478, 49.11922729 ], [ 19.08264262, 49.11879558 ], [ 19.0820258, 49.1187064 ], [ 19.08195039, 49.11868825 ], [ 19.08082457, 49.1186108 ], [ 19.07972271, 49.11852929 ], [ 19.078816322028743, 49.118509384985899 ], [ 19.078789964866036, 49.118553878524423 ], [ 19.07878617, 49.11856245 ], [ 19.07877728, 49.11858249 ], [ 19.07874465, 49.11863696 ], [ 19.07874362, 49.11863872 ], [ 19.078404003216047, 49.11920542056388 ], [ 19.0761782, 49.1229628 ], [ 19.0761332, 49.1229976 ], [ 19.0770565, 49.1233759 ], [ 19.0783178, 49.123772 ], [ 19.080676, 49.1245908 ], [ 19.0818389, 49.1250675 ], [ 19.0829479, 49.1256916 ], [ 19.0838343, 49.1262607 ], [ 19.0844177, 49.1267258 ], [ 19.0847116, 49.1269758 ], [ 19.0851654, 49.127306 ], [ 19.0860001, 49.1280065 ], [ 19.086803, 49.1287451 ], [ 19.0871809, 49.1291199 ], [ 19.0875415, 49.1294817 ], [ 19.0876948, 49.1296954 ], [ 19.0880213, 49.1301885 ], [ 19.0881904, 49.1304718 ], [ 19.0883024, 49.1306318 ], [ 19.0884953, 49.1309748 ], [ 19.0888432, 49.1317181 ], [ 19.0889859, 49.1322413 ], [ 19.0891557, 49.1330308 ], [ 19.0892038, 49.1335032 ], [ 19.0892983, 49.1343037 ], [ 19.0893405, 49.1350881 ], [ 19.089373, 49.1360964 ], [ 19.0894121, 49.1370406 ], [ 19.0894684, 49.1379351 ], [ 19.0895752, 49.1386967 ], [ 19.0897149, 49.1394037 ], [ 19.0900378, 49.1404656 ], [ 19.0904887, 49.1418789 ], [ 19.0905372, 49.1418711 ], [ 19.0907178, 49.1424436 ], [ 19.090878, 49.1427808 ], [ 19.0909994, 49.1428272 ], [ 19.091085, 49.1430197 ], [ 19.0910517, 49.1431061 ], [ 19.0910426, 49.1431168 ], [ 19.0911232, 49.1432549 ], [ 19.0913637, 49.1437458 ], [ 19.0918587, 49.1446518 ], [ 19.0925443, 49.1458083 ], [ 19.09326, 49.1455799 ], [ 19.093576, 49.1464397 ], [ 19.0939703, 49.1472821 ], [ 19.0949249, 49.1488801 ], [ 19.0953158, 49.1493942 ], [ 19.0957782, 49.1497777 ], [ 19.0962977, 49.1500716 ], [ 19.096962, 49.150272 ], [ 19.097222596103379, 49.149987441036544 ], [ 19.09681976, 49.14992037 ] ] ] } }
]
}
