{
"type": "FeatureCollection",
"name": "gis",
"crs": { "type": "name", "properties": { "name": "urn:ogc:def:crs:OGC:1.3:CRS84" } },
"features": [
{ "type": "Feature", "properties": { "@featureType": "CadastralZoning", "beginLifespanVersion": { "@nilReason": "http://inspire.ec.europa.eu/codelist/VoidReasonValue/Unpopulated", "@nil": "true" }, "endLifespanVersion": { "@nilReason": "http://inspire.ec.europa.eu/codelist/VoidReasonValue/Unpopulated", "@nil": "true" }, "estimatedAccuracy": { "value": -1, "@uom": "m" }, "inspireId": { "@dataType": "Identifier", "localId": "848077", "namespace": "SK.ESKN.CP", "versionId": "20260703T04:07:40" }, "label": "Poltár", "level": { "@href": "http://inspire.ec.europa.eu/codelist/CadastralZoningLevelValue/3rdOrder" }, "levelName": { "value": "Katastrálne územie", "@locale": "sk" }, "name": { "@dataType": "name", "GeographicalName": { "@dataType": "GeographicalName", "language": "SLK", "nativeness": { "@href": "http://inspire.ec.europa.eu/codelist/NativenessValue/endonym", "@title": "endonym" }, "nameStatus": { "@href": "http://inspire.ec.europa.eu/codelist/NameStatusValue/official", "@title": "official" }, "sourceOfName": { "@nilReason": "http://inspire.ec.europa.eu/codelist/VoidReasonValue/Unpopulated", "@nil": "true" }, "pronunciation": { "@dataType": "pronunciation", "@nilReason": "http://inspire.ec.europa.eu/codelist/VoidReasonValue/Unpopulated", "@nil": "true" }, "spelling": { "@dataType": "SpellingOfName", "text": "Poltár", "script": "LATN" } } }, "nationalCadastalZoningReference": "848077", "validFrom": "2026-06-30T16:00:00Z", "validTo": { "@nilReason": "http://inspire.ec.europa.eu/codelist/VoidReasonValue/Unpopulated", "@nil": "true" } }, "geometry": { "type": "MultiPolygon", "coordinates": [ [ [ [ 19.78365905, 48.45073213 ], [ 19.78388836, 48.45079168 ], [ 19.78428433, 48.45072966 ], [ 19.78457661, 48.4506502 ], [ 19.78547873, 48.45031954 ], [ 19.78567798, 48.4502478 ], [ 19.78588811, 48.45016869 ], [ 19.78593334, 48.45015671 ], [ 19.78656194, 48.44993887 ], [ 19.78693033, 48.4498119 ], [ 19.78731057, 48.44967609 ], [ 19.78746551, 48.44959473 ], [ 19.78773504, 48.44946451 ], [ 19.78821514, 48.449278 ], [ 19.78839992, 48.44920319 ], [ 19.78860386, 48.44908397 ], [ 19.78905382, 48.44888027 ], [ 19.78905893, 48.44887797 ], [ 19.78930454, 48.44877157 ], [ 19.78978792, 48.44856834 ], [ 19.79024328, 48.44840715 ], [ 19.79085277, 48.44818079 ], [ 19.79100932, 48.44812266 ], [ 19.79110307, 48.4480845 ], [ 19.79117408, 48.44805562 ], [ 19.79134747, 48.44797661 ], [ 19.79139932, 48.44795373 ], [ 19.79147881, 48.44791864 ], [ 19.79153137, 48.44789544 ], [ 19.79848071, 48.44677442 ], [ 19.79854321, 48.44676436 ], [ 19.7989988, 48.44669075 ], [ 19.79905441, 48.44668183 ], [ 19.79909448, 48.44667538 ], [ 19.79972308, 48.44668379 ], [ 19.80098521, 48.44704279 ], [ 19.80194432, 48.44732461 ], [ 19.80267247, 48.44713339 ], [ 19.80361204, 48.44666868 ], [ 19.80470292, 48.44633279 ], [ 19.8053117, 48.44626901 ], [ 19.80608594, 48.44614856 ], [ 19.80656512, 48.44594698 ], [ 19.80766402, 48.44559808 ], [ 19.8081931, 48.44537821 ], [ 19.80867968, 48.44513855 ], [ 19.80949627, 48.4446959 ], [ 19.81033019, 48.44413918 ], [ 19.81187993, 48.44331476 ], [ 19.81346301, 48.44266672 ], [ 19.81376724, 48.44255445 ], [ 19.81429414, 48.44236005 ], [ 19.81517304, 48.44217607 ], [ 19.8165541, 48.4419317 ], [ 19.81748643, 48.44167134 ], [ 19.81862699, 48.44168153 ], [ 19.81995143, 48.44145457 ], [ 19.82180632, 48.44121268 ], [ 19.82231704, 48.44110236 ], [ 19.82362911, 48.44104201 ], [ 19.82367508, 48.44103464 ], [ 19.82354113, 48.44044133 ], [ 19.8234743, 48.4400441 ], [ 19.82321518, 48.4390037 ], [ 19.82324536, 48.43839023 ], [ 19.82304197, 48.43787357 ], [ 19.82356492, 48.43706482 ], [ 19.82417981, 48.43578139 ], [ 19.82438183, 48.43535954 ], [ 19.82460303, 48.43520244 ], [ 19.82489163, 48.43511614 ], [ 19.8253086, 48.43476027 ], [ 19.82543476, 48.43425725 ], [ 19.82555233, 48.43413736 ], [ 19.82560752, 48.43387514 ], [ 19.82631899, 48.43288117 ], [ 19.82634058, 48.43207788 ], [ 19.82626479, 48.43161608 ], [ 19.82630819, 48.43134839 ], [ 19.82636475, 48.43117952 ], [ 19.8266461, 48.43033905 ], [ 19.82672776, 48.43031846 ], [ 19.82678665, 48.43030362 ], [ 19.82664561, 48.43016508 ], [ 19.82646907, 48.42986834 ], [ 19.8263551, 48.42963093 ], [ 19.82623757, 48.42943509 ], [ 19.82605402, 48.42923449 ], [ 19.82594087, 48.4291443 ], [ 19.82574582, 48.4290152 ], [ 19.82554675, 48.42879346 ], [ 19.82549635, 48.42873728 ], [ 19.825097, 48.4282923 ], [ 19.82505718, 48.42821386 ], [ 19.82447674, 48.4277472 ], [ 19.82420775, 48.42761272 ], [ 19.82414639, 48.42759075 ], [ 19.82410963, 48.42757762 ], [ 19.82395839, 48.42752361 ], [ 19.82369456, 48.42731608 ], [ 19.82303107, 48.4267124 ], [ 19.82254706, 48.42662163 ], [ 19.82226988, 48.42670517 ], [ 19.8217479, 48.42686258 ], [ 19.82167589, 48.42688423 ], [ 19.82109431, 48.42633467 ], [ 19.82062533, 48.42583138 ], [ 19.8202841, 48.42560559 ], [ 19.8201025, 48.42547762 ], [ 19.81990115, 48.42532481 ], [ 19.81930751, 48.42481427 ], [ 19.8187654, 48.42419441 ], [ 19.81872202, 48.4240767 ], [ 19.81865348, 48.42388299 ], [ 19.81863928, 48.42322153 ], [ 19.81864342, 48.42291833 ], [ 19.81868801, 48.42256741 ], [ 19.81864638, 48.42212936 ], [ 19.81866589, 48.42201106 ], [ 19.81864885, 48.42173037 ], [ 19.81867779, 48.42097598 ], [ 19.81867838, 48.42096032 ], [ 19.81868064, 48.42090165 ], [ 19.81868152, 48.42088033 ], [ 19.81869247, 48.42059455 ], [ 19.81872804, 48.42060467 ], [ 19.81927192, 48.41973899 ], [ 19.81938045, 48.41956634 ], [ 19.81964204, 48.41914991 ], [ 19.82026338, 48.4184447 ], [ 19.82016341, 48.41845476 ], [ 19.82019572, 48.41829303 ], [ 19.82023894, 48.41829131 ], [ 19.82051668, 48.41786602 ], [ 19.82050921, 48.4176008 ], [ 19.82042183, 48.41727676 ], [ 19.82048004, 48.41703072 ], [ 19.82050871, 48.41675869 ], [ 19.82048093, 48.41649358 ], [ 19.82053103, 48.41625007 ], [ 19.82057502, 48.41604802 ], [ 19.82068237, 48.41565072 ], [ 19.82067967, 48.41549522 ], [ 19.820597, 48.41522789 ], [ 19.82058519, 48.41511263 ], [ 19.82056124, 48.41506851 ], [ 19.82054021, 48.41496169 ], [ 19.82050452, 48.41484143 ], [ 19.82048957, 48.41479111 ], [ 19.82048258, 48.41476728 ], [ 19.82041094, 48.41466429 ], [ 19.82033982, 48.4145533 ], [ 19.82031284, 48.41444911 ], [ 19.82022755, 48.41425791 ], [ 19.82015579, 48.41403243 ], [ 19.820129, 48.4139277 ], [ 19.82008707, 48.41381456 ], [ 19.8200521, 48.4137695 ], [ 19.819986, 48.4136846 ], [ 19.81992989, 48.41362879 ], [ 19.81987575, 48.41357497 ], [ 19.81974939, 48.41350114 ], [ 19.8195979, 48.41342404 ], [ 19.81942517, 48.41335368 ], [ 19.81925243, 48.41329991 ], [ 19.81900477, 48.41325071 ], [ 19.81878879, 48.41320153 ], [ 19.8185491, 48.41315673 ], [ 19.81823533, 48.41304885 ], [ 19.81807653, 48.41299109 ], [ 19.8179401, 48.41292465 ], [ 19.8179261, 48.41291422 ], [ 19.81786393, 48.41286779 ], [ 19.81781449, 48.41283084 ], [ 19.81771268, 48.41271815 ], [ 19.81766004, 48.41264366 ], [ 19.81763385, 48.41257834 ], [ 19.81761725, 48.4124609 ], [ 19.81763699, 48.41236631 ], [ 19.81768572, 48.41220422 ], [ 19.81778478, 48.41202594 ], [ 19.81783314, 48.41194324 ], [ 19.81796039, 48.41183892 ], [ 19.81810768, 48.41171935 ], [ 19.81825406, 48.41158576 ], [ 19.81842248, 48.41146882 ], [ 19.81866901, 48.41130806 ], [ 19.81876783, 48.41120638 ], [ 19.81874485, 48.4111951 ], [ 19.8188052, 48.41111428 ], [ 19.81895282, 48.41088413 ], [ 19.81907659, 48.41071332 ], [ 19.81937862, 48.41045764 ], [ 19.81958136, 48.41029596 ], [ 19.81966131, 48.41017831 ], [ 19.81968996, 48.41006753 ], [ 19.81963766, 48.40994555 ], [ 19.81950122, 48.40974321 ], [ 19.81938021, 48.4095299 ], [ 19.81913615, 48.40917901 ], [ 19.81905935, 48.40890166 ], [ 19.81896601, 48.40860944 ], [ 19.81890497, 48.40846085 ], [ 19.81879688, 48.40813004 ], [ 19.81872886, 48.40782829 ], [ 19.81871088, 48.40762723 ], [ 19.81860787, 48.40734946 ], [ 19.81847755, 48.40706581 ], [ 19.81836972, 48.40680675 ], [ 19.81826635, 48.40666875 ], [ 19.81815683, 48.40650516 ], [ 19.81800374, 48.40627549 ], [ 19.81788478, 48.40613087 ], [ 19.81772535, 48.40603423 ], [ 19.81754874, 48.40598289 ], [ 19.81728396, 48.40596367 ], [ 19.81700206, 48.4059766 ], [ 19.81670416, 48.40600091 ], [ 19.81630691, 48.40604701 ], [ 19.81580327, 48.40608748 ], [ 19.81517793, 48.40615138 ], [ 19.8147371, 48.40618089 ], [ 19.81429804, 48.40617586 ], [ 19.81383167, 48.40624201 ], [ 19.81325941, 48.40634003 ], [ 19.81329844, 48.40616247 ], [ 19.81337961, 48.40594051 ], [ 19.81344488, 48.40578365 ], [ 19.81349541, 48.40566796 ], [ 19.8135786, 48.40550783 ], [ 19.81367289, 48.40526535 ], [ 19.81375634, 48.40507242 ], [ 19.81386621, 48.40487929 ], [ 19.81393421, 48.40474013 ], [ 19.81405779, 48.40453967 ], [ 19.81411492, 48.40436929 ], [ 19.81413385, 48.40429666 ], [ 19.81414059, 48.40427091 ], [ 19.81414225, 48.40424439 ], [ 19.81414598, 48.40418462 ], [ 19.81422589, 48.40402344 ], [ 19.81434804, 48.40382922 ], [ 19.81444544, 48.40365673 ], [ 19.81451827, 48.40350561 ], [ 19.81457888, 48.4033535 ], [ 19.81460096, 48.40322558 ], [ 19.81465843, 48.40304756 ], [ 19.81470771, 48.40285656 ], [ 19.81474744, 48.40264838 ], [ 19.8147459, 48.402495 ], [ 19.81475749, 48.40229631 ], [ 19.81473699, 48.40216094 ], [ 19.81471934, 48.40203786 ], [ 19.81469133, 48.40196219 ], [ 19.81467326, 48.40191345 ], [ 19.8145755, 48.40172973 ], [ 19.8144975, 48.40158301 ], [ 19.81440428, 48.40136975 ], [ 19.81432228, 48.40115922 ], [ 19.8142273, 48.40091298 ], [ 19.81420542, 48.40085479 ], [ 19.81415812, 48.40072906 ], [ 19.81413808, 48.40067555 ], [ 19.81409147, 48.40055103 ], [ 19.81406745, 48.40042938 ], [ 19.81405297, 48.40031266 ], [ 19.81402948, 48.40015958 ], [ 19.81405555, 48.40016144 ], [ 19.81411367, 48.39995073 ], [ 19.81411987, 48.39981914 ], [ 19.81414096, 48.39963259 ], [ 19.81414635, 48.39942814 ], [ 19.81417569, 48.39924032 ], [ 19.81419276, 48.39895716 ], [ 19.8142546, 48.39865792 ], [ 19.81427341, 48.39856726 ], [ 19.81434583, 48.39819079 ], [ 19.81438389, 48.39798587 ], [ 19.81443535, 48.39772187 ], [ 19.81448286, 48.39759542 ], [ 19.81453514, 48.39748243 ], [ 19.81456068, 48.3973798 ], [ 19.81457922, 48.39730012 ], [ 19.8146229, 48.39715079 ], [ 19.81473902, 48.39693378 ], [ 19.81464482, 48.39698879 ], [ 19.81459025, 48.39702066 ], [ 19.81466334, 48.39685711 ], [ 19.81467955, 48.39683402 ], [ 19.81474752, 48.39673767 ], [ 19.81481249, 48.39664551 ], [ 19.81497598, 48.39642444 ], [ 19.8150467, 48.39625889 ], [ 19.81505517, 48.39612614 ], [ 19.81509852, 48.39587017 ], [ 19.81519247, 48.39557738 ], [ 19.81531984, 48.39529696 ], [ 19.81544396, 48.39513609 ], [ 19.81558327, 48.39471378 ], [ 19.81567272, 48.39433607 ], [ 19.81567004, 48.39413929 ], [ 19.81570066, 48.39402075 ], [ 19.81581345, 48.39395835 ], [ 19.8160724, 48.3938067 ], [ 19.81687564, 48.39344097 ], [ 19.81717962, 48.39325939 ], [ 19.81742607, 48.39312873 ], [ 19.81761889, 48.39293526 ], [ 19.81779641, 48.39274463 ], [ 19.81790453, 48.39248635 ], [ 19.81797512, 48.39229574 ], [ 19.81804035, 48.39209228 ], [ 19.81810162, 48.391848 ], [ 19.8181311, 48.39176023 ], [ 19.81825061, 48.39140403 ], [ 19.81825025, 48.39125791 ], [ 19.81832549, 48.39110671 ], [ 19.81834527, 48.39058409 ], [ 19.81840601, 48.3902145 ], [ 19.81840091, 48.39006142 ], [ 19.81850878, 48.38965567 ], [ 19.81863849, 48.38953407 ], [ 19.81894654, 48.38871958 ], [ 19.8189647, 48.38854461 ], [ 19.81894942, 48.38833421 ], [ 19.81897658, 48.38819569 ], [ 19.81892731, 48.38792775 ], [ 19.81870671, 48.38779328 ], [ 19.81861862, 48.38775753 ], [ 19.81835133, 48.38777155 ], [ 19.81805947, 48.38790328 ], [ 19.81609072, 48.3873752 ], [ 19.8123539, 48.3871661 ], [ 19.8122597, 48.38716081 ], [ 19.81220398, 48.38715775 ], [ 19.80913119, 48.38698569 ], [ 19.80886406, 48.38697067 ], [ 19.80857404, 48.38695446 ], [ 19.80817945, 48.38687897 ], [ 19.80774506, 48.38680372 ], [ 19.80736601, 48.3867546 ], [ 19.80706763, 48.38674217 ], [ 19.80670399, 48.3868592 ], [ 19.80641936, 48.38707504 ], [ 19.80617671, 48.38734266 ], [ 19.80591623, 48.38773343 ], [ 19.80573055, 48.38799957 ], [ 19.80553536, 48.38824015 ], [ 19.80508979, 48.38881552 ], [ 19.80488089, 48.3890509 ], [ 19.80466939, 48.38935647 ], [ 19.80442519, 48.38958616 ], [ 19.80425302, 48.38979485 ], [ 19.80401259, 48.39005895 ], [ 19.80371663, 48.39039615 ], [ 19.80328161, 48.39073538 ], [ 19.80267057, 48.39119614 ], [ 19.80220025, 48.39150488 ], [ 19.80183668, 48.39173709 ], [ 19.80140625, 48.39192283 ], [ 19.80091331, 48.39211107 ], [ 19.80046939, 48.39229757 ], [ 19.80027248, 48.3924893 ], [ 19.79998755, 48.39249529 ], [ 19.79978038, 48.39246485 ], [ 19.7995798, 48.39238963 ], [ 19.79922061, 48.39225284 ], [ 19.79884886, 48.39210063 ], [ 19.7985255, 48.39196558 ], [ 19.7982637, 48.39184153 ], [ 19.79824292, 48.39183134 ], [ 19.79801989, 48.39172187 ], [ 19.79782756, 48.39159474 ], [ 19.79762507, 48.39142254 ], [ 19.79745497, 48.39126357 ], [ 19.79732235, 48.39112931 ], [ 19.79712115, 48.39092905 ], [ 19.79709741, 48.39091322 ], [ 19.79683263, 48.39062518 ], [ 19.79655193, 48.39033661 ], [ 19.79610392, 48.38991163 ], [ 19.7960013, 48.38982439 ], [ 19.7959161, 48.38976495 ], [ 19.79576233, 48.38969421 ], [ 19.79558674, 48.38963189 ], [ 19.79527964, 48.38956389 ], [ 19.79505907, 48.38951717 ], [ 19.79448004, 48.3893937 ], [ 19.79412142, 48.38930748 ], [ 19.79376442, 48.38923088 ], [ 19.79341869, 48.38915667 ], [ 19.79306921, 48.38908626 ], [ 19.79263241, 48.38898877 ], [ 19.79229285, 48.38892744 ], [ 19.79199805, 48.38885826 ], [ 19.79173861, 48.38880108 ], [ 19.79146829, 48.38873072 ], [ 19.79116868, 48.38866222 ], [ 19.79100346, 48.38862387 ], [ 19.79078084, 48.38857741 ], [ 19.79058091, 48.3885397 ], [ 19.79043443, 48.38851569 ], [ 19.79021835, 48.38845104 ], [ 19.79005026, 48.38836371 ], [ 19.78985167, 48.38825774 ], [ 19.78961427, 48.38809003 ], [ 19.7893164, 48.38791804 ], [ 19.78899078, 48.38779116 ], [ 19.78876259, 48.38770948 ], [ 19.78858561, 48.38766142 ], [ 19.78831037, 48.38757524 ], [ 19.78796687, 48.38746371 ], [ 19.78758716, 48.38733652 ], [ 19.78725917, 48.38719962 ], [ 19.7869737, 48.38716481 ], [ 19.78659059, 48.38713896 ], [ 19.78623792, 48.38714599 ], [ 19.78604031, 48.38714767 ], [ 19.78594646, 48.38714842 ], [ 19.78534123, 48.38712316 ], [ 19.78516518, 48.38711074 ], [ 19.78502681, 48.38702408 ], [ 19.78495937, 48.38701363 ], [ 19.78486268, 48.38728753 ], [ 19.7847951, 48.38752972 ], [ 19.78470258, 48.38791305 ], [ 19.78455006, 48.38830636 ], [ 19.78449026, 48.38888248 ], [ 19.78449156, 48.38932131 ], [ 19.78448875, 48.38934561 ], [ 19.78441389, 48.39000264 ], [ 19.78444236, 48.39023562 ], [ 19.78456837, 48.39051814 ], [ 19.78470056, 48.39119707 ], [ 19.78497104, 48.39191182 ], [ 19.78505915, 48.39223811 ], [ 19.78519761, 48.3927502 ], [ 19.78562113, 48.39331512 ], [ 19.78573659, 48.3935485 ], [ 19.7858048, 48.39368652 ], [ 19.78600976, 48.39388949 ], [ 19.78623989, 48.39409249 ], [ 19.78678812, 48.39480322 ], [ 19.78719634, 48.39515555 ], [ 19.7873466, 48.39536558 ], [ 19.78741939, 48.39568154 ], [ 19.7872904, 48.39608463 ], [ 19.7872522, 48.39620382 ], [ 19.78704542, 48.39684964 ], [ 19.78693725, 48.39700434 ], [ 19.78688064, 48.39708522 ], [ 19.78679703, 48.39816414 ], [ 19.78689532, 48.39849312 ], [ 19.78667802, 48.39909477 ], [ 19.78672242, 48.39931466 ], [ 19.78677396, 48.40012371 ], [ 19.78684285, 48.40012791 ], [ 19.78684424, 48.40014528 ], [ 19.78684514, 48.40015667 ], [ 19.7865931, 48.4005119 ], [ 19.78645229, 48.40071032 ], [ 19.78610131, 48.40120478 ], [ 19.78590295, 48.40140878 ], [ 19.7854478, 48.40190795 ], [ 19.78504343, 48.40239321 ], [ 19.78476609, 48.40265791 ], [ 19.78468512, 48.40263354 ], [ 19.78471324, 48.40259295 ], [ 19.78414614, 48.40241741 ], [ 19.7828047, 48.4020555 ], [ 19.78249649, 48.40193802 ], [ 19.78088109, 48.40155981 ], [ 19.78027485, 48.40160435 ], [ 19.7796539, 48.401718 ], [ 19.77898978, 48.40204292 ], [ 19.77841602, 48.40230294 ], [ 19.77644072, 48.40355648 ], [ 19.77592976, 48.40373724 ], [ 19.77485866, 48.40393542 ], [ 19.77440552, 48.40401921 ], [ 19.77355175, 48.40385154 ], [ 19.77303206, 48.40367317 ], [ 19.77278455, 48.40359602 ], [ 19.77240482, 48.40347771 ], [ 19.77224582, 48.40342816 ], [ 19.77176047, 48.40317531 ], [ 19.77105734, 48.40282975 ], [ 19.77045076, 48.40253153 ], [ 19.76948901, 48.40234744 ], [ 19.76819119, 48.4021086 ], [ 19.76771651, 48.40208091 ], [ 19.76691116, 48.40203394 ], [ 19.76682584, 48.40202891 ], [ 19.76665316, 48.40201886 ], [ 19.76646458, 48.40204894 ], [ 19.76641493, 48.40205685 ], [ 19.76542938, 48.40221419 ], [ 19.76526976, 48.40228656 ], [ 19.76512526, 48.40237699 ], [ 19.76421712, 48.40294514 ], [ 19.76418575, 48.40296512 ], [ 19.76323002, 48.40357327 ], [ 19.76312503, 48.40362713 ], [ 19.7627661, 48.4038113 ], [ 19.76242942, 48.4039841 ], [ 19.7623976, 48.40400045 ], [ 19.76135474, 48.4045356 ], [ 19.76129086, 48.40453954 ], [ 19.76116554, 48.40454735 ], [ 19.76102321, 48.40454376 ], [ 19.7608925, 48.40454052 ], [ 19.76046915, 48.40453002 ], [ 19.75886499, 48.40441446 ], [ 19.75891632, 48.4044645 ], [ 19.75912771, 48.40467033 ], [ 19.75924406, 48.40478373 ], [ 19.75936721, 48.40494447 ], [ 19.75953949, 48.40516787 ], [ 19.75961765, 48.40533987 ], [ 19.75981114, 48.40568192 ], [ 19.75994215, 48.40588474 ], [ 19.76011573, 48.40612225 ], [ 19.7602397, 48.40628709 ], [ 19.76031314, 48.40636388 ], [ 19.7602044, 48.40640361 ], [ 19.760135, 48.4064969 ], [ 19.76009524, 48.40654535 ], [ 19.76007014, 48.40657587 ], [ 19.76005888, 48.40658962 ], [ 19.76001495, 48.4066569 ], [ 19.75994861, 48.40675754 ], [ 19.75979784, 48.40708727 ], [ 19.75970527, 48.40733565 ], [ 19.75965129, 48.40756086 ], [ 19.75962893, 48.40774456 ], [ 19.75962407, 48.40779869 ], [ 19.75961933, 48.40792783 ], [ 19.75959251, 48.408034 ], [ 19.75951669, 48.40812367 ], [ 19.75935429, 48.40829839 ], [ 19.75922508, 48.40843888 ], [ 19.75906072, 48.40859242 ], [ 19.75886776, 48.40875182 ], [ 19.75872066, 48.40886259 ], [ 19.75852534, 48.4089871 ], [ 19.75830145, 48.40913485 ], [ 19.75810283, 48.409283 ], [ 19.75783228, 48.40948044 ], [ 19.7576134, 48.40964581 ], [ 19.75744576, 48.40975747 ], [ 19.75722461, 48.40991022 ], [ 19.75704381, 48.4100167 ], [ 19.75686567, 48.41018342 ], [ 19.75681701, 48.41022886 ], [ 19.75678132, 48.41026226 ], [ 19.75674032, 48.41031227 ], [ 19.75670395, 48.41035664 ], [ 19.75667692, 48.41044711 ], [ 19.75669586, 48.41059938 ], [ 19.75671123, 48.41082945 ], [ 19.75667262, 48.41103343 ], [ 19.75666347, 48.41121213 ], [ 19.75666734, 48.41138518 ], [ 19.7566372, 48.41168608 ], [ 19.75658681, 48.41186827 ], [ 19.75656244, 48.41201627 ], [ 19.75656338, 48.41208022 ], [ 19.7565972, 48.41215923 ], [ 19.75661335, 48.41227289 ], [ 19.75660241, 48.41238805 ], [ 19.75659348, 48.41248176 ], [ 19.75645431, 48.41281289 ], [ 19.7564256, 48.41292709 ], [ 19.75638154, 48.41310415 ], [ 19.75636656, 48.41324897 ], [ 19.75634613, 48.41343889 ], [ 19.7563351, 48.41357802 ], [ 19.75631164, 48.41378889 ], [ 19.75630451, 48.41397038 ], [ 19.75630816, 48.41411575 ], [ 19.75631611, 48.41425329 ], [ 19.75634266, 48.41433189 ], [ 19.75635741, 48.41437544 ], [ 19.75638032, 48.41444307 ], [ 19.75640642, 48.41457239 ], [ 19.75641048, 48.41475573 ], [ 19.75639796, 48.41484594 ], [ 19.75631121, 48.4151565 ], [ 19.75631031, 48.41527013 ], [ 19.75633531, 48.4154661 ], [ 19.75632834, 48.4156704 ], [ 19.75631511, 48.41583161 ], [ 19.75630688, 48.41604451 ], [ 19.75631011, 48.41608008 ], [ 19.75632406, 48.41619003 ], [ 19.75634409, 48.41629466 ], [ 19.75634804, 48.41634198 ], [ 19.75635429, 48.41641643 ], [ 19.75637154, 48.4165286 ], [ 19.75638455, 48.41665474 ], [ 19.75639848, 48.41676901 ], [ 19.75641223, 48.41689725 ], [ 19.75642873, 48.41702237 ], [ 19.75643575, 48.41714076 ], [ 19.75643292, 48.41720715 ], [ 19.75640272, 48.41733751 ], [ 19.75632642, 48.41748349 ], [ 19.75625461, 48.41764689 ], [ 19.75619001, 48.4177705 ], [ 19.75613811, 48.41788637 ], [ 19.7560874, 48.41800653 ], [ 19.75603847, 48.41812786 ], [ 19.75598829, 48.41823993 ], [ 19.75594798, 48.41832099 ], [ 19.75587775, 48.41842776 ], [ 19.75580993, 48.41848056 ], [ 19.75577253, 48.41854056 ], [ 19.75578287, 48.41858617 ], [ 19.75582033, 48.41862605 ], [ 19.75591962, 48.41865152 ], [ 19.75598115, 48.41866731 ], [ 19.75613841, 48.41869671 ], [ 19.75657362, 48.41876326 ], [ 19.75693204, 48.41882308 ], [ 19.75697633, 48.41883116 ], [ 19.75725986, 48.4188829 ], [ 19.75728859, 48.41888813 ], [ 19.757317, 48.4188939 ], [ 19.75749071, 48.41892942 ], [ 19.75752093, 48.41893463 ], [ 19.7577816, 48.41897941 ], [ 19.75799849, 48.41901783 ], [ 19.75817664, 48.41906716 ], [ 19.75841449, 48.41911949 ], [ 19.75846193, 48.41912997 ], [ 19.75871985, 48.41920229 ], [ 19.75886462, 48.41925511 ], [ 19.758809, 48.41936216 ], [ 19.7587788, 48.41946674 ], [ 19.75875503, 48.41957079 ], [ 19.75879596, 48.41970897 ], [ 19.75885399, 48.41978707 ], [ 19.75890985, 48.41987597 ], [ 19.75898907, 48.41996699 ], [ 19.75907853, 48.42003404 ], [ 19.75917916, 48.42007598 ], [ 19.75930883, 48.42010784 ], [ 19.75952127, 48.4201257 ], [ 19.75969644, 48.42013983 ], [ 19.75992574, 48.42017474 ], [ 19.76008125, 48.42026661 ], [ 19.76015888, 48.42034097 ], [ 19.76020605, 48.4204112 ], [ 19.76025268, 48.4205344 ], [ 19.76027502, 48.42062678 ], [ 19.76028486, 48.42078351 ], [ 19.76027925, 48.42088331 ], [ 19.76023436, 48.42104574 ], [ 19.76020175, 48.42116102 ], [ 19.76016332, 48.4212966 ], [ 19.76010634, 48.42148788 ], [ 19.76006607, 48.4216542 ], [ 19.75988458, 48.42180672 ], [ 19.7597058, 48.42185453 ], [ 19.75939452, 48.42192335 ], [ 19.75892619, 48.42194017 ], [ 19.75873969, 48.42196619 ], [ 19.75826123, 48.42203303 ], [ 19.75773035, 48.4221081 ], [ 19.7571794, 48.42216714 ], [ 19.75686188, 48.4222007 ], [ 19.75689605, 48.42222745 ], [ 19.75719024, 48.42247669 ], [ 19.7573887, 48.42259831 ], [ 19.75763626, 48.42271092 ], [ 19.75764338, 48.4227142 ], [ 19.75767976, 48.42273095 ], [ 19.75944028, 48.4230362 ], [ 19.76005492, 48.42314266 ], [ 19.76093293, 48.4233077 ], [ 19.7612836, 48.4233778 ], [ 19.76128519, 48.42337814 ], [ 19.76275252, 48.42367157 ], [ 19.76414777, 48.42393007 ], [ 19.76481169, 48.4240531 ], [ 19.76550952, 48.42419059 ], [ 19.76620885, 48.42428858 ], [ 19.76685714, 48.42440685 ], [ 19.76815132, 48.42466616 ], [ 19.76893401, 48.42484659 ], [ 19.76955796, 48.42499045 ], [ 19.7707434, 48.42518455 ], [ 19.77086413, 48.42520429 ], [ 19.77147977, 48.42529702 ], [ 19.77172366, 48.42532029 ], [ 19.77215214, 48.42536125 ], [ 19.7724038, 48.42542767 ], [ 19.77270983, 48.42550839 ], [ 19.77292818, 48.42556785 ], [ 19.77296705, 48.42574361 ], [ 19.7740276, 48.42645334 ], [ 19.77483131, 48.42702096 ], [ 19.77582591, 48.4276671 ], [ 19.77619633, 48.42790549 ], [ 19.77655448, 48.428183 ], [ 19.7767529, 48.42833144 ], [ 19.77714607, 48.4287364 ], [ 19.77746824, 48.4290966 ], [ 19.77756917, 48.42920947 ], [ 19.77761066, 48.42920219 ], [ 19.77773377, 48.42903996 ], [ 19.77765734, 48.42901857 ], [ 19.77752294, 48.42889909 ], [ 19.77765051, 48.42880104 ], [ 19.77767148, 48.42872625 ], [ 19.77791707, 48.42854985 ], [ 19.77795294, 48.42852411 ], [ 19.77809647, 48.42859262 ], [ 19.7790243, 48.42801871 ], [ 19.77920943, 48.42817287 ], [ 19.77953691, 48.42797095 ], [ 19.77976601, 48.42792785 ], [ 19.77980874, 48.42796127 ], [ 19.78006872, 48.42767526 ], [ 19.78018183, 48.42755774 ], [ 19.78020753, 48.42764531 ], [ 19.78022554, 48.42770676 ], [ 19.78029337, 48.42793751 ], [ 19.78033316, 48.42807293 ], [ 19.78036882, 48.42819393 ], [ 19.78038359, 48.42824433 ], [ 19.78033964, 48.42846196 ], [ 19.78030499, 48.42863359 ], [ 19.78029562, 48.42868031 ], [ 19.78022371, 48.42902534 ], [ 19.78017293, 48.42929684 ], [ 19.78015444, 48.42939166 ], [ 19.780158, 48.4294158 ], [ 19.78016529, 48.4294802 ], [ 19.78018445, 48.42950132 ], [ 19.78019337, 48.42951244 ], [ 19.78027591, 48.42963469 ], [ 19.78029989, 48.42967008 ], [ 19.78030833, 48.42973923 ], [ 19.78031176, 48.42983149 ], [ 19.78031506, 48.42991835 ], [ 19.78031467, 48.42992365 ], [ 19.78031447, 48.42992697 ], [ 19.78030397, 48.4300737 ], [ 19.78030308, 48.43008682 ], [ 19.78026173, 48.4302577 ], [ 19.78048843, 48.43045722 ], [ 19.7809035, 48.43087935 ], [ 19.78130404, 48.43123911 ], [ 19.78143009, 48.43136921 ], [ 19.7815533, 48.43151704 ], [ 19.78162608, 48.43160938 ], [ 19.78168613, 48.43170441 ], [ 19.78184002, 48.43197707 ], [ 19.78201227, 48.43229397 ], [ 19.78227964, 48.43272935 ], [ 19.78255491, 48.43306196 ], [ 19.78272746, 48.43327361 ], [ 19.78279302, 48.43335409 ], [ 19.78295882, 48.43365567 ], [ 19.78299246, 48.43371654 ], [ 19.78296323, 48.4337231 ], [ 19.78258392, 48.43392023 ], [ 19.78245252, 48.43391491 ], [ 19.78244489, 48.43404644 ], [ 19.78239095, 48.43426516 ], [ 19.78231556, 48.43445023 ], [ 19.78206477, 48.43480443 ], [ 19.78178851, 48.43516004 ], [ 19.78135418, 48.43565742 ], [ 19.7810176, 48.43596566 ], [ 19.78070111, 48.43630066 ], [ 19.78058616, 48.43644478 ], [ 19.78022468, 48.43711138 ], [ 19.78001805, 48.43756766 ], [ 19.78000684, 48.43760818 ], [ 19.77992296, 48.43777088 ], [ 19.77989352, 48.43782456 ], [ 19.78015909, 48.43795341 ], [ 19.78033894, 48.4380848 ], [ 19.7804442, 48.4381884 ], [ 19.78039429, 48.43827093 ], [ 19.78032949, 48.43837777 ], [ 19.78024153, 48.43846287 ], [ 19.78018368, 48.438508 ], [ 19.78013315, 48.43854752 ], [ 19.78009102, 48.43858037 ], [ 19.7799405, 48.43869786 ], [ 19.77987361, 48.43878217 ], [ 19.77984877, 48.43889997 ], [ 19.7797839, 48.43904034 ], [ 19.77977039, 48.43915863 ], [ 19.77980252, 48.43928668 ], [ 19.77986613, 48.43937177 ], [ 19.77992337, 48.43942152 ], [ 19.78003, 48.43951408 ], [ 19.78020311, 48.43970926 ], [ 19.78048699, 48.43995816 ], [ 19.780648, 48.44011567 ], [ 19.78076848, 48.44038524 ], [ 19.78099894, 48.44074103 ], [ 19.78114494, 48.44091744 ], [ 19.78134202, 48.44123697 ], [ 19.78144744, 48.44141277 ], [ 19.78167718, 48.44156302 ], [ 19.78193394, 48.44176593 ], [ 19.78206576, 48.44188862 ], [ 19.78210554, 48.44230949 ], [ 19.78212366, 48.4426701 ], [ 19.78213902, 48.44294397 ], [ 19.78203577, 48.44307653 ], [ 19.78206169, 48.4433067 ], [ 19.78198275, 48.44349188 ], [ 19.78183241, 48.44370313 ], [ 19.78166635, 48.44392928 ], [ 19.7815842, 48.44414136 ], [ 19.78162814, 48.44425145 ], [ 19.78173716, 48.44441145 ], [ 19.78178327, 48.44459113 ], [ 19.78181555, 48.44488828 ], [ 19.78185736, 48.44521631 ], [ 19.78190351, 48.44550884 ], [ 19.78195639, 48.44585376 ], [ 19.78198065, 48.44602833 ], [ 19.78185116, 48.4460267 ], [ 19.78178851, 48.44602593 ], [ 19.78160511, 48.44602959 ], [ 19.78140616, 48.44603842 ], [ 19.78131026, 48.44604638 ], [ 19.78120189, 48.44606397 ], [ 19.78110068, 48.44608314 ], [ 19.78111043, 48.44611457 ], [ 19.78118759, 48.44651644 ], [ 19.78130316, 48.44702402 ], [ 19.78140323, 48.44741482 ], [ 19.78144028, 48.44800502 ], [ 19.78150537, 48.44828693 ], [ 19.78154367, 48.44854261 ], [ 19.78169206, 48.44891895 ], [ 19.78182037, 48.44920544 ], [ 19.7820153, 48.44957157 ], [ 19.78237504, 48.45016792 ], [ 19.78261502, 48.45048708 ], [ 19.78277721, 48.45081319 ], [ 19.7828548, 48.45099659 ], [ 19.78365905, 48.45073213 ] ] ] ] } },
{ "type": "Feature", "properties": { "@featureType": "CadastralZoning", "beginLifespanVersion": { "@nilReason": "http://inspire.ec.europa.eu/codelist/VoidReasonValue/Unpopulated", "@nil": "true" }, "endLifespanVersion": { "@nilReason": "http://inspire.ec.europa.eu/codelist/VoidReasonValue/Unpopulated", "@nil": "true" }, "estimatedAccuracy": { "value": -1, "@uom": "m" }, "inspireId": { "@dataType": "Identifier", "localId": "848093", "namespace": "SK.ESKN.CP", "versionId": "20260703T04:07:40" }, "label": "Slaná Lehota", "level": { "@href": "http://inspire.ec.europa.eu/codelist/CadastralZoningLevelValue/3rdOrder" }, "levelName": { "value": "Katastrálne územie", "@locale": "sk" }, "name": { "@dataType": "name", "GeographicalName": { "@dataType": "GeographicalName", "language": "SLK", "nativeness": { "@href": "http://inspire.ec.europa.eu/codelist/NativenessValue/endonym", "@title": "endonym" }, "nameStatus": { "@href": "http://inspire.ec.europa.eu/codelist/NameStatusValue/official", "@title": "official" }, "sourceOfName": { "@nilReason": "http://inspire.ec.europa.eu/codelist/VoidReasonValue/Unpopulated", "@nil": "true" }, "pronunciation": { "@dataType": "pronunciation", "@nilReason": "http://inspire.ec.europa.eu/codelist/VoidReasonValue/Unpopulated", "@nil": "true" }, "spelling": { "@dataType": "SpellingOfName", "text": "Slaná Lehota", "script": "LATN" } } }, "nationalCadastalZoningReference": "848093", "validFrom": "2026-06-30T16:00:00Z", "validTo": { "@nilReason": "http://inspire.ec.europa.eu/codelist/VoidReasonValue/Unpopulated", "@nil": "true" } }, "geometry": { "type": "MultiPolygon", "coordinates": [ [ [ [ 19.79509643, 48.46407504 ], [ 19.79533818, 48.4640274 ], [ 19.79552971, 48.46400244 ], [ 19.79577931, 48.46397002 ], [ 19.79621325, 48.46390727 ], [ 19.79666687, 48.46387153 ], [ 19.79699765, 48.4638432 ], [ 19.79715065, 48.46384188 ], [ 19.79734188, 48.46382817 ], [ 19.7975548, 48.46381297 ], [ 19.79767615, 48.46380423 ], [ 19.79771942, 48.46380116 ], [ 19.79781005, 48.46379468 ], [ 19.79786151, 48.46379098 ], [ 19.8010873, 48.46351143 ], [ 19.80135605, 48.46348812 ], [ 19.80140185, 48.46348409 ], [ 19.8027885, 48.46336385 ], [ 19.80294556, 48.46335026 ], [ 19.80296024, 48.46334712 ], [ 19.80438531, 48.46303972 ], [ 19.80482128, 48.46296162 ], [ 19.80554332, 48.46290161 ], [ 19.80625286, 48.46291316 ], [ 19.80673283, 48.46296443 ], [ 19.80720292, 48.46301823 ], [ 19.80772755, 48.46311137 ], [ 19.8081362, 48.46323017 ], [ 19.80863403, 48.46324751 ], [ 19.81039579, 48.46357187 ], [ 19.81001768, 48.46262628 ], [ 19.80947884, 48.4621529 ], [ 19.80944366, 48.46208512 ], [ 19.80939845, 48.46189522 ], [ 19.80938332, 48.46179595 ], [ 19.80940368, 48.46151158 ], [ 19.80938521, 48.46120045 ], [ 19.80942748, 48.46098102 ], [ 19.80953246, 48.46080174 ], [ 19.80971373, 48.46052782 ], [ 19.80994997, 48.4600279 ], [ 19.80997174, 48.45988563 ], [ 19.80989328, 48.45967707 ], [ 19.80968872, 48.45929075 ], [ 19.80968253, 48.45904325 ], [ 19.80967625, 48.45901224 ], [ 19.80971637, 48.45882958 ], [ 19.80986932, 48.45865988 ], [ 19.80999052, 48.45851519 ], [ 19.81024445, 48.45830132 ], [ 19.81045626, 48.45809804 ], [ 19.81062678, 48.45792603 ], [ 19.81077953, 48.45771981 ], [ 19.81084808, 48.45756355 ], [ 19.81087337, 48.45739385 ], [ 19.81085496, 48.45721378 ], [ 19.8108084, 48.45701832 ], [ 19.81078667, 48.45687613 ], [ 19.81078226, 48.45678491 ], [ 19.81077863, 48.456672 ], [ 19.81073289, 48.45651903 ], [ 19.81065152, 48.45630421 ], [ 19.81062014, 48.4560045 ], [ 19.81049973, 48.45568685 ], [ 19.81045123, 48.4554466 ], [ 19.81043969, 48.45531505 ], [ 19.81042392, 48.45515915 ], [ 19.81041071, 48.45497308 ], [ 19.8104008, 48.45467684 ], [ 19.81043343, 48.45452892 ], [ 19.81048026, 48.45422605 ], [ 19.81052879, 48.45411055 ], [ 19.81061602, 48.45393797 ], [ 19.81069375, 48.45387394 ], [ 19.81084205, 48.453666 ], [ 19.81088302, 48.453601 ], [ 19.81104399, 48.45337585 ], [ 19.81113269, 48.45312105 ], [ 19.81198426, 48.45265999 ], [ 19.81249963, 48.45223346 ], [ 19.81349917, 48.45175551 ], [ 19.81444949, 48.45105792 ], [ 19.81479475, 48.45078701 ], [ 19.81513794, 48.4505178 ], [ 19.81593345, 48.45002813 ], [ 19.81651513, 48.44962647 ], [ 19.81735175, 48.44906991 ], [ 19.81749976, 48.44878074 ], [ 19.81758484, 48.44861446 ], [ 19.81780683, 48.44841991 ], [ 19.81810756, 48.44815641 ], [ 19.81824701, 48.44804605 ], [ 19.81864022, 48.44773494 ], [ 19.81879413, 48.44768271 ], [ 19.81931807, 48.44750493 ], [ 19.81997189, 48.44733172 ], [ 19.82066238, 48.44692794 ], [ 19.82124994, 48.44651948 ], [ 19.82161955, 48.44632938 ], [ 19.82196534, 48.44613489 ], [ 19.8220955, 48.44600862 ], [ 19.82224154, 48.44586699 ], [ 19.82245564, 48.44567253 ], [ 19.82272753, 48.44532034 ], [ 19.82303144, 48.44518785 ], [ 19.82321786, 48.44451071 ], [ 19.82340882, 48.44398708 ], [ 19.82364971, 48.44332628 ], [ 19.82361505, 48.44254442 ], [ 19.82368948, 48.44205257 ], [ 19.82377039, 48.44178517 ], [ 19.82387372, 48.441257 ], [ 19.82367508, 48.44103464 ], [ 19.82362911, 48.44104201 ], [ 19.82231704, 48.44110236 ], [ 19.82180632, 48.44121268 ], [ 19.81995143, 48.44145457 ], [ 19.81862699, 48.44168153 ], [ 19.81748643, 48.44167134 ], [ 19.8165541, 48.4419317 ], [ 19.81517304, 48.44217607 ], [ 19.81429414, 48.44236005 ], [ 19.81376724, 48.44255445 ], [ 19.81346301, 48.44266672 ], [ 19.81187993, 48.44331476 ], [ 19.81033019, 48.44413918 ], [ 19.80949627, 48.4446959 ], [ 19.80867968, 48.44513855 ], [ 19.8081931, 48.44537821 ], [ 19.80766402, 48.44559808 ], [ 19.80656512, 48.44594698 ], [ 19.80608594, 48.44614856 ], [ 19.8053117, 48.44626901 ], [ 19.80470292, 48.44633279 ], [ 19.80361204, 48.44666868 ], [ 19.80267247, 48.44713339 ], [ 19.80194432, 48.44732461 ], [ 19.80098521, 48.44704279 ], [ 19.79972308, 48.44668379 ], [ 19.79909448, 48.44667538 ], [ 19.79905441, 48.44668183 ], [ 19.7989988, 48.44669075 ], [ 19.79854321, 48.44676436 ], [ 19.79848071, 48.44677442 ], [ 19.79153137, 48.44789544 ], [ 19.79147881, 48.44791864 ], [ 19.79139932, 48.44795373 ], [ 19.79134747, 48.44797661 ], [ 19.79117408, 48.44805562 ], [ 19.79110307, 48.4480845 ], [ 19.79100932, 48.44812266 ], [ 19.79085277, 48.44818079 ], [ 19.79024328, 48.44840715 ], [ 19.78978792, 48.44856834 ], [ 19.78930454, 48.44877157 ], [ 19.78905893, 48.44887797 ], [ 19.78905382, 48.44888027 ], [ 19.78860386, 48.44908397 ], [ 19.78839992, 48.44920319 ], [ 19.78821514, 48.449278 ], [ 19.78773504, 48.44946451 ], [ 19.78746551, 48.44959473 ], [ 19.78731057, 48.44967609 ], [ 19.78693033, 48.4498119 ], [ 19.78656194, 48.44993887 ], [ 19.78593334, 48.45015671 ], [ 19.78588811, 48.45016869 ], [ 19.78567798, 48.4502478 ], [ 19.78547873, 48.45031954 ], [ 19.78457661, 48.4506502 ], [ 19.78428433, 48.45072966 ], [ 19.78388836, 48.45079168 ], [ 19.78365905, 48.45073213 ], [ 19.7828548, 48.45099659 ], [ 19.78235719, 48.45114211 ], [ 19.78225616, 48.45117166 ], [ 19.78234379, 48.45122111 ], [ 19.78243522, 48.45132788 ], [ 19.7825873, 48.45158657 ], [ 19.78266426, 48.45178861 ], [ 19.78271982, 48.4519961 ], [ 19.78295032, 48.45257461 ], [ 19.78300823, 48.45273245 ], [ 19.78310339, 48.45289446 ], [ 19.78321775, 48.45299682 ], [ 19.78357849, 48.45294317 ], [ 19.78390507, 48.45290605 ], [ 19.78430045, 48.45285969 ], [ 19.78487913, 48.45273304 ], [ 19.78533965, 48.45261733 ], [ 19.78561556, 48.4525705 ], [ 19.7857506, 48.45264745 ], [ 19.7858294, 48.45271229 ], [ 19.78593429, 48.45282821 ], [ 19.78596347, 48.4528605 ], [ 19.78609698, 48.45305131 ], [ 19.78628367, 48.45325095 ], [ 19.7866843, 48.45360797 ], [ 19.78701776, 48.45386209 ], [ 19.78705718, 48.45388401 ], [ 19.7872466, 48.45378173 ], [ 19.78735081, 48.4538923 ], [ 19.78752527, 48.45397621 ], [ 19.7876845, 48.45412227 ], [ 19.78778348, 48.4542528 ], [ 19.78781919, 48.45429988 ], [ 19.78797769, 48.45447512 ], [ 19.78813067, 48.45462685 ], [ 19.78835497, 48.45485464 ], [ 19.7886312, 48.45512309 ], [ 19.78880451, 48.45529663 ], [ 19.78901453, 48.455499 ], [ 19.7892189, 48.45572014 ], [ 19.78937371, 48.45584933 ], [ 19.78954597, 48.45599524 ], [ 19.78975688, 48.45617502 ], [ 19.78996679, 48.4563882 ], [ 19.79024322, 48.45669722 ], [ 19.79054216, 48.45701831 ], [ 19.79072148, 48.45726124 ], [ 19.79084055, 48.45748314 ], [ 19.79089874, 48.45765217 ], [ 19.79097083, 48.45786272 ], [ 19.79102071, 48.45803625 ], [ 19.79107967, 48.45824795 ], [ 19.79115033, 48.45847575 ], [ 19.79124608, 48.45881948 ], [ 19.79133298, 48.45916237 ], [ 19.79138735, 48.45942316 ], [ 19.79147181, 48.45973458 ], [ 19.7915206, 48.45983848 ], [ 19.79160873, 48.45994744 ], [ 19.79166819, 48.46002837 ], [ 19.79170777, 48.46019784 ], [ 19.79172947, 48.46031533 ], [ 19.79173395, 48.46033978 ], [ 19.79175987, 48.46041329 ], [ 19.79180115, 48.46053011 ], [ 19.7918548, 48.46074761 ], [ 19.79187013, 48.46091566 ], [ 19.7918892, 48.46117995 ], [ 19.79192626, 48.46134066 ], [ 19.7919308, 48.46136465 ], [ 19.79197803, 48.46146785 ], [ 19.79198937, 48.46149701 ], [ 19.7920294, 48.46160044 ], [ 19.79206793, 48.46172984 ], [ 19.79226634, 48.46194585 ], [ 19.79238376, 48.46210665 ], [ 19.79251305, 48.46229267 ], [ 19.79257615, 48.46238891 ], [ 19.79263778, 48.46255745 ], [ 19.79273617, 48.46285704 ], [ 19.79283029, 48.46302457 ], [ 19.79302204, 48.46325038 ], [ 19.79311467, 48.46338513 ], [ 19.79318987, 48.46366432 ], [ 19.793292, 48.46366213 ], [ 19.79338757, 48.46365099 ], [ 19.79349123, 48.46363886 ], [ 19.79364059, 48.46366334 ], [ 19.79384253, 48.46368111 ], [ 19.79396305, 48.46370667 ], [ 19.79416132, 48.46377782 ], [ 19.79438547, 48.46387922 ], [ 19.79457532, 48.46398073 ], [ 19.79465476, 48.46402703 ], [ 19.7949101, 48.4640803 ], [ 19.79509643, 48.46407504 ] ] ] ] } },
{ "type": "Feature", "properties": { "@featureType": "CadastralZoning", "beginLifespanVersion": { "@nilReason": "http://inspire.ec.europa.eu/codelist/VoidReasonValue/Unpopulated", "@nil": "true" }, "endLifespanVersion": { "@nilReason": "http://inspire.ec.europa.eu/codelist/VoidReasonValue/Unpopulated", "@nil": "true" }, "estimatedAccuracy": { "value": -1, "@uom": "m" }, "inspireId": { "@dataType": "Identifier", "localId": "848107", "namespace": "SK.ESKN.CP", "versionId": "20260703T04:07:40" }, "label": "Zelené", "level": { "@href": "http://inspire.ec.europa.eu/codelist/CadastralZoningLevelValue/3rdOrder" }, "levelName": { "value": "Katastrálne územie", "@locale": "sk" }, "name": { "@dataType": "name", "GeographicalName": { "@dataType": "GeographicalName", "language": "SLK", "nativeness": { "@href": "http://inspire.ec.europa.eu/codelist/NativenessValue/endonym", "@title": "endonym" }, "nameStatus": { "@href": "http://inspire.ec.europa.eu/codelist/NameStatusValue/official", "@title": "official" }, "sourceOfName": { "@nilReason": "http://inspire.ec.europa.eu/codelist/VoidReasonValue/Unpopulated", "@nil": "true" }, "pronunciation": { "@dataType": "pronunciation", "@nilReason": "http://inspire.ec.europa.eu/codelist/VoidReasonValue/Unpopulated", "@nil": "true" }, "spelling": { "@dataType": "SpellingOfName", "text": "Zelené", "script": "LATN" } } }, "nationalCadastalZoningReference": "848107", "validFrom": "2026-06-30T16:00:00Z", "validTo": { "@nilReason": "http://inspire.ec.europa.eu/codelist/VoidReasonValue/Unpopulated", "@nil": "true" } }, "geometry": { "type": "MultiPolygon", "coordinates": [ [ [ [ 19.75334702, 48.44413971 ], [ 19.7540489, 48.44394322 ], [ 19.75461033, 48.44380064 ], [ 19.75517598, 48.4436577 ], [ 19.7556452, 48.4437481 ], [ 19.75593035, 48.44372527 ], [ 19.75621405, 48.44380396 ], [ 19.75657962, 48.44386725 ], [ 19.75686596, 48.44397111 ], [ 19.75708849, 48.44405178 ], [ 19.7571071, 48.44407298 ], [ 19.75715212, 48.44412427 ], [ 19.75718849, 48.44416571 ], [ 19.75723768, 48.44414652 ], [ 19.75845217, 48.44367186 ], [ 19.75886225, 48.44351708 ], [ 19.75914891, 48.44349269 ], [ 19.75977936, 48.44350681 ], [ 19.76039248, 48.44350728 ], [ 19.76060841, 48.44342189 ], [ 19.76090421, 48.44319023 ], [ 19.76120878, 48.44306224 ], [ 19.76180385, 48.44287677 ], [ 19.76278038, 48.44269018 ], [ 19.76351586, 48.44249034 ], [ 19.76356863, 48.44248554 ], [ 19.76422237, 48.44253231 ], [ 19.76498989, 48.4425629 ], [ 19.76616135, 48.44261031 ], [ 19.76651108, 48.44260688 ], [ 19.76682426, 48.44258139 ], [ 19.76702064, 48.4425493 ], [ 19.76720093, 48.44248415 ], [ 19.76738613, 48.44236026 ], [ 19.7681681, 48.44169851 ], [ 19.76845891, 48.4415343 ], [ 19.76875751, 48.44143055 ], [ 19.76896853, 48.44138478 ], [ 19.76940161, 48.44132769 ], [ 19.7702631, 48.44122106 ], [ 19.7718955, 48.44105355 ], [ 19.77392616, 48.44083567 ], [ 19.77437388, 48.4407784 ], [ 19.77456101, 48.440722 ], [ 19.77462838, 48.44068892 ], [ 19.77475941, 48.44062456 ], [ 19.77519479, 48.4403752 ], [ 19.77589809, 48.4399626 ], [ 19.77602381, 48.4398889 ], [ 19.77604193, 48.43987825 ], [ 19.77657379, 48.43973219 ], [ 19.77759993, 48.43935992 ], [ 19.77808374, 48.43924329 ], [ 19.77849763, 48.43908861 ], [ 19.7787735, 48.43899519 ], [ 19.77917001, 48.43877008 ], [ 19.77939891, 48.43855616 ], [ 19.77960313, 48.4383426 ], [ 19.77973679, 48.43809745 ], [ 19.77989352, 48.43782456 ], [ 19.77992296, 48.43777088 ], [ 19.78000684, 48.43760818 ], [ 19.78001805, 48.43756766 ], [ 19.78022468, 48.43711138 ], [ 19.78058616, 48.43644478 ], [ 19.78070111, 48.43630066 ], [ 19.7810176, 48.43596566 ], [ 19.78135418, 48.43565742 ], [ 19.78178851, 48.43516004 ], [ 19.78206477, 48.43480443 ], [ 19.78231556, 48.43445023 ], [ 19.78239095, 48.43426516 ], [ 19.78244489, 48.43404644 ], [ 19.78245252, 48.43391491 ], [ 19.78258392, 48.43392023 ], [ 19.78296323, 48.4337231 ], [ 19.78299246, 48.43371654 ], [ 19.78295882, 48.43365567 ], [ 19.78279302, 48.43335409 ], [ 19.78272746, 48.43327361 ], [ 19.78255491, 48.43306196 ], [ 19.78227964, 48.43272935 ], [ 19.78201227, 48.43229397 ], [ 19.78184002, 48.43197707 ], [ 19.78168613, 48.43170441 ], [ 19.78162608, 48.43160938 ], [ 19.7815533, 48.43151704 ], [ 19.78143009, 48.43136921 ], [ 19.78130404, 48.43123911 ], [ 19.7809035, 48.43087935 ], [ 19.78048843, 48.43045722 ], [ 19.78026173, 48.4302577 ], [ 19.78030308, 48.43008682 ], [ 19.78030397, 48.4300737 ], [ 19.78031447, 48.42992697 ], [ 19.78031467, 48.42992365 ], [ 19.78031506, 48.42991835 ], [ 19.78031176, 48.42983149 ], [ 19.78030833, 48.42973923 ], [ 19.78029989, 48.42967008 ], [ 19.78027591, 48.42963469 ], [ 19.78019337, 48.42951244 ], [ 19.78018445, 48.42950132 ], [ 19.78016529, 48.4294802 ], [ 19.780158, 48.4294158 ], [ 19.78015444, 48.42939166 ], [ 19.78017293, 48.42929684 ], [ 19.78022371, 48.42902534 ], [ 19.78029562, 48.42868031 ], [ 19.78030499, 48.42863359 ], [ 19.78033964, 48.42846196 ], [ 19.78038359, 48.42824433 ], [ 19.78036882, 48.42819393 ], [ 19.78033316, 48.42807293 ], [ 19.78029337, 48.42793751 ], [ 19.78022554, 48.42770676 ], [ 19.78020753, 48.42764531 ], [ 19.78018183, 48.42755774 ], [ 19.78006872, 48.42767526 ], [ 19.77980874, 48.42796127 ], [ 19.77976601, 48.42792785 ], [ 19.77953691, 48.42797095 ], [ 19.77920943, 48.42817287 ], [ 19.7790243, 48.42801871 ], [ 19.77809647, 48.42859262 ], [ 19.77795294, 48.42852411 ], [ 19.77791707, 48.42854985 ], [ 19.77767148, 48.42872625 ], [ 19.77765051, 48.42880104 ], [ 19.77752294, 48.42889909 ], [ 19.77765734, 48.42901857 ], [ 19.77773377, 48.42903996 ], [ 19.77761066, 48.42920219 ], [ 19.77756917, 48.42920947 ], [ 19.77746824, 48.4290966 ], [ 19.77714607, 48.4287364 ], [ 19.7767529, 48.42833144 ], [ 19.77655448, 48.428183 ], [ 19.77619633, 48.42790549 ], [ 19.77582591, 48.4276671 ], [ 19.77483131, 48.42702096 ], [ 19.7740276, 48.42645334 ], [ 19.77296705, 48.42574361 ], [ 19.77292818, 48.42556785 ], [ 19.77270983, 48.42550839 ], [ 19.7724038, 48.42542767 ], [ 19.77215214, 48.42536125 ], [ 19.77172366, 48.42532029 ], [ 19.77147977, 48.42529702 ], [ 19.77086413, 48.42520429 ], [ 19.7707434, 48.42518455 ], [ 19.76955796, 48.42499045 ], [ 19.76893401, 48.42484659 ], [ 19.76815132, 48.42466616 ], [ 19.76685714, 48.42440685 ], [ 19.76620885, 48.42428858 ], [ 19.76550952, 48.42419059 ], [ 19.76481169, 48.4240531 ], [ 19.76414777, 48.42393007 ], [ 19.76275252, 48.42367157 ], [ 19.76128519, 48.42337814 ], [ 19.7612836, 48.4233778 ], [ 19.76093293, 48.4233077 ], [ 19.76005492, 48.42314266 ], [ 19.75944028, 48.4230362 ], [ 19.75767976, 48.42273095 ], [ 19.75764338, 48.4227142 ], [ 19.75763626, 48.42271092 ], [ 19.7573887, 48.42259831 ], [ 19.75719024, 48.42247669 ], [ 19.75689605, 48.42222745 ], [ 19.75686188, 48.4222007 ], [ 19.75666361, 48.42220087 ], [ 19.75665493, 48.42220093 ], [ 19.75632881, 48.42220122 ], [ 19.75631292, 48.42220448 ], [ 19.75629342, 48.42220849 ], [ 19.75591749, 48.42228589 ], [ 19.7558787, 48.42228381 ], [ 19.75581642, 48.42237742 ], [ 19.75575413, 48.42247102 ], [ 19.75567559, 48.42258914 ], [ 19.75562079, 48.42283982 ], [ 19.75560235, 48.42305047 ], [ 19.75561055, 48.42323579 ], [ 19.75566247, 48.42346604 ], [ 19.75568633, 48.42365989 ], [ 19.75559979, 48.42388393 ], [ 19.75567391, 48.42395003 ], [ 19.75582264, 48.42404611 ], [ 19.75576237, 48.4241087 ], [ 19.75574892, 48.42412262 ], [ 19.75573156, 48.4241406 ], [ 19.75572626, 48.42414623 ], [ 19.75566298, 48.42421175 ], [ 19.7555891, 48.42428853 ], [ 19.75509056, 48.42484409 ], [ 19.75495054, 48.42496617 ], [ 19.75473541, 48.42513522 ], [ 19.75471483, 48.42515144 ], [ 19.75465223, 48.42520068 ], [ 19.75460358, 48.42523891 ], [ 19.75320457, 48.42625438 ], [ 19.7523068, 48.42682284 ], [ 19.75177938, 48.42710688 ], [ 19.75114299, 48.42756115 ], [ 19.75104572, 48.42763058 ], [ 19.75100824, 48.42765741 ], [ 19.7509957, 48.42766632 ], [ 19.75096158, 48.42769068 ], [ 19.75089595, 48.42773753 ], [ 19.75073918, 48.42784949 ], [ 19.75056586, 48.42794268 ], [ 19.75051663, 48.42796917 ], [ 19.75034359, 48.4280622 ], [ 19.75014077, 48.42819456 ], [ 19.74978594, 48.42847641 ], [ 19.74923681, 48.42885268 ], [ 19.74852264, 48.42934216 ], [ 19.74741996, 48.43009784 ], [ 19.74714371, 48.43024371 ], [ 19.74666627, 48.43049588 ], [ 19.74631936, 48.43059923 ], [ 19.74608246, 48.43066978 ], [ 19.74588116, 48.43072973 ], [ 19.74554668, 48.43082931 ], [ 19.74547352, 48.43083085 ], [ 19.74503705, 48.43083974 ], [ 19.74345511, 48.43108571 ], [ 19.74333802, 48.43110396 ], [ 19.74218112, 48.43118314 ], [ 19.74177831, 48.43132799 ], [ 19.74153557, 48.43139584 ], [ 19.74011091, 48.43179412 ], [ 19.73865976, 48.43215787 ], [ 19.7378682, 48.43287759 ], [ 19.73800282, 48.4334352 ], [ 19.73848662, 48.43414051 ], [ 19.73878962, 48.43458724 ], [ 19.73901082, 48.43519889 ], [ 19.73929844, 48.43576273 ], [ 19.73940545, 48.43597254 ], [ 19.73959969, 48.43616485 ], [ 19.73965583, 48.4361832 ], [ 19.73981684, 48.43623513 ], [ 19.73987234, 48.43625039 ], [ 19.74083135, 48.43651471 ], [ 19.74096698, 48.43656994 ], [ 19.74153352, 48.43675899 ], [ 19.74267512, 48.43742727 ], [ 19.74289788, 48.4376677 ], [ 19.74301831, 48.4377977 ], [ 19.74312309, 48.43791077 ], [ 19.74314388, 48.43793314 ], [ 19.74346336, 48.43796108 ], [ 19.7440139, 48.43786332 ], [ 19.74438763, 48.43774836 ], [ 19.74455143, 48.43769793 ], [ 19.74470119, 48.43772159 ], [ 19.74514593, 48.43779194 ], [ 19.74560853, 48.43781088 ], [ 19.74588079, 48.43786394 ], [ 19.7462046, 48.43784177 ], [ 19.74665326, 48.43790805 ], [ 19.74685939, 48.4380156 ], [ 19.74763237, 48.43840305 ], [ 19.7477077, 48.43844081 ], [ 19.74832049, 48.43882234 ], [ 19.74839675, 48.43886988 ], [ 19.74850517, 48.43888017 ], [ 19.74937354, 48.43896257 ], [ 19.74943961, 48.43899551 ], [ 19.74986895, 48.43920928 ], [ 19.7504228, 48.43958972 ], [ 19.75082468, 48.43977875 ], [ 19.7513496, 48.44024831 ], [ 19.7514522, 48.44034001 ], [ 19.7515856, 48.44053844 ], [ 19.75184355, 48.44092228 ], [ 19.75196957, 48.44150671 ], [ 19.75213378, 48.4419651 ], [ 19.75214924, 48.44200832 ], [ 19.75219583, 48.44213874 ], [ 19.75221215, 48.44218417 ], [ 19.75241388, 48.4423903 ], [ 19.75249059, 48.44246868 ], [ 19.75262435, 48.44260529 ], [ 19.75279302, 48.44277761 ], [ 19.7528112, 48.44279094 ], [ 19.75288305, 48.44284333 ], [ 19.75290459, 48.44285555 ], [ 19.75303543, 48.44304449 ], [ 19.75330449, 48.4432928 ], [ 19.75302841, 48.44341473 ], [ 19.75299113, 48.4434312 ], [ 19.7528051, 48.44351554 ], [ 19.75262956, 48.44359522 ], [ 19.75263659, 48.44361166 ], [ 19.75263998, 48.44361975 ], [ 19.7526407, 48.4436315 ], [ 19.75264212, 48.44365391 ], [ 19.75264413, 48.44368402 ], [ 19.75269838, 48.44399414 ], [ 19.75272159, 48.44426377 ], [ 19.75274223, 48.4443203 ], [ 19.75334702, 48.44413971 ] ] ] ] } }
]
}
