{
"type": "FeatureCollection",
"name": "gis",
"crs": { "type": "name", "properties": { "name": "urn:ogc:def:crs:OGC:1.3:CRS84" } },
"features": [
{ "type": "Feature", "properties": { "@featureType": "CadastralZoning", "beginLifespanVersion": { "@nilReason": "http://inspire.ec.europa.eu/codelist/VoidReasonValue/Unpopulated", "@nil": "true" }, "endLifespanVersion": { "@nilReason": "http://inspire.ec.europa.eu/codelist/VoidReasonValue/Unpopulated", "@nil": "true" }, "estimatedAccuracy": { "value": -1, "@uom": "m" }, "inspireId": { "@dataType": "Identifier", "localId": "800384", "namespace": "SK.ESKN.CP", "versionId": "20260703T04:07:40" }, "label": "Bacúch", "level": { "@href": "http://inspire.ec.europa.eu/codelist/CadastralZoningLevelValue/3rdOrder" }, "levelName": { "value": "Katastrálne územie", "@locale": "sk" }, "name": { "@dataType": "name", "GeographicalName": { "@dataType": "GeographicalName", "language": "SLK", "nativeness": { "@href": "http://inspire.ec.europa.eu/codelist/NativenessValue/endonym", "@title": "endonym" }, "nameStatus": { "@href": "http://inspire.ec.europa.eu/codelist/NameStatusValue/official", "@title": "official" }, "sourceOfName": { "@nilReason": "http://inspire.ec.europa.eu/codelist/VoidReasonValue/Unpopulated", "@nil": "true" }, "pronunciation": { "@dataType": "pronunciation", "@nilReason": "http://inspire.ec.europa.eu/codelist/VoidReasonValue/Unpopulated", "@nil": "true" }, "spelling": { "@dataType": "SpellingOfName", "text": "Bacúch", "script": "LATN" } } }, "nationalCadastalZoningReference": "800384", "validFrom": "2026-06-30T16:00:00Z", "validTo": { "@nilReason": "http://inspire.ec.europa.eu/codelist/VoidReasonValue/Unpopulated", "@nil": "true" } }, "geometry": { "type": "MultiPolygon", "coordinates": [ [ [ [ 19.77760773, 48.90519909 ], [ 19.77831343, 48.90429522 ], [ 19.77915449, 48.90328054 ], [ 19.77951469, 48.90308038 ], [ 19.77963857, 48.9029778 ], [ 19.7809262, 48.90191262 ], [ 19.78139573, 48.90152434 ], [ 19.78211585, 48.9011577 ], [ 19.78248501, 48.90098784 ], [ 19.78275657, 48.90086294 ], [ 19.78344721, 48.90037145 ], [ 19.78390338, 48.89981585 ], [ 19.78422656, 48.89952069 ], [ 19.78425691, 48.89947704 ], [ 19.78495706, 48.89893385 ], [ 19.78634922, 48.89815093 ], [ 19.78666466, 48.89780451 ], [ 19.78676448, 48.89760743 ], [ 19.78707984, 48.89703911 ], [ 19.78778887, 48.89640103 ], [ 19.78848655, 48.89552498 ], [ 19.78897584, 48.89508004 ], [ 19.7891715, 48.89476508 ], [ 19.78921159, 48.8947004 ], [ 19.78924189, 48.8946517 ], [ 19.7895504, 48.89442881 ], [ 19.78973344, 48.89433699 ], [ 19.78975028, 48.89432853 ], [ 19.79078056, 48.89374947 ], [ 19.7913536, 48.89342749 ], [ 19.7915235, 48.89306788 ], [ 19.79159227, 48.89295965 ], [ 19.79162727, 48.89232786 ], [ 19.79196949, 48.89121905 ], [ 19.79201774, 48.89084983 ], [ 19.7928397, 48.89014553 ], [ 19.792857, 48.89011609 ], [ 19.79264362, 48.88971973 ], [ 19.79299852, 48.88947396 ], [ 19.79351533, 48.88913285 ], [ 19.794275, 48.88858635 ], [ 19.79447301, 48.88846211 ], [ 19.79495292, 48.88814408 ], [ 19.79551014, 48.88757589 ], [ 19.79568902, 48.88707112 ], [ 19.79587826, 48.88639682 ], [ 19.79595842, 48.8860772 ], [ 19.79612387, 48.8857821 ], [ 19.79645275, 48.88500941 ], [ 19.79685608, 48.88459694 ], [ 19.7974064, 48.8839932 ], [ 19.79796498, 48.88342713 ], [ 19.79813926, 48.88318163 ], [ 19.7981949, 48.88310329 ], [ 19.79827695, 48.88298771 ], [ 19.7984384, 48.8825969 ], [ 19.79845514, 48.88255653 ], [ 19.79848169, 48.88256156 ], [ 19.79853062, 48.88243552 ], [ 19.79885914, 48.88206982 ], [ 19.79902337, 48.88184406 ], [ 19.79904844, 48.88170654 ], [ 19.7990114, 48.88151486 ], [ 19.79901595, 48.88136932 ], [ 19.79902611, 48.88117167 ], [ 19.79928098, 48.88035394 ], [ 19.79926739, 48.88013407 ], [ 19.79943878, 48.87985978 ], [ 19.79948702, 48.87968856 ], [ 19.79970845, 48.87943447 ], [ 19.79990661, 48.87937674 ], [ 19.80021356, 48.87920909 ], [ 19.80043746, 48.8791604 ], [ 19.80070019, 48.87904842 ], [ 19.80086869, 48.87879203 ], [ 19.80132641, 48.87845662 ], [ 19.80153857, 48.87817345 ], [ 19.80211002, 48.87768823 ], [ 19.80245498, 48.87729132 ], [ 19.80297316, 48.87686326 ], [ 19.80308197, 48.87665168 ], [ 19.80319607, 48.87634868 ], [ 19.80334616, 48.87598486 ], [ 19.80349356, 48.87549719 ], [ 19.80342722, 48.8751759 ], [ 19.80344689, 48.8751608 ], [ 19.80359943, 48.87501222 ], [ 19.80392772, 48.87481106 ], [ 19.80415443, 48.87448851 ], [ 19.80436286, 48.87429865 ], [ 19.80445052, 48.8739661 ], [ 19.80438704, 48.87367774 ], [ 19.80426183, 48.8734151 ], [ 19.80423033, 48.87312524 ], [ 19.80435144, 48.87283948 ], [ 19.80474284, 48.87242989 ], [ 19.80482496, 48.87225437 ], [ 19.804864, 48.87199966 ], [ 19.80488139, 48.87188551 ], [ 19.80509645, 48.87143565 ], [ 19.8051901, 48.87092356 ], [ 19.80530439, 48.87067193 ], [ 19.80535485, 48.86998457 ], [ 19.80537101, 48.86944804 ], [ 19.8053715, 48.86943211 ], [ 19.80537278, 48.86940152 ], [ 19.80537347, 48.86938497 ], [ 19.80539157, 48.86929383 ], [ 19.80539186, 48.86928537 ], [ 19.80539379, 48.86921668 ], [ 19.805398, 48.86906744 ], [ 19.80545732, 48.86867914 ], [ 19.80551982, 48.8685016 ], [ 19.80572538, 48.86821959 ], [ 19.80584543, 48.86791404 ], [ 19.8058465, 48.86774835 ], [ 19.80583768, 48.86763396 ], [ 19.80580355, 48.86740609 ], [ 19.80565735, 48.86676743 ], [ 19.80564384, 48.86670691 ], [ 19.80563636, 48.86665594 ], [ 19.80562533, 48.86658147 ], [ 19.80557529, 48.86624187 ], [ 19.8053865, 48.86564408 ], [ 19.80537892, 48.86494682 ], [ 19.80547102, 48.86455165 ], [ 19.80566058, 48.86427102 ], [ 19.80599676, 48.86386922 ], [ 19.80622024, 48.86280498 ], [ 19.80622335, 48.8627943 ], [ 19.8063109, 48.86250095 ], [ 19.80643653, 48.8617388 ], [ 19.80643926, 48.86172378 ], [ 19.806445, 48.86169221 ], [ 19.80644718, 48.86167996 ], [ 19.80646784, 48.86161651 ], [ 19.80667109, 48.86110494 ], [ 19.80675841, 48.86088927 ], [ 19.80677892, 48.86085339 ], [ 19.80682495, 48.86077797 ], [ 19.80724252, 48.86045963 ], [ 19.80748341, 48.86030524 ], [ 19.80791471, 48.86001354 ], [ 19.80856153, 48.85951075 ], [ 19.80861492, 48.85946286 ], [ 19.80922013, 48.85894573 ], [ 19.80947131, 48.85869741 ], [ 19.81023886, 48.85777851 ], [ 19.81077416, 48.85724148 ], [ 19.81092191, 48.85709774 ], [ 19.8109528, 48.85706456 ], [ 19.81107159, 48.85694542 ], [ 19.81175855, 48.85635693 ], [ 19.81279816, 48.85568853 ], [ 19.81287392, 48.85564089 ], [ 19.81456584, 48.85457083 ], [ 19.81458493, 48.85455877 ], [ 19.81459003, 48.85455557 ], [ 19.81460825, 48.85454401 ], [ 19.81463854, 48.85452369 ], [ 19.81471378, 48.85447297 ], [ 19.81605367, 48.85339197 ], [ 19.81613819, 48.85332344 ], [ 19.81747659, 48.85224445 ], [ 19.81755373, 48.85218416 ], [ 19.81762731, 48.85212678 ], [ 19.8181623, 48.85170967 ], [ 19.81888916, 48.85129527 ], [ 19.8193132, 48.85107668 ], [ 19.81987344, 48.8506319 ], [ 19.82044936, 48.8500127 ], [ 19.82085671, 48.84948885 ], [ 19.82119046, 48.84904599 ], [ 19.82137768, 48.84911068 ], [ 19.82247131, 48.84892419 ], [ 19.82254035, 48.84891239 ], [ 19.82260576, 48.84887664 ], [ 19.82263319, 48.8488617 ], [ 19.82268604, 48.8488328 ], [ 19.82270841, 48.84882061 ], [ 19.82275029, 48.84879772 ], [ 19.82275996, 48.84879247 ], [ 19.82279792, 48.84878699 ], [ 19.82280554, 48.84878587 ], [ 19.82284378, 48.84878032 ], [ 19.8228859, 48.84877421 ], [ 19.82291456, 48.84874688 ], [ 19.82294956, 48.84871342 ], [ 19.82376544, 48.84841388 ], [ 19.82385375, 48.84839922 ], [ 19.8239372, 48.84838534 ], [ 19.82395223, 48.84835634 ], [ 19.82389191, 48.84820863 ], [ 19.82387144, 48.84816593 ], [ 19.82361007, 48.84792238 ], [ 19.82353714, 48.84785092 ], [ 19.82309691, 48.84767318 ], [ 19.82318554, 48.84761672 ], [ 19.82325487, 48.84753176 ], [ 19.8235854, 48.84681829 ], [ 19.82376957, 48.84643466 ], [ 19.82402034, 48.84591251 ], [ 19.82430909, 48.84145124 ], [ 19.8248399, 48.84009592 ], [ 19.8250469, 48.83956728 ], [ 19.82532438, 48.83871057 ], [ 19.82588816, 48.83730873 ], [ 19.825902, 48.83726273 ], [ 19.82590931, 48.83723862 ], [ 19.82622033, 48.83620455 ], [ 19.82642234, 48.83570517 ], [ 19.82642942, 48.83568745 ], [ 19.82656633, 48.835349 ], [ 19.82661638, 48.83523661 ], [ 19.82662549, 48.83521637 ], [ 19.82687846, 48.83464907 ], [ 19.8271597, 48.83401828 ], [ 19.82719235, 48.83394506 ], [ 19.82725913, 48.83327698 ], [ 19.8273584, 48.83228396 ], [ 19.82707284, 48.83161444 ], [ 19.8269813, 48.83095709 ], [ 19.82692137, 48.83052605 ], [ 19.82688628, 48.83027417 ], [ 19.82689673, 48.83003795 ], [ 19.82694224, 48.82901161 ], [ 19.82695947, 48.82862437 ], [ 19.82696098, 48.82858983 ], [ 19.82770137, 48.82781449 ], [ 19.82844324, 48.82720585 ], [ 19.82902601, 48.82660187 ], [ 19.82912367, 48.82650064 ], [ 19.82943871, 48.82617412 ], [ 19.8299508, 48.82548156 ], [ 19.83015553, 48.82520471 ], [ 19.83082655, 48.8245072 ], [ 19.83094499, 48.82434631 ], [ 19.83103016, 48.82423057 ], [ 19.83200174, 48.82291102 ], [ 19.83213705, 48.82282232 ], [ 19.83375375, 48.82176178 ], [ 19.83399925, 48.82160078 ], [ 19.83406902, 48.82149294 ], [ 19.83417444, 48.82132968 ], [ 19.83491271, 48.82018741 ], [ 19.8344599, 48.81939416 ], [ 19.83419204, 48.81892486 ], [ 19.83419604, 48.81891071 ], [ 19.83439318, 48.81821769 ], [ 19.8347276, 48.81743381 ], [ 19.83542911, 48.81666919 ], [ 19.83561254, 48.81651182 ], [ 19.83624005, 48.81597355 ], [ 19.83669487, 48.81558338 ], [ 19.83726846, 48.81494563 ], [ 19.83744657, 48.81479091 ], [ 19.83813957, 48.81418885 ], [ 19.83880315, 48.81361229 ], [ 19.83895107, 48.81351701 ], [ 19.83959293, 48.81310344 ], [ 19.84194758, 48.81158651 ], [ 19.84232182, 48.81134533 ], [ 19.84240381, 48.81108453 ], [ 19.84286847, 48.80960743 ], [ 19.84328521, 48.80866234 ], [ 19.84379194, 48.80750347 ], [ 19.84382246, 48.80746666 ], [ 19.84521817, 48.80578308 ], [ 19.84579061, 48.80509252 ], [ 19.84582268, 48.8050538 ], [ 19.84650621, 48.80435585 ], [ 19.84682694, 48.80399818 ], [ 19.84717308, 48.80360131 ], [ 19.84681196, 48.80288497 ], [ 19.84648803, 48.8022261 ], [ 19.84613786, 48.80124842 ], [ 19.84600524, 48.80013446 ], [ 19.84585381, 48.79908405 ], [ 19.8456716, 48.79849608 ], [ 19.84512571, 48.79757647 ], [ 19.84501523, 48.79695996 ], [ 19.84498835, 48.79688409 ], [ 19.84466059, 48.79626173 ], [ 19.84475633, 48.79571619 ], [ 19.84467994, 48.79481518 ], [ 19.84398027, 48.79347527 ], [ 19.84364752, 48.79196714 ], [ 19.84405104, 48.79095262 ], [ 19.8410213, 48.79079975 ], [ 19.84020465, 48.79082077 ], [ 19.83845602, 48.79085791 ], [ 19.83833724, 48.79086045 ], [ 19.83593007, 48.79039824 ], [ 19.8349646, 48.78966359 ], [ 19.83480582, 48.78953129 ], [ 19.83448274, 48.78926193 ], [ 19.83357829, 48.78850791 ], [ 19.8333036, 48.78827894 ], [ 19.83307631, 48.7880576 ], [ 19.83203808, 48.7873078 ], [ 19.82948794, 48.78804117 ], [ 19.82598387, 48.78833028 ], [ 19.82361319, 48.78852585 ], [ 19.82186082, 48.78840719 ], [ 19.82180135, 48.78840318 ], [ 19.82084787, 48.78830638 ], [ 19.82052059, 48.7884803 ], [ 19.82001795, 48.78874738 ], [ 19.818205, 48.78971071 ], [ 19.81711018, 48.7903987 ], [ 19.81508936, 48.7916685 ], [ 19.81488403, 48.79175 ], [ 19.81448132, 48.79190981 ], [ 19.81182543, 48.79296367 ], [ 19.81029885, 48.79356933 ], [ 19.80890975, 48.79496504 ], [ 19.8079234, 48.79540486 ], [ 19.80777627, 48.79548508 ], [ 19.80755256, 48.79560714 ], [ 19.80750996, 48.79563359 ], [ 19.8063122, 48.79628385 ], [ 19.80590414, 48.79650641 ], [ 19.80489353, 48.79705772 ], [ 19.80352097, 48.79780644 ], [ 19.80335765, 48.79795743 ], [ 19.80328479, 48.79802474 ], [ 19.80259005, 48.79866681 ], [ 19.80107684, 48.79963931 ], [ 19.80088033, 48.79977002 ], [ 19.80083329, 48.79979582 ], [ 19.80068505, 48.79989104 ], [ 19.80021411, 48.80019367 ], [ 19.79967718, 48.80054923 ], [ 19.79955673, 48.80064628 ], [ 19.79842361, 48.80155885 ], [ 19.79837096, 48.80160117 ], [ 19.79734392, 48.80234151 ], [ 19.7972159, 48.80244734 ], [ 19.79667187, 48.80289693 ], [ 19.79665572, 48.80290984 ], [ 19.79618485, 48.80328646 ], [ 19.79541293, 48.80345845 ], [ 19.79520145, 48.80344754 ], [ 19.79450477, 48.8030962 ], [ 19.79423335, 48.80307069 ], [ 19.79350482, 48.80319201 ], [ 19.79242307, 48.80320775 ], [ 19.78877307, 48.80407579 ], [ 19.78732992, 48.80463065 ], [ 19.78641892, 48.80464818 ], [ 19.78569259, 48.80451756 ], [ 19.78486495, 48.80432899 ], [ 19.78418536, 48.80431233 ], [ 19.78350894, 48.80405112 ], [ 19.7825284, 48.80389074 ], [ 19.78085221, 48.80387736 ], [ 19.78019236, 48.80367291 ], [ 19.77928038, 48.8035026 ], [ 19.77860516, 48.80353649 ], [ 19.77804866, 48.80347876 ], [ 19.77736824, 48.80345834 ], [ 19.77695101, 48.80350194 ], [ 19.77641752, 48.80356337 ], [ 19.77586671, 48.80352651 ], [ 19.77555045, 48.80360553 ], [ 19.77467618, 48.80384764 ], [ 19.77466865, 48.80478826 ], [ 19.77425285, 48.80533655 ], [ 19.77421304, 48.80555698 ], [ 19.7738077, 48.8064027 ], [ 19.77379878, 48.80657355 ], [ 19.77379775, 48.80659334 ], [ 19.77378071, 48.80691751 ], [ 19.77373069, 48.80734884 ], [ 19.77370115, 48.80797079 ], [ 19.77387083, 48.80848382 ], [ 19.77393699, 48.80894457 ], [ 19.77451237, 48.81063348 ], [ 19.77451056, 48.81136695 ], [ 19.77446978, 48.81168423 ], [ 19.77446671, 48.81170807 ], [ 19.77446555, 48.81171694 ], [ 19.77446208, 48.81174482 ], [ 19.77443868, 48.81192667 ], [ 19.77420288, 48.81229725 ], [ 19.77361918, 48.81290121 ], [ 19.77331115, 48.81330883 ], [ 19.77318574, 48.81372028 ], [ 19.77313224, 48.81413578 ], [ 19.77319045, 48.81461871 ], [ 19.77318281, 48.81495104 ], [ 19.77327659, 48.81511025 ], [ 19.7739274, 48.81562285 ], [ 19.77440121, 48.81603867 ], [ 19.77441025, 48.81604655 ], [ 19.77442304, 48.81605783 ], [ 19.77444512, 48.81607718 ], [ 19.77514993, 48.81695706 ], [ 19.77524411, 48.81760568 ], [ 19.7755826, 48.81839457 ], [ 19.77572353, 48.81841289 ], [ 19.77595195, 48.81870506 ], [ 19.77634733, 48.81887689 ], [ 19.77629212, 48.81922247 ], [ 19.77617265, 48.81933063 ], [ 19.77578274, 48.81923772 ], [ 19.77582246, 48.81936717 ], [ 19.77605877, 48.82013672 ], [ 19.77629054, 48.82012016 ], [ 19.77641506, 48.82005981 ], [ 19.77638429, 48.81997311 ], [ 19.77648528, 48.81993507 ], [ 19.7765819, 48.81995966 ], [ 19.77661188, 48.82008561 ], [ 19.77651731, 48.82030906 ], [ 19.776304, 48.82041385 ], [ 19.77631416, 48.82052911 ], [ 19.77649858, 48.82057925 ], [ 19.77651179, 48.82088762 ], [ 19.77663735, 48.82109219 ], [ 19.77670889, 48.82114516 ], [ 19.77682901, 48.82128271 ], [ 19.77678232, 48.82146967 ], [ 19.77670533, 48.82147523 ], [ 19.77666533, 48.82152161 ], [ 19.77678968, 48.82160059 ], [ 19.77674884, 48.82204674 ], [ 19.77703988, 48.82211172 ], [ 19.77702402, 48.82221557 ], [ 19.77715478, 48.82235467 ], [ 19.77704809, 48.82260237 ], [ 19.77706544, 48.82270038 ], [ 19.77711791, 48.82299567 ], [ 19.776973, 48.82316149 ], [ 19.77696364, 48.82319092 ], [ 19.77689719, 48.82340063 ], [ 19.77686301, 48.82336038 ], [ 19.77666213, 48.82386714 ], [ 19.77660981, 48.82399293 ], [ 19.77656864, 48.82409199 ], [ 19.77661174, 48.82428855 ], [ 19.77684428, 48.82436539 ], [ 19.7770027, 48.82463728 ], [ 19.77710693, 48.8246869 ], [ 19.77728893, 48.82477776 ], [ 19.77717165, 48.82515839 ], [ 19.77698741, 48.82541712 ], [ 19.77695596, 48.8257312 ], [ 19.77710557, 48.82596846 ], [ 19.77717057, 48.82601455 ], [ 19.77715381, 48.82612738 ], [ 19.77687775, 48.82645782 ], [ 19.77697219, 48.82649619 ], [ 19.77694296, 48.82661911 ], [ 19.77691275, 48.82674632 ], [ 19.77689268, 48.82683088 ], [ 19.77688724, 48.8268539 ], [ 19.77658951, 48.82749613 ], [ 19.77664503, 48.82812765 ], [ 19.77674726, 48.82850812 ], [ 19.77675046, 48.8285198 ], [ 19.77688941, 48.8289044 ], [ 19.77685805, 48.82903768 ], [ 19.77683267, 48.82914527 ], [ 19.77676394, 48.82943762 ], [ 19.77675164, 48.82948963 ], [ 19.77677679, 48.8296133 ], [ 19.77677819, 48.82961985 ], [ 19.77679371, 48.82969659 ], [ 19.77679474, 48.82970132 ], [ 19.77679841, 48.82971915 ], [ 19.77681297, 48.82979053 ], [ 19.77682673, 48.82982349 ], [ 19.77682911, 48.82982837 ], [ 19.77683388, 48.82983804 ], [ 19.77690012, 48.82997261 ], [ 19.7769109, 48.82999453 ], [ 19.77706774, 48.83031367 ], [ 19.77708584, 48.83052689 ], [ 19.77711906, 48.83063415 ], [ 19.77729817, 48.83064088 ], [ 19.77738033, 48.83067106 ], [ 19.77748527, 48.83070962 ], [ 19.77781058, 48.83085963 ], [ 19.77785418, 48.8308646 ], [ 19.77809458, 48.83096549 ], [ 19.7781124, 48.83097293 ], [ 19.778139, 48.8309841 ], [ 19.77866185, 48.83120357 ], [ 19.7787651, 48.83124547 ], [ 19.77920296, 48.83139075 ], [ 19.7793772, 48.8314299 ], [ 19.78037601, 48.83183442 ], [ 19.78080622, 48.83190753 ], [ 19.78131188, 48.83196888 ], [ 19.78142505, 48.83198255 ], [ 19.78220421, 48.83235179 ], [ 19.78237871, 48.83245791 ], [ 19.78290081, 48.83286686 ], [ 19.78323916, 48.83317335 ], [ 19.78364306, 48.8334279 ], [ 19.78388971, 48.83356753 ], [ 19.78415316, 48.83361569 ], [ 19.78445929, 48.83369032 ], [ 19.78479979, 48.83374878 ], [ 19.78487108, 48.83377586 ], [ 19.78530076, 48.83393923 ], [ 19.78546545, 48.8339401 ], [ 19.78584984, 48.83401029 ], [ 19.78583938, 48.83408761 ], [ 19.78592446, 48.83415972 ], [ 19.78596516, 48.83418826 ], [ 19.78605871, 48.83425209 ], [ 19.78598276, 48.83439055 ], [ 19.7861896, 48.83442318 ], [ 19.78632576, 48.83444461 ], [ 19.78631228, 48.83451937 ], [ 19.78630682, 48.83459853 ], [ 19.78630258, 48.83466144 ], [ 19.78698308, 48.83467719 ], [ 19.78733502, 48.8347128 ], [ 19.78771927, 48.83483507 ], [ 19.78791817, 48.83505787 ], [ 19.78909587, 48.83684904 ], [ 19.78903424, 48.83692333 ], [ 19.78903024, 48.83693604 ], [ 19.78899659, 48.83704327 ], [ 19.78888123, 48.83710746 ], [ 19.78887596, 48.83712607 ], [ 19.78880643, 48.83737242 ], [ 19.78873985, 48.83738701 ], [ 19.78865634, 48.83742609 ], [ 19.78859644, 48.83745034 ], [ 19.78847252, 48.83758789 ], [ 19.78914727, 48.83809196 ], [ 19.78954122, 48.83840445 ], [ 19.78977795, 48.83865332 ], [ 19.7898624, 48.83877975 ], [ 19.79054978, 48.83960467 ], [ 19.79110977, 48.83984335 ], [ 19.7915681, 48.8400924 ], [ 19.79179811, 48.84022155 ], [ 19.79189759, 48.84029041 ], [ 19.79199708, 48.84035927 ], [ 19.79210654, 48.84044721 ], [ 19.79232017, 48.84061459 ], [ 19.79243423, 48.84069607 ], [ 19.79257767, 48.84081983 ], [ 19.79271594, 48.84090912 ], [ 19.79352137, 48.84202675 ], [ 19.79336908, 48.84197254 ], [ 19.79332942, 48.84219469 ], [ 19.79322731, 48.84240231 ], [ 19.79310281, 48.84255119 ], [ 19.79327491, 48.84260942 ], [ 19.79313022, 48.84278951 ], [ 19.79322719, 48.84291368 ], [ 19.79318962, 48.84306571 ], [ 19.79329351, 48.84352961 ], [ 19.79406863, 48.84382693 ], [ 19.79399265, 48.84389735 ], [ 19.79409622, 48.84395413 ], [ 19.79418683, 48.84420366 ], [ 19.7945378, 48.84440575 ], [ 19.79478109, 48.84450321 ], [ 19.79521221, 48.84458089 ], [ 19.79548146, 48.84459206 ], [ 19.79577456, 48.84458731 ], [ 19.7959844, 48.84459445 ], [ 19.79608903, 48.84451067 ], [ 19.79621362, 48.84461685 ], [ 19.79570107, 48.84492551 ], [ 19.79598877, 48.8474656 ], [ 19.79636847, 48.84773175 ], [ 19.79629601, 48.84911078 ], [ 19.79573409, 48.85022302 ], [ 19.79468141, 48.85088152 ], [ 19.79385877, 48.85167455 ], [ 19.79253811, 48.85261455 ], [ 19.79211594, 48.85344212 ], [ 19.79188535, 48.8539076 ], [ 19.79160185, 48.85429425 ], [ 19.79128169, 48.85456936 ], [ 19.78954924, 48.85596864 ], [ 19.78804028, 48.85725055 ], [ 19.78651157, 48.85800785 ], [ 19.78462098, 48.85949437 ], [ 19.78416462, 48.85993549 ], [ 19.78376242, 48.86043854 ], [ 19.78375495, 48.86045588 ], [ 19.7837389, 48.8604934 ], [ 19.78358106, 48.86065659 ], [ 19.78354104, 48.86064701 ], [ 19.78342691, 48.86075019 ], [ 19.78364243, 48.86086232 ], [ 19.78301149, 48.86121734 ], [ 19.7829882, 48.86123038 ], [ 19.78285963, 48.86123199 ], [ 19.78285625, 48.86129313 ], [ 19.78273249, 48.86157434 ], [ 19.78256351, 48.86217083 ], [ 19.78267205, 48.86260817 ], [ 19.78268623, 48.86307384 ], [ 19.78253374, 48.8636148 ], [ 19.78236316, 48.86403611 ], [ 19.78214542, 48.86443733 ], [ 19.78209164, 48.86461974 ], [ 19.78204409, 48.86468536 ], [ 19.78163661, 48.86518061 ], [ 19.78125246, 48.86568282 ], [ 19.78123141, 48.86571029 ], [ 19.78121617, 48.86573018 ], [ 19.78106874, 48.86585867 ], [ 19.78084714, 48.86605261 ], [ 19.78072852, 48.8662277 ], [ 19.78068439, 48.86645019 ], [ 19.78058204, 48.86670827 ], [ 19.78034966, 48.86694166 ], [ 19.78019467, 48.86738437 ], [ 19.78018996, 48.86767699 ], [ 19.78010841, 48.86816526 ], [ 19.78010978, 48.86820479 ], [ 19.78010942, 48.86822614 ], [ 19.78008016, 48.86975557 ], [ 19.77990288, 48.87027067 ], [ 19.77962698, 48.87059734 ], [ 19.77946314, 48.87118279 ], [ 19.77927028, 48.87153967 ], [ 19.77872183, 48.87188645 ], [ 19.7784718, 48.87207744 ], [ 19.77830688, 48.87215524 ], [ 19.77824027, 48.87230194 ], [ 19.7779013, 48.87256232 ], [ 19.77712245, 48.87298576 ], [ 19.77671349, 48.87330365 ], [ 19.77616023, 48.87347996 ], [ 19.77576707, 48.8736675 ], [ 19.77520865, 48.87386792 ], [ 19.77426678, 48.87426791 ], [ 19.7742244, 48.87431851 ], [ 19.77331356, 48.87540743 ], [ 19.77313619, 48.8758953 ], [ 19.77290973, 48.87624593 ], [ 19.77264111, 48.87649918 ], [ 19.77228707, 48.87665046 ], [ 19.77198861, 48.8768742 ], [ 19.7717736, 48.87700163 ], [ 19.77072481, 48.8773224 ], [ 19.77076793, 48.87749173 ], [ 19.77001108, 48.87767139 ], [ 19.76961514, 48.87784517 ], [ 19.76923421, 48.87790605 ], [ 19.7682817, 48.87833311 ], [ 19.76792548, 48.87844734 ], [ 19.76713121, 48.87876801 ], [ 19.76609663, 48.87869757 ], [ 19.76506954, 48.87837041 ], [ 19.76407507, 48.87814569 ], [ 19.76290215, 48.87839544 ], [ 19.76244688, 48.87843862 ], [ 19.76148813, 48.8786797 ], [ 19.76085281, 48.87940178 ], [ 19.76046183, 48.87978124 ], [ 19.75993605, 48.8803337 ], [ 19.75956325, 48.88037192 ], [ 19.75906995, 48.88076583 ], [ 19.75877196, 48.8812557 ], [ 19.7582422, 48.88146848 ], [ 19.75787669, 48.88150881 ], [ 19.75735228, 48.88179743 ], [ 19.75698962, 48.88193838 ], [ 19.75570566, 48.88220393 ], [ 19.75502992, 48.88243436 ], [ 19.75447668, 48.88239824 ], [ 19.75375094, 48.88254842 ], [ 19.75310968, 48.88282308 ], [ 19.75246543, 48.88316808 ], [ 19.75222898, 48.88342621 ], [ 19.75162366, 48.88388656 ], [ 19.75097874, 48.8840345 ], [ 19.75031492, 48.88405805 ], [ 19.74971809, 48.88414914 ], [ 19.7485617, 48.88442246 ], [ 19.74818355, 48.88464202 ], [ 19.74759754, 48.8848493 ], [ 19.74727979, 48.88510008 ], [ 19.74681125, 48.88532828 ], [ 19.7447975, 48.88558261 ], [ 19.74410848, 48.88578518 ], [ 19.74381287, 48.88583936 ], [ 19.74287442, 48.88635472 ], [ 19.7428125, 48.88638868 ], [ 19.74276576, 48.88641439 ], [ 19.74225093, 48.88664307 ], [ 19.74112378, 48.88735401 ], [ 19.74071432, 48.88767338 ], [ 19.74037043, 48.8878563 ], [ 19.74044214, 48.88812064 ], [ 19.7404665, 48.88836668 ], [ 19.74056893, 48.88860966 ], [ 19.74098452, 48.88905143 ], [ 19.74105599, 48.88962004 ], [ 19.74152777, 48.89019442 ], [ 19.74198248, 48.89079851 ], [ 19.74264266, 48.89118575 ], [ 19.74286239, 48.89134474 ], [ 19.74291302, 48.89137526 ], [ 19.74323454, 48.89160514 ], [ 19.74332757, 48.89173567 ], [ 19.74334553, 48.8917608 ], [ 19.7435777, 48.89208644 ], [ 19.7439493, 48.8929687 ], [ 19.74375947, 48.89342751 ], [ 19.74371271, 48.89406826 ], [ 19.74384289, 48.8948425 ], [ 19.74419228, 48.89573912 ], [ 19.74421715, 48.89651802 ], [ 19.744383, 48.89676018 ], [ 19.74461747, 48.89683436 ], [ 19.74671883, 48.89741268 ], [ 19.74832836, 48.89776626 ], [ 19.74905551, 48.89798407 ], [ 19.74986257, 48.89822574 ], [ 19.75011783, 48.89826469 ], [ 19.75026738, 48.8982999 ], [ 19.7504386, 48.89831281 ], [ 19.75102898, 48.89884754 ], [ 19.75144869, 48.89896931 ], [ 19.7515847, 48.89902501 ], [ 19.75177914, 48.89915881 ], [ 19.75187719, 48.89920321 ], [ 19.75197285, 48.89925643 ], [ 19.75239623, 48.89944361 ], [ 19.75267464, 48.89954863 ], [ 19.7529715, 48.89977722 ], [ 19.75319076, 48.89996465 ], [ 19.75341889, 48.90001105 ], [ 19.75373922, 48.90001615 ], [ 19.75432048, 48.90007333 ], [ 19.75477299, 48.90012063 ], [ 19.75555838, 48.90025487 ], [ 19.75587779, 48.90039412 ], [ 19.75648794, 48.90069527 ], [ 19.75670683, 48.9007792 ], [ 19.75690556, 48.90096842 ], [ 19.7574863, 48.90148981 ], [ 19.75774431, 48.90163746 ], [ 19.75828748, 48.90194828 ], [ 19.75848015, 48.90216923 ], [ 19.75905562, 48.90282485 ], [ 19.75937003, 48.903086 ], [ 19.76037471, 48.90417469 ], [ 19.7607712, 48.90462167 ], [ 19.76112524, 48.90485877 ], [ 19.76141722, 48.90526837 ], [ 19.76277384, 48.90425866 ], [ 19.76304673, 48.90417559 ], [ 19.76335136, 48.90411013 ], [ 19.76376361, 48.90404027 ], [ 19.76412793, 48.90394254 ], [ 19.76527707, 48.90404817 ], [ 19.76588824, 48.90411705 ], [ 19.76623756, 48.90406651 ], [ 19.76701133, 48.90421251 ], [ 19.76734835, 48.90426814 ], [ 19.76755768, 48.90429513 ], [ 19.76828926, 48.90449507 ], [ 19.76878786, 48.90464752 ], [ 19.76916165, 48.9047618 ], [ 19.76956189, 48.90494213 ], [ 19.77124416, 48.90517813 ], [ 19.77170844, 48.90521902 ], [ 19.77271585, 48.9052088 ], [ 19.77342436, 48.90529288 ], [ 19.77373352, 48.90533601 ], [ 19.77427364, 48.90542373 ], [ 19.77473435, 48.9055426 ], [ 19.77554099, 48.90565978 ], [ 19.77616951, 48.90584895 ], [ 19.77700877, 48.90610174 ], [ 19.77760773, 48.90519909 ] ] ] ] } },
{ "type": "Feature", "properties": { "@featureType": "CadastralZoning", "beginLifespanVersion": { "@nilReason": "http://inspire.ec.europa.eu/codelist/VoidReasonValue/Unpopulated", "@nil": "true" }, "endLifespanVersion": { "@nilReason": "http://inspire.ec.europa.eu/codelist/VoidReasonValue/Unpopulated", "@nil": "true" }, "estimatedAccuracy": { "value": -1, "@uom": "m" }, "inspireId": { "@dataType": "Identifier", "localId": "848051", "namespace": "SK.ESKN.CP", "versionId": "20260703T04:07:40" }, "label": "Polomka", "level": { "@href": "http://inspire.ec.europa.eu/codelist/CadastralZoningLevelValue/3rdOrder" }, "levelName": { "value": "Katastrálne územie", "@locale": "sk" }, "name": { "@dataType": "name", "GeographicalName": { "@dataType": "GeographicalName", "language": "SLK", "nativeness": { "@href": "http://inspire.ec.europa.eu/codelist/NativenessValue/endonym", "@title": "endonym" }, "nameStatus": { "@href": "http://inspire.ec.europa.eu/codelist/NameStatusValue/official", "@title": "official" }, "sourceOfName": { "@nilReason": "http://inspire.ec.europa.eu/codelist/VoidReasonValue/Unpopulated", "@nil": "true" }, "pronunciation": { "@dataType": "pronunciation", "@nilReason": "http://inspire.ec.europa.eu/codelist/VoidReasonValue/Unpopulated", "@nil": "true" }, "spelling": { "@dataType": "SpellingOfName", "text": "Polomka", "script": "LATN" } } }, "nationalCadastalZoningReference": "848051", "validFrom": "2026-06-30T16:00:00Z", "validTo": { "@nilReason": "http://inspire.ec.europa.eu/codelist/VoidReasonValue/Unpopulated", "@nil": "true" } }, "geometry": { "type": "MultiPolygon", "coordinates": [ [ [ [ 19.81790044, 48.91610961 ], [ 19.8181348, 48.91549933 ], [ 19.81842539, 48.9151459 ], [ 19.81862665, 48.91471578 ], [ 19.81877832, 48.91378064 ], [ 19.81891482, 48.91341721 ], [ 19.81893889, 48.91322196 ], [ 19.81967984, 48.91270639 ], [ 19.8198843, 48.91253813 ], [ 19.81996195, 48.91236917 ], [ 19.82031471, 48.91194019 ], [ 19.82038213, 48.91188497 ], [ 19.82086625, 48.91137785 ], [ 19.82117972, 48.91112805 ], [ 19.82117257, 48.91102113 ], [ 19.82115169, 48.91053518 ], [ 19.8213866, 48.91012518 ], [ 19.82165317, 48.90986416 ], [ 19.82195161, 48.90941048 ], [ 19.82228019, 48.90895612 ], [ 19.82269152, 48.90835825 ], [ 19.82359234, 48.90799519 ], [ 19.82407423, 48.90777816 ], [ 19.82521388, 48.9080331 ], [ 19.8266477, 48.9081303 ], [ 19.82714147, 48.90806067 ], [ 19.82771215, 48.90783466 ], [ 19.82829642, 48.90726081 ], [ 19.82981254, 48.90673364 ], [ 19.83083872, 48.90647318 ], [ 19.83239712, 48.90612705 ], [ 19.83472604, 48.9062647 ], [ 19.8355147, 48.90587879 ], [ 19.83685409, 48.9055749 ], [ 19.83726145, 48.90535308 ], [ 19.83756723, 48.90503469 ], [ 19.83780682, 48.90483799 ], [ 19.83832058, 48.90422231 ], [ 19.84033773, 48.90445513 ], [ 19.84261382, 48.90471562 ], [ 19.84459259, 48.90528421 ], [ 19.84698473, 48.90596704 ], [ 19.84746507, 48.90684852 ], [ 19.84794239, 48.90679396 ], [ 19.84883951, 48.90700958 ], [ 19.84912868, 48.90703976 ], [ 19.84922422, 48.90704972 ], [ 19.84953864, 48.90714947 ], [ 19.84993796, 48.90720221 ], [ 19.85050637, 48.90737703 ], [ 19.85122166, 48.90758312 ], [ 19.8521139, 48.9076782 ], [ 19.8527695, 48.90771913 ], [ 19.85370941, 48.90782715 ], [ 19.85441318, 48.90794098 ], [ 19.85477985, 48.90808225 ], [ 19.8551715, 48.9081533 ], [ 19.856383, 48.90805972 ], [ 19.86005112, 48.9073575 ], [ 19.86285451, 48.90822884 ], [ 19.86313701, 48.90900516 ], [ 19.86647969, 48.90718429 ], [ 19.86862875, 48.90647509 ], [ 19.87022512, 48.90603168 ], [ 19.87289614, 48.90581586 ], [ 19.87499142, 48.90689789 ], [ 19.87760228, 48.90824602 ], [ 19.87766658, 48.90904136 ], [ 19.87839548, 48.90946351 ], [ 19.87979622, 48.90956143 ], [ 19.88088405, 48.90985676 ], [ 19.88134151, 48.90963251 ], [ 19.88297632, 48.90936269 ], [ 19.88690095, 48.908715 ], [ 19.88991529, 48.90821739 ], [ 19.8958829, 48.90934512 ], [ 19.8987074, 48.90987871 ], [ 19.90089216, 48.90911628 ], [ 19.90318247, 48.90918783 ], [ 19.90465627, 48.90921538 ], [ 19.90537952, 48.90922888 ], [ 19.90685327, 48.90881329 ], [ 19.90896973, 48.90792652 ], [ 19.90956892, 48.90789157 ], [ 19.91073607, 48.90782348 ], [ 19.91185909, 48.90775801 ], [ 19.9128695, 48.90769903 ], [ 19.91563204, 48.90813531 ], [ 19.91583497, 48.90817122 ], [ 19.91695204, 48.90836868 ], [ 19.91735771, 48.90754202 ], [ 19.91712268, 48.90315424 ], [ 19.91709628, 48.90266217 ], [ 19.91708482, 48.90244874 ], [ 19.91705895, 48.90196525 ], [ 19.91705065, 48.90181062 ], [ 19.9170362, 48.90154101 ], [ 19.91707598, 48.90145826 ], [ 19.91716387, 48.90129419 ], [ 19.91711796, 48.90124763 ], [ 19.91720431, 48.90080206 ], [ 19.91739449, 48.90005828 ], [ 19.91741979, 48.90001331 ], [ 19.9174139, 48.89992222 ], [ 19.91745537, 48.89953738 ], [ 19.91706763, 48.89848245 ], [ 19.91711529, 48.89804957 ], [ 19.9170174, 48.89750987 ], [ 19.91703353, 48.89738925 ], [ 19.91699672, 48.89733642 ], [ 19.91686161, 48.89656588 ], [ 19.91669889, 48.89610957 ], [ 19.91672043, 48.89597126 ], [ 19.91674403, 48.89594225 ], [ 19.91669416, 48.89571358 ], [ 19.91663866, 48.89545981 ], [ 19.91658476, 48.89531316 ], [ 19.91653651, 48.89523884 ], [ 19.9165828, 48.89495459 ], [ 19.91653744, 48.89484093 ], [ 19.91657845, 48.89455051 ], [ 19.91656411, 48.89437516 ], [ 19.91647417, 48.89429394 ], [ 19.91649718, 48.89401583 ], [ 19.91636009, 48.89373688 ], [ 19.91635008, 48.89366427 ], [ 19.91630955, 48.89363002 ], [ 19.91626877, 48.89348194 ], [ 19.91621781, 48.89324764 ], [ 19.9161152, 48.89316462 ], [ 19.9161515, 48.89294502 ], [ 19.91608546, 48.89290464 ], [ 19.91604218, 48.89287054 ], [ 19.91606704, 48.89274597 ], [ 19.91600817, 48.89253387 ], [ 19.91586411, 48.89224525 ], [ 19.91561016, 48.89191178 ], [ 19.9156099, 48.89182481 ], [ 19.91550117, 48.89151858 ], [ 19.91529959, 48.89137981 ], [ 19.91522683, 48.89128652 ], [ 19.91518601, 48.89123415 ], [ 19.91499946, 48.89109972 ], [ 19.91503686, 48.89099217 ], [ 19.91494897, 48.89091248 ], [ 19.91486542, 48.89085973 ], [ 19.91469027, 48.89072182 ], [ 19.91453308, 48.89021474 ], [ 19.91446033, 48.89009477 ], [ 19.91434103, 48.88998536 ], [ 19.91419653, 48.88973925 ], [ 19.91421915, 48.88967397 ], [ 19.91411716, 48.88957638 ], [ 19.91405743, 48.8891266 ], [ 19.91403883, 48.88887727 ], [ 19.91401176, 48.88874842 ], [ 19.91389798, 48.88862456 ], [ 19.91387717, 48.88833206 ], [ 19.91380992, 48.8882636 ], [ 19.91367188, 48.88794 ], [ 19.91366708, 48.8878659 ], [ 19.91358265, 48.88767514 ], [ 19.91354755, 48.88747315 ], [ 19.9133359, 48.88710713 ], [ 19.91336537, 48.88702078 ], [ 19.91313297, 48.88675833 ], [ 19.91278956, 48.88580835 ], [ 19.91280474, 48.88565697 ], [ 19.91273578, 48.8855542 ], [ 19.91269506, 48.88532438 ], [ 19.91260839, 48.8852323 ], [ 19.91266055, 48.88478574 ], [ 19.91271185, 48.88470104 ], [ 19.91263457, 48.8845561 ], [ 19.91277245, 48.88449859 ], [ 19.91284657, 48.88428924 ], [ 19.91275627, 48.884198 ], [ 19.9129388, 48.88377787 ], [ 19.91292691, 48.883684 ], [ 19.91297892, 48.88353184 ], [ 19.91295984, 48.88345281 ], [ 19.9129961, 48.883287 ], [ 19.91296964, 48.88318981 ], [ 19.91299388, 48.88305747 ], [ 19.91306094, 48.88294992 ], [ 19.91310776, 48.88291262 ], [ 19.91317776, 48.88269633 ], [ 19.91320676, 48.88265683 ], [ 19.91321645, 48.88257424 ], [ 19.91325369, 48.88253284 ], [ 19.91331189, 48.88241942 ], [ 19.91323289, 48.88235515 ], [ 19.91324255, 48.88232203 ], [ 19.91319861, 48.88222609 ], [ 19.91319092, 48.88179347 ], [ 19.91322152, 48.88170528 ], [ 19.91314219, 48.88165145 ], [ 19.91312372, 48.88159011 ], [ 19.91295749, 48.88144662 ], [ 19.9126478, 48.88113213 ], [ 19.91264758, 48.88107409 ], [ 19.91248742, 48.88082353 ], [ 19.91247365, 48.88078122 ], [ 19.91222493, 48.88036704 ], [ 19.91201994, 48.88002419 ], [ 19.91163168, 48.87968888 ], [ 19.9114783, 48.87960703 ], [ 19.91142474, 48.87950482 ], [ 19.91128738, 48.87935958 ], [ 19.9110649, 48.87917243 ], [ 19.91045131, 48.87869048 ], [ 19.91040596, 48.87860772 ], [ 19.91031201, 48.87854984 ], [ 19.91018087, 48.87851877 ], [ 19.9099391, 48.87842714 ], [ 19.90982348, 48.87835329 ], [ 19.90971903, 48.87833011 ], [ 19.90959172, 48.8782892 ], [ 19.90955098, 48.87828666 ], [ 19.90947631, 48.87828187 ], [ 19.90945716, 48.87828069 ], [ 19.9088675, 48.87831676 ], [ 19.90833348, 48.87765831 ], [ 19.90834656, 48.87741924 ], [ 19.90821292, 48.87740266 ], [ 19.90810902, 48.87735013 ], [ 19.90807166, 48.87733115 ], [ 19.90802987, 48.87731 ], [ 19.90777443, 48.87718073 ], [ 19.90810577, 48.87633356 ], [ 19.90848223, 48.87598159 ], [ 19.9082404, 48.87559112 ], [ 19.90817204, 48.87527948 ], [ 19.90816938, 48.87493854 ], [ 19.90859722, 48.87396056 ], [ 19.90866435, 48.87360168 ], [ 19.90864067, 48.87316811 ], [ 19.90862775, 48.87312133 ], [ 19.90861876, 48.87289566 ], [ 19.90716243, 48.87232779 ], [ 19.90623186, 48.87193707 ], [ 19.90599092, 48.87173524 ], [ 19.90521101, 48.87158549 ], [ 19.9046539, 48.87016166 ], [ 19.90400317, 48.8699051 ], [ 19.90357248, 48.8697636 ], [ 19.90295321, 48.86952766 ], [ 19.90258978, 48.86945002 ], [ 19.90174216, 48.86932962 ], [ 19.90133081, 48.86929789 ], [ 19.90029813, 48.86928893 ], [ 19.90014685, 48.86926717 ], [ 19.90019119, 48.86877449 ], [ 19.90000621, 48.86801026 ], [ 19.90001708, 48.86721012 ], [ 19.89989299, 48.86681796 ], [ 19.89989091, 48.86672325 ], [ 19.9000822, 48.8661148 ], [ 19.90016292, 48.8656425 ], [ 19.90002775, 48.86535405 ], [ 19.89965808, 48.86514069 ], [ 19.8989741, 48.86386436 ], [ 19.89898132, 48.86360602 ], [ 19.89891815, 48.86353124 ], [ 19.89884953, 48.86321327 ], [ 19.89889726, 48.86301983 ], [ 19.89881878, 48.86290745 ], [ 19.89862571, 48.86198751 ], [ 19.89817131, 48.86114782 ], [ 19.8979385, 48.8609739 ], [ 19.89768497, 48.86078431 ], [ 19.89721767, 48.86048884 ], [ 19.89669175, 48.86021592 ], [ 19.89599096, 48.85989617 ], [ 19.8952023, 48.85945561 ], [ 19.89503574, 48.85918835 ], [ 19.89452417, 48.85867974 ], [ 19.89417078, 48.85832458 ], [ 19.89412723, 48.8582755 ], [ 19.89390022, 48.85802179 ], [ 19.89383492, 48.85748875 ], [ 19.89383428, 48.85715619 ], [ 19.8939663, 48.85661092 ], [ 19.89426594, 48.85592834 ], [ 19.89473961, 48.85560679 ], [ 19.89523047, 48.85524343 ], [ 19.89560154, 48.85480351 ], [ 19.89603855, 48.85419607 ], [ 19.89663525, 48.85337023 ], [ 19.89693597, 48.85280592 ], [ 19.89694521, 48.85279522 ], [ 19.89698121, 48.85275386 ], [ 19.8969821, 48.85253527 ], [ 19.89698402, 48.8521009 ], [ 19.89698448, 48.85200124 ], [ 19.89697925, 48.85094862 ], [ 19.89696986, 48.85089523 ], [ 19.89690941, 48.85088365 ], [ 19.89690116, 48.85085347 ], [ 19.89688881, 48.85080797 ], [ 19.89688057, 48.85077779 ], [ 19.89688495, 48.85074139 ], [ 19.89702293, 48.85076727 ], [ 19.89697691, 48.85069466 ], [ 19.89696119, 48.85066975 ], [ 19.89714978, 48.84836526 ], [ 19.89715444, 48.8482994 ], [ 19.89715726, 48.84825942 ], [ 19.89764183, 48.8466564 ], [ 19.89763014, 48.846572 ], [ 19.89760625, 48.84640021 ], [ 19.89759038, 48.84628598 ], [ 19.89727238, 48.84552753 ], [ 19.89733652, 48.84530722 ], [ 19.89721745, 48.84475432 ], [ 19.89785546, 48.84402413 ], [ 19.89784004, 48.84336057 ], [ 19.8978693, 48.8428266 ], [ 19.89793604, 48.84261316 ], [ 19.8980877, 48.84212875 ], [ 19.89809826, 48.84149404 ], [ 19.89790531, 48.83986587 ], [ 19.89728725, 48.83829492 ], [ 19.89636756, 48.83736169 ], [ 19.89597755, 48.83668712 ], [ 19.89617607, 48.83540364 ], [ 19.89617251, 48.83364456 ], [ 19.8965227, 48.83332289 ], [ 19.89645427, 48.83270194 ], [ 19.89668861, 48.83255017 ], [ 19.89629956, 48.83139837 ], [ 19.89598938, 48.83075658 ], [ 19.89647796, 48.82981358 ], [ 19.89684019, 48.82945926 ], [ 19.89724806, 48.82885572 ], [ 19.896853, 48.82871516 ], [ 19.89686928, 48.82862258 ], [ 19.89700342, 48.8284331 ], [ 19.89713142, 48.82796831 ], [ 19.8973136, 48.82753017 ], [ 19.89696328, 48.82699337 ], [ 19.89693634, 48.82695203 ], [ 19.89677952, 48.82671176 ], [ 19.89722615, 48.82634968 ], [ 19.89744122, 48.8263738 ], [ 19.89850118, 48.82649267 ], [ 19.89864024, 48.82650823 ], [ 19.89982468, 48.82664104 ], [ 19.89982908, 48.8266114 ], [ 19.90392721, 48.82273296 ], [ 19.90398123, 48.82268146 ], [ 19.91090693, 48.81608258 ], [ 19.91306969, 48.81402147 ], [ 19.91309211, 48.81400008 ], [ 19.91474286, 48.8124268 ], [ 19.91623337, 48.81153295 ], [ 19.91755003, 48.81015922 ], [ 19.9175256, 48.80938381 ], [ 19.91752423, 48.80934185 ], [ 19.91751585, 48.80907601 ], [ 19.91750752, 48.80881521 ], [ 19.91750631, 48.80877578 ], [ 19.91750107, 48.80860803 ], [ 19.91741861, 48.80599906 ], [ 19.91688563, 48.80493847 ], [ 19.91672586, 48.80423336 ], [ 19.91625048, 48.803613 ], [ 19.91623011, 48.80303448 ], [ 19.91640752, 48.80236091 ], [ 19.91591106, 48.80211444 ], [ 19.91584522, 48.80208173 ], [ 19.91425463, 48.80129197 ], [ 19.91164391, 48.79999572 ], [ 19.91155303, 48.79913745 ], [ 19.91150546, 48.7986889 ], [ 19.91151293, 48.79864857 ], [ 19.91258735, 48.79638298 ], [ 19.91237825, 48.79611537 ], [ 19.91550989, 48.79406964 ], [ 19.91909887, 48.79334113 ], [ 19.91939371, 48.79328127 ], [ 19.92307261, 48.79253429 ], [ 19.923876, 48.79237118 ], [ 19.92645402, 48.79135635 ], [ 19.93185961, 48.78922805 ], [ 19.93192569, 48.78920201 ], [ 19.93747855, 48.78701536 ], [ 19.93853331, 48.78692073 ], [ 19.93860871, 48.78691391 ], [ 19.93871464, 48.78690442 ], [ 19.93879902, 48.78687519 ], [ 19.93891403, 48.78683535 ], [ 19.93857794, 48.78658098 ], [ 19.93860277, 48.78625978 ], [ 19.93812446, 48.78590396 ], [ 19.93806719, 48.78587577 ], [ 19.93801017, 48.78587309 ], [ 19.93744607, 48.78595674 ], [ 19.93739275, 48.78594692 ], [ 19.93683673, 48.78558105 ], [ 19.93672576, 48.78557644 ], [ 19.93633834, 48.78567622 ], [ 19.93624919, 48.78569696 ], [ 19.93518931, 48.78610775 ], [ 19.93464765, 48.78636924 ], [ 19.93457907, 48.78637183 ], [ 19.93354607, 48.78630802 ], [ 19.9334917, 48.78630761 ], [ 19.93342909, 48.78631902 ], [ 19.93209113, 48.78668719 ], [ 19.93204561, 48.78669536 ], [ 19.93199383, 48.78669208 ], [ 19.93176167, 48.78666441 ], [ 19.93169178, 48.78665947 ], [ 19.9316255, 48.78665946 ], [ 19.93110203, 48.786743 ], [ 19.93076717, 48.7866269 ], [ 19.93032309, 48.78627574 ], [ 19.92979507, 48.78607026 ], [ 19.92936689, 48.78544996 ], [ 19.92872752, 48.78514973 ], [ 19.92698064, 48.78507039 ], [ 19.92629627, 48.78523946 ], [ 19.9262336, 48.78524726 ], [ 19.92616952, 48.78523724 ], [ 19.9257728, 48.78506461 ], [ 19.92574085, 48.78504244 ], [ 19.92572933, 48.78501789 ], [ 19.92565367, 48.78456247 ], [ 19.92615462, 48.78381186 ], [ 19.92616442, 48.78377974 ], [ 19.92615596, 48.78374883 ], [ 19.92539258, 48.78324164 ], [ 19.92452334, 48.78306772 ], [ 19.92397585, 48.78279929 ], [ 19.92333015, 48.78149927 ], [ 19.92305238, 48.78122407 ], [ 19.92229959, 48.78074461 ], [ 19.92161607, 48.78048149 ], [ 19.92097866, 48.77994329 ], [ 19.92080067, 48.7798805 ], [ 19.92037268, 48.779838 ], [ 19.9190743, 48.77836182 ], [ 19.91911781, 48.7779311 ], [ 19.91899783, 48.77762943 ], [ 19.91876042, 48.77733502 ], [ 19.91838846, 48.77703338 ], [ 19.91833827, 48.77693806 ], [ 19.91829389, 48.77689806 ], [ 19.91820686, 48.77677649 ], [ 19.91817886, 48.77678395 ], [ 19.91815218, 48.77679616 ], [ 19.918082, 48.77676902 ], [ 19.91802069, 48.77678823 ], [ 19.91800267, 48.77677016 ], [ 19.91787246, 48.77663973 ], [ 19.91781809, 48.77665616 ], [ 19.91772524, 48.77668412 ], [ 19.9174616, 48.77677467 ], [ 19.91686139, 48.77759754 ], [ 19.91684371, 48.77758724 ], [ 19.91671763, 48.77776203 ], [ 19.91635694, 48.77803292 ], [ 19.91584224, 48.77832124 ], [ 19.91570094, 48.77843933 ], [ 19.91557706, 48.77874417 ], [ 19.91560259, 48.77874949 ], [ 19.91463376, 48.77940818 ], [ 19.91351159, 48.77898154 ], [ 19.91310781, 48.77884028 ], [ 19.91285517, 48.77889875 ], [ 19.91261771, 48.77898905 ], [ 19.91238174, 48.77903877 ], [ 19.9121014, 48.77901766 ], [ 19.91164212, 48.77912988 ], [ 19.91143618, 48.77916952 ], [ 19.91112896, 48.77911491 ], [ 19.91055753, 48.77928094 ], [ 19.91031793, 48.77930076 ], [ 19.90930842, 48.77932631 ], [ 19.9087587, 48.77949487 ], [ 19.90841895, 48.77957396 ], [ 19.90790291, 48.77965149 ], [ 19.90775455, 48.77970601 ], [ 19.907345, 48.77972905 ], [ 19.90681752, 48.77994622 ], [ 19.90666351, 48.78003357 ], [ 19.90628406, 48.78010583 ], [ 19.90609301, 48.78021503 ], [ 19.90579285, 48.78032166 ], [ 19.90558118, 48.78056678 ], [ 19.9054935, 48.78061712 ], [ 19.90504213, 48.78067027 ], [ 19.90463027, 48.78076718 ], [ 19.90447636, 48.78077793 ], [ 19.90434496, 48.78081235 ], [ 19.9039295, 48.78103978 ], [ 19.90338837, 48.78129043 ], [ 19.90331263, 48.78129666 ], [ 19.90326825, 48.78135461 ], [ 19.90296682, 48.78149498 ], [ 19.902568, 48.78171392 ], [ 19.90252902, 48.7817137 ], [ 19.90073291, 48.78194583 ], [ 19.90038623, 48.78199234 ], [ 19.89829436, 48.78232313 ], [ 19.8979172, 48.78238276 ], [ 19.89736787, 48.78246964 ], [ 19.89716939, 48.78250101 ], [ 19.89650035, 48.78311404 ], [ 19.89576173, 48.78343409 ], [ 19.89568212, 48.78346864 ], [ 19.89485135, 48.78382864 ], [ 19.89344811, 48.78368577 ], [ 19.89130075, 48.78358555 ], [ 19.89107552, 48.78309956 ], [ 19.88950677, 48.78188427 ], [ 19.88939475, 48.78177612 ], [ 19.88798406, 48.7804138 ], [ 19.8871132, 48.77961967 ], [ 19.88724761, 48.77866825 ], [ 19.88718151, 48.77853412 ], [ 19.88652489, 48.77720093 ], [ 19.88655756, 48.77705661 ], [ 19.8868416, 48.77580373 ], [ 19.88612214, 48.77341884 ], [ 19.88581384, 48.77206332 ], [ 19.88519199, 48.77336025 ], [ 19.88499648, 48.77396327 ], [ 19.88480046, 48.77426229 ], [ 19.88384768, 48.77501686 ], [ 19.88375556, 48.77514999 ], [ 19.88319485, 48.77545667 ], [ 19.88310497, 48.77559062 ], [ 19.88284913, 48.77607137 ], [ 19.8825323, 48.77646346 ], [ 19.88222782, 48.7766806 ], [ 19.88209923, 48.77685471 ], [ 19.88170435, 48.77725697 ], [ 19.88149436, 48.77740588 ], [ 19.88126556, 48.77765636 ], [ 19.88111504, 48.77804455 ], [ 19.88105036, 48.77831224 ], [ 19.88090916, 48.77865812 ], [ 19.88083597, 48.77906693 ], [ 19.88068329, 48.7793824 ], [ 19.88060687, 48.77949016 ], [ 19.88047169, 48.78004033 ], [ 19.88003228, 48.78061002 ], [ 19.87973315, 48.78112559 ], [ 19.87948654, 48.78144065 ], [ 19.87883215, 48.78196337 ], [ 19.87837823, 48.78211436 ], [ 19.87817701, 48.78228202 ], [ 19.87747267, 48.78260316 ], [ 19.87706353, 48.78288016 ], [ 19.87690981, 48.78304877 ], [ 19.8761932, 48.78340155 ], [ 19.87539443, 48.7833239 ], [ 19.87388356, 48.78309985 ], [ 19.87286595, 48.78283284 ], [ 19.87256011, 48.78291301 ], [ 19.87097945, 48.78236924 ], [ 19.86994073, 48.78214113 ], [ 19.86922731, 48.78190289 ], [ 19.86818039, 48.78165288 ], [ 19.86741272, 48.78140203 ], [ 19.86515704, 48.78190951 ], [ 19.86425367, 48.78240101 ], [ 19.86289323, 48.78315244 ], [ 19.86211824, 48.78335871 ], [ 19.86144304, 48.78367344 ], [ 19.8612013, 48.78385727 ], [ 19.86036203, 48.78398064 ], [ 19.85833751, 48.78441961 ], [ 19.8570573, 48.78415658 ], [ 19.85644282, 48.78407438 ], [ 19.85620754, 48.78418268 ], [ 19.85591385, 48.78413482 ], [ 19.85545817, 48.78419336 ], [ 19.85501376, 48.78411396 ], [ 19.85429878, 48.78423101 ], [ 19.85390455, 48.78435933 ], [ 19.85340323, 48.78487138 ], [ 19.85119473, 48.78742489 ], [ 19.84878707, 48.78876484 ], [ 19.8478312, 48.78931687 ], [ 19.84617734, 48.78977511 ], [ 19.84471554, 48.7907208 ], [ 19.84405104, 48.79095262 ], [ 19.84364752, 48.79196714 ], [ 19.84398027, 48.79347527 ], [ 19.84467994, 48.79481518 ], [ 19.84475633, 48.79571619 ], [ 19.84466059, 48.79626173 ], [ 19.84498835, 48.79688409 ], [ 19.84501523, 48.79695996 ], [ 19.84512571, 48.79757647 ], [ 19.8456716, 48.79849608 ], [ 19.84585381, 48.79908405 ], [ 19.84600524, 48.80013446 ], [ 19.84613786, 48.80124842 ], [ 19.84648803, 48.8022261 ], [ 19.84681196, 48.80288497 ], [ 19.84717308, 48.80360131 ], [ 19.84682694, 48.80399818 ], [ 19.84650621, 48.80435585 ], [ 19.84582268, 48.8050538 ], [ 19.84579061, 48.80509252 ], [ 19.84521817, 48.80578308 ], [ 19.84382246, 48.80746666 ], [ 19.84379194, 48.80750347 ], [ 19.84328521, 48.80866234 ], [ 19.84286847, 48.80960743 ], [ 19.84240381, 48.81108453 ], [ 19.84232182, 48.81134533 ], [ 19.84194758, 48.81158651 ], [ 19.83959293, 48.81310344 ], [ 19.83895107, 48.81351701 ], [ 19.83880315, 48.81361229 ], [ 19.83813957, 48.81418885 ], [ 19.83744657, 48.81479091 ], [ 19.83726846, 48.81494563 ], [ 19.83669487, 48.81558338 ], [ 19.83624005, 48.81597355 ], [ 19.83561254, 48.81651182 ], [ 19.83542911, 48.81666919 ], [ 19.8347276, 48.81743381 ], [ 19.83439318, 48.81821769 ], [ 19.83419604, 48.81891071 ], [ 19.83419204, 48.81892486 ], [ 19.8344599, 48.81939416 ], [ 19.83491271, 48.82018741 ], [ 19.83417444, 48.82132968 ], [ 19.83406902, 48.82149294 ], [ 19.83399925, 48.82160078 ], [ 19.83375375, 48.82176178 ], [ 19.83213705, 48.82282232 ], [ 19.83200174, 48.82291102 ], [ 19.83103016, 48.82423057 ], [ 19.83094499, 48.82434631 ], [ 19.83082655, 48.8245072 ], [ 19.83015553, 48.82520471 ], [ 19.8299508, 48.82548156 ], [ 19.82943871, 48.82617412 ], [ 19.82912367, 48.82650064 ], [ 19.82902601, 48.82660187 ], [ 19.82844324, 48.82720585 ], [ 19.82770137, 48.82781449 ], [ 19.82696098, 48.82858983 ], [ 19.82695947, 48.82862437 ], [ 19.82694224, 48.82901161 ], [ 19.82689673, 48.83003795 ], [ 19.82688628, 48.83027417 ], [ 19.82692137, 48.83052605 ], [ 19.8269813, 48.83095709 ], [ 19.82707284, 48.83161444 ], [ 19.8273584, 48.83228396 ], [ 19.82725913, 48.83327698 ], [ 19.82719235, 48.83394506 ], [ 19.8271597, 48.83401828 ], [ 19.82687846, 48.83464907 ], [ 19.82662549, 48.83521637 ], [ 19.82661638, 48.83523661 ], [ 19.82656633, 48.835349 ], [ 19.82642942, 48.83568745 ], [ 19.82642234, 48.83570517 ], [ 19.82622033, 48.83620455 ], [ 19.82590931, 48.83723862 ], [ 19.825902, 48.83726273 ], [ 19.82588816, 48.83730873 ], [ 19.82532438, 48.83871057 ], [ 19.8250469, 48.83956728 ], [ 19.8248399, 48.84009592 ], [ 19.82430909, 48.84145124 ], [ 19.82402034, 48.84591251 ], [ 19.82376957, 48.84643466 ], [ 19.8235854, 48.84681829 ], [ 19.82325487, 48.84753176 ], [ 19.82318554, 48.84761672 ], [ 19.82309691, 48.84767318 ], [ 19.82353714, 48.84785092 ], [ 19.82361007, 48.84792238 ], [ 19.82387144, 48.84816593 ], [ 19.82389191, 48.84820863 ], [ 19.82395223, 48.84835634 ], [ 19.8239372, 48.84838534 ], [ 19.82385375, 48.84839922 ], [ 19.82376544, 48.84841388 ], [ 19.82294956, 48.84871342 ], [ 19.82291456, 48.84874688 ], [ 19.8228859, 48.84877421 ], [ 19.82284378, 48.84878032 ], [ 19.82280554, 48.84878587 ], [ 19.82279792, 48.84878699 ], [ 19.82275996, 48.84879247 ], [ 19.82275029, 48.84879772 ], [ 19.82270841, 48.84882061 ], [ 19.82268604, 48.8488328 ], [ 19.82263319, 48.8488617 ], [ 19.82260576, 48.84887664 ], [ 19.82254035, 48.84891239 ], [ 19.82247131, 48.84892419 ], [ 19.82137768, 48.84911068 ], [ 19.82119046, 48.84904599 ], [ 19.82085671, 48.84948885 ], [ 19.82044936, 48.8500127 ], [ 19.81987344, 48.8506319 ], [ 19.8193132, 48.85107668 ], [ 19.81888916, 48.85129527 ], [ 19.8181623, 48.85170967 ], [ 19.81762731, 48.85212678 ], [ 19.81755373, 48.85218416 ], [ 19.81747659, 48.85224445 ], [ 19.81613819, 48.85332344 ], [ 19.81605367, 48.85339197 ], [ 19.81471378, 48.85447297 ], [ 19.81463854, 48.85452369 ], [ 19.81460825, 48.85454401 ], [ 19.81459003, 48.85455557 ], [ 19.81458493, 48.85455877 ], [ 19.81456584, 48.85457083 ], [ 19.81287392, 48.85564089 ], [ 19.81279816, 48.85568853 ], [ 19.81175855, 48.85635693 ], [ 19.81107159, 48.85694542 ], [ 19.8109528, 48.85706456 ], [ 19.81092191, 48.85709774 ], [ 19.81077416, 48.85724148 ], [ 19.81023886, 48.85777851 ], [ 19.80947131, 48.85869741 ], [ 19.80922013, 48.85894573 ], [ 19.80861492, 48.85946286 ], [ 19.80856153, 48.85951075 ], [ 19.80791471, 48.86001354 ], [ 19.80748341, 48.86030524 ], [ 19.80724252, 48.86045963 ], [ 19.80682495, 48.86077797 ], [ 19.80677892, 48.86085339 ], [ 19.80675841, 48.86088927 ], [ 19.80667109, 48.86110494 ], [ 19.80646784, 48.86161651 ], [ 19.80644718, 48.86167996 ], [ 19.806445, 48.86169221 ], [ 19.80643926, 48.86172378 ], [ 19.80643653, 48.8617388 ], [ 19.8063109, 48.86250095 ], [ 19.80622335, 48.8627943 ], [ 19.80622024, 48.86280498 ], [ 19.80599676, 48.86386922 ], [ 19.80566058, 48.86427102 ], [ 19.80547102, 48.86455165 ], [ 19.80537892, 48.86494682 ], [ 19.8053865, 48.86564408 ], [ 19.80557529, 48.86624187 ], [ 19.80562533, 48.86658147 ], [ 19.80563636, 48.86665594 ], [ 19.80564384, 48.86670691 ], [ 19.80565735, 48.86676743 ], [ 19.80580355, 48.86740609 ], [ 19.80583768, 48.86763396 ], [ 19.8058465, 48.86774835 ], [ 19.80584543, 48.86791404 ], [ 19.80572538, 48.86821959 ], [ 19.80551982, 48.8685016 ], [ 19.80545732, 48.86867914 ], [ 19.805398, 48.86906744 ], [ 19.80539379, 48.86921668 ], [ 19.80539186, 48.86928537 ], [ 19.80539157, 48.86929383 ], [ 19.80537347, 48.86938497 ], [ 19.80537278, 48.86940152 ], [ 19.8053715, 48.86943211 ], [ 19.80537101, 48.86944804 ], [ 19.80535485, 48.86998457 ], [ 19.80530439, 48.87067193 ], [ 19.8051901, 48.87092356 ], [ 19.80509645, 48.87143565 ], [ 19.80488139, 48.87188551 ], [ 19.804864, 48.87199966 ], [ 19.80482496, 48.87225437 ], [ 19.80474284, 48.87242989 ], [ 19.80435144, 48.87283948 ], [ 19.80423033, 48.87312524 ], [ 19.80426183, 48.8734151 ], [ 19.80438704, 48.87367774 ], [ 19.80445052, 48.8739661 ], [ 19.80436286, 48.87429865 ], [ 19.80415443, 48.87448851 ], [ 19.80392772, 48.87481106 ], [ 19.80359943, 48.87501222 ], [ 19.80344689, 48.8751608 ], [ 19.80342722, 48.8751759 ], [ 19.80349356, 48.87549719 ], [ 19.80334616, 48.87598486 ], [ 19.80319607, 48.87634868 ], [ 19.80308197, 48.87665168 ], [ 19.80297316, 48.87686326 ], [ 19.80245498, 48.87729132 ], [ 19.80211002, 48.87768823 ], [ 19.80153857, 48.87817345 ], [ 19.80132641, 48.87845662 ], [ 19.80086869, 48.87879203 ], [ 19.80070019, 48.87904842 ], [ 19.80043746, 48.8791604 ], [ 19.80021356, 48.87920909 ], [ 19.79990661, 48.87937674 ], [ 19.79970845, 48.87943447 ], [ 19.79948702, 48.87968856 ], [ 19.79943878, 48.87985978 ], [ 19.79926739, 48.88013407 ], [ 19.79928098, 48.88035394 ], [ 19.79902611, 48.88117167 ], [ 19.79901595, 48.88136932 ], [ 19.7990114, 48.88151486 ], [ 19.79904844, 48.88170654 ], [ 19.79902337, 48.88184406 ], [ 19.79885914, 48.88206982 ], [ 19.79853062, 48.88243552 ], [ 19.79848169, 48.88256156 ], [ 19.79845514, 48.88255653 ], [ 19.7984384, 48.8825969 ], [ 19.79827695, 48.88298771 ], [ 19.7981949, 48.88310329 ], [ 19.79813926, 48.88318163 ], [ 19.79796498, 48.88342713 ], [ 19.7974064, 48.8839932 ], [ 19.79685608, 48.88459694 ], [ 19.79645275, 48.88500941 ], [ 19.79612387, 48.8857821 ], [ 19.79595842, 48.8860772 ], [ 19.79587826, 48.88639682 ], [ 19.79568902, 48.88707112 ], [ 19.79551014, 48.88757589 ], [ 19.79495292, 48.88814408 ], [ 19.79447301, 48.88846211 ], [ 19.794275, 48.88858635 ], [ 19.79351533, 48.88913285 ], [ 19.79299852, 48.88947396 ], [ 19.79264362, 48.88971973 ], [ 19.792857, 48.89011609 ], [ 19.7928397, 48.89014553 ], [ 19.79201774, 48.89084983 ], [ 19.79196949, 48.89121905 ], [ 19.79162727, 48.89232786 ], [ 19.79159227, 48.89295965 ], [ 19.7915235, 48.89306788 ], [ 19.7913536, 48.89342749 ], [ 19.79078056, 48.89374947 ], [ 19.78975028, 48.89432853 ], [ 19.78973344, 48.89433699 ], [ 19.7895504, 48.89442881 ], [ 19.78924189, 48.8946517 ], [ 19.78921159, 48.8947004 ], [ 19.7891715, 48.89476508 ], [ 19.78897584, 48.89508004 ], [ 19.78848655, 48.89552498 ], [ 19.78778887, 48.89640103 ], [ 19.78707984, 48.89703911 ], [ 19.78676448, 48.89760743 ], [ 19.78666466, 48.89780451 ], [ 19.78634922, 48.89815093 ], [ 19.78495706, 48.89893385 ], [ 19.78425691, 48.89947704 ], [ 19.78422656, 48.89952069 ], [ 19.78390338, 48.89981585 ], [ 19.78344721, 48.90037145 ], [ 19.78275657, 48.90086294 ], [ 19.78248501, 48.90098784 ], [ 19.78211585, 48.9011577 ], [ 19.78139573, 48.90152434 ], [ 19.7809262, 48.90191262 ], [ 19.77963857, 48.9029778 ], [ 19.77951469, 48.90308038 ], [ 19.77915449, 48.90328054 ], [ 19.77831343, 48.90429522 ], [ 19.77760773, 48.90519909 ], [ 19.77700877, 48.90610174 ], [ 19.77723307, 48.90628086 ], [ 19.77755191, 48.9064349 ], [ 19.77773155, 48.90658765 ], [ 19.77890548, 48.90706041 ], [ 19.77927185, 48.9072668 ], [ 19.78047587, 48.90784215 ], [ 19.78123698, 48.90801841 ], [ 19.78180964, 48.90825388 ], [ 19.78199721, 48.90824176 ], [ 19.78253281, 48.90832447 ], [ 19.78299538, 48.90844158 ], [ 19.78335066, 48.90858701 ], [ 19.78373744, 48.90888882 ], [ 19.7839945, 48.90903068 ], [ 19.78424688, 48.90912774 ], [ 19.78453667, 48.90918171 ], [ 19.78500189, 48.90931344 ], [ 19.78532028, 48.90937668 ], [ 19.78573802, 48.90957024 ], [ 19.78598978, 48.90972413 ], [ 19.78644812, 48.91020334 ], [ 19.78680148, 48.9105976 ], [ 19.78716595, 48.91059533 ], [ 19.78768914, 48.91059204 ], [ 19.78838305, 48.91067123 ], [ 19.78871, 48.91077611 ], [ 19.78929109, 48.91087474 ], [ 19.79035823, 48.91133858 ], [ 19.79081202, 48.91144536 ], [ 19.79103266, 48.91158536 ], [ 19.79209476, 48.91203148 ], [ 19.79285983, 48.91230733 ], [ 19.7937193, 48.91244722 ], [ 19.79418939, 48.91252387 ], [ 19.79458152, 48.91253233 ], [ 19.79487118, 48.91252625 ], [ 19.79532053, 48.91265175 ], [ 19.79569469, 48.91284824 ], [ 19.79676117, 48.91229989 ], [ 19.79752614, 48.91236616 ], [ 19.79785853, 48.91239501 ], [ 19.79862359, 48.91252887 ], [ 19.79930739, 48.91295896 ], [ 19.79992648, 48.91349907 ], [ 19.80006043, 48.913616 ], [ 19.80254643, 48.91473977 ], [ 19.80287619, 48.9148842 ], [ 19.80328333, 48.91510688 ], [ 19.80403202, 48.91542178 ], [ 19.80419149, 48.91547087 ], [ 19.80435926, 48.91555321 ], [ 19.80600925, 48.91496147 ], [ 19.80734844, 48.91454074 ], [ 19.80873823, 48.91438723 ], [ 19.80918893, 48.91433365 ], [ 19.80941095, 48.91432857 ], [ 19.81000165, 48.91436018 ], [ 19.81055307, 48.91442649 ], [ 19.81178161, 48.91461773 ], [ 19.81250551, 48.91475494 ], [ 19.81288804, 48.91482286 ], [ 19.8136804, 48.91501692 ], [ 19.81437895, 48.91515889 ], [ 19.81526947, 48.91555104 ], [ 19.81615197, 48.91589895 ], [ 19.81680187, 48.91621805 ], [ 19.81721739, 48.91636551 ], [ 19.81790044, 48.91610961 ] ] ] ] } }
]
}
