{
"type": "FeatureCollection",
"name": "gis",
"crs": { "type": "name", "properties": { "name": "urn:ogc:def:crs:OGC:1.3:CRS84" } },
"features": [
{ "type": "Feature", "properties": { "@featureType": "CadastralParcel", "areaValue": { "value": 2317, "@uom": "m2" }, "beginLifespanVersion": { "@nilReason": "http://inspire.ec.europa.eu/codelist/VoidReasonValue/Unpopulated", "@nil": "true" }, "endLifespanVersion": { "@nilReason": "http://inspire.ec.europa.eu/codelist/VoidReasonValue/Unpopulated", "@nil": "true" }, "inspireId": { "@dataType": "Identifier", "localId": "800759_1381/2.C", "namespace": "SK.ESKN.CP", "versionId": "20260703T05:07:44" }, "label": "1381/2", "nationalCadastralReference": "800759_1381/2.C", "referencePoint": { "type": "Point", "coordinates": [ 18.72449642, 49.2025621 ] }, "validFrom": "2026-06-30T16:00:00Z", "validTo": { "@nilReason": "http://inspire.ec.europa.eu/codelist/VoidReasonValue/Unpopulated", "@nil": "true" }, "administrativeUnit": { "@href": "#auAdmUnitS.2962" } }, "geometry": { "type": "Polygon", "coordinates": [ [ [ 18.72334218, 49.20361112 ], [ 18.72357155, 49.20351065 ], [ 18.72367297, 49.20347609 ], [ 18.72379528, 49.20342152 ], [ 18.72394119, 49.20334275 ], [ 18.72399967, 49.20330468 ], [ 18.72408905, 49.20322547 ], [ 18.72426824, 49.20301167 ], [ 18.72437445, 49.20288815 ], [ 18.72441882, 49.20282922 ], [ 18.72446432, 49.20276882 ], [ 18.72451494, 49.20265636 ], [ 18.72453891, 49.20252997 ], [ 18.72454404, 49.20247214 ], [ 18.72453635, 49.20230386 ], [ 18.72451761, 49.20217883 ], [ 18.72449465, 49.20211764 ], [ 18.72447535, 49.20206602 ], [ 18.72448556, 49.20199249 ], [ 18.72448504, 49.20193924 ], [ 18.72449521, 49.2018649 ], [ 18.72457263, 49.20174609 ], [ 18.72462, 49.20164897 ], [ 18.7246344, 49.20160318 ], [ 18.72456843, 49.20154812 ], [ 18.72454307, 49.20152695 ], [ 18.72451583, 49.20151659 ], [ 18.72451786, 49.20154845 ], [ 18.72449966, 49.20164348 ], [ 18.72447433, 49.20169989 ], [ 18.72442857, 49.20180177 ], [ 18.72441449, 49.20185399 ], [ 18.72438916, 49.20194765 ], [ 18.72440822, 49.2019482 ], [ 18.7243975, 49.20199771 ], [ 18.72434846, 49.20203519 ], [ 18.72433488, 49.20204152 ], [ 18.72428673, 49.2020638 ], [ 18.7243602, 49.20210139 ], [ 18.72440057, 49.20222186 ], [ 18.72440451, 49.2022347 ], [ 18.72441155, 49.20225708 ], [ 18.72441245, 49.20225983 ], [ 18.72443124, 49.20232027 ], [ 18.72443557, 49.20233439 ], [ 18.72443973, 49.20234769 ], [ 18.72444164, 49.20235347 ], [ 18.72447514, 49.2024614 ], [ 18.72446927, 49.20250043 ], [ 18.72445521, 49.20259423 ], [ 18.72443351, 49.20268511 ], [ 18.7244247, 49.20272236 ], [ 18.72435148, 49.20280224 ], [ 18.72429053, 49.20285046 ], [ 18.72429037, 49.20285063 ], [ 18.72420702, 49.20291654 ], [ 18.72419735, 49.20292361 ], [ 18.72416525, 49.20294971 ], [ 18.7241159, 49.20298971 ], [ 18.7241081, 49.20299606 ], [ 18.72409004, 49.2030109 ], [ 18.72403498, 49.20305601 ], [ 18.72387914, 49.20319353 ], [ 18.72381592, 49.20324904 ], [ 18.72379324, 49.20326562 ], [ 18.72378055, 49.20327488 ], [ 18.72373009, 49.20331156 ], [ 18.72372239, 49.20331711 ], [ 18.72364306, 49.20337484 ], [ 18.72362689, 49.20338329 ], [ 18.72361528, 49.20338926 ], [ 18.72347797, 49.20346073 ], [ 18.72336544, 49.20342957 ], [ 18.72334337, 49.20342093 ], [ 18.72334633, 49.20346546 ], [ 18.72335108, 49.20353933 ], [ 18.723352, 49.20355318 ], [ 18.72334218, 49.20361112 ] ], [ [ 18.72338434, 49.20346195 ], [ 18.72339624, 49.20344571 ], [ 18.72341056, 49.20345016 ], [ 18.72342645, 49.20345532 ], [ 18.72341457, 49.20347148 ], [ 18.72338434, 49.20346195 ] ] ] } },
{ "type": "Feature", "properties": { "@featureType": "CadastralParcel", "areaValue": { "value": 4134, "@uom": "m2" }, "beginLifespanVersion": { "@nilReason": "http://inspire.ec.europa.eu/codelist/VoidReasonValue/Unpopulated", "@nil": "true" }, "endLifespanVersion": { "@nilReason": "http://inspire.ec.europa.eu/codelist/VoidReasonValue/Unpopulated", "@nil": "true" }, "inspireId": { "@dataType": "Identifier", "localId": "800759_1378/4.C", "namespace": "SK.ESKN.CP", "versionId": "20260703T05:07:44" }, "label": "1378/4", "nationalCadastralReference": "800759_1378/4.C", "referencePoint": { "type": "Point", "coordinates": [ 18.72363675, 49.20445611 ] }, "validFrom": "2026-06-30T16:00:00Z", "validTo": { "@nilReason": "http://inspire.ec.europa.eu/codelist/VoidReasonValue/Unpopulated", "@nil": "true" }, "administrativeUnit": { "@href": "#auAdmUnitS.2962" } }, "geometry": { "type": "Polygon", "coordinates": [ [ [ 18.72186443, 49.20245281 ], [ 18.72190397, 49.20244018 ], [ 18.72210664, 49.2025099 ], [ 18.72215249, 49.20252565 ], [ 18.72224478, 49.20255683 ], [ 18.72231658, 49.20258099 ], [ 18.7223829, 49.20260386 ], [ 18.722494, 49.20264225 ], [ 18.72254855, 49.20266117 ], [ 18.72266557, 49.20270177 ], [ 18.72274241, 49.20272862 ], [ 18.72288799, 49.20278569 ], [ 18.72300707, 49.20283875 ], [ 18.72307672, 49.20287488 ], [ 18.72313937, 49.20291542 ], [ 18.72314957, 49.2029266 ], [ 18.72316183, 49.20294005 ], [ 18.72318248, 49.2029728 ], [ 18.72321856, 49.20305841 ], [ 18.72325804, 49.20339471 ], [ 18.72330775, 49.20365965 ], [ 18.72333213, 49.20371713 ], [ 18.72334058, 49.20373697 ], [ 18.72357369, 49.2044191 ], [ 18.72365395, 49.20461988 ], [ 18.72363411, 49.20462452 ], [ 18.7236422, 49.20464173 ], [ 18.72369586, 49.20475586 ], [ 18.72374522, 49.20487148 ], [ 18.72375824, 49.20490807 ], [ 18.72379203, 49.20500348 ], [ 18.72379747, 49.20506376 ], [ 18.72380212, 49.20511587 ], [ 18.72380637, 49.20515552 ], [ 18.72381164, 49.2052037 ], [ 18.72383299, 49.20536043 ], [ 18.72383639, 49.2053856 ], [ 18.72386629, 49.20547106 ], [ 18.72388846, 49.2055342 ], [ 18.72392496, 49.20570102 ], [ 18.72396676, 49.20589094 ], [ 18.72398888, 49.20603905 ], [ 18.72403802, 49.20651406 ], [ 18.72408611, 49.20651595 ], [ 18.72415912, 49.20655514 ], [ 18.72411021, 49.20632191 ], [ 18.72410829, 49.20630719 ], [ 18.72408041, 49.20610131 ], [ 18.72406571, 49.20599283 ], [ 18.72402445, 49.20568792 ], [ 18.72401256, 49.20569397 ], [ 18.72401022, 49.20566688 ], [ 18.72398355, 49.20557184 ], [ 18.72400282, 49.20552675 ], [ 18.72398573, 49.2054333 ], [ 18.7239836, 49.20542137 ], [ 18.7239741, 49.20536954 ], [ 18.7239575, 49.20527765 ], [ 18.72395565, 49.2052669 ], [ 18.72394215, 49.20519141 ], [ 18.72393029, 49.20509679 ], [ 18.72392002, 49.20506026 ], [ 18.72391219, 49.20501384 ], [ 18.723878, 49.20492066 ], [ 18.72387292, 49.20490695 ], [ 18.72386052, 49.2048732 ], [ 18.72384795, 49.20483862 ], [ 18.72384773, 49.20483816 ], [ 18.723807, 49.2047477 ], [ 18.72379133, 49.20471026 ], [ 18.72373072, 49.20458421 ], [ 18.72373017, 49.2045831 ], [ 18.72372473, 49.20457127 ], [ 18.72368959, 49.20446216 ], [ 18.72368047, 49.20445005 ], [ 18.72367043, 49.20441948 ], [ 18.72362754, 49.20432982 ], [ 18.72361288, 49.20428981 ], [ 18.72360806, 49.20427963 ], [ 18.72360016, 49.20425414 ], [ 18.72359023, 49.20422159 ], [ 18.72357653, 49.20417703 ], [ 18.72355726, 49.20411838 ], [ 18.72353928, 49.20406376 ], [ 18.7235345, 49.20404989 ], [ 18.72352407, 49.20402029 ], [ 18.72352234, 49.20401533 ], [ 18.72348272, 49.20390229 ], [ 18.72346872, 49.20385573 ], [ 18.72343381, 49.20379653 ], [ 18.72339592, 49.20369531 ], [ 18.72337564, 49.20364373 ], [ 18.72337059, 49.20363886 ], [ 18.72334218, 49.20361112 ], [ 18.723352, 49.20355318 ], [ 18.72335108, 49.20353933 ], [ 18.72334633, 49.20346546 ], [ 18.72334337, 49.20342093 ], [ 18.72336544, 49.20342957 ], [ 18.72336053, 49.20318565 ], [ 18.72336533, 49.2031113 ], [ 18.7233556, 49.20294516 ], [ 18.7232836, 49.20289105 ], [ 18.72322873, 49.20284992 ], [ 18.72320726, 49.20283183 ], [ 18.72310427, 49.20277213 ], [ 18.7230397, 49.20273942 ], [ 18.72295585, 49.20270454 ], [ 18.72292284, 49.20269081 ], [ 18.72275535, 49.20262826 ], [ 18.72268046, 49.20260349 ], [ 18.7225166, 49.20254844 ], [ 18.72244691, 49.20252503 ], [ 18.72242745, 49.2025186 ], [ 18.72215388, 49.20242749 ], [ 18.72204453, 49.20238828 ], [ 18.72201044, 49.20237206 ], [ 18.72198031, 49.20235388 ], [ 18.72197324, 49.20235992 ], [ 18.72195941, 49.20237173 ], [ 18.72194973, 49.20237997 ], [ 18.72186443, 49.20245281 ] ] ] } },
{ "type": "Feature", "properties": { "@featureType": "CadastralParcel", "areaValue": { "value": 1090, "@uom": "m2" }, "beginLifespanVersion": { "@nilReason": "http://inspire.ec.europa.eu/codelist/VoidReasonValue/Unpopulated", "@nil": "true" }, "endLifespanVersion": { "@nilReason": "http://inspire.ec.europa.eu/codelist/VoidReasonValue/Unpopulated", "@nil": "true" }, "inspireId": { "@dataType": "Identifier", "localId": "800759_1382.C", "namespace": "SK.ESKN.CP", "versionId": "20260703T05:07:44" }, "label": "1382", "nationalCadastralReference": "800759_1382.C", "referencePoint": { "type": "Point", "coordinates": [ 18.72230903, 49.20356454 ] }, "validFrom": "2026-06-30T16:00:00Z", "validTo": { "@nilReason": "http://inspire.ec.europa.eu/codelist/VoidReasonValue/Unpopulated", "@nil": "true" }, "administrativeUnit": { "@href": "#auAdmUnitS.2962" } }, "geometry": { "type": "Polygon", "coordinates": [ [ [ 18.72240668, 49.20362242 ], [ 18.72256413, 49.20364313 ], [ 18.72271968, 49.20366355 ], [ 18.72285215, 49.20368141 ], [ 18.72305235, 49.20370833 ], [ 18.72305715, 49.20368702 ], [ 18.72306902, 49.20363487 ], [ 18.72307168, 49.20362328 ], [ 18.72287167, 49.20360044 ], [ 18.72276146, 49.20358076 ], [ 18.72263485, 49.20356339 ], [ 18.72262145, 49.20356152 ], [ 18.72246331, 49.20353969 ], [ 18.72230769, 49.20351872 ], [ 18.72216669, 49.20349969 ], [ 18.72201674, 49.20347956 ], [ 18.72195525, 49.20347128 ], [ 18.72187208, 49.20346016 ], [ 18.7217745, 49.20344746 ], [ 18.72157598, 49.20342154 ], [ 18.72158204, 49.20344405 ], [ 18.7215711, 49.203493 ], [ 18.72155075, 49.2035097 ], [ 18.72161571, 49.20351672 ], [ 18.72168477, 49.20352611 ], [ 18.72175195, 49.20353523 ], [ 18.72182089, 49.20354453 ], [ 18.72187605, 49.20355166 ], [ 18.72198365, 49.20356569 ], [ 18.72211064, 49.20358218 ], [ 18.72224416, 49.20360037 ], [ 18.72228872, 49.20360641 ], [ 18.72240668, 49.20362242 ] ] ] } },
{ "type": "Feature", "properties": { "@featureType": "CadastralParcel", "areaValue": { "value": 1985, "@uom": "m2" }, "beginLifespanVersion": { "@nilReason": "http://inspire.ec.europa.eu/codelist/VoidReasonValue/Unpopulated", "@nil": "true" }, "endLifespanVersion": { "@nilReason": "http://inspire.ec.europa.eu/codelist/VoidReasonValue/Unpopulated", "@nil": "true" }, "inspireId": { "@dataType": "Identifier", "localId": "800759_1355/2.C", "namespace": "SK.ESKN.CP", "versionId": "20260703T05:07:44" }, "label": "1355/2", "nationalCadastralReference": "800759_1355/2.C", "referencePoint": { "type": "Point", "coordinates": [ 18.7197987, 49.20055735 ] }, "validFrom": "2026-06-30T16:00:00Z", "validTo": { "@nilReason": "http://inspire.ec.europa.eu/codelist/VoidReasonValue/Unpopulated", "@nil": "true" }, "administrativeUnit": { "@href": "#auAdmUnitS.2962" } }, "geometry": { "type": "Polygon", "coordinates": [ [ [ 18.71951963, 49.20191386 ], [ 18.71954833, 49.20191672 ], [ 18.71967399, 49.20192945 ], [ 18.71966133, 49.20191363 ], [ 18.71958198, 49.20181483 ], [ 18.71949518, 49.20165196 ], [ 18.71948735, 49.2016372 ], [ 18.71949555, 49.2015937 ], [ 18.71954685, 49.20132359 ], [ 18.71954882, 49.20131314 ], [ 18.71955992, 49.20126059 ], [ 18.71956894, 49.2012183 ], [ 18.71958473, 49.20115661 ], [ 18.71961177, 49.20105925 ], [ 18.71963539, 49.2010124 ], [ 18.7196903, 49.20086941 ], [ 18.71976055, 49.20068988 ], [ 18.71980188, 49.2006141 ], [ 18.71980546, 49.20060852 ], [ 18.71982476, 49.20061052 ], [ 18.71988279, 49.20044306 ], [ 18.71992414, 49.20033445 ], [ 18.7199472, 49.20030688 ], [ 18.71997155, 49.20027767 ], [ 18.72002784, 49.20017977 ], [ 18.72003884, 49.20016068 ], [ 18.72006695, 49.20012102 ], [ 18.72011838, 49.20004261 ], [ 18.72013908, 49.20001285 ], [ 18.72020017, 49.19993197 ], [ 18.72024504, 49.19987343 ], [ 18.7203269, 49.19978147 ], [ 18.7203596, 49.19974476 ], [ 18.72047431, 49.19961482 ], [ 18.72048952, 49.19962103 ], [ 18.72052836, 49.19955217 ], [ 18.72057627, 49.19948224 ], [ 18.72056985, 49.19948064 ], [ 18.72070194, 49.19931328 ], [ 18.72070506, 49.19931362 ], [ 18.72087278, 49.19920731 ], [ 18.72086332, 49.19920131 ], [ 18.72080887, 49.19916697 ], [ 18.72079278, 49.19915674 ], [ 18.72074173, 49.19915316 ], [ 18.72073883, 49.19915545 ], [ 18.72069928, 49.19919415 ], [ 18.7206008, 49.19929038 ], [ 18.72060046, 49.19934611 ], [ 18.72056339, 49.19938025 ], [ 18.72055264, 49.19939277 ], [ 18.72051479, 49.1994367 ], [ 18.72050646, 49.19943609 ], [ 18.72045009, 49.1994896 ], [ 18.72042828, 49.19951606 ], [ 18.72040633, 49.19954252 ], [ 18.72030987, 49.19965933 ], [ 18.72021809, 49.19978641 ], [ 18.72018876, 49.19982817 ], [ 18.72018859, 49.19982843 ], [ 18.72012592, 49.1999177 ], [ 18.72009526, 49.19996138 ], [ 18.72009509, 49.19996164 ], [ 18.72003326, 49.20004969 ], [ 18.72001593, 49.20007441 ], [ 18.71995367, 49.20018968 ], [ 18.71988234, 49.20029121 ], [ 18.71978463, 49.20047806 ], [ 18.71977211, 49.20050618 ], [ 18.71968962, 49.200742 ], [ 18.71963847, 49.20087562 ], [ 18.71957819, 49.20104567 ], [ 18.7195221, 49.20112617 ], [ 18.71948952, 49.20117309 ], [ 18.7194841, 49.20119942 ], [ 18.71945428, 49.20134327 ], [ 18.71944378, 49.20134922 ], [ 18.71945674, 49.20135017 ], [ 18.71940739, 49.20155696 ], [ 18.71940578, 49.20156897 ], [ 18.71940437, 49.20157945 ], [ 18.71940336, 49.20158769 ], [ 18.71940351, 49.20159095 ], [ 18.71940463, 49.20161789 ], [ 18.71940524, 49.20163091 ], [ 18.71941826, 49.20168094 ], [ 18.71945891, 49.20178321 ], [ 18.71951963, 49.20191386 ] ] ] } },
{ "type": "Feature", "properties": { "@featureType": "CadastralParcel", "areaValue": { "value": 4328, "@uom": "m2" }, "beginLifespanVersion": { "@nilReason": "http://inspire.ec.europa.eu/codelist/VoidReasonValue/Unpopulated", "@nil": "true" }, "endLifespanVersion": { "@nilReason": "http://inspire.ec.europa.eu/codelist/VoidReasonValue/Unpopulated", "@nil": "true" }, "inspireId": { "@dataType": "Identifier", "localId": "800759_1394/7.C", "namespace": "SK.ESKN.CP", "versionId": "20260703T05:07:44" }, "label": "1394/7", "nationalCadastralReference": "800759_1394/7.C", "referencePoint": { "type": "Point", "coordinates": [ 18.72167431, 49.20144151 ] }, "validFrom": "2026-06-30T16:00:00Z", "validTo": { "@nilReason": "http://inspire.ec.europa.eu/codelist/VoidReasonValue/Unpopulated", "@nil": "true" }, "administrativeUnit": { "@href": "#auAdmUnitS.2962" } }, "geometry": { "type": "Polygon", "coordinates": [ [ [ 18.72123966, 49.2041034 ], [ 18.72135002, 49.2041118 ], [ 18.72135061, 49.20410922 ], [ 18.72136127, 49.20406251 ], [ 18.72153015, 49.20348787 ], [ 18.72154504, 49.20343696 ], [ 18.7215514, 49.20341538 ], [ 18.72172981, 49.20281337 ], [ 18.72182024, 49.20245618 ], [ 18.72182127, 49.20227635 ], [ 18.72179713, 49.20215384 ], [ 18.72176266, 49.20205506 ], [ 18.72172225, 49.20193611 ], [ 18.72169841, 49.20179873 ], [ 18.72169412, 49.20169864 ], [ 18.72170979, 49.20153979 ], [ 18.72174424, 49.20132644 ], [ 18.72177432, 49.20116356 ], [ 18.72181529, 49.20097906 ], [ 18.72185649, 49.20078483 ], [ 18.72189339, 49.20061798 ], [ 18.72191468, 49.20049433 ], [ 18.72193229, 49.20034109 ], [ 18.7219499, 49.20021598 ], [ 18.72194867, 49.20014149 ], [ 18.72194531, 49.20007321 ], [ 18.72193487, 49.19999066 ], [ 18.72178934, 49.19972475 ], [ 18.72145623, 49.19937269 ], [ 18.72144535, 49.19936039 ], [ 18.72133675, 49.1992385 ], [ 18.72130252, 49.1991704 ], [ 18.72126362, 49.19908202 ], [ 18.72125103, 49.19897095 ], [ 18.72118722, 49.19892186 ], [ 18.72118854, 49.19909261 ], [ 18.72118877, 49.19917869 ], [ 18.72124103, 49.19924782 ], [ 18.72126085, 49.19927151 ], [ 18.72136681, 49.19939813 ], [ 18.72162656, 49.19966326 ], [ 18.72173104, 49.19978168 ], [ 18.7217583, 49.19982903 ], [ 18.7218525, 49.1999922 ], [ 18.72185653, 49.20004492 ], [ 18.72185856, 49.2000711 ], [ 18.72185792, 49.20008541 ], [ 18.72185532, 49.20013822 ], [ 18.72185349, 49.2001577 ], [ 18.72184999, 49.20019433 ], [ 18.72184771, 49.20021748 ], [ 18.72183331, 49.20032976 ], [ 18.72182927, 49.20036058 ], [ 18.72181346, 49.20048109 ], [ 18.72179127, 49.2006064 ], [ 18.72178355, 49.20064037 ], [ 18.72175247, 49.20077766 ], [ 18.72171101, 49.20096719 ], [ 18.72167232, 49.20115442 ], [ 18.72165155, 49.20127151 ], [ 18.72165036, 49.20127795 ], [ 18.72164122, 49.20133809 ], [ 18.72163847, 49.20135382 ], [ 18.72160742, 49.20152919 ], [ 18.72159589, 49.20169133 ], [ 18.72160299, 49.20180113 ], [ 18.72161217, 49.20184888 ], [ 18.72163112, 49.2019473 ], [ 18.72171099, 49.20215916 ], [ 18.72175067, 49.20228068 ], [ 18.72172648, 49.20244829 ], [ 18.72161912, 49.20280323 ], [ 18.72144304, 49.20339968 ], [ 18.72125123, 49.20405493 ], [ 18.72123966, 49.2041034 ] ] ] } },
{ "type": "Feature", "properties": { "@featureType": "CadastralParcel", "areaValue": { "value": 418, "@uom": "m2" }, "beginLifespanVersion": { "@nilReason": "http://inspire.ec.europa.eu/codelist/VoidReasonValue/Unpopulated", "@nil": "true" }, "endLifespanVersion": { "@nilReason": "http://inspire.ec.europa.eu/codelist/VoidReasonValue/Unpopulated", "@nil": "true" }, "inspireId": { "@dataType": "Identifier", "localId": "800759_109/1.C", "namespace": "SK.ESKN.CP", "versionId": "20260703T05:07:44" }, "label": "109/1", "nationalCadastralReference": "800759_109/1.C", "referencePoint": { "type": "Point", "coordinates": [ 18.72177672, 49.19967433 ] }, "validFrom": "2026-06-30T16:00:00Z", "validTo": { "@nilReason": "http://inspire.ec.europa.eu/codelist/VoidReasonValue/Unpopulated", "@nil": "true" }, "administrativeUnit": { "@href": "#auAdmUnitS.2962" } }, "geometry": { "type": "Polygon", "coordinates": [ [ [ 18.72152467, 49.19933757 ], [ 18.72144535, 49.19936039 ], [ 18.72145623, 49.19937269 ], [ 18.72178934, 49.19972475 ], [ 18.72193487, 49.19999066 ], [ 18.7220212, 49.19985978 ], [ 18.72192246, 49.1998048 ], [ 18.72176903, 49.19962391 ], [ 18.72161575, 49.19946432 ], [ 18.72152467, 49.19933757 ] ] ] } },
{ "type": "Feature", "properties": { "@featureType": "CadastralParcel", "areaValue": { "value": 2145, "@uom": "m2" }, "beginLifespanVersion": { "@nilReason": "http://inspire.ec.europa.eu/codelist/VoidReasonValue/Unpopulated", "@nil": "true" }, "endLifespanVersion": { "@nilReason": "http://inspire.ec.europa.eu/codelist/VoidReasonValue/Unpopulated", "@nil": "true" }, "inspireId": { "@dataType": "Identifier", "localId": "800759_108.C", "namespace": "SK.ESKN.CP", "versionId": "20260703T05:07:44" }, "label": "108", "nationalCadastralReference": "800759_108.C", "referencePoint": { "type": "Point", "coordinates": [ 18.72128087, 49.19945944 ] }, "validFrom": "2026-06-30T16:00:00Z", "validTo": { "@nilReason": "http://inspire.ec.europa.eu/codelist/VoidReasonValue/Unpopulated", "@nil": "true" }, "administrativeUnit": { "@href": "#auAdmUnitS.2962" } }, "geometry": { "type": "Polygon", "coordinates": [ [ [ 18.72102175, 49.19932437 ], [ 18.72111733, 49.19939957 ], [ 18.7210923, 49.1994264 ], [ 18.72117743, 49.19949248 ], [ 18.72124066, 49.19954171 ], [ 18.72124851, 49.1995451 ], [ 18.72131182, 49.19959822 ], [ 18.72134866, 49.19962794 ], [ 18.72146024, 49.19970515 ], [ 18.72151687, 49.19974312 ], [ 18.72153798, 49.19975731 ], [ 18.72164853, 49.19982833 ], [ 18.72164374, 49.1998315 ], [ 18.72165071, 49.19983755 ], [ 18.72166622, 49.19984576 ], [ 18.7217261, 49.19986947 ], [ 18.72177841, 49.19990108 ], [ 18.7218525, 49.1999922 ], [ 18.7217583, 49.19982903 ], [ 18.72173104, 49.19978168 ], [ 18.72162656, 49.19966326 ], [ 18.72136681, 49.19939813 ], [ 18.72126085, 49.19927151 ], [ 18.72124103, 49.19924782 ], [ 18.72118877, 49.19917869 ], [ 18.72118854, 49.19909261 ], [ 18.72118722, 49.19892186 ], [ 18.72117829, 49.19891499 ], [ 18.72110566, 49.19895177 ], [ 18.72094855, 49.19897231 ], [ 18.72086257, 49.19897863 ], [ 18.72081414, 49.19896716 ], [ 18.72079499, 49.198974 ], [ 18.72075446, 49.19898126 ], [ 18.72067948, 49.1989471 ], [ 18.72069168, 49.19896326 ], [ 18.72074023, 49.19902787 ], [ 18.72075244, 49.19904403 ], [ 18.72077758, 49.1990771 ], [ 18.72080263, 49.1991099 ], [ 18.72081485, 49.19912588 ], [ 18.72079278, 49.19915674 ], [ 18.72080887, 49.19916697 ], [ 18.72086332, 49.19920131 ], [ 18.72087278, 49.19920731 ], [ 18.72092301, 49.19924684 ], [ 18.72092427, 49.19924781 ], [ 18.72098293, 49.19929392 ], [ 18.72102175, 49.19932437 ] ] ] } },
{ "type": "Feature", "properties": { "@featureType": "CadastralParcel", "areaValue": { "value": 4029, "@uom": "m2" }, "beginLifespanVersion": { "@nilReason": "http://inspire.ec.europa.eu/codelist/VoidReasonValue/Unpopulated", "@nil": "true" }, "endLifespanVersion": { "@nilReason": "http://inspire.ec.europa.eu/codelist/VoidReasonValue/Unpopulated", "@nil": "true" }, "inspireId": { "@dataType": "Identifier", "localId": "800759_906/1.C", "namespace": "SK.ESKN.CP", "versionId": "20260703T05:07:44" }, "label": "906/1", "nationalCadastralReference": "800759_906/1.C", "referencePoint": { "type": "Point", "coordinates": [ 18.72348072, 49.2036783 ] }, "validFrom": "2026-06-30T16:00:00Z", "validTo": { "@nilReason": "http://inspire.ec.europa.eu/codelist/VoidReasonValue/Unpopulated", "@nil": "true" }, "administrativeUnit": { "@href": "#auAdmUnitS.2962" } }, "geometry": { "type": "Polygon", "coordinates": [ [ [ 18.72463801, 49.20255384 ], [ 18.72463382, 49.2025261 ], [ 18.72461515, 49.20240045 ], [ 18.72460806, 49.20234686 ], [ 18.72459474, 49.20225523 ], [ 18.7245831, 49.2021746 ], [ 18.72457466, 49.20211633 ], [ 18.72457213, 49.20202761 ], [ 18.72456704, 49.20185504 ], [ 18.72457595, 49.20179218 ], [ 18.72469394, 49.20180116 ], [ 18.72471303, 49.20183987 ], [ 18.72482026, 49.20182871 ], [ 18.72494452, 49.20201528 ], [ 18.72497895, 49.20206706 ], [ 18.72500354, 49.20210814 ], [ 18.72500463, 49.20211045 ], [ 18.72504456, 49.202195 ], [ 18.725126, 49.20236922 ], [ 18.72519753, 49.20251749 ], [ 18.72521089, 49.20254453 ], [ 18.72522644, 49.2025762 ], [ 18.72524167, 49.20261155 ], [ 18.72526032, 49.20265168 ], [ 18.72532792, 49.20278702 ], [ 18.72539119, 49.20291835 ], [ 18.72540753, 49.20292092 ], [ 18.72542171, 49.20296045 ], [ 18.72545824, 49.2030616 ], [ 18.72549971, 49.20318998 ], [ 18.72551128, 49.20323055 ], [ 18.7255218, 49.20326727 ], [ 18.72554853, 49.20337088 ], [ 18.72555252, 49.20337542 ], [ 18.72554696, 49.20339732 ], [ 18.72552478, 49.2034843 ], [ 18.72549679, 49.2035918 ], [ 18.7254666, 49.20371056 ], [ 18.72546101, 49.20373273 ], [ 18.72540799, 49.20381972 ], [ 18.72539008, 49.20384801 ], [ 18.72533311, 49.20393803 ], [ 18.72532693, 49.20394691 ], [ 18.72531105, 49.20397214 ], [ 18.72525867, 49.20405501 ], [ 18.7251958, 49.20415392 ], [ 18.72512228, 49.20427122 ], [ 18.72508782, 49.20432688 ], [ 18.72503001, 49.20442038 ], [ 18.725013, 49.20444691 ], [ 18.72498699, 49.2044875 ], [ 18.7248948, 49.20463142 ], [ 18.72487422, 49.20466354 ], [ 18.72484479, 49.20470954 ], [ 18.72479241, 49.20479124 ], [ 18.72478088, 49.20481012 ], [ 18.72470181, 49.20493461 ], [ 18.7245689, 49.2051437 ], [ 18.72445158, 49.20532998 ], [ 18.72439791, 49.20544146 ], [ 18.72437227, 49.20549469 ], [ 18.72436225, 49.20550238 ], [ 18.72428726, 49.20554599 ], [ 18.72423757, 49.20555484 ], [ 18.72400282, 49.20552675 ], [ 18.72398355, 49.20557184 ], [ 18.72402714, 49.2056038 ], [ 18.72407479, 49.20560035 ], [ 18.72419891, 49.20557835 ], [ 18.72426227, 49.20556344 ], [ 18.72437874, 49.20550144 ], [ 18.72446965, 49.20541762 ], [ 18.72454166, 49.20531386 ], [ 18.72469099, 49.20506945 ], [ 18.7248792, 49.20475248 ], [ 18.72513645, 49.20435144 ], [ 18.72523196, 49.20420282 ], [ 18.7255431, 49.20369067 ], [ 18.72558396, 49.2036063 ], [ 18.72561194, 49.20350339 ], [ 18.72561629, 49.20342143 ], [ 18.72559807, 49.20320632 ], [ 18.72554215, 49.20296397 ], [ 18.72546195, 49.20279314 ], [ 18.72534616, 49.20260936 ], [ 18.72517715, 49.20234267 ], [ 18.72503866, 49.20211142 ], [ 18.7249342, 49.20193743 ], [ 18.72482378, 49.2018021 ], [ 18.7247562, 49.20178277 ], [ 18.72464847, 49.20176765 ], [ 18.72458827, 49.20177244 ], [ 18.72455653, 49.20179224 ], [ 18.72453202, 49.2018588 ], [ 18.72451302, 49.20200214 ], [ 18.72451254, 49.20205904 ], [ 18.72451761, 49.20217883 ], [ 18.72453635, 49.20230386 ], [ 18.72454404, 49.20247214 ], [ 18.72453891, 49.20252997 ], [ 18.72451494, 49.20265636 ], [ 18.72446432, 49.20276882 ], [ 18.72441882, 49.20282922 ], [ 18.72437445, 49.20288815 ], [ 18.72426824, 49.20301167 ], [ 18.72408905, 49.20322547 ], [ 18.72399967, 49.20330468 ], [ 18.72394119, 49.20334275 ], [ 18.72379528, 49.20342152 ], [ 18.72367297, 49.20347609 ], [ 18.72357155, 49.20351065 ], [ 18.72334218, 49.20361112 ], [ 18.72337059, 49.20363886 ], [ 18.72337564, 49.20364373 ], [ 18.72339592, 49.20369531 ], [ 18.72343381, 49.20379653 ], [ 18.72346872, 49.20385573 ], [ 18.72347848, 49.20377577 ], [ 18.7235026, 49.2037507 ], [ 18.72352934, 49.20372224 ], [ 18.72358426, 49.20366594 ], [ 18.7236276, 49.2036425 ], [ 18.72367242, 49.20361824 ], [ 18.72373108, 49.20358649 ], [ 18.72373418, 49.20358485 ], [ 18.72379166, 49.20355376 ], [ 18.72385189, 49.20352165 ], [ 18.72393126, 49.20347935 ], [ 18.72406218, 49.2033813 ], [ 18.72408019, 49.20334769 ], [ 18.72412906, 49.20327104 ], [ 18.72414862, 49.2032405 ], [ 18.72417803, 49.20318899 ], [ 18.72420217, 49.20314687 ], [ 18.72421159, 49.20312833 ], [ 18.72427545, 49.20305743 ], [ 18.72429229, 49.20303684 ], [ 18.72431546, 49.20301505 ], [ 18.72433909, 49.20299293 ], [ 18.72441023, 49.20292891 ], [ 18.7244243, 49.20291629 ], [ 18.72445013, 49.20289302 ], [ 18.72443269, 49.20288922 ], [ 18.72450259, 49.20281512 ], [ 18.72450354, 49.20281409 ], [ 18.72451918, 49.20279759 ], [ 18.72454434, 49.20280017 ], [ 18.72456706, 49.20274263 ], [ 18.72457781, 49.20271541 ], [ 18.7245918, 49.20267979 ], [ 18.72463801, 49.20255384 ] ], [ [ 18.72408176, 49.2055805 ], [ 18.72408382, 49.2055715 ], [ 18.72406437, 49.20556958 ], [ 18.72406717, 49.20555791 ], [ 18.72408745, 49.20555978 ], [ 18.72408963, 49.20555097 ], [ 18.72413475, 49.20555577 ], [ 18.72412745, 49.20558515 ], [ 18.72408176, 49.2055805 ] ] ] } },
{ "type": "Feature", "properties": { "@featureType": "CadastralParcel", "areaValue": { "value": 3886, "@uom": "m2" }, "beginLifespanVersion": { "@nilReason": "http://inspire.ec.europa.eu/codelist/VoidReasonValue/Unpopulated", "@nil": "true" }, "endLifespanVersion": { "@nilReason": "http://inspire.ec.europa.eu/codelist/VoidReasonValue/Unpopulated", "@nil": "true" }, "inspireId": { "@dataType": "Identifier", "localId": "800759_1376/4.C", "namespace": "SK.ESKN.CP", "versionId": "20260703T05:07:44" }, "label": "1376/4", "nationalCadastralReference": "800759_1376/4.C", "referencePoint": { "type": "Point", "coordinates": [ 18.7218801, 49.20549582 ] }, "validFrom": "2026-06-30T16:00:00Z", "validTo": { "@nilReason": "http://inspire.ec.europa.eu/codelist/VoidReasonValue/Unpopulated", "@nil": "true" }, "administrativeUnit": { "@href": "#auAdmUnitS.2962" } }, "geometry": { "type": "Polygon", "coordinates": [ [ [ 18.72126759, 49.20792091 ], [ 18.72129501, 49.2079219 ], [ 18.72138454, 49.20790467 ], [ 18.72142671, 49.20789651 ], [ 18.72142984, 49.20789342 ], [ 18.72144802, 49.20785838 ], [ 18.72151248, 49.20772067 ], [ 18.72156572, 49.20767033 ], [ 18.72158776, 49.20766679 ], [ 18.72160468, 49.20762979 ], [ 18.72161116, 49.20762066 ], [ 18.72182488, 49.2073182 ], [ 18.72185762, 49.20732975 ], [ 18.72190695, 49.20726062 ], [ 18.72189435, 49.20725671 ], [ 18.72187377, 49.20725049 ], [ 18.72197451, 49.20711107 ], [ 18.72207199, 49.20698141 ], [ 18.7221065, 49.20693892 ], [ 18.72213686, 49.20687412 ], [ 18.72221302, 49.20674424 ], [ 18.72224029, 49.20668216 ], [ 18.72227121, 49.20660935 ], [ 18.72230204, 49.20654963 ], [ 18.72232198, 49.20650593 ], [ 18.72232784, 49.20649288 ], [ 18.72231197, 49.20636909 ], [ 18.72214876, 49.20596144 ], [ 18.72195289, 49.20561594 ], [ 18.72193965, 49.20559251 ], [ 18.72191113, 49.20554194 ], [ 18.72192046, 49.2054497 ], [ 18.72196425, 49.2054068 ], [ 18.72198458, 49.20538693 ], [ 18.72200442, 49.20536759 ], [ 18.72203889, 49.20534467 ], [ 18.72207157, 49.20532284 ], [ 18.7221011, 49.2053031 ], [ 18.72224814, 49.20525912 ], [ 18.72226829, 49.20525314 ], [ 18.7223051, 49.20523125 ], [ 18.72240573, 49.20517158 ], [ 18.72243388, 49.20512037 ], [ 18.7224912, 49.2050162 ], [ 18.72249758, 49.20500454 ], [ 18.72250113, 49.20499805 ], [ 18.7225802, 49.20492101 ], [ 18.72258536, 49.20491595 ], [ 18.72265363, 49.20488453 ], [ 18.72264678, 49.20488318 ], [ 18.72283145, 49.204805 ], [ 18.7229655, 49.20475122 ], [ 18.72307697, 49.20470537 ], [ 18.7231471, 49.2046644 ], [ 18.72319409, 49.20461778 ], [ 18.72321775, 49.20457735 ], [ 18.72323779, 49.20450226 ], [ 18.72323364, 49.20443709 ], [ 18.72320786, 49.20437196 ], [ 18.72316932, 49.20430986 ], [ 18.72309764, 49.20421246 ], [ 18.72308889, 49.20420063 ], [ 18.7230883, 49.20419988 ], [ 18.72307932, 49.20418768 ], [ 18.72307093, 49.2041775 ], [ 18.72304214, 49.20404338 ], [ 18.72308184, 49.20391447 ], [ 18.72311099, 49.20385953 ], [ 18.72318925, 49.20371235 ], [ 18.72322929, 49.2036494 ], [ 18.72330775, 49.20365965 ], [ 18.72325804, 49.20339471 ], [ 18.72321856, 49.20305841 ], [ 18.72321363, 49.20307628 ], [ 18.72320473, 49.20310856 ], [ 18.72318814, 49.20316886 ], [ 18.72317127, 49.20322138 ], [ 18.72317053, 49.20322855 ], [ 18.72313511, 49.20336869 ], [ 18.72313456, 49.20337092 ], [ 18.72312038, 49.20342737 ], [ 18.7230945, 49.20352993 ], [ 18.72307168, 49.20362328 ], [ 18.72306902, 49.20363487 ], [ 18.72305715, 49.20368702 ], [ 18.72305235, 49.20370833 ], [ 18.72299971, 49.20393877 ], [ 18.72297684, 49.20403698 ], [ 18.72294619, 49.20416852 ], [ 18.72300987, 49.20421751 ], [ 18.72311607, 49.20437048 ], [ 18.72312889, 49.20439624 ], [ 18.72313355, 49.20445512 ], [ 18.7231294, 49.20448115 ], [ 18.72311195, 49.20454402 ], [ 18.72310086, 49.20459089 ], [ 18.72309777, 49.2046038 ], [ 18.72309667, 49.20460717 ], [ 18.72304198, 49.20464238 ], [ 18.72293648, 49.20470477 ], [ 18.72286162, 49.20472025 ], [ 18.7227702, 49.20475632 ], [ 18.72268689, 49.20478921 ], [ 18.72252591, 49.20489434 ], [ 18.72249077, 49.20492732 ], [ 18.72245915, 49.20495625 ], [ 18.72239687, 49.20501189 ], [ 18.72233011, 49.20506477 ], [ 18.72228267, 49.20509476 ], [ 18.72225655, 49.20511585 ], [ 18.72222788, 49.20513979 ], [ 18.72222519, 49.20515282 ], [ 18.72214279, 49.20520407 ], [ 18.72204479, 49.2052693 ], [ 18.72195737, 49.20533345 ], [ 18.72195154, 49.20533279 ], [ 18.72184485, 49.20544654 ], [ 18.7218435, 49.2055974 ], [ 18.72189265, 49.20564138 ], [ 18.72191763, 49.20567363 ], [ 18.72194905, 49.20574556 ], [ 18.72200004, 49.20582744 ], [ 18.72203176, 49.20588223 ], [ 18.72209555, 49.20598111 ], [ 18.72210624, 49.20600856 ], [ 18.72211674, 49.20603536 ], [ 18.7221492, 49.20611789 ], [ 18.72217624, 49.2062088 ], [ 18.72224176, 49.20636117 ], [ 18.72223536, 49.20646097 ], [ 18.72217771, 49.20658578 ], [ 18.72215502, 49.20663177 ], [ 18.72209587, 49.2067666 ], [ 18.72208624, 49.20678802 ], [ 18.72207567, 49.20680469 ], [ 18.72200349, 49.20696049 ], [ 18.72171208, 49.20734675 ], [ 18.72172651, 49.20734804 ], [ 18.72164835, 49.20745707 ], [ 18.72161781, 49.20749859 ], [ 18.72156897, 49.20756477 ], [ 18.72148267, 49.20770323 ], [ 18.72146127, 49.20775326 ], [ 18.72143175, 49.20780674 ], [ 18.72140163, 49.20783691 ], [ 18.7213654, 49.20786073 ], [ 18.7213461, 49.2078654 ], [ 18.72132678, 49.20786465 ], [ 18.72126759, 49.20792091 ] ] ] } },
{ "type": "Feature", "properties": { "@featureType": "CadastralParcel", "areaValue": { "value": 182, "@uom": "m2" }, "beginLifespanVersion": { "@nilReason": "http://inspire.ec.europa.eu/codelist/VoidReasonValue/Unpopulated", "@nil": "true" }, "endLifespanVersion": { "@nilReason": "http://inspire.ec.europa.eu/codelist/VoidReasonValue/Unpopulated", "@nil": "true" }, "inspireId": { "@dataType": "Identifier", "localId": "800759_1361/35.C", "namespace": "SK.ESKN.CP", "versionId": "20260703T05:07:44" }, "label": "1361/35", "nationalCadastralReference": "800759_1361/35.C", "referencePoint": { "type": "Point", "coordinates": [ 18.72060227, 49.202139 ] }, "validFrom": "2026-06-30T16:00:00Z", "validTo": { "@nilReason": "http://inspire.ec.europa.eu/codelist/VoidReasonValue/Unpopulated", "@nil": "true" }, "administrativeUnit": { "@href": "#auAdmUnitS.2962" } }, "geometry": { "type": "Polygon", "coordinates": [ [ [ 18.72056322, 49.20227307 ], [ 18.72063575, 49.20227778 ], [ 18.72063572, 49.20227687 ], [ 18.72063582, 49.20226253 ], [ 18.72063607, 49.20223566 ], [ 18.72066556, 49.20206301 ], [ 18.72068249, 49.20204947 ], [ 18.72054353, 49.20203866 ], [ 18.72055834, 49.20221499 ], [ 18.72056322, 49.20227307 ] ] ] } },
{ "type": "Feature", "properties": { "@featureType": "CadastralParcel", "areaValue": { "value": 1903, "@uom": "m2" }, "beginLifespanVersion": { "@nilReason": "http://inspire.ec.europa.eu/codelist/VoidReasonValue/Unpopulated", "@nil": "true" }, "endLifespanVersion": { "@nilReason": "http://inspire.ec.europa.eu/codelist/VoidReasonValue/Unpopulated", "@nil": "true" }, "inspireId": { "@dataType": "Identifier", "localId": "800759_1360.C", "namespace": "SK.ESKN.CP", "versionId": "20260703T05:07:44" }, "label": "1360", "nationalCadastralReference": "800759_1360.C", "referencePoint": { "type": "Point", "coordinates": [ 18.72076914, 49.20201373 ] }, "validFrom": "2026-06-30T16:00:00Z", "validTo": { "@nilReason": "http://inspire.ec.europa.eu/codelist/VoidReasonValue/Unpopulated", "@nil": "true" }, "administrativeUnit": { "@href": "#auAdmUnitS.2962" } }, "geometry": { "type": "Polygon", "coordinates": [ [ [ 18.72054353, 49.20203866 ], [ 18.72068249, 49.20204947 ], [ 18.7207586, 49.20204516 ], [ 18.72084025, 49.20204168 ], [ 18.72122476, 49.20207105 ], [ 18.72160418, 49.20212514 ], [ 18.72171099, 49.20215916 ], [ 18.72163112, 49.2019473 ], [ 18.72154414, 49.2020012 ], [ 18.72152327, 49.20201544 ], [ 18.72128965, 49.20201203 ], [ 18.72115934, 49.20201033 ], [ 18.7207997, 49.20198146 ], [ 18.72051328, 49.20198538 ], [ 18.72027376, 49.20196939 ], [ 18.7199019, 49.20194465 ], [ 18.71967399, 49.20192945 ], [ 18.71954833, 49.20191672 ], [ 18.71951963, 49.20191386 ], [ 18.71941573, 49.20190904 ], [ 18.7191485, 49.20189674 ], [ 18.718986, 49.2018893 ], [ 18.71891755, 49.20188616 ], [ 18.71886634, 49.20188383 ], [ 18.7188083, 49.20188115 ], [ 18.71856216, 49.20186977 ], [ 18.71854716, 49.20188883 ], [ 18.71855875, 49.20194726 ], [ 18.71855551, 49.20199743 ], [ 18.71859033, 49.20195243 ], [ 18.71964782, 49.20201071 ], [ 18.71973442, 49.20198693 ], [ 18.71995202, 49.20200096 ], [ 18.72007745, 49.20200988 ], [ 18.72034265, 49.20202866 ], [ 18.72050275, 49.20204004 ], [ 18.72052682, 49.20203905 ], [ 18.72054353, 49.20203866 ] ] ] } },
{ "type": "Feature", "properties": { "@featureType": "CadastralParcel", "areaValue": { "value": 2133, "@uom": "m2" }, "beginLifespanVersion": { "@nilReason": "http://inspire.ec.europa.eu/codelist/VoidReasonValue/Unpopulated", "@nil": "true" }, "endLifespanVersion": { "@nilReason": "http://inspire.ec.europa.eu/codelist/VoidReasonValue/Unpopulated", "@nil": "true" }, "inspireId": { "@dataType": "Identifier", "localId": "800759_1395.C", "namespace": "SK.ESKN.CP", "versionId": "20260703T05:07:44" }, "label": "1395", "nationalCadastralReference": "800759_1395.C", "referencePoint": { "type": "Point", "coordinates": [ 18.72128077, 49.20523406 ] }, "validFrom": "2026-06-30T16:00:00Z", "validTo": { "@nilReason": "http://inspire.ec.europa.eu/codelist/VoidReasonValue/Unpopulated", "@nil": "true" }, "administrativeUnit": { "@href": "#auAdmUnitS.2962" } }, "geometry": { "type": "Polygon", "coordinates": [ [ [ 18.72112602, 49.20792115 ], [ 18.72109908, 49.20841906 ], [ 18.72108767, 49.20871201 ], [ 18.72110951, 49.20871361 ], [ 18.72111286, 49.20871433 ], [ 18.7211216, 49.2085368 ], [ 18.72112738, 49.20841955 ], [ 18.72113482, 49.20828309 ], [ 18.72113678, 49.20824567 ], [ 18.72113794, 49.20822489 ], [ 18.72114524, 49.20809068 ], [ 18.72115078, 49.20799345 ], [ 18.72115252, 49.2079635 ], [ 18.72115518, 49.20791691 ], [ 18.72115629, 49.20790326 ], [ 18.72115761, 49.20786995 ], [ 18.72115837, 49.20785808 ], [ 18.72116341, 49.2077638 ], [ 18.72116559, 49.20772341 ], [ 18.72116843, 49.20767088 ], [ 18.72117822, 49.2074768 ], [ 18.72117919, 49.20745764 ], [ 18.72118715, 49.20729775 ], [ 18.72119194, 49.20720102 ], [ 18.72119435, 49.20715424 ], [ 18.72120113, 49.20702658 ], [ 18.72120212, 49.20700715 ], [ 18.72120872, 49.20688328 ], [ 18.7212137, 49.20678611 ], [ 18.7212153, 49.20675606 ], [ 18.72122134, 49.20663901 ], [ 18.72122293, 49.20660906 ], [ 18.72122475, 49.20657388 ], [ 18.72122895, 49.2064921 ], [ 18.72123876, 49.20633176 ], [ 18.72124422, 49.20624193 ], [ 18.72124435, 49.20623977 ], [ 18.72124954, 49.20613071 ], [ 18.72125448, 49.20603056 ], [ 18.72125572, 49.20600681 ], [ 18.72125894, 49.20594103 ], [ 18.72126202, 49.20587976 ], [ 18.72126767, 49.20578272 ], [ 18.72127189, 49.20570987 ], [ 18.72127452, 49.20565561 ], [ 18.72127797, 49.20558678 ], [ 18.72128224, 49.20548759 ], [ 18.72128458, 49.2054334 ], [ 18.72128978, 49.2053311 ], [ 18.72129261, 49.2052764 ], [ 18.72129606, 49.20520189 ], [ 18.72129687, 49.2051829 ], [ 18.72129981, 49.20511936 ], [ 18.72130465, 49.20502219 ], [ 18.72130758, 49.20496551 ], [ 18.72131938, 49.20484407 ], [ 18.72131564, 49.20481041 ], [ 18.7213222, 49.20473984 ], [ 18.72133166, 49.20456542 ], [ 18.7213374, 49.20443275 ], [ 18.72134412, 49.20433711 ], [ 18.7213476, 49.20428714 ], [ 18.72137494, 49.20412755 ], [ 18.72139551, 49.20411473 ], [ 18.72139082, 49.20405955 ], [ 18.7214454, 49.20386963 ], [ 18.72149046, 49.2037171 ], [ 18.72155075, 49.2035097 ], [ 18.7215711, 49.203493 ], [ 18.72158204, 49.20344405 ], [ 18.72157598, 49.20342154 ], [ 18.72163478, 49.20322633 ], [ 18.72167166, 49.20310017 ], [ 18.72168203, 49.2030649 ], [ 18.7216922, 49.20303007 ], [ 18.72175674, 49.20281388 ], [ 18.72176588, 49.20278296 ], [ 18.72180645, 49.20264689 ], [ 18.72185667, 49.20247685 ], [ 18.72186443, 49.20245281 ], [ 18.72194973, 49.20237997 ], [ 18.72195941, 49.20237173 ], [ 18.72197324, 49.20235992 ], [ 18.72198031, 49.20235388 ], [ 18.72196284, 49.20234025 ], [ 18.72192237, 49.20230186 ], [ 18.7219035, 49.20228391 ], [ 18.72189055, 49.20224561 ], [ 18.72188217, 49.20219592 ], [ 18.72187781, 49.2020343 ], [ 18.72187937, 49.20199893 ], [ 18.72189013, 49.20178795 ], [ 18.72176193, 49.20177238 ], [ 18.72169841, 49.20179873 ], [ 18.72172225, 49.20193611 ], [ 18.72176266, 49.20205506 ], [ 18.72179713, 49.20215384 ], [ 18.72182127, 49.20227635 ], [ 18.72182024, 49.20245618 ], [ 18.72172981, 49.20281337 ], [ 18.7215514, 49.20341538 ], [ 18.72154504, 49.20343696 ], [ 18.72153015, 49.20348787 ], [ 18.72136127, 49.20406251 ], [ 18.72135061, 49.20410922 ], [ 18.72135002, 49.2041118 ], [ 18.7213319, 49.20419926 ], [ 18.72132431, 49.20425128 ], [ 18.72131922, 49.20428619 ], [ 18.72131587, 49.20433284 ], [ 18.72131324, 49.20436896 ], [ 18.72131109, 49.20439898 ], [ 18.72130871, 49.20443314 ], [ 18.72130845, 49.20443637 ], [ 18.72130695, 49.20446218 ], [ 18.72130142, 49.20455824 ], [ 18.72129977, 49.20458639 ], [ 18.72129741, 49.20462605 ], [ 18.7212953, 49.20466356 ], [ 18.72129351, 49.20469404 ], [ 18.72129029, 49.20474854 ], [ 18.72128867, 49.20477651 ], [ 18.72128567, 49.20482814 ], [ 18.7212847, 49.20484505 ], [ 18.72128244, 49.20489518 ], [ 18.72127925, 49.20496528 ], [ 18.72127689, 49.2050173 ], [ 18.72127478, 49.20506158 ], [ 18.72127219, 49.20511773 ], [ 18.72126889, 49.20519216 ], [ 18.72126549, 49.20526623 ], [ 18.72125688, 49.20545279 ], [ 18.72125289, 49.20554072 ], [ 18.72124695, 49.20567058 ], [ 18.72123988, 49.20578027 ], [ 18.72123451, 49.20586145 ], [ 18.72123334, 49.20588006 ], [ 18.72123204, 49.20593809 ], [ 18.72121912, 49.20617016 ], [ 18.72120115, 49.20649199 ], [ 18.72118092, 49.20688092 ], [ 18.72116906, 49.20701516 ], [ 18.72116677, 49.20715234 ], [ 18.72116626, 49.20715647 ], [ 18.72114222, 49.20762052 ], [ 18.7211293, 49.2078672 ], [ 18.72112602, 49.20792115 ] ] ] } }
]
}
