{
"type": "FeatureCollection",
"name": "gis",
"crs": { "type": "name", "properties": { "name": "urn:ogc:def:crs:OGC:1.3:CRS84" } },
"features": [
{ "type": "Feature", "properties": { "@featureType": "CadastralParcel", "areaValue": { "value": 388, "@uom": "m2" }, "beginLifespanVersion": { "@nilReason": "http://inspire.ec.europa.eu/codelist/VoidReasonValue/Unpopulated", "@nil": "true" }, "endLifespanVersion": { "@nilReason": "http://inspire.ec.europa.eu/codelist/VoidReasonValue/Unpopulated", "@nil": "true" }, "inspireId": { "@dataType": "Identifier", "localId": "833398_5585/7.C", "namespace": "SK.ESKN.CP", "versionId": "20260703T07:07:44" }, "label": "5585/7", "nationalCadastralReference": "833398_5585/7.C", "referencePoint": { "type": "Point", "coordinates": [ 17.71701176, 48.80344432 ] }, "validFrom": "2026-06-30T16:00:00Z", "validTo": { "@nilReason": "http://inspire.ec.europa.eu/codelist/VoidReasonValue/Unpopulated", "@nil": "true" }, "administrativeUnit": { "@href": "#auAdmUnitS.1572" } }, "geometry": { "type": "Polygon", "coordinates": [ [ [ 17.71692519, 48.80331924 ], [ 17.71689675, 48.80353697 ], [ 17.7168849, 48.80362765 ], [ 17.7170193, 48.80358608 ], [ 17.71707127, 48.80351829 ], [ 17.7170782, 48.80350507 ], [ 17.71715115, 48.80338357 ], [ 17.71707582, 48.80336222 ], [ 17.71701942, 48.80334618 ], [ 17.71692519, 48.80331924 ] ] ] } },
{ "type": "Feature", "properties": { "@featureType": "CadastralParcel", "areaValue": { "value": 352, "@uom": "m2" }, "beginLifespanVersion": { "@nilReason": "http://inspire.ec.europa.eu/codelist/VoidReasonValue/Unpopulated", "@nil": "true" }, "endLifespanVersion": { "@nilReason": "http://inspire.ec.europa.eu/codelist/VoidReasonValue/Unpopulated", "@nil": "true" }, "inspireId": { "@dataType": "Identifier", "localId": "833398_5260/9.C", "namespace": "SK.ESKN.CP", "versionId": "20260703T07:07:44" }, "label": "5260/9", "nationalCadastralReference": "833398_5260/9.C", "referencePoint": { "type": "Point", "coordinates": [ 17.7167457, 48.8038036 ] }, "validFrom": "2026-06-30T16:00:00Z", "validTo": { "@nilReason": "http://inspire.ec.europa.eu/codelist/VoidReasonValue/Unpopulated", "@nil": "true" }, "administrativeUnit": { "@href": "#auAdmUnitS.1572" } }, "geometry": { "type": "Polygon", "coordinates": [ [ [ 17.71654795, 48.80407692 ], [ 17.71663348, 48.80395158 ], [ 17.71671169, 48.80386355 ], [ 17.71676226, 48.80382115 ], [ 17.716804, 48.80378605 ], [ 17.71683876, 48.80376164 ], [ 17.71692347, 48.803704 ], [ 17.71687613, 48.80369359 ], [ 17.7168849, 48.80362765 ], [ 17.71689675, 48.80353697 ], [ 17.7168775, 48.80353578 ], [ 17.71687235, 48.80353547 ], [ 17.71660734, 48.80351913 ], [ 17.71660526, 48.80353291 ], [ 17.71677849, 48.80354368 ], [ 17.71675435, 48.80370288 ], [ 17.71672332, 48.80370087 ], [ 17.71670435, 48.80383031 ], [ 17.71669585, 48.80384307 ], [ 17.71668406, 48.80384812 ], [ 17.71666658, 48.80384794 ], [ 17.71666009, 48.80388909 ], [ 17.71660175, 48.80398648 ], [ 17.71654471, 48.80406886 ], [ 17.71654795, 48.80407692 ] ] ] } }
]
}
