{
"type": "FeatureCollection",
"name": "gis",
"crs": { "type": "name", "properties": { "name": "urn:ogc:def:crs:OGC:1.3:CRS84" } },
"features": [
{ "type": "Feature", "properties": { "@featureType": "CadastralZoning", "beginLifespanVersion": { "@nilReason": "http://inspire.ec.europa.eu/codelist/VoidReasonValue/Unpopulated", "@nil": "true" }, "endLifespanVersion": { "@nilReason": "http://inspire.ec.europa.eu/codelist/VoidReasonValue/Unpopulated", "@nil": "true" }, "estimatedAccuracy": { "value": -1, "@uom": "m" }, "inspireId": { "@dataType": "Identifier", "localId": "869503", "namespace": "SK.ESKN.CP", "versionId": "20260703T04:07:40" }, "label": "Vinné", "level": { "@href": "http://inspire.ec.europa.eu/codelist/CadastralZoningLevelValue/3rdOrder" }, "levelName": { "value": "Katastrálne územie", "@locale": "sk" }, "name_1": { "@dataType": "name", "GeographicalName": { "@dataType": "GeographicalName", "language": "SLK", "nativeness": { "@href": "http://inspire.ec.europa.eu/codelist/NativenessValue/endonym", "@title": "endonym" }, "nameStatus": { "@href": "http://inspire.ec.europa.eu/codelist/NameStatusValue/official", "@title": "official" }, "sourceOfName": { "@nilReason": "http://inspire.ec.europa.eu/codelist/VoidReasonValue/Unpopulated", "@nil": "true" }, "pronunciation": { "@dataType": "pronunciation", "@nilReason": "http://inspire.ec.europa.eu/codelist/VoidReasonValue/Unpopulated", "@nil": "true" }, "spelling": { "@dataType": "SpellingOfName", "text": "Vinné", "script": "LATN" } } }, "nationalCadastalZoningReference": "869503", "validFrom": "2026-06-30T16:00:00Z", "validTo": { "@nilReason": "http://inspire.ec.europa.eu/codelist/VoidReasonValue/Unpopulated", "@nil": "true" }, "place_id": 190376187, "osm_type": "relation", "osm_id": 5298659, "place_rank": 20, "category": "water", "type": "reservoir", "importance": 0.43258448903009489, "addresstype": "reservoir", "name_2": "Zemplínska šírava", "display_name": "Zemplínska šírava, Kaluža, okres Michalovce, Košický kraj, Slovensko" }, "geometry": { "type": "Polygon", "coordinates": [ [ [ 22.00288205, 48.78629995 ], [ 22.00354829, 48.78384082 ], [ 22.00159987, 48.7834628 ], [ 21.98573359, 48.78038363 ], [ 21.97022626, 48.77778429 ], [ 21.96514303, 48.77160839 ], [ 21.96713231, 48.77073966 ], [ 21.96122224, 48.76852983 ], [ 21.96077255, 48.76947351 ], [ 21.95724114, 48.7670947 ], [ 21.957150303603118, 48.767033511087149 ], [ 21.9571592, 48.7672366 ], [ 21.9571316, 48.7677485 ], [ 21.9570073, 48.7684738 ], [ 21.9569653, 48.7697108 ], [ 21.9569745, 48.7702553 ], [ 21.9569557, 48.7711144 ], [ 21.9569546, 48.77127 ], [ 21.9569083, 48.7716425 ], [ 21.9568842, 48.7718356 ], [ 21.9568517, 48.7720975 ], [ 21.9568354, 48.772228 ], [ 21.9568252, 48.7723103 ], [ 21.9565791, 48.7730731 ], [ 21.9563563, 48.7736339 ], [ 21.9562121, 48.7739971 ], [ 21.9562738, 48.7743478 ], [ 21.9563173, 48.7747508 ], [ 21.9558495, 48.7753639 ], [ 21.9554849, 48.7760625 ], [ 21.9553744, 48.7761769 ], [ 21.9548625, 48.7767073 ], [ 21.95423, 48.7774209 ], [ 21.9538057, 48.7778915 ], [ 21.953433, 48.7784545 ], [ 21.9531941, 48.7788142 ], [ 21.9531673, 48.7790298 ], [ 21.9528966, 48.7793595 ], [ 21.9525397, 48.7799701 ], [ 21.9524464, 48.7805311 ], [ 21.9523084, 48.7807441 ], [ 21.952132, 48.7810164 ], [ 21.9518101, 48.7821405 ], [ 21.9514668, 48.7831514 ], [ 21.9509518, 48.783724 ], [ 21.9506541, 48.7844258 ], [ 21.9505074, 48.7850367 ], [ 21.9500828, 48.7855995 ], [ 21.9496398, 48.7863017 ], [ 21.94929, 48.7868538 ], [ 21.9488588, 48.78737 ], [ 21.9485539, 48.7877321 ], [ 21.9482108, 48.7879823 ], [ 21.9475617, 48.7882862 ], [ 21.9473739, 48.7884205 ], [ 21.9470843, 48.7885265 ], [ 21.9466333, 48.7886669 ], [ 21.946366, 48.7888501 ], [ 21.9463393, 48.7889621 ], [ 21.9464291, 48.7890684 ], [ 21.9466656, 48.7890557 ], [ 21.946899, 48.7891052 ], [ 21.9471837, 48.7891481 ], [ 21.9477495, 48.7891323 ], [ 21.9478862, 48.7891285 ], [ 21.9489319, 48.7890095 ], [ 21.9499631, 48.7887815 ], [ 21.9506091, 48.788566 ], [ 21.9513135, 48.7884063 ], [ 21.9519418, 48.788196 ], [ 21.9522558, 48.7880022 ], [ 21.9528054, 48.7877967 ], [ 21.9533819, 48.7875272 ], [ 21.9539451, 48.787234 ], [ 21.9548052, 48.7869506 ], [ 21.9553749, 48.7866727 ], [ 21.9556807, 48.7862451 ], [ 21.9560401, 48.7859518 ], [ 21.9563311, 48.7857628 ], [ 21.9567037, 48.785457 ], [ 21.9569736, 48.7851706 ], [ 21.9576666, 48.7849924 ], [ 21.9581267, 48.7849744 ], [ 21.9587599, 48.7851423 ], [ 21.9591837, 48.7853403 ], [ 21.9594197, 48.7856654 ], [ 21.9592535, 48.7860118 ], [ 21.9589879, 48.7863458 ], [ 21.9594814, 48.7868547 ], [ 21.959539, 48.7872029 ], [ 21.9596105, 48.7874397 ], [ 21.9596192, 48.7876444 ], [ 21.9597749, 48.7877074 ], [ 21.9601142, 48.7876014 ], [ 21.9606078, 48.7872656 ], [ 21.9608492, 48.7870253 ], [ 21.961171, 48.7868945 ], [ 21.9614767, 48.7868698 ], [ 21.9617399, 48.7868671 ], [ 21.961701, 48.7869564 ], [ 21.961914, 48.7870907 ], [ 21.9624292, 48.787286 ], [ 21.9626027, 48.7875017 ], [ 21.9626867, 48.7877437 ], [ 21.9629621, 48.7880601 ], [ 21.963164, 48.7883675 ], [ 21.9634295, 48.7884903 ], [ 21.9634831, 48.7885309 ], [ 21.9637111, 48.7887783 ], [ 21.9637432, 48.7889515 ], [ 21.963762, 48.7890381 ], [ 21.963923, 48.7891406 ], [ 21.9641161, 48.7892537 ], [ 21.9642442, 48.7892757 ], [ 21.9644701, 48.7893703 ], [ 21.9645882, 48.7894639 ], [ 21.9647491, 48.789494 ], [ 21.9650146, 48.7894975 ], [ 21.9652426, 48.7896442 ], [ 21.9657147, 48.7898315 ], [ 21.966135, 48.7900094 ], [ 21.9663289, 48.7901584 ], [ 21.9665355, 48.7902397 ], [ 21.9668676, 48.7903288 ], [ 21.9673374, 48.7906108 ], [ 21.9679517, 48.7910349 ], [ 21.9682386, 48.7911586 ], [ 21.9685578, 48.7913795 ], [ 21.9688823, 48.7916957 ], [ 21.9691667, 48.791906 ], [ 21.9693459, 48.7921037 ], [ 21.9695335, 48.792254 ], [ 21.9696036, 48.792213 ], [ 21.9697809, 48.7923284 ], [ 21.9700143, 48.7924503 ], [ 21.9701347, 48.7924936 ], [ 21.970253, 48.7925245 ], [ 21.9703388, 48.7925263 ], [ 21.9705828, 48.7925952 ], [ 21.9709182, 48.7926022 ], [ 21.9711255, 48.792649 ], [ 21.9715646, 48.7926994 ], [ 21.9719428, 48.7927348 ], [ 21.9723451, 48.7927507 ], [ 21.9725007, 48.7927789 ], [ 21.9726446, 48.7927487 ], [ 21.9727984, 48.7928266 ], [ 21.9729164, 48.7929362 ], [ 21.9731471, 48.7929822 ], [ 21.9733321, 48.793097 ], [ 21.9734823, 48.7931535 ], [ 21.9736594, 48.7931995 ], [ 21.973915, 48.7932081 ], [ 21.9742441, 48.7933002 ], [ 21.9745794, 48.7934097 ], [ 21.9748672, 48.7934658 ], [ 21.9751979, 48.7934944 ], [ 21.9753358, 48.7934768 ], [ 21.9754293, 48.793449 ], [ 21.9755101, 48.7934399 ], [ 21.9757113, 48.7934256 ], [ 21.9757277, 48.7933297 ], [ 21.9758476, 48.7933073 ], [ 21.976046, 48.7933194 ], [ 21.9760846, 48.7933506 ], [ 21.9758567, 48.7934825 ], [ 21.9757437, 48.7935389 ], [ 21.975663, 48.793643 ], [ 21.9756691, 48.7937395 ], [ 21.9757837, 48.7938427 ], [ 21.9759044, 48.793908 ], [ 21.9760117, 48.7939451 ], [ 21.9761206, 48.7939481 ], [ 21.9762048, 48.7939637 ], [ 21.9763537, 48.7940556 ], [ 21.97641, 48.7941351 ], [ 21.9764514, 48.7941949 ], [ 21.9765902, 48.7942545 ], [ 21.976741, 48.7942822 ], [ 21.976776, 48.7943398 ], [ 21.9766635, 48.7946744 ], [ 21.9767278, 48.7948905 ], [ 21.9768888, 48.7953676 ], [ 21.9769628, 48.7954651 ], [ 21.9770336, 48.7955584 ], [ 21.9771774, 48.7956953 ], [ 21.9775111, 48.7959064 ], [ 21.97779, 48.7960548 ], [ 21.9782004, 48.7962262 ], [ 21.9783759, 48.7962882 ], [ 21.9788119, 48.7964789 ], [ 21.9790586, 48.7966008 ], [ 21.9793497, 48.7967148 ], [ 21.9794771, 48.7967483 ], [ 21.9795831, 48.7967369 ], [ 21.979634, 48.7967439 ], [ 21.9797252, 48.796819 ], [ 21.979917, 48.7968641 ], [ 21.9801503, 48.7968888 ], [ 21.9804186, 48.7969294 ], [ 21.980609, 48.7969524 ], [ 21.9808745, 48.7969506 ], [ 21.9811763, 48.7969418 ], [ 21.9814485, 48.7969374 ], [ 21.9815625, 48.796933 ], [ 21.9816336, 48.7969383 ], [ 21.9817878, 48.7969171 ], [ 21.981824, 48.7968605 ], [ 21.9819019, 48.7968394 ], [ 21.9822022, 48.7967545 ], [ 21.9823409, 48.7967236 ], [ 21.9824141, 48.7967351 ], [ 21.9825182, 48.7967294 ], [ 21.9825979, 48.7966927 ], [ 21.9826421, 48.7966459 ], [ 21.9827373, 48.7965893 ], [ 21.9828044, 48.7965893 ], [ 21.9828674, 48.7965699 ], [ 21.9831625, 48.7963905 ], [ 21.9833753, 48.7962979 ], [ 21.9835085, 48.7962784 ], [ 21.983605, 48.7962925 ], [ 21.9837552, 48.7963446 ], [ 21.9841227, 48.7965063 ], [ 21.9843399, 48.7966079 ], [ 21.9846765, 48.7967316 ], [ 21.984812, 48.7967678 ], [ 21.9850067, 48.7968147 ], [ 21.9853056, 48.7968994 ], [ 21.9856811, 48.7970408 ], [ 21.986023, 48.7971634 ], [ 21.9864804, 48.79741 ], [ 21.9868291, 48.7975136 ], [ 21.9869734, 48.7975635 ], [ 21.9872434, 48.7976978 ], [ 21.9876159, 48.7979028 ], [ 21.9879294, 48.7980498 ], [ 21.9881665, 48.7981206 ], [ 21.9884732, 48.7981627 ], [ 21.9888924, 48.7981426 ], [ 21.9891318, 48.7981026 ], [ 21.9892303, 48.7980986 ], [ 21.9892872, 48.7981244 ], [ 21.9893231, 48.7981703 ], [ 21.9893052, 48.7982113 ], [ 21.9892568, 48.7982449 ], [ 21.9891514, 48.7982653 ], [ 21.9889074, 48.7982693 ], [ 21.9886026, 48.798306 ], [ 21.9884333, 48.7983724 ], [ 21.988323, 48.7984701 ], [ 21.9883954, 48.7985656 ], [ 21.9887757, 48.7986683 ], [ 21.9890526, 48.7987351 ], [ 21.9892833, 48.7987546 ], [ 21.9895153, 48.7987814 ], [ 21.989703, 48.7987285 ], [ 21.9899331, 48.7985306 ], [ 21.9900736, 48.7985046 ], [ 21.9902676, 48.7986309 ], [ 21.9904423, 48.7987265 ], [ 21.9906095, 48.7987913 ], [ 21.9908748, 48.7988288 ], [ 21.9910723, 48.7987952 ], [ 21.9911731, 48.7987539 ], [ 21.9912381, 48.7987538 ], [ 21.9912627, 48.7987706 ], [ 21.9912617, 48.7988105 ], [ 21.9912764, 48.798848 ], [ 21.9913471, 48.7988957 ], [ 21.991453, 48.7989135 ], [ 21.991622, 48.7989107 ], [ 21.9920669, 48.7989127 ], [ 21.9928115, 48.7988462 ], [ 21.9934426, 48.7987498 ], [ 21.9937655, 48.7987364 ], [ 21.9944018, 48.7988778 ], [ 21.9948031, 48.7989992 ], [ 21.9951136, 48.7990474 ], [ 21.9960569, 48.7992245 ], [ 21.9961268, 48.7992231 ], [ 21.9961819, 48.7992166 ], [ 21.9965252, 48.7992387 ], [ 21.996717, 48.7992378 ], [ 21.9967934, 48.7992272 ], [ 21.9970067, 48.7992281 ], [ 21.9971623, 48.7992457 ], [ 21.997381, 48.7992447 ], [ 21.997553, 48.7992323 ], [ 21.9978064, 48.799215 ], [ 21.9983035, 48.7991556 ], [ 21.9985865, 48.7991362 ], [ 21.9991892, 48.7991093 ], [ 21.999414558164254, 48.799095002352118 ], [ 22.00288205, 48.78629995 ] ], [ [ 21.9765334, 48.7936863 ], [ 21.9765725, 48.7936604 ], [ 21.9766191, 48.793675 ], [ 21.9766625, 48.793722 ], [ 21.9766688, 48.7937693 ], [ 21.9767104, 48.7938285 ], [ 21.976753, 48.79384 ], [ 21.9768032, 48.7938538 ], [ 21.9767951, 48.7938698 ], [ 21.9767748, 48.7938772 ], [ 21.9767345, 48.7938913 ], [ 21.9766663, 48.7938991 ], [ 21.9766166, 48.7938842 ], [ 21.9765589, 48.7938471 ], [ 21.9765361, 48.7938065 ], [ 21.9765236, 48.7937161 ], [ 21.9765334, 48.7936863 ] ], [ [ 21.9932834, 48.7970849 ], [ 21.9935228, 48.7969342 ], [ 21.9936291, 48.7969072 ], [ 21.9936994, 48.7969172 ], [ 21.993745, 48.7969523 ], [ 21.9937469, 48.7970173 ], [ 21.9936823, 48.7971149 ], [ 21.9936082, 48.7971675 ], [ 21.9935038, 48.7972576 ], [ 21.9933442, 48.7972826 ], [ 21.9932378, 48.7972463 ], [ 21.9932321, 48.7971662 ], [ 21.9932834, 48.7970849 ] ] ] } }
]
}
