{
"type": "FeatureCollection",
"name": "gis",
"crs": { "type": "name", "properties": { "name": "urn:ogc:def:crs:OGC:1.3:CRS84" } },
"features": [
{ "type": "Feature", "properties": { "@featureType": "CadastralParcel", "areaValue": { "value": 1129, "@uom": "m2" }, "beginLifespanVersion": { "@nilReason": "http://inspire.ec.europa.eu/codelist/VoidReasonValue/Unpopulated", "@nil": "true" }, "endLifespanVersion": { "@nilReason": "http://inspire.ec.europa.eu/codelist/VoidReasonValue/Unpopulated", "@nil": "true" }, "inspireId": { "@dataType": "Identifier", "localId": "860123_2317.C", "namespace": "SK.ESKN.CP", "versionId": "20260703T04:07:53" }, "label": "2317", "nationalCadastralReference": "860123_2317.C", "referencePoint": { "type": "Point", "coordinates": [ 20.31587388, 48.40739449 ] }, "validFrom": "2026-06-30T16:00:00Z", "validTo": { "@nilReason": "http://inspire.ec.europa.eu/codelist/VoidReasonValue/Unpopulated", "@nil": "true" }, "administrativeUnit": { "@href": "#auAdmUnitS.1834" } }, "geometry": { "type": "Polygon", "coordinates": [ [ [ 20.31286588, 48.40754891 ], [ 20.31257921, 48.40744276 ], [ 20.31241378, 48.40736733 ], [ 20.31239039, 48.40735641 ], [ 20.31223699, 48.40727812 ], [ 20.31211383, 48.40721426 ], [ 20.31210552, 48.40723006 ], [ 20.31254161, 48.4074411 ], [ 20.31285899, 48.40755792 ], [ 20.31317406, 48.40764131 ], [ 20.31317816, 48.40766985 ], [ 20.31352384, 48.40775137 ], [ 20.31364737, 48.40775461 ], [ 20.31378333, 48.40772599 ], [ 20.31415757, 48.40764421 ], [ 20.3142503, 48.40760263 ], [ 20.31446769, 48.40745234 ], [ 20.31461044, 48.40737163 ], [ 20.31466142, 48.40736436 ], [ 20.31467239, 48.40737038 ], [ 20.31519826, 48.40734726 ], [ 20.31574815, 48.40738897 ], [ 20.31590549, 48.40740002 ], [ 20.31597719, 48.40737436 ], [ 20.31615913, 48.40706672 ], [ 20.31632814, 48.40703624 ], [ 20.31616635, 48.40704637 ], [ 20.3159902, 48.40722297 ], [ 20.3159671, 48.40728207 ], [ 20.31591609, 48.40734304 ], [ 20.31588561, 48.40735112 ], [ 20.31521139, 48.40731363 ], [ 20.31462375, 48.40728251 ], [ 20.31465188, 48.4073438 ], [ 20.3146627, 48.40734387 ], [ 20.31465949, 48.40735563 ], [ 20.31460225, 48.40736329 ], [ 20.31458648, 48.40734727 ], [ 20.31438178, 48.40747653 ], [ 20.31434682, 48.40750308 ], [ 20.31427223, 48.40755979 ], [ 20.31422161, 48.40759051 ], [ 20.31417393, 48.40761539 ], [ 20.3140587, 48.40764519 ], [ 20.31393784, 48.40766837 ], [ 20.31386308, 48.40768282 ], [ 20.31380003, 48.40769187 ], [ 20.31371596, 48.40770442 ], [ 20.3136392, 48.40772312 ], [ 20.31353569, 48.40771688 ], [ 20.31329928, 48.40766668 ], [ 20.31315656, 48.40763413 ], [ 20.31286588, 48.40754891 ] ] ] } },
{ "type": "Feature", "properties": { "@featureType": "CadastralParcel", "areaValue": { "value": 2010, "@uom": "m2" }, "beginLifespanVersion": { "@nilReason": "http://inspire.ec.europa.eu/codelist/VoidReasonValue/Unpopulated", "@nil": "true" }, "endLifespanVersion": { "@nilReason": "http://inspire.ec.europa.eu/codelist/VoidReasonValue/Unpopulated", "@nil": "true" }, "inspireId": { "@dataType": "Identifier", "localId": "860123_2283.C", "namespace": "SK.ESKN.CP", "versionId": "20260703T04:07:53" }, "label": "2283", "nationalCadastralReference": "860123_2283.C", "referencePoint": { "type": "Point", "coordinates": [ 20.32442274, 48.423549 ] }, "validFrom": "2026-06-30T16:00:00Z", "validTo": { "@nilReason": "http://inspire.ec.europa.eu/codelist/VoidReasonValue/Unpopulated", "@nil": "true" }, "administrativeUnit": { "@href": "#auAdmUnitS.1834" } }, "geometry": { "type": "Polygon", "coordinates": [ [ [ 20.32449873, 48.42342963 ], [ 20.32449934, 48.42339524 ], [ 20.32449699, 48.42333307 ], [ 20.32449662, 48.42330521 ], [ 20.32449728, 48.42323199 ], [ 20.32449695, 48.42320207 ], [ 20.32449659, 48.42309448 ], [ 20.32449868, 48.42299284 ], [ 20.32449646, 48.42292005 ], [ 20.32449909, 48.42283077 ], [ 20.32449647, 48.4227686 ], [ 20.32449343, 48.42269433 ], [ 20.32446178, 48.42269255 ], [ 20.32437169, 48.4226873 ], [ 20.32431028, 48.42268372 ], [ 20.32434341, 48.4227025 ], [ 20.32434452, 48.42305851 ], [ 20.3243459, 48.42313154 ], [ 20.32434612, 48.42320858 ], [ 20.32434708, 48.42331403 ], [ 20.3243472, 48.42347008 ], [ 20.32434721, 48.42348225 ], [ 20.32434707, 48.42351747 ], [ 20.32434728, 48.42360379 ], [ 20.32434858, 48.42364411 ], [ 20.32434881, 48.42379909 ], [ 20.32434899, 48.42387811 ], [ 20.32434984, 48.42397553 ], [ 20.32435031, 48.42407268 ], [ 20.32434927, 48.42410885 ], [ 20.32434928, 48.42415003 ], [ 20.32434859, 48.42423884 ], [ 20.3243486, 48.42427695 ], [ 20.3243477, 48.42434223 ], [ 20.32432868, 48.42435365 ], [ 20.32418172, 48.42435014 ], [ 20.32413103, 48.42436617 ], [ 20.32419231, 48.42437425 ], [ 20.3243382, 48.42437618 ], [ 20.32448502, 48.42436906 ], [ 20.32447955, 48.42434064 ], [ 20.32447778, 48.42433157 ], [ 20.32447343, 48.42399074 ], [ 20.32447231, 48.42390096 ], [ 20.32447152, 48.42383958 ], [ 20.32447046, 48.42375674 ], [ 20.32449817, 48.4237571 ], [ 20.32449864, 48.42358053 ], [ 20.32449796, 48.42351023 ], [ 20.32449873, 48.42342963 ] ] ] } },
{ "type": "Feature", "properties": { "@featureType": "CadastralParcel", "areaValue": { "value": 3370, "@uom": "m2" }, "beginLifespanVersion": { "@nilReason": "http://inspire.ec.europa.eu/codelist/VoidReasonValue/Unpopulated", "@nil": "true" }, "endLifespanVersion": { "@nilReason": "http://inspire.ec.europa.eu/codelist/VoidReasonValue/Unpopulated", "@nil": "true" }, "inspireId": { "@dataType": "Identifier", "localId": "860123_2252/1.C", "namespace": "SK.ESKN.CP", "versionId": "20260703T04:07:53" }, "label": "2252/1", "nationalCadastralReference": "860123_2252/1.C", "referencePoint": { "type": "Point", "coordinates": [ 20.31395127, 48.40771761 ] }, "validFrom": "2026-06-30T16:00:00Z", "validTo": { "@nilReason": "http://inspire.ec.europa.eu/codelist/VoidReasonValue/Unpopulated", "@nil": "true" }, "administrativeUnit": { "@href": "#auAdmUnitS.1834" } }, "geometry": { "type": "Polygon", "coordinates": [ [ [ 20.31592094, 48.40748532 ], [ 20.31595948, 48.4074871 ], [ 20.31596796, 48.40747077 ], [ 20.31597695, 48.4074595 ], [ 20.31599125, 48.40744627 ], [ 20.31604508, 48.40741442 ], [ 20.31608479, 48.40739238 ], [ 20.31610517, 48.40738075 ], [ 20.31616, 48.40735461 ], [ 20.31620238, 48.40733591 ], [ 20.31624692, 48.407351 ], [ 20.31632438, 48.40738693 ], [ 20.31656301, 48.4074992 ], [ 20.31665816, 48.40749897 ], [ 20.31674011, 48.40749652 ], [ 20.31673197, 48.40744331 ], [ 20.31660022, 48.40744579 ], [ 20.31655555, 48.40738799 ], [ 20.31651168, 48.40721274 ], [ 20.31674032, 48.40714767 ], [ 20.31659848, 48.40710363 ], [ 20.31645584, 48.40716793 ], [ 20.31597719, 48.40737436 ], [ 20.31590549, 48.40740002 ], [ 20.31574815, 48.40738897 ], [ 20.31519826, 48.40734726 ], [ 20.31467239, 48.40737038 ], [ 20.31466142, 48.40736436 ], [ 20.31461044, 48.40737163 ], [ 20.31446769, 48.40745234 ], [ 20.3142503, 48.40760263 ], [ 20.31415757, 48.40764421 ], [ 20.31378333, 48.40772599 ], [ 20.31364737, 48.40775461 ], [ 20.31352384, 48.40775137 ], [ 20.31317816, 48.40766985 ], [ 20.31323588, 48.40807476 ], [ 20.31318853, 48.40810659 ], [ 20.31319132, 48.40816211 ], [ 20.31324991, 48.40819424 ], [ 20.31325903, 48.40828668 ], [ 20.3132667, 48.40830392 ], [ 20.3132574, 48.40834166 ], [ 20.31331977, 48.40832952 ], [ 20.31331654, 48.40824398 ], [ 20.31331553, 48.40821565 ], [ 20.31330555, 48.40811615 ], [ 20.31330435, 48.40810376 ], [ 20.31329609, 48.40791621 ], [ 20.31347724, 48.40787703 ], [ 20.31348993, 48.40787428 ], [ 20.31353064, 48.40786534 ], [ 20.31359612, 48.40785026 ], [ 20.31371252, 48.40781186 ], [ 20.31386561, 48.40776716 ], [ 20.31394249, 48.40774558 ], [ 20.31412231, 48.40770923 ], [ 20.3141738, 48.40768855 ], [ 20.3142838, 48.40764449 ], [ 20.31429151, 48.40763236 ], [ 20.31438912, 48.40756466 ], [ 20.31442323, 48.40754023 ], [ 20.31448339, 48.40751332 ], [ 20.31458607, 48.40749997 ], [ 20.31472031, 48.40748164 ], [ 20.31477608, 48.40747374 ], [ 20.31485457, 48.40746304 ], [ 20.31489155, 48.40746107 ], [ 20.31500095, 48.40745429 ], [ 20.31508532, 48.40745661 ], [ 20.315153, 48.40745783 ], [ 20.31523657, 48.40746004 ], [ 20.31528856, 48.40746127 ], [ 20.31542324, 48.40746386 ], [ 20.31549645, 48.40746692 ], [ 20.31556114, 48.40746838 ], [ 20.31571924, 48.40746928 ], [ 20.31592094, 48.40748532 ] ] ] } },
{ "type": "Feature", "properties": { "@featureType": "CadastralParcel", "areaValue": { "value": 8138, "@uom": "m2" }, "beginLifespanVersion": { "@nilReason": "http://inspire.ec.europa.eu/codelist/VoidReasonValue/Unpopulated", "@nil": "true" }, "endLifespanVersion": { "@nilReason": "http://inspire.ec.europa.eu/codelist/VoidReasonValue/Unpopulated", "@nil": "true" }, "inspireId": { "@dataType": "Identifier", "localId": "860123_2302.C", "namespace": "SK.ESKN.CP", "versionId": "20260703T04:07:53" }, "label": "2302", "nationalCadastralReference": "860123_2302.C", "referencePoint": { "type": "Point", "coordinates": [ 20.3243999, 48.42211151 ] }, "validFrom": "2026-06-30T16:00:00Z", "validTo": { "@nilReason": "http://inspire.ec.europa.eu/codelist/VoidReasonValue/Unpopulated", "@nil": "true" }, "administrativeUnit": { "@href": "#auAdmUnitS.1834" } }, "geometry": { "type": "Polygon", "coordinates": [ [ [ 20.32449343, 48.42269433 ], [ 20.32449367, 48.42265037 ], [ 20.32449464, 48.42260428 ], [ 20.32449509, 48.42256393 ], [ 20.32449524, 48.42241699 ], [ 20.32449596, 48.42227278 ], [ 20.32449598, 48.42226954 ], [ 20.32449643, 48.42224298 ], [ 20.32449665, 48.42218244 ], [ 20.32449669, 48.4221774 ], [ 20.32449663, 48.42214442 ], [ 20.32449664, 48.42214433 ], [ 20.32449784, 48.4220787 ], [ 20.32449728, 48.42193975 ], [ 20.324496, 48.42161021 ], [ 20.32449573, 48.42154281 ], [ 20.32445062, 48.4215433 ], [ 20.32435167, 48.42154032 ], [ 20.32430172, 48.42153881 ], [ 20.32394008, 48.4215476 ], [ 20.32386349, 48.42154892 ], [ 20.32383041, 48.42154951 ], [ 20.32378445, 48.42155032 ], [ 20.32377022, 48.42155057 ], [ 20.32376046, 48.42155073 ], [ 20.32369281, 48.42155195 ], [ 20.32367559, 48.42155227 ], [ 20.323652, 48.42155269 ], [ 20.32344964, 48.42155728 ], [ 20.32340651, 48.42155829 ], [ 20.32337179, 48.42155909 ], [ 20.32284735, 48.42157059 ], [ 20.32282809, 48.42157101 ], [ 20.32277073, 48.42157227 ], [ 20.32274088, 48.42157308 ], [ 20.32205859, 48.42158793 ], [ 20.32202278, 48.42158869 ], [ 20.32199654, 48.42158856 ], [ 20.32206645, 48.42181546 ], [ 20.3220685, 48.42180915 ], [ 20.32207231, 48.42180434 ], [ 20.32207834, 48.42179899 ], [ 20.32208532, 48.42179503 ], [ 20.32209393, 48.42179258 ], [ 20.32255247, 48.42173498 ], [ 20.32274274, 48.421711 ], [ 20.32429934, 48.42167881 ], [ 20.32430532, 48.42248135 ], [ 20.32364135, 48.4224772 ], [ 20.32281508, 48.42247308 ], [ 20.32238725, 48.4225308 ], [ 20.32236987, 48.42253291 ], [ 20.32235979, 48.42253369 ], [ 20.32234753, 48.42253303 ], [ 20.3223387, 48.42253187 ], [ 20.32233017, 48.42253027 ], [ 20.32232307, 48.42252801 ], [ 20.32231735, 48.42252526 ], [ 20.32237209, 48.42269283 ], [ 20.32232859, 48.42269031 ], [ 20.32234303, 48.42272899 ], [ 20.32237889, 48.42272148 ], [ 20.32241366, 48.42273239 ], [ 20.32244035, 48.42271227 ], [ 20.32280027, 48.42270765 ], [ 20.3228404, 48.42270688 ], [ 20.32298842, 48.42270458 ], [ 20.32312618, 48.42270187 ], [ 20.32323357, 48.42269978 ], [ 20.3233194, 48.4226981 ], [ 20.32336708, 48.42269781 ], [ 20.32362638, 48.42269375 ], [ 20.32366919, 48.42269335 ], [ 20.32367948, 48.42269322 ], [ 20.3241151, 48.4226867 ], [ 20.32415022, 48.42268609 ], [ 20.32415956, 48.42268601 ], [ 20.32431028, 48.42268372 ], [ 20.32437169, 48.4226873 ], [ 20.32446178, 48.42269255 ], [ 20.32449343, 48.42269433 ] ] ] } },
{ "type": "Feature", "properties": { "@featureType": "CadastralParcel", "areaValue": { "value": 32611, "@uom": "m2" }, "beginLifespanVersion": { "@nilReason": "http://inspire.ec.europa.eu/codelist/VoidReasonValue/Unpopulated", "@nil": "true" }, "endLifespanVersion": { "@nilReason": "http://inspire.ec.europa.eu/codelist/VoidReasonValue/Unpopulated", "@nil": "true" }, "inspireId": { "@dataType": "Identifier", "localId": "860123_542/6.C", "namespace": "SK.ESKN.CP", "versionId": "20260703T04:07:53" }, "label": "542/6", "nationalCadastralReference": "860123_542/6.C", "referencePoint": { "type": "Point", "coordinates": [ 20.31106553, 48.40783086 ] }, "validFrom": "2026-06-30T16:00:00Z", "validTo": { "@nilReason": "http://inspire.ec.europa.eu/codelist/VoidReasonValue/Unpopulated", "@nil": "true" }, "administrativeUnit": { "@href": "#auAdmUnitS.1834" } }, "geometry": { "type": "Polygon", "coordinates": [ [ [ 20.31099742, 48.40665652 ], [ 20.3107774, 48.40737756 ], [ 20.31061297, 48.40787635 ], [ 20.31043897, 48.40852703 ], [ 20.31043816, 48.40883648 ], [ 20.31050216, 48.40902712 ], [ 20.31198697, 48.4089794 ], [ 20.31261487, 48.40893671 ], [ 20.3130003, 48.40890736 ], [ 20.31322687, 48.40846768 ], [ 20.31300443, 48.40847343 ], [ 20.31300184, 48.40835008 ], [ 20.31317333, 48.40834358 ], [ 20.31317259, 48.40832905 ], [ 20.31317031, 48.40828607 ], [ 20.31323522, 48.40828655 ], [ 20.31325903, 48.40828668 ], [ 20.31324991, 48.40819424 ], [ 20.31319132, 48.40816211 ], [ 20.31318616, 48.4081593 ], [ 20.31318373, 48.4081501 ], [ 20.31293695, 48.40816941 ], [ 20.31288492, 48.40813348 ], [ 20.31282817, 48.40770852 ], [ 20.31280356, 48.40765953 ], [ 20.31276582, 48.4076166 ], [ 20.31270028, 48.40757447 ], [ 20.31238071, 48.40742739 ], [ 20.31213224, 48.40736518 ], [ 20.31175553, 48.40728567 ], [ 20.31170789, 48.40743209 ], [ 20.31160222, 48.40742127 ], [ 20.31149386, 48.40847312 ], [ 20.31137711, 48.40845132 ], [ 20.31141228, 48.40816178 ], [ 20.31147221, 48.40815441 ], [ 20.31154319, 48.40741093 ], [ 20.31097634, 48.4073316 ], [ 20.3110651, 48.40706336 ], [ 20.31155142, 48.40713213 ], [ 20.31156881, 48.40710849 ], [ 20.31155742, 48.40668792 ], [ 20.31110143, 48.40663728 ], [ 20.31099742, 48.40665652 ] ], [ [ 20.31197389, 48.40879437 ], [ 20.31205768, 48.40879866 ], [ 20.31205273, 48.40883919 ], [ 20.31196923, 48.40883473 ], [ 20.31197389, 48.40879437 ] ], [ [ 20.31203329, 48.4086175 ], [ 20.31211547, 48.40862164 ], [ 20.31210968, 48.40867321 ], [ 20.31212315, 48.40867392 ], [ 20.31211899, 48.40871016 ], [ 20.31210551, 48.40870954 ], [ 20.31209962, 48.40876066 ], [ 20.31201745, 48.40875644 ], [ 20.31202333, 48.40870541 ], [ 20.31200972, 48.40870469 ], [ 20.31201402, 48.40866846 ], [ 20.31202751, 48.40866899 ], [ 20.31203329, 48.4086175 ] ], [ [ 20.31174762, 48.40851689 ], [ 20.31194934, 48.40849302 ], [ 20.31197048, 48.40858116 ], [ 20.31177113, 48.40860278 ], [ 20.31174762, 48.40851689 ] ], [ [ 20.31255801, 48.4075841 ], [ 20.31259256, 48.40754555 ], [ 20.31266033, 48.40757632 ], [ 20.31262516, 48.40761431 ], [ 20.31255801, 48.4075841 ] ], [ [ 20.31207814, 48.40746396 ], [ 20.31214092, 48.40746408 ], [ 20.31214061, 48.40751939 ], [ 20.31207783, 48.40751935 ], [ 20.31207814, 48.40746396 ] ], [ [ 20.31220135, 48.40752719 ], [ 20.31226412, 48.40752894 ], [ 20.31226071, 48.40758421 ], [ 20.31219783, 48.40758219 ], [ 20.31220135, 48.40752719 ] ], [ [ 20.3123246, 48.40759159 ], [ 20.31238819, 48.40759328 ], [ 20.31238544, 48.40764867 ], [ 20.31232291, 48.4076472 ], [ 20.3123246, 48.40759159 ] ], [ [ 20.31244228, 48.40765316 ], [ 20.31250532, 48.40765636 ], [ 20.31249989, 48.40771146 ], [ 20.31243615, 48.40770851 ], [ 20.31244228, 48.40765316 ] ], [ [ 20.31254536, 48.40770695 ], [ 20.31260738, 48.40770948 ], [ 20.31260269, 48.40776533 ], [ 20.31253958, 48.40776294 ], [ 20.31254536, 48.40770695 ] ], [ [ 20.31243816, 48.40777733 ], [ 20.3125012, 48.40778062 ], [ 20.31249456, 48.40783568 ], [ 20.31243189, 48.40783276 ], [ 20.31243816, 48.40777733 ] ], [ [ 20.31233126, 48.40784746 ], [ 20.31239415, 48.40785245 ], [ 20.31238512, 48.40790688 ], [ 20.31232256, 48.40790279 ], [ 20.31233126, 48.40784746 ] ], [ [ 20.31257322, 48.40791905 ], [ 20.31263512, 48.40792599 ], [ 20.31262149, 48.4079805 ], [ 20.31255945, 48.40797365 ], [ 20.31257322, 48.40791905 ] ], [ [ 20.31264725, 48.40801044 ], [ 20.31270969, 48.40801442 ], [ 20.31270183, 48.40806943 ], [ 20.31263922, 48.40806589 ], [ 20.31264725, 48.40801044 ] ], [ [ 20.31255869, 48.40807984 ], [ 20.3126202, 48.40808812 ], [ 20.31260389, 48.40814234 ], [ 20.3125422, 48.40813451 ], [ 20.31255869, 48.40807984 ] ], [ [ 20.31246106, 48.40815375 ], [ 20.31252326, 48.40815881 ], [ 20.31251268, 48.40821399 ], [ 20.31245055, 48.40820812 ], [ 20.31246106, 48.40815375 ] ], [ [ 20.31235572, 48.40823827 ], [ 20.31241743, 48.4082443 ], [ 20.31240581, 48.40829907 ], [ 20.3123435, 48.40829364 ], [ 20.31235572, 48.40823827 ] ], [ [ 20.31220277, 48.40828135 ], [ 20.31226409, 48.40828728 ], [ 20.31225204, 48.4083423 ], [ 20.31218978, 48.40833625 ], [ 20.31220277, 48.40828135 ] ], [ [ 20.31213529, 48.40819248 ], [ 20.31219661, 48.40820137 ], [ 20.31217882, 48.40825545 ], [ 20.31211734, 48.40824682 ], [ 20.31213529, 48.40819248 ] ], [ [ 20.31205781, 48.4081033 ], [ 20.31211994, 48.40810925 ], [ 20.31210804, 48.40816401 ], [ 20.31204484, 48.40815792 ], [ 20.31205781, 48.4081033 ] ], [ [ 20.31199101, 48.40801426 ], [ 20.31205342, 48.40802159 ], [ 20.31203763, 48.40807601 ], [ 20.31197596, 48.408068 ], [ 20.31199101, 48.40801426 ] ], [ [ 20.31177339, 48.40797345 ], [ 20.31183585, 48.40797717 ], [ 20.31182847, 48.40803283 ], [ 20.31176587, 48.40802919 ], [ 20.31177339, 48.40797345 ] ], [ [ 20.31188654, 48.40790303 ], [ 20.31194893, 48.40790747 ], [ 20.31194111, 48.40796203 ], [ 20.31187848, 48.40795875 ], [ 20.31188654, 48.40790303 ] ], [ [ 20.31200759, 48.40782896 ], [ 20.31206961, 48.40783311 ], [ 20.31206103, 48.40788854 ], [ 20.31199866, 48.40788384 ], [ 20.31200759, 48.40782896 ] ], [ [ 20.3119185, 48.40774716 ], [ 20.31198069, 48.40775087 ], [ 20.31197477, 48.40780541 ], [ 20.31191211, 48.40780241 ], [ 20.3119185, 48.40774716 ] ], [ [ 20.31182975, 48.40766465 ], [ 20.31189255, 48.40766748 ], [ 20.31188684, 48.40772276 ], [ 20.31182416, 48.40771993 ], [ 20.31182975, 48.40766465 ] ], [ [ 20.311748, 48.40758089 ], [ 20.31181028, 48.40758667 ], [ 20.31179879, 48.40764145 ], [ 20.3117365, 48.40763576 ], [ 20.311748, 48.40758089 ] ], [ [ 20.31163286, 48.40785521 ], [ 20.31169338, 48.40785939 ], [ 20.31168715, 48.40790987 ], [ 20.31162419, 48.40791325 ], [ 20.31163286, 48.40785521 ] ] ] } }
]
}
