{
"type": "FeatureCollection",
"name": "gis",
"crs": { "type": "name", "properties": { "name": "urn:ogc:def:crs:OGC:1.3:CRS84" } },
"features": [
{ "type": "Feature", "properties": { "place_id": 23704283, "osm_type": "relation", "osm_id": 172055, "place_rank": 30, "category": "military", "type": "office", "importance": 0.45975603928747438, "addresstype": "military", "name": "R1", "display_name": "R1, Constitution Avenue, Parliamentary Triangle, Russell, Canberra, District of Canberra Central, Teritórium hlavného mesta Austrálie, 2612, Austrália" }, "geometry": { "type": "Polygon", "coordinates": [ [ [ 149.1514594, -35.2965227 ], [ 149.1515051, -35.2966013 ], [ 149.1515522, -35.2966821 ], [ 149.1516176, -35.2967959 ], [ 149.151663899999988, -35.2968756 ], [ 149.15170280000001, -35.2969426 ], [ 149.1516849, -35.2969494 ], [ 149.151832, -35.297203 ], [ 149.1524181, -35.2969742 ], [ 149.1524025, -35.2969467 ], [ 149.1523764, -35.2969006 ], [ 149.1524052, -35.2968892 ], [ 149.152404100000012, -35.2968595 ], [ 149.1524033, -35.2968346 ], [ 149.1524029, -35.2968158 ], [ 149.1524032, -35.2967915 ], [ 149.1524038, -35.2967709 ], [ 149.1524052, -35.29675 ], [ 149.1524068, -35.2967326 ], [ 149.1524095, -35.2967089 ], [ 149.1524129, -35.2966866 ], [ 149.1524173, -35.2966647 ], [ 149.152423199999987, -35.2966403 ], [ 149.1524283, -35.2966203 ], [ 149.1524392, -35.2965817 ], [ 149.1524154, -35.2965661 ], [ 149.1524747, -35.2964999 ], [ 149.1518094, -35.2961032 ], [ 149.151728, -35.2961944 ], [ 149.1516842, -35.2962435 ], [ 149.1516631, -35.2962667 ], [ 149.1516062, -35.2963294 ], [ 149.151623699999988, -35.2963399 ], [ 149.1514594, -35.2965227 ] ], [ [ 149.1517603, -35.2965458 ], [ 149.151833900000014, -35.2964655 ], [ 149.1518484, -35.296475 ], [ 149.1519027, -35.2964128 ], [ 149.1521818, -35.2965802 ], [ 149.1521768, -35.2966007 ], [ 149.1521715, -35.2966257 ], [ 149.152166, -35.2966531 ], [ 149.1521616, -35.2966773 ], [ 149.1521583, -35.2967016 ], [ 149.152155099999987, -35.2967302 ], [ 149.152153, -35.2967609 ], [ 149.1521514, -35.2968075 ], [ 149.1521516, -35.2968498 ], [ 149.151993299999987, -35.2969119 ], [ 149.1519544, -35.2968448 ], [ 149.1519336, -35.2968533 ], [ 149.1517603, -35.2965458 ] ] ] } },
{ "type": "Feature", "properties": { "place_id": 51952329, "osm_type": "way", "osm_id": 1172012193, "place_rank": 30, "category": "amenity", "type": "post_office", "importance": 0.35528287435506273, "addresstype": "amenity", "name": "la poste", "display_name": "la poste, 01, Birkhadem ⴱⵉⵔ ⵅⴰⴷⴻⵎ بئر خادم, Bir Mourad Raïs, Alžír, 16029, Alžírsko" }, "geometry": { "type": "Polygon", "coordinates": [ [ [ 3.0479962, 36.7148602 ], [ 3.0479985, 36.7147657 ], [ 3.0480709, 36.7147668 ], [ 3.0480685, 36.7148614 ], [ 3.0479962, 36.7148602 ] ] ] } },
{ "type": "Feature", "properties": { "place_id": 100297871, "osm_type": "way", "osm_id": 151942966, "place_rank": 30, "category": "amenity", "type": "university", "importance": 0.39022041580958405, "addresstype": "amenity", "name": "Ravensbourne University London", "display_name": "Ravensbourne University London, 6, Penrose Way, Greenwich Peninsula, Royal Borough of Greenwich, Londýn, Anglicko, SE10 0EW, Spojené kráľovstvo" }, "geometry": { "type": "Polygon", "coordinates": [ [ [ 0.0051439, 51.5015437 ], [ 0.0052812, 51.501258 ], [ 0.0053858, 51.501288 ], [ 0.0058418, 51.5014933 ], [ 0.0059866, 51.5016105 ], [ 0.0062039, 51.5019177 ], [ 0.0058617, 51.5021204 ], [ 0.0057911, 51.5020459 ], [ 0.005619, 51.5018092 ], [ 0.0055586, 51.5017373 ], [ 0.0054905, 51.5017058 ], [ 0.0051439, 51.5015437 ] ] ] } }
]
}
