{
"type": "FeatureCollection",
"name": "gis",
"crs": { "type": "name", "properties": { "name": "urn:ogc:def:crs:OGC:1.3:CRS84" } },
"features": [
{ "type": "Feature", "properties": { "@featureType": "CadastralParcel", "areaValue": { "value": 4300, "@uom": "m2" }, "beginLifespanVersion": { "@nilReason": "http://inspire.ec.europa.eu/codelist/VoidReasonValue/Unpopulated", "@nil": "true" }, "endLifespanVersion": { "@nilReason": "http://inspire.ec.europa.eu/codelist/VoidReasonValue/Unpopulated", "@nil": "true" }, "inspireId": { "@dataType": "Identifier", "localId": "837075_1290/1.C", "namespace": "SK.ESKN.CP", "versionId": "20261005T07:10:24" }, "label": "1290/1", "nationalCadastralReference": "837075_1290/1.C", "referencePoint": { "type": "Point", "coordinates": [ 21.92841883, 48.76043877 ] }, "validFrom": "2026-09-30T16:00:00Z", "validTo": { "@nilReason": "http://inspire.ec.europa.eu/codelist/VoidReasonValue/Unpopulated", "@nil": "true" }, "administrativeUnit": { "@href": "#auAdmUnitS.2187" } }, "geometry": { "type": "Polygon", "coordinates": [ [ [ 21.92746629, 48.76086134 ], [ 21.92775566, 48.76084286 ], [ 21.92776694, 48.76084314 ], [ 21.92803046, 48.76081717 ], [ 21.92825522, 48.76080013 ], [ 21.92830743, 48.76079649 ], [ 21.92852746, 48.7607813 ], [ 21.92855469, 48.76078117 ], [ 21.92864788, 48.76077748 ], [ 21.92880977, 48.76076714 ], [ 21.92889199, 48.76075282 ], [ 21.92882653, 48.76025162 ], [ 21.9287478, 48.76025504 ], [ 21.92797044, 48.76029252 ], [ 21.92800294, 48.76058501 ], [ 21.92790292, 48.76059402 ], [ 21.92790655, 48.76062084 ], [ 21.92791017, 48.76064793 ], [ 21.9279137, 48.7606743 ], [ 21.92791753, 48.76070239 ], [ 21.92792155, 48.760732 ], [ 21.92792554, 48.76075964 ], [ 21.92784059, 48.76076471 ], [ 21.92783712, 48.76073736 ], [ 21.9278331, 48.76070774 ], [ 21.92782927, 48.76067965 ], [ 21.92782562, 48.76065301 ], [ 21.92782199, 48.76062619 ], [ 21.92781835, 48.76059937 ], [ 21.92766158, 48.7606129 ], [ 21.92766455, 48.76063467 ], [ 21.92766819, 48.7606614 ], [ 21.92767194, 48.76068867 ], [ 21.92767566, 48.7607163 ], [ 21.92767959, 48.76074511 ], [ 21.92759479, 48.76075207 ], [ 21.92759085, 48.76072344 ], [ 21.927587, 48.76069563 ], [ 21.92758313, 48.76066817 ], [ 21.92757948, 48.76064162 ], [ 21.92757649, 48.76062022 ], [ 21.9275479, 48.76062265 ], [ 21.92759227, 48.76083642 ], [ 21.92746415, 48.7608441 ], [ 21.92746629, 48.76086134 ] ], [ [ 21.92793053, 48.76079613 ], [ 21.92784556, 48.76080147 ], [ 21.92784136, 48.76077013 ], [ 21.9279262, 48.76076479 ], [ 21.92792934, 48.76078836 ], [ 21.92793053, 48.76079613 ] ] ] } },
{ "type": "Feature", "properties": { "@featureType": "CadastralParcel", "areaValue": { "value": 5724, "@uom": "m2" }, "beginLifespanVersion": { "@nilReason": "http://inspire.ec.europa.eu/codelist/VoidReasonValue/Unpopulated", "@nil": "true" }, "endLifespanVersion": { "@nilReason": "http://inspire.ec.europa.eu/codelist/VoidReasonValue/Unpopulated", "@nil": "true" }, "inspireId": { "@dataType": "Identifier", "localId": "837075_1284.C", "namespace": "SK.ESKN.CP", "versionId": "20261005T07:10:24" }, "label": "1284", "nationalCadastralReference": "837075_1284.C", "referencePoint": { "type": "Point", "coordinates": [ 21.92955303, 48.76000694 ] }, "validFrom": "2026-09-30T16:00:00Z", "validTo": { "@nilReason": "http://inspire.ec.europa.eu/codelist/VoidReasonValue/Unpopulated", "@nil": "true" }, "administrativeUnit": { "@href": "#auAdmUnitS.2187" } }, "geometry": { "type": "Polygon", "coordinates": [ [ [ 21.9289635, 48.76019412 ], [ 21.92900645, 48.76047535 ], [ 21.92915674, 48.76046328 ], [ 21.92915513, 48.76044632 ], [ 21.92930582, 48.76042967 ], [ 21.92930811, 48.7604443 ], [ 21.9296217, 48.76040689 ], [ 21.92959503, 48.76019537 ], [ 21.92983844, 48.7601877 ], [ 21.92981332, 48.76010823 ], [ 21.93002762, 48.76009317 ], [ 21.92994329, 48.75953624 ], [ 21.92988995, 48.75953607 ], [ 21.92989034, 48.75950071 ], [ 21.92987565, 48.75950052 ], [ 21.92987586, 48.75945652 ], [ 21.92989083, 48.75945654 ], [ 21.929891, 48.75944412 ], [ 21.92985104, 48.75944537 ], [ 21.92976173, 48.75943377 ], [ 21.92967278, 48.75944198 ], [ 21.92969942, 48.75950691 ], [ 21.92971637, 48.75963153 ], [ 21.92965076, 48.75963618 ], [ 21.92966006, 48.75966395 ], [ 21.92960078, 48.75967462 ], [ 21.92942213, 48.7596876 ], [ 21.92934121, 48.75969349 ], [ 21.92931474, 48.75953543 ], [ 21.92916967, 48.75954682 ], [ 21.9292324, 48.75991521 ], [ 21.92919204, 48.75991636 ], [ 21.92907854, 48.7599398 ], [ 21.92910446, 48.76007409 ], [ 21.9290611, 48.76007777 ], [ 21.92902105, 48.75982667 ], [ 21.92898244, 48.75982579 ], [ 21.92889194, 48.75982542 ], [ 21.92894599, 48.76008641 ], [ 21.9289635, 48.76019412 ] ] ] } },
{ "type": "Feature", "properties": { "@featureType": "CadastralParcel", "areaValue": { "value": 40610, "@uom": "m2" }, "beginLifespanVersion": { "@nilReason": "http://inspire.ec.europa.eu/codelist/VoidReasonValue/Unpopulated", "@nil": "true" }, "endLifespanVersion": { "@nilReason": "http://inspire.ec.europa.eu/codelist/VoidReasonValue/Unpopulated", "@nil": "true" }, "inspireId": { "@dataType": "Identifier", "localId": "836915_9382/1.E", "namespace": "SK.ESKN.CP", "versionId": "20261005T07:10:41" }, "label": "9382/1", "nationalCadastralReference": "836915_9382/1.E", "referencePoint": { "type": "Point", "coordinates": [ 21.92877049, 48.75151295 ] }, "validFrom": "2026-09-30T16:00:00Z", "validTo": { "@nilReason": "http://inspire.ec.europa.eu/codelist/VoidReasonValue/Unpopulated", "@nil": "true" }, "administrativeUnit": { "@href": "#auAdmUnitS.2187" } }, "geometry": { "type": "Polygon", "coordinates": [ [ [ 21.93594848, 48.74536694 ], [ 21.93571038, 48.74542578 ], [ 21.93550148, 48.74550929 ], [ 21.93533829, 48.74560015 ], [ 21.93518265, 48.74569471 ], [ 21.93454237, 48.74613992 ], [ 21.93303008, 48.74719327 ], [ 21.93265662, 48.74745076 ], [ 21.93181869, 48.74802672 ], [ 21.93170513, 48.74811099 ], [ 21.93161813, 48.74817828 ], [ 21.93149723, 48.74828136 ], [ 21.93095598, 48.74886151 ], [ 21.93085249, 48.74897663 ], [ 21.93028255, 48.749606 ], [ 21.92972726, 48.75022898 ], [ 21.92959655, 48.75038914 ], [ 21.92949521, 48.75050701 ], [ 21.92913551, 48.75091306 ], [ 21.92888511, 48.75121897 ], [ 21.92860582, 48.75155891 ], [ 21.92823478, 48.75202955 ], [ 21.92762663, 48.75283038 ], [ 21.92719284, 48.75338387 ], [ 21.92715108, 48.75343097 ], [ 21.9270417, 48.75357006 ], [ 21.92688171, 48.75373272 ], [ 21.92676524, 48.75381511 ], [ 21.92664631, 48.75388574 ], [ 21.92646422, 48.75395434 ], [ 21.92625897, 48.75396395 ], [ 21.92600572, 48.7539585 ], [ 21.92565844, 48.75395032 ], [ 21.92466351, 48.75391491 ], [ 21.92460329, 48.7539089 ], [ 21.92460189, 48.7539167 ], [ 21.92456878, 48.75391497 ], [ 21.92457043, 48.7539052 ], [ 21.92453456, 48.75390412 ], [ 21.92434383, 48.75393578 ], [ 21.92430124, 48.7539996 ], [ 21.92405301, 48.75476481 ], [ 21.92373481, 48.75575271 ], [ 21.92348512, 48.75646722 ], [ 21.92319768, 48.75699529 ], [ 21.92311346, 48.75711557 ], [ 21.92288043, 48.75749472 ], [ 21.92284771, 48.75752171 ], [ 21.9227865, 48.75752098 ], [ 21.92217659, 48.75748748 ], [ 21.92199623, 48.75746864 ], [ 21.92176075, 48.75742853 ], [ 21.92124783, 48.75732502 ], [ 21.9210582, 48.75728047 ], [ 21.92087348, 48.75722858 ], [ 21.92061584, 48.75715002 ], [ 21.91924381, 48.75670766 ], [ 21.91770304, 48.75623675 ], [ 21.91641526, 48.75588503 ], [ 21.91569545, 48.75566388 ], [ 21.91553226, 48.75563313 ], [ 21.915478, 48.75562286 ], [ 21.91428771, 48.7553561 ], [ 21.91377402, 48.755224 ], [ 21.91358756, 48.75516018 ], [ 21.91354746, 48.75514027 ], [ 21.91353699, 48.75515899 ], [ 21.91352399, 48.75518144 ], [ 21.91348649, 48.75524889 ], [ 21.91355698, 48.75527973 ], [ 21.91382786, 48.75536449 ], [ 21.9145944, 48.75555147 ], [ 21.91468274, 48.75557502 ], [ 21.91540046, 48.75574735 ], [ 21.91560574, 48.75580121 ], [ 21.91563541, 48.75581068 ], [ 21.91646526, 48.75603542 ], [ 21.91762122, 48.75634349 ], [ 21.91916411, 48.75680835 ], [ 21.9205323, 48.75725124 ], [ 21.92078969, 48.75733411 ], [ 21.92099973, 48.75739312 ], [ 21.92122442, 48.75744574 ], [ 21.92179445, 48.75755033 ], [ 21.92198176, 48.75757601 ], [ 21.92220945, 48.75760494 ], [ 21.92277061, 48.75763164 ], [ 21.92286797, 48.75764281 ], [ 21.92299116, 48.75758354 ], [ 21.92303226, 48.75754578 ], [ 21.92310262, 48.75747006 ], [ 21.92328919, 48.75716993 ], [ 21.92350798, 48.75684415 ], [ 21.92366731, 48.75662236 ], [ 21.92372741, 48.75643388 ], [ 21.92396239, 48.755729 ], [ 21.9242719, 48.75478794 ], [ 21.92450629, 48.75409303 ], [ 21.92454864, 48.75405719 ], [ 21.9246059, 48.75405314 ], [ 21.92482376, 48.75405618 ], [ 21.92495642, 48.75405699 ], [ 21.92528995, 48.75406041 ], [ 21.92558263, 48.75406416 ], [ 21.92571397, 48.75406655 ], [ 21.92592754, 48.75407083 ], [ 21.92607043, 48.75407361 ], [ 21.92625291, 48.75407899 ], [ 21.9264015, 48.75407246 ], [ 21.92646141, 48.75406974 ], [ 21.92659137, 48.75403916 ], [ 21.9266922, 48.75400407 ], [ 21.92686364, 48.7539433 ], [ 21.92690929, 48.75391376 ], [ 21.92714488, 48.75372177 ], [ 21.9271573, 48.75371164 ], [ 21.92734424, 48.75351582 ], [ 21.92735439, 48.75350266 ], [ 21.92743611, 48.75339951 ], [ 21.92744555, 48.75338678 ], [ 21.92746309, 48.75336338 ], [ 21.9275894, 48.75320185 ], [ 21.92768077, 48.75308004 ], [ 21.92777711, 48.75296177 ], [ 21.9278756, 48.75282961 ], [ 21.92788829, 48.75281246 ], [ 21.92795578, 48.75272254 ], [ 21.92798265, 48.75268587 ], [ 21.92799972, 48.75266362 ], [ 21.92801913, 48.75263836 ], [ 21.92808416, 48.75255333 ], [ 21.92809166, 48.75254353 ], [ 21.92811301, 48.75251544 ], [ 21.92817278, 48.75243676 ], [ 21.92820232, 48.75239619 ], [ 21.92822742, 48.75236442 ], [ 21.92829596, 48.75227281 ], [ 21.92833862, 48.7522171 ], [ 21.92840522, 48.75213084 ], [ 21.92845377, 48.75206978 ], [ 21.92852127, 48.75197968 ], [ 21.92854691, 48.7519454 ], [ 21.92856578, 48.75192013 ], [ 21.92863099, 48.75183906 ], [ 21.92865759, 48.75180481 ], [ 21.9286996, 48.75175331 ], [ 21.92878007, 48.75165534 ], [ 21.92881413, 48.75161435 ], [ 21.92883596, 48.75158726 ], [ 21.9289354, 48.751467 ], [ 21.9289781, 48.75141543 ], [ 21.92898195, 48.75141003 ], [ 21.92898623, 48.7514042 ], [ 21.92903278, 48.75134471 ], [ 21.92904922, 48.75132379 ], [ 21.92918442, 48.75117329 ], [ 21.92932413, 48.75101759 ], [ 21.9293945, 48.75093917 ], [ 21.92946254, 48.7508633 ], [ 21.92960254, 48.75070724 ], [ 21.92990621, 48.7503456 ], [ 21.92996798, 48.7502675 ], [ 21.93067502, 48.74949002 ], [ 21.93099463, 48.74913237 ], [ 21.93116016, 48.74895815 ], [ 21.93159969, 48.74847409 ], [ 21.93161642, 48.74845534 ], [ 21.93175018, 48.7483272 ], [ 21.93193141, 48.74819243 ], [ 21.93196749, 48.74816606 ], [ 21.93198479, 48.7481539 ], [ 21.93278584, 48.74756604 ], [ 21.93378444, 48.74691436 ], [ 21.93472867, 48.74625411 ], [ 21.93520254, 48.74593226 ], [ 21.93537212, 48.74581537 ], [ 21.93556273, 48.7457089 ], [ 21.93569237, 48.745655 ], [ 21.93601742, 48.74555108 ], [ 21.93621247, 48.74548846 ], [ 21.93631207, 48.74547205 ], [ 21.93633787, 48.74546343 ], [ 21.93651376, 48.74544551 ], [ 21.93708957, 48.74541122 ], [ 21.93708542, 48.74539815 ], [ 21.93713977, 48.74539483 ], [ 21.93716722, 48.74539309 ], [ 21.9371997, 48.74536285 ], [ 21.93720122, 48.74534345 ], [ 21.93623548, 48.7453311 ], [ 21.93615485, 48.74532998 ], [ 21.9361345, 48.74533361 ], [ 21.93594848, 48.74536694 ] ] ] } },
{ "type": "Feature", "properties": { "@featureType": "CadastralParcel", "areaValue": { "value": 3852, "@uom": "m2" }, "beginLifespanVersion": { "@nilReason": "http://inspire.ec.europa.eu/codelist/VoidReasonValue/Unpopulated", "@nil": "true" }, "endLifespanVersion": { "@nilReason": "http://inspire.ec.europa.eu/codelist/VoidReasonValue/Unpopulated", "@nil": "true" }, "inspireId": { "@dataType": "Identifier", "localId": "836915_2896.C", "namespace": "SK.ESKN.CP", "versionId": "20261005T07:10:41" }, "label": "2896", "nationalCadastralReference": "836915_2896.C", "referencePoint": { "type": "Point", "coordinates": [ 21.91111637, 48.75658265 ] }, "validFrom": "2026-09-30T16:00:00Z", "validTo": { "@nilReason": "http://inspire.ec.europa.eu/codelist/VoidReasonValue/Unpopulated", "@nil": "true" }, "administrativeUnit": { "@href": "#auAdmUnitS.2187" } }, "geometry": { "type": "Polygon", "coordinates": [ [ [ 21.91101401, 48.75680983 ], [ 21.91063372, 48.75659738 ], [ 21.91050728, 48.75669859 ], [ 21.91052692, 48.7567098 ], [ 21.91043408, 48.75678062 ], [ 21.91020184, 48.75664679 ], [ 21.91018128, 48.75666337 ], [ 21.91072828, 48.75695903 ], [ 21.91087341, 48.75703865 ], [ 21.91151311, 48.75642796 ], [ 21.91088033, 48.75611879 ], [ 21.91044476, 48.75645636 ], [ 21.91041142, 48.75648225 ], [ 21.91048532, 48.75652236 ], [ 21.9104943, 48.75652718 ], [ 21.91053129, 48.75650183 ], [ 21.91064984, 48.75656791 ], [ 21.91073237, 48.75650115 ], [ 21.91073784, 48.75650299 ], [ 21.91078261, 48.75646785 ], [ 21.91084972, 48.75650789 ], [ 21.91087177, 48.75649134 ], [ 21.91088746, 48.75650245 ], [ 21.91082528, 48.75655164 ], [ 21.91103742, 48.75666831 ], [ 21.91109834, 48.75661972 ], [ 21.91111632, 48.75663124 ], [ 21.91109657, 48.75664569 ], [ 21.91116601, 48.75668298 ], [ 21.91112478, 48.75671587 ], [ 21.91112928, 48.75671815 ], [ 21.91101401, 48.75680983 ] ] ] } }
]
}
