{
"type": "FeatureCollection",
"name": "gis",
"crs": { "type": "name", "properties": { "name": "urn:ogc:def:crs:OGC:1.3:CRS84" } },
"features": [
{ "type": "Feature", "properties": { "@featureType": "CadastralParcel", "areaValue": { "value": 465, "@uom": "m2" }, "beginLifespanVersion": { "@nilReason": "http://inspire.ec.europa.eu/codelist/VoidReasonValue/Unpopulated", "@nil": "true" }, "endLifespanVersion": { "@nilReason": "http://inspire.ec.europa.eu/codelist/VoidReasonValue/Unpopulated", "@nil": "true" }, "inspireId": { "@dataType": "Identifier", "localId": "858544_46.C", "namespace": "SK.ESKN.CP", "versionId": "20260703T06:07:18" }, "label": "46", "nationalCadastralReference": "858544_46.C", "referencePoint": { "type": "Point", "coordinates": [ 20.25064482, 49.12769618 ] }, "validFrom": "2026-06-30T16:00:00Z", "validTo": { "@nilReason": "http://inspire.ec.europa.eu/codelist/VoidReasonValue/Unpopulated", "@nil": "true" }, "administrativeUnit": { "@href": "#auAdmUnitS.2202" } }, "geometry": { "type": "Polygon", "coordinates": [ [ [ 20.25024689, 49.12761766 ], [ 20.25052582, 49.12769285 ], [ 20.25078656, 49.12776129 ], [ 20.25122039, 49.12787347 ], [ 20.25128765, 49.1277636 ], [ 20.25123095, 49.12774867 ], [ 20.25121741, 49.12776615 ], [ 20.25119807, 49.12778107 ], [ 20.25117396, 49.12779264 ], [ 20.25114635, 49.12780029 ], [ 20.25076379, 49.1276995 ], [ 20.25049918, 49.12762983 ], [ 20.25037492, 49.12759702 ], [ 20.25032303, 49.12752039 ], [ 20.25024689, 49.12761766 ] ] ] } },
{ "type": "Feature", "properties": { "@featureType": "CadastralParcel", "areaValue": { "value": 786, "@uom": "m2" }, "beginLifespanVersion": { "@nilReason": "http://inspire.ec.europa.eu/codelist/VoidReasonValue/Unpopulated", "@nil": "true" }, "endLifespanVersion": { "@nilReason": "http://inspire.ec.europa.eu/codelist/VoidReasonValue/Unpopulated", "@nil": "true" }, "inspireId": { "@dataType": "Identifier", "localId": "858544_51/3.C", "namespace": "SK.ESKN.CP", "versionId": "20260703T06:07:18" }, "label": "51/3", "nationalCadastralReference": "858544_51/3.C", "referencePoint": { "type": "Point", "coordinates": [ 20.25149149, 49.12781933 ] }, "validFrom": "2026-06-30T16:00:00Z", "validTo": { "@nilReason": "http://inspire.ec.europa.eu/codelist/VoidReasonValue/Unpopulated", "@nil": "true" }, "administrativeUnit": { "@href": "#auAdmUnitS.2202" } }, "geometry": { "type": "Polygon", "coordinates": [ [ [ 20.25166186, 49.12798765 ], [ 20.2516933, 49.12790934 ], [ 20.25170732, 49.12787449 ], [ 20.25171284, 49.12786066 ], [ 20.25174605, 49.127778 ], [ 20.25134023, 49.12767783 ], [ 20.25128765, 49.1277636 ], [ 20.25122039, 49.12787347 ], [ 20.25166186, 49.12798765 ] ] ] } },
{ "type": "Feature", "properties": { "@featureType": "CadastralParcel", "areaValue": { "value": 747, "@uom": "m2" }, "beginLifespanVersion": { "@nilReason": "http://inspire.ec.europa.eu/codelist/VoidReasonValue/Unpopulated", "@nil": "true" }, "endLifespanVersion": { "@nilReason": "http://inspire.ec.europa.eu/codelist/VoidReasonValue/Unpopulated", "@nil": "true" }, "inspireId": { "@dataType": "Identifier", "localId": "858544_51/1.C", "namespace": "SK.ESKN.CP", "versionId": "20260703T06:07:18" }, "label": "51/1", "nationalCadastralReference": "858544_51/1.C", "referencePoint": { "type": "Point", "coordinates": [ 20.25057715, 49.12753367 ] }, "validFrom": "2026-06-30T16:00:00Z", "validTo": { "@nilReason": "http://inspire.ec.europa.eu/codelist/VoidReasonValue/Unpopulated", "@nil": "true" }, "administrativeUnit": { "@href": "#auAdmUnitS.2202" } }, "geometry": { "type": "Polygon", "coordinates": [ [ [ 20.25076379, 49.1276995 ], [ 20.25085704, 49.12754696 ], [ 20.2504302, 49.12738389 ], [ 20.25034943, 49.12748674 ], [ 20.25033918, 49.12749985 ], [ 20.25032303, 49.12752039 ], [ 20.25037492, 49.12759702 ], [ 20.25049918, 49.12762983 ], [ 20.25076379, 49.1276995 ] ] ] } },
{ "type": "Feature", "properties": { "@featureType": "CadastralParcel", "areaValue": { "value": 629, "@uom": "m2" }, "beginLifespanVersion": { "@nilReason": "http://inspire.ec.europa.eu/codelist/VoidReasonValue/Unpopulated", "@nil": "true" }, "endLifespanVersion": { "@nilReason": "http://inspire.ec.europa.eu/codelist/VoidReasonValue/Unpopulated", "@nil": "true" }, "inspireId": { "@dataType": "Identifier", "localId": "858544_51/2.C", "namespace": "SK.ESKN.CP", "versionId": "20260703T06:07:18" }, "label": "51/2", "nationalCadastralReference": "858544_51/2.C", "referencePoint": { "type": "Point", "coordinates": [ 20.25097436, 49.12762886 ] }, "validFrom": "2026-06-30T16:00:00Z", "validTo": { "@nilReason": "http://inspire.ec.europa.eu/codelist/VoidReasonValue/Unpopulated", "@nil": "true" }, "administrativeUnit": { "@href": "#auAdmUnitS.2202" } }, "geometry": { "type": "Polygon", "coordinates": [ [ [ 20.25114635, 49.12780029 ], [ 20.25117396, 49.12779264 ], [ 20.25119807, 49.12778107 ], [ 20.25121741, 49.12776615 ], [ 20.25123095, 49.12774867 ], [ 20.25128765, 49.1277636 ], [ 20.25134023, 49.12767783 ], [ 20.25094326, 49.12757989 ], [ 20.25085704, 49.12754696 ], [ 20.25076379, 49.1276995 ], [ 20.25114635, 49.12780029 ] ] ] } }
]
}
