{
"type": "FeatureCollection",
"name": "gis",
"crs": { "type": "name", "properties": { "name": "urn:ogc:def:crs:OGC:1.3:CRS84" } },
"features": [
{ "type": "Feature", "properties": { "@featureType": "CadastralParcel", "areaValue": { "value": 2807, "@uom": "m2" }, "beginLifespanVersion": { "@nilReason": "http://inspire.ec.europa.eu/codelist/VoidReasonValue/Unpopulated", "@nil": "true" }, "endLifespanVersion": { "@nilReason": "http://inspire.ec.europa.eu/codelist/VoidReasonValue/Unpopulated", "@nil": "true" }, "inspireId": { "@dataType": "Identifier", "localId": "820610_6760.E", "namespace": "SK.ESKN.CP", "versionId": "20261005T09:10:23" }, "label": "6760", "nationalCadastralReference": "820610_6760.E", "referencePoint": { "type": "Point", "coordinates": [ 19.81055123, 49.0408718 ] }, "validFrom": "2026-09-30T16:00:00Z", "validTo": { "@nilReason": "http://inspire.ec.europa.eu/codelist/VoidReasonValue/Unpopulated", "@nil": "true" }, "administrativeUnit": { "@href": "#auAdmUnitS.2662" } }, "geometry": { "type": "Polygon", "coordinates": [ [ [ 19.80933318, 49.0406392 ], [ 19.80960273, 49.04071698 ], [ 19.80977855, 49.04076423 ], [ 19.81010208, 49.04083677 ], [ 19.81063262, 49.04095187 ], [ 19.81089469, 49.04100572 ], [ 19.81143959, 49.04109917 ], [ 19.81165075, 49.04113847 ], [ 19.81221255, 49.04121093 ], [ 19.81233822, 49.04122501 ], [ 19.81234342, 49.04118395 ], [ 19.81209923, 49.04114179 ], [ 19.81189034, 49.04108663 ], [ 19.81166929, 49.04102824 ], [ 19.81145594, 49.04097938 ], [ 19.81098147, 49.04090682 ], [ 19.81022162, 49.04072009 ], [ 19.80978508, 49.04062059 ], [ 19.80958672, 49.04057534 ], [ 19.80943869, 49.04054354 ], [ 19.80937583, 49.04060058 ], [ 19.80933318, 49.0406392 ] ] ] } },
{ "type": "Feature", "properties": { "@featureType": "CadastralParcel", "areaValue": { "value": 8924, "@uom": "m2" }, "beginLifespanVersion": { "@nilReason": "http://inspire.ec.europa.eu/codelist/VoidReasonValue/Unpopulated", "@nil": "true" }, "endLifespanVersion": { "@nilReason": "http://inspire.ec.europa.eu/codelist/VoidReasonValue/Unpopulated", "@nil": "true" }, "inspireId": { "@dataType": "Identifier", "localId": "820610_6813.E", "namespace": "SK.ESKN.CP", "versionId": "20261005T09:10:23" }, "label": "6813", "nationalCadastralReference": "820610_6813.E", "referencePoint": { "type": "Point", "coordinates": [ 19.80724942, 49.0400747 ] }, "validFrom": "2026-09-30T16:00:00Z", "validTo": { "@nilReason": "http://inspire.ec.europa.eu/codelist/VoidReasonValue/Unpopulated", "@nil": "true" }, "administrativeUnit": { "@href": "#auAdmUnitS.2662" } }, "geometry": { "type": "Polygon", "coordinates": [ [ [ 19.80819572, 49.03993346 ], [ 19.80815567, 49.03992542 ], [ 19.80798889, 49.03989208 ], [ 19.80790798, 49.03987732 ], [ 19.80781939, 49.03986115 ], [ 19.80768571, 49.03983672 ], [ 19.80763873, 49.03982812 ], [ 19.80733421, 49.03977116 ], [ 19.80688281, 49.0397148 ], [ 19.80686733, 49.039771 ], [ 19.80676403, 49.03995138 ], [ 19.80677699, 49.03996302 ], [ 19.80681864, 49.04000024 ], [ 19.80680418, 49.03999961 ], [ 19.80672652, 49.0400634 ], [ 19.80642373, 49.04002058 ], [ 19.80642265, 49.04006019 ], [ 19.80612368, 49.04010819 ], [ 19.80590583, 49.04019205 ], [ 19.8055205, 49.04025228 ], [ 19.8050003, 49.04025206 ], [ 19.80452595, 49.04021408 ], [ 19.80417652, 49.04011958 ], [ 19.80412474, 49.04010553 ], [ 19.80392046, 49.04005092 ], [ 19.80414461, 49.04016173 ], [ 19.80453171, 49.04030454 ], [ 19.80468789, 49.04034391 ], [ 19.80484317, 49.04037576 ], [ 19.80514223, 49.04039959 ], [ 19.80529643, 49.04039571 ], [ 19.80538319, 49.04039036 ], [ 19.80580057, 49.04036468 ], [ 19.8063107, 49.04024632 ], [ 19.80668566, 49.04024179 ], [ 19.80689106, 49.04025769 ], [ 19.80748036, 49.04031 ], [ 19.80815945, 49.04041584 ], [ 19.80823688, 49.04042838 ], [ 19.80822721, 49.04032486 ], [ 19.80821467, 49.04019103 ], [ 19.80813223, 49.04018333 ], [ 19.80809795, 49.04017797 ], [ 19.80810957, 49.04016324 ], [ 19.80815937, 49.040086 ], [ 19.80821465, 49.03999916 ], [ 19.80819572, 49.03993346 ] ] ] } },
{ "type": "Feature", "properties": { "@featureType": "CadastralParcel", "areaValue": { "value": 77147, "@uom": "m2" }, "beginLifespanVersion": { "@nilReason": "http://inspire.ec.europa.eu/codelist/VoidReasonValue/Unpopulated", "@nil": "true" }, "endLifespanVersion": { "@nilReason": "http://inspire.ec.europa.eu/codelist/VoidReasonValue/Unpopulated", "@nil": "true" }, "inspireId": { "@dataType": "Identifier", "localId": "820610_6852.E", "namespace": "SK.ESKN.CP", "versionId": "20261005T09:10:23" }, "label": "6852", "nationalCadastralReference": "820610_6852.E", "referencePoint": { "type": "Point", "coordinates": [ 19.80170121, 49.03849009 ] }, "validFrom": "2026-09-30T16:00:00Z", "validTo": { "@nilReason": "http://inspire.ec.europa.eu/codelist/VoidReasonValue/Unpopulated", "@nil": "true" }, "administrativeUnit": { "@href": "#auAdmUnitS.2662" } }, "geometry": { "type": "Polygon", "coordinates": [ [ [ 19.80392046, 49.04005092 ], [ 19.80412474, 49.04010553 ], [ 19.80417652, 49.04011958 ], [ 19.80452595, 49.04021408 ], [ 19.8050003, 49.04025206 ], [ 19.8055205, 49.04025228 ], [ 19.80590583, 49.04019205 ], [ 19.80612368, 49.04010819 ], [ 19.80642265, 49.04006019 ], [ 19.80642373, 49.04002058 ], [ 19.80672652, 49.0400634 ], [ 19.80680418, 49.03999961 ], [ 19.80681864, 49.04000024 ], [ 19.80677699, 49.03996302 ], [ 19.80676403, 49.03995138 ], [ 19.80686733, 49.039771 ], [ 19.80688281, 49.0397148 ], [ 19.80733421, 49.03977116 ], [ 19.80763873, 49.03982812 ], [ 19.80755953, 49.03947935 ], [ 19.8075269, 49.03933537 ], [ 19.80751923, 49.03932305 ], [ 19.806542, 49.03928589 ], [ 19.80645105, 49.03928241 ], [ 19.80609974, 49.03914917 ], [ 19.80614682, 49.03914165 ], [ 19.8061879, 49.03913523 ], [ 19.80626376, 49.03909218 ], [ 19.80625292, 49.03902646 ], [ 19.80580578, 49.03900579 ], [ 19.8054723, 49.03899039 ], [ 19.80527445, 49.03901681 ], [ 19.80515595, 49.0390326 ], [ 19.80485784, 49.03902539 ], [ 19.80478139, 49.03902353 ], [ 19.80455082, 49.03899347 ], [ 19.80451618, 49.03899026 ], [ 19.8044021, 49.03897965 ], [ 19.80404627, 49.03896427 ], [ 19.80401471, 49.03902356 ], [ 19.8039973, 49.03905642 ], [ 19.80380777, 49.03905048 ], [ 19.8036848, 49.03912321 ], [ 19.80335553, 49.03911087 ], [ 19.80322958, 49.03907641 ], [ 19.80318758, 49.03911524 ], [ 19.80314969, 49.03915695 ], [ 19.8031064, 49.03920464 ], [ 19.80248472, 49.03903357 ], [ 19.80234668, 49.0389747 ], [ 19.80232364, 49.03896514 ], [ 19.8014828, 49.03861714 ], [ 19.80127456, 49.03853099 ], [ 19.80127834, 49.03852611 ], [ 19.8012906, 49.03851042 ], [ 19.80129454, 49.03850536 ], [ 19.80152034, 49.03853648 ], [ 19.80161119, 49.03856285 ], [ 19.80190439, 49.0386479 ], [ 19.80193355, 49.0386223 ], [ 19.80194542, 49.03861182 ], [ 19.80196587, 49.03859378 ], [ 19.8019848, 49.03857721 ], [ 19.8020907, 49.03859981 ], [ 19.80216975, 49.03861666 ], [ 19.80249335, 49.03868562 ], [ 19.80255998, 49.03861695 ], [ 19.80265152, 49.03857756 ], [ 19.80262243, 49.03856963 ], [ 19.80262648, 49.03856332 ], [ 19.80265134, 49.03852447 ], [ 19.80268304, 49.03847483 ], [ 19.8027299, 49.03840106 ], [ 19.80308309, 49.03836731 ], [ 19.80316018, 49.03836001 ], [ 19.80333732, 49.03826502 ], [ 19.80344684, 49.03820621 ], [ 19.80356588, 49.03821929 ], [ 19.80361795, 49.03822497 ], [ 19.80374853, 49.03823926 ], [ 19.80421053, 49.03828672 ], [ 19.80421573, 49.03827586 ], [ 19.80411807, 49.03826272 ], [ 19.80399526, 49.03822289 ], [ 19.80395129, 49.03818413 ], [ 19.80392903, 49.0381546 ], [ 19.80393483, 49.03810483 ], [ 19.80399079, 49.03805922 ], [ 19.80402184, 49.03803388 ], [ 19.80405243, 49.03800898 ], [ 19.80406974, 49.03799486 ], [ 19.80415314, 49.03792159 ], [ 19.8044984, 49.03761631 ], [ 19.80455644, 49.03757052 ], [ 19.80464492, 49.03750945 ], [ 19.80464762, 49.03750308 ], [ 19.80467546, 49.0374385 ], [ 19.80525599, 49.03747945 ], [ 19.8056884, 49.03756095 ], [ 19.80582415, 49.03758655 ], [ 19.80582048, 49.03761505 ], [ 19.80581059, 49.03768789 ], [ 19.80633456, 49.03771468 ], [ 19.80652384, 49.03772997 ], [ 19.80654346, 49.03768729 ], [ 19.80639221, 49.03767138 ], [ 19.80639755, 49.03763575 ], [ 19.80649091, 49.03762473 ], [ 19.80653951, 49.0376171 ], [ 19.80655146, 49.0375812 ], [ 19.80655718, 49.0375418 ], [ 19.80666346, 49.03754675 ], [ 19.80666422, 49.03753092 ], [ 19.80670886, 49.03749031 ], [ 19.80677174, 49.0374413 ], [ 19.80677408, 49.03740688 ], [ 19.80668304, 49.0373852 ], [ 19.80668782, 49.03729483 ], [ 19.80668813, 49.0372533 ], [ 19.80663173, 49.03725672 ], [ 19.80637051, 49.03727274 ], [ 19.80639368, 49.03718633 ], [ 19.80671887, 49.03712819 ], [ 19.80685425, 49.03710403 ], [ 19.80685956, 49.03708515 ], [ 19.80687031, 49.0370338 ], [ 19.80687656, 49.0369617 ], [ 19.80686654, 49.03694946 ], [ 19.80685183, 49.03693206 ], [ 19.80684596, 49.03692496 ], [ 19.80667666, 49.03695387 ], [ 19.80666623, 49.03686357 ], [ 19.8066589, 49.03680242 ], [ 19.80665039, 49.03671617 ], [ 19.80664873, 49.03670673 ], [ 19.80620272, 49.03678875 ], [ 19.80531228, 49.0369809 ], [ 19.80430356, 49.03720289 ], [ 19.80352924, 49.03737408 ], [ 19.80240574, 49.0376704 ], [ 19.80162539, 49.03787431 ], [ 19.80113421, 49.03800204 ], [ 19.80074012, 49.03810467 ], [ 19.80046229, 49.03817845 ], [ 19.80058217, 49.03839001 ], [ 19.80106265, 49.03871721 ], [ 19.8012463, 49.03884222 ], [ 19.80160821, 49.03907624 ], [ 19.80174932, 49.0391675 ], [ 19.80209145, 49.03937326 ], [ 19.80210798, 49.03938615 ], [ 19.80214283, 49.03941325 ], [ 19.8022739, 49.03951309 ], [ 19.80275258, 49.03962959 ], [ 19.80292133, 49.03967203 ], [ 19.80332213, 49.0397984 ], [ 19.80392046, 49.04005092 ] ], [ [ 19.80121151, 49.03803233 ], [ 19.80134053, 49.03800321 ], [ 19.80136568, 49.03806143 ], [ 19.8012383, 49.03808783 ], [ 19.80121151, 49.03803233 ] ] ] } },
{ "type": "Feature", "properties": { "@featureType": "CadastralParcel", "areaValue": { "value": 20723, "@uom": "m2" }, "beginLifespanVersion": { "@nilReason": "http://inspire.ec.europa.eu/codelist/VoidReasonValue/Unpopulated", "@nil": "true" }, "endLifespanVersion": { "@nilReason": "http://inspire.ec.europa.eu/codelist/VoidReasonValue/Unpopulated", "@nil": "true" }, "inspireId": { "@dataType": "Identifier", "localId": "820610_1694/1.E", "namespace": "SK.ESKN.CP", "versionId": "20261005T09:10:23" }, "label": "1694/1", "nationalCadastralReference": "820610_1694/1.E", "referencePoint": { "type": "Point", "coordinates": [ 19.79954235, 49.03823467 ] }, "validFrom": "2026-09-30T16:00:00Z", "validTo": { "@nilReason": "http://inspire.ec.europa.eu/codelist/VoidReasonValue/Unpopulated", "@nil": "true" }, "administrativeUnit": { "@href": "#auAdmUnitS.2662" } }, "geometry": { "type": "Polygon", "coordinates": [ [ [ 19.80274243, 49.03974072 ], [ 19.80257699, 49.03969391 ], [ 19.80249962, 49.03968219 ], [ 19.80231461, 49.03964057 ], [ 19.80182813, 49.03953897 ], [ 19.80165692, 49.03950326 ], [ 19.80144373, 49.03938302 ], [ 19.80133271, 49.03932117 ], [ 19.80113184, 49.03920929 ], [ 19.80101985, 49.03914488 ], [ 19.80060642, 49.03890656 ], [ 19.80052922, 49.03886294 ], [ 19.8002886, 49.03868121 ], [ 19.80010517, 49.03854584 ], [ 19.79978876, 49.03831604 ], [ 19.79974581, 49.03819324 ], [ 19.79969896, 49.03777521 ], [ 19.79968861, 49.03768969 ], [ 19.79943637, 49.03695988 ], [ 19.79938786, 49.03691181 ], [ 19.79909429, 49.03679773 ], [ 19.79885037, 49.03672994 ], [ 19.79861692, 49.03669993 ], [ 19.79858999, 49.03669651 ], [ 19.79839698, 49.03661723 ], [ 19.79825381, 49.03651785 ], [ 19.7982301, 49.03650141 ], [ 19.79793812, 49.03631944 ], [ 19.79785142, 49.03626134 ], [ 19.79769815, 49.03619856 ], [ 19.79770828, 49.03621928 ], [ 19.79774687, 49.03626366 ], [ 19.79780613, 49.03633166 ], [ 19.79781757, 49.03634477 ], [ 19.79790252, 49.03639991 ], [ 19.79847435, 49.03673026 ], [ 19.79872667, 49.03699072 ], [ 19.79879934, 49.03706578 ], [ 19.79895008, 49.03717712 ], [ 19.79911794, 49.037301 ], [ 19.79937766, 49.03746021 ], [ 19.79944211, 49.03749968 ], [ 19.79951776, 49.03772438 ], [ 19.79949026, 49.03785946 ], [ 19.79936047, 49.03802363 ], [ 19.79932106, 49.03820505 ], [ 19.79932774, 49.03826428 ], [ 19.79933466, 49.03832659 ], [ 19.79930094, 49.03836226 ], [ 19.79933048, 49.0384505 ], [ 19.79946454, 49.03863817 ], [ 19.79965308, 49.03878691 ], [ 19.79965861, 49.03879193 ], [ 19.799794, 49.03891567 ], [ 19.79980716, 49.0389923 ], [ 19.79982028, 49.03906803 ], [ 19.79984268, 49.03908251 ], [ 19.80002606, 49.03920067 ], [ 19.80003533, 49.03920665 ], [ 19.80005332, 49.0392159 ], [ 19.80032447, 49.03935561 ], [ 19.80046004, 49.03948575 ], [ 19.80056298, 49.03958447 ], [ 19.80056427, 49.03958524 ], [ 19.80072288, 49.03967835 ], [ 19.80095295, 49.03981348 ], [ 19.80102287, 49.03985444 ], [ 19.80108538, 49.03987634 ], [ 19.80112762, 49.03989124 ], [ 19.80133195, 49.03995217 ], [ 19.80134911, 49.03995732 ], [ 19.80139543, 49.03995338 ], [ 19.80171783, 49.03992614 ], [ 19.80191292, 49.03995746 ], [ 19.80203943, 49.03998636 ], [ 19.80204106, 49.03998797 ], [ 19.80217192, 49.04011448 ], [ 19.80226503, 49.04020466 ], [ 19.80230903, 49.04024721 ], [ 19.80251227, 49.03995859 ], [ 19.8026787, 49.03979122 ], [ 19.80273454, 49.03974696 ], [ 19.80274243, 49.03974072 ] ] ] } },
{ "type": "Feature", "properties": { "@featureType": "CadastralParcel", "areaValue": { "value": 9395, "@uom": "m2" }, "beginLifespanVersion": { "@nilReason": "http://inspire.ec.europa.eu/codelist/VoidReasonValue/Unpopulated", "@nil": "true" }, "endLifespanVersion": { "@nilReason": "http://inspire.ec.europa.eu/codelist/VoidReasonValue/Unpopulated", "@nil": "true" }, "inspireId": { "@dataType": "Identifier", "localId": "820610_6812.E", "namespace": "SK.ESKN.CP", "versionId": "20261005T09:10:23" }, "label": "6812", "nationalCadastralReference": "820610_6812.E", "referencePoint": { "type": "Point", "coordinates": [ 19.80907549, 49.0402278 ] }, "validFrom": "2026-09-30T16:00:00Z", "validTo": { "@nilReason": "http://inspire.ec.europa.eu/codelist/VoidReasonValue/Unpopulated", "@nil": "true" }, "administrativeUnit": { "@href": "#auAdmUnitS.2662" } }, "geometry": { "type": "Polygon", "coordinates": [ [ [ 19.80826027, 49.04043164 ], [ 19.80864587, 49.04048669 ], [ 19.80896496, 49.04055841 ], [ 19.80933318, 49.0406392 ], [ 19.80937583, 49.04060058 ], [ 19.80943869, 49.04054354 ], [ 19.80958672, 49.04057534 ], [ 19.80960752, 49.04054137 ], [ 19.80980178, 49.04057688 ], [ 19.80999969, 49.040613 ], [ 19.81000633, 49.04060968 ], [ 19.80996536, 49.04045435 ], [ 19.80992629, 49.04030621 ], [ 19.80979441, 49.03980675 ], [ 19.8097495, 49.03979382 ], [ 19.80966899, 49.03970238 ], [ 19.80937534, 49.0396916 ], [ 19.80874506, 49.03988626 ], [ 19.80836678, 49.04008315 ], [ 19.80833526, 49.04009954 ], [ 19.80823967, 49.0401494 ], [ 19.80825291, 49.04033102 ], [ 19.80826027, 49.04043164 ] ] ] } },
{ "type": "Feature", "properties": { "@featureType": "CadastralParcel", "areaValue": { "value": 85394, "@uom": "m2" }, "beginLifespanVersion": { "@nilReason": "http://inspire.ec.europa.eu/codelist/VoidReasonValue/Unpopulated", "@nil": "true" }, "endLifespanVersion": { "@nilReason": "http://inspire.ec.europa.eu/codelist/VoidReasonValue/Unpopulated", "@nil": "true" }, "inspireId": { "@dataType": "Identifier", "localId": "820610_6865/1.E", "namespace": "SK.ESKN.CP", "versionId": "20261005T09:10:23" }, "label": "6865/1", "nationalCadastralReference": "820610_6865/1.E", "referencePoint": { "type": "Point", "coordinates": [ 19.80315973, 49.03709189 ] }, "validFrom": "2026-09-30T16:00:00Z", "validTo": { "@nilReason": "http://inspire.ec.europa.eu/codelist/VoidReasonValue/Unpopulated", "@nil": "true" }, "administrativeUnit": { "@href": "#auAdmUnitS.2662" } }, "geometry": { "type": "MultiPolygon", "coordinates": [ [ [ [ 19.80174932, 49.0391675 ], [ 19.80160821, 49.03907624 ], [ 19.8012463, 49.03884222 ], [ 19.80106265, 49.03871721 ], [ 19.80058217, 49.03839001 ], [ 19.80046229, 49.03817845 ], [ 19.80074012, 49.03810467 ], [ 19.80113421, 49.03800204 ], [ 19.80162539, 49.03787431 ], [ 19.80240574, 49.0376704 ], [ 19.80352924, 49.03737408 ], [ 19.80430356, 49.03720289 ], [ 19.80531228, 49.0369809 ], [ 19.80620272, 49.03678875 ], [ 19.80664873, 49.03670673 ], [ 19.80665039, 49.03671617 ], [ 19.80678386, 49.0366411 ], [ 19.80671333, 49.03638544 ], [ 19.80749212, 49.03634203 ], [ 19.80782288, 49.0364641 ], [ 19.8084533, 49.03645835 ], [ 19.80945062, 49.03619221 ], [ 19.81090504, 49.0363326 ], [ 19.81091854, 49.03633606 ], [ 19.81133988, 49.03644329 ], [ 19.81155079, 49.03649862 ], [ 19.81157383, 49.03652053 ], [ 19.81159864, 49.03653421 ], [ 19.81171709, 49.03660953 ], [ 19.81175499, 49.03661027 ], [ 19.81181858, 49.03660625 ], [ 19.8118512, 49.03659666 ], [ 19.81194117, 49.03656729 ], [ 19.81198264, 49.03656106 ], [ 19.81206137, 49.03654959 ], [ 19.81210579, 49.03654808 ], [ 19.81220566, 49.03654455 ], [ 19.8122949, 49.03654993 ], [ 19.81243942, 49.03658654 ], [ 19.81248677, 49.03660382 ], [ 19.81251809, 49.03661553 ], [ 19.81255926, 49.03659306 ], [ 19.81250719, 49.03657919 ], [ 19.81238268, 49.03653984 ], [ 19.81233963, 49.03652618 ], [ 19.81231286, 49.03652385 ], [ 19.81218615, 49.03651343 ], [ 19.81215268, 49.0365137 ], [ 19.81204224, 49.03651461 ], [ 19.81179883, 49.03657755 ], [ 19.81173891, 49.03657082 ], [ 19.81171387, 49.03655947 ], [ 19.81166579, 49.03651521 ], [ 19.8115952, 49.03644097 ], [ 19.81152796, 49.03637039 ], [ 19.81152685, 49.03636917 ], [ 19.81145861, 49.03629755 ], [ 19.81133825, 49.03624829 ], [ 19.81122051, 49.03620013 ], [ 19.81119434, 49.03619044 ], [ 19.81107485, 49.03614617 ], [ 19.81108272, 49.03613047 ], [ 19.81108819, 49.03611962 ], [ 19.81093476, 49.0360172 ], [ 19.81070212, 49.03586242 ], [ 19.81044719, 49.03569884 ], [ 19.81039761, 49.03566137 ], [ 19.81035797, 49.03563145 ], [ 19.81028054, 49.03558197 ], [ 19.81015263, 49.03548479 ], [ 19.81008638, 49.03543444 ], [ 19.81001632, 49.03540303 ], [ 19.80992447, 49.03536202 ], [ 19.80985164, 49.0353295 ], [ 19.80980425, 49.03530726 ], [ 19.809757, 49.0352753 ], [ 19.80965753, 49.03520765 ], [ 19.80955857, 49.03514994 ], [ 19.80944485, 49.03508365 ], [ 19.80939093, 49.03505528 ], [ 19.80938273, 49.03505096 ], [ 19.80925054, 49.035105 ], [ 19.80919656, 49.03508555 ], [ 19.80917084, 49.03509886 ], [ 19.80875243, 49.03531637 ], [ 19.80835962, 49.03552056 ], [ 19.80834141, 49.03550526 ], [ 19.80828885, 49.03546469 ], [ 19.8082489, 49.03543377 ], [ 19.80818756, 49.03538642 ], [ 19.80793831, 49.03548028 ], [ 19.80779404, 49.03553452 ], [ 19.8075445, 49.03562855 ], [ 19.80752917, 49.03563114 ], [ 19.80737811, 49.03565588 ], [ 19.80724447, 49.03567913 ], [ 19.80689795, 49.03562712 ], [ 19.80679883, 49.0356122 ], [ 19.80675702, 49.03560679 ], [ 19.80661531, 49.03562167 ], [ 19.80651445, 49.03563236 ], [ 19.80642745, 49.03564158 ], [ 19.80607018, 49.03567931 ], [ 19.80600268, 49.03569361 ], [ 19.80591567, 49.03571526 ], [ 19.8058042, 49.03574298 ], [ 19.8057473, 49.03571439 ], [ 19.80552246, 49.03580119 ], [ 19.80538339, 49.03587746 ], [ 19.80431077, 49.0360108 ], [ 19.80411374, 49.03603608 ], [ 19.80424693, 49.0361818 ], [ 19.80425005, 49.03618491 ], [ 19.80428258, 49.03621732 ], [ 19.80443921, 49.03637405 ], [ 19.80392045, 49.03651051 ], [ 19.80326145, 49.03663342 ], [ 19.80263276, 49.03675062 ], [ 19.8020581, 49.03690871 ], [ 19.80200693, 49.03692281 ], [ 19.80104726, 49.03725036 ], [ 19.80101444, 49.03728246 ], [ 19.80054135, 49.03774595 ], [ 19.80034886, 49.03764219 ], [ 19.80033079, 49.03768304 ], [ 19.80025214, 49.03810727 ], [ 19.80026377, 49.03823349 ], [ 19.80026427, 49.03823946 ], [ 19.80026738, 49.03824266 ], [ 19.8003774, 49.03835691 ], [ 19.80104021, 49.03878392 ], [ 19.80118829, 49.03887946 ], [ 19.80174932, 49.0391675 ] ] ], [ [ [ 19.79968634, 49.03725349 ], [ 19.79982028, 49.03762725 ], [ 19.7998461, 49.0376993 ], [ 19.79987616, 49.0380673 ], [ 19.79988583, 49.03818578 ], [ 19.79992407, 49.03830225 ], [ 19.80012991, 49.03844516 ], [ 19.80026244, 49.03853723 ], [ 19.80029224, 49.03855853 ], [ 19.80044037, 49.03866452 ], [ 19.80056139, 49.03875104 ], [ 19.80065681, 49.03881808 ], [ 19.80103317, 49.0390118 ], [ 19.80112925, 49.03906129 ], [ 19.80126523, 49.03913116 ], [ 19.80154885, 49.03933529 ], [ 19.80175882, 49.03940692 ], [ 19.80191324, 49.03942945 ], [ 19.8022739, 49.03951309 ], [ 19.80214283, 49.03941325 ], [ 19.80198564, 49.03936896 ], [ 19.80193736, 49.03934191 ], [ 19.80115675, 49.03890558 ], [ 19.80102052, 49.03881488 ], [ 19.80057819, 49.03852016 ], [ 19.80052432, 49.03848457 ], [ 19.80043109, 49.03842304 ], [ 19.80036693, 49.0383807 ], [ 19.80022459, 49.03823873 ], [ 19.80021735, 49.03812072 ], [ 19.80027703, 49.03779283 ], [ 19.80027779, 49.03778799 ], [ 19.80029979, 49.03766818 ], [ 19.80031907, 49.03762621 ], [ 19.8002569, 49.0375927 ], [ 19.79987347, 49.03738614 ], [ 19.79986132, 49.03736515 ], [ 19.79972017, 49.03729623 ], [ 19.79968634, 49.03725349 ] ] ] ] } },
{ "type": "Feature", "properties": { "@featureType": "CadastralParcel", "areaValue": { "value": 52975, "@uom": "m2" }, "beginLifespanVersion": { "@nilReason": "http://inspire.ec.europa.eu/codelist/VoidReasonValue/Unpopulated", "@nil": "true" }, "endLifespanVersion": { "@nilReason": "http://inspire.ec.europa.eu/codelist/VoidReasonValue/Unpopulated", "@nil": "true" }, "inspireId": { "@dataType": "Identifier", "localId": "820610_4988.C", "namespace": "SK.ESKN.CP", "versionId": "20261005T09:10:23" }, "label": "4988", "nationalCadastralReference": "820610_4988.C", "referencePoint": { "type": "Point", "coordinates": [ 19.79957208, 49.03722274 ] }, "validFrom": "2026-09-30T16:00:00Z", "validTo": { "@nilReason": "http://inspire.ec.europa.eu/codelist/VoidReasonValue/Unpopulated", "@nil": "true" }, "administrativeUnit": { "@href": "#auAdmUnitS.2662" } }, "geometry": { "type": "Polygon", "coordinates": [ [ [ 19.81876748, 49.04141312 ], [ 19.81776214, 49.04144306 ], [ 19.81683387, 49.04145342 ], [ 19.81569135, 49.04139758 ], [ 19.81564902, 49.04139729 ], [ 19.81439219, 49.04133182 ], [ 19.81286595, 49.04123372 ], [ 19.81246011, 49.04115754 ], [ 19.81241805, 49.04115176 ], [ 19.81102477, 49.04097979 ], [ 19.80975999, 49.04068646 ], [ 19.8091212, 49.04054362 ], [ 19.80876213, 49.04045223 ], [ 19.80794361, 49.04025737 ], [ 19.80719119, 49.04013646 ], [ 19.80683817, 49.04011617 ], [ 19.80614629, 49.0402138 ], [ 19.80562816, 49.04027234 ], [ 19.80514721, 49.0403032 ], [ 19.80487459, 49.04030962 ], [ 19.80426086, 49.04016035 ], [ 19.80365953, 49.03986931 ], [ 19.80338125, 49.03969389 ], [ 19.80300179, 49.03960089 ], [ 19.80212442, 49.03938632 ], [ 19.80206842, 49.03938561 ], [ 19.80180218, 49.03929686 ], [ 19.80027245, 49.03858651 ], [ 19.7999754, 49.03829203 ], [ 19.79985124, 49.03801089 ], [ 19.7998119, 49.03752334 ], [ 19.79972017, 49.03729623 ], [ 19.79951918, 49.03704195 ], [ 19.79935755, 49.03688184 ], [ 19.79934871, 49.03687299 ], [ 19.79929582, 49.03685628 ], [ 19.7991751, 49.03680113 ], [ 19.79892906, 49.03668054 ], [ 19.79809717, 49.03624647 ], [ 19.7978301, 49.0361128 ], [ 19.7970482, 49.03575731 ], [ 19.79651468, 49.03561679 ], [ 19.79628775, 49.03556695 ], [ 19.79621904, 49.03555081 ], [ 19.79570967, 49.03544152 ], [ 19.79518203, 49.03543246 ], [ 19.79459984, 49.03550557 ], [ 19.79391424, 49.03555996 ], [ 19.79349333, 49.03555002 ], [ 19.79312662, 49.0355272 ], [ 19.79266641, 49.0354677 ], [ 19.7921233, 49.03537369 ], [ 19.79158512, 49.035195 ], [ 19.7911288, 49.03504878 ], [ 19.78996891, 49.03467704 ], [ 19.7884751, 49.0341458 ], [ 19.78781162, 49.0339156 ], [ 19.78715903, 49.03364253 ], [ 19.78665465, 49.03333631 ], [ 19.78661929, 49.03337858 ], [ 19.78634217, 49.03325543 ], [ 19.78606542, 49.03314763 ], [ 19.78572344, 49.03305339 ], [ 19.78529396, 49.03298294 ], [ 19.78488291, 49.0329706 ], [ 19.7847163, 49.03291948 ], [ 19.78487764, 49.0330586 ], [ 19.78521276, 49.03305998 ], [ 19.78569, 49.0331326 ], [ 19.7860359, 49.03322872 ], [ 19.78639609, 49.03338187 ], [ 19.78679514, 49.03359448 ], [ 19.78703922, 49.03381478 ], [ 19.78714161, 49.03388582 ], [ 19.78744195, 49.0340563 ], [ 19.78758053, 49.03411917 ], [ 19.78766365, 49.03412404 ], [ 19.78775619, 49.03411021 ], [ 19.78789409, 49.03411556 ], [ 19.78986697, 49.03478059 ], [ 19.79147344, 49.03532732 ], [ 19.79192963, 49.0354775 ], [ 19.79204719, 49.03550125 ], [ 19.79247496, 49.0356246 ], [ 19.79253445, 49.03563691 ], [ 19.79295528, 49.03569272 ], [ 19.79390887, 49.03569564 ], [ 19.79462106, 49.03566177 ], [ 19.7956494, 49.03564773 ], [ 19.79642349, 49.03574577 ], [ 19.79689942, 49.03588659 ], [ 19.79739905, 49.03608918 ], [ 19.79875018, 49.03676679 ], [ 19.79912758, 49.03695544 ], [ 19.7994266, 49.03714925 ], [ 19.79956095, 49.03732719 ], [ 19.79974978, 49.03833571 ], [ 19.79991001, 49.03853857 ], [ 19.80014402, 49.03867675 ], [ 19.8004121, 49.03886075 ], [ 19.80151535, 49.03941252 ], [ 19.80199742, 49.03960748 ], [ 19.80244175, 49.03969059 ], [ 19.80314123, 49.03982537 ], [ 19.80349918, 49.03999504 ], [ 19.8037747, 49.04012807 ], [ 19.80407655, 49.04025837 ], [ 19.80460112, 49.04043019 ], [ 19.80551165, 49.04053965 ], [ 19.80662549, 49.0403294 ], [ 19.80745579, 49.04035012 ], [ 19.80827234, 49.04051525 ], [ 19.80915576, 49.04072184 ], [ 19.80999117, 49.04095221 ], [ 19.81109619, 49.0411788 ], [ 19.81273993, 49.04143186 ], [ 19.81376205, 49.04152922 ], [ 19.8143258, 49.04152587 ], [ 19.81639602, 49.04161965 ], [ 19.81730687, 49.04165072 ], [ 19.81784289, 49.04162714 ], [ 19.81825248, 49.04162596 ], [ 19.81860281, 49.04159906 ], [ 19.8186933, 49.04159205 ], [ 19.81870175, 49.04155403 ], [ 19.81870509, 49.0415384 ], [ 19.81870555, 49.04153653 ], [ 19.8187551, 49.04146035 ], [ 19.81876748, 49.04141312 ] ] ] } },
{ "type": "Feature", "properties": { "@featureType": "CadastralParcel", "areaValue": { "value": 10708, "@uom": "m2" }, "beginLifespanVersion": { "@nilReason": "http://inspire.ec.europa.eu/codelist/VoidReasonValue/Unpopulated", "@nil": "true" }, "endLifespanVersion": { "@nilReason": "http://inspire.ec.europa.eu/codelist/VoidReasonValue/Unpopulated", "@nil": "true" }, "inspireId": { "@dataType": "Identifier", "localId": "820610_4593.C", "namespace": "SK.ESKN.CP", "versionId": "20261005T09:10:23" }, "label": "4593", "nationalCadastralReference": "820610_4593.C", "referencePoint": { "type": "Point", "coordinates": [ 19.80933242, 49.03995784 ] }, "validFrom": "2026-09-30T16:00:00Z", "validTo": { "@nilReason": "http://inspire.ec.europa.eu/codelist/VoidReasonValue/Unpopulated", "@nil": "true" }, "administrativeUnit": { "@href": "#auAdmUnitS.2662" } }, "geometry": { "type": "Polygon", "coordinates": [ [ [ 19.80876213, 49.04045223 ], [ 19.8091212, 49.04054362 ], [ 19.80975999, 49.04068646 ], [ 19.80985302, 49.04044274 ], [ 19.809925, 49.04030814 ], [ 19.81021613, 49.03984181 ], [ 19.80959481, 49.03968332 ], [ 19.80939891, 49.03944469 ], [ 19.80893796, 49.03968839 ], [ 19.80834167, 49.04007386 ], [ 19.80829849, 49.040248 ], [ 19.80878231, 49.04039705 ], [ 19.80876213, 49.04045223 ] ] ] } },
{ "type": "Feature", "properties": { "@featureType": "CadastralParcel", "areaValue": { "value": 30205, "@uom": "m2" }, "beginLifespanVersion": { "@nilReason": "http://inspire.ec.europa.eu/codelist/VoidReasonValue/Unpopulated", "@nil": "true" }, "endLifespanVersion": { "@nilReason": "http://inspire.ec.europa.eu/codelist/VoidReasonValue/Unpopulated", "@nil": "true" }, "inspireId": { "@dataType": "Identifier", "localId": "820610_4592.C", "namespace": "SK.ESKN.CP", "versionId": "20261005T09:10:23" }, "label": "4592", "nationalCadastralReference": "820610_4592.C", "referencePoint": { "type": "Point", "coordinates": [ 19.8083774, 49.03956914 ] }, "validFrom": "2026-09-30T16:00:00Z", "validTo": { "@nilReason": "http://inspire.ec.europa.eu/codelist/VoidReasonValue/Unpopulated", "@nil": "true" }, "administrativeUnit": { "@href": "#auAdmUnitS.2662" } }, "geometry": { "type": "Polygon", "coordinates": [ [ [ 19.80623641, 49.03899691 ], [ 19.80627048, 49.03918133 ], [ 19.80678118, 49.03937796 ], [ 19.80754918, 49.03944988 ], [ 19.80768934, 49.03984706 ], [ 19.80611373, 49.04004729 ], [ 19.80527092, 49.04015308 ], [ 19.80424096, 49.0400509 ], [ 19.80365953, 49.03986931 ], [ 19.80426086, 49.04016035 ], [ 19.80487459, 49.04030962 ], [ 19.80514721, 49.0403032 ], [ 19.80562816, 49.04027234 ], [ 19.80614629, 49.0402138 ], [ 19.80683817, 49.04011617 ], [ 19.80719119, 49.04013646 ], [ 19.80794361, 49.04025737 ], [ 19.80876213, 49.04045223 ], [ 19.80878231, 49.04039705 ], [ 19.80829849, 49.040248 ], [ 19.80834167, 49.04007386 ], [ 19.80893796, 49.03968839 ], [ 19.80939891, 49.03944469 ], [ 19.81065251, 49.03904794 ], [ 19.8110507, 49.03882036 ], [ 19.81134147, 49.03891068 ], [ 19.81113829, 49.03857468 ], [ 19.81002334, 49.03892426 ], [ 19.80805106, 49.03892146 ], [ 19.80777286, 49.03884943 ], [ 19.80646222, 49.03901433 ], [ 19.80623641, 49.03899691 ] ] ] } },
{ "type": "Feature", "properties": { "@featureType": "CadastralParcel", "areaValue": { "value": 8067, "@uom": "m2" }, "beginLifespanVersion": { "@nilReason": "http://inspire.ec.europa.eu/codelist/VoidReasonValue/Unpopulated", "@nil": "true" }, "endLifespanVersion": { "@nilReason": "http://inspire.ec.europa.eu/codelist/VoidReasonValue/Unpopulated", "@nil": "true" }, "inspireId": { "@dataType": "Identifier", "localId": "820610_4575.C", "namespace": "SK.ESKN.CP", "versionId": "20261005T09:10:23" }, "label": "4575", "nationalCadastralReference": "820610_4575.C", "referencePoint": { "type": "Point", "coordinates": [ 19.81153869, 49.04087938 ] }, "validFrom": "2026-09-30T16:00:00Z", "validTo": { "@nilReason": "http://inspire.ec.europa.eu/codelist/VoidReasonValue/Unpopulated", "@nil": "true" }, "administrativeUnit": { "@href": "#auAdmUnitS.2662" } }, "geometry": { "type": "Polygon", "coordinates": [ [ [ 19.80985302, 49.04044274 ], [ 19.80975999, 49.04068646 ], [ 19.81102477, 49.04097979 ], [ 19.81241805, 49.04115176 ], [ 19.81247489, 49.04103832 ], [ 19.81249228, 49.04077898 ], [ 19.8116477, 49.04064457 ], [ 19.81047104, 49.04050673 ], [ 19.80985302, 49.04044274 ] ] ] } },
{ "type": "Feature", "properties": { "@featureType": "CadastralParcel", "areaValue": { "value": 27364, "@uom": "m2" }, "beginLifespanVersion": { "@nilReason": "http://inspire.ec.europa.eu/codelist/VoidReasonValue/Unpopulated", "@nil": "true" }, "endLifespanVersion": { "@nilReason": "http://inspire.ec.europa.eu/codelist/VoidReasonValue/Unpopulated", "@nil": "true" }, "inspireId": { "@dataType": "Identifier", "localId": "820610_4659.C", "namespace": "SK.ESKN.CP", "versionId": "20261005T09:10:23" }, "label": "4659", "nationalCadastralReference": "820610_4659.C", "referencePoint": { "type": "Point", "coordinates": [ 19.80359267, 49.04047031 ] }, "validFrom": "2026-09-30T16:00:00Z", "validTo": { "@nilReason": "http://inspire.ec.europa.eu/codelist/VoidReasonValue/Unpopulated", "@nil": "true" }, "administrativeUnit": { "@href": "#auAdmUnitS.2662" } }, "geometry": { "type": "Polygon", "coordinates": [ [ [ 19.80216716, 49.03994971 ], [ 19.8022667, 49.04011803 ], [ 19.80226072, 49.04042996 ], [ 19.80221603, 49.04060673 ], [ 19.80241142, 49.04083373 ], [ 19.80251621, 49.04086196 ], [ 19.80279274, 49.04079722 ], [ 19.80293743, 49.04082123 ], [ 19.80328071, 49.04104714 ], [ 19.80367069, 49.04120783 ], [ 19.80394634, 49.04127796 ], [ 19.8041715, 49.04128553 ], [ 19.80426964, 49.04123083 ], [ 19.80434322, 49.04117363 ], [ 19.80430657, 49.0410466 ], [ 19.80430956, 49.04092083 ], [ 19.8044567, 49.04091069 ], [ 19.80455551, 49.0409055 ], [ 19.80466556, 49.04083591 ], [ 19.80508455, 49.04076813 ], [ 19.80528254, 49.04087465 ], [ 19.80549191, 49.04089343 ], [ 19.80568024, 49.04071817 ], [ 19.80605972, 49.04087137 ], [ 19.80626321, 49.04093666 ], [ 19.80659052, 49.04089051 ], [ 19.80692266, 49.04089477 ], [ 19.80726631, 49.04078795 ], [ 19.80749193, 49.0407703 ], [ 19.80675833, 49.04051042 ], [ 19.80662549, 49.0403294 ], [ 19.80551165, 49.04053965 ], [ 19.80460112, 49.04043019 ], [ 19.80407655, 49.04025837 ], [ 19.8037747, 49.04012807 ], [ 19.80349918, 49.03999504 ], [ 19.80314123, 49.03982537 ], [ 19.80244175, 49.03969059 ], [ 19.80216716, 49.03994971 ] ] ] } },
{ "type": "Feature", "properties": { "@featureType": "CadastralParcel", "areaValue": { "value": 12663, "@uom": "m2" }, "beginLifespanVersion": { "@nilReason": "http://inspire.ec.europa.eu/codelist/VoidReasonValue/Unpopulated", "@nil": "true" }, "endLifespanVersion": { "@nilReason": "http://inspire.ec.europa.eu/codelist/VoidReasonValue/Unpopulated", "@nil": "true" }, "inspireId": { "@dataType": "Identifier", "localId": "820610_4657.C", "namespace": "SK.ESKN.CP", "versionId": "20261005T09:10:23" }, "label": "4657", "nationalCadastralReference": "820610_4657.C", "referencePoint": { "type": "Point", "coordinates": [ 19.79961919, 49.03842029 ] }, "validFrom": "2026-09-30T16:00:00Z", "validTo": { "@nilReason": "http://inspire.ec.europa.eu/codelist/VoidReasonValue/Unpopulated", "@nil": "true" }, "administrativeUnit": { "@href": "#auAdmUnitS.2662" } }, "geometry": { "type": "Polygon", "coordinates": [ [ [ 19.80187659, 49.03991777 ], [ 19.80216716, 49.03994971 ], [ 19.80244175, 49.03969059 ], [ 19.80199742, 49.03960748 ], [ 19.80151535, 49.03941252 ], [ 19.8004121, 49.03886075 ], [ 19.80014402, 49.03867675 ], [ 19.79991001, 49.03853857 ], [ 19.79974978, 49.03833571 ], [ 19.79956095, 49.03732719 ], [ 19.7994266, 49.03714925 ], [ 19.79912758, 49.03695544 ], [ 19.79861299, 49.03700076 ], [ 19.79868579, 49.03713477 ], [ 19.79893037, 49.0371851 ], [ 19.79907625, 49.03712589 ], [ 19.79929328, 49.0371351 ], [ 19.79940058, 49.0374229 ], [ 19.79926111, 49.03764956 ], [ 19.79932265, 49.03799469 ], [ 19.79931468, 49.03824272 ], [ 19.79947281, 49.03850488 ], [ 19.79963967, 49.0386881 ], [ 19.80013264, 49.03907126 ], [ 19.8007976, 49.03943988 ], [ 19.80106369, 49.03963559 ], [ 19.80135828, 49.03977396 ], [ 19.80187659, 49.03991777 ] ] ] } }
]
}
