{
"type": "FeatureCollection",
"name": "gis",
"crs": { "type": "name", "properties": { "name": "urn:ogc:def:crs:OGC:1.3:CRS84" } },
"features": [
{ "type": "Feature", "properties": { "@featureType": "CadastralParcel", "areaValue": { "value": 22, "@uom": "m2" }, "beginLifespanVersion": { "@nilReason": "http://inspire.ec.europa.eu/codelist/VoidReasonValue/Unpopulated", "@nil": "true" }, "endLifespanVersion": { "@nilReason": "http://inspire.ec.europa.eu/codelist/VoidReasonValue/Unpopulated", "@nil": "true" }, "inspireId": { "@dataType": "Identifier", "localId": "821845_116/3.C", "namespace": "SK.ESKN.CP", "versionId": "20260703T04:07:00" }, "label": "116/3", "nationalCadastralReference": "821845_116/3.C", "referencePoint": { "type": "Point", "coordinates": [ 21.00185479, 48.87408806 ] }, "validFrom": "2026-06-30T16:00:00Z", "validTo": { "@nilReason": "http://inspire.ec.europa.eu/codelist/VoidReasonValue/Unpopulated", "@nil": "true" }, "administrativeUnit": { "@href": "#auAdmUnitS.1404" } }, "geometry": { "type": "Polygon", "coordinates": [ [ [ 21.00181007, 48.87409945 ], [ 21.00189463, 48.87410765 ], [ 21.00189985, 48.87407666 ], [ 21.00181428, 48.87406925 ], [ 21.00181007, 48.87409945 ] ] ] } },
{ "type": "Feature", "properties": { "@featureType": "CadastralParcel", "areaValue": { "value": 69, "@uom": "m2" }, "beginLifespanVersion": { "@nilReason": "http://inspire.ec.europa.eu/codelist/VoidReasonValue/Unpopulated", "@nil": "true" }, "endLifespanVersion": { "@nilReason": "http://inspire.ec.europa.eu/codelist/VoidReasonValue/Unpopulated", "@nil": "true" }, "inspireId": { "@dataType": "Identifier", "localId": "821845_3758/3.E", "namespace": "SK.ESKN.CP", "versionId": "20260703T04:07:00" }, "label": "3758/3", "nationalCadastralReference": "821845_3758/3.E", "referencePoint": { "type": "Point", "coordinates": [ 20.98352252, 48.87409848 ] }, "validFrom": "2026-06-30T16:00:00Z", "validTo": { "@nilReason": "http://inspire.ec.europa.eu/codelist/VoidReasonValue/Unpopulated", "@nil": "true" }, "administrativeUnit": { "@href": "#auAdmUnitS.1404" } }, "geometry": { "type": "Polygon", "coordinates": [ [ [ 20.98360091, 48.87406097 ], [ 20.98355231, 48.87406467 ], [ 20.98350302, 48.87406844 ], [ 20.98345936, 48.87407176 ], [ 20.98344586, 48.87412885 ], [ 20.9834884, 48.87412774 ], [ 20.98353695, 48.87412647 ], [ 20.98358564, 48.8741252 ], [ 20.98360091, 48.87406097 ] ] ] } },
{ "type": "Feature", "properties": { "@featureType": "CadastralParcel", "areaValue": { "value": 87068, "@uom": "m2" }, "beginLifespanVersion": { "@nilReason": "http://inspire.ec.europa.eu/codelist/VoidReasonValue/Unpopulated", "@nil": "true" }, "endLifespanVersion": { "@nilReason": "http://inspire.ec.europa.eu/codelist/VoidReasonValue/Unpopulated", "@nil": "true" }, "inspireId": { "@dataType": "Identifier", "localId": "814741_3904.C", "namespace": "SK.ESKN.CP", "versionId": "20260703T05:07:35" }, "label": "3904", "nationalCadastralReference": "814741_3904.C", "referencePoint": { "type": "Point", "coordinates": [ 20.91824498, 48.8232515 ] }, "validFrom": "2026-06-30T16:00:00Z", "validTo": { "@nilReason": "http://inspire.ec.europa.eu/codelist/VoidReasonValue/Unpopulated", "@nil": "true" }, "administrativeUnit": { "@href": "#auAdmUnitS.877" } }, "geometry": { "type": "Polygon", "coordinates": [ [ [ 20.91934101, 48.81961578 ], [ 20.91921298, 48.81943424 ], [ 20.91902514, 48.81917433 ], [ 20.9189877, 48.81912957 ], [ 20.91884767, 48.81896204 ], [ 20.91849294, 48.81849955 ], [ 20.91846096, 48.81845642 ], [ 20.9183545, 48.81831325 ], [ 20.91803031, 48.81794779 ], [ 20.91784446, 48.81772414 ], [ 20.9178411, 48.81770934 ], [ 20.91750066, 48.81736719 ], [ 20.91743641, 48.81729704 ], [ 20.91713995, 48.81706496 ], [ 20.91686417, 48.81684746 ], [ 20.91631146, 48.81647679 ], [ 20.91587862, 48.81618536 ], [ 20.9152876, 48.8159291 ], [ 20.91471407, 48.81567433 ], [ 20.91439166, 48.81551693 ], [ 20.91391401, 48.81548358 ], [ 20.91384123, 48.81568904 ], [ 20.91383181, 48.8157297 ], [ 20.91379542, 48.81588596 ], [ 20.91377367, 48.81598194 ], [ 20.91381151, 48.81598799 ], [ 20.91434525, 48.81612291 ], [ 20.91489213, 48.81626755 ], [ 20.91525792, 48.81652512 ], [ 20.91559264, 48.81676497 ], [ 20.91581503, 48.81692872 ], [ 20.91610312, 48.81710153 ], [ 20.91647922, 48.8172385 ], [ 20.91654108, 48.81726904 ], [ 20.91670226, 48.81749961 ], [ 20.91710987, 48.81779136 ], [ 20.91722892, 48.81790037 ], [ 20.91738426, 48.81803033 ], [ 20.91760201, 48.81824534 ], [ 20.91778027, 48.81842623 ], [ 20.91788802, 48.81851226 ], [ 20.91798797, 48.81859677 ], [ 20.9181353, 48.81876158 ], [ 20.918234, 48.81886757 ], [ 20.91832778, 48.81897366 ], [ 20.91836682, 48.81899956 ], [ 20.91873804, 48.81940236 ], [ 20.91889595, 48.81958022 ], [ 20.91901938, 48.81963806 ], [ 20.91911179, 48.81976553 ], [ 20.91904587, 48.81979447 ], [ 20.91899717, 48.81990556 ], [ 20.91901214, 48.8199483 ], [ 20.91916189, 48.82002728 ], [ 20.91921731, 48.82007769 ], [ 20.91923743, 48.82016653 ], [ 20.91924569, 48.82031169 ], [ 20.91926064, 48.8204198 ], [ 20.91927984, 48.82047124 ], [ 20.91932474, 48.82072975 ], [ 20.91934096, 48.8208814 ], [ 20.9193517, 48.821028 ], [ 20.91932286, 48.82135831 ], [ 20.91916421, 48.82187163 ], [ 20.91892936, 48.82227702 ], [ 20.91836111, 48.82296921 ], [ 20.91780888, 48.82345771 ], [ 20.91744544, 48.82374305 ], [ 20.91725975, 48.82364205 ], [ 20.91706901, 48.82382804 ], [ 20.91661105, 48.82422085 ], [ 20.91636446, 48.82453273 ], [ 20.91601878, 48.82482622 ], [ 20.91587584, 48.82522778 ], [ 20.91574467, 48.82549664 ], [ 20.91563406, 48.82569561 ], [ 20.91562837, 48.82596267 ], [ 20.91560098, 48.82640415 ], [ 20.91557287, 48.82675286 ], [ 20.91556661, 48.82713103 ], [ 20.91558425, 48.82756872 ], [ 20.91565682, 48.82784131 ], [ 20.91568747, 48.82808638 ], [ 20.91582244, 48.82847256 ], [ 20.91596795, 48.82874915 ], [ 20.91648138, 48.82944004 ], [ 20.91684018, 48.82971177 ], [ 20.91715823, 48.82997419 ], [ 20.91759836, 48.83026127 ], [ 20.91807855, 48.83058589 ], [ 20.9180626, 48.83053303 ], [ 20.91800471, 48.83045094 ], [ 20.91807097, 48.8304267 ], [ 20.91826698, 48.830666 ], [ 20.91831734, 48.83074658 ], [ 20.91847353, 48.830794 ], [ 20.91860763, 48.83085003 ], [ 20.91857787, 48.83105289 ], [ 20.91869591, 48.83109263 ], [ 20.91888625, 48.83088564 ], [ 20.91875229, 48.83071507 ], [ 20.91859629, 48.83059301 ], [ 20.91861197, 48.83044343 ], [ 20.91869599, 48.83036415 ], [ 20.91853864, 48.83026131 ], [ 20.9179427, 48.82987272 ], [ 20.91767534, 48.8296954 ], [ 20.91734356, 48.82938641 ], [ 20.91699109, 48.82905772 ], [ 20.9165972, 48.82868981 ], [ 20.91639655, 48.8282219 ], [ 20.91638727, 48.82808291 ], [ 20.91636143, 48.82740425 ], [ 20.91627515, 48.82687717 ], [ 20.9161835, 48.82630695 ], [ 20.91633395, 48.82566765 ], [ 20.91639852, 48.82539041 ], [ 20.91654118, 48.82522486 ], [ 20.91676779, 48.82494733 ], [ 20.91694728, 48.82472179 ], [ 20.91707119, 48.82457461 ], [ 20.91789462, 48.82407996 ], [ 20.91798414, 48.82400869 ], [ 20.9177111, 48.82382046 ], [ 20.91815851, 48.82347924 ], [ 20.91871006, 48.82304529 ], [ 20.91872864, 48.82302016 ], [ 20.9189371, 48.82282 ], [ 20.91904689, 48.82265964 ], [ 20.91930276, 48.82228566 ], [ 20.9193349, 48.82233195 ], [ 20.91943119, 48.82228775 ], [ 20.919461, 48.82234143 ], [ 20.91947681, 48.82231153 ], [ 20.91945588, 48.82225076 ], [ 20.91949746, 48.82218922 ], [ 20.91984406, 48.82203487 ], [ 20.91989883, 48.82180818 ], [ 20.91979467, 48.82177972 ], [ 20.91967027, 48.82174833 ], [ 20.91973243, 48.82165182 ], [ 20.91981218, 48.8214248 ], [ 20.91970608, 48.82142311 ], [ 20.91974594, 48.82126057 ], [ 20.91968225, 48.82056118 ], [ 20.91962834, 48.82045428 ], [ 20.91957036, 48.82003702 ], [ 20.9193843, 48.81967136 ], [ 20.91935939, 48.81963207 ], [ 20.91934101, 48.81961578 ] ], [ [ 20.91948135, 48.82190403 ], [ 20.91952327, 48.82180289 ], [ 20.91961673, 48.82181991 ], [ 20.919617, 48.82186935 ], [ 20.91963491, 48.82187572 ], [ 20.91963137, 48.82190216 ], [ 20.91962766, 48.82192365 ], [ 20.91948135, 48.82190403 ] ] ] } },
{ "type": "Feature", "properties": { "@featureType": "CadastralParcel", "areaValue": { "value": 119374, "@uom": "m2" }, "beginLifespanVersion": { "@nilReason": "http://inspire.ec.europa.eu/codelist/VoidReasonValue/Unpopulated", "@nil": "true" }, "endLifespanVersion": { "@nilReason": "http://inspire.ec.europa.eu/codelist/VoidReasonValue/Unpopulated", "@nil": "true" }, "inspireId": { "@dataType": "Identifier", "localId": "814741_3903.C", "namespace": "SK.ESKN.CP", "versionId": "20260703T05:07:35" }, "label": "3903", "nationalCadastralReference": "814741_3903.C", "referencePoint": { "type": "Point", "coordinates": [ 20.91740181, 48.8405711 ] }, "validFrom": "2026-06-30T16:00:00Z", "validTo": { "@nilReason": "http://inspire.ec.europa.eu/codelist/VoidReasonValue/Unpopulated", "@nil": "true" }, "administrativeUnit": { "@href": "#auAdmUnitS.877" } }, "geometry": { "type": "Polygon", "coordinates": [ [ [ 20.92838601, 48.84538606 ], [ 20.92853628, 48.84547883 ], [ 20.92869657, 48.84559561 ], [ 20.92879068, 48.84569846 ], [ 20.92881724, 48.84573078 ], [ 20.9289966, 48.8459486 ], [ 20.92901977, 48.84604258 ], [ 20.92911712, 48.84632248 ], [ 20.92929228, 48.84664588 ], [ 20.92932241, 48.84668687 ], [ 20.92967348, 48.84705563 ], [ 20.93020459, 48.84749608 ], [ 20.93053952, 48.84780549 ], [ 20.93085033, 48.84804746 ], [ 20.93091286, 48.84809296 ], [ 20.93123087, 48.84832472 ], [ 20.93126993, 48.84834729 ], [ 20.93147027, 48.84846505 ], [ 20.9315855, 48.84854529 ], [ 20.93180812, 48.84861139 ], [ 20.93191408, 48.84866511 ], [ 20.93201712, 48.84871423 ], [ 20.93207909, 48.84876341 ], [ 20.93208776, 48.84867753 ], [ 20.93211817, 48.84864073 ], [ 20.93210104, 48.84860458 ], [ 20.93201882, 48.84853131 ], [ 20.93205584, 48.84847952 ], [ 20.93159956, 48.84832082 ], [ 20.93125956, 48.84810516 ], [ 20.93061136, 48.84763322 ], [ 20.93051601, 48.84755518 ], [ 20.93046333, 48.84749884 ], [ 20.93021068, 48.84701445 ], [ 20.9300873, 48.84681355 ], [ 20.92993759, 48.84653495 ], [ 20.92967707, 48.84617203 ], [ 20.92957404, 48.84593913 ], [ 20.92947847, 48.84569972 ], [ 20.92939707, 48.84551716 ], [ 20.92926613, 48.84534365 ], [ 20.92894323, 48.84511018 ], [ 20.92864459, 48.84494579 ], [ 20.92811058, 48.84475187 ], [ 20.92746829, 48.84459274 ], [ 20.92676359, 48.84435669 ], [ 20.92620402, 48.84415649 ], [ 20.92558233, 48.84388279 ], [ 20.92530226, 48.84382086 ], [ 20.92500106, 48.84367573 ], [ 20.92455253, 48.8434265 ], [ 20.92433781, 48.84324106 ], [ 20.92408384, 48.84315218 ], [ 20.92372464, 48.8430268 ], [ 20.92309131, 48.84285813 ], [ 20.92256357, 48.84280757 ], [ 20.92253538, 48.84279806 ], [ 20.92189279, 48.84276136 ], [ 20.92173366, 48.84272871 ], [ 20.92142392, 48.84269233 ], [ 20.92066906, 48.84254639 ], [ 20.92058426, 48.84259846 ], [ 20.91986229, 48.84240653 ], [ 20.91936065, 48.84227282 ], [ 20.91920203, 48.84221587 ], [ 20.91900013, 48.84215935 ], [ 20.91869124, 48.84199765 ], [ 20.91853163, 48.8418743 ], [ 20.91827351, 48.84166136 ], [ 20.91798812, 48.84137943 ], [ 20.9178407, 48.8411587 ], [ 20.91772159, 48.84093694 ], [ 20.91768827, 48.84080363 ], [ 20.91766125, 48.84069277 ], [ 20.91772879, 48.84050073 ], [ 20.91779769, 48.84022057 ], [ 20.91782529, 48.84014424 ], [ 20.91789011, 48.83989223 ], [ 20.91803059, 48.83910365 ], [ 20.91819928, 48.83833116 ], [ 20.91837532, 48.83813485 ], [ 20.91842996, 48.83816551 ], [ 20.91879087, 48.83782084 ], [ 20.91903467, 48.83766716 ], [ 20.91991161, 48.83736474 ], [ 20.92060937, 48.83719531 ], [ 20.92073158, 48.83716729 ], [ 20.92071336, 48.83721944 ], [ 20.92110759, 48.83725642 ], [ 20.92138418, 48.83709484 ], [ 20.92153149, 48.83699814 ], [ 20.92181672, 48.83678138 ], [ 20.92210815, 48.83638915 ], [ 20.92233121, 48.8358581 ], [ 20.92236439, 48.83551389 ], [ 20.92237127, 48.83526802 ], [ 20.92226217, 48.83500852 ], [ 20.92217252, 48.83480091 ], [ 20.92199566, 48.83438244 ], [ 20.92199397, 48.83420328 ], [ 20.92185666, 48.83382369 ], [ 20.92178113, 48.83362403 ], [ 20.92159989, 48.83340856 ], [ 20.92154253, 48.83326849 ], [ 20.92152914, 48.83324049 ], [ 20.92127057, 48.83286275 ], [ 20.92133211, 48.83257875 ], [ 20.92137129, 48.8323862 ], [ 20.92124484, 48.83224173 ], [ 20.92084433, 48.83224947 ], [ 20.92045264, 48.83244805 ], [ 20.92058389, 48.83273477 ], [ 20.92071933, 48.83292691 ], [ 20.92101836, 48.83328242 ], [ 20.9212992, 48.83374771 ], [ 20.92130842, 48.83404806 ], [ 20.92140814, 48.83419424 ], [ 20.92151796, 48.8343386 ], [ 20.92154518, 48.83480299 ], [ 20.92148789, 48.8351625 ], [ 20.92135188, 48.83551 ], [ 20.92117803, 48.83577347 ], [ 20.92109337, 48.83586444 ], [ 20.92112132, 48.83590879 ], [ 20.92090721, 48.83609319 ], [ 20.92052473, 48.8364402 ], [ 20.92023823, 48.83664341 ], [ 20.92004095, 48.83674427 ], [ 20.91999797, 48.83678136 ], [ 20.91993998, 48.83681866 ], [ 20.91927083, 48.83717528 ], [ 20.91878668, 48.83743277 ], [ 20.91844491, 48.8376749 ], [ 20.91840177, 48.83770874 ], [ 20.91811055, 48.83795159 ], [ 20.91803388, 48.83803085 ], [ 20.91797106, 48.83814102 ], [ 20.91782165, 48.8382841 ], [ 20.9177133, 48.83836032 ], [ 20.91752162, 48.83834998 ], [ 20.91747026, 48.83873833 ], [ 20.91741743, 48.83893951 ], [ 20.91727209, 48.83927129 ], [ 20.91717887, 48.83959231 ], [ 20.91714182, 48.83972541 ], [ 20.91704977, 48.84030959 ], [ 20.917113, 48.84064148 ], [ 20.91711771, 48.84089224 ], [ 20.91726489, 48.84099987 ], [ 20.91721166, 48.84119392 ], [ 20.91706849, 48.84143942 ], [ 20.91751033, 48.84174807 ], [ 20.91764842, 48.84190437 ], [ 20.91774507, 48.84201101 ], [ 20.91807596, 48.84224441 ], [ 20.91810793, 48.84227377 ], [ 20.9185338, 48.84245932 ], [ 20.91912594, 48.84273512 ], [ 20.91951217, 48.84280713 ], [ 20.92005153, 48.8429613 ], [ 20.92009519, 48.84297718 ], [ 20.9205253, 48.84302699 ], [ 20.92056866, 48.8430379 ], [ 20.92107732, 48.84314286 ], [ 20.92226301, 48.84323092 ], [ 20.92314514, 48.84344606 ], [ 20.9235468, 48.84356919 ], [ 20.92371517, 48.84361133 ], [ 20.92434054, 48.843779 ], [ 20.92468569, 48.84387978 ], [ 20.92516917, 48.84402645 ], [ 20.9254761, 48.84415926 ], [ 20.92556296, 48.84418271 ], [ 20.92579277, 48.84424718 ], [ 20.92609717, 48.84433857 ], [ 20.9266456, 48.84452236 ], [ 20.92694645, 48.84464028 ], [ 20.92700617, 48.84467083 ], [ 20.92747384, 48.8448492 ], [ 20.92772367, 48.84495306 ], [ 20.927786, 48.84498686 ], [ 20.92810158, 48.84518082 ], [ 20.92826114, 48.84528758 ], [ 20.92838601, 48.84538606 ] ] ] } },
{ "type": "Feature", "properties": { "@featureType": "CadastralParcel", "areaValue": { "value": 15505, "@uom": "m2" }, "beginLifespanVersion": { "@nilReason": "http://inspire.ec.europa.eu/codelist/VoidReasonValue/Unpopulated", "@nil": "true" }, "endLifespanVersion": { "@nilReason": "http://inspire.ec.europa.eu/codelist/VoidReasonValue/Unpopulated", "@nil": "true" }, "inspireId": { "@dataType": "Identifier", "localId": "816001_4886.C", "namespace": "SK.ESKN.CP", "versionId": "20260703T05:07:32" }, "label": "4886", "nationalCadastralReference": "816001_4886.C", "referencePoint": { "type": "Point", "coordinates": [ 20.84231398, 48.82336424 ] }, "validFrom": "2026-06-30T16:00:00Z", "validTo": { "@nilReason": "http://inspire.ec.europa.eu/codelist/VoidReasonValue/Unpopulated", "@nil": "true" }, "administrativeUnit": { "@href": "#auAdmUnitS.2362" } }, "geometry": { "type": "Polygon", "coordinates": [ [ [ 20.83821521, 48.82194798 ], [ 20.83820153, 48.82197785 ], [ 20.83809271, 48.82219167 ], [ 20.83811161, 48.8222079 ], [ 20.83843918, 48.82223216 ], [ 20.83989439, 48.82268896 ], [ 20.84132017, 48.82313365 ], [ 20.84184872, 48.82332268 ], [ 20.84221279, 48.82345642 ], [ 20.84218555, 48.82350267 ], [ 20.84224007, 48.8235566 ], [ 20.84233701, 48.82374013 ], [ 20.84254083, 48.8237756 ], [ 20.84348834, 48.8240201 ], [ 20.84538217, 48.82477009 ], [ 20.84556203, 48.82481536 ], [ 20.8457794, 48.8248123 ], [ 20.84608795, 48.82465946 ], [ 20.84609902, 48.82465399 ], [ 20.84612591, 48.82462772 ], [ 20.84613345, 48.82462032 ], [ 20.84615013, 48.82458695 ], [ 20.84568902, 48.82451427 ], [ 20.84518118, 48.82439604 ], [ 20.84444419, 48.82416249 ], [ 20.84414206, 48.82403854 ], [ 20.84310996, 48.82361985 ], [ 20.84282505, 48.82340581 ], [ 20.8421842, 48.82323823 ], [ 20.83868269, 48.82213635 ], [ 20.83821521, 48.82194798 ] ] ] } },
{ "type": "Feature", "properties": { "@featureType": "CadastralParcel", "areaValue": { "value": 1961, "@uom": "m2" }, "beginLifespanVersion": { "@nilReason": "http://inspire.ec.europa.eu/codelist/VoidReasonValue/Unpopulated", "@nil": "true" }, "endLifespanVersion": { "@nilReason": "http://inspire.ec.europa.eu/codelist/VoidReasonValue/Unpopulated", "@nil": "true" }, "inspireId": { "@dataType": "Identifier", "localId": "816001_4838.C", "namespace": "SK.ESKN.CP", "versionId": "20260703T05:07:32" }, "label": "4838", "nationalCadastralReference": "816001_4838.C", "referencePoint": { "type": "Point", "coordinates": [ 20.8612891, 48.83501165 ] }, "validFrom": "2026-06-30T16:00:00Z", "validTo": { "@nilReason": "http://inspire.ec.europa.eu/codelist/VoidReasonValue/Unpopulated", "@nil": "true" }, "administrativeUnit": { "@href": "#auAdmUnitS.2362" } }, "geometry": { "type": "Polygon", "coordinates": [ [ [ 20.85812773, 48.83605448 ], [ 20.85793149, 48.83607973 ], [ 20.85778354, 48.83610851 ], [ 20.8577173, 48.83614073 ], [ 20.85789628, 48.83611112 ], [ 20.85849319, 48.836096 ], [ 20.85894778, 48.83605008 ], [ 20.85907115, 48.83607195 ], [ 20.85918805, 48.8360928 ], [ 20.85927278, 48.83607877 ], [ 20.85954901, 48.83595217 ], [ 20.85979838, 48.8358323 ], [ 20.85993816, 48.83577387 ], [ 20.86008132, 48.83572799 ], [ 20.86066817, 48.83563246 ], [ 20.86104028, 48.83549212 ], [ 20.86111124, 48.83546051 ], [ 20.86128643, 48.83531946 ], [ 20.86134688, 48.83523931 ], [ 20.86136193, 48.83517274 ], [ 20.86133806, 48.83506161 ], [ 20.86133424, 48.83504428 ], [ 20.86127228, 48.83491456 ], [ 20.86126322, 48.83489966 ], [ 20.86121413, 48.83481954 ], [ 20.86107964, 48.83469616 ], [ 20.86073611, 48.83447638 ], [ 20.86060084, 48.83440123 ], [ 20.86055195, 48.83437407 ], [ 20.86020267, 48.83414256 ], [ 20.85982712, 48.83382695 ], [ 20.85979376, 48.83387659 ], [ 20.85992041, 48.83395558 ], [ 20.85993308, 48.8339661 ], [ 20.86002005, 48.83403806 ], [ 20.86015606, 48.83415069 ], [ 20.86025818, 48.83422245 ], [ 20.8604778, 48.83437694 ], [ 20.86064872, 48.83446717 ], [ 20.86070779, 48.83449837 ], [ 20.86081792, 48.83456193 ], [ 20.86094644, 48.83463631 ], [ 20.86096084, 48.83464914 ], [ 20.86104579, 48.83472418 ], [ 20.86113355, 48.83480165 ], [ 20.86114658, 48.83481993 ], [ 20.86119498, 48.83488787 ], [ 20.86122361, 48.83492802 ], [ 20.86124552, 48.83497902 ], [ 20.86127677, 48.83505177 ], [ 20.86130408, 48.83511565 ], [ 20.86128963, 48.83516585 ], [ 20.86126804, 48.83524094 ], [ 20.8612215, 48.83531075 ], [ 20.8611379, 48.83536948 ], [ 20.86107726, 48.83541207 ], [ 20.8610426, 48.83543655 ], [ 20.86102063, 48.83544534 ], [ 20.86091948, 48.83548618 ], [ 20.86083959, 48.83551848 ], [ 20.86068787, 48.83557965 ], [ 20.8605784, 48.8356239 ], [ 20.86046377, 48.83564185 ], [ 20.86020234, 48.83567045 ], [ 20.8600901, 48.83569605 ], [ 20.85999232, 48.83571828 ], [ 20.85990496, 48.83573816 ], [ 20.85984258, 48.83576808 ], [ 20.85979368, 48.83579153 ], [ 20.85973598, 48.83581918 ], [ 20.8596987, 48.83583708 ], [ 20.8595994, 48.83588906 ], [ 20.85950877, 48.83593656 ], [ 20.85949155, 48.83594219 ], [ 20.85936888, 48.83598256 ], [ 20.85927745, 48.83601941 ], [ 20.85921319, 48.83603513 ], [ 20.85908461, 48.83603432 ], [ 20.85895339, 48.83600822 ], [ 20.85850709, 48.83606496 ], [ 20.85812773, 48.83605448 ] ] ] } },
{ "type": "Feature", "properties": { "@featureType": "CadastralParcel", "areaValue": { "value": 27530, "@uom": "m2" }, "beginLifespanVersion": { "@nilReason": "http://inspire.ec.europa.eu/codelist/VoidReasonValue/Unpopulated", "@nil": "true" }, "endLifespanVersion": { "@nilReason": "http://inspire.ec.europa.eu/codelist/VoidReasonValue/Unpopulated", "@nil": "true" }, "inspireId": { "@dataType": "Identifier", "localId": "816001_4895.C", "namespace": "SK.ESKN.CP", "versionId": "20260703T05:07:32" }, "label": "4895", "nationalCadastralReference": "816001_4895.C", "referencePoint": { "type": "Point", "coordinates": [ 20.88131599, 48.8284474 ] }, "validFrom": "2026-06-30T16:00:00Z", "validTo": { "@nilReason": "http://inspire.ec.europa.eu/codelist/VoidReasonValue/Unpopulated", "@nil": "true" }, "administrativeUnit": { "@href": "#auAdmUnitS.2362" } }, "geometry": { "type": "Polygon", "coordinates": [ [ [ 20.88166028, 48.82817142 ], [ 20.88153433, 48.82810589 ], [ 20.88146472, 48.82809956 ], [ 20.8814079, 48.82815994 ], [ 20.88120826, 48.82832351 ], [ 20.88112059, 48.8284383 ], [ 20.88108751, 48.82851777 ], [ 20.88101244, 48.82869819 ], [ 20.8808747, 48.82890908 ], [ 20.88075904, 48.82903292 ], [ 20.88047956, 48.82923708 ], [ 20.880012, 48.82944474 ], [ 20.87923479, 48.82982374 ], [ 20.87894247, 48.82992345 ], [ 20.87844564, 48.83011281 ], [ 20.87777038, 48.8302797 ], [ 20.87758938, 48.83026749 ], [ 20.87734992, 48.83021457 ], [ 20.87653151, 48.83006868 ], [ 20.87615245, 48.83013689 ], [ 20.87562231, 48.83002505 ], [ 20.87554883, 48.83000535 ], [ 20.8752107, 48.82975814 ], [ 20.87501461, 48.82959377 ], [ 20.8748525, 48.82942048 ], [ 20.87481388, 48.82929543 ], [ 20.87461153, 48.82913274 ], [ 20.87449499, 48.82903249 ], [ 20.87432656, 48.82890338 ], [ 20.87424904, 48.82882734 ], [ 20.87415785, 48.82873787 ], [ 20.87407476, 48.82863724 ], [ 20.87391651, 48.82840779 ], [ 20.87362327, 48.82798291 ], [ 20.87323596, 48.82744262 ], [ 20.87313137, 48.82730317 ], [ 20.87303284, 48.82716806 ], [ 20.87242951, 48.82682795 ], [ 20.87217152, 48.82671936 ], [ 20.87200291, 48.82666768 ], [ 20.87172246, 48.82657417 ], [ 20.87147613, 48.82650993 ], [ 20.87107711, 48.82642236 ], [ 20.87079022, 48.82636591 ], [ 20.87074023, 48.82635295 ], [ 20.87065516, 48.82641677 ], [ 20.8705701, 48.82648059 ], [ 20.87063931, 48.82650763 ], [ 20.87065493, 48.82651375 ], [ 20.87096872, 48.82660632 ], [ 20.87111953, 48.82661553 ], [ 20.87121911, 48.82665882 ], [ 20.87144012, 48.82673625 ], [ 20.87173, 48.82682603 ], [ 20.872018, 48.8268998 ], [ 20.87213236, 48.82694414 ], [ 20.87223257, 48.82698296 ], [ 20.87233475, 48.82703832 ], [ 20.87242149, 48.82708531 ], [ 20.87252561, 48.82713507 ], [ 20.87259659, 48.8271691 ], [ 20.87267058, 48.82721179 ], [ 20.87273477, 48.82725072 ], [ 20.8727827, 48.82730215 ], [ 20.87282825, 48.8273545 ], [ 20.87287267, 48.82740545 ], [ 20.87298415, 48.82753362 ], [ 20.87310266, 48.82766959 ], [ 20.87315814, 48.82774488 ], [ 20.87320389, 48.82780686 ], [ 20.87324034, 48.82786385 ], [ 20.87327386, 48.8279165 ], [ 20.87329949, 48.82795664 ], [ 20.87339011, 48.82809868 ], [ 20.87342429, 48.82816378 ], [ 20.87348915, 48.82826379 ], [ 20.8735075, 48.8282908 ], [ 20.87352976, 48.82832344 ], [ 20.87354896, 48.82835174 ], [ 20.87370904, 48.82855082 ], [ 20.87377942, 48.82865705 ], [ 20.87380903, 48.82874397 ], [ 20.87392518, 48.82886131 ], [ 20.87409783, 48.82903578 ], [ 20.87417115, 48.82910969 ], [ 20.87429796, 48.82919191 ], [ 20.87443806, 48.82937445 ], [ 20.87455438, 48.82951413 ], [ 20.87464626, 48.82957922 ], [ 20.8746913, 48.82966063 ], [ 20.87482257, 48.8298028 ], [ 20.87497693, 48.82991991 ], [ 20.8751898, 48.83002506 ], [ 20.87525541, 48.83007719 ], [ 20.87538323, 48.83014495 ], [ 20.8754055, 48.83015669 ], [ 20.87550476, 48.83020934 ], [ 20.8755696, 48.83024361 ], [ 20.87567085, 48.83028128 ], [ 20.8757757, 48.83032016 ], [ 20.87609079, 48.83039656 ], [ 20.87615308, 48.83044074 ], [ 20.87673853, 48.83049421 ], [ 20.87687154, 48.83045039 ], [ 20.8771307, 48.83045896 ], [ 20.87759588, 48.83052958 ], [ 20.87779426, 48.83049042 ], [ 20.87813982, 48.83041981 ], [ 20.87830707, 48.83034807 ], [ 20.87868604, 48.83023213 ], [ 20.87904907, 48.8301387 ], [ 20.8792769, 48.83005264 ], [ 20.8800218, 48.82970667 ], [ 20.88040147, 48.82954851 ], [ 20.88069363, 48.82943862 ], [ 20.88094185, 48.82935504 ], [ 20.88108855, 48.82914645 ], [ 20.88118682, 48.82895718 ], [ 20.88135826, 48.82865712 ], [ 20.88146655, 48.82845649 ], [ 20.88150265, 48.82846402 ], [ 20.88159382, 48.82834295 ], [ 20.881833, 48.8282597 ], [ 20.88166028, 48.82817142 ] ] ] } },
{ "type": "Feature", "properties": { "@featureType": "CadastralParcel", "areaValue": { "value": 12865, "@uom": "m2" }, "beginLifespanVersion": { "@nilReason": "http://inspire.ec.europa.eu/codelist/VoidReasonValue/Unpopulated", "@nil": "true" }, "endLifespanVersion": { "@nilReason": "http://inspire.ec.europa.eu/codelist/VoidReasonValue/Unpopulated", "@nil": "true" }, "inspireId": { "@dataType": "Identifier", "localId": "862401_5731/1.C", "namespace": "SK.ESKN.CP", "versionId": "20260703T06:07:39" }, "label": "5731/1", "nationalCadastralReference": "862401_5731/1.C", "referencePoint": { "type": "Point", "coordinates": [ 20.72775241, 48.80363849 ] }, "validFrom": "2026-06-30T16:00:00Z", "validTo": { "@nilReason": "http://inspire.ec.europa.eu/codelist/VoidReasonValue/Unpopulated", "@nil": "true" }, "administrativeUnit": { "@href": "#auAdmUnitS.835" } }, "geometry": { "type": "Polygon", "coordinates": [ [ [ 20.72779899, 48.8037001 ], [ 20.727892, 48.80379715 ], [ 20.72808541, 48.80376428 ], [ 20.72835209, 48.80358613 ], [ 20.72862511, 48.80338704 ], [ 20.72900788, 48.80325676 ], [ 20.72908014, 48.80319124 ], [ 20.72973137, 48.8029297 ], [ 20.72991114, 48.803011 ], [ 20.73011724, 48.80283673 ], [ 20.73030022, 48.80267858 ], [ 20.7303252, 48.8026782 ], [ 20.73036374, 48.80261148 ], [ 20.73021416, 48.8025445 ], [ 20.73016352, 48.80252181 ], [ 20.73001073, 48.80269769 ], [ 20.72982006, 48.80276416 ], [ 20.72945535, 48.80287184 ], [ 20.72843867, 48.80321319 ], [ 20.72743178, 48.80356641 ], [ 20.72708533, 48.80369085 ], [ 20.7268914, 48.80374693 ], [ 20.72654768, 48.80388813 ], [ 20.72605642, 48.80409002 ], [ 20.72524414, 48.80442364 ], [ 20.72470364, 48.80464575 ], [ 20.72517303, 48.80481072 ], [ 20.72590965, 48.80448199 ], [ 20.72779899, 48.8037001 ] ], [ [ 20.72694771, 48.80398029 ], [ 20.72696789, 48.80399884 ], [ 20.72692675, 48.80401855 ], [ 20.72690685, 48.80400001 ], [ 20.72694771, 48.80398029 ] ] ] } },
{ "type": "Feature", "properties": { "@featureType": "CadastralParcel", "areaValue": { "value": 6901, "@uom": "m2" }, "beginLifespanVersion": { "@nilReason": "http://inspire.ec.europa.eu/codelist/VoidReasonValue/Unpopulated", "@nil": "true" }, "endLifespanVersion": { "@nilReason": "http://inspire.ec.europa.eu/codelist/VoidReasonValue/Unpopulated", "@nil": "true" }, "inspireId": { "@dataType": "Identifier", "localId": "862401_5728.C", "namespace": "SK.ESKN.CP", "versionId": "20260703T06:07:39" }, "label": "5728", "nationalCadastralReference": "862401_5728.C", "referencePoint": { "type": "Point", "coordinates": [ 20.75076165, 48.79720301 ] }, "validFrom": "2026-06-30T16:00:00Z", "validTo": { "@nilReason": "http://inspire.ec.europa.eu/codelist/VoidReasonValue/Unpopulated", "@nil": "true" }, "administrativeUnit": { "@href": "#auAdmUnitS.835" } }, "geometry": { "type": "Polygon", "coordinates": [ [ [ 20.75145974, 48.79620905 ], [ 20.75137441, 48.79611941 ], [ 20.75126798, 48.79613421 ], [ 20.75120317, 48.79621775 ], [ 20.75096663, 48.79651544 ], [ 20.75072827, 48.79691844 ], [ 20.75066141, 48.7969766 ], [ 20.75056471, 48.79704993 ], [ 20.75052927, 48.79712928 ], [ 20.75052059, 48.79714888 ], [ 20.75047219, 48.79725714 ], [ 20.75035127, 48.79737707 ], [ 20.74985854, 48.79774787 ], [ 20.74980616, 48.79792218 ], [ 20.74979501, 48.79820205 ], [ 20.7500959, 48.79803118 ], [ 20.75032295, 48.7978225 ], [ 20.75053321, 48.79763943 ], [ 20.75097374, 48.79733271 ], [ 20.75115366, 48.7968938 ], [ 20.75121109, 48.79674119 ], [ 20.75132756, 48.79648547 ], [ 20.7514509, 48.796229 ], [ 20.75145974, 48.79620905 ] ] ] } },
{ "type": "Feature", "properties": { "@featureType": "CadastralParcel", "areaValue": { "value": 16863, "@uom": "m2" }, "beginLifespanVersion": { "@nilReason": "http://inspire.ec.europa.eu/codelist/VoidReasonValue/Unpopulated", "@nil": "true" }, "endLifespanVersion": { "@nilReason": "http://inspire.ec.europa.eu/codelist/VoidReasonValue/Unpopulated", "@nil": "true" }, "inspireId": { "@dataType": "Identifier", "localId": "862401_5729.C", "namespace": "SK.ESKN.CP", "versionId": "20260703T06:07:39" }, "label": "5729", "nationalCadastralReference": "862401_5729.C", "referencePoint": { "type": "Point", "coordinates": [ 20.74539972, 48.79901604 ] }, "validFrom": "2026-06-30T16:00:00Z", "validTo": { "@nilReason": "http://inspire.ec.europa.eu/codelist/VoidReasonValue/Unpopulated", "@nil": "true" }, "administrativeUnit": { "@href": "#auAdmUnitS.835" } }, "geometry": { "type": "Polygon", "coordinates": [ [ [ 20.74939984, 48.79804142 ], [ 20.74924557, 48.79810497 ], [ 20.74862638, 48.79832973 ], [ 20.74823761, 48.7984241 ], [ 20.74814133, 48.79844817 ], [ 20.74804479, 48.79842991 ], [ 20.74780248, 48.79847126 ], [ 20.74757495, 48.79851016 ], [ 20.74707122, 48.79856949 ], [ 20.74698822, 48.79858953 ], [ 20.74681388, 48.79863148 ], [ 20.74674758, 48.79865733 ], [ 20.74639891, 48.79878507 ], [ 20.74608425, 48.79885458 ], [ 20.74548189, 48.79894159 ], [ 20.74540231, 48.7989531 ], [ 20.74463917, 48.79905758 ], [ 20.74462291, 48.7990598 ], [ 20.74393232, 48.79914035 ], [ 20.7435472, 48.79920791 ], [ 20.74280282, 48.79934681 ], [ 20.74256154, 48.79938368 ], [ 20.74208834, 48.79942425 ], [ 20.74214752, 48.79946795 ], [ 20.74177389, 48.79957868 ], [ 20.74132681, 48.79963513 ], [ 20.74125492, 48.79964421 ], [ 20.74086816, 48.79972178 ], [ 20.74072681, 48.79975011 ], [ 20.74040638, 48.79980319 ], [ 20.74039136, 48.79988434 ], [ 20.74046741, 48.79997556 ], [ 20.74059931, 48.79999823 ], [ 20.7413732, 48.79984868 ], [ 20.74190145, 48.79974602 ], [ 20.74226011, 48.79970068 ], [ 20.74285515, 48.79962171 ], [ 20.74305672, 48.79951454 ], [ 20.74308837, 48.79949738 ], [ 20.74353318, 48.79946219 ], [ 20.74470184, 48.79923694 ], [ 20.74474707, 48.79922881 ], [ 20.74528795, 48.79913162 ], [ 20.74602946, 48.79898098 ], [ 20.74606105, 48.79898651 ], [ 20.74618446, 48.79900797 ], [ 20.74627681, 48.79902411 ], [ 20.74645282, 48.79899177 ], [ 20.74714279, 48.7988648 ], [ 20.74787538, 48.7987332 ], [ 20.7485893, 48.79857969 ], [ 20.74936943, 48.79835393 ], [ 20.74942709, 48.79831508 ], [ 20.74941024, 48.79820803 ], [ 20.74943045, 48.79820767 ], [ 20.74942504, 48.79816317 ], [ 20.74940469, 48.79815858 ], [ 20.74939984, 48.79804142 ] ] ] } },
{ "type": "Feature", "properties": { "@featureType": "CadastralParcel", "areaValue": { "value": 867, "@uom": "m2" }, "beginLifespanVersion": { "@nilReason": "http://inspire.ec.europa.eu/codelist/VoidReasonValue/Unpopulated", "@nil": "true" }, "endLifespanVersion": { "@nilReason": "http://inspire.ec.europa.eu/codelist/VoidReasonValue/Unpopulated", "@nil": "true" }, "inspireId": { "@dataType": "Identifier", "localId": "862401_250/1.E", "namespace": "SK.ESKN.CP", "versionId": "20260703T06:07:39" }, "label": "250/1", "nationalCadastralReference": "862401_250/1.E", "referencePoint": { "type": "Point", "coordinates": [ 20.71377089, 48.8204453 ] }, "validFrom": "2026-06-30T16:00:00Z", "validTo": { "@nilReason": "http://inspire.ec.europa.eu/codelist/VoidReasonValue/Unpopulated", "@nil": "true" }, "administrativeUnit": { "@href": "#auAdmUnitS.835" } }, "geometry": { "type": "Polygon", "coordinates": [ [ [ 20.71381591, 48.82064957 ], [ 20.71390135, 48.82065216 ], [ 20.71403156, 48.82065597 ], [ 20.71406965, 48.82065715 ], [ 20.71393968, 48.82047808 ], [ 20.71383264, 48.82031037 ], [ 20.71379354, 48.82024963 ], [ 20.71352005, 48.82032871 ], [ 20.71359519, 48.82041252 ], [ 20.71370918, 48.8205468 ], [ 20.71381591, 48.82064957 ] ] ] } }
]
}
