{
"type": "FeatureCollection",
"name": "gis",
"crs": { "type": "name", "properties": { "name": "urn:ogc:def:crs:OGC:1.3:CRS84" } },
"features": [
{ "type": "Feature", "properties": { "@featureType": "CadastralParcel", "areaValue": { "value": 1827, "@uom": "m2" }, "beginLifespanVersion": { "@nilReason": "http://inspire.ec.europa.eu/codelist/VoidReasonValue/Unpopulated", "@nil": "true" }, "endLifespanVersion": { "@nilReason": "http://inspire.ec.europa.eu/codelist/VoidReasonValue/Unpopulated", "@nil": "true" }, "inspireId": { "@dataType": "Identifier", "localId": "804274_15334/1.C", "namespace": "SK.ESKN.CP", "versionId": "20260703T04:07:46" }, "label": "15334/1", "nationalCadastralReference": "804274_15334/1.C", "referencePoint": { "type": "Point", "coordinates": [ 17.15086128, 48.14583385 ] }, "validFrom": "2026-06-30T16:00:00Z", "validTo": { "@nilReason": "http://inspire.ec.europa.eu/codelist/VoidReasonValue/Unpopulated", "@nil": "true" }, "administrativeUnit": { "@href": "#auAdmUnitS.2397" } }, "geometry": { "type": "Polygon", "coordinates": [ [ [ 17.15097435, 48.14525577 ], [ 17.15081142, 48.14562097 ], [ 17.15058644, 48.14612199 ], [ 17.15060347, 48.14612549 ], [ 17.15073152, 48.14615049 ], [ 17.150775, 48.14615144 ], [ 17.15080927, 48.14614805 ], [ 17.15085742, 48.1461297 ], [ 17.15088823, 48.14610629 ], [ 17.15090969, 48.14607502 ], [ 17.15092178, 48.14604673 ], [ 17.15114849, 48.14547866 ], [ 17.15109763, 48.14541548 ], [ 17.15097435, 48.14525577 ] ] ] } },
{ "type": "Feature", "properties": { "@featureType": "CadastralParcel", "areaValue": { "value": 528, "@uom": "m2" }, "beginLifespanVersion": { "@nilReason": "http://inspire.ec.europa.eu/codelist/VoidReasonValue/Unpopulated", "@nil": "true" }, "endLifespanVersion": { "@nilReason": "http://inspire.ec.europa.eu/codelist/VoidReasonValue/Unpopulated", "@nil": "true" }, "inspireId": { "@dataType": "Identifier", "localId": "804274_15344/37.C", "namespace": "SK.ESKN.CP", "versionId": "20260703T04:07:46" }, "label": "15344/37", "nationalCadastralReference": "804274_15344/37.C", "referencePoint": { "type": "Point", "coordinates": [ 17.15075949, 48.14565529 ] }, "validFrom": "2026-06-30T16:00:00Z", "validTo": { "@nilReason": "http://inspire.ec.europa.eu/codelist/VoidReasonValue/Unpopulated", "@nil": "true" }, "administrativeUnit": { "@href": "#auAdmUnitS.2397" } }, "geometry": { "type": "Polygon", "coordinates": [ [ [ 17.15097435, 48.14525577 ], [ 17.15092948, 48.14519769 ], [ 17.15070749, 48.14568961 ], [ 17.15071813, 48.14569159 ], [ 17.15071337, 48.14570167 ], [ 17.15070286, 48.14569969 ], [ 17.15059255, 48.14594425 ], [ 17.15056506, 48.14601642 ], [ 17.15052927, 48.14611054 ], [ 17.15058644, 48.14612199 ], [ 17.15081142, 48.14562097 ], [ 17.15097435, 48.14525577 ] ] ] } },
{ "type": "Feature", "properties": { "@featureType": "CadastralParcel", "areaValue": { "value": 10, "@uom": "m2" }, "beginLifespanVersion": { "@nilReason": "http://inspire.ec.europa.eu/codelist/VoidReasonValue/Unpopulated", "@nil": "true" }, "endLifespanVersion": { "@nilReason": "http://inspire.ec.europa.eu/codelist/VoidReasonValue/Unpopulated", "@nil": "true" }, "inspireId": { "@dataType": "Identifier", "localId": "804274_15344/36.C", "namespace": "SK.ESKN.CP", "versionId": "20260703T04:07:46" }, "label": "15344/36", "nationalCadastralReference": "804274_15344/36.C", "referencePoint": { "type": "Point", "coordinates": [ 17.15047799, 48.14465793 ] }, "validFrom": "2026-06-30T16:00:00Z", "validTo": { "@nilReason": "http://inspire.ec.europa.eu/codelist/VoidReasonValue/Unpopulated", "@nil": "true" }, "administrativeUnit": { "@href": "#auAdmUnitS.2397" } }, "geometry": { "type": "Polygon", "coordinates": [ [ [ 17.15041184, 48.14466944 ], [ 17.15051358, 48.14467178 ], [ 17.15049417, 48.14464643 ], [ 17.15041184, 48.14466944 ] ] ] } },
{ "type": "Feature", "properties": { "@featureType": "CadastralParcel", "areaValue": { "value": 5991, "@uom": "m2" }, "beginLifespanVersion": { "@nilReason": "http://inspire.ec.europa.eu/codelist/VoidReasonValue/Unpopulated", "@nil": "true" }, "endLifespanVersion": { "@nilReason": "http://inspire.ec.europa.eu/codelist/VoidReasonValue/Unpopulated", "@nil": "true" }, "inspireId": { "@dataType": "Identifier", "localId": "804274_15324/1.C", "namespace": "SK.ESKN.CP", "versionId": "20260703T04:07:46" }, "label": "15324/1", "nationalCadastralReference": "804274_15324/1.C", "referencePoint": { "type": "Point", "coordinates": [ 17.14875516, 48.14515244 ] }, "validFrom": "2026-06-30T16:00:00Z", "validTo": { "@nilReason": "http://inspire.ec.europa.eu/codelist/VoidReasonValue/Unpopulated", "@nil": "true" }, "administrativeUnit": { "@href": "#auAdmUnitS.2397" } }, "geometry": { "type": "Polygon", "coordinates": [ [ [ 17.14865881, 48.14595738 ], [ 17.14896242, 48.14596459 ], [ 17.14907456, 48.14596791 ], [ 17.14910199, 48.14596876 ], [ 17.1491025, 48.14596175 ], [ 17.14920808, 48.14596472 ], [ 17.14930428, 48.14596714 ], [ 17.14955973, 48.14597399 ], [ 17.14956241, 48.14597408 ], [ 17.14971311, 48.14594113 ], [ 17.14975585, 48.14593172 ], [ 17.1497844, 48.14539801 ], [ 17.14956043, 48.14539564 ], [ 17.14881328, 48.14538761 ], [ 17.14884182, 48.14468994 ], [ 17.14879191, 48.14468955 ], [ 17.1487211, 48.14468803 ], [ 17.14870681, 48.14468787 ], [ 17.14869723, 48.14491726 ], [ 17.14866222, 48.14575731 ], [ 17.14865608, 48.14593072 ], [ 17.14865881, 48.14595738 ] ] ] } },
{ "type": "Feature", "properties": { "@featureType": "CadastralParcel", "areaValue": { "value": 147, "@uom": "m2" }, "beginLifespanVersion": { "@nilReason": "http://inspire.ec.europa.eu/codelist/VoidReasonValue/Unpopulated", "@nil": "true" }, "endLifespanVersion": { "@nilReason": "http://inspire.ec.europa.eu/codelist/VoidReasonValue/Unpopulated", "@nil": "true" }, "inspireId": { "@dataType": "Identifier", "localId": "804274_15324/10.C", "namespace": "SK.ESKN.CP", "versionId": "20260703T04:07:46" }, "label": "15324/10", "nationalCadastralReference": "804274_15324/10.C", "referencePoint": { "type": "Point", "coordinates": [ 17.14981465, 48.14497411 ] }, "validFrom": "2026-06-30T16:00:00Z", "validTo": { "@nilReason": "http://inspire.ec.europa.eu/codelist/VoidReasonValue/Unpopulated", "@nil": "true" }, "administrativeUnit": { "@href": "#auAdmUnitS.2397" } }, "geometry": { "type": "Polygon", "coordinates": [ [ [ 17.14978521, 48.14538279 ], [ 17.14981243, 48.14539032 ], [ 17.14983728, 48.14470008 ], [ 17.14981299, 48.14469998 ], [ 17.14979077, 48.14524813 ], [ 17.14978521, 48.14538279 ] ] ] } },
{ "type": "Feature", "properties": { "@featureType": "CadastralParcel", "areaValue": { "value": 14, "@uom": "m2" }, "beginLifespanVersion": { "@nilReason": "http://inspire.ec.europa.eu/codelist/VoidReasonValue/Unpopulated", "@nil": "true" }, "endLifespanVersion": { "@nilReason": "http://inspire.ec.europa.eu/codelist/VoidReasonValue/Unpopulated", "@nil": "true" }, "inspireId": { "@dataType": "Identifier", "localId": "804274_15321/10.C", "namespace": "SK.ESKN.CP", "versionId": "20260703T04:07:46" }, "label": "15321/10", "nationalCadastralReference": "804274_15321/10.C", "referencePoint": { "type": "Point", "coordinates": [ 17.1486252, 48.1459426 ] }, "validFrom": "2026-06-30T16:00:00Z", "validTo": { "@nilReason": "http://inspire.ec.europa.eu/codelist/VoidReasonValue/Unpopulated", "@nil": "true" }, "administrativeUnit": { "@href": "#auAdmUnitS.2397" } }, "geometry": { "type": "Polygon", "coordinates": [ [ [ 17.14865881, 48.14595738 ], [ 17.14865608, 48.14593072 ], [ 17.14853013, 48.14595448 ], [ 17.14863028, 48.14595672 ], [ 17.14865881, 48.14595738 ] ] ] } },
{ "type": "Feature", "properties": { "@featureType": "CadastralParcel", "areaValue": { "value": 1020, "@uom": "m2" }, "beginLifespanVersion": { "@nilReason": "http://inspire.ec.europa.eu/codelist/VoidReasonValue/Unpopulated", "@nil": "true" }, "endLifespanVersion": { "@nilReason": "http://inspire.ec.europa.eu/codelist/VoidReasonValue/Unpopulated", "@nil": "true" }, "inspireId": { "@dataType": "Identifier", "localId": "804274_15344/12.C", "namespace": "SK.ESKN.CP", "versionId": "20260703T04:07:46" }, "label": "15344/12", "nationalCadastralReference": "804274_15344/12.C", "referencePoint": { "type": "Point", "coordinates": [ 17.1507479, 48.14544365 ] }, "validFrom": "2026-06-30T16:00:00Z", "validTo": { "@nilReason": "http://inspire.ec.europa.eu/codelist/VoidReasonValue/Unpopulated", "@nil": "true" }, "administrativeUnit": { "@href": "#auAdmUnitS.2397" } }, "geometry": { "type": "Polygon", "coordinates": [ [ [ 17.15098107, 48.14506948 ], [ 17.1508589, 48.14504307 ], [ 17.15046222, 48.14591819 ], [ 17.15059255, 48.14594425 ], [ 17.15070286, 48.14569969 ], [ 17.15071337, 48.14570167 ], [ 17.15071813, 48.14569159 ], [ 17.15070749, 48.14568961 ], [ 17.15092948, 48.14519769 ], [ 17.15098806, 48.14506787 ], [ 17.15098107, 48.14506948 ] ] ] } },
{ "type": "Feature", "properties": { "@featureType": "CadastralParcel", "areaValue": { "value": 3029, "@uom": "m2" }, "beginLifespanVersion": { "@nilReason": "http://inspire.ec.europa.eu/codelist/VoidReasonValue/Unpopulated", "@nil": "true" }, "endLifespanVersion": { "@nilReason": "http://inspire.ec.europa.eu/codelist/VoidReasonValue/Unpopulated", "@nil": "true" }, "inspireId": { "@dataType": "Identifier", "localId": "804274_15344/13.C", "namespace": "SK.ESKN.CP", "versionId": "20260703T04:07:46" }, "label": "15344/13", "nationalCadastralReference": "804274_15344/13.C", "referencePoint": { "type": "Point", "coordinates": [ 17.15013907, 48.14519091 ] }, "validFrom": "2026-06-30T16:00:00Z", "validTo": { "@nilReason": "http://inspire.ec.europa.eu/codelist/VoidReasonValue/Unpopulated", "@nil": "true" }, "administrativeUnit": { "@href": "#auAdmUnitS.2397" } }, "geometry": { "type": "Polygon", "coordinates": [ [ [ 17.1508678, 48.14494723 ], [ 17.15087023, 48.14491051 ], [ 17.15088157, 48.14474198 ], [ 17.15088387, 48.14470698 ], [ 17.15001342, 48.14469272 ], [ 17.15001168, 48.14472758 ], [ 17.15000353, 48.1448938 ], [ 17.14999486, 48.14489393 ], [ 17.1499727, 48.14543458 ], [ 17.15023444, 48.14543995 ], [ 17.15028452, 48.14544107 ], [ 17.15030654, 48.1449372 ], [ 17.1508678, 48.14494723 ] ] ] } },
{ "type": "Feature", "properties": { "@featureType": "CadastralParcel", "areaValue": { "value": 7020, "@uom": "m2" }, "beginLifespanVersion": { "@nilReason": "http://inspire.ec.europa.eu/codelist/VoidReasonValue/Unpopulated", "@nil": "true" }, "endLifespanVersion": { "@nilReason": "http://inspire.ec.europa.eu/codelist/VoidReasonValue/Unpopulated", "@nil": "true" }, "inspireId": { "@dataType": "Identifier", "localId": "804274_15344/1.C", "namespace": "SK.ESKN.CP", "versionId": "20260703T04:07:46" }, "label": "15344/1", "nationalCadastralReference": "804274_15344/1.C", "referencePoint": { "type": "Point", "coordinates": [ 17.15053492, 48.14522614 ] }, "validFrom": "2026-06-30T16:00:00Z", "validTo": { "@nilReason": "http://inspire.ec.europa.eu/codelist/VoidReasonValue/Unpopulated", "@nil": "true" }, "administrativeUnit": { "@href": "#auAdmUnitS.2397" } }, "geometry": { "type": "Polygon", "coordinates": [ [ [ 17.15001342, 48.14469272 ], [ 17.15088387, 48.14470698 ], [ 17.1508654, 48.14468973 ], [ 17.1508262, 48.14467922 ], [ 17.15051358, 48.14467178 ], [ 17.15041184, 48.14466944 ], [ 17.14984716, 48.14465601 ], [ 17.14983302, 48.14465578 ], [ 17.14983728, 48.14470008 ], [ 17.14981243, 48.14539032 ], [ 17.14978521, 48.14538279 ], [ 17.1497844, 48.14539801 ], [ 17.14975585, 48.14593172 ], [ 17.14979649, 48.14599728 ], [ 17.15037687, 48.1460087 ], [ 17.15038311, 48.14601662 ], [ 17.15056506, 48.14601642 ], [ 17.15059255, 48.14594425 ], [ 17.15046222, 48.14591819 ], [ 17.1508589, 48.14504307 ], [ 17.15098107, 48.14506948 ], [ 17.1509942, 48.14502083 ], [ 17.15098365, 48.14491247 ], [ 17.1509729, 48.14480274 ], [ 17.15096756, 48.14477544 ], [ 17.15094057, 48.14474298 ], [ 17.15092744, 48.14472709 ], [ 17.1508974, 48.14470771 ], [ 17.15088387, 48.14470698 ], [ 17.15088157, 48.14474198 ], [ 17.15087023, 48.14491051 ], [ 17.1508678, 48.14494723 ], [ 17.15030654, 48.1449372 ], [ 17.15028452, 48.14544107 ], [ 17.15023444, 48.14543995 ], [ 17.1499727, 48.14543458 ], [ 17.14999486, 48.14489393 ], [ 17.15000353, 48.1448938 ], [ 17.15001168, 48.14472758 ], [ 17.15001342, 48.14469272 ] ], [ [ 17.1498187, 48.1459431 ], [ 17.14982102, 48.14588108 ], [ 17.14982197, 48.14585411 ], [ 17.1498865, 48.14585521 ], [ 17.14990118, 48.14585548 ], [ 17.15025641, 48.14586164 ], [ 17.15028321, 48.1458621 ], [ 17.15028186, 48.14588813 ], [ 17.15027899, 48.14594036 ], [ 17.15027844, 48.14595117 ], [ 17.1502395, 48.14595053 ], [ 17.14988214, 48.14594422 ], [ 17.1498187, 48.1459431 ] ] ] } },
{ "type": "Feature", "properties": { "@featureType": "CadastralParcel", "areaValue": { "value": 326, "@uom": "m2" }, "beginLifespanVersion": { "@nilReason": "http://inspire.ec.europa.eu/codelist/VoidReasonValue/Unpopulated", "@nil": "true" }, "endLifespanVersion": { "@nilReason": "http://inspire.ec.europa.eu/codelist/VoidReasonValue/Unpopulated", "@nil": "true" }, "inspireId": { "@dataType": "Identifier", "localId": "804274_15344/11.C", "namespace": "SK.ESKN.CP", "versionId": "20260703T04:07:46" }, "label": "15344/11", "nationalCadastralReference": "804274_15344/11.C", "referencePoint": { "type": "Point", "coordinates": [ 17.1500501, 48.14591424 ] }, "validFrom": "2026-06-30T16:00:00Z", "validTo": { "@nilReason": "http://inspire.ec.europa.eu/codelist/VoidReasonValue/Unpopulated", "@nil": "true" }, "administrativeUnit": { "@href": "#auAdmUnitS.2397" } }, "geometry": { "type": "Polygon", "coordinates": [ [ [ 17.1498187, 48.1459431 ], [ 17.14988214, 48.14594422 ], [ 17.1502395, 48.14595053 ], [ 17.15027899, 48.14594036 ], [ 17.15028186, 48.14588813 ], [ 17.15025641, 48.14586164 ], [ 17.14990118, 48.14585548 ], [ 17.14988628, 48.14586026 ], [ 17.14982102, 48.14588108 ], [ 17.1498187, 48.1459431 ] ] ] } },
{ "type": "Feature", "properties": { "@featureType": "CadastralParcel", "areaValue": { "value": 3, "@uom": "m2" }, "beginLifespanVersion": { "@nilReason": "http://inspire.ec.europa.eu/codelist/VoidReasonValue/Unpopulated", "@nil": "true" }, "endLifespanVersion": { "@nilReason": "http://inspire.ec.europa.eu/codelist/VoidReasonValue/Unpopulated", "@nil": "true" }, "inspireId": { "@dataType": "Identifier", "localId": "804274_15344/34.C", "namespace": "SK.ESKN.CP", "versionId": "20260703T04:07:46" }, "label": "15344/34", "nationalCadastralReference": "804274_15344/34.C", "referencePoint": { "type": "Point", "coordinates": [ 17.15027594, 48.14587511 ] }, "validFrom": "2026-06-30T16:00:00Z", "validTo": { "@nilReason": "http://inspire.ec.europa.eu/codelist/VoidReasonValue/Unpopulated", "@nil": "true" }, "administrativeUnit": { "@href": "#auAdmUnitS.2397" } }, "geometry": { "type": "Polygon", "coordinates": [ [ [ 17.15028186, 48.14588813 ], [ 17.15028321, 48.1458621 ], [ 17.15025641, 48.14586164 ], [ 17.15028186, 48.14588813 ] ] ] } },
{ "type": "Feature", "properties": { "@featureType": "CadastralParcel", "areaValue": { "value": 2, "@uom": "m2" }, "beginLifespanVersion": { "@nilReason": "http://inspire.ec.europa.eu/codelist/VoidReasonValue/Unpopulated", "@nil": "true" }, "endLifespanVersion": { "@nilReason": "http://inspire.ec.europa.eu/codelist/VoidReasonValue/Unpopulated", "@nil": "true" }, "inspireId": { "@dataType": "Identifier", "localId": "804274_15344/33.C", "namespace": "SK.ESKN.CP", "versionId": "20260703T04:07:46" }, "label": "15344/33", "nationalCadastralReference": "804274_15344/33.C", "referencePoint": { "type": "Point", "coordinates": [ 17.15026899, 48.14594544 ] }, "validFrom": "2026-06-30T16:00:00Z", "validTo": { "@nilReason": "http://inspire.ec.europa.eu/codelist/VoidReasonValue/Unpopulated", "@nil": "true" }, "administrativeUnit": { "@href": "#auAdmUnitS.2397" } }, "geometry": { "type": "Polygon", "coordinates": [ [ [ 17.1502395, 48.14595053 ], [ 17.15027844, 48.14595117 ], [ 17.15027899, 48.14594036 ], [ 17.1502395, 48.14595053 ] ] ] } },
{ "type": "Feature", "properties": { "@featureType": "CadastralParcel", "areaValue": { "value": 9, "@uom": "m2" }, "beginLifespanVersion": { "@nilReason": "http://inspire.ec.europa.eu/codelist/VoidReasonValue/Unpopulated", "@nil": "true" }, "endLifespanVersion": { "@nilReason": "http://inspire.ec.europa.eu/codelist/VoidReasonValue/Unpopulated", "@nil": "true" }, "inspireId": { "@dataType": "Identifier", "localId": "804274_15344/32.C", "namespace": "SK.ESKN.CP", "versionId": "20260703T04:07:46" }, "label": "15344/32", "nationalCadastralReference": "804274_15344/32.C", "referencePoint": { "type": "Point", "coordinates": [ 17.14983752, 48.14587067 ] }, "validFrom": "2026-06-30T16:00:00Z", "validTo": { "@nilReason": "http://inspire.ec.europa.eu/codelist/VoidReasonValue/Unpopulated", "@nil": "true" }, "administrativeUnit": { "@href": "#auAdmUnitS.2397" } }, "geometry": { "type": "Polygon", "coordinates": [ [ [ 17.14982102, 48.14588108 ], [ 17.14988628, 48.14586026 ], [ 17.14990118, 48.14585548 ], [ 17.1498865, 48.14585521 ], [ 17.14982197, 48.14585411 ], [ 17.14982102, 48.14588108 ] ] ] } },
{ "type": "Feature", "properties": { "@featureType": "CadastralParcel", "areaValue": { "value": 278, "@uom": "m2" }, "beginLifespanVersion": { "@nilReason": "http://inspire.ec.europa.eu/codelist/VoidReasonValue/Unpopulated", "@nil": "true" }, "endLifespanVersion": { "@nilReason": "http://inspire.ec.europa.eu/codelist/VoidReasonValue/Unpopulated", "@nil": "true" }, "inspireId": { "@dataType": "Identifier", "localId": "804274_15324/11.C", "namespace": "SK.ESKN.CP", "versionId": "20260703T04:07:46" }, "label": "15324/11", "nationalCadastralReference": "804274_15324/11.C", "referencePoint": { "type": "Point", "coordinates": [ 17.14967588, 48.14531546 ] }, "validFrom": "2026-06-30T16:00:00Z", "validTo": { "@nilReason": "http://inspire.ec.europa.eu/codelist/VoidReasonValue/Unpopulated", "@nil": "true" }, "administrativeUnit": { "@href": "#auAdmUnitS.2397" } }, "geometry": { "type": "Polygon", "coordinates": [ [ [ 17.14956043, 48.14539564 ], [ 17.1497844, 48.14539801 ], [ 17.14978521, 48.14538279 ], [ 17.14979077, 48.14524813 ], [ 17.14956667, 48.14524575 ], [ 17.14956043, 48.14539564 ] ] ] } },
{ "type": "Feature", "properties": { "@featureType": "CadastralParcel", "areaValue": { "value": 5322, "@uom": "m2" }, "beginLifespanVersion": { "@nilReason": "http://inspire.ec.europa.eu/codelist/VoidReasonValue/Unpopulated", "@nil": "true" }, "endLifespanVersion": { "@nilReason": "http://inspire.ec.europa.eu/codelist/VoidReasonValue/Unpopulated", "@nil": "true" }, "inspireId": { "@dataType": "Identifier", "localId": "804274_15324/9.C", "namespace": "SK.ESKN.CP", "versionId": "20260703T04:07:46" }, "label": "15324/9", "nationalCadastralReference": "804274_15324/9.C", "referencePoint": { "type": "Point", "coordinates": [ 17.14931609, 48.14497287 ] }, "validFrom": "2026-06-30T16:00:00Z", "validTo": { "@nilReason": "http://inspire.ec.europa.eu/codelist/VoidReasonValue/Unpopulated", "@nil": "true" }, "administrativeUnit": { "@href": "#auAdmUnitS.2397" } }, "geometry": { "type": "Polygon", "coordinates": [ [ [ 17.14884182, 48.14468994 ], [ 17.14881328, 48.14538761 ], [ 17.14956043, 48.14539564 ], [ 17.14956667, 48.14524575 ], [ 17.14979077, 48.14524813 ], [ 17.14981299, 48.14469998 ], [ 17.14972421, 48.14469941 ], [ 17.14961205, 48.1446989 ], [ 17.14956711, 48.14469866 ], [ 17.1494064, 48.14469686 ], [ 17.14931418, 48.14469579 ], [ 17.14891359, 48.14469053 ], [ 17.14884182, 48.14468994 ] ] ] } },
{ "type": "Feature", "properties": { "@featureType": "CadastralParcel", "areaValue": { "value": 49, "@uom": "m2" }, "beginLifespanVersion": { "@nilReason": "http://inspire.ec.europa.eu/codelist/VoidReasonValue/Unpopulated", "@nil": "true" }, "endLifespanVersion": { "@nilReason": "http://inspire.ec.europa.eu/codelist/VoidReasonValue/Unpopulated", "@nil": "true" }, "inspireId": { "@dataType": "Identifier", "localId": "804274_15346/11.C", "namespace": "SK.ESKN.CP", "versionId": "20260703T04:07:46" }, "label": "15346/11", "nationalCadastralReference": "804274_15346/11.C", "referencePoint": { "type": "Point", "coordinates": [ 17.14850945, 48.14460628 ] }, "validFrom": "2026-06-30T16:00:00Z", "validTo": { "@nilReason": "http://inspire.ec.europa.eu/codelist/VoidReasonValue/Unpopulated", "@nil": "true" }, "administrativeUnit": { "@href": "#auAdmUnitS.2397" } }, "geometry": { "type": "Polygon", "coordinates": [ [ [ 17.1484063, 48.14458218 ], [ 17.14845633, 48.14458718 ], [ 17.14845537, 48.14461776 ], [ 17.14849557, 48.14462255 ], [ 17.14854611, 48.14462858 ], [ 17.14857243, 48.14463858 ], [ 17.14856829, 48.14461408 ], [ 17.14855808, 48.14459848 ], [ 17.14854257, 48.14458487 ], [ 17.14852193, 48.14457488 ], [ 17.14849761, 48.14456954 ], [ 17.14847377, 48.14456639 ], [ 17.14844952, 48.14456783 ], [ 17.14842657, 48.14457315 ], [ 17.1484063, 48.14458218 ] ] ] } },
{ "type": "Feature", "properties": { "@featureType": "CadastralParcel", "areaValue": { "value": 39, "@uom": "m2" }, "beginLifespanVersion": { "@nilReason": "http://inspire.ec.europa.eu/codelist/VoidReasonValue/Unpopulated", "@nil": "true" }, "endLifespanVersion": { "@nilReason": "http://inspire.ec.europa.eu/codelist/VoidReasonValue/Unpopulated", "@nil": "true" }, "inspireId": { "@dataType": "Identifier", "localId": "804274_15346/10.C", "namespace": "SK.ESKN.CP", "versionId": "20260703T04:07:46" }, "label": "15346/10", "nationalCadastralReference": "804274_15346/10.C", "referencePoint": { "type": "Point", "coordinates": [ 17.14864915, 48.14465799 ] }, "validFrom": "2026-06-30T16:00:00Z", "validTo": { "@nilReason": "http://inspire.ec.europa.eu/codelist/VoidReasonValue/Unpopulated", "@nil": "true" }, "administrativeUnit": { "@href": "#auAdmUnitS.2397" } }, "geometry": { "type": "Polygon", "coordinates": [ [ [ 17.14857066, 48.14467633 ], [ 17.14870653, 48.144679 ], [ 17.14872027, 48.14466221 ], [ 17.14873329, 48.14465378 ], [ 17.14857243, 48.14463858 ], [ 17.14857066, 48.14467633 ] ] ] } },
{ "type": "Feature", "properties": { "@featureType": "CadastralParcel", "areaValue": { "value": 55, "@uom": "m2" }, "beginLifespanVersion": { "@nilReason": "http://inspire.ec.europa.eu/codelist/VoidReasonValue/Unpopulated", "@nil": "true" }, "endLifespanVersion": { "@nilReason": "http://inspire.ec.europa.eu/codelist/VoidReasonValue/Unpopulated", "@nil": "true" }, "inspireId": { "@dataType": "Identifier", "localId": "804274_15346/9.C", "namespace": "SK.ESKN.CP", "versionId": "20260703T04:07:46" }, "label": "15346/9", "nationalCadastralReference": "804274_15346/9.C", "referencePoint": { "type": "Point", "coordinates": [ 17.14881255, 48.14467217 ] }, "validFrom": "2026-06-30T16:00:00Z", "validTo": { "@nilReason": "http://inspire.ec.europa.eu/codelist/VoidReasonValue/Unpopulated", "@nil": "true" }, "administrativeUnit": { "@href": "#auAdmUnitS.2397" } }, "geometry": { "type": "Polygon", "coordinates": [ [ [ 17.14870681, 48.14468787 ], [ 17.1487211, 48.14468803 ], [ 17.14879191, 48.14468955 ], [ 17.14884182, 48.14468994 ], [ 17.14891359, 48.14469053 ], [ 17.14891259, 48.14465946 ], [ 17.14880659, 48.14465041 ], [ 17.14878776, 48.14465167 ], [ 17.14877103, 48.14465696 ], [ 17.14875342, 48.14466535 ], [ 17.14872027, 48.14466221 ], [ 17.14870653, 48.144679 ], [ 17.14870681, 48.14468787 ] ] ] } },
{ "type": "Feature", "properties": { "@featureType": "CadastralParcel", "areaValue": { "value": 1476, "@uom": "m2" }, "beginLifespanVersion": { "@nilReason": "http://inspire.ec.europa.eu/codelist/VoidReasonValue/Unpopulated", "@nil": "true" }, "endLifespanVersion": { "@nilReason": "http://inspire.ec.europa.eu/codelist/VoidReasonValue/Unpopulated", "@nil": "true" }, "inspireId": { "@dataType": "Identifier", "localId": "804274_15346/7.C", "namespace": "SK.ESKN.CP", "versionId": "20260703T04:07:46" }, "label": "15346/7", "nationalCadastralReference": "804274_15346/7.C", "referencePoint": { "type": "Point", "coordinates": [ 17.14856985, 48.14453894 ] }, "validFrom": "2026-06-30T16:00:00Z", "validTo": { "@nilReason": "http://inspire.ec.europa.eu/codelist/VoidReasonValue/Unpopulated", "@nil": "true" }, "administrativeUnit": { "@href": "#auAdmUnitS.2397" } }, "geometry": { "type": "Polygon", "coordinates": [ [ [ 17.14857243, 48.14463858 ], [ 17.14873329, 48.14465378 ], [ 17.14875222, 48.14464285 ], [ 17.14877374, 48.14463536 ], [ 17.14879328, 48.14463207 ], [ 17.14891193, 48.14464143 ], [ 17.14890808, 48.14452538 ], [ 17.14877465, 48.14450833 ], [ 17.14843396, 48.14447033 ], [ 17.14831864, 48.14445677 ], [ 17.14821056, 48.14444622 ], [ 17.14806981, 48.14443563 ], [ 17.14792988, 48.14442944 ], [ 17.14785317, 48.14442761 ], [ 17.14768801, 48.1444302 ], [ 17.14722185, 48.14443253 ], [ 17.14706589, 48.14442878 ], [ 17.14714136, 48.1445033 ], [ 17.1473101, 48.14450655 ], [ 17.14732967, 48.14450751 ], [ 17.14734726, 48.14451177 ], [ 17.14736235, 48.14452011 ], [ 17.14737263, 48.14453075 ], [ 17.14746067, 48.14453263 ], [ 17.147481, 48.14452234 ], [ 17.1475036, 48.14451482 ], [ 17.14752781, 48.14451013 ], [ 17.14790326, 48.14451821 ], [ 17.14813843, 48.14452966 ], [ 17.14822014, 48.1445368 ], [ 17.14824218, 48.14454109 ], [ 17.14826111, 48.14454906 ], [ 17.14827628, 48.14456038 ], [ 17.14828023, 48.14456824 ], [ 17.1484063, 48.14458218 ], [ 17.14842657, 48.14457315 ], [ 17.14844952, 48.14456783 ], [ 17.14847377, 48.14456639 ], [ 17.14849761, 48.14456954 ], [ 17.14852193, 48.14457488 ], [ 17.14854257, 48.14458487 ], [ 17.14855808, 48.14459848 ], [ 17.14856829, 48.14461408 ], [ 17.14857243, 48.14463858 ] ] ] } },
{ "type": "Feature", "properties": { "@featureType": "CadastralParcel", "areaValue": { "value": 97, "@uom": "m2" }, "beginLifespanVersion": { "@nilReason": "http://inspire.ec.europa.eu/codelist/VoidReasonValue/Unpopulated", "@nil": "true" }, "endLifespanVersion": { "@nilReason": "http://inspire.ec.europa.eu/codelist/VoidReasonValue/Unpopulated", "@nil": "true" }, "inspireId": { "@dataType": "Identifier", "localId": "804274_15346/8.C", "namespace": "SK.ESKN.CP", "versionId": "20260703T04:07:46" }, "label": "15346/8", "nationalCadastralReference": "804274_15346/8.C", "referencePoint": { "type": "Point", "coordinates": [ 17.14906731, 48.14464967 ] }, "validFrom": "2026-06-30T16:00:00Z", "validTo": { "@nilReason": "http://inspire.ec.europa.eu/codelist/VoidReasonValue/Unpopulated", "@nil": "true" }, "administrativeUnit": { "@href": "#auAdmUnitS.2397" } }, "geometry": { "type": "Polygon", "coordinates": [ [ [ 17.14872027, 48.14466221 ], [ 17.14875342, 48.14466535 ], [ 17.14877103, 48.14465696 ], [ 17.14878776, 48.14465167 ], [ 17.14880659, 48.14465041 ], [ 17.14891259, 48.14465946 ], [ 17.14900218, 48.14466632 ], [ 17.14905829, 48.14466686 ], [ 17.14912624, 48.14466403 ], [ 17.1492514, 48.1446535 ], [ 17.14930652, 48.14465251 ], [ 17.14940112, 48.14465393 ], [ 17.14938369, 48.14464317 ], [ 17.14936222, 48.14463693 ], [ 17.14930028, 48.14463474 ], [ 17.14924724, 48.14463631 ], [ 17.1491138, 48.1446471 ], [ 17.14905518, 48.14464893 ], [ 17.14900519, 48.14464818 ], [ 17.14891193, 48.14464143 ], [ 17.14879328, 48.14463207 ], [ 17.14877374, 48.14463536 ], [ 17.14875222, 48.14464285 ], [ 17.14873329, 48.14465378 ], [ 17.14872027, 48.14466221 ] ] ] } },
{ "type": "Feature", "properties": { "@featureType": "CadastralParcel", "areaValue": { "value": 496, "@uom": "m2" }, "beginLifespanVersion": { "@nilReason": "http://inspire.ec.europa.eu/codelist/VoidReasonValue/Unpopulated", "@nil": "true" }, "endLifespanVersion": { "@nilReason": "http://inspire.ec.europa.eu/codelist/VoidReasonValue/Unpopulated", "@nil": "true" }, "inspireId": { "@dataType": "Identifier", "localId": "804274_15324/1.E", "namespace": "SK.ESKN.CP", "versionId": "20260703T04:07:46" }, "label": "15324/1", "nationalCadastralReference": "804274_15324/1.E", "referencePoint": { "type": "Point", "coordinates": [ 17.14949348, 48.14466175 ] }, "validFrom": "2026-06-30T16:00:00Z", "validTo": { "@nilReason": "http://inspire.ec.europa.eu/codelist/VoidReasonValue/Unpopulated", "@nil": "true" }, "administrativeUnit": { "@href": "#auAdmUnitS.2397" } }, "geometry": { "type": "Polygon", "coordinates": [ [ [ 17.14984046, 48.14462519 ], [ 17.14970257, 48.14462429 ], [ 17.14891127, 48.14461897 ], [ 17.14891193, 48.14464143 ], [ 17.14900519, 48.14464818 ], [ 17.14905518, 48.14464893 ], [ 17.1491138, 48.1446471 ], [ 17.14924724, 48.14463631 ], [ 17.14930028, 48.14463474 ], [ 17.14936222, 48.14463693 ], [ 17.14938369, 48.14464317 ], [ 17.14940112, 48.14465393 ], [ 17.14930652, 48.14465251 ], [ 17.1492514, 48.1446535 ], [ 17.14912624, 48.14466403 ], [ 17.14905829, 48.14466686 ], [ 17.14900218, 48.14466632 ], [ 17.14891259, 48.14465946 ], [ 17.14891359, 48.14469053 ], [ 17.14931418, 48.14469579 ], [ 17.1494064, 48.14469686 ], [ 17.14956711, 48.14469866 ], [ 17.14961205, 48.1446989 ], [ 17.14972421, 48.14469941 ], [ 17.14983728, 48.14470008 ], [ 17.14983302, 48.14465578 ], [ 17.14984002, 48.14465589 ], [ 17.14984046, 48.14462519 ] ] ] } },
{ "type": "Feature", "properties": { "@featureType": "CadastralParcel", "areaValue": { "value": 2581, "@uom": "m2" }, "beginLifespanVersion": { "@nilReason": "http://inspire.ec.europa.eu/codelist/VoidReasonValue/Unpopulated", "@nil": "true" }, "endLifespanVersion": { "@nilReason": "http://inspire.ec.europa.eu/codelist/VoidReasonValue/Unpopulated", "@nil": "true" }, "inspireId": { "@dataType": "Identifier", "localId": "804274_15337.E", "namespace": "SK.ESKN.CP", "versionId": "20260703T04:07:46" }, "label": "15337", "nationalCadastralReference": "804274_15337.E", "referencePoint": { "type": "Point", "coordinates": [ 17.15119068, 48.14522673 ] }, "validFrom": "2026-06-30T16:00:00Z", "validTo": { "@nilReason": "http://inspire.ec.europa.eu/codelist/VoidReasonValue/Unpopulated", "@nil": "true" }, "administrativeUnit": { "@href": "#auAdmUnitS.2397" } }, "geometry": { "type": "Polygon", "coordinates": [ [ [ 17.151272, 48.14562791 ], [ 17.15136824, 48.14538267 ], [ 17.15138288, 48.14534552 ], [ 17.15139937, 48.14530243 ], [ 17.15149181, 48.14506977 ], [ 17.1514953, 48.14506097 ], [ 17.15154147, 48.14494631 ], [ 17.15161276, 48.1447689 ], [ 17.15098027, 48.14487753 ], [ 17.15098365, 48.14491247 ], [ 17.1509942, 48.14502083 ], [ 17.15098107, 48.14506948 ], [ 17.15098806, 48.14506787 ], [ 17.15092948, 48.14519769 ], [ 17.15097435, 48.14525577 ], [ 17.15109763, 48.14541548 ], [ 17.15114849, 48.14547866 ], [ 17.15122071, 48.14556588 ], [ 17.15124766, 48.14559852 ], [ 17.151272, 48.14562791 ] ] ] } },
{ "type": "Feature", "properties": { "@featureType": "CadastralParcel", "areaValue": { "value": 1054, "@uom": "m2" }, "beginLifespanVersion": { "@nilReason": "http://inspire.ec.europa.eu/codelist/VoidReasonValue/Unpopulated", "@nil": "true" }, "endLifespanVersion": { "@nilReason": "http://inspire.ec.europa.eu/codelist/VoidReasonValue/Unpopulated", "@nil": "true" }, "inspireId": { "@dataType": "Identifier", "localId": "804274_15343.E", "namespace": "SK.ESKN.CP", "versionId": "20260703T04:07:46" }, "label": "15343", "nationalCadastralReference": "804274_15343.E", "referencePoint": { "type": "Point", "coordinates": [ 17.15127884, 48.14472972 ] }, "validFrom": "2026-06-30T16:00:00Z", "validTo": { "@nilReason": "http://inspire.ec.europa.eu/codelist/VoidReasonValue/Unpopulated", "@nil": "true" }, "administrativeUnit": { "@href": "#auAdmUnitS.2397" } }, "geometry": { "type": "Polygon", "coordinates": [ [ [ 17.15124242, 48.14463454 ], [ 17.15057293, 48.14463014 ], [ 17.15049417, 48.14464643 ], [ 17.15051358, 48.14467178 ], [ 17.1508262, 48.14467922 ], [ 17.1508654, 48.14468973 ], [ 17.15088387, 48.14470698 ], [ 17.1508974, 48.14470771 ], [ 17.15092744, 48.14472709 ], [ 17.15094057, 48.14474298 ], [ 17.15096756, 48.14477544 ], [ 17.1509729, 48.14480274 ], [ 17.15097691, 48.14484423 ], [ 17.15162704, 48.14473235 ], [ 17.15163408, 48.14471429 ], [ 17.15155929, 48.14461904 ], [ 17.15144863, 48.14462839 ], [ 17.15143453, 48.14462961 ], [ 17.15139424, 48.14463168 ], [ 17.15125399, 48.14463126 ], [ 17.15124386, 48.14463121 ], [ 17.15124242, 48.14463454 ] ] ] } },
{ "type": "Feature", "properties": { "@featureType": "CadastralParcel", "areaValue": { "value": 31, "@uom": "m2" }, "beginLifespanVersion": { "@nilReason": "http://inspire.ec.europa.eu/codelist/VoidReasonValue/Unpopulated", "@nil": "true" }, "endLifespanVersion": { "@nilReason": "http://inspire.ec.europa.eu/codelist/VoidReasonValue/Unpopulated", "@nil": "true" }, "inspireId": { "@dataType": "Identifier", "localId": "804274_15346/101.E", "namespace": "SK.ESKN.CP", "versionId": "20260703T04:07:46" }, "label": "15346/101", "nationalCadastralReference": "804274_15346/101.E", "referencePoint": { "type": "Point", "coordinates": [ 17.14989906, 48.14464092 ] }, "validFrom": "2026-06-30T16:00:00Z", "validTo": { "@nilReason": "http://inspire.ec.europa.eu/codelist/VoidReasonValue/Unpopulated", "@nil": "true" }, "administrativeUnit": { "@href": "#auAdmUnitS.2397" } }, "geometry": { "type": "Polygon", "coordinates": [ [ [ 17.14994812, 48.14462594 ], [ 17.14984046, 48.14462519 ], [ 17.14984002, 48.14465589 ], [ 17.14984716, 48.14465601 ], [ 17.14996962, 48.14465894 ], [ 17.14994812, 48.14462594 ] ] ] } },
{ "type": "Feature", "properties": { "@featureType": "CadastralParcel", "areaValue": { "value": 2524, "@uom": "m2" }, "beginLifespanVersion": { "@nilReason": "http://inspire.ec.europa.eu/codelist/VoidReasonValue/Unpopulated", "@nil": "true" }, "endLifespanVersion": { "@nilReason": "http://inspire.ec.europa.eu/codelist/VoidReasonValue/Unpopulated", "@nil": "true" }, "inspireId": { "@dataType": "Identifier", "localId": "804274_15346/102.E", "namespace": "SK.ESKN.CP", "versionId": "20260703T04:07:46" }, "label": "15346/102", "nationalCadastralReference": "804274_15346/102.E", "referencePoint": { "type": "Point", "coordinates": [ 17.14924443, 48.14447357 ] }, "validFrom": "2026-06-30T16:00:00Z", "validTo": { "@nilReason": "http://inspire.ec.europa.eu/codelist/VoidReasonValue/Unpopulated", "@nil": "true" }, "administrativeUnit": { "@href": "#auAdmUnitS.2397" } }, "geometry": { "type": "Polygon", "coordinates": [ [ [ 17.14970257, 48.14462429 ], [ 17.1497211, 48.14426733 ], [ 17.14966157, 48.14426621 ], [ 17.14952554, 48.14426372 ], [ 17.14935583, 48.14426067 ], [ 17.14927664, 48.14425921 ], [ 17.14900748, 48.14425379 ], [ 17.14876692, 48.14443686 ], [ 17.14879002, 48.14451028 ], [ 17.14890808, 48.14452538 ], [ 17.14891127, 48.14461897 ], [ 17.14970257, 48.14462429 ] ] ] } },
{ "type": "Feature", "properties": { "@featureType": "CadastralParcel", "areaValue": { "value": 162, "@uom": "m2" }, "beginLifespanVersion": { "@nilReason": "http://inspire.ec.europa.eu/codelist/VoidReasonValue/Unpopulated", "@nil": "true" }, "endLifespanVersion": { "@nilReason": "http://inspire.ec.europa.eu/codelist/VoidReasonValue/Unpopulated", "@nil": "true" }, "inspireId": { "@dataType": "Identifier", "localId": "804274_15429/3.E", "namespace": "SK.ESKN.CP", "versionId": "20260703T04:07:46" }, "label": "15429/3", "nationalCadastralReference": "804274_15429/3.E", "referencePoint": { "type": "Point", "coordinates": [ 17.15021867, 48.14465268 ] }, "validFrom": "2026-06-30T16:00:00Z", "validTo": { "@nilReason": "http://inspire.ec.europa.eu/codelist/VoidReasonValue/Unpopulated", "@nil": "true" }, "administrativeUnit": { "@href": "#auAdmUnitS.2397" } }, "geometry": { "type": "Polygon", "coordinates": [ [ [ 17.14994812, 48.14462594 ], [ 17.14996962, 48.14465894 ], [ 17.15041184, 48.14466944 ], [ 17.15049417, 48.14464643 ], [ 17.15057293, 48.14463014 ], [ 17.14994812, 48.14462594 ] ] ] } },
{ "type": "Feature", "properties": { "@featureType": "CadastralParcel", "areaValue": { "value": 4230, "@uom": "m2" }, "beginLifespanVersion": { "@nilReason": "http://inspire.ec.europa.eu/codelist/VoidReasonValue/Unpopulated", "@nil": "true" }, "endLifespanVersion": { "@nilReason": "http://inspire.ec.europa.eu/codelist/VoidReasonValue/Unpopulated", "@nil": "true" }, "inspireId": { "@dataType": "Identifier", "localId": "804274_15429/4.E", "namespace": "SK.ESKN.CP", "versionId": "20260703T04:07:46" }, "label": "15429/4", "nationalCadastralReference": "804274_15429/4.E", "referencePoint": { "type": "Point", "coordinates": [ 17.15045975, 48.14447067 ] }, "validFrom": "2026-06-30T16:00:00Z", "validTo": { "@nilReason": "http://inspire.ec.europa.eu/codelist/VoidReasonValue/Unpopulated", "@nil": "true" }, "administrativeUnit": { "@href": "#auAdmUnitS.2397" } }, "geometry": { "type": "Polygon", "coordinates": [ [ [ 17.14970257, 48.14462429 ], [ 17.14984046, 48.14462519 ], [ 17.14994812, 48.14462594 ], [ 17.15057293, 48.14463014 ], [ 17.15124242, 48.14463454 ], [ 17.15124386, 48.14463121 ], [ 17.15122671, 48.14463122 ], [ 17.15115886, 48.144628 ], [ 17.15119065, 48.1445281 ], [ 17.15119554, 48.1445127 ], [ 17.15119959, 48.14450014 ], [ 17.15121833, 48.14444121 ], [ 17.1512332, 48.14439449 ], [ 17.15123977, 48.14431674 ], [ 17.15121113, 48.1442989 ], [ 17.1512144, 48.14429515 ], [ 17.15109346, 48.14429286 ], [ 17.1510756, 48.14430024 ], [ 17.15104466, 48.14430665 ], [ 17.15100076, 48.14431029 ], [ 17.15095297, 48.14431104 ], [ 17.15069687, 48.14430949 ], [ 17.15069694, 48.14429015 ], [ 17.15065763, 48.14429021 ], [ 17.15058192, 48.1442899 ], [ 17.15037734, 48.14428522 ], [ 17.15038077, 48.14427949 ], [ 17.15033941, 48.14427878 ], [ 17.15032595, 48.1442785 ], [ 17.15030898, 48.14427817 ], [ 17.15026669, 48.14427739 ], [ 17.1497211, 48.14426733 ], [ 17.14970257, 48.14462429 ] ] ] } },
{ "type": "Feature", "properties": { "@featureType": "CadastralParcel", "areaValue": { "value": 180, "@uom": "m2" }, "beginLifespanVersion": { "@nilReason": "http://inspire.ec.europa.eu/codelist/VoidReasonValue/Unpopulated", "@nil": "true" }, "endLifespanVersion": { "@nilReason": "http://inspire.ec.europa.eu/codelist/VoidReasonValue/Unpopulated", "@nil": "true" }, "inspireId": { "@dataType": "Identifier", "localId": "804274_22199/1.E", "namespace": "SK.ESKN.CP", "versionId": "20260703T04:07:46" }, "label": "22199/1", "nationalCadastralReference": "804274_22199/1.E", "referencePoint": { "type": "Point", "coordinates": [ 17.15129463, 48.14480656 ] }, "validFrom": "2026-06-30T16:00:00Z", "validTo": { "@nilReason": "http://inspire.ec.europa.eu/codelist/VoidReasonValue/Unpopulated", "@nil": "true" }, "administrativeUnit": { "@href": "#auAdmUnitS.2397" } }, "geometry": { "type": "Polygon", "coordinates": [ [ [ 17.15098027, 48.14487753 ], [ 17.15161276, 48.1447689 ], [ 17.15162704, 48.14473235 ], [ 17.15097691, 48.14484423 ], [ 17.15098027, 48.14487753 ] ] ] } }
]
}
