{
"type": "FeatureCollection",
"name": "gis",
"crs": { "type": "name", "properties": { "name": "urn:ogc:def:crs:OGC:1.3:CRS84" } },
"features": [
{ "type": "Feature", "properties": { "@featureType": "CadastralParcel", "areaValue": { "value": 159, "@uom": "m2" }, "beginLifespanVersion": { "@nilReason": "http://inspire.ec.europa.eu/codelist/VoidReasonValue/Unpopulated", "@nil": "true" }, "endLifespanVersion": { "@nilReason": "http://inspire.ec.europa.eu/codelist/VoidReasonValue/Unpopulated", "@nil": "true" }, "inspireId": { "@dataType": "Identifier", "localId": "804380_18352/17.C", "namespace": "SK.ESKN.CP", "versionId": "20260703T04:07:45" }, "label": "18352/17", "nationalCadastralReference": "804380_18352/17.C", "referencePoint": { "type": "Point", "coordinates": [ 17.11603207, 48.17419908 ] }, "validFrom": "2026-06-30T16:00:00Z", "validTo": { "@nilReason": "http://inspire.ec.europa.eu/codelist/VoidReasonValue/Unpopulated", "@nil": "true" }, "administrativeUnit": { "@href": "#auAdmUnitS.2255" } }, "geometry": { "type": "Polygon", "coordinates": [ [ [ 17.11591347, 48.17416574 ], [ 17.11605537, 48.17428265 ], [ 17.11615068, 48.17423243 ], [ 17.115997, 48.17410586 ], [ 17.11593619, 48.17413889 ], [ 17.11594675, 48.17414766 ], [ 17.11591347, 48.17416574 ] ] ] } },
{ "type": "Feature", "properties": { "@featureType": "CadastralParcel", "areaValue": { "value": 154, "@uom": "m2" }, "beginLifespanVersion": { "@nilReason": "http://inspire.ec.europa.eu/codelist/VoidReasonValue/Unpopulated", "@nil": "true" }, "endLifespanVersion": { "@nilReason": "http://inspire.ec.europa.eu/codelist/VoidReasonValue/Unpopulated", "@nil": "true" }, "inspireId": { "@dataType": "Identifier", "localId": "804380_18352/16.C", "namespace": "SK.ESKN.CP", "versionId": "20260703T04:07:45" }, "label": "18352/16", "nationalCadastralReference": "804380_18352/16.C", "referencePoint": { "type": "Point", "coordinates": [ 17.11617515, 48.17431697 ] }, "validFrom": "2026-06-30T16:00:00Z", "validTo": { "@nilReason": "http://inspire.ec.europa.eu/codelist/VoidReasonValue/Unpopulated", "@nil": "true" }, "administrativeUnit": { "@href": "#auAdmUnitS.2255" } }, "geometry": { "type": "Polygon", "coordinates": [ [ [ 17.11605537, 48.17428265 ], [ 17.11620026, 48.17440211 ], [ 17.11629363, 48.1743513 ], [ 17.11636741, 48.17441207 ], [ 17.11636816, 48.17441158 ], [ 17.11631048, 48.17436411 ], [ 17.11615068, 48.17423243 ], [ 17.11605537, 48.17428265 ] ] ] } },
{ "type": "Feature", "properties": { "@featureType": "CadastralParcel", "areaValue": { "value": 140, "@uom": "m2" }, "beginLifespanVersion": { "@nilReason": "http://inspire.ec.europa.eu/codelist/VoidReasonValue/Unpopulated", "@nil": "true" }, "endLifespanVersion": { "@nilReason": "http://inspire.ec.europa.eu/codelist/VoidReasonValue/Unpopulated", "@nil": "true" }, "inspireId": { "@dataType": "Identifier", "localId": "804380_18352/15.C", "namespace": "SK.ESKN.CP", "versionId": "20260703T04:07:45" }, "label": "18352/15", "nationalCadastralReference": "804380_18352/15.C", "referencePoint": { "type": "Point", "coordinates": [ 17.11659223, 48.17463063 ] }, "validFrom": "2026-06-30T16:00:00Z", "validTo": { "@nilReason": "http://inspire.ec.europa.eu/codelist/VoidReasonValue/Unpopulated", "@nil": "true" }, "administrativeUnit": { "@href": "#auAdmUnitS.2255" } }, "geometry": { "type": "Polygon", "coordinates": [ [ [ 17.11677746, 48.17474835 ], [ 17.11646442, 48.17449078 ], [ 17.11646249, 48.17449191 ], [ 17.11650095, 48.17452353 ], [ 17.11649698, 48.17452742 ], [ 17.11649364, 48.17453162 ], [ 17.11649069, 48.17453594 ], [ 17.11648839, 48.1745404 ], [ 17.11648662, 48.17454498 ], [ 17.11648538, 48.17454959 ], [ 17.11648479, 48.17455435 ], [ 17.11648476, 48.17455904 ], [ 17.11648526, 48.17456378 ], [ 17.11648644, 48.17456847 ], [ 17.11648818, 48.17457302 ], [ 17.11649061, 48.17457752 ], [ 17.11649346, 48.17458187 ], [ 17.1164969, 48.17458599 ], [ 17.11650075, 48.17458996 ], [ 17.11650519, 48.17459369 ], [ 17.11659495, 48.17466757 ], [ 17.11671296, 48.17475574 ], [ 17.11677746, 48.17474835 ] ] ] } },
{ "type": "Feature", "properties": { "@featureType": "CadastralParcel", "areaValue": { "value": 216, "@uom": "m2" }, "beginLifespanVersion": { "@nilReason": "http://inspire.ec.europa.eu/codelist/VoidReasonValue/Unpopulated", "@nil": "true" }, "endLifespanVersion": { "@nilReason": "http://inspire.ec.europa.eu/codelist/VoidReasonValue/Unpopulated", "@nil": "true" }, "inspireId": { "@dataType": "Identifier", "localId": "804380_18352/10.C", "namespace": "SK.ESKN.CP", "versionId": "20260703T04:07:45" }, "label": "18352/10", "nationalCadastralReference": "804380_18352/10.C", "referencePoint": { "type": "Point", "coordinates": [ 17.11585023, 48.17404391 ] }, "validFrom": "2026-06-30T16:00:00Z", "validTo": { "@nilReason": "http://inspire.ec.europa.eu/codelist/VoidReasonValue/Unpopulated", "@nil": "true" }, "administrativeUnit": { "@href": "#auAdmUnitS.2255" } }, "geometry": { "type": "Polygon", "coordinates": [ [ [ 17.11581566, 48.17395763 ], [ 17.11572246, 48.17400817 ], [ 17.11572171, 48.17400866 ], [ 17.11579548, 48.17406943 ], [ 17.11578607, 48.17407449 ], [ 17.1158387, 48.17411783 ], [ 17.11584385, 48.17411501 ], [ 17.11590862, 48.1741683 ], [ 17.11591347, 48.17416574 ], [ 17.11594675, 48.17414766 ], [ 17.11593619, 48.17413889 ], [ 17.115997, 48.17410586 ], [ 17.11600555, 48.1741012 ], [ 17.11589872, 48.17401324 ], [ 17.11589018, 48.17401791 ], [ 17.1158893, 48.17401839 ], [ 17.11581566, 48.17395763 ] ] ] } },
{ "type": "Feature", "properties": { "@featureType": "CadastralParcel", "areaValue": { "value": 434, "@uom": "m2" }, "beginLifespanVersion": { "@nilReason": "http://inspire.ec.europa.eu/codelist/VoidReasonValue/Unpopulated", "@nil": "true" }, "endLifespanVersion": { "@nilReason": "http://inspire.ec.europa.eu/codelist/VoidReasonValue/Unpopulated", "@nil": "true" }, "inspireId": { "@dataType": "Identifier", "localId": "804380_18352/9.C", "namespace": "SK.ESKN.CP", "versionId": "20260703T04:07:45" }, "label": "18352/9", "nationalCadastralReference": "804380_18352/9.C", "referencePoint": { "type": "Point", "coordinates": [ 17.11646745, 48.17459182 ] }, "validFrom": "2026-06-30T16:00:00Z", "validTo": { "@nilReason": "http://inspire.ec.europa.eu/codelist/VoidReasonValue/Unpopulated", "@nil": "true" }, "administrativeUnit": { "@href": "#auAdmUnitS.2255" } }, "geometry": { "type": "Polygon", "coordinates": [ [ [ 17.11681261, 48.17478219 ], [ 17.11682205, 48.17477876 ], [ 17.11683513, 48.1747754 ], [ 17.11683104, 48.17477205 ], [ 17.11683301, 48.17477155 ], [ 17.11680223, 48.17474542 ], [ 17.11677746, 48.17474835 ], [ 17.11671296, 48.17475574 ], [ 17.11659495, 48.17466757 ], [ 17.11650519, 48.17459369 ], [ 17.11650075, 48.17458996 ], [ 17.1164969, 48.17458599 ], [ 17.11649346, 48.17458187 ], [ 17.11649061, 48.17457752 ], [ 17.11648818, 48.17457302 ], [ 17.11648644, 48.17456847 ], [ 17.11648526, 48.17456378 ], [ 17.11648476, 48.17455904 ], [ 17.11648479, 48.17455435 ], [ 17.11648538, 48.17454959 ], [ 17.11648662, 48.17454498 ], [ 17.11648839, 48.1745404 ], [ 17.11649069, 48.17453594 ], [ 17.11649364, 48.17453162 ], [ 17.11649698, 48.17452742 ], [ 17.11650095, 48.17452353 ], [ 17.11646249, 48.17449191 ], [ 17.11646442, 48.17449078 ], [ 17.11647295, 48.1744862 ], [ 17.1163767, 48.17440692 ], [ 17.11636816, 48.17441158 ], [ 17.11636741, 48.17441207 ], [ 17.11629363, 48.1743513 ], [ 17.11620026, 48.17440211 ], [ 17.11619969, 48.17440234 ], [ 17.11627346, 48.17446311 ], [ 17.11626403, 48.17446825 ], [ 17.11631709, 48.17451144 ], [ 17.11632225, 48.17450862 ], [ 17.11638714, 48.17456201 ], [ 17.1163923, 48.1745592 ], [ 17.11649852, 48.17464666 ], [ 17.11663587, 48.17475973 ], [ 17.11668261, 48.17479824 ], [ 17.11668408, 48.17479744 ], [ 17.11668937, 48.17480177 ], [ 17.11669217, 48.17480648 ], [ 17.1166935, 48.17481109 ], [ 17.11669317, 48.17481595 ], [ 17.1166911, 48.17482069 ], [ 17.11668775, 48.17482499 ], [ 17.11668287, 48.17482863 ], [ 17.11668419, 48.17482972 ], [ 17.1167081, 48.17482085 ], [ 17.11674862, 48.17480588 ], [ 17.11681261, 48.17478219 ] ] ] } }
]
}
