{
"type": "FeatureCollection",
"name": "gis",
"crs": { "type": "name", "properties": { "name": "urn:ogc:def:crs:OGC:1.3:CRS84" } },
"features": [
{ "type": "Feature", "properties": { "@featureType": "CadastralParcel", "areaValue": { "value": 1734, "@uom": "m2" }, "beginLifespanVersion": { "@nilReason": "http://inspire.ec.europa.eu/codelist/VoidReasonValue/Unpopulated", "@nil": "true" }, "endLifespanVersion": { "@nilReason": "http://inspire.ec.europa.eu/codelist/VoidReasonValue/Unpopulated", "@nil": "true" }, "inspireId": { "@dataType": "Identifier", "localId": "820636_496/1.C", "namespace": "SK.ESKN.CP", "versionId": "20260703T04:07:27" }, "label": "496/1", "nationalCadastralReference": "820636_496/1.C", "referencePoint": { "type": "Point", "coordinates": [ 21.10962237, 48.72692797 ] }, "validFrom": "2026-06-30T16:00:00Z", "validTo": { "@nilReason": "http://inspire.ec.europa.eu/codelist/VoidReasonValue/Unpopulated", "@nil": "true" }, "administrativeUnit": { "@href": "#auAdmUnitS.912" } }, "geometry": { "type": "Polygon", "coordinates": [ [ [ 21.1088272, 48.7268082 ], [ 21.10882895, 48.72685093 ], [ 21.10867507, 48.72709656 ], [ 21.10977726, 48.72700848 ], [ 21.10976825, 48.7267903 ], [ 21.1094551, 48.72675871 ], [ 21.10902132, 48.72676492 ], [ 21.1088272, 48.7268082 ] ], [ [ 21.108956, 48.72685178 ], [ 21.10894715, 48.72680936 ], [ 21.10899674, 48.72680492 ], [ 21.10900568, 48.72684806 ], [ 21.108956, 48.72685178 ] ], [ [ 21.10956724, 48.72691988 ], [ 21.10913725, 48.72695593 ], [ 21.10912148, 48.7269575 ], [ 21.10907229, 48.72695645 ], [ 21.10902589, 48.72693605 ], [ 21.10900563, 48.72690794 ], [ 21.10900934, 48.7268742 ], [ 21.10905004, 48.72685192 ], [ 21.10955487, 48.72681036 ], [ 21.10959798, 48.7268257 ], [ 21.10961905, 48.72686492 ], [ 21.10960196, 48.72690299 ], [ 21.10956724, 48.72691988 ] ] ] } },
{ "type": "Feature", "properties": { "@featureType": "CadastralParcel", "areaValue": { "value": 18, "@uom": "m2" }, "beginLifespanVersion": { "@nilReason": "http://inspire.ec.europa.eu/codelist/VoidReasonValue/Unpopulated", "@nil": "true" }, "endLifespanVersion": { "@nilReason": "http://inspire.ec.europa.eu/codelist/VoidReasonValue/Unpopulated", "@nil": "true" }, "inspireId": { "@dataType": "Identifier", "localId": "820636_496/3.C", "namespace": "SK.ESKN.CP", "versionId": "20260703T04:07:27" }, "label": "496/3", "nationalCadastralReference": "820636_496/3.C", "referencePoint": { "type": "Point", "coordinates": [ 21.10897643, 48.72682871 ] }, "validFrom": "2026-06-30T16:00:00Z", "validTo": { "@nilReason": "http://inspire.ec.europa.eu/codelist/VoidReasonValue/Unpopulated", "@nil": "true" }, "administrativeUnit": { "@href": "#auAdmUnitS.912" } }, "geometry": { "type": "Polygon", "coordinates": [ [ [ 21.108956, 48.72685178 ], [ 21.10900568, 48.72684806 ], [ 21.10899674, 48.72680492 ], [ 21.10894715, 48.72680936 ], [ 21.108956, 48.72685178 ] ] ] } },
{ "type": "Feature", "properties": { "@featureType": "CadastralParcel", "areaValue": { "value": 521, "@uom": "m2" }, "beginLifespanVersion": { "@nilReason": "http://inspire.ec.europa.eu/codelist/VoidReasonValue/Unpopulated", "@nil": "true" }, "endLifespanVersion": { "@nilReason": "http://inspire.ec.europa.eu/codelist/VoidReasonValue/Unpopulated", "@nil": "true" }, "inspireId": { "@dataType": "Identifier", "localId": "820636_496/2.C", "namespace": "SK.ESKN.CP", "versionId": "20260703T04:07:27" }, "label": "496/2", "nationalCadastralReference": "820636_496/2.C", "referencePoint": { "type": "Point", "coordinates": [ 21.10930809, 48.7268886 ] }, "validFrom": "2026-06-30T16:00:00Z", "validTo": { "@nilReason": "http://inspire.ec.europa.eu/codelist/VoidReasonValue/Unpopulated", "@nil": "true" }, "administrativeUnit": { "@href": "#auAdmUnitS.912" } }, "geometry": { "type": "Polygon", "coordinates": [ [ [ 21.10905004, 48.72685192 ], [ 21.10900934, 48.7268742 ], [ 21.10900563, 48.72690794 ], [ 21.10902589, 48.72693605 ], [ 21.10907229, 48.72695645 ], [ 21.10912148, 48.7269575 ], [ 21.10913725, 48.72695593 ], [ 21.10956724, 48.72691988 ], [ 21.10960196, 48.72690299 ], [ 21.10961905, 48.72686492 ], [ 21.10959798, 48.7268257 ], [ 21.10955487, 48.72681036 ], [ 21.10905004, 48.72685192 ] ] ] } },
{ "type": "Feature", "properties": { "@featureType": "CadastralParcel", "areaValue": { "value": 1448, "@uom": "m2" }, "beginLifespanVersion": { "@nilReason": "http://inspire.ec.europa.eu/codelist/VoidReasonValue/Unpopulated", "@nil": "true" }, "endLifespanVersion": { "@nilReason": "http://inspire.ec.europa.eu/codelist/VoidReasonValue/Unpopulated", "@nil": "true" }, "inspireId": { "@dataType": "Identifier", "localId": "820636_192/2.C", "namespace": "SK.ESKN.CP", "versionId": "20260703T04:07:27" }, "label": "192/2", "nationalCadastralReference": "820636_192/2.C", "referencePoint": { "type": "Point", "coordinates": [ 21.10834216, 48.72697444 ] }, "validFrom": "2026-06-30T16:00:00Z", "validTo": { "@nilReason": "http://inspire.ec.europa.eu/codelist/VoidReasonValue/Unpopulated", "@nil": "true" }, "administrativeUnit": { "@href": "#auAdmUnitS.912" } }, "geometry": { "type": "Polygon", "coordinates": [ [ [ 21.10820855, 48.72715565 ], [ 21.10842767, 48.72712785 ], [ 21.10867507, 48.72709656 ], [ 21.10882895, 48.72685093 ], [ 21.1088272, 48.7268082 ], [ 21.10882019, 48.7267905 ], [ 21.10868805, 48.72680705 ], [ 21.10860577, 48.72681737 ], [ 21.10842817, 48.72683966 ], [ 21.10822187, 48.72696339 ], [ 21.1076436, 48.72698548 ], [ 21.1078167, 48.72703382 ], [ 21.10795554, 48.7270373 ], [ 21.10822815, 48.7270223 ], [ 21.10820855, 48.72715565 ] ] ] } }
]
}
