{
"type": "FeatureCollection",
"name": "gis",
"crs": { "type": "name", "properties": { "name": "urn:ogc:def:crs:OGC:1.3:CRS84" } },
"features": [
{ "type": "Feature", "properties": { "@featureType": "CadastralZoning", "beginLifespanVersion": { "@nilReason": "http://inspire.ec.europa.eu/codelist/VoidReasonValue/Unpopulated", "@nil": "true" }, "endLifespanVersion": { "@nilReason": "http://inspire.ec.europa.eu/codelist/VoidReasonValue/Unpopulated", "@nil": "true" }, "estimatedAccuracy": { "value": -1, "@uom": "m" }, "inspireId": { "@dataType": "Identifier", "localId": "867799", "namespace": "SK.ESKN.CP", "versionId": "20260703T04:07:40" }, "label": "Veľká Lesná", "level": { "@href": "http://inspire.ec.europa.eu/codelist/CadastralZoningLevelValue/3rdOrder" }, "levelName": { "value": "Katastrálne územie", "@locale": "sk" }, "name_1": { "@dataType": "name", "GeographicalName": { "@dataType": "GeographicalName", "language": "SLK", "nativeness": { "@href": "http://inspire.ec.europa.eu/codelist/NativenessValue/endonym", "@title": "endonym" }, "nameStatus": { "@href": "http://inspire.ec.europa.eu/codelist/NameStatusValue/official", "@title": "official" }, "sourceOfName": { "@nilReason": "http://inspire.ec.europa.eu/codelist/VoidReasonValue/Unpopulated", "@nil": "true" }, "pronunciation": { "@dataType": "pronunciation", "@nilReason": "http://inspire.ec.europa.eu/codelist/VoidReasonValue/Unpopulated", "@nil": "true" }, "spelling": { "@dataType": "SpellingOfName", "text": "Veľká Lesná", "script": "LATN" } } }, "nationalCadastalZoningReference": "867799", "validFrom": "2026-06-30T16:00:00Z", "validTo": { "@nilReason": "http://inspire.ec.europa.eu/codelist/VoidReasonValue/Unpopulated", "@nil": "true" }, "place_id": 419623308, "osm_type": "relation", "osm_id": 2276190, "place_rank": 22, "category": "place", "type": "cadastral_community", "importance": 0.10672106889448384, "addresstype": "cadastral_community", "name_2": "Veľká Lesná", "display_name": "Veľká Lesná, okres Stará Ľubovňa, Prešovský kraj, Slovensko" }, "geometry": { "type": "Polygon", "coordinates": [ [ [ 20.43485795, 49.35481837 ], [ 20.43514829, 49.35474488 ], [ 20.435294001595548, 49.354723466245559 ], [ 20.4354926, 49.3546765 ], [ 20.435574365808446, 49.354617110431313 ], [ 20.43557377, 49.35459585 ], [ 20.43562514810802, 49.354580225345408 ], [ 20.4356384, 49.3545706 ], [ 20.436191445264001, 49.354588213349921 ], [ 20.43624775, 49.35458421 ], [ 20.436311247648671, 49.354592028808547 ], [ 20.4364328, 49.3545959 ], [ 20.4365233, 49.3546184 ], [ 20.4365729, 49.3547069 ], [ 20.4370196, 49.3546753 ], [ 20.4378724, 49.3544348 ], [ 20.4382024, 49.3542952 ], [ 20.43837326037449, 49.354179756343882 ], [ 20.43843243, 49.3540087 ], [ 20.43843889, 49.35399012 ], [ 20.43844498388491, 49.353996069212485 ], [ 20.4384504, 49.3539804 ], [ 20.4387247, 49.3541841 ], [ 20.4390043, 49.3541576 ], [ 20.4393527, 49.3540322 ], [ 20.4403799, 49.3538331 ], [ 20.44043755028536, 49.353810302305362 ], [ 20.44042533, 49.35376072 ], [ 20.440439099675398, 49.353759813707448 ], [ 20.4404369, 49.3537508 ], [ 20.4407228, 49.3537323 ], [ 20.441022183961191, 49.353553482002987 ], [ 20.44105719, 49.35352358 ], [ 20.44125611, 49.35338099 ], [ 20.44135064, 49.35334077 ], [ 20.441447300243173, 49.353299565788703 ], [ 20.4416736, 49.3531644 ], [ 20.441738427028557, 49.353150661651696 ], [ 20.44180998, 49.35312913 ], [ 20.44184999, 49.35312252 ], [ 20.44192078, 49.35311086 ], [ 20.441945600787822, 49.3531067567354 ], [ 20.442164431402507, 49.353060381461539 ], [ 20.44213975, 49.35300045 ], [ 20.442153255291188, 49.352995316716104 ], [ 20.4421515, 49.352991 ], [ 20.44244159340159, 49.35288079015416 ], [ 20.44245702, 49.35287436 ], [ 20.44255646, 49.35282216 ], [ 20.44270014, 49.35277161 ], [ 20.442775843281545, 49.352753804750357 ], [ 20.4429659, 49.3526816 ], [ 20.442969716922892, 49.352679553330624 ], [ 20.4430372, 49.35262888 ], [ 20.4430743, 49.35261928 ], [ 20.443089337908756, 49.352615411451225 ], [ 20.4434782, 49.3524069 ], [ 20.4436324, 49.3523619 ], [ 20.4437229, 49.3523957 ], [ 20.443768563797281, 49.35238928980106 ], [ 20.44378209, 49.35238542 ], [ 20.443797396660454, 49.352385242297345 ], [ 20.444109, 49.3523415 ], [ 20.44422, 49.3522579 ], [ 20.4444829, 49.3522621 ], [ 20.444599794074783, 49.352176408001206 ], [ 20.44460936, 49.35209534 ], [ 20.4446078, 49.35204079 ], [ 20.444618939178429, 49.352040385500679 ], [ 20.4446195, 49.3520309 ], [ 20.44505469329393, 49.351988210739563 ], [ 20.44517471, 49.35183164 ], [ 20.44518034496182, 49.351830092431292 ], [ 20.4451863, 49.3518223 ], [ 20.4455398, 49.3516544 ], [ 20.4456538, 49.3516879 ], [ 20.445806329294843, 49.351656138912425 ], [ 20.44585308, 49.35155101 ], [ 20.445861529852156, 49.351548383466401 ], [ 20.4458646, 49.3515415 ], [ 20.4459948, 49.3515016 ], [ 20.4461341, 49.3515731 ], [ 20.446484390248887, 49.351409416018512 ], [ 20.44658709, 49.35133991 ], [ 20.446653441310332, 49.351330421667683 ], [ 20.446974781071244, 49.351180265699469 ], [ 20.446988, 49.35117164 ], [ 20.447024832426735, 49.351156877651498 ], [ 20.4470999, 49.3511218 ], [ 20.447266189054162, 49.351120110272618 ], [ 20.447290347393292, 49.351099046192601 ], [ 20.447394912697444, 49.351003938387294 ], [ 20.4474125, 49.35098741 ], [ 20.447413574069856, 49.350986964858755 ], [ 20.4474242, 49.3509773 ], [ 20.447518743634692, 49.350943378018385 ], [ 20.44765427, 49.35088721 ], [ 20.447682635932178, 49.350884573937918 ], [ 20.447702186007039, 49.350877559427822 ], [ 20.44771315, 49.35064489 ], [ 20.447724631241005, 49.350636662970352 ], [ 20.4477247, 49.3506352 ], [ 20.4480048, 49.350406 ], [ 20.448139910431792, 49.350381040012444 ], [ 20.44821849, 49.35036246 ], [ 20.448249907054638, 49.350360719491654 ], [ 20.448318230611164, 49.350348097556413 ], [ 20.44837763, 49.35029429 ], [ 20.448497404210752, 49.35022731041731 ], [ 20.448522955788089, 49.350210010129821 ], [ 20.44867009, 49.3500844 ], [ 20.44866859, 49.35003382 ], [ 20.44869077, 49.34997115 ], [ 20.44872931, 49.3498538 ], [ 20.448739739656904, 49.349848842190625 ], [ 20.4487408, 49.3498447 ], [ 20.448804263657674, 49.349810217480048 ], [ 20.4488695, 49.34974701 ], [ 20.448928295415797, 49.349742825720256 ], [ 20.4490938, 49.3496529 ], [ 20.449256473211445, 49.349522167987793 ], [ 20.44928592, 49.34949276 ], [ 20.449361804310907, 49.349437518853144 ], [ 20.4493734, 49.3494282 ], [ 20.449650983329061, 49.349335139689686 ], [ 20.449654748213678, 49.349331973300004 ], [ 20.449803269257423, 49.349197714054419 ], [ 20.44984301, 49.34914336 ], [ 20.449873738567362, 49.349134011590778 ], [ 20.449949646030404, 49.34906539317506 ], [ 20.4499541, 49.34906024 ], [ 20.449955692333372, 49.349059927470975 ], [ 20.4499659, 49.3490507 ], [ 20.450010323103992, 49.349049227445832 ], [ 20.45010235, 49.34903129 ], [ 20.450241199716817, 49.349041574258926 ], [ 20.4506688, 49.3490274 ], [ 20.451352724899269, 49.349092585469336 ], [ 20.45136886, 49.34909064 ], [ 20.451379093107448, 49.349095098645897 ], [ 20.45160150766171, 49.349116297168024 ], [ 20.45162603, 49.34911494 ], [ 20.451645255839402, 49.349120466844397 ], [ 20.4517159, 49.3491272 ], [ 20.451746925580455, 49.349122804392977 ], [ 20.4517988, 49.3491051 ], [ 20.4519176, 49.3490881 ], [ 20.451981439009618, 49.349089579265161 ], [ 20.452039729058431, 49.34908132091369 ], [ 20.45211783, 49.34899616 ], [ 20.45219988, 49.34894069 ], [ 20.452200965553558, 49.348940593658192 ], [ 20.4522119, 49.3489309 ], [ 20.452515, 49.348904 ], [ 20.45277757532536, 49.348924327976576 ], [ 20.45281396, 49.34892573 ], [ 20.45282276049894, 49.348927826108586 ], [ 20.4529038, 49.3489341 ], [ 20.453266, 49.3488882 ], [ 20.454121515204307, 49.348673666519289 ], [ 20.45419607, 49.34864083 ], [ 20.45422606822893, 49.34864744825434 ], [ 20.4545401, 49.3485687 ], [ 20.4570228, 49.3485296 ], [ 20.458165953472555, 49.348751471178325 ], [ 20.45818991, 49.34869968 ], [ 20.458199045977469, 49.348694893665098 ], [ 20.4582014, 49.3486897 ], [ 20.45838632460265, 49.348593558076473 ], [ 20.45839671, 49.34854655 ], [ 20.45845106, 49.3484831 ], [ 20.458487756326797, 49.348440252105163 ], [ 20.458497961927101, 49.348423586810171 ], [ 20.4585487, 49.3483313 ], [ 20.45858916, 49.34823753 ], [ 20.45864199, 49.3481788 ], [ 20.458650283313993, 49.348174852706315 ], [ 20.4586535, 49.3481696 ], [ 20.458688835053053, 49.348156503583617 ], [ 20.45872498, 49.3481393 ], [ 20.458785984168113, 49.34812049669663 ], [ 20.458882402329383, 49.348084760726884 ], [ 20.45893142, 49.34796661 ], [ 20.458939138668502, 49.347967184713568 ], [ 20.4589432, 49.3479575 ], [ 20.4593799, 49.3479896 ], [ 20.459456157445729, 49.347957032072891 ], [ 20.45969143, 49.34784485 ], [ 20.45976522, 49.34780968 ], [ 20.45994454, 49.34774054 ], [ 20.460134253558717, 49.347667431699243 ], [ 20.4602699, 49.3476095 ], [ 20.460380767208505, 49.347591419379043 ], [ 20.46044845, 49.3475758 ], [ 20.460494694408265, 49.347572839723775 ], [ 20.461055594080769, 49.347481366198757 ], [ 20.46110338, 49.34744327 ], [ 20.46127337, 49.34732622 ], [ 20.461381174394351, 49.347270161714938 ], [ 20.461652735797816, 49.347093834765424 ], [ 20.461712842635546, 49.346979848173277 ], [ 20.461836365067612, 49.346714620116799 ], [ 20.46185156, 49.3466663 ], [ 20.461853919163424, 49.34663536323928 ], [ 20.46182878789735, 49.346576773780647 ], [ 20.46180137, 49.34654978 ], [ 20.461817217503864, 49.346549799290443 ], [ 20.4618131, 49.3465402 ], [ 20.462199030514707, 49.346540297877382 ], [ 20.46221268, 49.34649947 ], [ 20.46231912, 49.346444 ], [ 20.462320022950188, 49.346443844334637 ], [ 20.4623307, 49.3464347 ], [ 20.462503489266034, 49.346387698993816 ], [ 20.46257301, 49.34629757 ], [ 20.46275363, 49.34606988 ], [ 20.46292986, 49.34592407 ], [ 20.462958102941869, 49.345927496810276 ], [ 20.462960943726657, 49.345925540070006 ], [ 20.46305175, 49.34574372 ], [ 20.46312576, 49.34526735 ], [ 20.46310419, 49.34508822 ], [ 20.46310325, 49.34504532 ], [ 20.46310679, 49.34492441 ], [ 20.46313389, 49.34478771 ], [ 20.46321312, 49.34456867 ], [ 20.463234, 49.34441643 ], [ 20.46324831, 49.34423693 ], [ 20.46325097, 49.34407708 ], [ 20.46324322, 49.34398745 ], [ 20.46327287, 49.34397937 ], [ 20.46325836, 49.34392929 ], [ 20.46320871, 49.34375768 ], [ 20.46320382758843, 49.343519396921359 ], [ 20.463165203322191, 49.343303437754791 ], [ 20.46315059, 49.34324738 ], [ 20.46309199, 49.34296042 ], [ 20.46307753, 49.34288927 ], [ 20.46305253, 49.34241966 ], [ 20.46304856, 49.34234368 ], [ 20.463060303724749, 49.3423355395107 ], [ 20.4630602, 49.3423336 ], [ 20.4635185, 49.34196 ], [ 20.4640163, 49.341741 ], [ 20.464300222463606, 49.341685833465704 ], [ 20.46434785, 49.34159959 ], [ 20.464356633487345, 49.341594819590433 ], [ 20.4643596, 49.3415894 ], [ 20.464602283841518, 49.341458460413186 ], [ 20.46480674, 49.34124862 ], [ 20.46483501, 49.34117429 ], [ 20.46495407, 49.34101671 ], [ 20.46498632, 49.34097414 ], [ 20.4649925233232, 49.340973113616819 ], [ 20.4649979, 49.3409649 ], [ 20.465138233882641, 49.340941495290586 ], [ 20.46515789, 49.34089084 ], [ 20.46526959, 49.34080017 ], [ 20.46544615, 49.34067391 ], [ 20.46547528, 49.34063077 ], [ 20.46557381, 49.34048567 ], [ 20.46561433, 49.34043359 ], [ 20.46569613, 49.34032866 ], [ 20.465707614166551, 49.340319418743142 ], [ 20.4657077, 49.3403193 ], [ 20.465707921977767, 49.340319171048854 ], [ 20.46581369, 49.34023406 ], [ 20.466118878613724, 49.340080438452887 ], [ 20.4661668, 49.3400526 ], [ 20.466271902885541, 49.339999862204593 ], [ 20.46644999, 49.33975145 ], [ 20.46651147, 49.33970079 ], [ 20.46660724, 49.33962204 ], [ 20.466616827798454, 49.339614842143511 ], [ 20.4666189, 49.3396125 ], [ 20.466622554162267, 49.339610543185294 ], [ 20.4667509, 49.33951419 ], [ 20.467098664214163, 49.339355584843894 ], [ 20.467150969648877, 49.339327575128856 ], [ 20.46721278, 49.33921862 ], [ 20.467222472307697, 49.339212366153845 ], [ 20.4672241, 49.3392095 ], [ 20.4675019, 49.3390295 ], [ 20.468140268588176, 49.338908481319464 ], [ 20.46834442, 49.33857614 ], [ 20.468351265947749, 49.338574543140652 ], [ 20.4683564, 49.3385662 ], [ 20.470206127053089, 49.338134729546617 ], [ 20.47022317, 49.33791941 ], [ 20.47022777, 49.33786032 ], [ 20.47034039, 49.33767368 ], [ 20.47037049, 49.337624 ], [ 20.47063554, 49.33729344 ], [ 20.47069531, 49.33711536 ], [ 20.47071179, 49.3369074 ], [ 20.47073663, 49.33655609 ], [ 20.4706378, 49.33626547 ], [ 20.47064299, 49.33592614 ], [ 20.47080865, 49.33563519 ], [ 20.47085247, 49.33530657 ], [ 20.47069546, 49.33446918 ], [ 20.470687845006136, 49.334231534719763 ], [ 20.470672113257809, 49.334136507723812 ], [ 20.47061783, 49.3338881 ], [ 20.47119933, 49.33317269 ], [ 20.47139243, 49.33300633 ], [ 20.4714054, 49.3329951 ], [ 20.471407113518723, 49.332994308772747 ], [ 20.4714169, 49.3329859 ], [ 20.471766150688303, 49.332824766893737 ], [ 20.47175867, 49.33270016 ], [ 20.47196152, 49.3325184 ], [ 20.472402245770457, 49.332198583742027 ], [ 20.472409156801284, 49.332193201050892 ], [ 20.47253352, 49.33202229 ], [ 20.47255058, 49.33199888 ], [ 20.472561766940082, 49.331989995304902 ], [ 20.4725622, 49.3319894 ], [ 20.4728778, 49.3317388 ], [ 20.473347724331045, 49.331548357242987 ], [ 20.47377553, 49.3313583 ], [ 20.473804196524917, 49.331363366134092 ], [ 20.473818633086942, 49.331357515535409 ], [ 20.47397437, 49.3311781 ], [ 20.473983400403359, 49.33117202100415 ], [ 20.4739862, 49.3311688 ], [ 20.474694558843304, 49.330691412670525 ], [ 20.474723658992929, 49.33066006852156 ], [ 20.475161667162752, 49.330130854620322 ], [ 20.47516637, 49.33012118 ], [ 20.475170784962387, 49.330119838236044 ], [ 20.4751781, 49.330111 ], [ 20.4753702, 49.3300528 ], [ 20.47552755767687, 49.329942973485814 ], [ 20.47561081, 49.3298407 ], [ 20.47601036, 49.32949955 ], [ 20.47601942, 49.32917242 ], [ 20.47602262, 49.32902493 ], [ 20.47612449, 49.32852591 ], [ 20.47579772, 49.32780019 ], [ 20.4756796, 49.32750625 ], [ 20.47591174, 49.32701459 ], [ 20.47582476, 49.32583912 ], [ 20.475838685096186, 49.325819521716475 ], [ 20.476171323603136, 49.324285298551487 ], [ 20.47635076, 49.32341378 ], [ 20.47604949, 49.32253645 ], [ 20.47583055, 49.32187347 ], [ 20.47576527, 49.32144901 ], [ 20.47573151, 49.32122917 ], [ 20.47570965, 49.32110678 ], [ 20.47564169, 49.32075436 ], [ 20.47557093, 49.3202236 ], [ 20.47548626, 49.31928453 ], [ 20.47546697, 49.31921501 ], [ 20.475493263036764, 49.3190798149109 ], [ 20.475485770792041, 49.318984819581324 ], [ 20.47546694, 49.31890357 ], [ 20.4754691, 49.31870317 ], [ 20.47554962, 49.31855369 ], [ 20.47555652, 49.31854089 ], [ 20.47578572, 49.31820755 ], [ 20.47602909, 49.31785374 ], [ 20.47613839, 49.31769489 ], [ 20.47556987, 49.31747767 ], [ 20.475338440869457, 49.317389219424882 ], [ 20.474199, 49.316954 ], [ 20.473448, 49.316737 ], [ 20.473327699887498, 49.316701439589387 ], [ 20.47328915, 49.31669029 ], [ 20.473092146390776, 49.316633258378126 ], [ 20.472498, 49.316462 ], [ 20.472458, 49.316296 ], [ 20.472445, 49.31624 ], [ 20.472415257288009, 49.316187063430036 ], [ 20.47222668, 49.31585269 ], [ 20.47195088, 49.31565347 ], [ 20.471794588508864, 49.315540579240746 ], [ 20.471759, 49.315515 ], [ 20.471615886577414, 49.315374294735967 ], [ 20.4713431, 49.31510631 ], [ 20.471287153056057, 49.315026939567304 ], [ 20.471177, 49.314871 ], [ 20.471089406829861, 49.314746577883326 ], [ 20.471006656804793, 49.314675996419062 ], [ 20.470742, 49.314451 ], [ 20.470481567185747, 49.314099063764523 ], [ 20.47037188, 49.31395119 ], [ 20.47031271252742, 49.313871440036799 ], [ 20.470217, 49.313743 ], [ 20.470102357121696, 49.313687000438897 ], [ 20.46974052, 49.31351058 ], [ 20.469740053700576, 49.3135100262311 ], [ 20.46974, 49.31351 ], [ 20.469588, 49.31333 ], [ 20.469341942022229, 49.313037195256157 ], [ 20.46900903, 49.31264178 ], [ 20.468624518053424, 49.312329061816932 ], [ 20.468479, 49.312211 ], [ 20.468349911014428, 49.312104945480257 ], [ 20.46820985, 49.31199019 ], [ 20.4680368, 49.31184847 ], [ 20.467890775364456, 49.311728822695883 ], [ 20.467864201780785, 49.311707164457168 ], [ 20.467750491532751, 49.311655157190437 ], [ 20.467448, 49.311517 ], [ 20.466705, 49.310886 ], [ 20.466704976112403, 49.310885964038782 ], [ 20.46670483, 49.31088584 ], [ 20.466675299730415, 49.310841288181116 ], [ 20.466521, 49.310609 ], [ 20.466282, 49.310248 ], [ 20.466184, 49.310101 ], [ 20.466077, 49.310086 ], [ 20.465778174720345, 49.310043199504214 ], [ 20.46569285, 49.31003113 ], [ 20.46514082, 49.30995308 ], [ 20.464945736529522, 49.309925495696632 ], [ 20.463998, 49.309792 ], [ 20.463964574999768, 49.309786747499963 ], [ 20.46392793, 49.30978155 ], [ 20.46391438, 49.30976952 ], [ 20.46360464, 49.30949282 ], [ 20.46336636, 49.30902397 ], [ 20.46327667159051, 49.308900370794383 ], [ 20.46315, 49.308727 ], [ 20.462751122032184, 49.308395284236205 ], [ 20.46266314, 49.30832234 ], [ 20.462613062667344, 49.308259476835538 ], [ 20.462417, 49.308014 ], [ 20.462195, 49.307479 ], [ 20.461571414161742, 49.307349544595318 ], [ 20.46145758, 49.30732608 ], [ 20.461295055887408, 49.307328935929959 ], [ 20.460903, 49.307336 ], [ 20.459773, 49.307231 ], [ 20.459489940280648, 49.307239977640357 ], [ 20.4592373, 49.30724811 ], [ 20.459197044194951, 49.307247441177552 ], [ 20.458951, 49.307244 ], [ 20.458671017709289, 49.307306721206004 ], [ 20.458518, 49.30734138 ], [ 20.45798772, 49.30687944 ], [ 20.45785271, 49.30684035 ], [ 20.45684642, 49.30654867 ], [ 20.45667809, 49.30646213 ], [ 20.45548745, 49.30584994 ], [ 20.4553377178426, 49.305791193938411 ], [ 20.45512, 49.305706 ], [ 20.454870192881877, 49.305603026073449 ], [ 20.45485773, 49.3055979 ], [ 20.45364081, 49.30510233 ], [ 20.453499340600107, 49.305044711272103 ], [ 20.453369, 49.304992 ], [ 20.452552, 49.304654 ], [ 20.452056521841406, 49.304450182217494 ], [ 20.45168916, 49.30429934 ], [ 20.450888681068459, 49.303970700787602 ], [ 20.449456, 49.303383 ], [ 20.44945090132455, 49.303380450662274 ], [ 20.44944825, 49.30337938 ], [ 20.44773026, 49.30264622 ], [ 20.447470605267078, 49.302535409037688 ], [ 20.445551, 49.301717 ], [ 20.445486435874649, 49.301689135482739 ], [ 20.445456, 49.30167638 ], [ 20.445428931664175, 49.301665035610803 ], [ 20.445377, 49.301644 ], [ 20.44468, 49.301352 ], [ 20.444227043777811, 49.301159369771852 ], [ 20.443857, 49.30100265 ], [ 20.44362537994903, 49.300904580407746 ], [ 20.443624, 49.300904 ], [ 20.44362184594819, 49.300903083961131 ], [ 20.44314921, 49.30070294 ], [ 20.442667479154412, 49.300498938718142 ], [ 20.442587, 49.300465 ], [ 20.442558813451313, 49.300452920050567 ], [ 20.44253107, 49.30044117 ], [ 20.44249197, 49.30042539 ], [ 20.44247467, 49.30041843 ], [ 20.44243309902361, 49.300401648399458 ], [ 20.442393, 49.300386 ], [ 20.439908, 49.299382 ], [ 20.439876668117453, 49.299368761176389 ], [ 20.43983773, 49.29935256 ], [ 20.43940977, 49.29917447 ], [ 20.438446275896531, 49.298771260822129 ], [ 20.438125, 49.298637 ], [ 20.437927, 49.298553 ], [ 20.437868893605504, 49.298528097259499 ], [ 20.43773129, 49.29846974 ], [ 20.436907605240478, 49.298120222739158 ], [ 20.435382, 49.297474 ], [ 20.435373566798205, 49.297469314887891 ], [ 20.43537346, 49.29746927 ], [ 20.435347082442707, 49.297458066030515 ], [ 20.435309, 49.297442 ], [ 20.434105136246306, 49.296945437749393 ], [ 20.43340078, 49.29665497 ], [ 20.43160312, 49.29534034 ], [ 20.43142384, 49.29526019 ], [ 20.431300040931536, 49.295204819908342 ], [ 20.43095, 49.295049 ], [ 20.430155, 49.294693 ], [ 20.43009, 49.294664 ], [ 20.429974, 49.294612 ], [ 20.428948, 49.294152 ], [ 20.428713, 49.29397 ], [ 20.428641816711629, 49.293907620960454 ], [ 20.42833291, 49.29363764 ], [ 20.42777447390111, 49.293782052293416 ], [ 20.427586, 49.293831 ], [ 20.427512, 49.29385 ], [ 20.426288833227005, 49.294159921355984 ], [ 20.42595687, 49.29424414 ], [ 20.42385961, 49.2948492 ], [ 20.42384167, 49.29485438 ], [ 20.42320426, 49.29485856 ], [ 20.423148014359118, 49.294858965269675 ], [ 20.423146, 49.294859 ], [ 20.423138919931947, 49.294863554205939 ], [ 20.42296165, 49.29497857 ], [ 20.42222169, 49.29531375 ], [ 20.422136228913597, 49.295382659390611 ], [ 20.422041, 49.29546 ], [ 20.42169, 49.295575 ], [ 20.421458, 49.295619 ], [ 20.421228284651505, 49.295686915842168 ], [ 20.421221976937328, 49.295796168010902 ], [ 20.421212, 49.295977 ], [ 20.421095921103777, 49.296012431058443 ], [ 20.42086844, 49.29608226 ], [ 20.42037778, 49.29616968 ], [ 20.42023722, 49.29617546 ], [ 20.420205819398394, 49.296133625740175 ], [ 20.420133, 49.296037 ], [ 20.419152, 49.295953 ], [ 20.418637719152713, 49.295993531857974 ], [ 20.41817526, 49.29603024 ], [ 20.41803022, 49.29625075 ], [ 20.418030154192358, 49.29625076498958 ], [ 20.41803, 49.296251 ], [ 20.417488383899499, 49.296374168721648 ], [ 20.41736633, 49.29640197 ], [ 20.41705441, 49.29645189 ], [ 20.41666521, 49.29655835 ], [ 20.41597967, 49.29681898 ], [ 20.41585492, 49.29685318 ], [ 20.415786796827931, 49.296903402379051 ], [ 20.415722, 49.296952 ], [ 20.415351, 49.297125 ], [ 20.415189057149004, 49.29723032373392 ], [ 20.41508533, 49.29729834 ], [ 20.41479981, 49.29761874 ], [ 20.41461506, 49.29805174 ], [ 20.4144636, 49.29821211 ], [ 20.414091980088084, 49.298653651711334 ], [ 20.414006, 49.298756 ], [ 20.413990644006038, 49.298765886735836 ], [ 20.41386063, 49.29885071 ], [ 20.41373956, 49.29902411 ], [ 20.413592531372732, 49.299109598548405 ], [ 20.413508, 49.299159 ], [ 20.413431516237971, 49.299173365997632 ], [ 20.41312966, 49.29923084 ], [ 20.412698764773058, 49.299643547844582 ], [ 20.412618070832867, 49.299720932072383 ], [ 20.41259412, 49.29977299 ], [ 20.41214992, 49.30008226 ], [ 20.4121154, 49.30007231 ], [ 20.41203665, 49.3001485 ], [ 20.411948170518372, 49.300234037043225 ], [ 20.411938, 49.300244 ], [ 20.411711, 49.30041 ], [ 20.411679539850425, 49.300398202443908 ], [ 20.41156854199274, 49.30048360495563 ], [ 20.411479, 49.300553 ], [ 20.411428186040165, 49.300645344600085 ], [ 20.41137483, 49.30074317 ], [ 20.41121927, 49.30092796 ], [ 20.41077607, 49.30136453 ], [ 20.4105285, 49.30158674 ], [ 20.41038906, 49.30164037 ], [ 20.410240358532317, 49.301728432265584 ], [ 20.410152, 49.301781 ], [ 20.410105226498114, 49.301801441752673 ], [ 20.41001759, 49.30184016 ], [ 20.409820028965683, 49.301881694598507 ], [ 20.409743, 49.301898 ], [ 20.409722606940417, 49.301905290782962 ], [ 20.40955015, 49.30196777 ], [ 20.40946098710257, 49.301905108219756 ], [ 20.409422, 49.301878 ], [ 20.409270972085714, 49.301952821168548 ], [ 20.40920465, 49.30198579 ], [ 20.4090495, 49.30212997 ], [ 20.408960728314618, 49.302198908864071 ], [ 20.408894, 49.302251 ], [ 20.408455239682521, 49.302524850403167 ], [ 20.408465276263115, 49.302531422664451 ], [ 20.408479, 49.30254 ], [ 20.408478802648123, 49.302540280156862 ], [ 20.40847923, 49.30254056 ], [ 20.40835623853927, 49.302714269765929 ], [ 20.408336, 49.302743 ], [ 20.408263236925837, 49.302765298361436 ], [ 20.40802607, 49.30283849 ], [ 20.407730924401086, 49.302837173457704 ], [ 20.407669, 49.302837 ], [ 20.407478, 49.302782 ], [ 20.407317939432755, 49.302776126217715 ], [ 20.40715099, 49.30277064 ], [ 20.406924279114918, 49.302736936537592 ], [ 20.406911, 49.302735 ], [ 20.406713739473172, 49.302672953662189 ], [ 20.40657456, 49.30262924 ], [ 20.406422356395471, 49.302624807089273 ], [ 20.406357, 49.302623 ], [ 20.406267000852175, 49.302634841993132 ], [ 20.40612895, 49.3026531 ], [ 20.406078112213525, 49.302653936585024 ], [ 20.405803, 49.302659 ], [ 20.405752099049732, 49.302674928188516 ], [ 20.40565645, 49.30270539 ], [ 20.4054664, 49.30279547 ], [ 20.405340600048273, 49.302835152693909 ], [ 20.405263, 49.30286 ], [ 20.405035, 49.302864 ], [ 20.40451, 49.302941 ], [ 20.404378, 49.302873 ], [ 20.40351, 49.303188 ], [ 20.403489609916029, 49.303176145300014 ], [ 20.40342376, 49.30313881 ], [ 20.40307935, 49.30343696 ], [ 20.40272503, 49.30359801 ], [ 20.402725007913705, 49.303597996400832 ], [ 20.402725, 49.303598 ], [ 20.402724239282129, 49.303597523132083 ], [ 20.40265802, 49.30355675 ], [ 20.4020567, 49.3040108 ], [ 20.402056385570358, 49.304010708580549 ], [ 20.402056, 49.304011 ], [ 20.402012, 49.303998 ], [ 20.401969131441763, 49.304029268830718 ], [ 20.40192683, 49.30406047 ], [ 20.4017381633317, 49.304267720335126 ], [ 20.401687, 49.304324 ], [ 20.401686835346936, 49.304324104126394 ], [ 20.40168683, 49.30432411 ], [ 20.40136636, 49.30452751 ], [ 20.40134017, 49.30454327 ], [ 20.401325979975734, 49.304554602778701 ], [ 20.401311, 49.304567 ], [ 20.401516, 49.30508 ], [ 20.401852, 49.305534 ], [ 20.402197320791174, 49.305931850886587 ], [ 20.40225315, 49.30599603 ], [ 20.402345342873446, 49.30609830451904 ], [ 20.402837, 49.306643 ], [ 20.403042614438476, 49.306974110147472 ], [ 20.40312716, 49.30710991 ], [ 20.40315696, 49.3071577 ], [ 20.403185514383477, 49.307203623013564 ], [ 20.403192, 49.307214 ], [ 20.403192140533687, 49.30721427961857 ], [ 20.40319229, 49.30721452 ], [ 20.403201303181465, 49.307232510453844 ], [ 20.403386, 49.3076 ], [ 20.403876505308105, 49.308263350035723 ], [ 20.40391132, 49.30831037 ], [ 20.404037019030898, 49.308488040131948 ], [ 20.404364, 49.30895 ], [ 20.404364111819842, 49.308950371611807 ], [ 20.40436433, 49.30895068 ], [ 20.40463067, 49.30983422 ], [ 20.40490764, 49.31030819 ], [ 20.404906978313701, 49.3103089628123 ], [ 20.404907, 49.310309 ], [ 20.404445326778383, 49.310848145782778 ], [ 20.40432292, 49.31099111 ], [ 20.40431772949092, 49.310997926954798 ], [ 20.403833, 49.311635 ], [ 20.403517, 49.312643 ], [ 20.403408, 49.313213 ], [ 20.403251, 49.314123 ], [ 20.40321, 49.314175 ], [ 20.402702, 49.314768 ], [ 20.402359, 49.315138 ], [ 20.40225800469344, 49.315255404154996 ], [ 20.40192271, 49.31564638 ], [ 20.401868479470721, 49.31596900108898 ], [ 20.401865, 49.31599 ], [ 20.401864854873534, 49.315990564062972 ], [ 20.40186479, 49.31599095 ], [ 20.401848793143341, 49.316052991181806 ], [ 20.401662, 49.316779 ], [ 20.401472, 49.317347 ], [ 20.401538, 49.317913 ], [ 20.401418758946129, 49.318424924943329 ], [ 20.40134718, 49.31873245 ], [ 20.401344050207364, 49.319401035703009 ], [ 20.401974, 49.319849 ], [ 20.402038594803376, 49.319880130025723 ], [ 20.40238962, 49.32004869 ], [ 20.402634717474548, 49.320145327780715 ], [ 20.402991, 49.320285 ], [ 20.403362, 49.320387 ], [ 20.403492340333806, 49.320432752117171 ], [ 20.40385262, 49.32055869 ], [ 20.404075035803771, 49.320636417386432 ], [ 20.404094, 49.320643 ], [ 20.404094003699402, 49.320643046074359 ], [ 20.40409453, 49.32064323 ], [ 20.40410515, 49.32078008 ], [ 20.404107175583743, 49.320806107004906 ], [ 20.40411, 49.32084 ], [ 20.40411, 49.320842 ], [ 20.404112719879706, 49.3208619457845 ], [ 20.40412505, 49.32095214 ], [ 20.404140178258331, 49.321063027233912 ], [ 20.404145602096833, 49.321063855875906 ], [ 20.4043561, 49.32109553 ], [ 20.40449827, 49.32115494 ], [ 20.40451913, 49.32116366 ], [ 20.404628849632932, 49.32120061654431 ], [ 20.404702, 49.321225 ], [ 20.404723342040906, 49.321232469714317 ], [ 20.40474216, 49.32123883 ], [ 20.40503657, 49.32130148 ], [ 20.40525244, 49.32143276 ], [ 20.405438459993068, 49.321545836304814 ], [ 20.405485, 49.321574 ], [ 20.405528484269666, 49.321600556464688 ], [ 20.40576564, 49.3217447 ], [ 20.40583452, 49.32185692 ], [ 20.405869983303603, 49.321876319894557 ], [ 20.405983, 49.321937 ], [ 20.40635, 49.322139 ], [ 20.406356504643476, 49.322153754435199 ], [ 20.40639156, 49.32223257 ], [ 20.40641388, 49.3222825 ], [ 20.406514471754377, 49.322351940725078 ], [ 20.406602, 49.322412 ], [ 20.406626838016258, 49.32244167777678 ], [ 20.40687454, 49.32273682 ], [ 20.40703384, 49.32287524 ], [ 20.40709564, 49.32295242 ], [ 20.40711029, 49.32297991 ], [ 20.40721562, 49.32317708 ], [ 20.407309170239916, 49.323320084507586 ], [ 20.407315646181743, 49.323323299183748 ], [ 20.40744851, 49.32338862 ], [ 20.40766334, 49.32359254 ], [ 20.407788739360246, 49.323667657745148 ], [ 20.407791, 49.323669 ], [ 20.407794483368665, 49.323671205068244 ], [ 20.40790031, 49.32373777 ], [ 20.40811153, 49.32392804 ], [ 20.4081128, 49.32392926 ], [ 20.40813934, 49.32395314 ], [ 20.40817189, 49.32404633 ], [ 20.40801063, 49.32425099 ], [ 20.408027590498172, 49.324270442129553 ], [ 20.408048, 49.324293 ], [ 20.408036192809291, 49.324323096760637 ], [ 20.40799765, 49.32442271 ], [ 20.40800736, 49.32455124 ], [ 20.40810853, 49.32474879 ], [ 20.4082637, 49.32495739 ], [ 20.40842164, 49.32504901 ], [ 20.40866794, 49.32510443 ], [ 20.408815353847714, 49.325185806948745 ], [ 20.408916, 49.325241 ], [ 20.409092, 49.325325 ], [ 20.409138560787667, 49.325336183718605 ], [ 20.40929661, 49.32537343 ], [ 20.40954421, 49.32547177 ], [ 20.409648679626805, 49.325537491869078 ], [ 20.409739, 49.325594 ], [ 20.409771546996222, 49.325628330393279 ], [ 20.40981265, 49.32567114 ], [ 20.40999156, 49.32587163 ], [ 20.41014798, 49.32611927 ], [ 20.410238508728302, 49.326157057728039 ], [ 20.410264785770963, 49.326160039520111 ], [ 20.41052009, 49.32618871 ], [ 20.41055820726238, 49.326267287429772 ], [ 20.410622, 49.326398 ], [ 20.410887, 49.326698 ], [ 20.410886629840366, 49.326698286575201 ], [ 20.41088703, 49.32669874 ], [ 20.410821559000091, 49.326748663999929 ], [ 20.410794, 49.32677 ], [ 20.410591, 49.32699 ], [ 20.410561283605912, 49.327021890764392 ], [ 20.41050987, 49.32707764 ], [ 20.41046455, 49.32716014 ], [ 20.41035604, 49.32753963 ], [ 20.410347780708069, 49.327652619623741 ], [ 20.410339, 49.327774 ], [ 20.410366, 49.328081 ], [ 20.41036, 49.32828 ], [ 20.410372410000022, 49.328359778571567 ], [ 20.41037403, 49.32836973 ], [ 20.41041981, 49.32840523 ], [ 20.41045335, 49.32843118 ], [ 20.41070201, 49.3285645 ], [ 20.410799387757329, 49.328529911763901 ], [ 20.410838, 49.328516 ], [ 20.411071, 49.328433 ], [ 20.411452, 49.328298 ], [ 20.411452050919113, 49.32829810882712 ], [ 20.41145247, 49.32829796 ], [ 20.41150338, 49.32840643 ], [ 20.411644325770059, 49.328497701613621 ], [ 20.411704, 49.328536 ], [ 20.411981, 49.328618 ], [ 20.412036073428009, 49.328659874011379 ], [ 20.41210236, 49.3287095 ], [ 20.412201440597567, 49.328783681888559 ], [ 20.412268, 49.328833 ], [ 20.412593, 49.329141 ], [ 20.412593060039416, 49.32914115610248 ], [ 20.41259336, 49.32914144 ], [ 20.41263847, 49.32925788 ], [ 20.412622344165218, 49.329292995395399 ], [ 20.412621, 49.329296 ], [ 20.41258806866982, 49.32936785017494 ], [ 20.412592434061416, 49.329378402990251 ], [ 20.412614, 49.329429 ], [ 20.412833, 49.329575 ], [ 20.412866138407555, 49.329621887321331 ], [ 20.41292754, 49.32970768 ], [ 20.41305671, 49.3298881 ], [ 20.41304512, 49.33010661 ], [ 20.41299812474103, 49.330189640167966 ], [ 20.412994035776357, 49.330196936163752 ], [ 20.41317233, 49.33037791 ], [ 20.41342073, 49.33050347 ], [ 20.41358057, 49.33066126 ], [ 20.41368363, 49.3307146 ], [ 20.413760848571215, 49.330729154285677 ], [ 20.413936, 49.330761 ], [ 20.41393530048952, 49.330762035275512 ], [ 20.41393575, 49.33076212 ], [ 20.41386139, 49.33087225 ], [ 20.4137762, 49.33136719 ], [ 20.41371816, 49.33170437 ], [ 20.413718094521027, 49.331704449170566 ], [ 20.413718, 49.331705 ], [ 20.413586627218169, 49.33186340617015 ], [ 20.41344121, 49.33203923 ], [ 20.413395012846504, 49.332297044114405 ], [ 20.413448, 49.332479 ], [ 20.413722, 49.332644 ], [ 20.41368749317547, 49.332778395000801 ], [ 20.41368393, 49.33279251 ], [ 20.413592361361484, 49.33292615963056 ], [ 20.413798, 49.333017 ], [ 20.414049638301289, 49.333092707798386 ], [ 20.41414723, 49.33312198 ], [ 20.414183804622787, 49.33313474696692 ], [ 20.414352, 49.333193 ], [ 20.414501, 49.333168 ], [ 20.4147235629416, 49.333213711580598 ], [ 20.41509548, 49.3332896 ], [ 20.41544434, 49.3333749 ], [ 20.4157329, 49.33344541 ], [ 20.4157529, 49.33346084 ], [ 20.415852488625486, 49.333537802020906 ], [ 20.415892, 49.333568 ], [ 20.416185, 49.333607 ], [ 20.416185084513, 49.333607331791782 ], [ 20.41618552, 49.33360739 ], [ 20.41621236, 49.33371234 ], [ 20.41643837, 49.33388883 ], [ 20.416468206036228, 49.333934309054342 ], [ 20.416484, 49.333958 ], [ 20.416509670121417, 49.333997574770521 ], [ 20.41653214, 49.33403188 ], [ 20.416758628843692, 49.334108684080043 ], [ 20.416863, 49.334144 ], [ 20.41722, 49.334265 ], [ 20.417335, 49.334326 ], [ 20.417365591166043, 49.334351316827068 ], [ 20.4175094, 49.33446915 ], [ 20.41753446, 49.33448973 ], [ 20.417629993922656, 49.33465393767311 ], [ 20.417688, 49.334753 ], [ 20.417766, 49.334777 ], [ 20.41779, 49.334784 ], [ 20.417798754915168, 49.334823397118257 ], [ 20.41782223, 49.33492839 ], [ 20.41764545, 49.33543239 ], [ 20.417645076072088, 49.335432782958172 ], [ 20.417645, 49.335433 ], [ 20.417580097420799, 49.335501068558678 ], [ 20.41752225, 49.33556186 ], [ 20.4174984402107, 49.335585011887225 ], [ 20.417393, 49.335688 ], [ 20.417215922413302, 49.335833229099883 ], [ 20.41711558, 49.33591579 ], [ 20.417099886742971, 49.335928695135898 ], [ 20.41704, 49.335979 ], [ 20.416827987332237, 49.3362737064054 ], [ 20.41679898, 49.3363142 ], [ 20.416748225881246, 49.336385110726098 ], [ 20.416952, 49.336485 ], [ 20.417053132725819, 49.336587004559661 ], [ 20.41706785, 49.33660182 ], [ 20.41730327, 49.33676399 ], [ 20.417428796539809, 49.33688550802141 ], [ 20.417479, 49.336934 ], [ 20.417522693969449, 49.33695963054074 ], [ 20.4176582, 49.33703847 ], [ 20.41767813, 49.33705002 ], [ 20.41767848, 49.33706949 ], [ 20.41769412, 49.33713583 ], [ 20.41770704, 49.33719089 ], [ 20.41771627, 49.33723006 ], [ 20.417726996904548, 49.337275616789235 ], [ 20.417743, 49.337342 ], [ 20.417748, 49.337352 ], [ 20.4178077001107, 49.337472542807255 ], [ 20.41795761, 49.33777342 ], [ 20.417968678957468, 49.337795689492445 ], [ 20.417971, 49.3378 ], [ 20.418022460164277, 49.337852065577977 ], [ 20.41805603, 49.33788575 ], [ 20.41842525, 49.33818742 ], [ 20.418540808754262, 49.338300876887061 ], [ 20.418583, 49.338342 ], [ 20.418817, 49.338422 ], [ 20.41886, 49.338437 ], [ 20.418863535143746, 49.338438278669017 ], [ 20.41890721, 49.33845326 ], [ 20.41899741, 49.33849161 ], [ 20.419023661039891, 49.338531587604685 ], [ 20.41903, 49.338541 ], [ 20.419040695767535, 49.338557496861789 ], [ 20.41908928, 49.33863134 ], [ 20.419341859794649, 49.338892345775413 ], [ 20.419393, 49.338945 ], [ 20.419428, 49.338933 ], [ 20.419428198537844, 49.33893335736812 ], [ 20.41942858, 49.33893323 ], [ 20.419435821758082, 49.338947079164548 ], [ 20.419443, 49.33896 ], [ 20.419635340614239, 49.339329665790196 ], [ 20.41971222, 49.3394771 ], [ 20.419717214789525, 49.339480724849665 ], [ 20.419775, 49.339522 ], [ 20.419845, 49.339573 ], [ 20.419845105124665, 49.339573696450913 ], [ 20.41984511, 49.3395737 ], [ 20.41988529, 49.33983856 ], [ 20.419947333926441, 49.339982154503275 ], [ 20.420014, 49.340013 ], [ 20.420083299999664, 49.34012261999947 ], [ 20.42017913, 49.34027321 ], [ 20.42060192, 49.34058977 ], [ 20.42063851, 49.34061718 ], [ 20.42078333, 49.34125993 ], [ 20.42078510145161, 49.341267880443539 ], [ 20.420787, 49.341275 ], [ 20.420777, 49.341407 ], [ 20.420841, 49.341648 ], [ 20.420840635538251, 49.341648749749879 ], [ 20.42084068, 49.34164892 ], [ 20.4207368, 49.34186404 ], [ 20.42063215, 49.34203627 ], [ 20.42062273, 49.34218839 ], [ 20.420556081759354, 49.342365428232313 ], [ 20.42052, 49.342462 ], [ 20.42034238269132, 49.342649175190758 ], [ 20.420296795947987, 49.342697303162993 ], [ 20.420293937753065, 49.342701549624024 ], [ 20.42005211, 49.34306142 ], [ 20.41993629, 49.34328051 ], [ 20.41981524, 49.34354641 ], [ 20.41971917, 49.3438745 ], [ 20.419719076751015, 49.343874736967869 ], [ 20.419719, 49.343875 ], [ 20.419616, 49.344137 ], [ 20.419595832762557, 49.344193371073338 ], [ 20.41945061, 49.34460139 ], [ 20.41941258, 49.34482773 ], [ 20.41942918, 49.34511611 ], [ 20.41941515, 49.34535011 ], [ 20.419388877132764, 49.345460486881095 ], [ 20.419354, 49.345608 ], [ 20.419493, 49.346086 ], [ 20.419503105374876, 49.346164436957366 ], [ 20.41953522, 49.34641235 ], [ 20.419539174782642, 49.346442615072718 ], [ 20.419541, 49.346456 ], [ 20.419540923914816, 49.346456000792557 ], [ 20.41954098, 49.34645643 ], [ 20.41953671, 49.34645645 ], [ 20.4194454, 49.34645706 ], [ 20.419564802698567, 49.346878328591579 ], [ 20.419623, 49.347083 ], [ 20.419652198508022, 49.347182908147914 ], [ 20.41970662, 49.34736791 ], [ 20.41979813, 49.34767911 ], [ 20.41985074, 49.34785779 ], [ 20.419838150121443, 49.347916261902903 ], [ 20.419838, 49.347917 ], [ 20.419840488908431, 49.34793467124986 ], [ 20.41984851, 49.34798776 ], [ 20.41991229, 49.34808203 ], [ 20.4198959, 49.34810996 ], [ 20.419853108369523, 49.348182855009526 ], [ 20.419826, 49.34823 ], [ 20.419795167843379, 49.348265765301676 ], [ 20.41977669, 49.34828767 ], [ 20.4197517, 49.348346 ], [ 20.41964626, 49.34853629 ], [ 20.4195033, 49.34880822 ], [ 20.419349990903576, 49.348933002967165 ], [ 20.419279, 49.348991 ], [ 20.419168553125367, 49.3490806962497 ], [ 20.41911445, 49.34912474 ], [ 20.41914135, 49.34914331 ], [ 20.419249164400863, 49.349217970222817 ], [ 20.419303, 49.349255 ], [ 20.419441672528333, 49.349318206339042 ], [ 20.41981236, 49.34948643 ], [ 20.41997746, 49.34960108 ], [ 20.420076846952551, 49.349685147746179 ], [ 20.420136, 49.349735 ], [ 20.420150361538152, 49.349753625119796 ], [ 20.42020015, 49.34981779 ], [ 20.420256883718231, 49.349891350057717 ], [ 20.420276, 49.349916 ], [ 20.420327234042674, 49.349950537234122 ], [ 20.42049998, 49.35006649 ], [ 20.42052176, 49.35008055 ], [ 20.42059741354301, 49.350129517803893 ], [ 20.420665, 49.350173 ], [ 20.420699789943026, 49.350217937009738 ], [ 20.42085747, 49.35042102 ], [ 20.42103625, 49.35066507 ], [ 20.42139848, 49.35115984 ], [ 20.4214084, 49.35126144 ], [ 20.421562, 49.35134873 ], [ 20.421613978937703, 49.351370456421961 ], [ 20.421734, 49.35142 ], [ 20.421733644017451, 49.351420474643398 ], [ 20.42173392, 49.35142059 ], [ 20.42162952, 49.35156013 ], [ 20.421609697760548, 49.351649272857465 ], [ 20.421597, 49.351708 ], [ 20.421630352291647, 49.351740341616143 ], [ 20.42169669, 49.35180367 ], [ 20.42181952, 49.35192097 ], [ 20.421955064309572, 49.352008036416258 ], [ 20.422038, 49.352055 ], [ 20.422123943623408, 49.352322380161702 ], [ 20.42217299, 49.35247457 ], [ 20.42219184, 49.35248906 ], [ 20.422286268284505, 49.352561719578112 ], [ 20.42236, 49.352618 ], [ 20.422377410743653, 49.352631864110684 ], [ 20.42241429, 49.35266027 ], [ 20.422429713841069, 49.352674469006629 ], [ 20.422435, 49.352679 ], [ 20.422480633205495, 49.352721507643473 ], [ 20.42250824, 49.35274702 ], [ 20.42256847, 49.3527864 ], [ 20.42273832, 49.35289744 ], [ 20.422766179106763, 49.352995041700431 ], [ 20.423028, 49.353056 ], [ 20.423057, 49.353063 ], [ 20.423086431752058, 49.353070085421791 ], [ 20.42316484, 49.35308867 ], [ 20.42367745, 49.35315578 ], [ 20.423825484869081, 49.353177212124159 ], [ 20.423845, 49.35318 ], [ 20.4248408, 49.3533442 ], [ 20.4272786, 49.353384 ], [ 20.4273911, 49.3533524 ], [ 20.4276761, 49.3535409 ], [ 20.4279839, 49.3536707 ], [ 20.4283669, 49.3536974 ], [ 20.4285652, 49.3537544 ], [ 20.4285369, 49.353821 ], [ 20.4286534, 49.3539412 ], [ 20.428925611244672, 49.354034740088608 ], [ 20.42893631, 49.35403722 ], [ 20.428994169252579, 49.35405829871177 ], [ 20.4296472, 49.3542827 ], [ 20.4304435, 49.3542043 ], [ 20.4307257, 49.354268 ], [ 20.4311608, 49.3544577 ], [ 20.431623, 49.3545617 ], [ 20.4324421, 49.3546184 ], [ 20.433096568306539, 49.354597154861104 ], [ 20.43309764, 49.35459693 ], [ 20.433098438685011, 49.354597094145483 ], [ 20.4335511, 49.3545824 ], [ 20.4336487, 49.3548887 ], [ 20.4337569, 49.3549232 ], [ 20.4345027, 49.3549106 ], [ 20.434847428637514, 49.354829075629816 ], [ 20.43485795, 49.35481837 ] ] ] } }
]
}
