{
"type": "FeatureCollection",
"name": "gis",
"crs": { "type": "name", "properties": { "name": "urn:ogc:def:crs:OGC:1.3:CRS84" } },
"features": [
{ "type": "Feature", "properties": { "@featureType": "CadastralZoning", "beginLifespanVersion": { "@nilReason": "http://inspire.ec.europa.eu/codelist/VoidReasonValue/Unpopulated", "@nil": "true" }, "endLifespanVersion": { "@nilReason": "http://inspire.ec.europa.eu/codelist/VoidReasonValue/Unpopulated", "@nil": "true" }, "estimatedAccuracy": { "value": -1, "@uom": "m" }, "inspireId": { "@dataType": "Identifier", "localId": "820903", "namespace": "SK.ESKN.CP", "versionId": "20260703T04:07:40" }, "label": "Chrabrany", "level": { "@href": "http://inspire.ec.europa.eu/codelist/CadastralZoningLevelValue/3rdOrder" }, "levelName": { "value": "Katastrálne územie", "@locale": "sk" }, "name_1": { "@dataType": "name", "GeographicalName": { "@dataType": "GeographicalName", "language": "SLK", "nativeness": { "@href": "http://inspire.ec.europa.eu/codelist/NativenessValue/endonym", "@title": "endonym" }, "nameStatus": { "@href": "http://inspire.ec.europa.eu/codelist/NameStatusValue/official", "@title": "official" }, "sourceOfName": { "@nilReason": "http://inspire.ec.europa.eu/codelist/VoidReasonValue/Unpopulated", "@nil": "true" }, "pronunciation": { "@dataType": "pronunciation", "@nilReason": "http://inspire.ec.europa.eu/codelist/VoidReasonValue/Unpopulated", "@nil": "true" }, "spelling": { "@dataType": "SpellingOfName", "text": "Chrabrany", "script": "LATN" } } }, "nationalCadastalZoningReference": "820903", "validFrom": "2026-06-30T16:00:00Z", "validTo": { "@nilReason": "http://inspire.ec.europa.eu/codelist/VoidReasonValue/Unpopulated", "@nil": "true" }, "place_id": 419619960, "osm_type": "relation", "osm_id": 2209608, "place_rank": 22, "category": "place", "type": "cadastral_community", "importance": 0.10671953078507665, "addresstype": "cadastral_community", "name_2": "Chrabrany", "display_name": "Chrabrany, okres Topoľčany, Nitriansky kraj, 955 01, Slovensko" }, "geometry": { "type": "Polygon", "coordinates": [ [ [ 18.1452163, 48.54099042 ], [ 18.14541865988717, 48.54096494015517 ], [ 18.1455746, 48.5409382 ], [ 18.1472999, 48.5402135 ], [ 18.1476616, 48.5400009 ], [ 18.148417557148278, 48.539461647942026 ], [ 18.148448846065776, 48.539410293380492 ], [ 18.148469918108219, 48.539363799137504 ], [ 18.14848568, 48.53931167 ], [ 18.148515771090462, 48.539287740090245 ], [ 18.148572494995534, 48.539241409752755 ], [ 18.14861639, 48.53919271 ], [ 18.14910326, 48.53880709 ], [ 18.149106550817315, 48.538805209416608 ], [ 18.1491155, 48.5387979 ], [ 18.149228537527691, 48.538735498411967 ], [ 18.14950731, 48.53857619 ], [ 18.149621359908775, 48.538518643524093 ], [ 18.150222105674558, 48.538187005964836 ], [ 18.150239183936137, 48.538168795527042 ], [ 18.150776300082867, 48.537409081904926 ], [ 18.15087622, 48.53725972 ], [ 18.15098914291805, 48.537014281070469 ], [ 18.151126761489781, 48.53669118149412 ], [ 18.1511209, 48.53668578 ], [ 18.1513235, 48.53650192 ], [ 18.15148842, 48.53635235 ], [ 18.1515185, 48.53610258 ], [ 18.151527859857495, 48.536117669131968 ], [ 18.1515308, 48.5360935 ], [ 18.1515673, 48.5361519 ], [ 18.159687607859773, 48.533113211453241 ], [ 18.15966353, 48.53303238 ], [ 18.159389, 48.53207619 ], [ 18.15911192, 48.53110946 ], [ 18.15883689, 48.53012624 ], [ 18.15854417, 48.52909269 ], [ 18.15829841, 48.52824658 ], [ 18.15826475, 48.52813061 ], [ 18.15825501, 48.52809727 ], [ 18.158269374412566, 48.528095413628712 ], [ 18.1582672, 48.5280878 ], [ 18.1583987, 48.5280707 ], [ 18.1584363, 48.528215 ], [ 18.1610426, 48.5277707 ], [ 18.161489809995423, 48.527688055981301 ], [ 18.1614728, 48.5275605 ], [ 18.16146576, 48.52750764 ], [ 18.16145751, 48.52744541 ], [ 18.1614506, 48.52739364 ], [ 18.16144389, 48.52734342 ], [ 18.16205993, 48.52623915 ], [ 18.16150048, 48.52571997 ], [ 18.16152744, 48.52556473 ], [ 18.161538968672925, 48.525561455219197 ], [ 18.1615401, 48.525555 ], [ 18.1618015, 48.525481 ], [ 18.162755636069765, 48.525046915518388 ], [ 18.16278702, 48.52490751 ], [ 18.16190235, 48.5245287 ], [ 18.16175638, 48.52445848 ], [ 18.16083213, 48.52399638 ], [ 18.16049189, 48.5238254 ], [ 18.15949846, 48.52332425 ], [ 18.15870863, 48.5229233 ], [ 18.15829269, 48.52271325 ], [ 18.15745714, 48.52227875 ], [ 18.15693192, 48.52201522 ], [ 18.156689013185165, 48.521899118441915 ], [ 18.1564285, 48.5221931 ], [ 18.1561779, 48.5224876 ], [ 18.156166111843984, 48.522496553970171 ], [ 18.15616535, 48.52249745 ], [ 18.155893545587283, 48.522703588058519 ], [ 18.1557653, 48.522801 ], [ 18.15576507524187, 48.522801020720912 ], [ 18.15575284, 48.5228103 ], [ 18.15506619, 48.52287357 ], [ 18.15499465, 48.52288016 ], [ 18.154955147454711, 48.522838715815645 ], [ 18.15489205571404, 48.522799630989255 ], [ 18.1548648, 48.52278775 ], [ 18.15480181, 48.52276034 ], [ 18.15475293, 48.52274974 ], [ 18.15465065, 48.52272763 ], [ 18.15463916, 48.52272507 ], [ 18.1545637, 48.52270876 ], [ 18.15443184, 48.52268015 ], [ 18.15415291, 48.52223394 ], [ 18.15406953, 48.52164868 ], [ 18.15414608, 48.52072741 ], [ 18.15422233, 48.52037461 ], [ 18.15442731, 48.51974925 ], [ 18.1549196, 48.51898757 ], [ 18.15561286, 48.51830221 ], [ 18.15601805, 48.51793846 ], [ 18.1561173, 48.51784935 ], [ 18.15618835, 48.51755348 ], [ 18.15593766, 48.5170477 ], [ 18.15535487, 48.51662336 ], [ 18.15488985, 48.51640367 ], [ 18.15365342, 48.51581963 ], [ 18.15311023, 48.51550754 ], [ 18.15265766, 48.51494189 ], [ 18.15245677, 48.51421537 ], [ 18.15220413, 48.51373303 ], [ 18.15183043, 48.51339198 ], [ 18.15096309, 48.51326415 ], [ 18.15033144, 48.51332237 ], [ 18.14983535, 48.51342017 ], [ 18.14934537, 48.51370655 ], [ 18.14897646, 48.51383116 ], [ 18.14879403, 48.51386676 ], [ 18.14858307, 48.51384772 ], [ 18.14841742, 48.51379321 ], [ 18.14829629, 48.51373488 ], [ 18.14818247, 48.51360367 ], [ 18.14809953, 48.5133763 ], [ 18.14796367, 48.51292376 ], [ 18.14796128, 48.51291514 ], [ 18.1477316, 48.51294844 ], [ 18.14762143, 48.51284724 ], [ 18.14751862, 48.5127572 ], [ 18.14738999, 48.51264454 ], [ 18.14733883, 48.51259967 ], [ 18.14666535, 48.51200985 ], [ 18.146678944166386, 48.512001994320251 ], [ 18.1466777, 48.5120009 ], [ 18.147021266022019, 48.511802221669079 ], [ 18.14700725, 48.51166141 ], [ 18.14693541, 48.51153436 ], [ 18.14688449, 48.5114208 ], [ 18.14681614, 48.51131778 ], [ 18.14672421, 48.51125863 ], [ 18.14662191, 48.51120807 ], [ 18.14658367, 48.51114671 ], [ 18.14657987, 48.51108483 ], [ 18.14662703, 48.51095188 ], [ 18.146608030833036, 48.510903405769781 ], [ 18.14651646356036, 48.510789509592499 ], [ 18.1464805, 48.51076893 ], [ 18.146449969668421, 48.510766189304796 ], [ 18.146295277813255, 48.510787770705079 ], [ 18.14623106, 48.51080993 ], [ 18.14617265, 48.51081285 ], [ 18.14612727, 48.51080046 ], [ 18.146088994136576, 48.510770042287326 ], [ 18.145969716360529, 48.510729141762106 ], [ 18.14591521, 48.51072392 ], [ 18.14586759831581, 48.510736006272239 ], [ 18.1457942723098, 48.510762043938804 ], [ 18.14575364, 48.5107797 ], [ 18.14568293, 48.51081612 ], [ 18.14558728, 48.51084079 ], [ 18.14549756, 48.51084216 ], [ 18.14538279, 48.51083051 ], [ 18.14527137, 48.51080578 ], [ 18.14513816, 48.51076805 ], [ 18.14501059, 48.51072361 ], [ 18.14478732, 48.51060949 ], [ 18.14473817, 48.51058966 ], [ 18.14465954, 48.51057804 ], [ 18.1445815, 48.51058767 ], [ 18.14445026, 48.51057515 ], [ 18.14413902, 48.51035651 ], [ 18.14409423, 48.510352 ], [ 18.14367975, 48.51028038 ], [ 18.14366587, 48.51027641 ], [ 18.14309358, 48.51011361 ], [ 18.14282946, 48.51004966 ], [ 18.14273285, 48.51003527 ], [ 18.142149895449084, 48.509954863162434 ], [ 18.14147726671743, 48.509871332518046 ], [ 18.13848771, 48.50953222 ], [ 18.13846669, 48.50952982 ], [ 18.13839469, 48.50949989 ], [ 18.13834824, 48.50945448 ], [ 18.136801153051309, 48.507850116791872 ], [ 18.132612985654447, 48.50357398465087 ], [ 18.13007328, 48.50099796 ], [ 18.13001949, 48.50094345 ], [ 18.13000895, 48.50093272 ], [ 18.12999984, 48.50092353 ], [ 18.12994797, 48.50087093 ], [ 18.12993695, 48.50085973 ], [ 18.12988976, 48.50081183 ], [ 18.12987885, 48.50080081 ], [ 18.1298494, 48.50077084 ], [ 18.12984461, 48.50076595 ], [ 18.12984089, 48.50076221 ], [ 18.12918186, 48.50009348 ], [ 18.12909809, 48.5001136 ], [ 18.128017, 48.50037558 ], [ 18.12762333, 48.50047095 ], [ 18.12753673, 48.50049199 ], [ 18.12748017, 48.50050566 ], [ 18.12732453, 48.50054333 ], [ 18.12713997, 48.50058808 ], [ 18.12697716, 48.50062759 ], [ 18.12682515, 48.50066449 ], [ 18.12674361, 48.50068419 ], [ 18.12652562, 48.50074034 ], [ 18.12651296, 48.50074358 ], [ 18.1264267, 48.50077646 ], [ 18.12639623, 48.50078804 ], [ 18.12638463, 48.50079251 ], [ 18.12620365, 48.50086157 ], [ 18.12583838, 48.50100093 ], [ 18.12577214, 48.50101079 ], [ 18.12564672, 48.50102946 ], [ 18.12554528, 48.50104457 ], [ 18.12534462, 48.50107438 ], [ 18.12534129, 48.50107491 ], [ 18.12532822, 48.50107821 ], [ 18.12522763, 48.50109815 ], [ 18.12497797, 48.5011492 ], [ 18.12475987, 48.50119379 ], [ 18.12453146, 48.5012403 ], [ 18.12447087, 48.50125265 ], [ 18.12435247, 48.50127679 ], [ 18.12421006, 48.50130585 ], [ 18.12420316, 48.50130662 ], [ 18.12413714, 48.50132407 ], [ 18.12413029, 48.50132656 ], [ 18.12394027, 48.50138786 ], [ 18.12391083, 48.50139679 ], [ 18.12376859, 48.50143994 ], [ 18.12376661, 48.50144055 ], [ 18.12372924, 48.50145191 ], [ 18.123646470664482, 48.501477049819833 ], [ 18.1239155, 48.502117 ], [ 18.1243161, 48.5025883 ], [ 18.1245547, 48.5031057 ], [ 18.1244347, 48.5032759 ], [ 18.124463141685879, 48.503441832300091 ], [ 18.12446564, 48.50345144 ], [ 18.124466773213239, 48.503463019078183 ], [ 18.124498, 48.5036452 ], [ 18.1255406, 48.5057249 ], [ 18.125732460731381, 48.505788362099103 ], [ 18.12578285, 48.50580168 ], [ 18.12582709, 48.50581645 ], [ 18.12587537, 48.50583254 ], [ 18.1258962, 48.50583945 ], [ 18.12609153, 48.50590448 ], [ 18.126151149904398, 48.505926852626075 ], [ 18.1264775, 48.5060348 ], [ 18.1274255, 48.5062807 ], [ 18.1289924, 48.5064536 ], [ 18.1299001, 48.5066861 ], [ 18.1302556, 48.5066832 ], [ 18.1315716, 48.5076638 ], [ 18.1318804, 48.5080713 ], [ 18.1320096, 48.5083541 ], [ 18.132099, 48.5089541 ], [ 18.132085600316778, 48.508959361781315 ], [ 18.13208627, 48.50896388 ], [ 18.13188391, 48.50904334 ], [ 18.13177887, 48.50908452 ], [ 18.13164657, 48.50913666 ], [ 18.13158393, 48.50916135 ], [ 18.1314967, 48.5091819 ], [ 18.13135544, 48.50921546 ], [ 18.12961429, 48.50962791 ], [ 18.129374227946116, 48.509663303039503 ], [ 18.128929000056289, 48.509765851013533 ], [ 18.12887094, 48.50978602 ], [ 18.128868319673195, 48.509787723060349 ], [ 18.1285816, 48.5100059 ], [ 18.1281844, 48.5109317 ], [ 18.128168727220842, 48.51094439602705 ], [ 18.12813077, 48.51098427 ], [ 18.12808799, 48.51102927 ], [ 18.128043, 48.51107665 ], [ 18.1279306, 48.51115595 ], [ 18.127832871327868, 48.511217659114422 ], [ 18.127789408569768, 48.511279835946212 ], [ 18.1277811, 48.51129384 ], [ 18.127763101568618, 48.51131747014287 ], [ 18.1277066, 48.5113983 ], [ 18.127621, 48.5117499 ], [ 18.127681170780932, 48.511992154618291 ], [ 18.12768877, 48.51200827 ], [ 18.12770915, 48.51205144 ], [ 18.12774056, 48.51220233 ], [ 18.1277703, 48.51225895 ], [ 18.12777877, 48.51231714 ], [ 18.127780025841659, 48.512390156682294 ], [ 18.1277933, 48.5124436 ], [ 18.1275844, 48.5129224 ], [ 18.128079, 48.5141318 ], [ 18.128082840463922, 48.514351396526969 ], [ 18.12809251, 48.51443965 ], [ 18.128087381966893, 48.514611078247512 ], [ 18.1280918, 48.5148637 ], [ 18.1282175, 48.5152423 ], [ 18.1288136, 48.5161237 ], [ 18.1301539, 48.5171025 ], [ 18.1303441, 48.5171226 ], [ 18.1309992, 48.5173424 ], [ 18.130984506238747, 48.517350613782043 ], [ 18.13098691, 48.51735142 ], [ 18.1309635, 48.51736504 ], [ 18.13047266, 48.51765058 ], [ 18.13044704, 48.51766552 ], [ 18.13042051, 48.51767805 ], [ 18.13031211, 48.51772915 ], [ 18.13021344, 48.5177641 ], [ 18.13021213, 48.51776475 ], [ 18.13018787, 48.51777254 ], [ 18.13007067, 48.51781094 ], [ 18.12767495, 48.51859568 ], [ 18.1276545, 48.51860234 ], [ 18.1276416, 48.51860736 ], [ 18.1276277, 48.51861179 ], [ 18.12761518, 48.51861602 ], [ 18.12750977, 48.51865059 ], [ 18.1274785, 48.51866095 ], [ 18.12680722, 48.51771452 ], [ 18.12642855, 48.517149 ], [ 18.12623451, 48.51684489 ], [ 18.12596827, 48.51639111 ], [ 18.12575791, 48.51602862 ], [ 18.12556618, 48.5156516 ], [ 18.12552283, 48.51556637 ], [ 18.12547786, 48.51547798 ], [ 18.12537185, 48.51526965 ], [ 18.12528818, 48.51510505 ], [ 18.1251948, 48.51492138 ], [ 18.12517097, 48.51487458 ], [ 18.12513689, 48.51480759 ], [ 18.12431272, 48.51331476 ], [ 18.12428821, 48.51332028 ], [ 18.12332913, 48.51352354 ], [ 18.1220096, 48.51381046 ], [ 18.12194314, 48.51382491 ], [ 18.119847849892111, 48.514280452738085 ], [ 18.1201475, 48.5148445 ], [ 18.1203468, 48.5150028 ], [ 18.120300325392655, 48.515533181264537 ], [ 18.1202748, 48.51592362 ], [ 18.120261247743297, 48.515979146368153 ], [ 18.1202556, 48.5160436 ], [ 18.120244493417911, 48.516047792266768 ], [ 18.12024332, 48.5160526 ], [ 18.120209382053229, 48.516061045327525 ], [ 18.119983934824027, 48.516146142157368 ], [ 18.11995869, 48.51616083 ], [ 18.1191008, 48.5162387 ], [ 18.11862277, 48.5163748 ], [ 18.118487649210632, 48.516464803354935 ], [ 18.118226526862845, 48.51685207375926 ], [ 18.1182215, 48.51686496 ], [ 18.118128416876576, 48.516997580623645 ], [ 18.1179831, 48.5172131 ], [ 18.1173788, 48.5182893 ], [ 18.117361403106948, 48.518485891767732 ], [ 18.11735593, 48.51869196 ], [ 18.11733595, 48.51895866 ], [ 18.11730932990984, 48.519074339477307 ], [ 18.1173029, 48.519147 ], [ 18.116680877358185, 48.52081575120998 ], [ 18.11666663, 48.52086205 ], [ 18.11641024, 48.52155379 ], [ 18.116393400064624, 48.52158699014764 ], [ 18.1162749, 48.5219049 ], [ 18.115987, 48.5232367 ], [ 18.1156644, 48.5243194 ], [ 18.115584, 48.5249071 ], [ 18.116164949509322, 48.524895400078023 ], [ 18.11631878, 48.52487835 ], [ 18.116665821803256, 48.524885312855872 ], [ 18.1169048, 48.5248805 ], [ 18.1181439, 48.5250454 ], [ 18.1185309, 48.5251799 ], [ 18.1188504, 48.5251737 ], [ 18.11906222275509, 48.525217927259384 ], [ 18.11913141, 48.52522857 ], [ 18.11921107, 48.52524081 ], [ 18.11924903, 48.52524664 ], [ 18.119363116084489, 48.52528075189462 ], [ 18.1197283, 48.525357 ], [ 18.120464, 48.5254146 ], [ 18.1207581, 48.5258121 ], [ 18.1208885, 48.5261075 ], [ 18.1202677, 48.527754 ], [ 18.120964478808173, 48.527849243690042 ], [ 18.12121633, 48.52787578 ], [ 18.121493468010073, 48.527921551979254 ], [ 18.122112, 48.5280061 ], [ 18.1239125, 48.5283799 ], [ 18.1246943, 48.5284132 ], [ 18.1254105, 48.5283602 ], [ 18.1272002, 48.5284127 ], [ 18.1288383, 48.5285738 ], [ 18.1300168, 48.5287892 ], [ 18.1297661, 48.5322889 ], [ 18.129754761836292, 48.532291177100937 ], [ 18.1297537, 48.53229788 ], [ 18.12879562, 48.53249106 ], [ 18.12707432, 48.53276275 ], [ 18.126486752787009, 48.532827513060049 ], [ 18.126404590949647, 48.533109515339405 ], [ 18.12636588, 48.53326029 ], [ 18.12622884, 48.53379443 ], [ 18.125992694537832, 48.534523258394799 ], [ 18.1259109, 48.534804 ], [ 18.1296339, 48.5340789 ], [ 18.129727492207, 48.534084952386216 ], [ 18.12975254, 48.5340843 ], [ 18.13017369, 48.53410689 ], [ 18.13110932, 48.53416589 ], [ 18.131313688308758, 48.534187527928921 ], [ 18.1315715, 48.5342042 ], [ 18.1321023, 48.5342884 ], [ 18.133263, 48.5345942 ], [ 18.133617429196548, 48.534726681065358 ], [ 18.133627, 48.53472991 ], [ 18.133634954359259, 48.534733231745292 ], [ 18.1339535, 48.5348523 ], [ 18.1358308, 48.5357515 ], [ 18.135816991983479, 48.535759762805107 ], [ 18.13581851, 48.53576048 ], [ 18.135577482359569, 48.535905071633152 ], [ 18.1354582, 48.5360786 ], [ 18.1350165, 48.5364376 ], [ 18.1340056, 48.537558 ], [ 18.1347461, 48.5378585 ], [ 18.134969, 48.5378906 ], [ 18.135220469225644, 48.538078794778578 ], [ 18.1352661, 48.53810366 ], [ 18.135338661469309, 48.538167247602459 ], [ 18.135494, 48.5382835 ], [ 18.13707769477022, 48.539093744315153 ], [ 18.13722486, 48.53916541 ], [ 18.13847413, 48.53980128 ], [ 18.138586330443513, 48.539865587160698 ], [ 18.1403707, 48.5407785 ], [ 18.1417179, 48.5414042 ], [ 18.1424569, 48.5417057 ], [ 18.1427376, 48.5417457 ], [ 18.1450445, 48.5410291 ], [ 18.145109540698819, 48.5410179470109 ], [ 18.1452163, 48.54099042 ] ] ] } }
]
}
