{
"type": "FeatureCollection",
"name": "gis",
"crs": { "type": "name", "properties": { "name": "urn:ogc:def:crs:OGC:1.3:CRS84" } },
"features": [
{ "type": "Feature", "properties": { "@featureType": "CadastralParcel", "areaValue": { "value": 480, "@uom": "m2" }, "beginLifespanVersion": { "@nilReason": "http://inspire.ec.europa.eu/codelist/VoidReasonValue/Unpopulated", "@nil": "true" }, "endLifespanVersion": { "@nilReason": "http://inspire.ec.europa.eu/codelist/VoidReasonValue/Unpopulated", "@nil": "true" }, "inspireId": { "@dataType": "Identifier", "localId": "812315_1522/2.C", "namespace": "SK.ESKN.CP", "versionId": "20260703T07:07:01" }, "label": "1522/2", "nationalCadastralReference": "812315_1522/2.C", "referencePoint": { "type": "Point", "coordinates": [ 19.30332716, 49.20377189 ] }, "validFrom": "2026-06-30T16:00:00Z", "validTo": { "@nilReason": "http://inspire.ec.europa.eu/codelist/VoidReasonValue/Unpopulated", "@nil": "true" }, "administrativeUnit": { "@href": "#auAdmUnitS.1358" } }, "geometry": { "type": "Polygon", "coordinates": [ [ [ 19.3036583, 49.20381129 ], [ 19.30338646, 49.20372745 ], [ 19.30309393, 49.2036639 ], [ 19.30296824, 49.20366083 ], [ 19.3029567, 49.20372294 ], [ 19.30295211, 49.20373959 ], [ 19.30300117, 49.20374885 ], [ 19.30324637, 49.20379492 ], [ 19.30350591, 49.20383688 ], [ 19.30354282, 49.20384287 ], [ 19.30364635, 49.20385724 ], [ 19.3036583, 49.20381129 ] ] ] } },
{ "type": "Feature", "properties": { "@featureType": "CadastralParcel", "areaValue": { "value": 4067, "@uom": "m2" }, "beginLifespanVersion": { "@nilReason": "http://inspire.ec.europa.eu/codelist/VoidReasonValue/Unpopulated", "@nil": "true" }, "endLifespanVersion": { "@nilReason": "http://inspire.ec.europa.eu/codelist/VoidReasonValue/Unpopulated", "@nil": "true" }, "inspireId": { "@dataType": "Identifier", "localId": "812315_1510/100.C", "namespace": "SK.ESKN.CP", "versionId": "20260703T07:07:01" }, "label": "1510/100", "nationalCadastralReference": "812315_1510/100.C", "referencePoint": { "type": "Point", "coordinates": [ 19.30395119, 49.20190526 ] }, "validFrom": "2026-06-30T16:00:00Z", "validTo": { "@nilReason": "http://inspire.ec.europa.eu/codelist/VoidReasonValue/Unpopulated", "@nil": "true" }, "administrativeUnit": { "@href": "#auAdmUnitS.1358" } }, "geometry": { "type": "Polygon", "coordinates": [ [ [ 19.30495409, 49.2025975 ], [ 19.30499711, 49.20247575 ], [ 19.30473285, 49.20247657 ], [ 19.30425979, 49.20247813 ], [ 19.30410249, 49.20242235 ], [ 19.30388968, 49.20225251 ], [ 19.30404171, 49.20201565 ], [ 19.30405161, 49.20199827 ], [ 19.30418029, 49.20181224 ], [ 19.30438954, 49.20151824 ], [ 19.30440869, 49.20149056 ], [ 19.30439652, 49.20145122 ], [ 19.30438059, 49.20139988 ], [ 19.30443563, 49.20126644 ], [ 19.30387471, 49.20166892 ], [ 19.3037085, 49.20211391 ], [ 19.3037676, 49.20250584 ], [ 19.30384513, 49.20259994 ], [ 19.30391401, 49.20261294 ], [ 19.30396053, 49.20262146 ], [ 19.30398726, 49.20262615 ], [ 19.30406052, 49.20262304 ], [ 19.30413469, 49.20261925 ], [ 19.30418004, 49.20261725 ], [ 19.30420763, 49.20261658 ], [ 19.30428021, 49.2026147 ], [ 19.30436808, 49.20261012 ], [ 19.30438033, 49.20261016 ], [ 19.30453915, 49.20260353 ], [ 19.30454798, 49.20260332 ], [ 19.30469843, 49.20260017 ], [ 19.30470436, 49.20260009 ], [ 19.30480737, 49.2025992 ], [ 19.30495409, 49.2025975 ] ] ] } },
{ "type": "Feature", "properties": { "@featureType": "CadastralParcel", "areaValue": { "value": 390, "@uom": "m2" }, "beginLifespanVersion": { "@nilReason": "http://inspire.ec.europa.eu/codelist/VoidReasonValue/Unpopulated", "@nil": "true" }, "endLifespanVersion": { "@nilReason": "http://inspire.ec.europa.eu/codelist/VoidReasonValue/Unpopulated", "@nil": "true" }, "inspireId": { "@dataType": "Identifier", "localId": "812315_1525/8.C", "namespace": "SK.ESKN.CP", "versionId": "20260703T07:07:01" }, "label": "1525/8", "nationalCadastralReference": "812315_1525/8.C", "referencePoint": { "type": "Point", "coordinates": [ 19.30402993, 49.20272107 ] }, "validFrom": "2026-06-30T16:00:00Z", "validTo": { "@nilReason": "http://inspire.ec.europa.eu/codelist/VoidReasonValue/Unpopulated", "@nil": "true" }, "administrativeUnit": { "@href": "#auAdmUnitS.1358" } }, "geometry": { "type": "Polygon", "coordinates": [ [ [ 19.30418004, 49.20261725 ], [ 19.30413469, 49.20261925 ], [ 19.30406052, 49.20262304 ], [ 19.30398726, 49.20262615 ], [ 19.30396053, 49.20262146 ], [ 19.3038726, 49.202816 ], [ 19.30410018, 49.20284959 ], [ 19.30418004, 49.20261725 ] ] ] } },
{ "type": "Feature", "properties": { "@featureType": "CadastralParcel", "areaValue": { "value": 1, "@uom": "m2" }, "beginLifespanVersion": { "@nilReason": "http://inspire.ec.europa.eu/codelist/VoidReasonValue/Unpopulated", "@nil": "true" }, "endLifespanVersion": { "@nilReason": "http://inspire.ec.europa.eu/codelist/VoidReasonValue/Unpopulated", "@nil": "true" }, "inspireId": { "@dataType": "Identifier", "localId": "812315_1525/16.C", "namespace": "SK.ESKN.CP", "versionId": "20260703T07:07:01" }, "label": "1525/16", "nationalCadastralReference": "812315_1525/16.C", "referencePoint": { "type": "Point", "coordinates": [ 19.30350707, 49.20368804 ] }, "validFrom": "2026-06-30T16:00:00Z", "validTo": { "@nilReason": "http://inspire.ec.europa.eu/codelist/VoidReasonValue/Unpopulated", "@nil": "true" }, "administrativeUnit": { "@href": "#auAdmUnitS.1358" } }, "geometry": { "type": "Polygon", "coordinates": [ [ [ 19.30353237, 49.20369442 ], [ 19.30348274, 49.20367909 ], [ 19.30348164, 49.20368165 ], [ 19.30353127, 49.2036969 ], [ 19.30353237, 49.20369442 ] ] ] } },
{ "type": "Feature", "properties": { "@featureType": "CadastralParcel", "areaValue": { "value": 558, "@uom": "m2" }, "beginLifespanVersion": { "@nilReason": "http://inspire.ec.europa.eu/codelist/VoidReasonValue/Unpopulated", "@nil": "true" }, "endLifespanVersion": { "@nilReason": "http://inspire.ec.europa.eu/codelist/VoidReasonValue/Unpopulated", "@nil": "true" }, "inspireId": { "@dataType": "Identifier", "localId": "812315_1525/9.C", "namespace": "SK.ESKN.CP", "versionId": "20260703T07:07:01" }, "label": "1525/9", "nationalCadastralReference": "812315_1525/9.C", "referencePoint": { "type": "Point", "coordinates": [ 19.30372125, 49.20321466 ] }, "validFrom": "2026-06-30T16:00:00Z", "validTo": { "@nilReason": "http://inspire.ec.europa.eu/codelist/VoidReasonValue/Unpopulated", "@nil": "true" }, "administrativeUnit": { "@href": "#auAdmUnitS.1358" } }, "geometry": { "type": "Polygon", "coordinates": [ [ [ 19.30348274, 49.20367909 ], [ 19.30353237, 49.20369442 ], [ 19.30368674, 49.20335427 ], [ 19.30388139, 49.2029246 ], [ 19.30406407, 49.2029549 ], [ 19.30410018, 49.20284959 ], [ 19.3038726, 49.202816 ], [ 19.30375097, 49.20308522 ], [ 19.30363406, 49.20334411 ], [ 19.3036195, 49.20337633 ], [ 19.30354593, 49.20353918 ], [ 19.30348274, 49.20367909 ] ] ] } },
{ "type": "Feature", "properties": { "@featureType": "CadastralParcel", "areaValue": { "value": 4112, "@uom": "m2" }, "beginLifespanVersion": { "@nilReason": "http://inspire.ec.europa.eu/codelist/VoidReasonValue/Unpopulated", "@nil": "true" }, "endLifespanVersion": { "@nilReason": "http://inspire.ec.europa.eu/codelist/VoidReasonValue/Unpopulated", "@nil": "true" }, "inspireId": { "@dataType": "Identifier", "localId": "812315_1916.C", "namespace": "SK.ESKN.CP", "versionId": "20260703T07:07:01" }, "label": "1916", "nationalCadastralReference": "812315_1916.C", "referencePoint": { "type": "Point", "coordinates": [ 19.30229255, 49.20361556 ] }, "validFrom": "2026-06-30T16:00:00Z", "validTo": { "@nilReason": "http://inspire.ec.europa.eu/codelist/VoidReasonValue/Unpopulated", "@nil": "true" }, "administrativeUnit": { "@href": "#auAdmUnitS.1358" } }, "geometry": { "type": "Polygon", "coordinates": [ [ [ 19.30868435, 49.20381671 ], [ 19.30868726, 49.20379782 ], [ 19.30870548, 49.20376488 ], [ 19.30870749, 49.20376164 ], [ 19.30870968, 49.20375795 ], [ 19.30844644, 49.20371826 ], [ 19.30840693, 49.20371224 ], [ 19.30821614, 49.20368806 ], [ 19.30817001, 49.2036847 ], [ 19.3079751, 49.20370288 ], [ 19.30793169, 49.20371227 ], [ 19.30791547, 49.20371583 ], [ 19.30783703, 49.2037434 ], [ 19.30781362, 49.20375482 ], [ 19.30773573, 49.2037936 ], [ 19.30754263, 49.20390635 ], [ 19.30750192, 49.20392741 ], [ 19.30745477, 49.20394573 ], [ 19.3074067, 49.20395987 ], [ 19.30735816, 49.20397082 ], [ 19.30730509, 49.20398048 ], [ 19.3072563, 49.20398493 ], [ 19.30720179, 49.20398388 ], [ 19.30714718, 49.20397759 ], [ 19.30710064, 49.20396791 ], [ 19.3070034, 49.20394383 ], [ 19.30695431, 49.20392987 ], [ 19.30689287, 49.20390686 ], [ 19.30675258, 49.20383277 ], [ 19.30663796, 49.20377424 ], [ 19.30645791, 49.20372378 ], [ 19.30623376, 49.20370397 ], [ 19.30541286, 49.20371791 ], [ 19.30495433, 49.20377345 ], [ 19.30490491, 49.2037812 ], [ 19.30479415, 49.20379858 ], [ 19.3043129, 49.20387423 ], [ 19.30421458, 49.20388237 ], [ 19.30417348, 49.20388574 ], [ 19.30399419, 49.20389212 ], [ 19.30386748, 49.20388576 ], [ 19.30384285, 49.2038845 ], [ 19.30382077, 49.20388138 ], [ 19.30364635, 49.20385724 ], [ 19.30354282, 49.20384287 ], [ 19.30350591, 49.20383688 ], [ 19.30324637, 49.20379492 ], [ 19.30300117, 49.20374885 ], [ 19.30295211, 49.20373959 ], [ 19.30271484, 49.20368786 ], [ 19.30234478, 49.2035926 ], [ 19.30219077, 49.2035431 ], [ 19.30217084, 49.20353675 ], [ 19.30202414, 49.20348958 ], [ 19.30201431, 49.20348641 ], [ 19.30188276, 49.2034442 ], [ 19.3017514, 49.20340641 ], [ 19.30166074, 49.20338643 ], [ 19.30141293, 49.20333915 ], [ 19.30138934, 49.2033347 ], [ 19.30135676, 49.20333072 ], [ 19.30131212, 49.2033387 ], [ 19.30129175, 49.20332881 ], [ 19.3011901, 49.20330614 ], [ 19.30118075, 49.20330479 ], [ 19.30117018, 49.20330456 ], [ 19.30099202, 49.20330188 ], [ 19.30080181, 49.20324012 ], [ 19.30062934, 49.20319967 ], [ 19.30060887, 49.20319319 ], [ 19.30060576, 49.20322136 ], [ 19.30060312, 49.20324521 ], [ 19.3006005, 49.20326393 ], [ 19.30087639, 49.20332606 ], [ 19.30105265, 49.20337707 ], [ 19.30108158, 49.2033568 ], [ 19.30110314, 49.20336098 ], [ 19.3012192, 49.20338776 ], [ 19.3012783, 49.20337334 ], [ 19.30125641, 49.20338844 ], [ 19.30133534, 49.20339381 ], [ 19.30132634, 49.20341304 ], [ 19.30136388, 49.2034195 ], [ 19.30137324, 49.20339948 ], [ 19.30167699, 49.20344977 ], [ 19.30181594, 49.20348232 ], [ 19.30199037, 49.2035437 ], [ 19.30200097, 49.20354744 ], [ 19.30213291, 49.20360861 ], [ 19.30213972, 49.20361172 ], [ 19.30216254, 49.20361939 ], [ 19.3023578, 49.20368526 ], [ 19.30237929, 49.2036925 ], [ 19.30240033, 49.20369756 ], [ 19.30259673, 49.20374194 ], [ 19.30290406, 49.20379348 ], [ 19.30293288, 49.20379791 ], [ 19.30296509, 49.20380277 ], [ 19.30298252, 49.20380567 ], [ 19.30301818, 49.20381169 ], [ 19.30327506, 49.20385407 ], [ 19.30348811, 49.20389347 ], [ 19.30352453, 49.2038988 ], [ 19.30362515, 49.20391592 ], [ 19.3037724, 49.20393435 ], [ 19.30380199, 49.20393801 ], [ 19.3038081, 49.20393875 ], [ 19.30385812, 49.20394058 ], [ 19.3040097, 49.20394605 ], [ 19.30411862, 49.20394274 ], [ 19.30417545, 49.20394146 ], [ 19.30419779, 49.20394099 ], [ 19.30421818, 49.20393826 ], [ 19.30463386, 49.20388331 ], [ 19.304741, 49.20386873 ], [ 19.30479063, 49.20386162 ], [ 19.30489661, 49.20384635 ], [ 19.30501371, 49.20383008 ], [ 19.30515825, 49.20380953 ], [ 19.30543382, 49.20377363 ], [ 19.30550308, 49.20377069 ], [ 19.30585419, 49.20376587 ], [ 19.30621555, 49.20376423 ], [ 19.3062675, 49.20376733 ], [ 19.30640255, 49.20377535 ], [ 19.30643853, 49.20378102 ], [ 19.30644903, 49.20378179 ], [ 19.30650668, 49.20379308 ], [ 19.30657687, 49.20382156 ], [ 19.30662071, 49.20384329 ], [ 19.30671334, 49.20388915 ], [ 19.30677413, 49.20391926 ], [ 19.30684921, 49.20395086 ], [ 19.30696019, 49.20399254 ], [ 19.30709751, 49.20402997 ], [ 19.30716739, 49.20403761 ], [ 19.3072335, 49.20403947 ], [ 19.30725389, 49.20403801 ], [ 19.30731429, 49.20403429 ], [ 19.30735018, 49.20402823 ], [ 19.30746107, 49.20400707 ], [ 19.30755939, 49.20396647 ], [ 19.30776978, 49.20385039 ], [ 19.30791634, 49.20377159 ], [ 19.30794945, 49.20376207 ], [ 19.30800914, 49.2037548 ], [ 19.30814139, 49.2037433 ], [ 19.30816563, 49.20374436 ], [ 19.30821328, 49.20374644 ], [ 19.3083238, 49.20375987 ], [ 19.30837988, 49.20376785 ], [ 19.30839167, 49.20376949 ], [ 19.30843111, 49.20377496 ], [ 19.30843978, 49.20377619 ], [ 19.30861788, 49.20380184 ], [ 19.30868435, 49.20381671 ] ] ] } },
{ "type": "Feature", "properties": { "@featureType": "CadastralParcel", "areaValue": { "value": 3573, "@uom": "m2" }, "beginLifespanVersion": { "@nilReason": "http://inspire.ec.europa.eu/codelist/VoidReasonValue/Unpopulated", "@nil": "true" }, "endLifespanVersion": { "@nilReason": "http://inspire.ec.europa.eu/codelist/VoidReasonValue/Unpopulated", "@nil": "true" }, "inspireId": { "@dataType": "Identifier", "localId": "812315_1875/1.C", "namespace": "SK.ESKN.CP", "versionId": "20260703T07:07:01" }, "label": "1875/1", "nationalCadastralReference": "812315_1875/1.C", "referencePoint": { "type": "Point", "coordinates": [ 19.30507586, 49.20370025 ] }, "validFrom": "2026-06-30T16:00:00Z", "validTo": { "@nilReason": "http://inspire.ec.europa.eu/codelist/VoidReasonValue/Unpopulated", "@nil": "true" }, "administrativeUnit": { "@href": "#auAdmUnitS.1358" } }, "geometry": { "type": "Polygon", "coordinates": [ [ [ 19.30783258, 49.20365024 ], [ 19.30795672, 49.20365747 ], [ 19.30797798, 49.20365929 ], [ 19.30797739, 49.20366837 ], [ 19.307977, 49.20367439 ], [ 19.3079751, 49.20370288 ], [ 19.30817001, 49.2036847 ], [ 19.30821614, 49.20368806 ], [ 19.30840693, 49.20371224 ], [ 19.30844644, 49.20371826 ], [ 19.30870968, 49.20375795 ], [ 19.30876547, 49.20370623 ], [ 19.30871688, 49.20369762 ], [ 19.30872173, 49.20369109 ], [ 19.30842081, 49.20363626 ], [ 19.30810747, 49.20359807 ], [ 19.30805497, 49.20359378 ], [ 19.30805624, 49.2035897 ], [ 19.3079286, 49.20357436 ], [ 19.30786871, 49.2035672 ], [ 19.30773434, 49.20356048 ], [ 19.30767809, 49.20355772 ], [ 19.30767345, 49.20355741 ], [ 19.30767163, 49.20356391 ], [ 19.30767086, 49.20356712 ], [ 19.30765166, 49.20356657 ], [ 19.30758924, 49.20356487 ], [ 19.30747846, 49.2035626 ], [ 19.30748203, 49.20354898 ], [ 19.30732413, 49.20356467 ], [ 19.30720199, 49.20357673 ], [ 19.30720294, 49.20357317 ], [ 19.30707369, 49.20357363 ], [ 19.30700257, 49.20357351 ], [ 19.30699748, 49.20358841 ], [ 19.30683125, 49.20358983 ], [ 19.30670003, 49.20359199 ], [ 19.3066975, 49.20359999 ], [ 19.30637567, 49.20358754 ], [ 19.30621042, 49.20358755 ], [ 19.30611594, 49.20358839 ], [ 19.30598215, 49.20359387 ], [ 19.30593295, 49.20359704 ], [ 19.30588459, 49.20359637 ], [ 19.30570959, 49.20359376 ], [ 19.30562401, 49.2035925 ], [ 19.3056215, 49.20360031 ], [ 19.30547914, 49.20359609 ], [ 19.3054576, 49.20359552 ], [ 19.30541578, 49.20359426 ], [ 19.30527588, 49.20361891 ], [ 19.30517078, 49.20363738 ], [ 19.3051021, 49.20365008 ], [ 19.30509072, 49.20365215 ], [ 19.30505181, 49.20365942 ], [ 19.30502948, 49.2036635 ], [ 19.3049261, 49.20368267 ], [ 19.30468065, 49.20371621 ], [ 19.30467796, 49.20372438 ], [ 19.30458208, 49.20373786 ], [ 19.30449257, 49.20374976 ], [ 19.30443393, 49.20375753 ], [ 19.30443619, 49.20375069 ], [ 19.30432079, 49.20376786 ], [ 19.30422984, 49.20377283 ], [ 19.30416408, 49.20377521 ], [ 19.30404633, 49.20377874 ], [ 19.30400835, 49.20378379 ], [ 19.30398819, 49.20378563 ], [ 19.30395308, 49.20378586 ], [ 19.30392609, 49.20378602 ], [ 19.30391502, 49.20378415 ], [ 19.30385043, 49.20377342 ], [ 19.30380057, 49.2037652 ], [ 19.3037672, 49.20375965 ], [ 19.30369817, 49.20374925 ], [ 19.30363179, 49.20372862 ], [ 19.30353127, 49.2036969 ], [ 19.30348164, 49.20368165 ], [ 19.30326842, 49.20363755 ], [ 19.30313972, 49.20361063 ], [ 19.30307462, 49.20359834 ], [ 19.30297907, 49.20359886 ], [ 19.30288405, 49.20359959 ], [ 19.30287738, 49.20360766 ], [ 19.3029756, 49.2036216 ], [ 19.30297219, 49.20364001 ], [ 19.30296824, 49.20366083 ], [ 19.30309393, 49.2036639 ], [ 19.30338646, 49.20372745 ], [ 19.3036583, 49.20381129 ], [ 19.30382802, 49.20385431 ], [ 19.30411449, 49.20384932 ], [ 19.30433332, 49.20384256 ], [ 19.3045589, 49.20381827 ], [ 19.30495433, 49.20377345 ], [ 19.30547827, 49.20367755 ], [ 19.30624611, 49.20366687 ], [ 19.30638667, 49.20366487 ], [ 19.30671497, 49.20367727 ], [ 19.30672053, 49.20367681 ], [ 19.30681422, 49.20366944 ], [ 19.3066405, 49.20367383 ], [ 19.30663611, 49.20365749 ], [ 19.30694028, 49.20365044 ], [ 19.30731328, 49.20364304 ], [ 19.30739645, 49.20364247 ], [ 19.30744016, 49.20363913 ], [ 19.30759433, 49.20363598 ], [ 19.30773732, 49.20364194 ], [ 19.30780148, 49.20364904 ], [ 19.30783258, 49.20365024 ] ] ] } },
{ "type": "Feature", "properties": { "@featureType": "CadastralParcel", "areaValue": { "value": 4390, "@uom": "m2" }, "beginLifespanVersion": { "@nilReason": "http://inspire.ec.europa.eu/codelist/VoidReasonValue/Unpopulated", "@nil": "true" }, "endLifespanVersion": { "@nilReason": "http://inspire.ec.europa.eu/codelist/VoidReasonValue/Unpopulated", "@nil": "true" }, "inspireId": { "@dataType": "Identifier", "localId": "812315_1875.E", "namespace": "SK.ESKN.CP", "versionId": "20260703T07:07:01" }, "label": "1875", "nationalCadastralReference": "812315_1875.E", "referencePoint": { "type": "Point", "coordinates": [ 19.30225613, 49.20353698 ] }, "validFrom": "2026-06-30T16:00:00Z", "validTo": { "@nilReason": "http://inspire.ec.europa.eu/codelist/VoidReasonValue/Unpopulated", "@nil": "true" }, "administrativeUnit": { "@href": "#auAdmUnitS.1358" } }, "geometry": { "type": "Polygon", "coordinates": [ [ [ 19.30731328, 49.20364304 ], [ 19.30739645, 49.20364247 ], [ 19.30744016, 49.20363913 ], [ 19.30759433, 49.20363598 ], [ 19.30773732, 49.20364194 ], [ 19.30776927, 49.20364544 ], [ 19.30783288, 49.20364376 ], [ 19.30830145, 49.20368804 ], [ 19.30848129, 49.20371044 ], [ 19.30870968, 49.20375795 ], [ 19.30876547, 49.20370623 ], [ 19.30871688, 49.20369762 ], [ 19.30872173, 49.20369109 ], [ 19.30842081, 49.20363626 ], [ 19.30810747, 49.20359807 ], [ 19.30805497, 49.20359378 ], [ 19.30786683, 49.20357676 ], [ 19.30767163, 49.20356391 ], [ 19.30767086, 49.20356712 ], [ 19.30758924, 49.20356487 ], [ 19.30747846, 49.2035626 ], [ 19.30748203, 49.20354898 ], [ 19.30732413, 49.20356467 ], [ 19.30720199, 49.20357673 ], [ 19.30702989, 49.20359148 ], [ 19.3066975, 49.20359999 ], [ 19.30637179, 49.20359898 ], [ 19.3061124, 49.20359805 ], [ 19.30593295, 49.20359704 ], [ 19.30588459, 49.20359637 ], [ 19.30570959, 49.20359376 ], [ 19.30562401, 49.2035925 ], [ 19.3056215, 49.20360031 ], [ 19.30547914, 49.20359609 ], [ 19.3054576, 49.20359552 ], [ 19.30541578, 49.20359426 ], [ 19.30527588, 49.20361891 ], [ 19.30517078, 49.20363738 ], [ 19.30509072, 49.20365215 ], [ 19.30505181, 49.20365942 ], [ 19.3049261, 49.20368267 ], [ 19.30468065, 49.20371621 ], [ 19.30467796, 49.20372438 ], [ 19.30458208, 49.20373786 ], [ 19.30449257, 49.20374976 ], [ 19.30443393, 49.20375753 ], [ 19.30443619, 49.20375069 ], [ 19.30432079, 49.20376786 ], [ 19.30422984, 49.20377283 ], [ 19.30416408, 49.20377521 ], [ 19.30404633, 49.20377874 ], [ 19.30400835, 49.20378379 ], [ 19.30398819, 49.20378563 ], [ 19.30395308, 49.20378586 ], [ 19.30392609, 49.20378602 ], [ 19.30385043, 49.20377342 ], [ 19.3037672, 49.20375965 ], [ 19.30369817, 49.20374925 ], [ 19.30363179, 49.20372862 ], [ 19.30353127, 49.2036969 ], [ 19.30348164, 49.20368165 ], [ 19.30326842, 49.20363755 ], [ 19.30313972, 49.20361063 ], [ 19.30307462, 49.20359834 ], [ 19.30297907, 49.20359886 ], [ 19.30288405, 49.20359959 ], [ 19.30287738, 49.20360766 ], [ 19.30282974, 49.20359927 ], [ 19.30264742, 49.20359811 ], [ 19.30255848, 49.20358992 ], [ 19.30247018, 49.20357339 ], [ 19.30230106, 49.20352498 ], [ 19.30216384, 49.20347051 ], [ 19.30184537, 49.20334794 ], [ 19.30183286, 49.20334906 ], [ 19.30173062, 49.20331049 ], [ 19.30171555, 49.20332736 ], [ 19.30156657, 49.20327729 ], [ 19.30155612, 49.2032859 ], [ 19.30146875, 49.2032548 ], [ 19.30145201, 49.20327303 ], [ 19.30143327, 49.20326204 ], [ 19.3014218, 49.20324761 ], [ 19.30142015, 49.2032314 ], [ 19.30142689, 49.20321522 ], [ 19.30129175, 49.20332881 ], [ 19.30128734, 49.20333257 ], [ 19.30163577, 49.20337082 ], [ 19.30178522, 49.20339801 ], [ 19.3019043, 49.2034335 ], [ 19.30201192, 49.20346944 ], [ 19.30210736, 49.20350975 ], [ 19.30234645, 49.20361485 ], [ 19.30268322, 49.20365399 ], [ 19.30296824, 49.20366083 ], [ 19.30309393, 49.2036639 ], [ 19.30338646, 49.20372745 ], [ 19.3036583, 49.20381129 ], [ 19.30382802, 49.20385431 ], [ 19.30411449, 49.20384932 ], [ 19.30433332, 49.20384256 ], [ 19.3045589, 49.20381827 ], [ 19.30495433, 49.20377345 ], [ 19.30547827, 49.20367755 ], [ 19.30624611, 49.20366687 ], [ 19.30638667, 49.20366487 ], [ 19.30663796, 49.20366443 ], [ 19.30663611, 49.20365749 ], [ 19.30694028, 49.20365044 ], [ 19.30731328, 49.20364304 ] ] ] } },
{ "type": "Feature", "properties": { "@featureType": "CadastralParcel", "areaValue": { "value": 526, "@uom": "m2" }, "beginLifespanVersion": { "@nilReason": "http://inspire.ec.europa.eu/codelist/VoidReasonValue/Unpopulated", "@nil": "true" }, "endLifespanVersion": { "@nilReason": "http://inspire.ec.europa.eu/codelist/VoidReasonValue/Unpopulated", "@nil": "true" }, "inspireId": { "@dataType": "Identifier", "localId": "812315_1522/202.E", "namespace": "SK.ESKN.CP", "versionId": "20260703T07:07:01" }, "label": "1522/202", "nationalCadastralReference": "812315_1522/202.E", "referencePoint": { "type": "Point", "coordinates": [ 19.30332221, 49.203756 ] }, "validFrom": "2026-06-30T16:00:00Z", "validTo": { "@nilReason": "http://inspire.ec.europa.eu/codelist/VoidReasonValue/Unpopulated", "@nil": "true" }, "administrativeUnit": { "@href": "#auAdmUnitS.1358" } }, "geometry": { "type": "Polygon", "coordinates": [ [ [ 19.30327506, 49.20385407 ], [ 19.30348811, 49.20389347 ], [ 19.30363937, 49.20388432 ], [ 19.30364635, 49.20385724 ], [ 19.3036583, 49.20381129 ], [ 19.30338646, 49.20372745 ], [ 19.30309393, 49.2036639 ], [ 19.30318752, 49.20378455 ], [ 19.30322371, 49.20384559 ], [ 19.30327506, 49.20385407 ] ] ] } }
]
}
