{
"type": "FeatureCollection",
"name": "gis",
"crs": { "type": "name", "properties": { "name": "urn:ogc:def:crs:OGC:1.3:CRS84" } },
"features": [
{ "type": "Feature", "properties": { "@featureType": "CadastralParcel", "areaValue": { "value": 18877, "@uom": "m2" }, "beginLifespanVersion": { "@nilReason": "http://inspire.ec.europa.eu/codelist/VoidReasonValue/Unpopulated", "@nil": "true" }, "endLifespanVersion": { "@nilReason": "http://inspire.ec.europa.eu/codelist/VoidReasonValue/Unpopulated", "@nil": "true" }, "inspireId": { "@dataType": "Identifier", "localId": "803219_5503/1.C", "namespace": "SK.ESKN.CP", "versionId": "20260703T07:07:33" }, "label": "5503/1", "nationalCadastralReference": "803219_5503/1.C", "referencePoint": { "type": "Point", "coordinates": [ 19.5389219, 49.42893334 ] }, "validFrom": "2026-06-30T16:00:00Z", "validTo": { "@nilReason": "http://inspire.ec.europa.eu/codelist/VoidReasonValue/Unpopulated", "@nil": "true" }, "administrativeUnit": { "@href": "#auAdmUnitS.848" } }, "geometry": { "type": "Polygon", "coordinates": [ [ [ 19.53321847, 49.42951994 ], [ 19.53331925, 49.42951304 ], [ 19.53348699, 49.42950161 ], [ 19.53377992, 49.42949673 ], [ 19.53380473, 49.42949731 ], [ 19.53387077, 49.42949876 ], [ 19.5340555, 49.42950296 ], [ 19.53410954, 49.42950549 ], [ 19.53412552, 49.42950595 ], [ 19.5342804, 49.42951015 ], [ 19.53431195, 49.42951103 ], [ 19.53437651, 49.42951215 ], [ 19.53451136, 49.42951887 ], [ 19.53458902, 49.42952274 ], [ 19.53461173, 49.42952494 ], [ 19.53476581, 49.42953794 ], [ 19.53486016, 49.42954734 ], [ 19.5349031, 49.42955162 ], [ 19.53501112, 49.42956245 ], [ 19.53526575, 49.42958504 ], [ 19.535347, 49.42959683 ], [ 19.53550393, 49.42961167 ], [ 19.53557062, 49.42962 ], [ 19.535709, 49.42963382 ], [ 19.5357985, 49.42964336 ], [ 19.53595377, 49.42965695 ], [ 19.53631103, 49.42967219 ], [ 19.53637138, 49.42967122 ], [ 19.53674345, 49.42966549 ], [ 19.53680981, 49.42965344 ], [ 19.5369397, 49.42962361 ], [ 19.53699732, 49.42961323 ], [ 19.53734063, 49.42953085 ], [ 19.53742863, 49.42950247 ], [ 19.53750486, 49.42947824 ], [ 19.53785776, 49.42936142 ], [ 19.53813546, 49.42926958 ], [ 19.53861106, 49.42911512 ], [ 19.53863324, 49.42910792 ], [ 19.53865556, 49.42910073 ], [ 19.53872713, 49.42907746 ], [ 19.53875589, 49.42906812 ], [ 19.53876834, 49.42906409 ], [ 19.53887826, 49.4290284 ], [ 19.53888484, 49.42902626 ], [ 19.53941864, 49.42885334 ], [ 19.53963463, 49.4288273 ], [ 19.53988647, 49.42876684 ], [ 19.53995548, 49.42874544 ], [ 19.54019872, 49.42866836 ], [ 19.5405608, 49.42854959 ], [ 19.5406106, 49.42853345 ], [ 19.54065555, 49.42851872 ], [ 19.5411047, 49.42838423 ], [ 19.5412968, 49.42833837 ], [ 19.54186741, 49.42807886 ], [ 19.54189371, 49.42807193 ], [ 19.54213218, 49.42799671 ], [ 19.54244797, 49.42793119 ], [ 19.54235975, 49.42790567 ], [ 19.54206611, 49.42781581 ], [ 19.54200267, 49.4277951 ], [ 19.54198775, 49.42785364 ], [ 19.54185096, 49.42791868 ], [ 19.54161835, 49.42798164 ], [ 19.54133488, 49.42803554 ], [ 19.54093414, 49.42811759 ], [ 19.54076367, 49.42820309 ], [ 19.54041045, 49.42833992 ], [ 19.54011706, 49.42844953 ], [ 19.54008743, 49.42846045 ], [ 19.54003278, 49.42848061 ], [ 19.53999655, 49.42849393 ], [ 19.53949073, 49.42867669 ], [ 19.53937382, 49.42871972 ], [ 19.53922038, 49.42877616 ], [ 19.53915791, 49.42879578 ], [ 19.53906157, 49.4288246 ], [ 19.53904535, 49.42882774 ], [ 19.5390287, 49.42883096 ], [ 19.53894546, 49.42884712 ], [ 19.5389226, 49.42885158 ], [ 19.53842702, 49.42901335 ], [ 19.53827878, 49.42906244 ], [ 19.53822965, 49.4290787 ], [ 19.53815187, 49.42910331 ], [ 19.53809138, 49.42912248 ], [ 19.53802995, 49.42914269 ], [ 19.53795867, 49.42916453 ], [ 19.53790066, 49.42918255 ], [ 19.53782769, 49.42920602 ], [ 19.53776695, 49.42922627 ], [ 19.53771412, 49.42924227 ], [ 19.53762862, 49.42926788 ], [ 19.53755133, 49.42929305 ], [ 19.53749495, 49.42931123 ], [ 19.5374317, 49.42933172 ], [ 19.53735896, 49.4293543 ], [ 19.53729641, 49.42937203 ], [ 19.53723049, 49.42939032 ], [ 19.53716072, 49.42940971 ], [ 19.53708535, 49.42941937 ], [ 19.53701686, 49.42943187 ], [ 19.5368066, 49.42947943 ], [ 19.53664115, 49.42949016 ], [ 19.53656718, 49.42949574 ], [ 19.53648215, 49.42950137 ], [ 19.53633787, 49.42950008 ], [ 19.53627259, 49.42949542 ], [ 19.53613429, 49.42947439 ], [ 19.53598754, 49.42945866 ], [ 19.53591114, 49.42944809 ], [ 19.53579147, 49.42943114 ], [ 19.53560883, 49.42941253 ], [ 19.53555664, 49.42940684 ], [ 19.53539054, 49.42938987 ], [ 19.53533039, 49.42938373 ], [ 19.53520574, 49.42937467 ], [ 19.53510742, 49.42936752 ], [ 19.53496002, 49.42935789 ], [ 19.53486382, 49.42935165 ], [ 19.53471901, 49.42934502 ], [ 19.53463017, 49.42934091 ], [ 19.53448842, 49.42933541 ], [ 19.53439553, 49.42933176 ], [ 19.53425544, 49.42932759 ], [ 19.53416315, 49.42932477 ], [ 19.53402227, 49.42932408 ], [ 19.53396775, 49.42932477 ], [ 19.53392567, 49.4293254 ], [ 19.53377757, 49.42933024 ], [ 19.53344979, 49.42934057 ], [ 19.53281532, 49.42936183 ], [ 19.53212595, 49.4294327 ], [ 19.53207943, 49.42944006 ], [ 19.53188391, 49.42947106 ], [ 19.53185444, 49.4294974 ], [ 19.53184526, 49.42947716 ], [ 19.53152761, 49.42952742 ], [ 19.53140102, 49.42955216 ], [ 19.53132989, 49.42956607 ], [ 19.53114362, 49.42960244 ], [ 19.53099459, 49.42963158 ], [ 19.53094152, 49.42964198 ], [ 19.53091147, 49.42964783 ], [ 19.53089534, 49.42965134 ], [ 19.53031844, 49.42977694 ], [ 19.52985551, 49.42991329 ], [ 19.52981079, 49.42992839 ], [ 19.52940643, 49.43006495 ], [ 19.52946676, 49.43006939 ], [ 19.52951283, 49.43005336 ], [ 19.52948897, 49.43007103 ], [ 19.52950309, 49.43007212 ], [ 19.52969409, 49.43008625 ], [ 19.52973684, 49.43007277 ], [ 19.52974578, 49.43008489 ], [ 19.52973234, 49.43008915 ], [ 19.52982065, 49.43009819 ], [ 19.52989924, 49.43006606 ], [ 19.53007624, 49.43001692 ], [ 19.53037798, 49.42993313 ], [ 19.53038951, 49.42992996 ], [ 19.53099213, 49.42979902 ], [ 19.53105665, 49.42978878 ], [ 19.53112832, 49.42977751 ], [ 19.53124419, 49.42976391 ], [ 19.53139464, 49.429737 ], [ 19.53149199, 49.4297195 ], [ 19.53177362, 49.42967536 ], [ 19.53207351, 49.42962835 ], [ 19.53227026, 49.42959749 ], [ 19.53259946, 49.42956208 ], [ 19.53291021, 49.42954034 ], [ 19.53301779, 49.42953322 ], [ 19.53321847, 49.42951994 ] ], [ [ 19.54113671, 49.42826743 ], [ 19.54143681, 49.42816885 ], [ 19.54175297, 49.4280673 ], [ 19.54172773, 49.42809031 ], [ 19.54144603, 49.42818089 ], [ 19.54114594, 49.42827947 ], [ 19.54113671, 49.42826743 ] ], [ [ 19.53770356, 49.42938077 ], [ 19.53789151, 49.42932211 ], [ 19.53797595, 49.42929465 ], [ 19.53812567, 49.42924589 ], [ 19.53830731, 49.42918676 ], [ 19.5385442, 49.42910967 ], [ 19.53865112, 49.42907484 ], [ 19.53861555, 49.42910144 ], [ 19.53850963, 49.42913596 ], [ 19.53827389, 49.42921265 ], [ 19.5380941, 49.42927123 ], [ 19.53794581, 49.42931952 ], [ 19.53790058, 49.42933424 ], [ 19.53767362, 49.42940502 ], [ 19.53770356, 49.42938077 ] ], [ [ 19.5365002, 49.42962152 ], [ 19.53655525, 49.4296185 ], [ 19.53664128, 49.42961257 ], [ 19.53672714, 49.42960563 ], [ 19.53683699, 49.42959536 ], [ 19.5369002, 49.42958695 ], [ 19.53694653, 49.42957885 ], [ 19.53699489, 49.42956851 ], [ 19.53716286, 49.42953004 ], [ 19.53726767, 49.42950611 ], [ 19.53732262, 49.42950787 ], [ 19.5372848, 49.42951653 ], [ 19.53713553, 49.42955061 ], [ 19.53700155, 49.42958125 ], [ 19.53695247, 49.42959183 ], [ 19.53690489, 49.42960005 ], [ 19.53684055, 49.42960868 ], [ 19.53672986, 49.429619 ], [ 19.53664359, 49.42962592 ], [ 19.53655727, 49.42963194 ], [ 19.5364829, 49.42963606 ], [ 19.5365002, 49.42962152 ] ], [ [ 19.53591862, 49.42960399 ], [ 19.53574689, 49.42958677 ], [ 19.53563275, 49.42957368 ], [ 19.53553593, 49.42956147 ], [ 19.5355163, 49.42955896 ], [ 19.53528728, 49.42953464 ], [ 19.53508183, 49.42951472 ], [ 19.53509667, 49.42950251 ], [ 19.53529048, 49.42952136 ], [ 19.53551992, 49.42954569 ], [ 19.53555142, 49.42954964 ], [ 19.53563651, 49.42956042 ], [ 19.53575023, 49.42957349 ], [ 19.53592157, 49.4295906 ], [ 19.53599798, 49.42959712 ], [ 19.53598285, 49.4296095 ], [ 19.53591862, 49.42960399 ] ], [ [ 19.53424441, 49.42947563 ], [ 19.53420567, 49.42947342 ], [ 19.53412378, 49.42947027 ], [ 19.53409673, 49.4294557 ], [ 19.53420724, 49.42945998 ], [ 19.53421576, 49.42946045 ], [ 19.53425902, 49.42946295 ], [ 19.53432477, 49.4294515 ], [ 19.53452281, 49.42946045 ], [ 19.53479445, 49.42947515 ], [ 19.53477997, 49.42948793 ], [ 19.53452125, 49.42947389 ], [ 19.53432678, 49.42946511 ], [ 19.53430187, 49.42946939 ], [ 19.53426089, 49.42947655 ], [ 19.53424441, 49.42947563 ] ], [ [ 19.53262519, 49.42951638 ], [ 19.53245385, 49.42953306 ], [ 19.5323643, 49.42954352 ], [ 19.53236172, 49.42953006 ], [ 19.53245057, 49.42951975 ], [ 19.53262246, 49.429503 ], [ 19.5326973, 49.4294971 ], [ 19.53267801, 49.42951218 ], [ 19.53262519, 49.42951638 ] ] ] } },
{ "type": "Feature", "properties": { "@featureType": "CadastralParcel", "areaValue": { "value": 2366, "@uom": "m2" }, "beginLifespanVersion": { "@nilReason": "http://inspire.ec.europa.eu/codelist/VoidReasonValue/Unpopulated", "@nil": "true" }, "endLifespanVersion": { "@nilReason": "http://inspire.ec.europa.eu/codelist/VoidReasonValue/Unpopulated", "@nil": "true" }, "inspireId": { "@dataType": "Identifier", "localId": "803219_4491/1.C", "namespace": "SK.ESKN.CP", "versionId": "20260703T07:07:33" }, "label": "4491/1", "nationalCadastralReference": "803219_4491/1.C", "referencePoint": { "type": "Point", "coordinates": [ 19.53315598, 49.43083787 ] }, "validFrom": "2026-06-30T16:00:00Z", "validTo": { "@nilReason": "http://inspire.ec.europa.eu/codelist/VoidReasonValue/Unpopulated", "@nil": "true" }, "administrativeUnit": { "@href": "#auAdmUnitS.848" } }, "geometry": { "type": "Polygon", "coordinates": [ [ [ 19.53316237, 49.43080213 ], [ 19.53301145, 49.43072032 ], [ 19.53299551, 49.43071167 ], [ 19.53293186, 49.43067725 ], [ 19.53280291, 49.43060725 ], [ 19.53278709, 49.43059869 ], [ 19.53272346, 49.43056418 ], [ 19.53259214, 49.43049299 ], [ 19.53242242, 49.43040086 ], [ 19.53225244, 49.43030864 ], [ 19.53208245, 49.43021641 ], [ 19.53190515, 49.43012016 ], [ 19.53162519, 49.42996924 ], [ 19.53148756, 49.42989506 ], [ 19.5313132, 49.4298011 ], [ 19.53124419, 49.42976391 ], [ 19.53112832, 49.42977751 ], [ 19.53113888, 49.42978348 ], [ 19.53127219, 49.42985666 ], [ 19.53163828, 49.43005798 ], [ 19.53167017, 49.43007519 ], [ 19.53169148, 49.43008661 ], [ 19.53173392, 49.43010989 ], [ 19.53184426, 49.4301704 ], [ 19.53216735, 49.43034211 ], [ 19.53219426, 49.43035675 ], [ 19.53232729, 49.43042865 ], [ 19.53246529, 49.4305033 ], [ 19.5325292, 49.43053782 ], [ 19.53257167, 49.43056083 ], [ 19.53261413, 49.43058384 ], [ 19.53295964, 49.43077089 ], [ 19.53322664, 49.43091509 ], [ 19.53364448, 49.43114064 ], [ 19.53453924, 49.4316237 ], [ 19.53471398, 49.43171812 ], [ 19.53499786, 49.43187137 ], [ 19.53504586, 49.43183316 ], [ 19.53484749, 49.43172578 ], [ 19.53472962, 49.43166196 ], [ 19.53463644, 49.43161151 ], [ 19.53456913, 49.43157521 ], [ 19.53440691, 49.43148658 ], [ 19.53416624, 49.43135457 ], [ 19.53415633, 49.43134899 ], [ 19.53383953, 49.43117 ], [ 19.53358634, 49.43103238 ], [ 19.53329421, 49.43087362 ], [ 19.53316237, 49.43080213 ] ] ] } },
{ "type": "Feature", "properties": { "@featureType": "CadastralParcel", "areaValue": { "value": 1772, "@uom": "m2" }, "beginLifespanVersion": { "@nilReason": "http://inspire.ec.europa.eu/codelist/VoidReasonValue/Unpopulated", "@nil": "true" }, "endLifespanVersion": { "@nilReason": "http://inspire.ec.europa.eu/codelist/VoidReasonValue/Unpopulated", "@nil": "true" }, "inspireId": { "@dataType": "Identifier", "localId": "803219_1645/3.E", "namespace": "SK.ESKN.CP", "versionId": "20260703T07:07:33" }, "label": "1645/3", "nationalCadastralReference": "803219_1645/3.E", "referencePoint": { "type": "Point", "coordinates": [ 19.53038933, 49.42985616 ] }, "validFrom": "2026-06-30T16:00:00Z", "validTo": { "@nilReason": "http://inspire.ec.europa.eu/codelist/VoidReasonValue/Unpopulated", "@nil": "true" }, "administrativeUnit": { "@href": "#auAdmUnitS.848" } }, "geometry": { "type": "Polygon", "coordinates": [ [ [ 19.53037798, 49.42993313 ], [ 19.53038951, 49.42992996 ], [ 19.53099213, 49.42979902 ], [ 19.53105665, 49.42978878 ], [ 19.53112832, 49.42977751 ], [ 19.53089534, 49.42965134 ], [ 19.53031844, 49.42977694 ], [ 19.52985551, 49.42991329 ], [ 19.52981079, 49.42992839 ], [ 19.52966629, 49.4300384 ], [ 19.52957973, 49.43007784 ], [ 19.52969409, 49.43008625 ], [ 19.52973684, 49.43007277 ], [ 19.52974578, 49.43008489 ], [ 19.52973234, 49.43008915 ], [ 19.529737, 49.43008946 ], [ 19.52982065, 49.43009819 ], [ 19.52989924, 49.43006606 ], [ 19.53007624, 49.43001692 ], [ 19.53037798, 49.42993313 ] ] ] } },
{ "type": "Feature", "properties": { "@featureType": "CadastralParcel", "areaValue": { "value": 2325, "@uom": "m2" }, "beginLifespanVersion": { "@nilReason": "http://inspire.ec.europa.eu/codelist/VoidReasonValue/Unpopulated", "@nil": "true" }, "endLifespanVersion": { "@nilReason": "http://inspire.ec.europa.eu/codelist/VoidReasonValue/Unpopulated", "@nil": "true" }, "inspireId": { "@dataType": "Identifier", "localId": "803219_4491/1.E", "namespace": "SK.ESKN.CP", "versionId": "20260703T07:07:33" }, "label": "4491/1", "nationalCadastralReference": "803219_4491/1.E", "referencePoint": { "type": "Point", "coordinates": [ 19.53315598, 49.43083787 ] }, "validFrom": "2026-06-30T16:00:00Z", "validTo": { "@nilReason": "http://inspire.ec.europa.eu/codelist/VoidReasonValue/Unpopulated", "@nil": "true" }, "administrativeUnit": { "@href": "#auAdmUnitS.848" } }, "geometry": { "type": "Polygon", "coordinates": [ [ [ 19.53405803, 49.43136366 ], [ 19.53434007, 49.43151601 ], [ 19.53453925, 49.43162361 ], [ 19.53471399, 49.43171803 ], [ 19.53499786, 49.43187137 ], [ 19.53504586, 49.43183316 ], [ 19.53463644, 49.43161151 ], [ 19.53456913, 49.43157521 ], [ 19.53456012, 49.4315703 ], [ 19.53440691, 49.43148658 ], [ 19.53416624, 49.43135457 ], [ 19.53415633, 49.43134899 ], [ 19.53383953, 49.43117 ], [ 19.53329421, 49.43087362 ], [ 19.53316237, 49.43080213 ], [ 19.53301145, 49.43072032 ], [ 19.53299551, 49.43071167 ], [ 19.53293186, 49.43067725 ], [ 19.53280291, 49.43060725 ], [ 19.53278709, 49.43059869 ], [ 19.53272346, 49.43056418 ], [ 19.53259214, 49.43049299 ], [ 19.53242242, 49.43040086 ], [ 19.53225244, 49.43030864 ], [ 19.53208245, 49.43021641 ], [ 19.53190515, 49.43012016 ], [ 19.53162519, 49.42996924 ], [ 19.53148756, 49.42989506 ], [ 19.5313132, 49.4298011 ], [ 19.53124419, 49.42976391 ], [ 19.53112832, 49.42977751 ], [ 19.53113888, 49.42978348 ], [ 19.53127219, 49.42985666 ], [ 19.53163828, 49.43005798 ], [ 19.53167017, 49.43007519 ], [ 19.53169148, 49.43008661 ], [ 19.53184426, 49.4301704 ], [ 19.53216711, 49.43034173 ], [ 19.53219426, 49.43035675 ], [ 19.53257167, 49.43056083 ], [ 19.53261413, 49.43058384 ], [ 19.53280047, 49.43068474 ], [ 19.53295964, 49.43077089 ], [ 19.53322664, 49.43091509 ], [ 19.53364448, 49.43114064 ], [ 19.53405803, 49.43136366 ] ] ] } },
{ "type": "Feature", "properties": { "@featureType": "CadastralParcel", "areaValue": { "value": 144, "@uom": "m2" }, "beginLifespanVersion": { "@nilReason": "http://inspire.ec.europa.eu/codelist/VoidReasonValue/Unpopulated", "@nil": "true" }, "endLifespanVersion": { "@nilReason": "http://inspire.ec.europa.eu/codelist/VoidReasonValue/Unpopulated", "@nil": "true" }, "inspireId": { "@dataType": "Identifier", "localId": "803219_4491/2.E", "namespace": "SK.ESKN.CP", "versionId": "20260703T07:07:33" }, "label": "4491/2", "nationalCadastralReference": "803219_4491/2.E", "referencePoint": { "type": "Point", "coordinates": [ 19.53108221, 49.42971514 ] }, "validFrom": "2026-06-30T16:00:00Z", "validTo": { "@nilReason": "http://inspire.ec.europa.eu/codelist/VoidReasonValue/Unpopulated", "@nil": "true" }, "administrativeUnit": { "@href": "#auAdmUnitS.848" } }, "geometry": { "type": "Polygon", "coordinates": [ [ [ 19.53112832, 49.42977751 ], [ 19.53124419, 49.42976391 ], [ 19.53105833, 49.42966637 ], [ 19.53099459, 49.42963158 ], [ 19.53094152, 49.42964198 ], [ 19.53091147, 49.42964783 ], [ 19.53089534, 49.42965134 ], [ 19.53112832, 49.42977751 ] ] ] } }
]
}
