{
"type": "FeatureCollection",
"name": "gis",
"crs": { "type": "name", "properties": { "name": "urn:ogc:def:crs:OGC:1.3:CRS84" } },
"features": [
{ "type": "Feature", "properties": { "@featureType": "CadastralParcel", "areaValue": { "value": 5262, "@uom": "m2" }, "beginLifespanVersion": { "@nilReason": "http://inspire.ec.europa.eu/codelist/VoidReasonValue/Unpopulated", "@nil": "true" }, "endLifespanVersion": { "@nilReason": "http://inspire.ec.europa.eu/codelist/VoidReasonValue/Unpopulated", "@nil": "true" }, "inspireId": { "@dataType": "Identifier", "localId": "817589_1350/1.C", "namespace": "SK.ESKN.CP", "versionId": "20260703T06:07:57" }, "label": "1350/1", "nationalCadastralReference": "817589_1350/1.C", "referencePoint": { "type": "Point", "coordinates": [ 17.8462341, 48.65739616 ] }, "validFrom": "2026-06-30T16:00:00Z", "validTo": { "@nilReason": "http://inspire.ec.europa.eu/codelist/VoidReasonValue/Unpopulated", "@nil": "true" }, "administrativeUnit": { "@href": "#auAdmUnitS.406" } }, "geometry": { "type": "Polygon", "coordinates": [ [ [ 17.84665686, 48.6576683 ], [ 17.84656714, 48.65757778 ], [ 17.84655396, 48.6575637 ], [ 17.8465358, 48.65754418 ], [ 17.84646774, 48.6574725 ], [ 17.84647045, 48.65746273 ], [ 17.84647528, 48.65744559 ], [ 17.84650878, 48.65742315 ], [ 17.8465244, 48.65741272 ], [ 17.8465741, 48.65737961 ], [ 17.84659092, 48.65736835 ], [ 17.84662469, 48.65734692 ], [ 17.84673819, 48.65726846 ], [ 17.84694616, 48.65713866 ], [ 17.84731561, 48.65688301 ], [ 17.84748878, 48.65677124 ], [ 17.84747401, 48.65676565 ], [ 17.84738223, 48.65663382 ], [ 17.84731417, 48.65668045 ], [ 17.84705986, 48.65685458 ], [ 17.8470402, 48.65686766 ], [ 17.84687103, 48.65698003 ], [ 17.84638544, 48.6573007 ], [ 17.84621209, 48.65718605 ], [ 17.84621769, 48.65711297 ], [ 17.84599106, 48.6571934 ], [ 17.84596639, 48.65724953 ], [ 17.84591045, 48.65742242 ], [ 17.84586294, 48.65757279 ], [ 17.84585338, 48.65759949 ], [ 17.84583522, 48.6576234 ], [ 17.84566308, 48.65774544 ], [ 17.84565915, 48.65774818 ], [ 17.8457695, 48.65783543 ], [ 17.84580014, 48.65787414 ], [ 17.84573868, 48.65814505 ], [ 17.84578416, 48.65805966 ], [ 17.84602819, 48.65786829 ], [ 17.84609614, 48.65784018 ], [ 17.84614376, 48.65782609 ], [ 17.84614085, 48.65782149 ], [ 17.84634215, 48.65776561 ], [ 17.84638447, 48.65775725 ], [ 17.84639584, 48.65775586 ], [ 17.84649045, 48.65774101 ], [ 17.84653522, 48.65776233 ], [ 17.84671087, 48.65772134 ], [ 17.84665686, 48.6576683 ] ] ] } },
{ "type": "Feature", "properties": { "@featureType": "CadastralParcel", "areaValue": { "value": 7711, "@uom": "m2" }, "beginLifespanVersion": { "@nilReason": "http://inspire.ec.europa.eu/codelist/VoidReasonValue/Unpopulated", "@nil": "true" }, "endLifespanVersion": { "@nilReason": "http://inspire.ec.europa.eu/codelist/VoidReasonValue/Unpopulated", "@nil": "true" }, "inspireId": { "@dataType": "Identifier", "localId": "817589_1351/1.C", "namespace": "SK.ESKN.CP", "versionId": "20260703T06:07:57" }, "label": "1351/1", "nationalCadastralReference": "817589_1351/1.C", "referencePoint": { "type": "Point", "coordinates": [ 17.84436218, 48.65658124 ] }, "validFrom": "2026-06-30T16:00:00Z", "validTo": { "@nilReason": "http://inspire.ec.europa.eu/codelist/VoidReasonValue/Unpopulated", "@nil": "true" }, "administrativeUnit": { "@href": "#auAdmUnitS.406" } }, "geometry": { "type": "Polygon", "coordinates": [ [ [ 17.84565915, 48.65774818 ], [ 17.84559042, 48.65771095 ], [ 17.84555934, 48.65769417 ], [ 17.84546569, 48.65762517 ], [ 17.8451065, 48.65736983 ], [ 17.84499941, 48.65728367 ], [ 17.84485563, 48.65716811 ], [ 17.84470705, 48.65704882 ], [ 17.84457521, 48.65688638 ], [ 17.84456079, 48.65685561 ], [ 17.8444884, 48.6567246 ], [ 17.84445306, 48.65664994 ], [ 17.8444326, 48.65660173 ], [ 17.84438721, 48.6564953 ], [ 17.84437353, 48.65637734 ], [ 17.84438475, 48.65623117 ], [ 17.84439872, 48.65608978 ], [ 17.84444853, 48.65577888 ], [ 17.84446115, 48.65568961 ], [ 17.84447956, 48.65554171 ], [ 17.84450205, 48.65540084 ], [ 17.8445212, 48.65527123 ], [ 17.8445162, 48.65515262 ], [ 17.84448943, 48.65500027 ], [ 17.84447816, 48.65495858 ], [ 17.84443399, 48.65485213 ], [ 17.8443756, 48.65469678 ], [ 17.84438248, 48.65461456 ], [ 17.84441439, 48.65442224 ], [ 17.84434814, 48.65441144 ], [ 17.84433667, 48.65471121 ], [ 17.84436527, 48.65482078 ], [ 17.84439206, 48.65490106 ], [ 17.84442999, 48.65499539 ], [ 17.84444647, 48.65511768 ], [ 17.84446252, 48.65522143 ], [ 17.84446443, 48.65529045 ], [ 17.84445506, 48.655368 ], [ 17.84445167, 48.65538956 ], [ 17.84437668, 48.65559173 ], [ 17.84436122, 48.65562963 ], [ 17.84403583, 48.65558043 ], [ 17.84403357, 48.65558887 ], [ 17.84437002, 48.65563793 ], [ 17.84436098, 48.65579696 ], [ 17.84434652, 48.65585912 ], [ 17.84432575, 48.65594817 ], [ 17.84431347, 48.65595122 ], [ 17.84429535, 48.65601225 ], [ 17.84425146, 48.65630888 ], [ 17.84424986, 48.65631944 ], [ 17.84426036, 48.65638745 ], [ 17.84429282, 48.65656074 ], [ 17.84432836, 48.65665564 ], [ 17.8443802, 48.6567864 ], [ 17.84443638, 48.65689566 ], [ 17.84444262, 48.65690777 ], [ 17.84448235, 48.65695065 ], [ 17.84453691, 48.65701248 ], [ 17.84464614, 48.65711078 ], [ 17.84472895, 48.65718516 ], [ 17.8447897, 48.65723382 ], [ 17.84482935, 48.65726649 ], [ 17.84491562, 48.65733756 ], [ 17.84504784, 48.65744312 ], [ 17.84520078, 48.65755057 ], [ 17.84535889, 48.65764633 ], [ 17.84538678, 48.65764377 ], [ 17.84541688, 48.6576745 ], [ 17.84557039, 48.65781043 ], [ 17.84562091, 48.6579449 ], [ 17.84559453, 48.65800255 ], [ 17.84551062, 48.65811052 ], [ 17.84549759, 48.65811605 ], [ 17.84466084, 48.65837837 ], [ 17.84440041, 48.65846064 ], [ 17.84429398, 48.65847125 ], [ 17.8442608, 48.65847456 ], [ 17.843991, 48.65850135 ], [ 17.84388937, 48.6584782 ], [ 17.84367439, 48.65846542 ], [ 17.84359673, 48.65848681 ], [ 17.84347111, 48.65850501 ], [ 17.84339033, 48.65851347 ], [ 17.84318214, 48.65852747 ], [ 17.84297685, 48.65854616 ], [ 17.84277617, 48.65855909 ], [ 17.84257351, 48.65857351 ], [ 17.84237804, 48.65859117 ], [ 17.84217161, 48.65861016 ], [ 17.84210744, 48.65861683 ], [ 17.84197258, 48.65863085 ], [ 17.84195973, 48.65863215 ], [ 17.84180384, 48.65864842 ], [ 17.84180912, 48.65867132 ], [ 17.84179869, 48.65873589 ], [ 17.84179934, 48.65874596 ], [ 17.84194886, 48.65873436 ], [ 17.84216385, 48.65871454 ], [ 17.84244141, 48.65868985 ], [ 17.84262182, 48.65867362 ], [ 17.84279909, 48.65865648 ], [ 17.84300805, 48.65863792 ], [ 17.84323291, 48.6586177 ], [ 17.84326535, 48.65861778 ], [ 17.84335283, 48.65861803 ], [ 17.84336864, 48.65861809 ], [ 17.8433933, 48.65861814 ], [ 17.84350314, 48.6586184 ], [ 17.84372741, 48.65861431 ], [ 17.84393442, 48.6586108 ], [ 17.84414368, 48.65860481 ], [ 17.84428199, 48.65859434 ], [ 17.84438008, 48.65858692 ], [ 17.84440873, 48.65860058 ], [ 17.84452847, 48.65855683 ], [ 17.84472901, 48.65849955 ], [ 17.84492756, 48.65844486 ], [ 17.84505082, 48.65840818 ], [ 17.84518453, 48.65836988 ], [ 17.84532007, 48.65833115 ], [ 17.84547011, 48.65828715 ], [ 17.8456245, 48.65824026 ], [ 17.84570055, 48.65821769 ], [ 17.84573511, 48.65820732 ], [ 17.84574426, 48.65820327 ], [ 17.84573868, 48.65814505 ], [ 17.84580014, 48.65787414 ], [ 17.8457695, 48.65783543 ], [ 17.84565915, 48.65774818 ] ] ] } },
{ "type": "Feature", "properties": { "@featureType": "CadastralParcel", "areaValue": { "value": 3893, "@uom": "m2" }, "beginLifespanVersion": { "@nilReason": "http://inspire.ec.europa.eu/codelist/VoidReasonValue/Unpopulated", "@nil": "true" }, "endLifespanVersion": { "@nilReason": "http://inspire.ec.europa.eu/codelist/VoidReasonValue/Unpopulated", "@nil": "true" }, "inspireId": { "@dataType": "Identifier", "localId": "817589_1324/92.C", "namespace": "SK.ESKN.CP", "versionId": "20260703T06:07:57" }, "label": "1324/92", "nationalCadastralReference": "817589_1324/92.C", "referencePoint": { "type": "Point", "coordinates": [ 17.85277986, 48.65769893 ] }, "validFrom": "2026-06-30T16:00:00Z", "validTo": { "@nilReason": "http://inspire.ec.europa.eu/codelist/VoidReasonValue/Unpopulated", "@nil": "true" }, "administrativeUnit": { "@href": "#auAdmUnitS.406" } }, "geometry": { "type": "Polygon", "coordinates": [ [ [ 17.85225719, 48.6575833 ], [ 17.85231203, 48.65775469 ], [ 17.85236725, 48.65792728 ], [ 17.85241181, 48.65806653 ], [ 17.85267707, 48.65801723 ], [ 17.85303801, 48.65795133 ], [ 17.85321727, 48.65793159 ], [ 17.85326945, 48.6579259 ], [ 17.85333411, 48.65779038 ], [ 17.85322371, 48.65764316 ], [ 17.85308519, 48.65752892 ], [ 17.85300813, 48.65747295 ], [ 17.85284564, 48.65743845 ], [ 17.85261866, 48.65745828 ], [ 17.852448, 48.65749769 ], [ 17.8524004, 48.65750871 ], [ 17.85238599, 48.65751633 ], [ 17.85230428, 48.65755915 ], [ 17.85225719, 48.6575833 ] ] ] } },
{ "type": "Feature", "properties": { "@featureType": "CadastralParcel", "areaValue": { "value": 167, "@uom": "m2" }, "beginLifespanVersion": { "@nilReason": "http://inspire.ec.europa.eu/codelist/VoidReasonValue/Unpopulated", "@nil": "true" }, "endLifespanVersion": { "@nilReason": "http://inspire.ec.europa.eu/codelist/VoidReasonValue/Unpopulated", "@nil": "true" }, "inspireId": { "@dataType": "Identifier", "localId": "817589_1324/128.C", "namespace": "SK.ESKN.CP", "versionId": "20260703T06:07:57" }, "label": "1324/128", "nationalCadastralReference": "817589_1324/128.C", "referencePoint": { "type": "Point", "coordinates": [ 17.8513257, 48.65629958 ] }, "validFrom": "2026-06-30T16:00:00Z", "validTo": { "@nilReason": "http://inspire.ec.europa.eu/codelist/VoidReasonValue/Unpopulated", "@nil": "true" }, "administrativeUnit": { "@href": "#auAdmUnitS.406" } }, "geometry": { "type": "Polygon", "coordinates": [ [ [ 17.85136318, 48.65636227 ], [ 17.85137058, 48.65637085 ], [ 17.85139909, 48.65636581 ], [ 17.85139521, 48.65635636 ], [ 17.85142212, 48.65635004 ], [ 17.85137009, 48.65622154 ], [ 17.85122928, 48.65624912 ], [ 17.85128132, 48.65637763 ], [ 17.85136318, 48.65636227 ] ] ] } },
{ "type": "Feature", "properties": { "@featureType": "CadastralParcel", "areaValue": { "value": 60583, "@uom": "m2" }, "beginLifespanVersion": { "@nilReason": "http://inspire.ec.europa.eu/codelist/VoidReasonValue/Unpopulated", "@nil": "true" }, "endLifespanVersion": { "@nilReason": "http://inspire.ec.europa.eu/codelist/VoidReasonValue/Unpopulated", "@nil": "true" }, "inspireId": { "@dataType": "Identifier", "localId": "817589_1324/124.C", "namespace": "SK.ESKN.CP", "versionId": "20260703T06:07:57" }, "label": "1324/124", "nationalCadastralReference": "817589_1324/124.C", "referencePoint": { "type": "Point", "coordinates": [ 17.8542312, 48.64639196 ] }, "validFrom": "2026-06-30T16:00:00Z", "validTo": { "@nilReason": "http://inspire.ec.europa.eu/codelist/VoidReasonValue/Unpopulated", "@nil": "true" }, "administrativeUnit": { "@href": "#auAdmUnitS.406" } }, "geometry": { "type": "Polygon", "coordinates": [ [ [ 17.85194318, 48.64750929 ], [ 17.85728421, 48.64682092 ], [ 17.85625648, 48.64562632 ], [ 17.85139521, 48.64596299 ], [ 17.85194318, 48.64750929 ] ] ] } },
{ "type": "Feature", "properties": { "@featureType": "CadastralParcel", "areaValue": { "value": 1706, "@uom": "m2" }, "beginLifespanVersion": { "@nilReason": "http://inspire.ec.europa.eu/codelist/VoidReasonValue/Unpopulated", "@nil": "true" }, "endLifespanVersion": { "@nilReason": "http://inspire.ec.europa.eu/codelist/VoidReasonValue/Unpopulated", "@nil": "true" }, "inspireId": { "@dataType": "Identifier", "localId": "817589_1349.C", "namespace": "SK.ESKN.CP", "versionId": "20260703T06:07:57" }, "label": "1349", "nationalCadastralReference": "817589_1349.C", "referencePoint": { "type": "Point", "coordinates": [ 17.84762394, 48.65841142 ] }, "validFrom": "2026-06-30T16:00:00Z", "validTo": { "@nilReason": "http://inspire.ec.europa.eu/codelist/VoidReasonValue/Unpopulated", "@nil": "true" }, "administrativeUnit": { "@href": "#auAdmUnitS.406" } }, "geometry": { "type": "Polygon", "coordinates": [ [ [ 17.84751543, 48.65839077 ], [ 17.84766192, 48.65848681 ], [ 17.84778795, 48.65855921 ], [ 17.84791077, 48.65862925 ], [ 17.84802336, 48.65869442 ], [ 17.84829836, 48.6588519 ], [ 17.84852036, 48.65898946 ], [ 17.84877541, 48.65913642 ], [ 17.84881629, 48.65907045 ], [ 17.84834818, 48.6587992 ], [ 17.84821199, 48.65872032 ], [ 17.84817418, 48.65869797 ], [ 17.84797367, 48.65858746 ], [ 17.84796427, 48.65858147 ], [ 17.84793997, 48.658566 ], [ 17.84773001, 48.65843206 ], [ 17.84758342, 48.65832789 ], [ 17.84742967, 48.6582203 ], [ 17.84738957, 48.65818789 ], [ 17.84728288, 48.65810176 ], [ 17.84717605, 48.6580167 ], [ 17.84709156, 48.65795631 ], [ 17.84697068, 48.65789099 ], [ 17.84679842, 48.657797 ], [ 17.84671087, 48.65772134 ], [ 17.84653522, 48.65776233 ], [ 17.8465644, 48.65777603 ], [ 17.84660994, 48.65779766 ], [ 17.84680108, 48.65789416 ], [ 17.84690557, 48.65794394 ], [ 17.84702377, 48.65800096 ], [ 17.84709186, 48.6580656 ], [ 17.84710077, 48.65807409 ], [ 17.84723049, 48.65817507 ], [ 17.84727605, 48.65821721 ], [ 17.84736943, 48.6582833 ], [ 17.84739949, 48.65830544 ], [ 17.84751543, 48.65839077 ] ] ] } },
{ "type": "Feature", "properties": { "@featureType": "CadastralParcel", "areaValue": { "value": 300, "@uom": "m2" }, "beginLifespanVersion": { "@nilReason": "http://inspire.ec.europa.eu/codelist/VoidReasonValue/Unpopulated", "@nil": "true" }, "endLifespanVersion": { "@nilReason": "http://inspire.ec.europa.eu/codelist/VoidReasonValue/Unpopulated", "@nil": "true" }, "inspireId": { "@dataType": "Identifier", "localId": "817589_1349.E", "namespace": "SK.ESKN.CP", "versionId": "20260703T06:07:57" }, "label": "1349", "nationalCadastralReference": "817589_1349.E", "referencePoint": { "type": "Point", "coordinates": [ 17.84889958, 48.65916082 ] }, "validFrom": "2026-06-30T16:00:00Z", "validTo": { "@nilReason": "http://inspire.ec.europa.eu/codelist/VoidReasonValue/Unpopulated", "@nil": "true" }, "administrativeUnit": { "@href": "#auAdmUnitS.406" } }, "geometry": { "type": "Polygon", "coordinates": [ [ [ 17.84877541, 48.65913642 ], [ 17.84887568, 48.65918522 ], [ 17.84876727, 48.659289 ], [ 17.84913165, 48.65925159 ], [ 17.84881629, 48.65907045 ], [ 17.84877541, 48.65913642 ] ] ] } },
{ "type": "Feature", "properties": { "@featureType": "CadastralParcel", "areaValue": { "value": 235, "@uom": "m2" }, "beginLifespanVersion": { "@nilReason": "http://inspire.ec.europa.eu/codelist/VoidReasonValue/Unpopulated", "@nil": "true" }, "endLifespanVersion": { "@nilReason": "http://inspire.ec.europa.eu/codelist/VoidReasonValue/Unpopulated", "@nil": "true" }, "inspireId": { "@dataType": "Identifier", "localId": "817589_1351/1.E", "namespace": "SK.ESKN.CP", "versionId": "20260703T06:07:57" }, "label": "1351/1", "nationalCadastralReference": "817589_1351/1.E", "referencePoint": { "type": "Point", "coordinates": [ 17.84165813, 48.65870834 ] }, "validFrom": "2026-06-30T16:00:00Z", "validTo": { "@nilReason": "http://inspire.ec.europa.eu/codelist/VoidReasonValue/Unpopulated", "@nil": "true" }, "administrativeUnit": { "@href": "#auAdmUnitS.406" } }, "geometry": { "type": "Polygon", "coordinates": [ [ [ 17.84161589, 48.65866492 ], [ 17.84150488, 48.65867705 ], [ 17.84150532, 48.65868078 ], [ 17.84153032, 48.65876909 ], [ 17.84172226, 48.6587513 ], [ 17.84179934, 48.65874596 ], [ 17.84179869, 48.65873589 ], [ 17.84180912, 48.65867132 ], [ 17.84180384, 48.65864842 ], [ 17.84195973, 48.65863215 ], [ 17.84195781, 48.65862923 ], [ 17.84161589, 48.65866492 ] ] ] } }
]
}
