{
"type": "FeatureCollection",
"name": "gis",
"crs": { "type": "name", "properties": { "name": "urn:ogc:def:crs:OGC:1.3:CRS84" } },
"features": [
{ "type": "Feature", "properties": { "@featureType": "CadastralParcel", "areaValue": { "value": 44, "@uom": "m2" }, "beginLifespanVersion": { "@nilReason": "http://inspire.ec.europa.eu/codelist/VoidReasonValue/Unpopulated", "@nil": "true" }, "endLifespanVersion": { "@nilReason": "http://inspire.ec.europa.eu/codelist/VoidReasonValue/Unpopulated", "@nil": "true" }, "inspireId": { "@dataType": "Identifier", "localId": "812854_1265/23.C", "namespace": "SK.ESKN.CP", "versionId": "20260703T04:07:08" }, "label": "1265/23", "nationalCadastralReference": "812854_1265/23.C", "referencePoint": { "type": "Point", "coordinates": [ 18.06877798, 48.33803274 ] }, "validFrom": "2026-06-30T16:00:00Z", "validTo": { "@nilReason": "http://inspire.ec.europa.eu/codelist/VoidReasonValue/Unpopulated", "@nil": "true" }, "administrativeUnit": { "@href": "#auAdmUnitS.1810" } }, "geometry": { "type": "Polygon", "coordinates": [ [ [ 18.06869856, 48.33804864 ], [ 18.06875045, 48.33807599 ], [ 18.0688221, 48.33803409 ], [ 18.0688268, 48.33803139 ], [ 18.06884183, 48.33802216 ], [ 18.06882257, 48.33798879 ], [ 18.06877873, 48.33800995 ], [ 18.06869856, 48.33804864 ] ] ] } },
{ "type": "Feature", "properties": { "@featureType": "CadastralParcel", "areaValue": { "value": 27, "@uom": "m2" }, "beginLifespanVersion": { "@nilReason": "http://inspire.ec.europa.eu/codelist/VoidReasonValue/Unpopulated", "@nil": "true" }, "endLifespanVersion": { "@nilReason": "http://inspire.ec.europa.eu/codelist/VoidReasonValue/Unpopulated", "@nil": "true" }, "inspireId": { "@dataType": "Identifier", "localId": "812854_1265/22.C", "namespace": "SK.ESKN.CP", "versionId": "20260703T04:07:08" }, "label": "1265/22", "nationalCadastralReference": "812854_1265/22.C", "referencePoint": { "type": "Point", "coordinates": [ 18.06869496, 48.33808082 ] }, "validFrom": "2026-06-30T16:00:00Z", "validTo": { "@nilReason": "http://inspire.ec.europa.eu/codelist/VoidReasonValue/Unpopulated", "@nil": "true" }, "administrativeUnit": { "@href": "#auAdmUnitS.1810" } }, "geometry": { "type": "Polygon", "coordinates": [ [ [ 18.06864009, 48.33807687 ], [ 18.06869977, 48.33810776 ], [ 18.06873547, 48.33808477 ], [ 18.06875045, 48.33807599 ], [ 18.06869856, 48.33804864 ], [ 18.06868192, 48.33805668 ], [ 18.06864009, 48.33807687 ] ] ] } },
{ "type": "Feature", "properties": { "@featureType": "CadastralParcel", "areaValue": { "value": 140, "@uom": "m2" }, "beginLifespanVersion": { "@nilReason": "http://inspire.ec.europa.eu/codelist/VoidReasonValue/Unpopulated", "@nil": "true" }, "endLifespanVersion": { "@nilReason": "http://inspire.ec.europa.eu/codelist/VoidReasonValue/Unpopulated", "@nil": "true" }, "inspireId": { "@dataType": "Identifier", "localId": "812854_1265/21.C", "namespace": "SK.ESKN.CP", "versionId": "20260703T04:07:08" }, "label": "1265/21", "nationalCadastralReference": "812854_1265/21.C", "referencePoint": { "type": "Point", "coordinates": [ 18.06844589, 48.33820824 ] }, "validFrom": "2026-06-30T16:00:00Z", "validTo": { "@nilReason": "http://inspire.ec.europa.eu/codelist/VoidReasonValue/Unpopulated", "@nil": "true" }, "administrativeUnit": { "@href": "#auAdmUnitS.1810" } }, "geometry": { "type": "Polygon", "coordinates": [ [ [ 18.06831106, 48.3382232 ], [ 18.06843905, 48.33828828 ], [ 18.06852573, 48.33822198 ], [ 18.06856649, 48.3381945 ], [ 18.06848089, 48.33814981 ], [ 18.06831106, 48.3382232 ] ] ] } },
{ "type": "Feature", "properties": { "@featureType": "CadastralParcel", "areaValue": { "value": 69, "@uom": "m2" }, "beginLifespanVersion": { "@nilReason": "http://inspire.ec.europa.eu/codelist/VoidReasonValue/Unpopulated", "@nil": "true" }, "endLifespanVersion": { "@nilReason": "http://inspire.ec.europa.eu/codelist/VoidReasonValue/Unpopulated", "@nil": "true" }, "inspireId": { "@dataType": "Identifier", "localId": "812854_1265/20.C", "namespace": "SK.ESKN.CP", "versionId": "20260703T04:07:08" }, "label": "1265/20", "nationalCadastralReference": "812854_1265/20.C", "referencePoint": { "type": "Point", "coordinates": [ 18.06834544, 48.33826968 ] }, "validFrom": "2026-06-30T16:00:00Z", "validTo": { "@nilReason": "http://inspire.ec.europa.eu/codelist/VoidReasonValue/Unpopulated", "@nil": "true" }, "administrativeUnit": { "@href": "#auAdmUnitS.1810" } }, "geometry": { "type": "Polygon", "coordinates": [ [ [ 18.06825129, 48.33825108 ], [ 18.06840326, 48.33832724 ], [ 18.06840387, 48.33832674 ], [ 18.0684506, 48.3382941 ], [ 18.06843905, 48.33828828 ], [ 18.06831106, 48.3382232 ], [ 18.06825129, 48.33825108 ] ] ] } },
{ "type": "Feature", "properties": { "@featureType": "CadastralParcel", "areaValue": { "value": 68, "@uom": "m2" }, "beginLifespanVersion": { "@nilReason": "http://inspire.ec.europa.eu/codelist/VoidReasonValue/Unpopulated", "@nil": "true" }, "endLifespanVersion": { "@nilReason": "http://inspire.ec.europa.eu/codelist/VoidReasonValue/Unpopulated", "@nil": "true" }, "inspireId": { "@dataType": "Identifier", "localId": "812854_1265/19.C", "namespace": "SK.ESKN.CP", "versionId": "20260703T04:07:08" }, "label": "1265/19", "nationalCadastralReference": "812854_1265/19.C", "referencePoint": { "type": "Point", "coordinates": [ 18.06829932, 48.33830105 ] }, "validFrom": "2026-06-30T16:00:00Z", "validTo": { "@nilReason": "http://inspire.ec.europa.eu/codelist/VoidReasonValue/Unpopulated", "@nil": "true" }, "administrativeUnit": { "@href": "#auAdmUnitS.1810" } }, "geometry": { "type": "Polygon", "coordinates": [ [ [ 18.06819694, 48.33827487 ], [ 18.06835977, 48.33835898 ], [ 18.06836008, 48.33835873 ], [ 18.06840326, 48.33832724 ], [ 18.06825129, 48.33825108 ], [ 18.06819694, 48.33827487 ] ] ] } },
{ "type": "Feature", "properties": { "@featureType": "CadastralParcel", "areaValue": { "value": 68, "@uom": "m2" }, "beginLifespanVersion": { "@nilReason": "http://inspire.ec.europa.eu/codelist/VoidReasonValue/Unpopulated", "@nil": "true" }, "endLifespanVersion": { "@nilReason": "http://inspire.ec.europa.eu/codelist/VoidReasonValue/Unpopulated", "@nil": "true" }, "inspireId": { "@dataType": "Identifier", "localId": "812854_1265/18.C", "namespace": "SK.ESKN.CP", "versionId": "20260703T04:07:08" }, "label": "1265/18", "nationalCadastralReference": "812854_1265/18.C", "referencePoint": { "type": "Point", "coordinates": [ 18.06825256, 48.33832802 ] }, "validFrom": "2026-06-30T16:00:00Z", "validTo": { "@nilReason": "http://inspire.ec.europa.eu/codelist/VoidReasonValue/Unpopulated", "@nil": "true" }, "administrativeUnit": { "@href": "#auAdmUnitS.1810" } }, "geometry": { "type": "Polygon", "coordinates": [ [ [ 18.06819694, 48.33827487 ], [ 18.06814618, 48.33829706 ], [ 18.06832102, 48.33838865 ], [ 18.06832131, 48.33838849 ], [ 18.06835977, 48.33835898 ], [ 18.06819694, 48.33827487 ] ] ] } },
{ "type": "Feature", "properties": { "@featureType": "CadastralParcel", "areaValue": { "value": 93, "@uom": "m2" }, "beginLifespanVersion": { "@nilReason": "http://inspire.ec.europa.eu/codelist/VoidReasonValue/Unpopulated", "@nil": "true" }, "endLifespanVersion": { "@nilReason": "http://inspire.ec.europa.eu/codelist/VoidReasonValue/Unpopulated", "@nil": "true" }, "inspireId": { "@dataType": "Identifier", "localId": "812854_1265/3.C", "namespace": "SK.ESKN.CP", "versionId": "20260703T04:07:08" }, "label": "1265/3", "nationalCadastralReference": "812854_1265/3.C", "referencePoint": { "type": "Point", "coordinates": [ 18.06859696, 48.33812878 ] }, "validFrom": "2026-06-30T16:00:00Z", "validTo": { "@nilReason": "http://inspire.ec.europa.eu/codelist/VoidReasonValue/Unpopulated", "@nil": "true" }, "administrativeUnit": { "@href": "#auAdmUnitS.1810" } }, "geometry": { "type": "Polygon", "coordinates": [ [ [ 18.06848089, 48.33814981 ], [ 18.06856649, 48.3381945 ], [ 18.06859936, 48.33817243 ], [ 18.06869977, 48.33810776 ], [ 18.06864009, 48.33807687 ], [ 18.06848089, 48.33814981 ] ] ] } },
{ "type": "Feature", "properties": { "@featureType": "CadastralParcel", "areaValue": { "value": 10569, "@uom": "m2" }, "beginLifespanVersion": { "@nilReason": "http://inspire.ec.europa.eu/codelist/VoidReasonValue/Unpopulated", "@nil": "true" }, "endLifespanVersion": { "@nilReason": "http://inspire.ec.europa.eu/codelist/VoidReasonValue/Unpopulated", "@nil": "true" }, "inspireId": { "@dataType": "Identifier", "localId": "812854_3023/16.C", "namespace": "SK.ESKN.CP", "versionId": "20260703T04:07:08" }, "label": "3023/16", "nationalCadastralReference": "812854_3023/16.C", "referencePoint": { "type": "Point", "coordinates": [ 18.06537209, 48.33938937 ] }, "validFrom": "2026-06-30T16:00:00Z", "validTo": { "@nilReason": "http://inspire.ec.europa.eu/codelist/VoidReasonValue/Unpopulated", "@nil": "true" }, "administrativeUnit": { "@href": "#auAdmUnitS.1810" } }, "geometry": { "type": "Polygon", "coordinates": [ [ [ 18.06896868, 48.33787581 ], [ 18.06920196, 48.33773872 ], [ 18.06908462, 48.33768421 ], [ 18.06877944, 48.33782535 ], [ 18.06863092, 48.33789332 ], [ 18.06835048, 48.3380194 ], [ 18.06776486, 48.33827443 ], [ 18.06758778, 48.33833719 ], [ 18.06705286, 48.33857029 ], [ 18.06644276, 48.33883417 ], [ 18.06568575, 48.33916086 ], [ 18.06505497, 48.33943442 ], [ 18.06468442, 48.33958831 ], [ 18.06422726, 48.33979963 ], [ 18.06317497, 48.34026279 ], [ 18.06206818, 48.34074357 ], [ 18.06150924, 48.3409848 ], [ 18.06160927, 48.34108697 ], [ 18.06162215, 48.3411001 ], [ 18.06197905, 48.34094208 ], [ 18.0626767, 48.34064567 ], [ 18.06381854, 48.34014574 ], [ 18.06440959, 48.33990215 ], [ 18.0644996, 48.33986278 ], [ 18.06456962, 48.33983225 ], [ 18.06462181, 48.33980951 ], [ 18.06463892, 48.33980204 ], [ 18.06467788, 48.33978502 ], [ 18.0647236, 48.33976506 ], [ 18.06476875, 48.33974534 ], [ 18.06482483, 48.33972085 ], [ 18.06487989, 48.33969683 ], [ 18.06542403, 48.33945968 ], [ 18.0656887, 48.33934432 ], [ 18.06575682, 48.33931476 ], [ 18.06582437, 48.33928544 ], [ 18.06585902, 48.33927033 ], [ 18.06589596, 48.33925427 ], [ 18.06657136, 48.33896077 ], [ 18.06666507, 48.33892116 ], [ 18.06778204, 48.33842225 ], [ 18.06842869, 48.33812379 ], [ 18.06878508, 48.33796012 ], [ 18.06879518, 48.33795548 ], [ 18.06883065, 48.33793925 ], [ 18.06883945, 48.33793517 ], [ 18.06896868, 48.33787581 ] ] ] } },
{ "type": "Feature", "properties": { "@featureType": "CadastralParcel", "areaValue": { "value": 1650, "@uom": "m2" }, "beginLifespanVersion": { "@nilReason": "http://inspire.ec.europa.eu/codelist/VoidReasonValue/Unpopulated", "@nil": "true" }, "endLifespanVersion": { "@nilReason": "http://inspire.ec.europa.eu/codelist/VoidReasonValue/Unpopulated", "@nil": "true" }, "inspireId": { "@dataType": "Identifier", "localId": "812854_3023/15.C", "namespace": "SK.ESKN.CP", "versionId": "20260703T04:07:08" }, "label": "3023/15", "nationalCadastralReference": "812854_3023/15.C", "referencePoint": { "type": "Point", "coordinates": [ 18.06931449, 48.33759156 ] }, "validFrom": "2026-06-30T16:00:00Z", "validTo": { "@nilReason": "http://inspire.ec.europa.eu/codelist/VoidReasonValue/Unpopulated", "@nil": "true" }, "administrativeUnit": { "@href": "#auAdmUnitS.1810" } }, "geometry": { "type": "Polygon", "coordinates": [ [ [ 18.06957216, 48.33752106 ], [ 18.0702958, 48.33702526 ], [ 18.07026794, 48.33700564 ], [ 18.07020898, 48.33696424 ], [ 18.07018111, 48.33694471 ], [ 18.070166, 48.33693407 ], [ 18.07002074, 48.3370499 ], [ 18.06979195, 48.33721335 ], [ 18.06935068, 48.337492 ], [ 18.06905357, 48.33766206 ], [ 18.06885812, 48.33776526 ], [ 18.06874126, 48.33782526 ], [ 18.06872978, 48.33783117 ], [ 18.06869576, 48.33784866 ], [ 18.06868806, 48.33785263 ], [ 18.06859111, 48.33790243 ], [ 18.06821517, 48.33807153 ], [ 18.06769488, 48.33829043 ], [ 18.06758778, 48.33833719 ], [ 18.06776486, 48.33827443 ], [ 18.06835048, 48.3380194 ], [ 18.06863092, 48.33789332 ], [ 18.06877944, 48.33782535 ], [ 18.06908462, 48.33768421 ], [ 18.06920196, 48.33773872 ], [ 18.06957216, 48.33752106 ] ] ] } },
{ "type": "Feature", "properties": { "@featureType": "CadastralParcel", "areaValue": { "value": 462, "@uom": "m2" }, "beginLifespanVersion": { "@nilReason": "http://inspire.ec.europa.eu/codelist/VoidReasonValue/Unpopulated", "@nil": "true" }, "endLifespanVersion": { "@nilReason": "http://inspire.ec.europa.eu/codelist/VoidReasonValue/Unpopulated", "@nil": "true" }, "inspireId": { "@dataType": "Identifier", "localId": "812854_3023/13.C", "namespace": "SK.ESKN.CP", "versionId": "20260703T04:07:08" }, "label": "3023/13", "nationalCadastralReference": "812854_3023/13.C", "referencePoint": { "type": "Point", "coordinates": [ 18.06971575, 48.33744901 ] }, "validFrom": "2026-06-30T16:00:00Z", "validTo": { "@nilReason": "http://inspire.ec.europa.eu/codelist/VoidReasonValue/Unpopulated", "@nil": "true" }, "administrativeUnit": { "@href": "#auAdmUnitS.1810" } }, "geometry": { "type": "Polygon", "coordinates": [ [ [ 18.06995593, 48.33731125 ], [ 18.07016482, 48.33716911 ], [ 18.07034349, 48.33705868 ], [ 18.07032554, 48.33704606 ], [ 18.07031228, 48.33703679 ], [ 18.0702958, 48.33702526 ], [ 18.06957216, 48.33752106 ], [ 18.06920196, 48.33773872 ], [ 18.06924991, 48.33776106 ], [ 18.06962062, 48.33754054 ], [ 18.06985931, 48.33737696 ], [ 18.06992005, 48.33733567 ], [ 18.06991693, 48.33733368 ], [ 18.06995107, 48.33730807 ], [ 18.06995593, 48.33731125 ] ] ] } },
{ "type": "Feature", "properties": { "@featureType": "CadastralParcel", "areaValue": { "value": 627, "@uom": "m2" }, "beginLifespanVersion": { "@nilReason": "http://inspire.ec.europa.eu/codelist/VoidReasonValue/Unpopulated", "@nil": "true" }, "endLifespanVersion": { "@nilReason": "http://inspire.ec.europa.eu/codelist/VoidReasonValue/Unpopulated", "@nil": "true" }, "inspireId": { "@dataType": "Identifier", "localId": "812854_3023/3.C", "namespace": "SK.ESKN.CP", "versionId": "20260703T04:07:08" }, "label": "3023/3", "nationalCadastralReference": "812854_3023/3.C", "referencePoint": { "type": "Point", "coordinates": [ 18.068029, 48.33832837 ] }, "validFrom": "2026-06-30T16:00:00Z", "validTo": { "@nilReason": "http://inspire.ec.europa.eu/codelist/VoidReasonValue/Unpopulated", "@nil": "true" }, "administrativeUnit": { "@href": "#auAdmUnitS.1810" } }, "geometry": { "type": "Polygon", "coordinates": [ [ [ 18.06920196, 48.33773872 ], [ 18.06896868, 48.33787581 ], [ 18.06883945, 48.33793517 ], [ 18.06883065, 48.33793925 ], [ 18.06879518, 48.33795548 ], [ 18.06878508, 48.33796012 ], [ 18.06842869, 48.33812379 ], [ 18.06778204, 48.33842225 ], [ 18.06666507, 48.33892116 ], [ 18.06680468, 48.33886215 ], [ 18.06714517, 48.33871832 ], [ 18.06725537, 48.33867174 ], [ 18.06743282, 48.33859709 ], [ 18.06746223, 48.33858474 ], [ 18.06749292, 48.33857184 ], [ 18.0675559, 48.33854531 ], [ 18.06758172, 48.33853447 ], [ 18.06760896, 48.33852308 ], [ 18.06766935, 48.33849776 ], [ 18.06773088, 48.33847187 ], [ 18.06778825, 48.33844781 ], [ 18.06787704, 48.33841053 ], [ 18.06796669, 48.33837286 ], [ 18.06803137, 48.33834571 ], [ 18.06805806, 48.33833447 ], [ 18.06808703, 48.33832227 ], [ 18.06812174, 48.33830771 ], [ 18.06814618, 48.33829706 ], [ 18.06819694, 48.33827487 ], [ 18.06825129, 48.33825108 ], [ 18.06831106, 48.3382232 ], [ 18.06848089, 48.33814981 ], [ 18.06864009, 48.33807687 ], [ 18.06868192, 48.33805668 ], [ 18.06869856, 48.33804864 ], [ 18.06877873, 48.33800995 ], [ 18.06882257, 48.33798879 ], [ 18.06881035, 48.33796766 ], [ 18.06885775, 48.33794419 ], [ 18.06888176, 48.33796024 ], [ 18.06891619, 48.33794367 ], [ 18.06907801, 48.33786331 ], [ 18.06924991, 48.33776106 ], [ 18.06920196, 48.33773872 ] ] ] } },
{ "type": "Feature", "properties": { "@featureType": "CadastralParcel", "areaValue": { "value": 493, "@uom": "m2" }, "beginLifespanVersion": { "@nilReason": "http://inspire.ec.europa.eu/codelist/VoidReasonValue/Unpopulated", "@nil": "true" }, "endLifespanVersion": { "@nilReason": "http://inspire.ec.europa.eu/codelist/VoidReasonValue/Unpopulated", "@nil": "true" }, "inspireId": { "@dataType": "Identifier", "localId": "812854_1066/7.C", "namespace": "SK.ESKN.CP", "versionId": "20260703T04:07:08" }, "label": "1066/7", "nationalCadastralReference": "812854_1066/7.C", "referencePoint": { "type": "Point", "coordinates": [ 18.06991496, 48.33744702 ] }, "validFrom": "2026-06-30T16:00:00Z", "validTo": { "@nilReason": "http://inspire.ec.europa.eu/codelist/VoidReasonValue/Unpopulated", "@nil": "true" }, "administrativeUnit": { "@href": "#auAdmUnitS.1810" } }, "geometry": { "type": "Polygon", "coordinates": [ [ [ 18.07041942, 48.33711201 ], [ 18.07033821, 48.33717177 ], [ 18.07028571, 48.33713987 ], [ 18.07023457, 48.3371782 ], [ 18.07012217, 48.33725769 ], [ 18.07000314, 48.33734221 ], [ 18.06995593, 48.33731125 ], [ 18.06992005, 48.33733567 ], [ 18.06996913, 48.33736783 ], [ 18.06995014, 48.33739352 ], [ 18.06978533, 48.33750053 ], [ 18.0696588, 48.33757422 ], [ 18.06955176, 48.33762766 ], [ 18.06945411, 48.3376888 ], [ 18.06935112, 48.33774537 ], [ 18.06928473, 48.3377772 ], [ 18.06931865, 48.33779302 ], [ 18.06988517, 48.33750227 ], [ 18.07042423, 48.33711555 ], [ 18.07041942, 48.33711201 ] ] ] } },
{ "type": "Feature", "properties": { "@featureType": "CadastralParcel", "areaValue": { "value": 178, "@uom": "m2" }, "beginLifespanVersion": { "@nilReason": "http://inspire.ec.europa.eu/codelist/VoidReasonValue/Unpopulated", "@nil": "true" }, "endLifespanVersion": { "@nilReason": "http://inspire.ec.europa.eu/codelist/VoidReasonValue/Unpopulated", "@nil": "true" }, "inspireId": { "@dataType": "Identifier", "localId": "812854_1265/17.C", "namespace": "SK.ESKN.CP", "versionId": "20260703T04:07:08" }, "label": "1265/17", "nationalCadastralReference": "812854_1265/17.C", "referencePoint": { "type": "Point", "coordinates": [ 18.06803459, 48.33858992 ] }, "validFrom": "2026-06-30T16:00:00Z", "validTo": { "@nilReason": "http://inspire.ec.europa.eu/codelist/VoidReasonValue/Unpopulated", "@nil": "true" }, "administrativeUnit": { "@href": "#auAdmUnitS.1810" } }, "geometry": { "type": "Polygon", "coordinates": [ [ [ 18.06805697, 48.33863597 ], [ 18.06814424, 48.33854388 ], [ 18.06819813, 48.33849199 ], [ 18.06784811, 48.33864132 ], [ 18.06798114, 48.33870715 ], [ 18.0680031, 48.33868461 ], [ 18.06801971, 48.3386697 ], [ 18.06805697, 48.33863597 ] ] ] } },
{ "type": "Feature", "properties": { "@featureType": "CadastralParcel", "areaValue": { "value": 344, "@uom": "m2" }, "beginLifespanVersion": { "@nilReason": "http://inspire.ec.europa.eu/codelist/VoidReasonValue/Unpopulated", "@nil": "true" }, "endLifespanVersion": { "@nilReason": "http://inspire.ec.europa.eu/codelist/VoidReasonValue/Unpopulated", "@nil": "true" }, "inspireId": { "@dataType": "Identifier", "localId": "812854_1065/34.C", "namespace": "SK.ESKN.CP", "versionId": "20260703T04:07:08" }, "label": "1065/34", "nationalCadastralReference": "812854_1065/34.C", "referencePoint": { "type": "Point", "coordinates": [ 18.06882291, 48.33771618 ] }, "validFrom": "2026-06-30T16:00:00Z", "validTo": { "@nilReason": "http://inspire.ec.europa.eu/codelist/VoidReasonValue/Unpopulated", "@nil": "true" }, "administrativeUnit": { "@href": "#auAdmUnitS.1810" } }, "geometry": { "type": "Polygon", "coordinates": [ [ [ 18.06905652, 48.33756147 ], [ 18.06902259, 48.33752741 ], [ 18.06878221, 48.33763952 ], [ 18.06869508, 48.33777432 ], [ 18.06875112, 48.33779794 ], [ 18.06902838, 48.33765804 ], [ 18.06904578, 48.3376076 ], [ 18.06905652, 48.33756147 ] ] ] } },
{ "type": "Feature", "properties": { "@featureType": "CadastralParcel", "areaValue": { "value": 1234, "@uom": "m2" }, "beginLifespanVersion": { "@nilReason": "http://inspire.ec.europa.eu/codelist/VoidReasonValue/Unpopulated", "@nil": "true" }, "endLifespanVersion": { "@nilReason": "http://inspire.ec.europa.eu/codelist/VoidReasonValue/Unpopulated", "@nil": "true" }, "inspireId": { "@dataType": "Identifier", "localId": "812854_1065/32.C", "namespace": "SK.ESKN.CP", "versionId": "20260703T04:07:08" }, "label": "1065/32", "nationalCadastralReference": "812854_1065/32.C", "referencePoint": { "type": "Point", "coordinates": [ 18.06850524, 48.33753543 ] }, "validFrom": "2026-06-30T16:00:00Z", "validTo": { "@nilReason": "http://inspire.ec.europa.eu/codelist/VoidReasonValue/Unpopulated", "@nil": "true" }, "administrativeUnit": { "@href": "#auAdmUnitS.1810" } }, "geometry": { "type": "Polygon", "coordinates": [ [ [ 18.06877204, 48.33736968 ], [ 18.0687017, 48.33730286 ], [ 18.06860862, 48.33735316 ], [ 18.06837813, 48.33746215 ], [ 18.06818483, 48.33755013 ], [ 18.06855313, 48.33775013 ], [ 18.06856259, 48.33774518 ], [ 18.06855543, 48.33773789 ], [ 18.06858344, 48.33772483 ], [ 18.0687661, 48.33763947 ], [ 18.06879993, 48.33751028 ], [ 18.06877796, 48.33752072 ], [ 18.06878407, 48.33749715 ], [ 18.0688063, 48.33748682 ], [ 18.06884024, 48.33735782 ], [ 18.06878597, 48.33738305 ], [ 18.06875797, 48.33739602 ], [ 18.06874402, 48.33738283 ], [ 18.06877204, 48.33736968 ] ] ] } },
{ "type": "Feature", "properties": { "@featureType": "CadastralParcel", "areaValue": { "value": 3032, "@uom": "m2" }, "beginLifespanVersion": { "@nilReason": "http://inspire.ec.europa.eu/codelist/VoidReasonValue/Unpopulated", "@nil": "true" }, "endLifespanVersion": { "@nilReason": "http://inspire.ec.europa.eu/codelist/VoidReasonValue/Unpopulated", "@nil": "true" }, "inspireId": { "@dataType": "Identifier", "localId": "812854_1065/30.C", "namespace": "SK.ESKN.CP", "versionId": "20260703T04:07:08" }, "label": "1065/30", "nationalCadastralReference": "812854_1065/30.C", "referencePoint": { "type": "Point", "coordinates": [ 18.06952645, 48.33717194 ] }, "validFrom": "2026-06-30T16:00:00Z", "validTo": { "@nilReason": "http://inspire.ec.europa.eu/codelist/VoidReasonValue/Unpopulated", "@nil": "true" }, "administrativeUnit": { "@href": "#auAdmUnitS.1810" } }, "geometry": { "type": "Polygon", "coordinates": [ [ [ 18.06932415, 48.33710995 ], [ 18.06931431, 48.33711669 ], [ 18.06932784, 48.33713004 ], [ 18.06930026, 48.33714294 ], [ 18.06911886, 48.33722802 ], [ 18.06908465, 48.337357 ], [ 18.06910617, 48.3373469 ], [ 18.06909962, 48.33737071 ], [ 18.06907827, 48.33738055 ], [ 18.06904418, 48.33750964 ], [ 18.06909828, 48.33748466 ], [ 18.06912599, 48.33747186 ], [ 18.0691398, 48.33748513 ], [ 18.06911197, 48.33749784 ], [ 18.06917216, 48.33755747 ], [ 18.06918232, 48.33756556 ], [ 18.06933274, 48.33747514 ], [ 18.06977302, 48.33720094 ], [ 18.06993532, 48.33708738 ], [ 18.07014893, 48.33692195 ], [ 18.07014755, 48.33692106 ], [ 18.06989599, 48.33674449 ], [ 18.06936152, 48.33699587 ], [ 18.06924446, 48.33703401 ], [ 18.06932415, 48.33710995 ] ] ] } },
{ "type": "Feature", "properties": { "@featureType": "CadastralParcel", "areaValue": { "value": 1965, "@uom": "m2" }, "beginLifespanVersion": { "@nilReason": "http://inspire.ec.europa.eu/codelist/VoidReasonValue/Unpopulated", "@nil": "true" }, "endLifespanVersion": { "@nilReason": "http://inspire.ec.europa.eu/codelist/VoidReasonValue/Unpopulated", "@nil": "true" }, "inspireId": { "@dataType": "Identifier", "localId": "812854_1065/29.C", "namespace": "SK.ESKN.CP", "versionId": "20260703T04:07:08" }, "label": "1065/29", "nationalCadastralReference": "812854_1065/29.C", "referencePoint": { "type": "Point", "coordinates": [ 18.0692639, 48.3369455 ] }, "validFrom": "2026-06-30T16:00:00Z", "validTo": { "@nilReason": "http://inspire.ec.europa.eu/codelist/VoidReasonValue/Unpopulated", "@nil": "true" }, "administrativeUnit": { "@href": "#auAdmUnitS.1810" } }, "geometry": { "type": "Polygon", "coordinates": [ [ [ 18.06879714, 48.33728783 ], [ 18.06880675, 48.33729499 ], [ 18.068824, 48.33730377 ], [ 18.06886139, 48.33734038 ], [ 18.06910177, 48.33722827 ], [ 18.06911985, 48.33718086 ], [ 18.06915681, 48.33712489 ], [ 18.06921006, 48.33705951 ], [ 18.06924446, 48.33703401 ], [ 18.06936152, 48.33699587 ], [ 18.06989599, 48.33674449 ], [ 18.06967863, 48.33659179 ], [ 18.06946162, 48.33668803 ], [ 18.06937855, 48.3367252 ], [ 18.06929538, 48.33676714 ], [ 18.06922733, 48.33680736 ], [ 18.06916011, 48.33685459 ], [ 18.06909906, 48.33690533 ], [ 18.06901932, 48.33698567 ], [ 18.0689386, 48.33709268 ], [ 18.06889894, 48.3371557 ], [ 18.06882503, 48.337239 ], [ 18.06880298, 48.3372582 ], [ 18.06879275, 48.33727502 ], [ 18.06879714, 48.33728783 ] ] ] } },
{ "type": "Feature", "properties": { "@featureType": "CadastralParcel", "areaValue": { "value": 1080, "@uom": "m2" }, "beginLifespanVersion": { "@nilReason": "http://inspire.ec.europa.eu/codelist/VoidReasonValue/Unpopulated", "@nil": "true" }, "endLifespanVersion": { "@nilReason": "http://inspire.ec.europa.eu/codelist/VoidReasonValue/Unpopulated", "@nil": "true" }, "inspireId": { "@dataType": "Identifier", "localId": "812854_1065/28.C", "namespace": "SK.ESKN.CP", "versionId": "20260703T04:07:08" }, "label": "1065/28", "nationalCadastralReference": "812854_1065/28.C", "referencePoint": { "type": "Point", "coordinates": [ 18.06893501, 48.33701626 ] }, "validFrom": "2026-06-30T16:00:00Z", "validTo": { "@nilReason": "http://inspire.ec.europa.eu/codelist/VoidReasonValue/Unpopulated", "@nil": "true" }, "administrativeUnit": { "@href": "#auAdmUnitS.1810" } }, "geometry": { "type": "Polygon", "coordinates": [ [ [ 18.06880675, 48.33729499 ], [ 18.06879714, 48.33728783 ], [ 18.06879275, 48.33727502 ], [ 18.06880298, 48.3372582 ], [ 18.06882503, 48.337239 ], [ 18.06889894, 48.3371557 ], [ 18.0689386, 48.33709268 ], [ 18.06901932, 48.33698567 ], [ 18.06909906, 48.33690533 ], [ 18.06916011, 48.33685459 ], [ 18.06922733, 48.33680736 ], [ 18.06929538, 48.33676714 ], [ 18.06937855, 48.3367252 ], [ 18.06946162, 48.33668803 ], [ 18.06967863, 48.33659179 ], [ 18.06960852, 48.33654259 ], [ 18.0693939, 48.33663925 ], [ 18.06926736, 48.33670084 ], [ 18.06919115, 48.3367413 ], [ 18.06912846, 48.33677895 ], [ 18.06905756, 48.33682839 ], [ 18.0689691, 48.33690298 ], [ 18.06890921, 48.3369695 ], [ 18.06885058, 48.33704684 ], [ 18.06880873, 48.33711615 ], [ 18.06875558, 48.33718994 ], [ 18.06872308, 48.33722052 ], [ 18.06867972, 48.33725127 ], [ 18.06861959, 48.33728591 ], [ 18.0685686, 48.33730989 ], [ 18.06812598, 48.33751812 ], [ 18.06818483, 48.33755013 ], [ 18.06837813, 48.33746215 ], [ 18.06860862, 48.33735316 ], [ 18.0687017, 48.33730286 ], [ 18.06873698, 48.33728201 ], [ 18.06875335, 48.33728208 ], [ 18.06877702, 48.33728438 ], [ 18.06879922, 48.33729156 ], [ 18.06880675, 48.33729499 ] ] ] } },
{ "type": "Feature", "properties": { "@featureType": "CadastralParcel", "areaValue": { "value": 618, "@uom": "m2" }, "beginLifespanVersion": { "@nilReason": "http://inspire.ec.europa.eu/codelist/VoidReasonValue/Unpopulated", "@nil": "true" }, "endLifespanVersion": { "@nilReason": "http://inspire.ec.europa.eu/codelist/VoidReasonValue/Unpopulated", "@nil": "true" }, "inspireId": { "@dataType": "Identifier", "localId": "812854_3023/14.C", "namespace": "SK.ESKN.CP", "versionId": "20260703T04:07:08" }, "label": "3023/14", "nationalCadastralReference": "812854_3023/14.C", "referencePoint": { "type": "Point", "coordinates": [ 18.0689582, 48.33770272 ] }, "validFrom": "2026-06-30T16:00:00Z", "validTo": { "@nilReason": "http://inspire.ec.europa.eu/codelist/VoidReasonValue/Unpopulated", "@nil": "true" }, "administrativeUnit": { "@href": "#auAdmUnitS.1810" } }, "geometry": { "type": "Polygon", "coordinates": [ [ [ 18.06738271, 48.33840976 ], [ 18.06758778, 48.33833719 ], [ 18.06769488, 48.33829043 ], [ 18.06821517, 48.33807153 ], [ 18.06859111, 48.33790243 ], [ 18.06868806, 48.33785263 ], [ 18.06869576, 48.33784866 ], [ 18.06872978, 48.33783117 ], [ 18.06874126, 48.33782526 ], [ 18.06885812, 48.33776526 ], [ 18.06905357, 48.33766206 ], [ 18.06935068, 48.337492 ], [ 18.06979195, 48.33721335 ], [ 18.07002074, 48.3370499 ], [ 18.070166, 48.33693407 ], [ 18.07016266, 48.33693171 ], [ 18.07014893, 48.33692195 ], [ 18.06993532, 48.33708738 ], [ 18.06977302, 48.33720094 ], [ 18.06933274, 48.33747514 ], [ 18.06918232, 48.33756556 ], [ 18.06916172, 48.33757789 ], [ 18.06902838, 48.33765804 ], [ 18.06875112, 48.33779794 ], [ 18.06869508, 48.33777432 ], [ 18.0686892, 48.33778291 ], [ 18.06864766, 48.33780402 ], [ 18.06858558, 48.33774338 ], [ 18.06856884, 48.33775115 ], [ 18.06856259, 48.33774518 ], [ 18.06855313, 48.33775013 ], [ 18.06850298, 48.33778608 ], [ 18.06859181, 48.33783403 ], [ 18.06863337, 48.33785653 ], [ 18.06855947, 48.33789289 ], [ 18.06847906, 48.33793238 ], [ 18.06845906, 48.33794221 ], [ 18.06842054, 48.33796106 ], [ 18.06832723, 48.33800692 ], [ 18.06826071, 48.33803459 ], [ 18.06808737, 48.33810687 ], [ 18.06802358, 48.33813343 ], [ 18.0680038, 48.33814165 ], [ 18.06796819, 48.33815688 ], [ 18.06755827, 48.33833201 ], [ 18.06738271, 48.33840976 ] ] ] } },
{ "type": "Feature", "properties": { "@featureType": "CadastralParcel", "areaValue": { "value": 275, "@uom": "m2" }, "beginLifespanVersion": { "@nilReason": "http://inspire.ec.europa.eu/codelist/VoidReasonValue/Unpopulated", "@nil": "true" }, "endLifespanVersion": { "@nilReason": "http://inspire.ec.europa.eu/codelist/VoidReasonValue/Unpopulated", "@nil": "true" }, "inspireId": { "@dataType": "Identifier", "localId": "812854_1065/36.C", "namespace": "SK.ESKN.CP", "versionId": "20260703T04:07:08" }, "label": "1065/36", "nationalCadastralReference": "812854_1065/36.C", "referencePoint": { "type": "Point", "coordinates": [ 18.06909338, 48.33729198 ] }, "validFrom": "2026-06-30T16:00:00Z", "validTo": { "@nilReason": "http://inspire.ec.europa.eu/codelist/VoidReasonValue/Unpopulated", "@nil": "true" }, "administrativeUnit": { "@href": "#auAdmUnitS.1810" } }, "geometry": { "type": "Polygon", "coordinates": [ [ [ 18.06902259, 48.33752741 ], [ 18.06905652, 48.33756147 ], [ 18.06909192, 48.33757738 ], [ 18.0691315, 48.33758215 ], [ 18.06916172, 48.33757789 ], [ 18.06918232, 48.33756556 ], [ 18.06917216, 48.33755747 ], [ 18.06911197, 48.33749784 ], [ 18.0691398, 48.33748513 ], [ 18.06912599, 48.33747186 ], [ 18.06909828, 48.33748466 ], [ 18.06904418, 48.33750964 ], [ 18.06907827, 48.33738055 ], [ 18.06909962, 48.33737071 ], [ 18.06910617, 48.3373469 ], [ 18.06908465, 48.337357 ], [ 18.06911886, 48.33722802 ], [ 18.06930026, 48.33714294 ], [ 18.06932784, 48.33713004 ], [ 18.06931431, 48.33711669 ], [ 18.06932415, 48.33710995 ], [ 18.06924446, 48.33703401 ], [ 18.06921006, 48.33705951 ], [ 18.06915681, 48.33712489 ], [ 18.06911985, 48.33718086 ], [ 18.06910177, 48.33722827 ], [ 18.06909938, 48.33723707 ], [ 18.0690653, 48.33736606 ], [ 18.06905907, 48.33738953 ], [ 18.06902498, 48.33751861 ], [ 18.06902259, 48.33752741 ] ] ] } },
{ "type": "Feature", "properties": { "@featureType": "CadastralParcel", "areaValue": { "value": 204, "@uom": "m2" }, "beginLifespanVersion": { "@nilReason": "http://inspire.ec.europa.eu/codelist/VoidReasonValue/Unpopulated", "@nil": "true" }, "endLifespanVersion": { "@nilReason": "http://inspire.ec.europa.eu/codelist/VoidReasonValue/Unpopulated", "@nil": "true" }, "inspireId": { "@dataType": "Identifier", "localId": "812854_1065/33.C", "namespace": "SK.ESKN.CP", "versionId": "20260703T04:07:08" }, "label": "1065/33", "nationalCadastralReference": "812854_1065/33.C", "referencePoint": { "type": "Point", "coordinates": [ 18.0687909, 48.33757581 ] }, "validFrom": "2026-06-30T16:00:00Z", "validTo": { "@nilReason": "http://inspire.ec.europa.eu/codelist/VoidReasonValue/Unpopulated", "@nil": "true" }, "administrativeUnit": { "@href": "#auAdmUnitS.1810" } }, "geometry": { "type": "Polygon", "coordinates": [ [ [ 18.06856259, 48.33774518 ], [ 18.0685897, 48.33773071 ], [ 18.06859058, 48.33773022 ], [ 18.0685957, 48.33773242 ], [ 18.06869508, 48.33777432 ], [ 18.06878221, 48.33763952 ], [ 18.06878444, 48.33763089 ], [ 18.0688187, 48.33750155 ], [ 18.06882492, 48.33747817 ], [ 18.06885901, 48.33734909 ], [ 18.06886139, 48.33734038 ], [ 18.068824, 48.33730377 ], [ 18.06880675, 48.33729499 ], [ 18.06879922, 48.33729156 ], [ 18.06877702, 48.33728438 ], [ 18.06875335, 48.33728208 ], [ 18.06873698, 48.33728201 ], [ 18.0687017, 48.33730286 ], [ 18.06877204, 48.33736968 ], [ 18.06874402, 48.33738283 ], [ 18.06875797, 48.33739602 ], [ 18.06878597, 48.33738305 ], [ 18.06884024, 48.33735782 ], [ 18.0688063, 48.33748682 ], [ 18.06878407, 48.33749715 ], [ 18.06877796, 48.33752072 ], [ 18.06879993, 48.33751028 ], [ 18.0687661, 48.33763947 ], [ 18.06858344, 48.33772483 ], [ 18.06855543, 48.33773789 ], [ 18.06856259, 48.33774518 ] ] ] } },
{ "type": "Feature", "properties": { "@featureType": "CadastralParcel", "areaValue": { "value": 516, "@uom": "m2" }, "beginLifespanVersion": { "@nilReason": "http://inspire.ec.europa.eu/codelist/VoidReasonValue/Unpopulated", "@nil": "true" }, "endLifespanVersion": { "@nilReason": "http://inspire.ec.europa.eu/codelist/VoidReasonValue/Unpopulated", "@nil": "true" }, "inspireId": { "@dataType": "Identifier", "localId": "812854_1065/31.C", "namespace": "SK.ESKN.CP", "versionId": "20260703T04:07:08" }, "label": "1065/31", "nationalCadastralReference": "812854_1065/31.C", "referencePoint": { "type": "Point", "coordinates": [ 18.06894199, 48.33743385 ] }, "validFrom": "2026-06-30T16:00:00Z", "validTo": { "@nilReason": "http://inspire.ec.europa.eu/codelist/VoidReasonValue/Unpopulated", "@nil": "true" }, "administrativeUnit": { "@href": "#auAdmUnitS.1810" } }, "geometry": { "type": "Polygon", "coordinates": [ [ [ 18.06886139, 48.33734038 ], [ 18.06885901, 48.33734909 ], [ 18.06882492, 48.33747817 ], [ 18.0688187, 48.33750155 ], [ 18.06878444, 48.33763089 ], [ 18.06878221, 48.33763952 ], [ 18.06902259, 48.33752741 ], [ 18.06902498, 48.33751861 ], [ 18.06905907, 48.33738953 ], [ 18.0690653, 48.33736606 ], [ 18.06909938, 48.33723707 ], [ 18.06910177, 48.33722827 ], [ 18.06886139, 48.33734038 ] ] ] } },
{ "type": "Feature", "properties": { "@featureType": "CadastralParcel", "areaValue": { "value": 5048, "@uom": "m2" }, "beginLifespanVersion": { "@nilReason": "http://inspire.ec.europa.eu/codelist/VoidReasonValue/Unpopulated", "@nil": "true" }, "endLifespanVersion": { "@nilReason": "http://inspire.ec.europa.eu/codelist/VoidReasonValue/Unpopulated", "@nil": "true" }, "inspireId": { "@dataType": "Identifier", "localId": "840319_4798/2.C", "namespace": "SK.ESKN.CP", "versionId": "20260703T04:07:18" }, "label": "4798/2", "nationalCadastralReference": "840319_4798/2.C", "referencePoint": { "type": "Point", "coordinates": [ 18.07181265, 48.33601165 ] }, "validFrom": "2026-06-30T16:00:00Z", "validTo": { "@nilReason": "http://inspire.ec.europa.eu/codelist/VoidReasonValue/Unpopulated", "@nil": "true" }, "administrativeUnit": { "@href": "#auAdmUnitS.1810" } }, "geometry": { "type": "Polygon", "coordinates": [ [ [ 18.07246119, 48.33588156 ], [ 18.07251253, 48.33585796 ], [ 18.07228452, 48.33564071 ], [ 18.07234048, 48.33561603 ], [ 18.07238942, 48.33559111 ], [ 18.0724305, 48.33555815 ], [ 18.07247706, 48.33551656 ], [ 18.07265663, 48.33542677 ], [ 18.07262552, 48.33541329 ], [ 18.07209435, 48.33546886 ], [ 18.07201144, 48.33543344 ], [ 18.0716161, 48.3358293 ], [ 18.07114898, 48.33632907 ], [ 18.07107605, 48.33640711 ], [ 18.07103657, 48.33644125 ], [ 18.07115602, 48.3365023 ], [ 18.07119495, 48.3365222 ], [ 18.07123288, 48.33650169 ], [ 18.07124718, 48.33649396 ], [ 18.07127491, 48.33646364 ], [ 18.07131988, 48.33644011 ], [ 18.07137561, 48.33641307 ], [ 18.07148668, 48.33635173 ], [ 18.07168059, 48.33625087 ], [ 18.07189809, 48.33614174 ], [ 18.07246119, 48.33588156 ] ] ] } },
{ "type": "Feature", "properties": { "@featureType": "CadastralParcel", "areaValue": { "value": 206, "@uom": "m2" }, "beginLifespanVersion": { "@nilReason": "http://inspire.ec.europa.eu/codelist/VoidReasonValue/Unpopulated", "@nil": "true" }, "endLifespanVersion": { "@nilReason": "http://inspire.ec.europa.eu/codelist/VoidReasonValue/Unpopulated", "@nil": "true" }, "inspireId": { "@dataType": "Identifier", "localId": "840319_4794/16.C", "namespace": "SK.ESKN.CP", "versionId": "20260703T04:07:18" }, "label": "4794/16", "nationalCadastralReference": "840319_4794/16.C", "referencePoint": { "type": "Point", "coordinates": [ 18.07112766, 48.33599608 ] }, "validFrom": "2026-06-30T16:00:00Z", "validTo": { "@nilReason": "http://inspire.ec.europa.eu/codelist/VoidReasonValue/Unpopulated", "@nil": "true" }, "administrativeUnit": { "@href": "#auAdmUnitS.1810" } }, "geometry": { "type": "Polygon", "coordinates": [ [ [ 18.07052555, 48.33658351 ], [ 18.07053309, 48.336591 ], [ 18.07056859, 48.33655923 ], [ 18.07083741, 48.33631464 ], [ 18.07089178, 48.33624995 ], [ 18.07091526, 48.3362312 ], [ 18.07138903, 48.33572415 ], [ 18.07177134, 48.3353306 ], [ 18.07176801, 48.33532914 ], [ 18.07138239, 48.33572114 ], [ 18.07122987, 48.33588042 ], [ 18.07081115, 48.33632266 ], [ 18.07079032, 48.33633578 ], [ 18.07070504, 48.33641904 ], [ 18.07053609, 48.33657456 ], [ 18.07025937, 48.33628057 ], [ 18.07010198, 48.33611173 ], [ 18.0700922, 48.33611603 ], [ 18.07044517, 48.33650364 ], [ 18.07052555, 48.33658351 ] ] ] } },
{ "type": "Feature", "properties": { "@featureType": "CadastralParcel", "areaValue": { "value": 323, "@uom": "m2" }, "beginLifespanVersion": { "@nilReason": "http://inspire.ec.europa.eu/codelist/VoidReasonValue/Unpopulated", "@nil": "true" }, "endLifespanVersion": { "@nilReason": "http://inspire.ec.europa.eu/codelist/VoidReasonValue/Unpopulated", "@nil": "true" }, "inspireId": { "@dataType": "Identifier", "localId": "840319_4787/2.C", "namespace": "SK.ESKN.CP", "versionId": "20260703T04:07:18" }, "label": "4787/2", "nationalCadastralReference": "840319_4787/2.C", "referencePoint": { "type": "Point", "coordinates": [ 18.06982555, 48.33666814 ] }, "validFrom": "2026-06-30T16:00:00Z", "validTo": { "@nilReason": "http://inspire.ec.europa.eu/codelist/VoidReasonValue/Unpopulated", "@nil": "true" }, "administrativeUnit": { "@href": "#auAdmUnitS.1810" } }, "geometry": { "type": "Polygon", "coordinates": [ [ [ 18.07019631, 48.33690065 ], [ 18.07018465, 48.33689265 ], [ 18.06947076, 48.33639315 ], [ 18.06942484, 48.33641364 ], [ 18.06960852, 48.33654259 ], [ 18.06967863, 48.33659179 ], [ 18.06989599, 48.33674449 ], [ 18.07014755, 48.33692106 ], [ 18.07014893, 48.33692195 ], [ 18.07016266, 48.33693171 ], [ 18.07019631, 48.33690065 ] ] ] } },
{ "type": "Feature", "properties": { "@featureType": "CadastralParcel", "areaValue": { "value": 3082, "@uom": "m2" }, "beginLifespanVersion": { "@nilReason": "http://inspire.ec.europa.eu/codelist/VoidReasonValue/Unpopulated", "@nil": "true" }, "endLifespanVersion": { "@nilReason": "http://inspire.ec.europa.eu/codelist/VoidReasonValue/Unpopulated", "@nil": "true" }, "inspireId": { "@dataType": "Identifier", "localId": "840319_4790/5.C", "namespace": "SK.ESKN.CP", "versionId": "20260703T04:07:18" }, "label": "4790/5", "nationalCadastralReference": "840319_4790/5.C", "referencePoint": { "type": "Point", "coordinates": [ 18.06995548, 48.33645868 ] }, "validFrom": "2026-06-30T16:00:00Z", "validTo": { "@nilReason": "http://inspire.ec.europa.eu/codelist/VoidReasonValue/Unpopulated", "@nil": "true" }, "administrativeUnit": { "@href": "#auAdmUnitS.1810" } }, "geometry": { "type": "Polygon", "coordinates": [ [ [ 18.07050152, 48.33660638 ], [ 18.07040655, 48.3365242 ], [ 18.07005002, 48.33613485 ], [ 18.06947076, 48.33639315 ], [ 18.07018465, 48.33689265 ], [ 18.07026371, 48.33683068 ], [ 18.07039669, 48.33670537 ], [ 18.07050152, 48.33660638 ] ] ] } },
{ "type": "Feature", "properties": { "@featureType": "CadastralParcel", "areaValue": { "value": 226, "@uom": "m2" }, "beginLifespanVersion": { "@nilReason": "http://inspire.ec.europa.eu/codelist/VoidReasonValue/Unpopulated", "@nil": "true" }, "endLifespanVersion": { "@nilReason": "http://inspire.ec.europa.eu/codelist/VoidReasonValue/Unpopulated", "@nil": "true" }, "inspireId": { "@dataType": "Identifier", "localId": "840319_4791/2.C", "namespace": "SK.ESKN.CP", "versionId": "20260703T04:07:18" }, "label": "4791/2", "nationalCadastralReference": "840319_4791/2.C", "referencePoint": { "type": "Point", "coordinates": [ 18.07024806, 48.33631924 ] }, "validFrom": "2026-06-30T16:00:00Z", "validTo": { "@nilReason": "http://inspire.ec.europa.eu/codelist/VoidReasonValue/Unpopulated", "@nil": "true" }, "administrativeUnit": { "@href": "#auAdmUnitS.1810" } }, "geometry": { "type": "Polygon", "coordinates": [ [ [ 18.07053309, 48.336591 ], [ 18.07052555, 48.33658351 ], [ 18.07044517, 48.33650364 ], [ 18.0700922, 48.33611603 ], [ 18.07005002, 48.33613485 ], [ 18.07040655, 48.3365242 ], [ 18.07050152, 48.33660638 ], [ 18.07050881, 48.33661267 ], [ 18.07053309, 48.336591 ] ] ] } },
{ "type": "Feature", "properties": { "@featureType": "CadastralParcel", "areaValue": { "value": 1499, "@uom": "m2" }, "beginLifespanVersion": { "@nilReason": "http://inspire.ec.europa.eu/codelist/VoidReasonValue/Unpopulated", "@nil": "true" }, "endLifespanVersion": { "@nilReason": "http://inspire.ec.europa.eu/codelist/VoidReasonValue/Unpopulated", "@nil": "true" }, "inspireId": { "@dataType": "Identifier", "localId": "840319_4794/15.C", "namespace": "SK.ESKN.CP", "versionId": "20260703T04:07:18" }, "label": "4794/15", "nationalCadastralReference": "840319_4794/15.C", "referencePoint": { "type": "Point", "coordinates": [ 18.0704482, 48.33624869 ] }, "validFrom": "2026-06-30T16:00:00Z", "validTo": { "@nilReason": "http://inspire.ec.europa.eu/codelist/VoidReasonValue/Unpopulated", "@nil": "true" }, "administrativeUnit": { "@href": "#auAdmUnitS.1810" } }, "geometry": { "type": "Polygon", "coordinates": [ [ [ 18.07081115, 48.33632266 ], [ 18.07060449, 48.33621682 ], [ 18.07048586, 48.33611807 ], [ 18.07043337, 48.33596383 ], [ 18.07010198, 48.33611173 ], [ 18.07025937, 48.33628057 ], [ 18.07053609, 48.33657456 ], [ 18.07070504, 48.33641904 ], [ 18.07079032, 48.33633578 ], [ 18.07081115, 48.33632266 ] ] ] } },
{ "type": "Feature", "properties": { "@featureType": "CadastralParcel", "areaValue": { "value": 2496, "@uom": "m2" }, "beginLifespanVersion": { "@nilReason": "http://inspire.ec.europa.eu/codelist/VoidReasonValue/Unpopulated", "@nil": "true" }, "endLifespanVersion": { "@nilReason": "http://inspire.ec.europa.eu/codelist/VoidReasonValue/Unpopulated", "@nil": "true" }, "inspireId": { "@dataType": "Identifier", "localId": "840319_4794/14.C", "namespace": "SK.ESKN.CP", "versionId": "20260703T04:07:18" }, "label": "4794/14", "nationalCadastralReference": "840319_4794/14.C", "referencePoint": { "type": "Point", "coordinates": [ 18.07084683, 48.33592955 ] }, "validFrom": "2026-06-30T16:00:00Z", "validTo": { "@nilReason": "http://inspire.ec.europa.eu/codelist/VoidReasonValue/Unpopulated", "@nil": "true" }, "administrativeUnit": { "@href": "#auAdmUnitS.1810" } }, "geometry": { "type": "Polygon", "coordinates": [ [ [ 18.07043337, 48.33596383 ], [ 18.07048586, 48.33611807 ], [ 18.07060449, 48.33621682 ], [ 18.07081115, 48.33632266 ], [ 18.07122987, 48.33588042 ], [ 18.07113984, 48.33557255 ], [ 18.07058724, 48.33589527 ], [ 18.07043337, 48.33596383 ] ] ] } },
{ "type": "Feature", "properties": { "@featureType": "CadastralParcel", "areaValue": { "value": 17, "@uom": "m2" }, "beginLifespanVersion": { "@nilReason": "http://inspire.ec.europa.eu/codelist/VoidReasonValue/Unpopulated", "@nil": "true" }, "endLifespanVersion": { "@nilReason": "http://inspire.ec.europa.eu/codelist/VoidReasonValue/Unpopulated", "@nil": "true" }, "inspireId": { "@dataType": "Identifier", "localId": "840319_4770/9.C", "namespace": "SK.ESKN.CP", "versionId": "20260703T04:07:18" }, "label": "4770/9", "nationalCadastralReference": "840319_4770/9.C", "referencePoint": { "type": "Point", "coordinates": [ 18.07181124, 48.33563137 ] }, "validFrom": "2026-06-30T16:00:00Z", "validTo": { "@nilReason": "http://inspire.ec.europa.eu/codelist/VoidReasonValue/Unpopulated", "@nil": "true" }, "administrativeUnit": { "@href": "#auAdmUnitS.1810" } }, "geometry": { "type": "Polygon", "coordinates": [ [ [ 18.07201144, 48.33543344 ], [ 18.07200426, 48.3354304 ], [ 18.0716161, 48.3358293 ], [ 18.07201144, 48.33543344 ] ] ] } },
{ "type": "Feature", "properties": { "@featureType": "CadastralParcel", "areaValue": { "value": 4298, "@uom": "m2" }, "beginLifespanVersion": { "@nilReason": "http://inspire.ec.europa.eu/codelist/VoidReasonValue/Unpopulated", "@nil": "true" }, "endLifespanVersion": { "@nilReason": "http://inspire.ec.europa.eu/codelist/VoidReasonValue/Unpopulated", "@nil": "true" }, "inspireId": { "@dataType": "Identifier", "localId": "840319_4770/8.C", "namespace": "SK.ESKN.CP", "versionId": "20260703T04:07:18" }, "label": "4770/8", "nationalCadastralReference": "840319_4770/8.C", "referencePoint": { "type": "Point", "coordinates": [ 18.07126565, 48.33603025 ] }, "validFrom": "2026-06-30T16:00:00Z", "validTo": { "@nilReason": "http://inspire.ec.europa.eu/codelist/VoidReasonValue/Unpopulated", "@nil": "true" }, "administrativeUnit": { "@href": "#auAdmUnitS.1810" } }, "geometry": { "type": "Polygon", "coordinates": [ [ [ 18.07193828, 48.33540213 ], [ 18.07187525, 48.33537511 ], [ 18.07184104, 48.33536045 ], [ 18.07177134, 48.3353306 ], [ 18.07138903, 48.33572415 ], [ 18.07091526, 48.3362312 ], [ 18.07089178, 48.33624995 ], [ 18.07083741, 48.33631464 ], [ 18.07056859, 48.33655923 ], [ 18.07053309, 48.336591 ], [ 18.07050881, 48.33661267 ], [ 18.07049376, 48.33662605 ], [ 18.07019631, 48.33690065 ], [ 18.07016266, 48.33693171 ], [ 18.070166, 48.33693407 ], [ 18.07018111, 48.33694471 ], [ 18.07020898, 48.33696424 ], [ 18.07026794, 48.33700564 ], [ 18.0702958, 48.33702526 ], [ 18.07031228, 48.33703679 ], [ 18.07069707, 48.33674388 ], [ 18.07070339, 48.33673712 ], [ 18.07070512, 48.33673533 ], [ 18.07072973, 48.33670906 ], [ 18.07074252, 48.33669537 ], [ 18.070767, 48.33667425 ], [ 18.07103657, 48.33644125 ], [ 18.07107605, 48.33640711 ], [ 18.07114898, 48.33632907 ], [ 18.0716161, 48.3358293 ], [ 18.07200426, 48.3354304 ], [ 18.0719639, 48.33541312 ], [ 18.07193828, 48.33540213 ] ] ] } }
]
}
