{
"type": "FeatureCollection",
"name": "gis",
"crs": { "type": "name", "properties": { "name": "urn:ogc:def:crs:OGC:1.3:CRS84" } },
"features": [
{ "type": "Feature", "properties": { "@featureType": "CadastralParcel", "areaValue": { "value": 36122, "@uom": "m2" }, "beginLifespanVersion": { "@nilReason": "http://inspire.ec.europa.eu/codelist/VoidReasonValue/Unpopulated", "@nil": "true" }, "endLifespanVersion": { "@nilReason": "http://inspire.ec.europa.eu/codelist/VoidReasonValue/Unpopulated", "@nil": "true" }, "inspireId": { "@dataType": "Identifier", "localId": "837075_5290/2.E", "namespace": "SK.ESKN.CP", "versionId": "20261005T07:10:24" }, "label": "5290/2", "nationalCadastralReference": "837075_5290/2.E", "referencePoint": { "type": "Point", "coordinates": [ 21.92556093, 48.77364688 ] }, "validFrom": "2026-09-30T16:00:00Z", "validTo": { "@nilReason": "http://inspire.ec.europa.eu/codelist/VoidReasonValue/Unpopulated", "@nil": "true" }, "administrativeUnit": { "@href": "#auAdmUnitS.2187" } }, "geometry": { "type": "Polygon", "coordinates": [ [ [ 21.9250827, 48.77466083 ], [ 21.92499486, 48.77478453 ], [ 21.92484808, 48.77486986 ], [ 21.924699, 48.77501425 ], [ 21.92460997, 48.77514188 ], [ 21.92492128, 48.7752809 ], [ 21.92526575, 48.77537855 ], [ 21.92564649, 48.77549888 ], [ 21.92643841, 48.77573842 ], [ 21.92638629, 48.77508321 ], [ 21.92626354, 48.77373929 ], [ 21.92621446, 48.77308569 ], [ 21.92612653, 48.77202505 ], [ 21.92610796, 48.77181246 ], [ 21.92605841, 48.77154655 ], [ 21.92599472, 48.77166707 ], [ 21.92593103, 48.7717876 ], [ 21.92588449, 48.77190342 ], [ 21.92583697, 48.77202193 ], [ 21.92577297, 48.77225449 ], [ 21.92565988, 48.77239348 ], [ 21.92538083, 48.7724232 ], [ 21.92529124, 48.77254416 ], [ 21.92520339, 48.7726657 ], [ 21.92502826, 48.77292481 ], [ 21.92490937, 48.7730723 ], [ 21.92480721, 48.77320347 ], [ 21.92475562, 48.77330756 ], [ 21.92480566, 48.77336794 ], [ 21.92485264, 48.77342708 ], [ 21.92487269, 48.77355447 ], [ 21.92484653, 48.77387969 ], [ 21.92482786, 48.77394636 ], [ 21.92482035, 48.77404156 ], [ 21.92481844, 48.77407004 ], [ 21.92490655, 48.77414326 ], [ 21.92501339, 48.77422226 ], [ 21.9249914, 48.77424483 ], [ 21.92491684, 48.77455453 ], [ 21.9250827, 48.77466083 ] ] ] } }
]
}
