{
"type": "FeatureCollection",
"name": "gis",
"crs": { "type": "name", "properties": { "name": "urn:ogc:def:crs:OGC:1.3:CRS84" } },
"features": [
{ "type": "Feature", "properties": { "@featureType": "CadastralParcel", "areaValue": { "value": 1959, "@uom": "m2" }, "beginLifespanVersion": { "@nilReason": "http://inspire.ec.europa.eu/codelist/VoidReasonValue/Unpopulated", "@nil": "true" }, "endLifespanVersion": { "@nilReason": "http://inspire.ec.europa.eu/codelist/VoidReasonValue/Unpopulated", "@nil": "true" }, "inspireId": { "@dataType": "Identifier", "localId": "833398_11559/1.E", "namespace": "SK.ESKN.CP", "versionId": "20261005T09:10:41" }, "label": "11559/1", "nationalCadastralReference": "833398_11559/1.E", "referencePoint": { "type": "Point", "coordinates": [ 17.66792678, 48.85350839 ] }, "validFrom": "2026-09-30T16:00:00Z", "validTo": { "@nilReason": "http://inspire.ec.europa.eu/codelist/VoidReasonValue/Unpopulated", "@nil": "true" }, "administrativeUnit": { "@href": "#auAdmUnitS.1572" } }, "geometry": { "type": "Polygon", "coordinates": [ [ [ 17.66948592, 48.85483086 ], [ 17.66917151, 48.85466738 ], [ 17.66884523, 48.8543796 ], [ 17.66828476, 48.85379674 ], [ 17.66719353, 48.8526763 ], [ 17.66724468, 48.85275254 ], [ 17.66731139, 48.85284827 ], [ 17.66737808, 48.85294707 ], [ 17.66744714, 48.85304746 ], [ 17.66750464, 48.85312907 ], [ 17.66756601, 48.85322005 ], [ 17.66818549, 48.85384984 ], [ 17.66857462, 48.85424404 ], [ 17.668818, 48.85442759 ], [ 17.66918336, 48.85471491 ], [ 17.66948592, 48.85483086 ] ] ] } },
{ "type": "Feature", "properties": { "@featureType": "CadastralParcel", "areaValue": { "value": 202, "@uom": "m2" }, "beginLifespanVersion": { "@nilReason": "http://inspire.ec.europa.eu/codelist/VoidReasonValue/Unpopulated", "@nil": "true" }, "endLifespanVersion": { "@nilReason": "http://inspire.ec.europa.eu/codelist/VoidReasonValue/Unpopulated", "@nil": "true" }, "inspireId": { "@dataType": "Identifier", "localId": "833398_11559/2.E", "namespace": "SK.ESKN.CP", "versionId": "20261005T09:10:41" }, "label": "11559/2", "nationalCadastralReference": "833398_11559/2.E", "referencePoint": { "type": "Point", "coordinates": [ 17.67378078, 48.85671001 ] }, "validFrom": "2026-09-30T16:00:00Z", "validTo": { "@nilReason": "http://inspire.ec.europa.eu/codelist/VoidReasonValue/Unpopulated", "@nil": "true" }, "administrativeUnit": { "@href": "#auAdmUnitS.1572" } }, "geometry": { "type": "Polygon", "coordinates": [ [ [ 17.67425808, 48.85700661 ], [ 17.67429351, 48.85695 ], [ 17.67393975, 48.85678483 ], [ 17.67327938, 48.85643589 ], [ 17.67363279, 48.85663519 ], [ 17.67401719, 48.85685538 ], [ 17.67425808, 48.85700661 ] ] ] } },
{ "type": "Feature", "properties": { "@featureType": "CadastralParcel", "areaValue": { "value": 8039, "@uom": "m2" }, "beginLifespanVersion": { "@nilReason": "http://inspire.ec.europa.eu/codelist/VoidReasonValue/Unpopulated", "@nil": "true" }, "endLifespanVersion": { "@nilReason": "http://inspire.ec.europa.eu/codelist/VoidReasonValue/Unpopulated", "@nil": "true" }, "inspireId": { "@dataType": "Identifier", "localId": "833398_11562/2.E", "namespace": "SK.ESKN.CP", "versionId": "20261005T09:10:41" }, "label": "11562/2", "nationalCadastralReference": "833398_11562/2.E", "referencePoint": { "type": "Point", "coordinates": [ 17.67969937, 48.85611273 ] }, "validFrom": "2026-09-30T16:00:00Z", "validTo": { "@nilReason": "http://inspire.ec.europa.eu/codelist/VoidReasonValue/Unpopulated", "@nil": "true" }, "administrativeUnit": { "@href": "#auAdmUnitS.1572" } }, "geometry": { "type": "Polygon", "coordinates": [ [ [ 17.67740248, 48.85665853 ], [ 17.67760039, 48.85661451 ], [ 17.67871544, 48.85637211 ], [ 17.67957672, 48.85617858 ], [ 17.6800844, 48.85607768 ], [ 17.68049271, 48.85605084 ], [ 17.68090713, 48.85612644 ], [ 17.68123262, 48.8562296 ], [ 17.68154439, 48.85635512 ], [ 17.68185925, 48.85659284 ], [ 17.68191229, 48.85694776 ], [ 17.68195679, 48.85712195 ], [ 17.68198454, 48.85723107 ], [ 17.68221502, 48.85722456 ], [ 17.6822073, 48.85714694 ], [ 17.68218119, 48.85683469 ], [ 17.68225016, 48.85670672 ], [ 17.68280869, 48.85553824 ], [ 17.68290176, 48.85526959 ], [ 17.68291024, 48.85513959 ], [ 17.68273452, 48.85502087 ], [ 17.68274222, 48.85503697 ], [ 17.68274812, 48.85522757 ], [ 17.68263101, 48.85551902 ], [ 17.68251427, 48.85554387 ], [ 17.68208535, 48.85643033 ], [ 17.68215531, 48.85648227 ], [ 17.68209774, 48.85665421 ], [ 17.68206884, 48.85695962 ], [ 17.68203821, 48.85670806 ], [ 17.68194686, 48.85651769 ], [ 17.68160485, 48.85627459 ], [ 17.68127501, 48.85613458 ], [ 17.68094457, 48.85604313 ], [ 17.68048563, 48.85597643 ], [ 17.68006597, 48.85600609 ], [ 17.67955217, 48.85609902 ], [ 17.67868106, 48.8562933 ], [ 17.67755946, 48.85653746 ], [ 17.67742727, 48.85656702 ], [ 17.67740248, 48.85665853 ] ] ] } }
]
}
