{
"type": "FeatureCollection",
"name": "gis",
"crs": { "type": "name", "properties": { "name": "urn:ogc:def:crs:OGC:1.3:CRS84" } },
"features": [
{ "type": "Feature", "properties": { "@featureType": "CadastralZoning", "beginLifespanVersion": { "@nilReason": "http://inspire.ec.europa.eu/codelist/VoidReasonValue/Unpopulated", "@nil": "true" }, "endLifespanVersion": { "@nilReason": "http://inspire.ec.europa.eu/codelist/VoidReasonValue/Unpopulated", "@nil": "true" }, "estimatedAccuracy": { "value": -1, "@uom": "m" }, "inspireId": { "@dataType": "Identifier", "localId": "831191", "namespace": "SK.ESKN.CP", "versionId": "20260703T04:07:40" }, "label": "Lehota pod Vtáčnikom", "level": { "@href": "http://inspire.ec.europa.eu/codelist/CadastralZoningLevelValue/3rdOrder" }, "levelName": { "value": "Katastrálne územie", "@locale": "sk" }, "name": { "@dataType": "name", "GeographicalName": { "@dataType": "GeographicalName", "language": "SLK", "nativeness": { "@href": "http://inspire.ec.europa.eu/codelist/NativenessValue/endonym", "@title": "endonym" }, "nameStatus": { "@href": "http://inspire.ec.europa.eu/codelist/NameStatusValue/official", "@title": "official" }, "sourceOfName": { "@nilReason": "http://inspire.ec.europa.eu/codelist/VoidReasonValue/Unpopulated", "@nil": "true" }, "pronunciation": { "@dataType": "pronunciation", "@nilReason": "http://inspire.ec.europa.eu/codelist/VoidReasonValue/Unpopulated", "@nil": "true" }, "spelling": { "@dataType": "SpellingOfName", "text": "Lehota pod Vtáčnikom", "script": "LATN" } } }, "nationalCadastalZoningReference": "831191", "validFrom": "2026-06-30T16:00:00Z", "validTo": { "@nilReason": "http://inspire.ec.europa.eu/codelist/VoidReasonValue/Unpopulated", "@nil": "true" } }, "geometry": { "type": "MultiPolygon", "coordinates": [ [ [ [ 18.56899924, 48.7211254 ], [ 18.56916038, 48.7210357 ], [ 18.56954811, 48.72080679 ], [ 18.56957357, 48.72079175 ], [ 18.57019597, 48.72042668 ], [ 18.57025215, 48.72039373 ], [ 18.57098685, 48.7199631 ], [ 18.57101082, 48.71994906 ], [ 18.57101734, 48.71992839 ], [ 18.57115209, 48.71949364 ], [ 18.57128204, 48.71908227 ], [ 18.57135426, 48.71887368 ], [ 18.57143148, 48.71860157 ], [ 18.57154724, 48.71820233 ], [ 18.57166589, 48.7178193 ], [ 18.57175639, 48.71752147 ], [ 18.57182113, 48.71730824 ], [ 18.57188919, 48.71711224 ], [ 18.57194215, 48.71695783 ], [ 18.57200821, 48.71673727 ], [ 18.57205379, 48.71658508 ], [ 18.57212487, 48.7163702 ], [ 18.57218038, 48.71615557 ], [ 18.57221445, 48.71602368 ], [ 18.57231134, 48.71565221 ], [ 18.57239237, 48.71548136 ], [ 18.57245061, 48.71529638 ], [ 18.57253021, 48.71511292 ], [ 18.57262671, 48.71493164 ], [ 18.57263395, 48.7149194 ], [ 18.57273462, 48.71474962 ], [ 18.57276301, 48.71470758 ], [ 18.57280576, 48.71464429 ], [ 18.57285252, 48.71457509 ], [ 18.57285649, 48.71457053 ], [ 18.572956, 48.71445636 ], [ 18.57298937, 48.71441811 ], [ 18.57299286, 48.71441415 ], [ 18.57305694, 48.71435148 ], [ 18.57312398, 48.71428582 ], [ 18.57316138, 48.71424922 ], [ 18.5731987, 48.71421651 ], [ 18.57326739, 48.71415626 ], [ 18.57333746, 48.71409482 ], [ 18.57341476, 48.71403873 ], [ 18.57352218, 48.71396082 ], [ 18.57352608, 48.71395796 ], [ 18.57364154, 48.71388229 ], [ 18.57372568, 48.71382721 ], [ 18.57395145, 48.71369869 ], [ 18.5741828, 48.71358464 ], [ 18.57442267, 48.71347655 ], [ 18.57468432, 48.71338977 ], [ 18.57494962, 48.71331311 ], [ 18.57500988, 48.71329887 ], [ 18.57529702, 48.71323079 ], [ 18.57531185, 48.71322663 ], [ 18.57549673, 48.71317503 ], [ 18.57564553, 48.71314827 ], [ 18.57578458, 48.71312323 ], [ 18.57584888, 48.7131204 ], [ 18.57607211, 48.7131104 ], [ 18.57632915, 48.7130618 ], [ 18.57636127, 48.7130557 ], [ 18.57655465, 48.71306429 ], [ 18.57674261, 48.71307258 ], [ 18.57694105, 48.71306999 ], [ 18.57720733, 48.71305365 ], [ 18.57747104, 48.71304819 ], [ 18.57775598, 48.7130639 ], [ 18.57801511, 48.71307777 ], [ 18.57886049, 48.71308118 ], [ 18.57894677, 48.71308586 ], [ 18.57900882, 48.7130737 ], [ 18.57970102, 48.71309299 ], [ 18.57994698, 48.71308881 ], [ 18.58049195, 48.71305048 ], [ 18.58053402, 48.71305872 ], [ 18.58072428, 48.71309583 ], [ 18.58075184, 48.7131012 ], [ 18.58107178, 48.71309417 ], [ 18.58132734, 48.71310495 ], [ 18.5816171, 48.71315007 ], [ 18.58201348, 48.71324156 ], [ 18.58212902, 48.71328861 ], [ 18.58241389, 48.71330711 ], [ 18.58269544, 48.7133635 ], [ 18.58293502, 48.71344397 ], [ 18.58370861, 48.71361888 ], [ 18.58399201, 48.71366689 ], [ 18.58419612, 48.71371115 ], [ 18.584702, 48.71382688 ], [ 18.58491049, 48.71388419 ], [ 18.58586633, 48.7141479 ], [ 18.58651483, 48.71431349 ], [ 18.58674504, 48.71437269 ], [ 18.58697054, 48.71441269 ], [ 18.58718069, 48.71442461 ], [ 18.58759346, 48.71440129 ], [ 18.58785566, 48.7143783 ], [ 18.58808259, 48.71433608 ], [ 18.58832587, 48.71426749 ], [ 18.58857615, 48.7141798 ], [ 18.58880078, 48.71408782 ], [ 18.58899124, 48.71396115 ], [ 18.58916183, 48.7138408 ], [ 18.58935818, 48.71369514 ], [ 18.58946845, 48.71359066 ], [ 18.58955888, 48.71345028 ], [ 18.58965669, 48.71328322 ], [ 18.58967277, 48.71329438 ], [ 18.58970188, 48.71331481 ], [ 18.5897305, 48.71333477 ], [ 18.58974582, 48.71334543 ], [ 18.58975964, 48.71335168 ], [ 18.58980674, 48.71337327 ], [ 18.58988774, 48.71339751 ], [ 18.58998663, 48.71342704 ], [ 18.5900245, 48.71344939 ], [ 18.59009779, 48.71350732 ], [ 18.59013298, 48.71354035 ], [ 18.59005498, 48.71367726 ], [ 18.59009426, 48.71371358 ], [ 18.59031975, 48.71392691 ], [ 18.59059317, 48.71414635 ], [ 18.59098086, 48.71446284 ], [ 18.59118953, 48.71463917 ], [ 18.59157262, 48.71495983 ], [ 18.59158528, 48.71497215 ], [ 18.59185265, 48.71523187 ], [ 18.59185253, 48.71524828 ], [ 18.59157248, 48.71543346 ], [ 18.59132535, 48.71559722 ], [ 18.59106739, 48.71563669 ], [ 18.59092646, 48.71579293 ], [ 18.59089757, 48.71581708 ], [ 18.59079015, 48.71590728 ], [ 18.59068, 48.71599977 ], [ 18.59055991, 48.71606456 ], [ 18.59050044, 48.71609671 ], [ 18.59043294, 48.71613421 ], [ 18.59040073, 48.71615214 ], [ 18.59036353, 48.71617286 ], [ 18.59030731, 48.71621295 ], [ 18.59018079, 48.7163032 ], [ 18.59014716, 48.71638999 ], [ 18.59000736, 48.71646418 ], [ 18.58996184, 48.71648825 ], [ 18.59012361, 48.71660492 ], [ 18.590369, 48.71678197 ], [ 18.59086861, 48.71713537 ], [ 18.59121385, 48.71737963 ], [ 18.59137147, 48.7174912 ], [ 18.59143154, 48.71750501 ], [ 18.5915226, 48.71743242 ], [ 18.59239981, 48.71672713 ], [ 18.59290663, 48.7161709 ], [ 18.59342095, 48.71548433 ], [ 18.5941368, 48.71453931 ], [ 18.59459493, 48.71380503 ], [ 18.59488766, 48.71348491 ], [ 18.59500069, 48.71337011 ], [ 18.59511909, 48.71326696 ], [ 18.59544033, 48.71300641 ], [ 18.59592007, 48.71276732 ], [ 18.59590484, 48.71275486 ], [ 18.59589505, 48.71274684 ], [ 18.59584504, 48.71270245 ], [ 18.59701585, 48.71219446 ], [ 18.59705805, 48.71221271 ], [ 18.59710581, 48.71223343 ], [ 18.59839168, 48.71284377 ], [ 18.59927314, 48.71203616 ], [ 18.59935731, 48.71194298 ], [ 18.60002078, 48.7122691 ], [ 18.60330486, 48.71384975 ], [ 18.60397478, 48.71417151 ], [ 18.60399605, 48.71417148 ], [ 18.60404031, 48.7141708 ], [ 18.60399106, 48.71402503 ], [ 18.60407905, 48.71342405 ], [ 18.60412924, 48.7133377 ], [ 18.60393322, 48.71312049 ], [ 18.60394912, 48.71310321 ], [ 18.60409156, 48.7130748 ], [ 18.60439342, 48.71309047 ], [ 18.60446883, 48.71306602 ], [ 18.60447394, 48.7130644 ], [ 18.60448162, 48.7129125 ], [ 18.604209, 48.71276253 ], [ 18.60415108, 48.71268153 ], [ 18.60460456, 48.71252022 ], [ 18.60462414, 48.71234586 ], [ 18.60455196, 48.71187167 ], [ 18.60478453, 48.71157329 ], [ 18.60494848, 48.71125973 ], [ 18.60498469, 48.71110974 ], [ 18.6050544, 48.71111494 ], [ 18.60511497, 48.71112796 ], [ 18.60542044, 48.71119389 ], [ 18.60549219, 48.71121021 ], [ 18.6055369, 48.7112203 ], [ 18.60555029, 48.71122337 ], [ 18.60725905, 48.71158799 ], [ 18.60727301, 48.71159082 ], [ 18.60669108, 48.71282809 ], [ 18.60668831, 48.71283398 ], [ 18.60651625, 48.71319899 ], [ 18.60659278, 48.71321755 ], [ 18.60866375, 48.71369734 ], [ 18.60910047, 48.71302105 ], [ 18.61103707, 48.71000435 ], [ 18.61123673, 48.70967828 ], [ 18.61126344, 48.70968062 ], [ 18.61130593, 48.70968436 ], [ 18.61214103, 48.70975736 ], [ 18.61256501, 48.70986287 ], [ 18.6125805, 48.70986551 ], [ 18.61259853, 48.70986855 ], [ 18.61261188, 48.7098709 ], [ 18.61290831, 48.70992053 ], [ 18.61356805, 48.71020424 ], [ 18.61367423, 48.71026762 ], [ 18.61171206, 48.71232263 ], [ 18.61092693, 48.71313245 ], [ 18.61090361, 48.71315682 ], [ 18.61086244, 48.71319999 ], [ 18.61088049, 48.71321837 ], [ 18.61089926, 48.71323752 ], [ 18.61098173, 48.71325099 ], [ 18.61111744, 48.71327726 ], [ 18.61124162, 48.71328865 ], [ 18.61130257, 48.71330745 ], [ 18.6113503, 48.713314 ], [ 18.61150436, 48.71326428 ], [ 18.61157456, 48.71325345 ], [ 18.61165589, 48.71324845 ], [ 18.61184688, 48.71311808 ], [ 18.6119702, 48.71305552 ], [ 18.61217849, 48.71300061 ], [ 18.61227055, 48.71294169 ], [ 18.61237987, 48.71292538 ], [ 18.6125637, 48.71303915 ], [ 18.61270065, 48.71303101 ], [ 18.6126874, 48.71296804 ], [ 18.61259659, 48.71286722 ], [ 18.61269334, 48.71279349 ], [ 18.61291278, 48.7128119 ], [ 18.61319996, 48.71270638 ], [ 18.61345021, 48.71251991 ], [ 18.61386046, 48.71238268 ], [ 18.61397102, 48.71228974 ], [ 18.61410373, 48.71223734 ], [ 18.61424156, 48.7121854 ], [ 18.61430921, 48.71220185 ], [ 18.61434614, 48.71220421 ], [ 18.6145202, 48.7120795 ], [ 18.61461743, 48.71193198 ], [ 18.61464868, 48.71190957 ], [ 18.61477204, 48.71198633 ], [ 18.61490771, 48.71188653 ], [ 18.61503442, 48.71185185 ], [ 18.61538819, 48.71196304 ], [ 18.615516, 48.71183296 ], [ 18.61559078, 48.71180252 ], [ 18.61572751, 48.71189028 ], [ 18.61581443, 48.71189082 ], [ 18.61596088, 48.71179205 ], [ 18.61614777, 48.7117968 ], [ 18.61664145, 48.71170835 ], [ 18.61692929, 48.71157633 ], [ 18.61705957, 48.7116124 ], [ 18.61713863, 48.71157813 ], [ 18.61714681, 48.71139856 ], [ 18.61720944, 48.71137712 ], [ 18.6173707, 48.71142957 ], [ 18.61754481, 48.71137416 ], [ 18.61754121, 48.71124042 ], [ 18.61765101, 48.71119021 ], [ 18.6178012, 48.71122952 ], [ 18.61798469, 48.71114989 ], [ 18.61811498, 48.71115033 ], [ 18.61821803, 48.71117717 ], [ 18.61840126, 48.71128377 ], [ 18.61844581, 48.71128842 ], [ 18.61852518, 48.71130822 ], [ 18.61861766, 48.71130462 ], [ 18.61874507, 48.71133621 ], [ 18.61894817, 48.71130339 ], [ 18.61908228, 48.7113227 ], [ 18.61930256, 48.71109355 ], [ 18.61936473, 48.71106812 ], [ 18.62000557, 48.71121424 ], [ 18.62050209, 48.71126227 ], [ 18.62104069, 48.71102679 ], [ 18.62116468, 48.7108023 ], [ 18.62144299, 48.71076431 ], [ 18.62163393, 48.71067949 ], [ 18.62168592, 48.71060036 ], [ 18.62178164, 48.71057591 ], [ 18.62188604, 48.7104331 ], [ 18.62206843, 48.7103812 ], [ 18.62230579, 48.71040796 ], [ 18.62247756, 48.71036596 ], [ 18.62259733, 48.71035652 ], [ 18.62268526, 48.71033112 ], [ 18.62264914, 48.71026114 ], [ 18.62304902, 48.71015688 ], [ 18.62326429, 48.71008157 ], [ 18.62342507, 48.71019552 ], [ 18.62348924, 48.71030247 ], [ 18.62372321, 48.71030126 ], [ 18.62394993, 48.71026699 ], [ 18.62435993, 48.71006925 ], [ 18.62499052, 48.70993589 ], [ 18.62505199, 48.71002816 ], [ 18.62527624, 48.71012604 ], [ 18.62543732, 48.71005006 ], [ 18.62574327, 48.71008998 ], [ 18.62580391, 48.7100281 ], [ 18.62586187, 48.70996806 ], [ 18.62609179, 48.70983768 ], [ 18.62629369, 48.70983455 ], [ 18.62657199, 48.70975433 ], [ 18.62656865, 48.70967051 ], [ 18.6267701, 48.70965103 ], [ 18.62694551, 48.70968257 ], [ 18.62696509, 48.70962966 ], [ 18.62710054, 48.70961358 ], [ 18.62715656, 48.70953042 ], [ 18.6273481, 48.70951618 ], [ 18.6279758, 48.70933961 ], [ 18.62809038, 48.70934803 ], [ 18.6282246, 48.70931753 ], [ 18.62843249, 48.70924994 ], [ 18.62870196, 48.70938263 ], [ 18.62877912, 48.70933832 ], [ 18.62916006, 48.70930259 ], [ 18.62951191, 48.70928623 ], [ 18.62972937, 48.70930289 ], [ 18.63003298, 48.70926299 ], [ 18.63010786, 48.70925719 ], [ 18.63019888, 48.70925766 ], [ 18.63043596, 48.70925885 ], [ 18.63066378, 48.70937324 ], [ 18.63087026, 48.70932046 ], [ 18.63101102, 48.70928444 ], [ 18.63133881, 48.70930856 ], [ 18.63147634, 48.70923104 ], [ 18.63194463, 48.70932018 ], [ 18.63255981, 48.70923432 ], [ 18.63295887, 48.70931766 ], [ 18.63311467, 48.70927018 ], [ 18.63329318, 48.70922311 ], [ 18.633351, 48.70914519 ], [ 18.63337135, 48.70911488 ], [ 18.63338708, 48.70909894 ], [ 18.63395131, 48.70893716 ], [ 18.63403482, 48.70891322 ], [ 18.63428028, 48.70888608 ], [ 18.63443642, 48.70884024 ], [ 18.63457677, 48.70883415 ], [ 18.63464297, 48.7088313 ], [ 18.63478425, 48.70867982 ], [ 18.63479799, 48.70860115 ], [ 18.63480925, 48.70853706 ], [ 18.63494939, 48.70847493 ], [ 18.6351559, 48.70838298 ], [ 18.63533758, 48.70830224 ], [ 18.63559179, 48.70818921 ], [ 18.63559775, 48.70818177 ], [ 18.63560961, 48.70809281 ], [ 18.63560901, 48.70800544 ], [ 18.63560156, 48.70797725 ], [ 18.63559011, 48.70793386 ], [ 18.63559215, 48.70788615 ], [ 18.63563184, 48.70774815 ], [ 18.63574164, 48.70769874 ], [ 18.63574063, 48.70765917 ], [ 18.63586076, 48.7075901 ], [ 18.63601486, 48.70729285 ], [ 18.63607783, 48.70728072 ], [ 18.63613452, 48.70726978 ], [ 18.63618173, 48.70725174 ], [ 18.63628581, 48.7071856 ], [ 18.63632381, 48.70716147 ], [ 18.63636668, 48.70713427 ], [ 18.63643315, 48.70694456 ], [ 18.63648261, 48.70687702 ], [ 18.63651127, 48.70683778 ], [ 18.63652516, 48.70677121 ], [ 18.63653325, 48.70673194 ], [ 18.63650816, 48.70661077 ], [ 18.63662864, 48.70656879 ], [ 18.63662056, 48.70653353 ], [ 18.63668824, 48.70649078 ], [ 18.63670612, 48.70647947 ], [ 18.63677187, 48.70643798 ], [ 18.63685648, 48.70621379 ], [ 18.63716769, 48.70538884 ], [ 18.63718117, 48.70535446 ], [ 18.63719796, 48.70531205 ], [ 18.63720884, 48.70528448 ], [ 18.63725506, 48.70516651 ], [ 18.63730227, 48.70506059 ], [ 18.63733827, 48.70497482 ], [ 18.63740365, 48.70476512 ], [ 18.63752939, 48.7045823 ], [ 18.63763251, 48.70447947 ], [ 18.6376409, 48.70447108 ], [ 18.63767016, 48.70443818 ], [ 18.63766508, 48.70443069 ], [ 18.6376169, 48.70435998 ], [ 18.63767346, 48.70426331 ], [ 18.63776254, 48.70398252 ], [ 18.63795532, 48.70390453 ], [ 18.63801811, 48.70385043 ], [ 18.63810913, 48.70377185 ], [ 18.63815158, 48.70374472 ], [ 18.63818016, 48.70373064 ], [ 18.63823458, 48.7037037 ], [ 18.63827505, 48.7036816 ], [ 18.63849806, 48.70356039 ], [ 18.6385407, 48.70352064 ], [ 18.63856601, 48.70349763 ], [ 18.63872403, 48.70335507 ], [ 18.63892884, 48.70329226 ], [ 18.6391266, 48.70326255 ], [ 18.63917743, 48.7032549 ], [ 18.6393933, 48.70314305 ], [ 18.63952048, 48.70305965 ], [ 18.63953783, 48.70304822 ], [ 18.63974047, 48.70291527 ], [ 18.63979752, 48.70286239 ], [ 18.64005267, 48.70268579 ], [ 18.64019425, 48.70250039 ], [ 18.6402324, 48.7023726 ], [ 18.64023193, 48.70226854 ], [ 18.64020149, 48.70212868 ], [ 18.64018964, 48.70212858 ], [ 18.64026304, 48.70190668 ], [ 18.64031384, 48.70191148 ], [ 18.64035748, 48.70188242 ], [ 18.64043126, 48.70180869 ], [ 18.64046915, 48.70174314 ], [ 18.6406529, 48.70163634 ], [ 18.64070487, 48.70155594 ], [ 18.64072516, 48.70149152 ], [ 18.6407428, 48.70131309 ], [ 18.64066799, 48.70111815 ], [ 18.64078953, 48.7009739 ], [ 18.64097822, 48.70085238 ], [ 18.64119368, 48.70074593 ], [ 18.6416378, 48.70059445 ], [ 18.64197683, 48.70051745 ], [ 18.64220511, 48.70044994 ], [ 18.64241201, 48.70033318 ], [ 18.64277243, 48.7002696 ], [ 18.64309039, 48.70022441 ], [ 18.64333158, 48.70015163 ], [ 18.64351487, 48.69989709 ], [ 18.64365086, 48.69982733 ], [ 18.64382911, 48.69975641 ], [ 18.64391908, 48.69975303 ], [ 18.64397952, 48.69972694 ], [ 18.64400471, 48.69971602 ], [ 18.64411624, 48.69963674 ], [ 18.64432304, 48.69922358 ], [ 18.64442782, 48.69911921 ], [ 18.64446919, 48.69899844 ], [ 18.64447685, 48.69897594 ], [ 18.64449655, 48.69891853 ], [ 18.6445575, 48.69874025 ], [ 18.64480923, 48.69836298 ], [ 18.64511158, 48.69789962 ], [ 18.64513286, 48.69786052 ], [ 18.64511829, 48.69750965 ], [ 18.64516248, 48.69746483 ], [ 18.64544684, 48.69717619 ], [ 18.64546768, 48.69705271 ], [ 18.64546984, 48.69684123 ], [ 18.64557965, 48.69664564 ], [ 18.64614676, 48.69663482 ], [ 18.64625616, 48.69658845 ], [ 18.64636704, 48.6964854 ], [ 18.64643172, 48.69636345 ], [ 18.64659241, 48.6964069 ], [ 18.64679969, 48.69605854 ], [ 18.64661268, 48.69573343 ], [ 18.64663835, 48.6956139 ], [ 18.6470969, 48.69507663 ], [ 18.64814387, 48.6949322 ], [ 18.64906675, 48.69489749 ], [ 18.64926893, 48.69492827 ], [ 18.64982864, 48.6950134 ], [ 18.65054882, 48.69514269 ], [ 18.65071407, 48.69526144 ], [ 18.65089803, 48.69536207 ], [ 18.65117014, 48.69543512 ], [ 18.6514202, 48.69559596 ], [ 18.65151377, 48.69564329 ], [ 18.6516026, 48.6956882 ], [ 18.65186363, 48.69578276 ], [ 18.65201826, 48.69581009 ], [ 18.65204027, 48.69581398 ], [ 18.65219654, 48.69581784 ], [ 18.65236881, 48.69583465 ], [ 18.65242127, 48.69587039 ], [ 18.65264596, 48.69592448 ], [ 18.65307607, 48.69594933 ], [ 18.65321351, 48.69595119 ], [ 18.65342335, 48.69592823 ], [ 18.65366782, 48.6957089 ], [ 18.65415793, 48.69580716 ], [ 18.65448372, 48.69583246 ], [ 18.65508309, 48.69579725 ], [ 18.6557145, 48.69578325 ], [ 18.65604498, 48.69576792 ], [ 18.65623416, 48.6956474 ], [ 18.65722484, 48.69500524 ], [ 18.65744033, 48.69466155 ], [ 18.65826799, 48.69431265 ], [ 18.65844654, 48.69425453 ], [ 18.6589999, 48.69406472 ], [ 18.65950106, 48.69374534 ], [ 18.66009737, 48.69337664 ], [ 18.66058424, 48.69314302 ], [ 18.66093959, 48.6929953 ], [ 18.66113812, 48.69292526 ], [ 18.66167791, 48.69265657 ], [ 18.66192266, 48.69246467 ], [ 18.66234148, 48.69222785 ], [ 18.66277655, 48.69197846 ], [ 18.66384489, 48.69147367 ], [ 18.66438428, 48.69125484 ], [ 18.66490034, 48.69104857 ], [ 18.66495325, 48.69102704 ], [ 18.66539053, 48.69084876 ], [ 18.66587904, 48.69054754 ], [ 18.66626713, 48.69031096 ], [ 18.66648196, 48.69016753 ], [ 18.66678801, 48.68996888 ], [ 18.66716142, 48.68969958 ], [ 18.66723712, 48.68955709 ], [ 18.66739042, 48.68940631 ], [ 18.66779982, 48.68887303 ], [ 18.66838452, 48.68869134 ], [ 18.66877427, 48.68855608 ], [ 18.66902493, 48.68844055 ], [ 18.6694845, 48.68824558 ], [ 18.66986139, 48.68805586 ], [ 18.67017116, 48.68779632 ], [ 18.67065929, 48.68713216 ], [ 18.67069326, 48.68708598 ], [ 18.67084712, 48.68692935 ], [ 18.67088229, 48.68688233 ], [ 18.67107571, 48.68672863 ], [ 18.67127648, 48.68661872 ], [ 18.67182915, 48.68629691 ], [ 18.67205336, 48.68614783 ], [ 18.6723561, 48.68601729 ], [ 18.67271959, 48.68578191 ], [ 18.6732939, 48.68549598 ], [ 18.67353771, 48.68542978 ], [ 18.67392172, 48.68540392 ], [ 18.67420355, 48.68534543 ], [ 18.67443818, 48.68531989 ], [ 18.67452579, 48.68530093 ], [ 18.67465815, 48.68524123 ], [ 18.67506527, 48.68512302 ], [ 18.67573277, 48.68495115 ], [ 18.67643097, 48.68475095 ], [ 18.67672231, 48.68469712 ], [ 18.67697435, 48.68477481 ], [ 18.67764318, 48.68511133 ], [ 18.6778244, 48.68524236 ], [ 18.67793643, 48.68530157 ], [ 18.67815747, 48.68538085 ], [ 18.6785454, 48.68555675 ], [ 18.67874958, 48.68558767 ], [ 18.67918543, 48.68551313 ], [ 18.67938498, 48.68554408 ], [ 18.67975942, 48.68551506 ], [ 18.68006782, 48.68552376 ], [ 18.68025746, 48.68550618 ], [ 18.68067506, 48.68551781 ], [ 18.68116888, 48.68559179 ], [ 18.68182861, 48.68564043 ], [ 18.68223921, 48.68566928 ], [ 18.68258082, 48.68568731 ], [ 18.683053, 48.68570501 ], [ 18.6834376, 48.68576052 ], [ 18.68419451, 48.68580576 ], [ 18.68469635, 48.68581826 ], [ 18.68443516, 48.68566899 ], [ 18.68368339, 48.68540786 ], [ 18.68252357, 48.68547683 ], [ 18.68127711, 48.68519381 ], [ 18.68079746, 48.68499228 ], [ 18.67997059, 48.6845647 ], [ 18.67933897, 48.68443626 ], [ 18.67817924, 48.68411271 ], [ 18.67796764, 48.68394804 ], [ 18.67717848, 48.68349087 ], [ 18.67691742, 48.68322881 ], [ 18.67654555, 48.68275783 ], [ 18.6765249, 48.68253567 ], [ 18.67591044, 48.68176301 ], [ 18.67602854, 48.680849 ], [ 18.67589479, 48.68054863 ], [ 18.67616771, 48.68026545 ], [ 18.67569019, 48.67987905 ], [ 18.67517501, 48.67924251 ], [ 18.67478702, 48.67868043 ], [ 18.67433791, 48.67834065 ], [ 18.67414065, 48.67794665 ], [ 18.67447469, 48.67716147 ], [ 18.67501963, 48.67665824 ], [ 18.67519439, 48.67595027 ], [ 18.6752815, 48.67573838 ], [ 18.67538835, 48.67497265 ], [ 18.67574361, 48.67416957 ], [ 18.67575488, 48.67414409 ], [ 18.67539602, 48.67420469 ], [ 18.67510813, 48.67428766 ], [ 18.67490556, 48.67434577 ], [ 18.67451435, 48.67442584 ], [ 18.67436642, 48.67449166 ], [ 18.67422794, 48.67451791 ], [ 18.67406723, 48.67456563 ], [ 18.67395812, 48.67461249 ], [ 18.67384667, 48.67463496 ], [ 18.67371907, 48.67469266 ], [ 18.67351754, 48.67478132 ], [ 18.67330184, 48.67488908 ], [ 18.67306977, 48.67500588 ], [ 18.67279627, 48.67520331 ], [ 18.67266292, 48.67535742 ], [ 18.67215538, 48.67575824 ], [ 18.67210075, 48.67584988 ], [ 18.67209481, 48.67585841 ], [ 18.67204236, 48.67593329 ], [ 18.67180863, 48.67616766 ], [ 18.67153733, 48.67631341 ], [ 18.67127485, 48.67650979 ], [ 18.67105815, 48.6766211 ], [ 18.67063608, 48.67677647 ], [ 18.67043954, 48.67679385 ], [ 18.67021435, 48.6768161 ], [ 18.66964191, 48.67695089 ], [ 18.66928904, 48.67704147 ], [ 18.66922701, 48.67705737 ], [ 18.66911775, 48.67708194 ], [ 18.66902421, 48.67713956 ], [ 18.66887281, 48.67735893 ], [ 18.66878773, 48.67750812 ], [ 18.6686623, 48.6776105 ], [ 18.66858724, 48.67764177 ], [ 18.66845524, 48.67770527 ], [ 18.66803445, 48.67811487 ], [ 18.66776385, 48.67826696 ], [ 18.66760926, 48.67834477 ], [ 18.66728325, 48.67861941 ], [ 18.66724019, 48.67868992 ], [ 18.66715647, 48.67873507 ], [ 18.66712803, 48.67873589 ], [ 18.66640469, 48.67875604 ], [ 18.66620249, 48.67870688 ], [ 18.66599419, 48.6786989 ], [ 18.66580312, 48.67872495 ], [ 18.66558074, 48.67868942 ], [ 18.66526538, 48.67866777 ], [ 18.66501575, 48.67860867 ], [ 18.66446542, 48.67841565 ], [ 18.664006, 48.67806932 ], [ 18.66365748, 48.6777734 ], [ 18.66336459, 48.67756193 ], [ 18.66293927, 48.67736395 ], [ 18.66272183, 48.67727454 ], [ 18.66249361, 48.67719646 ], [ 18.66238801, 48.67717646 ], [ 18.66225374, 48.67713463 ], [ 18.66190587, 48.67706233 ], [ 18.66131797, 48.6770277 ], [ 18.66112236, 48.67705197 ], [ 18.66067131, 48.67716984 ], [ 18.66052384, 48.67720156 ], [ 18.66014319, 48.67728061 ], [ 18.6599897, 48.67729134 ], [ 18.65985458, 48.6773267 ], [ 18.65977921, 48.67735596 ], [ 18.65972228, 48.67737808 ], [ 18.65953857, 48.6774656 ], [ 18.65936341, 48.67749304 ], [ 18.65923079, 48.67752699 ], [ 18.65909068, 48.67758427 ], [ 18.65900257, 48.6776364 ], [ 18.65889785, 48.67768285 ], [ 18.65869662, 48.67777313 ], [ 18.65864312, 48.67780185 ], [ 18.65857343, 48.67784702 ], [ 18.65842633, 48.67800399 ], [ 18.65832645, 48.67807877 ], [ 18.65813706, 48.67819043 ], [ 18.6581074, 48.67821907 ], [ 18.6576837, 48.6786283 ], [ 18.65764604, 48.67871687 ], [ 18.65756197, 48.67892333 ], [ 18.65745049, 48.67906641 ], [ 18.65720956, 48.67949175 ], [ 18.65714702, 48.67962347 ], [ 18.65691792, 48.67977902 ], [ 18.65683194, 48.67993412 ], [ 18.65671934, 48.68004611 ], [ 18.65651339, 48.68015824 ], [ 18.65645405, 48.68022355 ], [ 18.65635039, 48.68028242 ], [ 18.65627225, 48.68040897 ], [ 18.65621392, 48.6804682 ], [ 18.65610144, 48.6806004 ], [ 18.65592141, 48.68073124 ], [ 18.65579681, 48.68085558 ], [ 18.6557141, 48.68101618 ], [ 18.65569396, 48.68119113 ], [ 18.65550065, 48.68142945 ], [ 18.65520829, 48.68165217 ], [ 18.65510333, 48.68178189 ], [ 18.65483362, 48.68202324 ], [ 18.65464686, 48.68229492 ], [ 18.65457158, 48.68251285 ], [ 18.65431144, 48.68279071 ], [ 18.65414513, 48.68292734 ], [ 18.65397111, 48.68308692 ], [ 18.65377689, 48.68319652 ], [ 18.65339424, 48.68344761 ], [ 18.65326701, 48.68350972 ], [ 18.65319548, 48.68355091 ], [ 18.65307583, 48.68361677 ], [ 18.65295416, 48.6837003 ], [ 18.65275296, 48.68383361 ], [ 18.65263044, 48.68395968 ], [ 18.65251557, 48.68407786 ], [ 18.65227955, 48.68448036 ], [ 18.65221056, 48.68458881 ], [ 18.65208292, 48.68468664 ], [ 18.65195921, 48.68485478 ], [ 18.65195501, 48.68500614 ], [ 18.65199122, 48.68517699 ], [ 18.65203983, 48.68530438 ], [ 18.65207747, 48.68554162 ], [ 18.65220275, 48.68580098 ], [ 18.65216786, 48.68625251 ], [ 18.65205319, 48.68644027 ], [ 18.65205272, 48.68667709 ], [ 18.65193706, 48.68690982 ], [ 18.65202352, 48.68724704 ], [ 18.65198893, 48.68745199 ], [ 18.65200515, 48.68760471 ], [ 18.65205859, 48.68773832 ], [ 18.65221246, 48.68788082 ], [ 18.65223408, 48.6880351 ], [ 18.65232922, 48.68817653 ], [ 18.65228263, 48.68839708 ], [ 18.65204485, 48.68856299 ], [ 18.6518813, 48.68863002 ], [ 18.65167294, 48.68863221 ], [ 18.65144019, 48.68867441 ], [ 18.65123453, 48.68874811 ], [ 18.65100821, 48.68882919 ], [ 18.65089958, 48.68892072 ], [ 18.65083, 48.68906848 ], [ 18.65080859, 48.68911317 ], [ 18.65072591, 48.68917632 ], [ 18.65065217, 48.6892266 ], [ 18.65052191, 48.68922864 ], [ 18.65029608, 48.68919316 ], [ 18.65007709, 48.68912061 ], [ 18.65007958, 48.68910026 ], [ 18.64992196, 48.68898615 ], [ 18.64966535, 48.6891376 ], [ 18.64963176, 48.68916711 ], [ 18.64877147, 48.68951105 ], [ 18.64870228, 48.68959206 ], [ 18.64868906, 48.68964107 ], [ 18.64861695, 48.68970361 ], [ 18.64852256, 48.68971768 ], [ 18.64844642, 48.6897062 ], [ 18.64828036, 48.68974575 ], [ 18.64818133, 48.68973872 ], [ 18.64802366, 48.68968967 ], [ 18.6478858, 48.68968137 ], [ 18.64780219, 48.68968302 ], [ 18.64778391, 48.68968547 ], [ 18.64765737, 48.68970052 ], [ 18.64731854, 48.69022318 ], [ 18.64634477, 48.6901087 ], [ 18.64629472, 48.69012235 ], [ 18.64516927, 48.69042885 ], [ 18.64467156, 48.69064152 ], [ 18.64450086, 48.69071447 ], [ 18.64381892, 48.69100587 ], [ 18.64085935, 48.69103145 ], [ 18.63932493, 48.69104461 ], [ 18.63804644, 48.69105563 ], [ 18.63689975, 48.69202735 ], [ 18.63395885, 48.69356945 ], [ 18.63386431, 48.69361905 ], [ 18.63367976, 48.69371578 ], [ 18.63322949, 48.69340537 ], [ 18.63128972, 48.69238245 ], [ 18.63123788, 48.69235512 ], [ 18.6308781, 48.6923615 ], [ 18.63025523, 48.69228613 ], [ 18.63016399, 48.6919545 ], [ 18.62976933, 48.69149548 ], [ 18.62950178, 48.69100918 ], [ 18.62948685, 48.69098203 ], [ 18.62948172, 48.69097273 ], [ 18.62947169, 48.6909545 ], [ 18.62938766, 48.69080183 ], [ 18.62935379, 48.69075687 ], [ 18.62918942, 48.69055593 ], [ 18.62918684, 48.69049696 ], [ 18.62913772, 48.69036754 ], [ 18.62886025, 48.6903186 ], [ 18.62861725, 48.69025978 ], [ 18.62832749, 48.69024654 ], [ 18.628215, 48.69004045 ], [ 18.62796071, 48.69025018 ], [ 18.62743495, 48.69068406 ], [ 18.62688667, 48.69052083 ], [ 18.62684593, 48.69050854 ], [ 18.62681025, 48.69049949 ], [ 18.62678288, 48.6904926 ], [ 18.62674946, 48.69048512 ], [ 18.62633828, 48.69052173 ], [ 18.6261349, 48.69044546 ], [ 18.62595971, 48.69032496 ], [ 18.62567726, 48.69030777 ], [ 18.62541595, 48.69031924 ], [ 18.62534621, 48.69039778 ], [ 18.62526261, 48.69042928 ], [ 18.62516029, 48.69044462 ], [ 18.62505357, 48.69044023 ], [ 18.62501313, 48.69042434 ], [ 18.62480321, 48.69044245 ], [ 18.62455012, 48.6904347 ], [ 18.62433685, 48.69039904 ], [ 18.62357051, 48.69060213 ], [ 18.623315, 48.69057746 ], [ 18.62339274, 48.6907501 ], [ 18.62331046, 48.6908674 ], [ 18.62328188, 48.69090818 ], [ 18.62315137, 48.69121615 ], [ 18.62262856, 48.6911363 ], [ 18.62241164, 48.69121025 ], [ 18.62233758, 48.69126834 ], [ 18.62218093, 48.69134978 ], [ 18.62187591, 48.69150849 ], [ 18.62145158, 48.69177186 ], [ 18.62109358, 48.69192907 ], [ 18.62072067, 48.69182273 ], [ 18.62067323, 48.69180835 ], [ 18.6205216, 48.69179233 ], [ 18.62030562, 48.69187518 ], [ 18.62001951, 48.69192978 ], [ 18.61999995, 48.69191484 ], [ 18.61927251, 48.69135862 ], [ 18.617138, 48.68970425 ], [ 18.61711816, 48.68968938 ], [ 18.61495808, 48.6879559 ], [ 18.61492671, 48.68793065 ], [ 18.61491409, 48.68792023 ], [ 18.61480289, 48.68782824 ], [ 18.6150842, 48.687377 ], [ 18.61512769, 48.68730706 ], [ 18.61516724, 48.68724369 ], [ 18.61505425, 48.68700886 ], [ 18.61471849, 48.68704959 ], [ 18.61453221, 48.68709053 ], [ 18.61435845, 48.6871426 ], [ 18.61413575, 48.68725241 ], [ 18.61411606, 48.68723745 ], [ 18.61406321, 48.68719734 ], [ 18.61402409, 48.68716753 ], [ 18.61224938, 48.68581578 ], [ 18.61312711, 48.68500284 ], [ 18.61385045, 48.68450984 ], [ 18.61389252, 48.68448026 ], [ 18.61417159, 48.68428425 ], [ 18.61518779, 48.6834951 ], [ 18.61684125, 48.68219845 ], [ 18.61701547, 48.68208368 ], [ 18.61704753, 48.68206231 ], [ 18.61717488, 48.68198408 ], [ 18.61766976, 48.68171281 ], [ 18.61789587, 48.68142858 ], [ 18.61800086, 48.68140257 ], [ 18.6184407, 48.68121089 ], [ 18.61872557, 48.68110271 ], [ 18.61882965, 48.6810641 ], [ 18.6191174, 48.68092351 ], [ 18.61938165, 48.68086005 ], [ 18.61978549, 48.6807461 ], [ 18.61984868, 48.68076746 ], [ 18.61995218, 48.68080237 ], [ 18.62057285, 48.68072473 ], [ 18.62070519, 48.68068782 ], [ 18.62102767, 48.68064501 ], [ 18.62131536, 48.68063578 ], [ 18.62166603, 48.68063518 ], [ 18.62201274, 48.68063355 ], [ 18.62254733, 48.68065431 ], [ 18.62266775, 48.68067235 ], [ 18.6228138, 48.68065143 ], [ 18.62299342, 48.68061463 ], [ 18.62301424, 48.68060483 ], [ 18.62338833, 48.680428 ], [ 18.62355339, 48.68034215 ], [ 18.62364225, 48.68024876 ], [ 18.6239228, 48.68011345 ], [ 18.62414782, 48.67997425 ], [ 18.62429304, 48.67989797 ], [ 18.62436518, 48.67983201 ], [ 18.62456986, 48.67973863 ], [ 18.62464664, 48.67965596 ], [ 18.62504532, 48.67939518 ], [ 18.62526486, 48.67931054 ], [ 18.62541328, 48.67915485 ], [ 18.62550946, 48.67908839 ], [ 18.62574227, 48.67906997 ], [ 18.62593113, 48.6788135 ], [ 18.62604122, 48.67873028 ], [ 18.62614465, 48.67872349 ], [ 18.62624056, 48.67877909 ], [ 18.62647363, 48.67881293 ], [ 18.62668284, 48.67874803 ], [ 18.62683834, 48.67870777 ], [ 18.62712298, 48.67864783 ], [ 18.62735959, 48.67869603 ], [ 18.62743933, 48.67875247 ], [ 18.62759494, 48.67877682 ], [ 18.62801689, 48.67857828 ], [ 18.62856682, 48.67840611 ], [ 18.62827156, 48.67817845 ], [ 18.62798008, 48.67800107 ], [ 18.6279893, 48.67774604 ], [ 18.62810718, 48.67751706 ], [ 18.62830907, 48.67731082 ], [ 18.62837245, 48.67736612 ], [ 18.62852261, 48.67733495 ], [ 18.62880664, 48.67720099 ], [ 18.62907717, 48.67702046 ], [ 18.6291476, 48.67701613 ], [ 18.62934292, 48.67695337 ], [ 18.62942684, 48.67690456 ], [ 18.62949212, 48.67686882 ], [ 18.62971654, 48.67679094 ], [ 18.62984105, 48.67674783 ], [ 18.6299771, 48.67669613 ], [ 18.63081527, 48.6764542 ], [ 18.63117963, 48.6761606 ], [ 18.63159309, 48.67589437 ], [ 18.63190589, 48.67586229 ], [ 18.63232667, 48.67583412 ], [ 18.63283642, 48.67576922 ], [ 18.63290886, 48.67573288 ], [ 18.63297758, 48.67564354 ], [ 18.63295669, 48.67550725 ], [ 18.63282814, 48.67530671 ], [ 18.63272816, 48.67500312 ], [ 18.63269274, 48.67495195 ], [ 18.63266195, 48.67490752 ], [ 18.63255268, 48.67484417 ], [ 18.63115614, 48.67465681 ], [ 18.63090977, 48.67433389 ], [ 18.63085817, 48.67396586 ], [ 18.63093385, 48.67369093 ], [ 18.63102816, 48.67356291 ], [ 18.63109663, 48.67353448 ], [ 18.63110323, 48.67341067 ], [ 18.63127901, 48.67312489 ], [ 18.63115596, 48.67300738 ], [ 18.63126508, 48.67295631 ], [ 18.63123934, 48.67289402 ], [ 18.6312293, 48.67287147 ], [ 18.6312187, 48.67285122 ], [ 18.63126228, 48.67236028 ], [ 18.63104327, 48.67204983 ], [ 18.63101836, 48.67177419 ], [ 18.63112293, 48.67134472 ], [ 18.63132294, 48.67113008 ], [ 18.63154551, 48.67092487 ], [ 18.63147278, 48.67067363 ], [ 18.63090319, 48.67004593 ], [ 18.63026396, 48.66937198 ], [ 18.62999626, 48.66907768 ], [ 18.62949629, 48.66848025 ], [ 18.62813732, 48.66765612 ], [ 18.6281214, 48.66765707 ], [ 18.62801966, 48.66757246 ], [ 18.62789213, 48.66753717 ], [ 18.62778194, 48.66742603 ], [ 18.62761812, 48.66741333 ], [ 18.62734298, 48.66731867 ], [ 18.62732415, 48.6672923 ], [ 18.62727945, 48.66707261 ], [ 18.62723581, 48.66690974 ], [ 18.6272001, 48.66670119 ], [ 18.62726621, 48.66659539 ], [ 18.62731299, 48.66653492 ], [ 18.62741369, 48.66646699 ], [ 18.62751113, 48.66640781 ], [ 18.62766816, 48.66633586 ], [ 18.6277819, 48.66620826 ], [ 18.62782281, 48.66610345 ], [ 18.62796888, 48.66598769 ], [ 18.62808546, 48.66587568 ], [ 18.62809222, 48.66585393 ], [ 18.62812508, 48.66571043 ], [ 18.62814505, 48.66567307 ], [ 18.62817804, 48.66564515 ], [ 18.62833026, 48.66553912 ], [ 18.62840118, 48.66527305 ], [ 18.62848254, 48.66520389 ], [ 18.62858269, 48.66514919 ], [ 18.62861071, 48.66511063 ], [ 18.62862152, 48.66508694 ], [ 18.62864131, 48.66500887 ], [ 18.62867598, 48.66492168 ], [ 18.62875505, 48.66485339 ], [ 18.62882191, 48.66482252 ], [ 18.62889608, 48.66477201 ], [ 18.62893997, 48.66470174 ], [ 18.62895985, 48.66459525 ], [ 18.62897744, 48.6645251 ], [ 18.6291327, 48.66438096 ], [ 18.62919827, 48.66430608 ], [ 18.62925794, 48.66416167 ], [ 18.62930481, 48.66393834 ], [ 18.62945558, 48.66385298 ], [ 18.62959129, 48.66363822 ], [ 18.62978673, 48.66353631 ], [ 18.62997853, 48.66345397 ], [ 18.63000373, 48.66336292 ], [ 18.63010066, 48.66327782 ], [ 18.63014865, 48.66308532 ], [ 18.63017165, 48.66292775 ], [ 18.63020322, 48.66284797 ], [ 18.63034476, 48.66268343 ], [ 18.63039356, 48.66262542 ], [ 18.63046861, 48.66251098 ], [ 18.63058618, 48.66240307 ], [ 18.630826, 48.66234343 ], [ 18.63097031, 48.6622218 ], [ 18.6310671, 48.66203004 ], [ 18.63120477, 48.66192258 ], [ 18.63132061, 48.66184878 ], [ 18.63149523, 48.66177651 ], [ 18.6316392, 48.66157104 ], [ 18.63174808, 48.66140501 ], [ 18.63178271, 48.66136807 ], [ 18.6320382, 48.66128392 ], [ 18.63214733, 48.66123926 ], [ 18.63227912, 48.66116866 ], [ 18.63244294, 48.6611467 ], [ 18.63250237, 48.66112409 ], [ 18.63258969, 48.66110623 ], [ 18.63273593, 48.66103433 ], [ 18.63291399, 48.66086516 ], [ 18.63301733, 48.66082434 ], [ 18.63310679, 48.66077565 ], [ 18.63319112, 48.66072776 ], [ 18.633268, 48.66069499 ], [ 18.63376487, 48.66066947 ], [ 18.63387952, 48.66061193 ], [ 18.63408425, 48.66058297 ], [ 18.63426541, 48.6605106 ], [ 18.63443199, 48.66043501 ], [ 18.63461539, 48.66040111 ], [ 18.63482486, 48.66033559 ], [ 18.63488313, 48.66033024 ], [ 18.63494114, 48.66030034 ], [ 18.63500337, 48.66016933 ], [ 18.63507501, 48.66002367 ], [ 18.63506474, 48.65985402 ], [ 18.63518739, 48.65963784 ], [ 18.63546957, 48.65941904 ], [ 18.63552321, 48.65938141 ], [ 18.63564642, 48.65931964 ], [ 18.63583324, 48.65926219 ], [ 18.63585191, 48.65901642 ], [ 18.63612137, 48.6587991 ], [ 18.63637347, 48.65865683 ], [ 18.63661585, 48.65852052 ], [ 18.63712603, 48.65820931 ], [ 18.63786937, 48.65795927 ], [ 18.63812486, 48.6578815 ], [ 18.63849866, 48.65777744 ], [ 18.63876238, 48.65769921 ], [ 18.63918491, 48.65753866 ], [ 18.63957021, 48.657523 ], [ 18.64000144, 48.65744376 ], [ 18.64024223, 48.65726577 ], [ 18.64043402, 48.65723213 ], [ 18.64067974, 48.65720636 ], [ 18.64084748, 48.65708327 ], [ 18.64108283, 48.65687737 ], [ 18.64134615, 48.65665539 ], [ 18.64142915, 48.65658153 ], [ 18.64152905, 48.65652084 ], [ 18.64166861, 48.65645769 ], [ 18.64177438, 48.65633127 ], [ 18.64194653, 48.65607633 ], [ 18.64205104, 48.65597908 ], [ 18.64223115, 48.65582941 ], [ 18.64270765, 48.65552584 ], [ 18.64278144, 48.65541467 ], [ 18.64370845, 48.65517111 ], [ 18.64432353, 48.65517184 ], [ 18.64481059, 48.65508123 ], [ 18.64515025, 48.65504885 ], [ 18.64548158, 48.65501782 ], [ 18.64578659, 48.65498926 ], [ 18.64594274, 48.65496083 ], [ 18.64688255, 48.65432607 ], [ 18.64709484, 48.6542762 ], [ 18.64725787, 48.65422811 ], [ 18.64742524, 48.65412683 ], [ 18.64758926, 48.65374981 ], [ 18.64768518, 48.65353227 ], [ 18.64781841, 48.65331357 ], [ 18.64781698, 48.65306013 ], [ 18.64777192, 48.65293635 ], [ 18.6477436, 48.65276692 ], [ 18.64783882, 48.65254059 ], [ 18.64787805, 48.65212493 ], [ 18.64780262, 48.65164474 ], [ 18.64777187, 48.65123453 ], [ 18.64783594, 48.6510714 ], [ 18.64782758, 48.65087353 ], [ 18.6478782, 48.65039704 ], [ 18.64798676, 48.64924937 ], [ 18.64824373, 48.64854737 ], [ 18.64830073, 48.64794841 ], [ 18.64828595, 48.64780424 ], [ 18.64871874, 48.64729133 ], [ 18.64914534, 48.64695158 ], [ 18.6492259, 48.64688733 ], [ 18.64936914, 48.64658544 ], [ 18.64950257, 48.64643506 ], [ 18.64955421, 48.64637684 ], [ 18.64964678, 48.6462221 ], [ 18.64967086, 48.64616321 ], [ 18.64978759, 48.64579294 ], [ 18.64988405, 48.64529888 ], [ 18.64984059, 48.64511852 ], [ 18.64986161, 48.64499883 ], [ 18.64994183, 48.64478027 ], [ 18.64991629, 48.644451 ], [ 18.65004518, 48.64386421 ], [ 18.64996526, 48.64326793 ], [ 18.65002055, 48.64263378 ], [ 18.64978427, 48.64187869 ], [ 18.64897266, 48.64081022 ], [ 18.64843331, 48.64014001 ], [ 18.64815332, 48.63907327 ], [ 18.64777388, 48.63840045 ], [ 18.64762509, 48.6378445 ], [ 18.6474677, 48.63709933 ], [ 18.64724022, 48.63644315 ], [ 18.64708089, 48.63591442 ], [ 18.64691691, 48.63542379 ], [ 18.64671277, 48.63500003 ], [ 18.64664638, 48.63455975 ], [ 18.64615518, 48.63397982 ], [ 18.6459879, 48.63371115 ], [ 18.64540879, 48.63320905 ], [ 18.64386292, 48.63314992 ], [ 18.64189579, 48.63416317 ], [ 18.63989928, 48.63546048 ], [ 18.63960837, 48.63564949 ], [ 18.63710494, 48.63744897 ], [ 18.6356308, 48.63850181 ], [ 18.63421554, 48.63951251 ], [ 18.63401984, 48.63964969 ], [ 18.6311175, 48.6416845 ], [ 18.63101949, 48.64175321 ], [ 18.63094605, 48.64180475 ], [ 18.63081802, 48.64188953 ], [ 18.62949872, 48.6427978 ], [ 18.62571207, 48.64542941 ], [ 18.62524882, 48.64578803 ], [ 18.62484228, 48.64610062 ], [ 18.6247017, 48.64620872 ], [ 18.62417608, 48.6466128 ], [ 18.62115634, 48.64803411 ], [ 18.62104562, 48.6481163 ], [ 18.62083636, 48.64833006 ], [ 18.62060035, 48.64849546 ], [ 18.6204443, 48.64867292 ], [ 18.62029715, 48.64889869 ], [ 18.61996238, 48.64935049 ], [ 18.61980371, 48.64963014 ], [ 18.61958092, 48.65006379 ], [ 18.61954678, 48.65023312 ], [ 18.61939472, 48.65065957 ], [ 18.61917406, 48.65103811 ], [ 18.61890652, 48.65156318 ], [ 18.61878102, 48.65187205 ], [ 18.61841156, 48.65221351 ], [ 18.61797876, 48.65244084 ], [ 18.61759148, 48.65266449 ], [ 18.61733867, 48.65288212 ], [ 18.61710312, 48.65307569 ], [ 18.61689047, 48.65320038 ], [ 18.61664926, 48.65337786 ], [ 18.61650681, 48.65352303 ], [ 18.61634063, 48.65363633 ], [ 18.61595105, 48.65405484 ], [ 18.61583471, 48.6541249 ], [ 18.61567442, 48.65422679 ], [ 18.61534934, 48.65448609 ], [ 18.61502989, 48.65467288 ], [ 18.6144805, 48.65519366 ], [ 18.61435186, 48.65533939 ], [ 18.61405029, 48.65567981 ], [ 18.61393774, 48.6560049 ], [ 18.61389335, 48.65619641 ], [ 18.61384483, 48.65639393 ], [ 18.61383392, 48.65651037 ], [ 18.61380209, 48.65684017 ], [ 18.61376999, 48.6574725 ], [ 18.6137393, 48.6579027 ], [ 18.61389105, 48.65824268 ], [ 18.6139051, 48.65833439 ], [ 18.61390993, 48.65845466 ], [ 18.61386458, 48.65883462 ], [ 18.61374612, 48.65920883 ], [ 18.61339308, 48.65947357 ], [ 18.61324895, 48.65956459 ], [ 18.61307308, 48.65967448 ], [ 18.61288705, 48.65975739 ], [ 18.61256517, 48.65990045 ], [ 18.61240732, 48.65997125 ], [ 18.61216361, 48.66011555 ], [ 18.61172871, 48.66030151 ], [ 18.61142326, 48.6604793 ], [ 18.61129513, 48.66048673 ], [ 18.61108716, 48.66053308 ], [ 18.610724, 48.66063962 ], [ 18.61050395, 48.66075984 ], [ 18.61015667, 48.66092996 ], [ 18.60974739, 48.66100279 ], [ 18.60949117, 48.66106818 ], [ 18.60929861, 48.66113313 ], [ 18.60856674, 48.66124728 ], [ 18.60837434, 48.66132198 ], [ 18.60818821, 48.66135795 ], [ 18.60801346, 48.66138668 ], [ 18.60777245, 48.66138711 ], [ 18.60775289, 48.66140437 ], [ 18.60751728, 48.66161326 ], [ 18.60728812, 48.66180734 ], [ 18.6074366, 48.66188701 ], [ 18.60752961, 48.66193697 ], [ 18.60762765, 48.66207229 ], [ 18.60737032, 48.66211118 ], [ 18.60721025, 48.66212798 ], [ 18.60708488, 48.66212617 ], [ 18.60694037, 48.66216041 ], [ 18.6067219, 48.66220014 ], [ 18.60636112, 48.66234244 ], [ 18.60617347, 48.66251133 ], [ 18.60607271, 48.6625852 ], [ 18.60587763, 48.66269603 ], [ 18.60573764, 48.662751 ], [ 18.60557055, 48.66278934 ], [ 18.60543221, 48.66280885 ], [ 18.60529793, 48.66280746 ], [ 18.6049807, 48.66297332 ], [ 18.60467896, 48.66314389 ], [ 18.60443779, 48.66319086 ], [ 18.60435587, 48.66306968 ], [ 18.60402967, 48.66311467 ], [ 18.60393317, 48.66319374 ], [ 18.60358692, 48.66347235 ], [ 18.60352018, 48.66350989 ], [ 18.60320908, 48.66363691 ], [ 18.60310575, 48.66368511 ], [ 18.60263697, 48.66400735 ], [ 18.60128821, 48.66559665 ], [ 18.60015654, 48.66691714 ], [ 18.59860196, 48.66869506 ], [ 18.59749019, 48.66991257 ], [ 18.5973225, 48.67010581 ], [ 18.59597709, 48.67153932 ], [ 18.59577021, 48.67155086 ], [ 18.59570748, 48.67164529 ], [ 18.59561096, 48.67173418 ], [ 18.59526961, 48.67185179 ], [ 18.59513792, 48.67182481 ], [ 18.59496729, 48.67184184 ], [ 18.59483669, 48.67192753 ], [ 18.59481246, 48.67192739 ], [ 18.59473064, 48.67192685 ], [ 18.5946231, 48.67199908 ], [ 18.59464503, 48.67215592 ], [ 18.59455853, 48.67235463 ], [ 18.59453221, 48.67255696 ], [ 18.59446409, 48.67293244 ], [ 18.59452623, 48.67305274 ], [ 18.59453085, 48.67320197 ], [ 18.59438491, 48.67339872 ], [ 18.59421994, 48.67346695 ], [ 18.59418493, 48.67358841 ], [ 18.59396904, 48.67376243 ], [ 18.59379316, 48.67381752 ], [ 18.59368766, 48.67395709 ], [ 18.59330792, 48.67412838 ], [ 18.59319307, 48.674496 ], [ 18.59246955, 48.67490712 ], [ 18.59226976, 48.67492735 ], [ 18.59185726, 48.67512889 ], [ 18.59175482, 48.67527774 ], [ 18.59175686, 48.6754058 ], [ 18.59150033, 48.67552041 ], [ 18.5904445, 48.67589025 ], [ 18.59030714, 48.67582976 ], [ 18.59024618, 48.67590965 ], [ 18.59052337, 48.67618959 ], [ 18.59022007, 48.67631872 ], [ 18.59013319, 48.67635579 ], [ 18.58973393, 48.67660551 ], [ 18.58953085, 48.67671967 ], [ 18.58940268, 48.67679764 ], [ 18.58882673, 48.67723793 ], [ 18.58843897, 48.6773503 ], [ 18.58797792, 48.67741945 ], [ 18.58773609, 48.67742368 ], [ 18.58760425, 48.6773956 ], [ 18.58721291, 48.67743649 ], [ 18.58650861, 48.67757647 ], [ 18.58617493, 48.67776494 ], [ 18.58599756, 48.67782752 ], [ 18.58571448, 48.67787336 ], [ 18.58493385, 48.67786121 ], [ 18.58702822, 48.67991463 ], [ 18.58668298, 48.68020101 ], [ 18.58634755, 48.68043225 ], [ 18.58615083, 48.68060505 ], [ 18.58576649, 48.68081622 ], [ 18.58609212, 48.68111666 ], [ 18.58524641, 48.68152608 ], [ 18.58416315, 48.68094438 ], [ 18.58361399, 48.68105575 ], [ 18.58332955, 48.68103303 ], [ 18.58310518, 48.68108322 ], [ 18.58284165, 48.68109412 ], [ 18.58226217, 48.68131627 ], [ 18.58205189, 48.68136271 ], [ 18.58184254, 48.68145342 ], [ 18.58159322, 48.68151146 ], [ 18.58166897, 48.68177274 ], [ 18.58167078, 48.68184412 ], [ 18.58167123, 48.68186364 ], [ 18.58167204, 48.68189346 ], [ 18.58148753, 48.68222076 ], [ 18.58099278, 48.68227217 ], [ 18.58025881, 48.68304477 ], [ 18.57984957, 48.68317706 ], [ 18.57970167, 48.68322481 ], [ 18.57967511, 48.68323348 ], [ 18.57894012, 48.68347092 ], [ 18.57821645, 48.6839009 ], [ 18.57666856, 48.68474727 ], [ 18.57652054, 48.68482677 ], [ 18.57643344, 48.68486653 ], [ 18.57634664, 48.68490612 ], [ 18.57627621, 48.68493894 ], [ 18.57625655, 48.6849469 ], [ 18.57520329, 48.6853782 ], [ 18.57471563, 48.68508139 ], [ 18.57442134, 48.68526024 ], [ 18.57440991, 48.68542412 ], [ 18.57422586, 48.68559424 ], [ 18.57404758, 48.68565829 ], [ 18.5739983, 48.6857833 ], [ 18.57411285, 48.68605463 ], [ 18.57390095, 48.68636717 ], [ 18.57368711, 48.68652024 ], [ 18.57374033, 48.68653396 ], [ 18.57468414, 48.68604701 ], [ 18.57499421, 48.68588706 ], [ 18.57559248, 48.68624834 ], [ 18.57542921, 48.68650487 ], [ 18.57553042, 48.68665393 ], [ 18.57545544, 48.68677303 ], [ 18.57543815, 48.68680043 ], [ 18.57552809, 48.68684781 ], [ 18.57577979, 48.68704726 ], [ 18.57607483, 48.68718725 ], [ 18.57620452, 48.68728019 ], [ 18.57632326, 48.6873867 ], [ 18.57644812, 48.68748236 ], [ 18.57655627, 48.68753903 ], [ 18.57682624, 48.687668 ], [ 18.57732691, 48.68781481 ], [ 18.57760496, 48.688047 ], [ 18.57810954, 48.68847628 ], [ 18.57824386, 48.68857262 ], [ 18.57860802, 48.68883375 ], [ 18.57888588, 48.68898932 ], [ 18.57890387, 48.68899922 ], [ 18.57909929, 48.68910737 ], [ 18.57880648, 48.68953969 ], [ 18.57873743, 48.68964179 ], [ 18.57863439, 48.68979385 ], [ 18.57855884, 48.68990543 ], [ 18.578553, 48.68991414 ], [ 18.57846403, 48.69004719 ], [ 18.57835536, 48.6902095 ], [ 18.57826658, 48.69034211 ], [ 18.57820637, 48.69043215 ], [ 18.57828669, 48.6904902 ], [ 18.57846095, 48.69061623 ], [ 18.57866088, 48.69076071 ], [ 18.57885679, 48.69090236 ], [ 18.57907798, 48.69106225 ], [ 18.57925738, 48.69119199 ], [ 18.57943077, 48.69131734 ], [ 18.57972065, 48.69152688 ], [ 18.57952564, 48.69164679 ], [ 18.57953326, 48.69165235 ], [ 18.57960844, 48.69169577 ], [ 18.57968989, 48.69177003 ], [ 18.57987944, 48.69192242 ], [ 18.57987984, 48.69195114 ], [ 18.57981171, 48.69213504 ], [ 18.57947933, 48.69239134 ], [ 18.57926518, 48.69258655 ], [ 18.57918055, 48.69278914 ], [ 18.57887379, 48.69314347 ], [ 18.57865203, 48.69307631 ], [ 18.57845925, 48.6930183 ], [ 18.57827122, 48.69296164 ], [ 18.57816916, 48.69294925 ], [ 18.57749825, 48.69316769 ], [ 18.57715517, 48.69327902 ], [ 18.57663386, 48.693522 ], [ 18.57643657, 48.69382315 ], [ 18.57625724, 48.69410145 ], [ 18.57621521, 48.69416676 ], [ 18.57640147, 48.6943457 ], [ 18.57652683, 48.6944661 ], [ 18.57703596, 48.69497242 ], [ 18.57731152, 48.69524489 ], [ 18.57742877, 48.69543524 ], [ 18.57697769, 48.69560957 ], [ 18.57657596, 48.6955118 ], [ 18.57651706, 48.69551637 ], [ 18.57647387, 48.69607674 ], [ 18.57621065, 48.69617922 ], [ 18.57579527, 48.69626877 ], [ 18.57557548, 48.69639039 ], [ 18.57555628, 48.69644638 ], [ 18.57563862, 48.69655859 ], [ 18.57577264, 48.69669381 ], [ 18.57593161, 48.69680368 ], [ 18.57593883, 48.69702064 ], [ 18.57600615, 48.69712211 ], [ 18.57604357, 48.69722502 ], [ 18.57609258, 48.69727839 ], [ 18.57611852, 48.69734639 ], [ 18.57621466, 48.69740882 ], [ 18.57638908, 48.69759207 ], [ 18.57639874, 48.69766162 ], [ 18.57652541, 48.69772191 ], [ 18.57663178, 48.69783606 ], [ 18.57664961, 48.69786274 ], [ 18.57680495, 48.69809558 ], [ 18.57689383, 48.6982233 ], [ 18.57698606, 48.69844288 ], [ 18.57677988, 48.69867696 ], [ 18.57671438, 48.69881517 ], [ 18.57667467, 48.69889919 ], [ 18.57671223, 48.69898786 ], [ 18.57684902, 48.69905014 ], [ 18.5767607, 48.69922402 ], [ 18.57689209, 48.69928582 ], [ 18.57686974, 48.69945101 ], [ 18.57700445, 48.69944857 ], [ 18.57701126, 48.69955875 ], [ 18.57675829, 48.69972361 ], [ 18.57679497, 48.69982161 ], [ 18.57696886, 48.6999211 ], [ 18.57692955, 48.70001732 ], [ 18.57698333, 48.70007294 ], [ 18.57695617, 48.7003012 ], [ 18.57684559, 48.70051394 ], [ 18.57690696, 48.70062826 ], [ 18.57688366, 48.70083634 ], [ 18.57670137, 48.70093239 ], [ 18.57663604, 48.70094256 ], [ 18.57637158, 48.70106141 ], [ 18.57621489, 48.70110705 ], [ 18.57592208, 48.70135358 ], [ 18.57581452, 48.70145494 ], [ 18.57573921, 48.70153135 ], [ 18.57557971, 48.70171634 ], [ 18.57530805, 48.70183281 ], [ 18.57500459, 48.70193194 ], [ 18.57496554, 48.7020271 ], [ 18.57492164, 48.7021339 ], [ 18.57483288, 48.70218359 ], [ 18.57472171, 48.70224578 ], [ 18.5744957, 48.70237221 ], [ 18.57391579, 48.70267146 ], [ 18.57381489, 48.70295339 ], [ 18.57380858, 48.70299555 ], [ 18.57377454, 48.70322083 ], [ 18.5737657, 48.70325482 ], [ 18.57376043, 48.70326437 ], [ 18.57375634, 48.70327091 ], [ 18.57373485, 48.70330025 ], [ 18.57373094, 48.70330545 ], [ 18.57372416, 48.70331501 ], [ 18.57372205, 48.70331778 ], [ 18.57373948, 48.70334101 ], [ 18.57393854, 48.70359735 ], [ 18.57410568, 48.7038219 ], [ 18.5741281, 48.70385118 ], [ 18.5741309, 48.70385494 ], [ 18.57428765, 48.70405998 ], [ 18.5743014, 48.70423406 ], [ 18.57407095, 48.70439193 ], [ 18.57398183, 48.70454347 ], [ 18.57400241, 48.70458646 ], [ 18.57394651, 48.70467565 ], [ 18.57391622, 48.70482443 ], [ 18.57363426, 48.70495567 ], [ 18.57374756, 48.7050932 ], [ 18.57366467, 48.70525167 ], [ 18.57348117, 48.70530669 ], [ 18.57343199, 48.70550561 ], [ 18.57340641, 48.70556793 ], [ 18.57338122, 48.70564588 ], [ 18.57332852, 48.70580824 ], [ 18.5733422, 48.70588496 ], [ 18.57325314, 48.70602721 ], [ 18.57323605, 48.70620694 ], [ 18.5732556, 48.70621531 ], [ 18.57327412, 48.70622326 ], [ 18.5734829, 48.70656512 ], [ 18.57369396, 48.70652658 ], [ 18.57401768, 48.70661308 ], [ 18.57485824, 48.70631551 ], [ 18.57487607, 48.70630917 ], [ 18.57490122, 48.70635484 ], [ 18.57494439, 48.70643343 ], [ 18.57502561, 48.70658122 ], [ 18.57471575, 48.7068298 ], [ 18.57454257, 48.70696875 ], [ 18.5744999, 48.70699405 ], [ 18.57439349, 48.70705731 ], [ 18.57408752, 48.70723914 ], [ 18.57387506, 48.70731 ], [ 18.57342707, 48.70747934 ], [ 18.57330256, 48.70771514 ], [ 18.57331274, 48.70773753 ], [ 18.5733199, 48.70775344 ], [ 18.57332654, 48.70776806 ], [ 18.57325435, 48.70778291 ], [ 18.57319484, 48.70787371 ], [ 18.57305861, 48.70792127 ], [ 18.57291125, 48.70797274 ], [ 18.57272742, 48.70804903 ], [ 18.57256752, 48.70807085 ], [ 18.57254908, 48.70812941 ], [ 18.57248551, 48.70816711 ], [ 18.57251678, 48.70826247 ], [ 18.57255713, 48.70847383 ], [ 18.57242135, 48.70859478 ], [ 18.57224174, 48.70862708 ], [ 18.57210415, 48.70881209 ], [ 18.5720291, 48.70883788 ], [ 18.57189948, 48.70891901 ], [ 18.57165305, 48.70897665 ], [ 18.57134876, 48.70911282 ], [ 18.57128778, 48.70918684 ], [ 18.57116355, 48.70922549 ], [ 18.57091983, 48.70915018 ], [ 18.57074505, 48.70919411 ], [ 18.57062021, 48.70926187 ], [ 18.57055771, 48.70934042 ], [ 18.57048981, 48.70943942 ], [ 18.57032673, 48.70954842 ], [ 18.57009927, 48.70959933 ], [ 18.56993857, 48.70965169 ], [ 18.56969051, 48.70994467 ], [ 18.56944678, 48.70997944 ], [ 18.56932122, 48.70991767 ], [ 18.56931184, 48.7099131 ], [ 18.56906013, 48.70997037 ], [ 18.56894587, 48.71008039 ], [ 18.56873718, 48.71017337 ], [ 18.56860602, 48.71021624 ], [ 18.56855102, 48.71023428 ], [ 18.56839016, 48.71028682 ], [ 18.56825767, 48.71026663 ], [ 18.5682325, 48.71027943 ], [ 18.56821343, 48.71028913 ], [ 18.56821293, 48.71031076 ], [ 18.56824348, 48.71037342 ], [ 18.56824903, 48.71047271 ], [ 18.56818024, 48.71050516 ], [ 18.56811356, 48.71046346 ], [ 18.56781715, 48.71053923 ], [ 18.56751897, 48.71065235 ], [ 18.56742626, 48.71082824 ], [ 18.56724418, 48.71093972 ], [ 18.56697151, 48.71110665 ], [ 18.56670565, 48.71114933 ], [ 18.56648317, 48.71116765 ], [ 18.56626688, 48.71118551 ], [ 18.56609495, 48.71119972 ], [ 18.56572128, 48.71132452 ], [ 18.56551018, 48.71138191 ], [ 18.56548855, 48.71140022 ], [ 18.56541008, 48.71146671 ], [ 18.5653334, 48.71162867 ], [ 18.56532215, 48.71165233 ], [ 18.56521804, 48.71174305 ], [ 18.56518617, 48.71180764 ], [ 18.56518045, 48.71188782 ], [ 18.56504765, 48.71206911 ], [ 18.56499675, 48.71213872 ], [ 18.56490269, 48.71218577 ], [ 18.56475006, 48.71226203 ], [ 18.56463039, 48.71230669 ], [ 18.56455155, 48.71237288 ], [ 18.56448761, 48.71242662 ], [ 18.5643945, 48.71248806 ], [ 18.56423363, 48.71259438 ], [ 18.56401534, 48.71267672 ], [ 18.56392823, 48.71270953 ], [ 18.56343691, 48.71285591 ], [ 18.56336396, 48.71293948 ], [ 18.56313505, 48.71315128 ], [ 18.56319716, 48.71327268 ], [ 18.56314341, 48.71339492 ], [ 18.56301995, 48.71352059 ], [ 18.56291437, 48.71358686 ], [ 18.5628184, 48.71360754 ], [ 18.56272574, 48.71363229 ], [ 18.5626262, 48.71370484 ], [ 18.56264942, 48.7137144 ], [ 18.56267068, 48.71372323 ], [ 18.56312328, 48.71390881 ], [ 18.56343949, 48.71414292 ], [ 18.56375652, 48.71441659 ], [ 18.56398278, 48.71463499 ], [ 18.56429173, 48.71499584 ], [ 18.56429506, 48.71499981 ], [ 18.56431551, 48.71502403 ], [ 18.56434658, 48.7150637 ], [ 18.56438837, 48.71511705 ], [ 18.56440826, 48.71514249 ], [ 18.564122, 48.71529117 ], [ 18.56394829, 48.71546907 ], [ 18.56387078, 48.7156234 ], [ 18.56383176, 48.71574996 ], [ 18.56382423, 48.71578646 ], [ 18.56401581, 48.71609104 ], [ 18.56419524, 48.71637808 ], [ 18.56426897, 48.71649606 ], [ 18.56440857, 48.71671948 ], [ 18.56463819, 48.71708677 ], [ 18.5647661, 48.71718567 ], [ 18.56508764, 48.71743423 ], [ 18.56526934, 48.71761401 ], [ 18.56530129, 48.71764562 ], [ 18.56542773, 48.71777069 ], [ 18.56548977, 48.71783127 ], [ 18.56569984, 48.71803633 ], [ 18.56584823, 48.71818128 ], [ 18.56587292, 48.71820545 ], [ 18.56594364, 48.71827624 ], [ 18.56602236, 48.71835514 ], [ 18.56607597, 48.71840886 ], [ 18.56613383, 48.71846677 ], [ 18.56619302, 48.71852612 ], [ 18.56625343, 48.71858661 ], [ 18.56640529, 48.71873878 ], [ 18.56653059, 48.71886433 ], [ 18.56661866, 48.71895249 ], [ 18.5667806, 48.71911469 ], [ 18.56685119, 48.71918548 ], [ 18.56699988, 48.71933143 ], [ 18.567265, 48.7195919 ], [ 18.56735728, 48.71968246 ], [ 18.56736991, 48.71969496 ], [ 18.56749295, 48.71981678 ], [ 18.56755781, 48.71988103 ], [ 18.56762547, 48.71994796 ], [ 18.56771438, 48.72003599 ], [ 18.56783706, 48.72015743 ], [ 18.56792499, 48.7202445 ], [ 18.56794273, 48.72026206 ], [ 18.56802085, 48.72033813 ], [ 18.56812126, 48.72043571 ], [ 18.5683403, 48.72064892 ], [ 18.56839566, 48.72070282 ], [ 18.56889173, 48.72118517 ], [ 18.56899924, 48.7211254 ] ] ] ] } },
{ "type": "Feature", "properties": { "@featureType": "CadastralZoning", "beginLifespanVersion": { "@nilReason": "http://inspire.ec.europa.eu/codelist/VoidReasonValue/Unpopulated", "@nil": "true" }, "endLifespanVersion": { "@nilReason": "http://inspire.ec.europa.eu/codelist/VoidReasonValue/Unpopulated", "@nil": "true" }, "estimatedAccuracy": { "value": -1, "@uom": "m" }, "inspireId": { "@dataType": "Identifier", "localId": "823261", "namespace": "SK.ESKN.CP", "versionId": "20260703T04:07:40" }, "label": "Kamenec pod Vtáčnikom", "level": { "@href": "http://inspire.ec.europa.eu/codelist/CadastralZoningLevelValue/3rdOrder" }, "levelName": { "value": "Katastrálne územie", "@locale": "sk" }, "name": { "@dataType": "name", "GeographicalName": { "@dataType": "GeographicalName", "language": "SLK", "nativeness": { "@href": "http://inspire.ec.europa.eu/codelist/NativenessValue/endonym", "@title": "endonym" }, "nameStatus": { "@href": "http://inspire.ec.europa.eu/codelist/NameStatusValue/official", "@title": "official" }, "sourceOfName": { "@nilReason": "http://inspire.ec.europa.eu/codelist/VoidReasonValue/Unpopulated", "@nil": "true" }, "pronunciation": { "@dataType": "pronunciation", "@nilReason": "http://inspire.ec.europa.eu/codelist/VoidReasonValue/Unpopulated", "@nil": "true" }, "spelling": { "@dataType": "SpellingOfName", "text": "Kamenec pod Vtáčnikom", "script": "LATN" } } }, "nationalCadastalZoningReference": "823261", "validFrom": "2026-06-30T16:00:00Z", "validTo": { "@nilReason": "http://inspire.ec.europa.eu/codelist/VoidReasonValue/Unpopulated", "@nil": "true" } }, "geometry": { "type": "MultiPolygon", "coordinates": [ [ [ [ 18.5633216, 48.69207222 ], [ 18.56342743, 48.69198936 ], [ 18.56376796, 48.69169872 ], [ 18.56396748, 48.69160552 ], [ 18.56400443, 48.69158785 ], [ 18.56407413, 48.69155447 ], [ 18.56412122, 48.69153194 ], [ 18.56440234, 48.69139724 ], [ 18.56445734, 48.69137244 ], [ 18.56455581, 48.69131697 ], [ 18.56514138, 48.69098144 ], [ 18.56591296, 48.69100776 ], [ 18.56609996, 48.69093409 ], [ 18.5667019, 48.69086663 ], [ 18.56672653, 48.69085263 ], [ 18.56676539, 48.69083046 ], [ 18.56684619, 48.6907845 ], [ 18.5669088, 48.69067195 ], [ 18.56701651, 48.69040005 ], [ 18.56691569, 48.69024803 ], [ 18.56676843, 48.69013301 ], [ 18.56673663, 48.69009158 ], [ 18.56672568, 48.69003151 ], [ 18.56662398, 48.68970078 ], [ 18.56660259, 48.68945769 ], [ 18.56668523, 48.68939901 ], [ 18.56667097, 48.68934473 ], [ 18.56676576, 48.68919575 ], [ 18.56679506, 48.68903636 ], [ 18.56733862, 48.68907456 ], [ 18.5674224, 48.68902099 ], [ 18.56760725, 48.6884796 ], [ 18.56750345, 48.6884209 ], [ 18.56756745, 48.6881959 ], [ 18.56768883, 48.68797203 ], [ 18.5679287, 48.6878664 ], [ 18.56830792, 48.68779107 ], [ 18.56875562, 48.68752275 ], [ 18.56910441, 48.68730907 ], [ 18.56922977, 48.68723232 ], [ 18.5694863, 48.68715385 ], [ 18.56975014, 48.68698671 ], [ 18.57010836, 48.68675188 ], [ 18.57036527, 48.6865064 ], [ 18.57072446, 48.6861581 ], [ 18.5707827, 48.68610161 ], [ 18.57091119, 48.68613476 ], [ 18.57218614, 48.68646368 ], [ 18.57256537, 48.68651025 ], [ 18.57291816, 48.68658769 ], [ 18.5734714, 48.6867732 ], [ 18.5735106, 48.68672732 ], [ 18.57359464, 48.68662865 ], [ 18.57368711, 48.68652024 ], [ 18.57390095, 48.68636717 ], [ 18.57411285, 48.68605463 ], [ 18.5739983, 48.6857833 ], [ 18.57404758, 48.68565829 ], [ 18.57422586, 48.68559424 ], [ 18.57440991, 48.68542412 ], [ 18.57442134, 48.68526024 ], [ 18.57471563, 48.68508139 ], [ 18.57520329, 48.6853782 ], [ 18.57625655, 48.6849469 ], [ 18.57627621, 48.68493894 ], [ 18.57634664, 48.68490612 ], [ 18.57643344, 48.68486653 ], [ 18.57652054, 48.68482677 ], [ 18.57666856, 48.68474727 ], [ 18.57821645, 48.6839009 ], [ 18.57894012, 48.68347092 ], [ 18.57967511, 48.68323348 ], [ 18.57970167, 48.68322481 ], [ 18.57984957, 48.68317706 ], [ 18.58025881, 48.68304477 ], [ 18.58099278, 48.68227217 ], [ 18.58148753, 48.68222076 ], [ 18.58167204, 48.68189346 ], [ 18.58167123, 48.68186364 ], [ 18.58167078, 48.68184412 ], [ 18.58166897, 48.68177274 ], [ 18.58159322, 48.68151146 ], [ 18.58184254, 48.68145342 ], [ 18.58205189, 48.68136271 ], [ 18.58226217, 48.68131627 ], [ 18.58284165, 48.68109412 ], [ 18.58310518, 48.68108322 ], [ 18.58332955, 48.68103303 ], [ 18.58361399, 48.68105575 ], [ 18.58416315, 48.68094438 ], [ 18.58524641, 48.68152608 ], [ 18.58609212, 48.68111666 ], [ 18.58576649, 48.68081622 ], [ 18.58615083, 48.68060505 ], [ 18.58634755, 48.68043225 ], [ 18.58668298, 48.68020101 ], [ 18.58702822, 48.67991463 ], [ 18.58493385, 48.67786121 ], [ 18.58571448, 48.67787336 ], [ 18.58599756, 48.67782752 ], [ 18.58617493, 48.67776494 ], [ 18.58650861, 48.67757647 ], [ 18.58721291, 48.67743649 ], [ 18.58760425, 48.6773956 ], [ 18.58773609, 48.67742368 ], [ 18.58797792, 48.67741945 ], [ 18.58843897, 48.6773503 ], [ 18.58882673, 48.67723793 ], [ 18.58940268, 48.67679764 ], [ 18.58953085, 48.67671967 ], [ 18.58973393, 48.67660551 ], [ 18.59013319, 48.67635579 ], [ 18.59022007, 48.67631872 ], [ 18.59052337, 48.67618959 ], [ 18.59024618, 48.67590965 ], [ 18.59030714, 48.67582976 ], [ 18.5904445, 48.67589025 ], [ 18.59150033, 48.67552041 ], [ 18.59175686, 48.6754058 ], [ 18.59175482, 48.67527774 ], [ 18.59185726, 48.67512889 ], [ 18.59226976, 48.67492735 ], [ 18.59246955, 48.67490712 ], [ 18.59319307, 48.674496 ], [ 18.59330792, 48.67412838 ], [ 18.59368766, 48.67395709 ], [ 18.59379316, 48.67381752 ], [ 18.59396904, 48.67376243 ], [ 18.59418493, 48.67358841 ], [ 18.59421994, 48.67346695 ], [ 18.59438491, 48.67339872 ], [ 18.59453085, 48.67320197 ], [ 18.59452623, 48.67305274 ], [ 18.59446409, 48.67293244 ], [ 18.59453221, 48.67255696 ], [ 18.59455853, 48.67235463 ], [ 18.59464503, 48.67215592 ], [ 18.5946231, 48.67199908 ], [ 18.59473064, 48.67192685 ], [ 18.59481246, 48.67192739 ], [ 18.59483669, 48.67192753 ], [ 18.59496729, 48.67184184 ], [ 18.59513792, 48.67182481 ], [ 18.59526961, 48.67185179 ], [ 18.59561096, 48.67173418 ], [ 18.59570748, 48.67164529 ], [ 18.59577021, 48.67155086 ], [ 18.59597709, 48.67153932 ], [ 18.5973225, 48.67010581 ], [ 18.59749019, 48.66991257 ], [ 18.59860196, 48.66869506 ], [ 18.60015654, 48.66691714 ], [ 18.60128821, 48.66559665 ], [ 18.60263697, 48.66400735 ], [ 18.60310575, 48.66368511 ], [ 18.60320908, 48.66363691 ], [ 18.60352018, 48.66350989 ], [ 18.60358692, 48.66347235 ], [ 18.60393317, 48.66319374 ], [ 18.60402967, 48.66311467 ], [ 18.60435587, 48.66306968 ], [ 18.60443779, 48.66319086 ], [ 18.60467896, 48.66314389 ], [ 18.6049807, 48.66297332 ], [ 18.60529793, 48.66280746 ], [ 18.60543221, 48.66280885 ], [ 18.60557055, 48.66278934 ], [ 18.60573764, 48.662751 ], [ 18.60587763, 48.66269603 ], [ 18.60607271, 48.6625852 ], [ 18.60617347, 48.66251133 ], [ 18.60636112, 48.66234244 ], [ 18.6067219, 48.66220014 ], [ 18.60694037, 48.66216041 ], [ 18.60708488, 48.66212617 ], [ 18.60721025, 48.66212798 ], [ 18.60737032, 48.66211118 ], [ 18.60762765, 48.66207229 ], [ 18.60752961, 48.66193697 ], [ 18.6074366, 48.66188701 ], [ 18.60728812, 48.66180734 ], [ 18.60751728, 48.66161326 ], [ 18.60775289, 48.66140437 ], [ 18.60777245, 48.66138711 ], [ 18.60801346, 48.66138668 ], [ 18.60818821, 48.66135795 ], [ 18.60837434, 48.66132198 ], [ 18.60856674, 48.66124728 ], [ 18.60929861, 48.66113313 ], [ 18.60949117, 48.66106818 ], [ 18.60974739, 48.66100279 ], [ 18.61015667, 48.66092996 ], [ 18.61050395, 48.66075984 ], [ 18.610724, 48.66063962 ], [ 18.61108716, 48.66053308 ], [ 18.61129513, 48.66048673 ], [ 18.61142326, 48.6604793 ], [ 18.61172871, 48.66030151 ], [ 18.61216361, 48.66011555 ], [ 18.61240732, 48.65997125 ], [ 18.61256517, 48.65990045 ], [ 18.61288705, 48.65975739 ], [ 18.61307308, 48.65967448 ], [ 18.61324895, 48.65956459 ], [ 18.61339308, 48.65947357 ], [ 18.61374612, 48.65920883 ], [ 18.61386458, 48.65883462 ], [ 18.61390993, 48.65845466 ], [ 18.6139051, 48.65833439 ], [ 18.61389105, 48.65824268 ], [ 18.6137393, 48.6579027 ], [ 18.61376999, 48.6574725 ], [ 18.61380209, 48.65684017 ], [ 18.61383392, 48.65651037 ], [ 18.61384483, 48.65639393 ], [ 18.61389335, 48.65619641 ], [ 18.61393774, 48.6560049 ], [ 18.61405029, 48.65567981 ], [ 18.61435186, 48.65533939 ], [ 18.6144805, 48.65519366 ], [ 18.61502989, 48.65467288 ], [ 18.61534934, 48.65448609 ], [ 18.61567442, 48.65422679 ], [ 18.61583471, 48.6541249 ], [ 18.61595105, 48.65405484 ], [ 18.61634063, 48.65363633 ], [ 18.61650681, 48.65352303 ], [ 18.61664926, 48.65337786 ], [ 18.61689047, 48.65320038 ], [ 18.61710312, 48.65307569 ], [ 18.61733867, 48.65288212 ], [ 18.61759148, 48.65266449 ], [ 18.61797876, 48.65244084 ], [ 18.61841156, 48.65221351 ], [ 18.61878102, 48.65187205 ], [ 18.61890652, 48.65156318 ], [ 18.61917406, 48.65103811 ], [ 18.61939472, 48.65065957 ], [ 18.61954678, 48.65023312 ], [ 18.61958092, 48.65006379 ], [ 18.61980371, 48.64963014 ], [ 18.61996238, 48.64935049 ], [ 18.62029715, 48.64889869 ], [ 18.6204443, 48.64867292 ], [ 18.62060035, 48.64849546 ], [ 18.62083636, 48.64833006 ], [ 18.62104562, 48.6481163 ], [ 18.62115634, 48.64803411 ], [ 18.62417608, 48.6466128 ], [ 18.6247017, 48.64620872 ], [ 18.62484228, 48.64610062 ], [ 18.62524882, 48.64578803 ], [ 18.62571207, 48.64542941 ], [ 18.62949872, 48.6427978 ], [ 18.63081802, 48.64188953 ], [ 18.63094605, 48.64180475 ], [ 18.63101949, 48.64175321 ], [ 18.6311175, 48.6416845 ], [ 18.63401984, 48.63964969 ], [ 18.63421554, 48.63951251 ], [ 18.6356308, 48.63850181 ], [ 18.63710494, 48.63744897 ], [ 18.63960837, 48.63564949 ], [ 18.63989928, 48.63546048 ], [ 18.64189579, 48.63416317 ], [ 18.64386292, 48.63314992 ], [ 18.64382999, 48.6331487 ], [ 18.64315416, 48.63312267 ], [ 18.64062141, 48.63084766 ], [ 18.63730347, 48.62604485 ], [ 18.63717988, 48.62586586 ], [ 18.6366846, 48.62514949 ], [ 18.63599051, 48.6247598 ], [ 18.63482281, 48.62468443 ], [ 18.6345796, 48.62441419 ], [ 18.63368064, 48.62417606 ], [ 18.63289759, 48.62429858 ], [ 18.63265351, 48.62439895 ], [ 18.63243439, 48.62448551 ], [ 18.63183538, 48.62461107 ], [ 18.6307161, 48.62479046 ], [ 18.63015251, 48.62495239 ], [ 18.62863655, 48.62589948 ], [ 18.62653078, 48.6260404 ], [ 18.62574985, 48.62636159 ], [ 18.62503449, 48.62683952 ], [ 18.62223811, 48.62714259 ], [ 18.6206251, 48.62756426 ], [ 18.6198936, 48.62794575 ], [ 18.61881142, 48.62853589 ], [ 18.61719775, 48.62878938 ], [ 18.61600116, 48.62876452 ], [ 18.61442419, 48.62872796 ], [ 18.61344323, 48.62872626 ], [ 18.61331649, 48.62871635 ], [ 18.61241962, 48.62864627 ], [ 18.61115861, 48.62857295 ], [ 18.60946121, 48.62848064 ], [ 18.6093536, 48.62846354 ], [ 18.60807344, 48.62821058 ], [ 18.60764884, 48.62828725 ], [ 18.60570791, 48.6278134 ], [ 18.60455958, 48.6276166 ], [ 18.60303585, 48.62742305 ], [ 18.60280028, 48.6273651 ], [ 18.60248366, 48.62726117 ], [ 18.60079096, 48.62668993 ], [ 18.59997399, 48.62627857 ], [ 18.59918893, 48.62579278 ], [ 18.59828668, 48.62541875 ], [ 18.59657372, 48.62467914 ], [ 18.59580074, 48.62409137 ], [ 18.59450011, 48.62323266 ], [ 18.59431264, 48.62350034 ], [ 18.59419017, 48.62414402 ], [ 18.59413554, 48.62430565 ], [ 18.59397695, 48.62477521 ], [ 18.59372447, 48.62539688 ], [ 18.59336563, 48.62628277 ], [ 18.59293159, 48.62726745 ], [ 18.5929244, 48.62728601 ], [ 18.59268211, 48.62791202 ], [ 18.59210415, 48.62942887 ], [ 18.591884, 48.62997234 ], [ 18.59132253, 48.6313495 ], [ 18.59070086, 48.63289448 ], [ 18.59035346, 48.6339749 ], [ 18.58895679, 48.63494721 ], [ 18.58849934, 48.63534896 ], [ 18.58797672, 48.6356675 ], [ 18.58759882, 48.63622551 ], [ 18.58690178, 48.63655399 ], [ 18.58518551, 48.63778696 ], [ 18.58406739, 48.6385989 ], [ 18.58336462, 48.63892705 ], [ 18.58286478, 48.6393042 ], [ 18.58252466, 48.63961736 ], [ 18.5824224, 48.6399613 ], [ 18.5821121, 48.6403868 ], [ 18.58172494, 48.6416152 ], [ 18.58027192, 48.64268111 ], [ 18.58015185, 48.64292112 ], [ 18.57997264, 48.64327495 ], [ 18.57984686, 48.64352368 ], [ 18.57976032, 48.64397603 ], [ 18.57967233, 48.64443903 ], [ 18.57964431, 48.64457765 ], [ 18.5792971, 48.64509418 ], [ 18.57924904, 48.64516575 ], [ 18.57871391, 48.64596977 ], [ 18.57841434, 48.64641254 ], [ 18.57802743, 48.6469889 ], [ 18.57791747, 48.64715691 ], [ 18.57766428, 48.64754382 ], [ 18.57773563, 48.64764632 ], [ 18.57781369, 48.64777273 ], [ 18.57776023, 48.64804659 ], [ 18.57772866, 48.64820829 ], [ 18.57762458, 48.64873729 ], [ 18.57756091, 48.64906284 ], [ 18.57749995, 48.64936868 ], [ 18.57744023, 48.64966556 ], [ 18.57744931, 48.64970116 ], [ 18.57712325, 48.64975872 ], [ 18.57657764, 48.64988909 ], [ 18.57635369, 48.64996013 ], [ 18.57616803, 48.65005626 ], [ 18.57586336, 48.65024915 ], [ 18.575545, 48.65040621 ], [ 18.57525992, 48.65057283 ], [ 18.57503476, 48.65067123 ], [ 18.57493315, 48.65070659 ], [ 18.57474675, 48.65073708 ], [ 18.57457702, 48.65074726 ], [ 18.57439943, 48.65074619 ], [ 18.57390053, 48.65071467 ], [ 18.57351908, 48.65068376 ], [ 18.57321836, 48.65068945 ], [ 18.57299072, 48.6506658 ], [ 18.57258419, 48.65073856 ], [ 18.57198718, 48.65071515 ], [ 18.57150332, 48.65072713 ], [ 18.57109683, 48.65071154 ], [ 18.57075459, 48.65073463 ], [ 18.57065793, 48.65073218 ], [ 18.56978194, 48.65067303 ], [ 18.56933711, 48.65072068 ], [ 18.5692548, 48.65071449 ], [ 18.56905311, 48.65070452 ], [ 18.56877765, 48.65072835 ], [ 18.56843942, 48.65072675 ], [ 18.56802055, 48.65071102 ], [ 18.56795678, 48.65069258 ], [ 18.56775155, 48.65063314 ], [ 18.56761063, 48.65070435 ], [ 18.56754759, 48.65074496 ], [ 18.56735369, 48.65090307 ], [ 18.56718488, 48.65102898 ], [ 18.56677032, 48.65123239 ], [ 18.5667655, 48.65144401 ], [ 18.56673174, 48.65150759 ], [ 18.56665842, 48.65162678 ], [ 18.56655072, 48.6517959 ], [ 18.5664814, 48.65197179 ], [ 18.56636192, 48.65203811 ], [ 18.56643899, 48.65218885 ], [ 18.56634708, 48.65230856 ], [ 18.56609071, 48.65253772 ], [ 18.5660595, 48.65282704 ], [ 18.56568473, 48.65307845 ], [ 18.56546995, 48.65314997 ], [ 18.5652272, 48.65322295 ], [ 18.56489333, 48.65323439 ], [ 18.56475865, 48.65332876 ], [ 18.56455967, 48.65350789 ], [ 18.56439108, 48.65363083 ], [ 18.56429072, 48.65374394 ], [ 18.56420118, 48.65384555 ], [ 18.56415392, 48.65383676 ], [ 18.56200818, 48.65455942 ], [ 18.55932102, 48.65631513 ], [ 18.55678947, 48.65737495 ], [ 18.55583069, 48.658082 ], [ 18.55417866, 48.65873008 ], [ 18.552917, 48.65959414 ], [ 18.55152421, 48.66072943 ], [ 18.551461, 48.66106953 ], [ 18.54950956, 48.66183361 ], [ 18.54934748, 48.66189706 ], [ 18.54869685, 48.6621518 ], [ 18.54820054, 48.66237037 ], [ 18.5477224, 48.6625809 ], [ 18.54740663, 48.66313562 ], [ 18.54692615, 48.66360375 ], [ 18.54561156, 48.66457919 ], [ 18.54271252, 48.66439928 ], [ 18.54034133, 48.66564863 ], [ 18.53974021, 48.66597867 ], [ 18.53857333, 48.66661946 ], [ 18.5385315, 48.66664245 ], [ 18.53836027, 48.66673642 ], [ 18.53722636, 48.6661577 ], [ 18.53688652, 48.66598428 ], [ 18.5367027, 48.6658905 ], [ 18.5364372, 48.66578639 ], [ 18.53642542, 48.66579134 ], [ 18.53639883, 48.66580243 ], [ 18.53634867, 48.66582343 ], [ 18.5360407, 48.66595216 ], [ 18.53601564, 48.66596631 ], [ 18.53590616, 48.66603153 ], [ 18.53581502, 48.66608846 ], [ 18.53567695, 48.66622025 ], [ 18.53541854, 48.66655707 ], [ 18.53529787, 48.66663883 ], [ 18.53521067, 48.66669795 ], [ 18.53456836, 48.66703681 ], [ 18.53374754, 48.66744362 ], [ 18.53309847, 48.66776541 ], [ 18.53293813, 48.66784625 ], [ 18.53297143, 48.66796503 ], [ 18.53413553, 48.67212003 ], [ 18.5341806, 48.67228105 ], [ 18.53420336, 48.67230178 ], [ 18.53421559, 48.67231301 ], [ 18.53426245, 48.67235573 ], [ 18.53498937, 48.67301855 ], [ 18.53569715, 48.67365026 ], [ 18.53615656, 48.67405328 ], [ 18.53638296, 48.67421129 ], [ 18.53640865, 48.6742293 ], [ 18.53645328, 48.67426043 ], [ 18.53647898, 48.67427835 ], [ 18.53706781, 48.67468933 ], [ 18.53716884, 48.67475991 ], [ 18.53723089, 48.67480328 ], [ 18.5374742, 48.67497331 ], [ 18.53753023, 48.67501246 ], [ 18.5380512, 48.67537651 ], [ 18.53806127, 48.6753832 ], [ 18.53807386, 48.67539146 ], [ 18.5385359, 48.67571015 ], [ 18.53949657, 48.67637541 ], [ 18.53999034, 48.67671729 ], [ 18.54003547, 48.6767489 ], [ 18.54008458, 48.67678344 ], [ 18.54011615, 48.67680574 ], [ 18.54041162, 48.67699575 ], [ 18.54069351, 48.67718332 ], [ 18.54073189, 48.67720887 ], [ 18.54101959, 48.67739901 ], [ 18.54110773, 48.67745724 ], [ 18.54131338, 48.67758956 ], [ 18.54208992, 48.67810785 ], [ 18.54284379, 48.67859269 ], [ 18.54247891, 48.67892968 ], [ 18.54211154, 48.67925164 ], [ 18.54188974, 48.67944844 ], [ 18.54175478, 48.67957806 ], [ 18.54157288, 48.67973454 ], [ 18.54153899, 48.67976373 ], [ 18.54144835, 48.67984172 ], [ 18.54131772, 48.67995407 ], [ 18.54116283, 48.68008729 ], [ 18.54102974, 48.68020185 ], [ 18.54090051, 48.68031283 ], [ 18.5408042, 48.68040567 ], [ 18.54108048, 48.68075228 ], [ 18.54110109, 48.68077615 ], [ 18.54118866, 48.6808773 ], [ 18.54141432, 48.68113362 ], [ 18.54151091, 48.68124339 ], [ 18.54172877, 48.68149342 ], [ 18.54182624, 48.68148989 ], [ 18.54189714, 48.68148735 ], [ 18.54196928, 48.68148479 ], [ 18.54202198, 48.68148288 ], [ 18.54204812, 48.68148196 ], [ 18.54208746, 48.6814648 ], [ 18.54230839, 48.6813682 ], [ 18.54421112, 48.68205782 ], [ 18.54431425, 48.68214358 ], [ 18.54435022, 48.68215673 ], [ 18.54458902, 48.68219917 ], [ 18.54464659, 48.68220195 ], [ 18.54511474, 48.68230896 ], [ 18.54518298, 48.68233335 ], [ 18.54577008, 48.68262795 ], [ 18.54595465, 48.68264289 ], [ 18.54616978, 48.68277373 ], [ 18.54667292, 48.68290855 ], [ 18.54735807, 48.68299661 ], [ 18.54795987, 48.68326304 ], [ 18.54825405, 48.68335334 ], [ 18.54878057, 48.68351495 ], [ 18.54921315, 48.6836737 ], [ 18.54939626, 48.68379251 ], [ 18.5495256, 48.68385821 ], [ 18.54991399, 48.68403594 ], [ 18.55037915, 48.68424401 ], [ 18.55142133, 48.68469124 ], [ 18.55148464, 48.68484088 ], [ 18.55164092, 48.68493548 ], [ 18.55206114, 48.6852751 ], [ 18.552385, 48.68580457 ], [ 18.55241869, 48.68610816 ], [ 18.55244046, 48.6862577 ], [ 18.55278687, 48.68730239 ], [ 18.55280501, 48.68735716 ], [ 18.55318464, 48.68845266 ], [ 18.55322407, 48.68857193 ], [ 18.55326238, 48.68868817 ], [ 18.55348547, 48.68867189 ], [ 18.55378983, 48.68857512 ], [ 18.5542179, 48.68854681 ], [ 18.55443495, 48.68853409 ], [ 18.55475599, 48.68850608 ], [ 18.55509869, 48.6884705 ], [ 18.55535881, 48.68844135 ], [ 18.55556814, 48.68839535 ], [ 18.55569637, 48.68835162 ], [ 18.5557306, 48.68837333 ], [ 18.55634189, 48.68872776 ], [ 18.55771159, 48.68952184 ], [ 18.56229667, 48.69217956 ], [ 18.56233466, 48.69220292 ], [ 18.56274065, 48.69243633 ], [ 18.56277928, 48.69245891 ], [ 18.5633216, 48.69207222 ] ] ] ] } },
{ "type": "Feature", "properties": { "@featureType": "CadastralZoning", "beginLifespanVersion": { "@nilReason": "http://inspire.ec.europa.eu/codelist/VoidReasonValue/Unpopulated", "@nil": "true" }, "endLifespanVersion": { "@nilReason": "http://inspire.ec.europa.eu/codelist/VoidReasonValue/Unpopulated", "@nil": "true" }, "estimatedAccuracy": { "value": -1, "@uom": "m" }, "inspireId": { "@dataType": "Identifier", "localId": "873055", "namespace": "SK.ESKN.CP", "versionId": "20260703T04:07:40" }, "label": "Zemianske Kostoľany", "level": { "@href": "http://inspire.ec.europa.eu/codelist/CadastralZoningLevelValue/3rdOrder" }, "levelName": { "value": "Katastrálne územie", "@locale": "sk" }, "name": { "@dataType": "name", "GeographicalName": { "@dataType": "GeographicalName", "language": "SLK", "nativeness": { "@href": "http://inspire.ec.europa.eu/codelist/NativenessValue/endonym", "@title": "endonym" }, "nameStatus": { "@href": "http://inspire.ec.europa.eu/codelist/NameStatusValue/official", "@title": "official" }, "sourceOfName": { "@nilReason": "http://inspire.ec.europa.eu/codelist/VoidReasonValue/Unpopulated", "@nil": "true" }, "pronunciation": { "@dataType": "pronunciation", "@nilReason": "http://inspire.ec.europa.eu/codelist/VoidReasonValue/Unpopulated", "@nil": "true" }, "spelling": { "@dataType": "SpellingOfName", "text": "Zemianske Kostoľany", "script": "LATN" } } }, "nationalCadastalZoningReference": "873055", "validFrom": "2026-06-30T16:00:00Z", "validTo": { "@nilReason": "http://inspire.ec.europa.eu/codelist/VoidReasonValue/Unpopulated", "@nil": "true" } }, "geometry": { "type": "MultiPolygon", "coordinates": [ [ [ [ 18.51003661, 48.7133196 ], [ 18.51008197, 48.71331126 ], [ 18.51026734, 48.71327711 ], [ 18.5102707, 48.71326448 ], [ 18.51028417, 48.71321459 ], [ 18.51038101, 48.71285586 ], [ 18.51039473, 48.71280509 ], [ 18.5104106, 48.71277528 ], [ 18.51050464, 48.71259805 ], [ 18.51071784, 48.71202975 ], [ 18.51113816, 48.71144085 ], [ 18.51141785, 48.7111813 ], [ 18.51179558, 48.71080078 ], [ 18.5119949, 48.71064195 ], [ 18.51245106, 48.71039739 ], [ 18.5125767, 48.71026404 ], [ 18.51262168, 48.71021615 ], [ 18.51271558, 48.71011625 ], [ 18.51329358, 48.70917448 ], [ 18.51334268, 48.70882875 ], [ 18.51336042, 48.70877304 ], [ 18.51342015, 48.70858546 ], [ 18.51343649, 48.70856271 ], [ 18.5138019, 48.70805364 ], [ 18.51378571, 48.70792036 ], [ 18.51373278, 48.70756841 ], [ 18.51376513, 48.70741109 ], [ 18.51379017, 48.70728937 ], [ 18.51509221, 48.70723227 ], [ 18.51511018, 48.70723145 ], [ 18.51549104, 48.70721476 ], [ 18.51724742, 48.70661409 ], [ 18.51767501, 48.70646785 ], [ 18.51793686, 48.70653605 ], [ 18.51979415, 48.70611377 ], [ 18.51984594, 48.70610198 ], [ 18.51989253, 48.70609136 ], [ 18.51997485, 48.70605886 ], [ 18.52017136, 48.70598109 ], [ 18.52025268, 48.70594899 ], [ 18.52029413, 48.70593258 ], [ 18.52071884, 48.70581252 ], [ 18.52064587, 48.70565006 ], [ 18.52055233, 48.70544172 ], [ 18.52139292, 48.70522087 ], [ 18.5218942, 48.7050892 ], [ 18.52197835, 48.7050671 ], [ 18.52198357, 48.70493139 ], [ 18.52198738, 48.70483432 ], [ 18.52206741, 48.70482886 ], [ 18.52235673, 48.70479496 ], [ 18.52244074, 48.70479153 ], [ 18.52232786, 48.70373134 ], [ 18.52225774, 48.70173589 ], [ 18.52268744, 48.70171526 ], [ 18.52273284, 48.70171306 ], [ 18.52276575, 48.70171152 ], [ 18.52281088, 48.70170929 ], [ 18.52287576, 48.70170617 ], [ 18.52340175, 48.70134456 ], [ 18.52344754, 48.70131304 ], [ 18.52336271, 48.70123792 ], [ 18.52334595, 48.7012204 ], [ 18.52332197, 48.70118426 ], [ 18.5233198, 48.70116122 ], [ 18.52332354, 48.70112577 ], [ 18.52332548, 48.7011081 ], [ 18.5233398, 48.70103706 ], [ 18.5234464, 48.70088316 ], [ 18.5234869, 48.70086886 ], [ 18.52366496, 48.70079892 ], [ 18.52369649, 48.70078656 ], [ 18.52449843, 48.70048038 ], [ 18.52459148, 48.70043277 ], [ 18.52469957, 48.70035214 ], [ 18.52478701, 48.70029051 ], [ 18.5248981, 48.70018252 ], [ 18.5249125, 48.7001611 ], [ 18.52491483, 48.70015771 ], [ 18.52510263, 48.69988075 ], [ 18.52513389, 48.69983454 ], [ 18.52531294, 48.69960907 ], [ 18.52542256, 48.69954125 ], [ 18.52558135, 48.69943885 ], [ 18.52576913, 48.6993346 ], [ 18.52628586, 48.69904782 ], [ 18.52639367, 48.69898793 ], [ 18.52664935, 48.69884751 ], [ 18.52671141, 48.69881336 ], [ 18.52675336, 48.69883885 ], [ 18.52678454, 48.6988577 ], [ 18.5271901, 48.69910357 ], [ 18.52729991, 48.69916968 ], [ 18.52731156, 48.69917681 ], [ 18.52809431, 48.69965672 ], [ 18.52813915, 48.69968417 ], [ 18.52908566, 48.70026453 ], [ 18.52945153, 48.70023525 ], [ 18.52963054, 48.70022094 ], [ 18.52966511, 48.70021814 ], [ 18.52975185, 48.70021123 ], [ 18.53036649, 48.70016802 ], [ 18.53066261, 48.70014711 ], [ 18.53104646, 48.70012008 ], [ 18.53122192, 48.70010801 ], [ 18.53135956, 48.70009856 ], [ 18.53146558, 48.70009127 ], [ 18.5316204, 48.70008068 ], [ 18.53161919, 48.70006419 ], [ 18.53161615, 48.70002297 ], [ 18.53161406, 48.69999596 ], [ 18.53276994, 48.69991634 ], [ 18.53278933, 48.69991496 ], [ 18.53280653, 48.69991374 ], [ 18.53288999, 48.69990801 ], [ 18.53314149, 48.6998907 ], [ 18.53320982, 48.69988604 ], [ 18.53336864, 48.69987513 ], [ 18.53362564, 48.6998574 ], [ 18.53375582, 48.69984872 ], [ 18.5337856, 48.69984168 ], [ 18.53400221, 48.69985053 ], [ 18.53416736, 48.69984132 ], [ 18.53431496, 48.69981861 ], [ 18.53467894, 48.69978912 ], [ 18.53468681, 48.69983106 ], [ 18.53499427, 48.69973216 ], [ 18.53508331, 48.69970355 ], [ 18.53521227, 48.69966204 ], [ 18.5352364, 48.69965433 ], [ 18.5353468, 48.69961298 ], [ 18.53539813, 48.69959377 ], [ 18.5354326, 48.69958085 ], [ 18.53551541, 48.69954972 ], [ 18.53552856, 48.69954485 ], [ 18.53556116, 48.69953264 ], [ 18.53571888, 48.69943639 ], [ 18.53633189, 48.69937763 ], [ 18.53639677, 48.69936349 ], [ 18.53652136, 48.69933618 ], [ 18.53657518, 48.6993244 ], [ 18.53673634, 48.69928916 ], [ 18.53688837, 48.69925721 ], [ 18.53713177, 48.69920742 ], [ 18.53759925, 48.69912618 ], [ 18.5379144, 48.69908482 ], [ 18.53842589, 48.69900922 ], [ 18.53861813, 48.69899373 ], [ 18.53908391, 48.69895679 ], [ 18.53962819, 48.69891447 ], [ 18.53988872, 48.69889466 ], [ 18.5404324, 48.6988386 ], [ 18.54122237, 48.6987401 ], [ 18.54138185, 48.69872381 ], [ 18.54164687, 48.6987018 ], [ 18.54205203, 48.6986546 ], [ 18.5420927, 48.69864987 ], [ 18.54223284, 48.69863342 ], [ 18.5424275, 48.69861371 ], [ 18.54282033, 48.69861411 ], [ 18.54299469, 48.69855927 ], [ 18.5434133, 48.69842915 ], [ 18.54359329, 48.69825568 ], [ 18.54369182, 48.69802255 ], [ 18.54392542, 48.69793422 ], [ 18.54412166, 48.69779883 ], [ 18.54435636, 48.69769945 ], [ 18.54451301, 48.69753717 ], [ 18.54471809, 48.69752029 ], [ 18.54502809, 48.69740291 ], [ 18.54510441, 48.69740852 ], [ 18.54514367, 48.69739757 ], [ 18.5452969, 48.69735476 ], [ 18.54541578, 48.69737216 ], [ 18.54545366, 48.69734381 ], [ 18.54547348, 48.69734995 ], [ 18.54552926, 48.69736724 ], [ 18.54567491, 48.69730101 ], [ 18.54570029, 48.69731611 ], [ 18.54571187, 48.69730194 ], [ 18.54571252, 48.6972759 ], [ 18.54571336, 48.69723849 ], [ 18.54574668, 48.69721495 ], [ 18.54578433, 48.69718849 ], [ 18.54585459, 48.69719566 ], [ 18.54600449, 48.69711494 ], [ 18.54606089, 48.69708454 ], [ 18.54618443, 48.69708865 ], [ 18.54623255, 48.69704372 ], [ 18.54623676, 48.69694297 ], [ 18.54624161, 48.69690507 ], [ 18.54626034, 48.69682686 ], [ 18.54629774, 48.69675634 ], [ 18.54636355, 48.69672365 ], [ 18.54641742, 48.6966248 ], [ 18.54639755, 48.69657959 ], [ 18.54659767, 48.69642942 ], [ 18.54662563, 48.69636462 ], [ 18.54679025, 48.69632116 ], [ 18.54685451, 48.69624724 ], [ 18.54705347, 48.6962126 ], [ 18.54726451, 48.69628583 ], [ 18.54744707, 48.69627791 ], [ 18.54754539, 48.69622172 ], [ 18.54778867, 48.69629652 ], [ 18.54786116, 48.69627927 ], [ 18.54808427, 48.69637598 ], [ 18.54838197, 48.69628508 ], [ 18.54888189, 48.69635807 ], [ 18.54897721, 48.69644881 ], [ 18.54933943, 48.69641232 ], [ 18.54945292, 48.696438 ], [ 18.54970481, 48.69649188 ], [ 18.55002718, 48.69667511 ], [ 18.55019173, 48.69681862 ], [ 18.55022111, 48.69689485 ], [ 18.55029289, 48.69694243 ], [ 18.55043702, 48.69695083 ], [ 18.55051116, 48.69692572 ], [ 18.55061199, 48.69694366 ], [ 18.55109838, 48.69699063 ], [ 18.55152461, 48.69690096 ], [ 18.55176491, 48.69700419 ], [ 18.55187449, 48.69695277 ], [ 18.55204855, 48.69694086 ], [ 18.55233036, 48.69705673 ], [ 18.55243809, 48.69706738 ], [ 18.55274397, 48.69723094 ], [ 18.5528294, 48.69721916 ], [ 18.55304186, 48.69724923 ], [ 18.55319113, 48.69733262 ], [ 18.55331181, 48.69729497 ], [ 18.55345264, 48.69724985 ], [ 18.55368863, 48.69729789 ], [ 18.55385115, 48.69738217 ], [ 18.55397233, 48.69740519 ], [ 18.5543826, 48.6973529 ], [ 18.55447875, 48.6972965 ], [ 18.55458116, 48.69728853 ], [ 18.55466374, 48.69725035 ], [ 18.5550226, 48.6971652 ], [ 18.55510899, 48.69709086 ], [ 18.55530945, 48.69700025 ], [ 18.55545294, 48.69693695 ], [ 18.55549713, 48.69693241 ], [ 18.55556424, 48.69692541 ], [ 18.55562555, 48.69691909 ], [ 18.55573256, 48.69686202 ], [ 18.5558633, 48.69679054 ], [ 18.55593935, 48.69674892 ], [ 18.55615831, 48.69669704 ], [ 18.55622591, 48.69664333 ], [ 18.55634159, 48.69655153 ], [ 18.55638867, 48.69649508 ], [ 18.55644014, 48.69642858 ], [ 18.55644929, 48.69629453 ], [ 18.55652388, 48.69616368 ], [ 18.55668088, 48.69604535 ], [ 18.55677864, 48.69597162 ], [ 18.55685312, 48.69582408 ], [ 18.55689219, 48.69581131 ], [ 18.55703168, 48.69576593 ], [ 18.55711406, 48.69578097 ], [ 18.55712443, 48.6957754 ], [ 18.5573242, 48.69566716 ], [ 18.5572918, 48.69563607 ], [ 18.55732842, 48.69555306 ], [ 18.55739482, 48.69540245 ], [ 18.55749363, 48.69531145 ], [ 18.55752904, 48.69527882 ], [ 18.55779427, 48.69525156 ], [ 18.55796589, 48.69523391 ], [ 18.55798398, 48.69513212 ], [ 18.55800308, 48.69510455 ], [ 18.55808245, 48.69499003 ], [ 18.55865238, 48.69481195 ], [ 18.55877823, 48.69475346 ], [ 18.5588905, 48.6947242 ], [ 18.55898905, 48.69468029 ], [ 18.55914446, 48.6946142 ], [ 18.55925477, 48.69454251 ], [ 18.55927835, 48.69452719 ], [ 18.55934915, 48.69443773 ], [ 18.55944462, 48.69438346 ], [ 18.55965492, 48.69426062 ], [ 18.55977484, 48.69422022 ], [ 18.55979941, 48.69421118 ], [ 18.55987, 48.69416521 ], [ 18.55989535, 48.69411687 ], [ 18.55994878, 48.6940169 ], [ 18.55999885, 48.69399463 ], [ 18.56003389, 48.69391108 ], [ 18.56009485, 48.69388552 ], [ 18.56013371, 48.69383818 ], [ 18.56026998, 48.69373189 ], [ 18.56031677, 48.69369537 ], [ 18.5605185, 48.69360419 ], [ 18.56053958, 48.69359469 ], [ 18.56056766, 48.69356616 ], [ 18.56060006, 48.69353021 ], [ 18.56062388, 48.69351075 ], [ 18.56081262, 48.69338692 ], [ 18.56088539, 48.69331237 ], [ 18.56089456, 48.69330213 ], [ 18.56096861, 48.69321944 ], [ 18.56116515, 48.69311958 ], [ 18.56120878, 48.69314912 ], [ 18.56125396, 48.69312775 ], [ 18.56134891, 48.69308644 ], [ 18.56186619, 48.69286217 ], [ 18.56225045, 48.69269393 ], [ 18.56272578, 48.69248804 ], [ 18.56277928, 48.69245891 ], [ 18.56274065, 48.69243633 ], [ 18.56233466, 48.69220292 ], [ 18.56229667, 48.69217956 ], [ 18.55771159, 48.68952184 ], [ 18.55634189, 48.68872776 ], [ 18.5557306, 48.68837333 ], [ 18.55569637, 48.68835162 ], [ 18.55556814, 48.68839535 ], [ 18.55535881, 48.68844135 ], [ 18.55509869, 48.6884705 ], [ 18.55475599, 48.68850608 ], [ 18.55443495, 48.68853409 ], [ 18.5542179, 48.68854681 ], [ 18.55378983, 48.68857512 ], [ 18.55348547, 48.68867189 ], [ 18.55326238, 48.68868817 ], [ 18.55322407, 48.68857193 ], [ 18.55318464, 48.68845266 ], [ 18.55280501, 48.68735716 ], [ 18.55278687, 48.68730239 ], [ 18.55244046, 48.6862577 ], [ 18.55241869, 48.68610816 ], [ 18.552385, 48.68580457 ], [ 18.55206114, 48.6852751 ], [ 18.55164092, 48.68493548 ], [ 18.55148464, 48.68484088 ], [ 18.55142133, 48.68469124 ], [ 18.55037915, 48.68424401 ], [ 18.54991399, 48.68403594 ], [ 18.5495256, 48.68385821 ], [ 18.54939626, 48.68379251 ], [ 18.54921315, 48.6836737 ], [ 18.54878057, 48.68351495 ], [ 18.54825405, 48.68335334 ], [ 18.54795987, 48.68326304 ], [ 18.54735807, 48.68299661 ], [ 18.54667292, 48.68290855 ], [ 18.54616978, 48.68277373 ], [ 18.54595465, 48.68264289 ], [ 18.54577008, 48.68262795 ], [ 18.54518298, 48.68233335 ], [ 18.54511474, 48.68230896 ], [ 18.54464659, 48.68220195 ], [ 18.54458902, 48.68219917 ], [ 18.54435022, 48.68215673 ], [ 18.54431425, 48.68214358 ], [ 18.54421112, 48.68205782 ], [ 18.54230839, 48.6813682 ], [ 18.54208746, 48.6814648 ], [ 18.54204812, 48.68148196 ], [ 18.54202198, 48.68148288 ], [ 18.54196928, 48.68148479 ], [ 18.54189714, 48.68148735 ], [ 18.54182624, 48.68148989 ], [ 18.54172877, 48.68149342 ], [ 18.54151091, 48.68124339 ], [ 18.54141432, 48.68113362 ], [ 18.54118866, 48.6808773 ], [ 18.54110109, 48.68077615 ], [ 18.54108048, 48.68075228 ], [ 18.5408042, 48.68040567 ], [ 18.54090051, 48.68031283 ], [ 18.54102974, 48.68020185 ], [ 18.54116283, 48.68008729 ], [ 18.54131772, 48.67995407 ], [ 18.54144835, 48.67984172 ], [ 18.54153899, 48.67976373 ], [ 18.54157288, 48.67973454 ], [ 18.54175478, 48.67957806 ], [ 18.54188974, 48.67944844 ], [ 18.54211154, 48.67925164 ], [ 18.54247891, 48.67892968 ], [ 18.54284379, 48.67859269 ], [ 18.54208992, 48.67810785 ], [ 18.54131338, 48.67758956 ], [ 18.54110773, 48.67745724 ], [ 18.54101959, 48.67739901 ], [ 18.54073189, 48.67720887 ], [ 18.54069351, 48.67718332 ], [ 18.54041162, 48.67699575 ], [ 18.54011615, 48.67680574 ], [ 18.54008458, 48.67678344 ], [ 18.54003547, 48.6767489 ], [ 18.53999034, 48.67671729 ], [ 18.53949657, 48.67637541 ], [ 18.5385359, 48.67571015 ], [ 18.53807386, 48.67539146 ], [ 18.53806127, 48.6753832 ], [ 18.5380512, 48.67537651 ], [ 18.53753023, 48.67501246 ], [ 18.5374742, 48.67497331 ], [ 18.53723089, 48.67480328 ], [ 18.53716884, 48.67475991 ], [ 18.53706781, 48.67468933 ], [ 18.53647898, 48.67427835 ], [ 18.53645328, 48.67426043 ], [ 18.53640865, 48.6742293 ], [ 18.53638296, 48.67421129 ], [ 18.53615656, 48.67405328 ], [ 18.53569715, 48.67365026 ], [ 18.53498937, 48.67301855 ], [ 18.53426245, 48.67235573 ], [ 18.53421559, 48.67231301 ], [ 18.53420336, 48.67230178 ], [ 18.5341806, 48.67228105 ], [ 18.53413553, 48.67212003 ], [ 18.53297143, 48.66796503 ], [ 18.53293813, 48.66784625 ], [ 18.53202481, 48.66837749 ], [ 18.53146807, 48.6687738 ], [ 18.53093448, 48.66918329 ], [ 18.53032199, 48.66936864 ], [ 18.52933899, 48.66951189 ], [ 18.52774844, 48.66965529 ], [ 18.52590638, 48.67032527 ], [ 18.52562141, 48.67047988 ], [ 18.52465517, 48.67100942 ], [ 18.52349987, 48.67158971 ], [ 18.52316287, 48.67178559 ], [ 18.52262815, 48.672082 ], [ 18.52226019, 48.67229125 ], [ 18.52165262, 48.67257194 ], [ 18.52150091, 48.67273942 ], [ 18.52121186, 48.67305975 ], [ 18.52097824, 48.67331687 ], [ 18.52068544, 48.67372939 ], [ 18.52040367, 48.67404912 ], [ 18.52035162, 48.67411242 ], [ 18.5202065, 48.67422161 ], [ 18.52005057, 48.67433552 ], [ 18.51986824, 48.67446559 ], [ 18.5197152, 48.67460106 ], [ 18.51965086, 48.674658 ], [ 18.51875096, 48.67528796 ], [ 18.51859172, 48.67511843 ], [ 18.51836059, 48.6748743 ], [ 18.51803229, 48.67452775 ], [ 18.51779053, 48.67460547 ], [ 18.51691644, 48.67489229 ], [ 18.51666468, 48.67495079 ], [ 18.51623548, 48.67558766 ], [ 18.51611991, 48.67575901 ], [ 18.51570346, 48.67610718 ], [ 18.51546702, 48.67622517 ], [ 18.515382, 48.67626761 ], [ 18.51531829, 48.67630311 ], [ 18.51514358, 48.67640038 ], [ 18.51497824, 48.67649239 ], [ 18.51447841, 48.67677056 ], [ 18.51442862, 48.67679824 ], [ 18.51437896, 48.67682593 ], [ 18.51419635, 48.67692746 ], [ 18.51410363, 48.67697914 ], [ 18.51405194, 48.67700789 ], [ 18.5139922, 48.67704108 ], [ 18.51393389, 48.67707362 ], [ 18.51387518, 48.67710622 ], [ 18.5137217, 48.67719157 ], [ 18.51368377, 48.67721269 ], [ 18.51364789, 48.67723265 ], [ 18.51365576, 48.67727107 ], [ 18.51370513, 48.677515 ], [ 18.51248011, 48.67772841 ], [ 18.51196279, 48.67795985 ], [ 18.51138066, 48.67822023 ], [ 18.51086145, 48.67847873 ], [ 18.51021712, 48.6783777 ], [ 18.50962989, 48.67833765 ], [ 18.50920921, 48.67811658 ], [ 18.50865767, 48.67790025 ], [ 18.50834987, 48.67763087 ], [ 18.5076743, 48.67799972 ], [ 18.50748509, 48.67801118 ], [ 18.50657508, 48.67744813 ], [ 18.50555436, 48.67798329 ], [ 18.50590725, 48.67825047 ], [ 18.50564906, 48.67840586 ], [ 18.50550198, 48.67849336 ], [ 18.50548886, 48.67850121 ], [ 18.50539037, 48.67855979 ], [ 18.50473802, 48.67895733 ], [ 18.50432197, 48.67911525 ], [ 18.50369025, 48.6793587 ], [ 18.50298283, 48.67967019 ], [ 18.50220888, 48.67984139 ], [ 18.50047773, 48.68019962 ], [ 18.49902754, 48.6802981 ], [ 18.49846937, 48.68039468 ], [ 18.49785202, 48.6803502 ], [ 18.49686023, 48.68017694 ], [ 18.49530613, 48.68046711 ], [ 18.49281155, 48.68155493 ], [ 18.49229765, 48.68160582 ], [ 18.49203661, 48.6816096 ], [ 18.49164984, 48.68156071 ], [ 18.49106632, 48.68147239 ], [ 18.49097761, 48.68147988 ], [ 18.49080754, 48.68148198 ], [ 18.49055315, 48.68145554 ], [ 18.49039938, 48.68143092 ], [ 18.49019696, 48.68136826 ], [ 18.4899079, 48.68135525 ], [ 18.48939913, 48.68125668 ], [ 18.48930019, 48.68119691 ], [ 18.48910675, 48.68122345 ], [ 18.48878816, 48.68128506 ], [ 18.48822036, 48.68139298 ], [ 18.48777349, 48.68155907 ], [ 18.48754428, 48.68155025 ], [ 18.48715505, 48.68157746 ], [ 18.48703956, 48.68161488 ], [ 18.48658674, 48.68180446 ], [ 18.48640419, 48.68190596 ], [ 18.48615713, 48.68198937 ], [ 18.48587506, 48.68208457 ], [ 18.48565343, 48.68220963 ], [ 18.48557317, 48.68227579 ], [ 18.48542494, 48.68234488 ], [ 18.4850799, 48.68240972 ], [ 18.4848145, 48.68241667 ], [ 18.48480028, 48.68240614 ], [ 18.48407282, 48.68185684 ], [ 18.48346697, 48.68251276 ], [ 18.48297064, 48.68283044 ], [ 18.4827051, 48.68328111 ], [ 18.48363973, 48.68369158 ], [ 18.48435615, 48.68415753 ], [ 18.48565613, 48.68518948 ], [ 18.48656657, 48.68579956 ], [ 18.48689491, 48.68605462 ], [ 18.48696692, 48.68609008 ], [ 18.4871759, 48.68625265 ], [ 18.48733233, 48.68632569 ], [ 18.48796861, 48.68672051 ], [ 18.48861597, 48.68746698 ], [ 18.48877977, 48.68767029 ], [ 18.48892423, 48.68784853 ], [ 18.48923882, 48.68812971 ], [ 18.48943833, 48.68833092 ], [ 18.48966162, 48.6885273 ], [ 18.49000309, 48.68887133 ], [ 18.49044001, 48.68906412 ], [ 18.49097417, 48.68927606 ], [ 18.49104466, 48.68929763 ], [ 18.49155664, 48.68945384 ], [ 18.49181958, 48.68951892 ], [ 18.49222678, 48.68969013 ], [ 18.49243848, 48.68982143 ], [ 18.49278056, 48.69000439 ], [ 18.49307246, 48.69021681 ], [ 18.49361839, 48.69040024 ], [ 18.49401338, 48.69068736 ], [ 18.49433236, 48.69099052 ], [ 18.49447704, 48.69108673 ], [ 18.49455074, 48.69113058 ], [ 18.49484379, 48.6913861 ], [ 18.49494335, 48.69154327 ], [ 18.49526033, 48.69173847 ], [ 18.49552623, 48.6921313 ], [ 18.49577117, 48.69239554 ], [ 18.49617512, 48.69286039 ], [ 18.49645284, 48.69315026 ], [ 18.49656947, 48.69331928 ], [ 18.4971543, 48.6940333 ], [ 18.49777107, 48.6949179 ], [ 18.49815393, 48.69535775 ], [ 18.49833141, 48.69566124 ], [ 18.49879557, 48.69625744 ], [ 18.49890487, 48.69634899 ], [ 18.4994709, 48.69682308 ], [ 18.49955771, 48.69693975 ], [ 18.49960133, 48.69699846 ], [ 18.49973903, 48.69718334 ], [ 18.49976317, 48.69721589 ], [ 18.49983083, 48.69730688 ], [ 18.49984626, 48.69733064 ], [ 18.49994946, 48.69748945 ], [ 18.50016945, 48.69782812 ], [ 18.5001867, 48.6978547 ], [ 18.5002051, 48.69788305 ], [ 18.50022179, 48.6979087 ], [ 18.50023596, 48.6979305 ], [ 18.50032599, 48.69803778 ], [ 18.50038708, 48.69811053 ], [ 18.50050821, 48.69825462 ], [ 18.50092767, 48.69934613 ], [ 18.50117931, 48.69996439 ], [ 18.50174327, 48.70094732 ], [ 18.5018605, 48.70115644 ], [ 18.5018967, 48.70122115 ], [ 18.50198655, 48.70138328 ], [ 18.50211214, 48.70162029 ], [ 18.50138427, 48.70185188 ], [ 18.50184485, 48.70216937 ], [ 18.50212788, 48.7025568 ], [ 18.50343758, 48.70391165 ], [ 18.50412437, 48.70435552 ], [ 18.50421809, 48.70441607 ], [ 18.50439784, 48.70491532 ], [ 18.50413344, 48.70510611 ], [ 18.50492685, 48.70679133 ], [ 18.50517517, 48.70731916 ], [ 18.50542624, 48.7079547 ], [ 18.50558451, 48.70832083 ], [ 18.50597366, 48.7086758 ], [ 18.50625575, 48.7089842 ], [ 18.50644895, 48.70922609 ], [ 18.50668439, 48.70942029 ], [ 18.50670731, 48.7094507 ], [ 18.50677556, 48.70954161 ], [ 18.50680022, 48.70957446 ], [ 18.50682687, 48.70960985 ], [ 18.50691933, 48.70992455 ], [ 18.50702425, 48.71022684 ], [ 18.50677871, 48.71110542 ], [ 18.50667969, 48.71129509 ], [ 18.50668114, 48.71149587 ], [ 18.5067256, 48.71151979 ], [ 18.50686181, 48.71159286 ], [ 18.50696207, 48.71170475 ], [ 18.50718672, 48.71181535 ], [ 18.5073566, 48.71193106 ], [ 18.50742184, 48.71195015 ], [ 18.50756837, 48.71201378 ], [ 18.50777406, 48.71212558 ], [ 18.50794257, 48.71219772 ], [ 18.5081303, 48.71224601 ], [ 18.5085319, 48.71242892 ], [ 18.50873255, 48.71246546 ], [ 18.50878558, 48.71250266 ], [ 18.50890314, 48.71258752 ], [ 18.50900865, 48.71266189 ], [ 18.50917619, 48.71275924 ], [ 18.50926186, 48.71280906 ], [ 18.50941298, 48.71281978 ], [ 18.50948301, 48.71286278 ], [ 18.50952984, 48.71292328 ], [ 18.50955682, 48.71295725 ], [ 18.50959449, 48.71300489 ], [ 18.50997994, 48.71333004 ], [ 18.51003661, 48.7133196 ] ] ] ] } }
]
}
