{
"type": "FeatureCollection",
"name": "gis",
"crs": { "type": "name", "properties": { "name": "urn:ogc:def:crs:OGC:1.3:CRS84" } },
"features": [
{ "type": "Feature", "properties": { "place_id": 190670302, "osm_type": "way", "osm_id": 332634979, "place_rank": 20, "category": "water", "type": "lake", "importance": 0.30093685344584264, "addresstype": "lake", "name": "Malé Morské oko", "display_name": "Malé Morské oko, Remetské Hámre, okres Sobrance, Košický kraj, Slovensko" }, "geometry": { "type": "Polygon", "coordinates": [ [ [ 22.1825415, 48.9122755 ], [ 22.1825664, 48.9122212 ], [ 22.18259, 48.912169 ], [ 22.1826856, 48.9120646 ], [ 22.1827874, 48.9120318 ], [ 22.1828431, 48.9119826 ], [ 22.1830372, 48.9119573 ], [ 22.1831909, 48.9119447 ], [ 22.1832928, 48.9119826 ], [ 22.1833735, 48.9120432 ], [ 22.18346, 48.912124 ], [ 22.18346, 48.9122036 ], [ 22.1834753, 48.9122793 ], [ 22.1834542, 48.9123033 ], [ 22.1833831, 48.9123286 ], [ 22.1833062, 48.9123867 ], [ 22.1832198, 48.9123905 ], [ 22.1831256, 48.9123564 ], [ 22.1829527, 48.9123399 ], [ 22.1828124, 48.912345 ], [ 22.1827317, 48.9123159 ], [ 22.1826395, 48.9123058 ], [ 22.1825415, 48.9122755 ] ] ] } }
]
}
