{
"type": "FeatureCollection",
"name": "gis",
"crs": { "type": "name", "properties": { "name": "urn:ogc:def:crs:OGC:1.3:CRS84" } },
"features": [
{ "type": "Feature", "properties": { "@featureType": "CadastralParcel", "areaValue": { "value": 1448, "@uom": "m2" }, "beginLifespanVersion": { "@nilReason": "http://inspire.ec.europa.eu/codelist/VoidReasonValue/Unpopulated", "@nil": "true" }, "endLifespanVersion": { "@nilReason": "http://inspire.ec.europa.eu/codelist/VoidReasonValue/Unpopulated", "@nil": "true" }, "inspireId": { "@dataType": "Identifier", "localId": "874027_1527.C", "namespace": "SK.ESKN.CP", "versionId": "20260703T07:07:26" }, "label": "1527", "nationalCadastralReference": "874027_1527.C", "referencePoint": { "type": "Point", "coordinates": [ 19.22152889, 49.17001383 ] }, "validFrom": "2026-06-30T16:00:00Z", "validTo": { "@nilReason": "http://inspire.ec.europa.eu/codelist/VoidReasonValue/Unpopulated", "@nil": "true" }, "administrativeUnit": { "@href": "#auAdmUnitS.1226" } }, "geometry": { "type": "Polygon", "coordinates": [ [ [ 19.22119503, 49.17039719 ], [ 19.22120811, 49.17039466 ], [ 19.22111042, 49.1703153 ], [ 19.22124611, 49.17023086 ], [ 19.2213157, 49.17018903 ], [ 19.22138818, 49.17014843 ], [ 19.22140078, 49.17014273 ], [ 19.22146837, 49.17010649 ], [ 19.22152129, 49.17007595 ], [ 19.22156925, 49.17005048 ], [ 19.22162463, 49.17002258 ], [ 19.22176026, 49.1699632 ], [ 19.22181046, 49.16993983 ], [ 19.22186656, 49.16991404 ], [ 19.22188023, 49.16990739 ], [ 19.22199194, 49.16985534 ], [ 19.22207641, 49.16981576 ], [ 19.22222897, 49.16974268 ], [ 19.22233004, 49.16969479 ], [ 19.22242031, 49.16965496 ], [ 19.22252989, 49.16966492 ], [ 19.2222876, 49.169585 ], [ 19.22227914, 49.16960903 ], [ 19.22201602, 49.16973486 ], [ 19.22186463, 49.16980728 ], [ 19.22164532, 49.16990167 ], [ 19.22153035, 49.169957 ], [ 19.22142788, 49.17000509 ], [ 19.22132977, 49.17006339 ], [ 19.22123857, 49.1701177 ], [ 19.22117509, 49.17015413 ], [ 19.22105425, 49.17022622 ], [ 19.22090455, 49.17031792 ], [ 19.22092794, 49.17033375 ], [ 19.22095938, 49.1703551 ], [ 19.2209889, 49.17037509 ], [ 19.22109894, 49.17044973 ], [ 19.22119503, 49.17039719 ] ] ] } },
{ "type": "Feature", "properties": { "@featureType": "CadastralParcel", "areaValue": { "value": 388, "@uom": "m2" }, "beginLifespanVersion": { "@nilReason": "http://inspire.ec.europa.eu/codelist/VoidReasonValue/Unpopulated", "@nil": "true" }, "endLifespanVersion": { "@nilReason": "http://inspire.ec.europa.eu/codelist/VoidReasonValue/Unpopulated", "@nil": "true" }, "inspireId": { "@dataType": "Identifier", "localId": "874027_7439.C", "namespace": "SK.ESKN.CP", "versionId": "20260703T07:07:26" }, "label": "7439", "nationalCadastralReference": "874027_7439.C", "referencePoint": { "type": "Point", "coordinates": [ 19.22065023, 49.17088207 ] }, "validFrom": "2026-06-30T16:00:00Z", "validTo": { "@nilReason": "http://inspire.ec.europa.eu/codelist/VoidReasonValue/Unpopulated", "@nil": "true" }, "administrativeUnit": { "@href": "#auAdmUnitS.1226" } }, "geometry": { "type": "Polygon", "coordinates": [ [ [ 19.22051903, 49.1711719 ], [ 19.22057561, 49.17107679 ], [ 19.22066134, 49.1709032 ], [ 19.22066558, 49.17089475 ], [ 19.22079538, 49.17063213 ], [ 19.22080354, 49.17061575 ], [ 19.22095938, 49.1703551 ], [ 19.22092794, 49.17033375 ], [ 19.2207951, 49.17055601 ], [ 19.22076481, 49.17060667 ], [ 19.22071417, 49.17070892 ], [ 19.22063487, 49.17086938 ], [ 19.22058027, 49.17098 ], [ 19.22053689, 49.17106772 ], [ 19.220524, 49.17108946 ], [ 19.22047083, 49.17117869 ], [ 19.22042761, 49.17126127 ], [ 19.2203848, 49.17134397 ], [ 19.22033657, 49.17143695 ], [ 19.22037517, 49.17144593 ], [ 19.22046035, 49.17128205 ], [ 19.22050733, 49.17119162 ], [ 19.22051903, 49.1711719 ] ] ] } }
]
}
