{
"type": "FeatureCollection",
"name": "gis",
"crs": { "type": "name", "properties": { "name": "urn:ogc:def:crs:OGC:1.3:CRS84" } },
"features": [
{ "type": "Feature", "properties": { "@featureType": "CadastralZoning", "beginLifespanVersion": { "@nilReason": "http://inspire.ec.europa.eu/codelist/VoidReasonValue/Unpopulated", "@nil": "true" }, "endLifespanVersion": { "@nilReason": "http://inspire.ec.europa.eu/codelist/VoidReasonValue/Unpopulated", "@nil": "true" }, "estimatedAccuracy": { "value": -1, "@uom": "m" }, "inspireId": { "@dataType": "Identifier", "localId": "819867", "namespace": "SK.ESKN.CP", "versionId": "20260703T04:07:40" }, "label": "Hrubý Šúr", "level": { "@href": "http://inspire.ec.europa.eu/codelist/CadastralZoningLevelValue/3rdOrder" }, "levelName": { "value": "Katastrálne územie", "@locale": "sk" }, "name": { "@dataType": "name", "GeographicalName": { "@dataType": "GeographicalName", "language": "SLK", "nativeness": { "@href": "http://inspire.ec.europa.eu/codelist/NativenessValue/endonym", "@title": "endonym" }, "nameStatus": { "@href": "http://inspire.ec.europa.eu/codelist/NameStatusValue/official", "@title": "official" }, "sourceOfName": { "@nilReason": "http://inspire.ec.europa.eu/codelist/VoidReasonValue/Unpopulated", "@nil": "true" }, "pronunciation": { "@dataType": "pronunciation", "@nilReason": "http://inspire.ec.europa.eu/codelist/VoidReasonValue/Unpopulated", "@nil": "true" }, "spelling": { "@dataType": "SpellingOfName", "text": "Hrubý Šúr", "script": "LATN" } } }, "nationalCadastalZoningReference": "819867", "validFrom": "2026-06-30T16:00:00Z", "validTo": { "@nilReason": "http://inspire.ec.europa.eu/codelist/VoidReasonValue/Unpopulated", "@nil": "true" } }, "geometry": { "type": "MultiPolygon", "coordinates": [ [ [ [ 17.4220177, 48.18869815 ], [ 17.42487894, 48.18624892 ], [ 17.42433442, 48.18602379 ], [ 17.42424507, 48.18598681 ], [ 17.42461641, 48.1839067 ], [ 17.4247108, 48.18339202 ], [ 17.42472263, 48.18332918 ], [ 17.42474913, 48.18316175 ], [ 17.42475499, 48.18309165 ], [ 17.42475868, 48.18304671 ], [ 17.42475928, 48.18301937 ], [ 17.42476083, 48.18295568 ], [ 17.42476408, 48.1828162 ], [ 17.42476573, 48.18274719 ], [ 17.42476358, 48.1825844 ], [ 17.42476069, 48.18237739 ], [ 17.42472282, 48.18227255 ], [ 17.42464672, 48.18206177 ], [ 17.42460812, 48.18197406 ], [ 17.42458395, 48.18191909 ], [ 17.424548, 48.18183733 ], [ 17.42451704, 48.18176682 ], [ 17.42448698, 48.18169846 ], [ 17.42441255, 48.18152917 ], [ 17.42436956, 48.18142427 ], [ 17.42432898, 48.18132513 ], [ 17.42430897, 48.18129637 ], [ 17.42430417, 48.18128946 ], [ 17.42425825, 48.18122331 ], [ 17.42421187, 48.1811566 ], [ 17.42404181, 48.18091089 ], [ 17.42401481, 48.18087172 ], [ 17.42394517, 48.18064058 ], [ 17.42393595, 48.18061017 ], [ 17.42394561, 48.18044978 ], [ 17.42395239, 48.18033899 ], [ 17.42396965, 48.18005377 ], [ 17.42397227, 48.18001156 ], [ 17.4239891, 48.17986881 ], [ 17.42400443, 48.17973824 ], [ 17.42401341, 48.17966157 ], [ 17.42377549, 48.17972481 ], [ 17.4237826, 48.17970467 ], [ 17.42382332, 48.17958994 ], [ 17.42386523, 48.17947168 ], [ 17.42389418, 48.17939052 ], [ 17.42390486, 48.17936077 ], [ 17.42393887, 48.1792662 ], [ 17.42396795, 48.17918506 ], [ 17.42405045, 48.17884607 ], [ 17.42412818, 48.17852592 ], [ 17.42426235, 48.17797822 ], [ 17.42427491, 48.17792709 ], [ 17.42428442, 48.17789328 ], [ 17.42437101, 48.17758374 ], [ 17.42447378, 48.17725303 ], [ 17.42456739, 48.1770718 ], [ 17.42458824, 48.1770315 ], [ 17.42463223, 48.17694635 ], [ 17.42468899, 48.1767677 ], [ 17.42477111, 48.17650929 ], [ 17.42485365, 48.17629174 ], [ 17.42489908, 48.17616783 ], [ 17.42494292, 48.17604463 ], [ 17.4250923, 48.17563292 ], [ 17.42522131, 48.1752843 ], [ 17.42522595, 48.17527556 ], [ 17.42522872, 48.1752705 ], [ 17.42534941, 48.17504604 ], [ 17.42536202, 48.17502246 ], [ 17.42549604, 48.17479362 ], [ 17.42564067, 48.17452057 ], [ 17.42577454, 48.17426768 ], [ 17.42577937, 48.1742586 ], [ 17.42580383, 48.17419071 ], [ 17.42580422, 48.17418983 ], [ 17.42580947, 48.17417978 ], [ 17.42581636, 48.17416676 ], [ 17.42587483, 48.17405626 ], [ 17.42620932, 48.17374368 ], [ 17.42621713, 48.17373641 ], [ 17.42635924, 48.17337284 ], [ 17.4263743, 48.17333424 ], [ 17.4266239, 48.17295695 ], [ 17.42664587, 48.17293218 ], [ 17.4266496, 48.1729279 ], [ 17.42666906, 48.17289808 ], [ 17.42687531, 48.17258295 ], [ 17.42687854, 48.17257747 ], [ 17.42689101, 48.17255668 ], [ 17.42694394, 48.1724685 ], [ 17.42694411, 48.17242921 ], [ 17.42694422, 48.17240057 ], [ 17.42694447, 48.1723058 ], [ 17.42694444, 48.17229297 ], [ 17.42694451, 48.1722665 ], [ 17.426945, 48.172131 ], [ 17.4269435, 48.1720381 ], [ 17.42693967, 48.171805 ], [ 17.42694037, 48.17168487 ], [ 17.42694198, 48.17156869 ], [ 17.42694368, 48.17136351 ], [ 17.42695362, 48.17121416 ], [ 17.42695654, 48.17113077 ], [ 17.42695684, 48.17112311 ], [ 17.42695064, 48.17110816 ], [ 17.42688868, 48.17089677 ], [ 17.42682846, 48.170691 ], [ 17.42678737, 48.170548 ], [ 17.42678194, 48.17052958 ], [ 17.42675201, 48.17048544 ], [ 17.42663076, 48.1702907 ], [ 17.42653896, 48.17014342 ], [ 17.42644969, 48.17000009 ], [ 17.42633632, 48.16981806 ], [ 17.42624354, 48.16966909 ], [ 17.42620592, 48.16960728 ], [ 17.4260723, 48.16938798 ], [ 17.42600797, 48.16928223 ], [ 17.42600414, 48.16927602 ], [ 17.42592052, 48.16913848 ], [ 17.42591781, 48.16913479 ], [ 17.4258894, 48.16909137 ], [ 17.42588306, 48.16908202 ], [ 17.42576686, 48.16890559 ], [ 17.4257563, 48.168889 ], [ 17.42563392, 48.16869744 ], [ 17.42563005, 48.16869159 ], [ 17.42551296, 48.16851284 ], [ 17.4255123, 48.1685118 ], [ 17.42550292, 48.16849737 ], [ 17.42543835, 48.16839884 ], [ 17.42538851, 48.16832259 ], [ 17.42530179, 48.16818774 ], [ 17.42521114, 48.16804189 ], [ 17.42520609, 48.16803388 ], [ 17.42514343, 48.1679352 ], [ 17.42501185, 48.16772796 ], [ 17.42498593, 48.16768697 ], [ 17.42487837, 48.16752266 ], [ 17.42478265, 48.16737639 ], [ 17.42469731, 48.16724606 ], [ 17.42469066, 48.16723605 ], [ 17.42462868, 48.16714103 ], [ 17.42459736, 48.16709074 ], [ 17.42449064, 48.16691972 ], [ 17.42444234, 48.16684221 ], [ 17.42438758, 48.16675426 ], [ 17.42432315, 48.16665104 ], [ 17.42429577, 48.16660706 ], [ 17.42426819, 48.16656452 ], [ 17.42422581, 48.16649924 ], [ 17.42415473, 48.16638971 ], [ 17.42411193, 48.16625663 ], [ 17.42407212, 48.16613279 ], [ 17.42400792, 48.16593317 ], [ 17.42395373, 48.16576411 ], [ 17.42394407, 48.16573394 ], [ 17.42390414, 48.165609 ], [ 17.42387067, 48.16550472 ], [ 17.4238411, 48.16541262 ], [ 17.42378622, 48.1652409 ], [ 17.42377099, 48.1652044 ], [ 17.42367442, 48.16502129 ], [ 17.42360999, 48.16489485 ], [ 17.42355242, 48.16480581 ], [ 17.4234645, 48.16467007 ], [ 17.42333104, 48.16446378 ], [ 17.42321787, 48.1642889 ], [ 17.42321499, 48.16428456 ], [ 17.42318477, 48.16423786 ], [ 17.42312188, 48.16413899 ], [ 17.42306479, 48.16404944 ], [ 17.42303114, 48.16399656 ], [ 17.42302915, 48.16399354 ], [ 17.42299285, 48.1639366 ], [ 17.42295996, 48.16388504 ], [ 17.42292478, 48.16382971 ], [ 17.4228863, 48.1637692 ], [ 17.42288444, 48.16376619 ], [ 17.42284266, 48.16370049 ], [ 17.42283805, 48.16369323 ], [ 17.4227927, 48.16362234 ], [ 17.42285777, 48.16355654 ], [ 17.42287076, 48.16354338 ], [ 17.42308223, 48.16332518 ], [ 17.42327509, 48.16312909 ], [ 17.42341473, 48.16298691 ], [ 17.4235388, 48.16285809 ], [ 17.42355644, 48.16283981 ], [ 17.42360386, 48.16279048 ], [ 17.42367033, 48.16272153 ], [ 17.42387208, 48.16250974 ], [ 17.4238842, 48.16249698 ], [ 17.42390154, 48.16247895 ], [ 17.42395612, 48.16237841 ], [ 17.42412659, 48.16206403 ], [ 17.424205, 48.16192871 ], [ 17.42423782, 48.16186172 ], [ 17.42425855, 48.16181942 ], [ 17.42427227, 48.16172219 ], [ 17.42428775, 48.16161287 ], [ 17.42429717, 48.16147921 ], [ 17.4242987, 48.16145564 ], [ 17.42429881, 48.16145393 ], [ 17.42429911, 48.16145006 ], [ 17.42462418, 48.16150499 ], [ 17.42476074, 48.16152805 ], [ 17.42488729, 48.16154947 ], [ 17.42511375, 48.16158778 ], [ 17.42533482, 48.1616251 ], [ 17.42555179, 48.16166179 ], [ 17.42576917, 48.16169851 ], [ 17.42583652, 48.16170994 ], [ 17.42583938, 48.16169494 ], [ 17.42589434, 48.16140486 ], [ 17.42590103, 48.16136897 ], [ 17.42593095, 48.16121134 ], [ 17.42603037, 48.16068578 ], [ 17.42607177, 48.16046764 ], [ 17.42607605, 48.1604447 ], [ 17.42607958, 48.16042595 ], [ 17.42608361, 48.16040471 ], [ 17.4262269, 48.15964771 ], [ 17.42633185, 48.15909332 ], [ 17.42634532, 48.15902191 ], [ 17.4263521, 48.15898639 ], [ 17.42652708, 48.15806131 ], [ 17.42665914, 48.15741969 ], [ 17.4267428, 48.15701373 ], [ 17.42678394, 48.1568169 ], [ 17.42679993, 48.15674023 ], [ 17.42681448, 48.1566707 ], [ 17.42683486, 48.15657317 ], [ 17.42688456, 48.15633596 ], [ 17.42690975, 48.15621544 ], [ 17.42692179, 48.15615767 ], [ 17.42693444, 48.1560975 ], [ 17.42696571, 48.15594818 ], [ 17.42698364, 48.15586279 ], [ 17.42700767, 48.15574752 ], [ 17.42700936, 48.15573959 ], [ 17.42701598, 48.15570794 ], [ 17.4270329, 48.15562582 ], [ 17.4271058, 48.15527257 ], [ 17.42711775, 48.15521443 ], [ 17.42713062, 48.15515184 ], [ 17.42718253, 48.15490031 ], [ 17.42720849, 48.15477451 ], [ 17.42722672, 48.15468615 ], [ 17.42733418, 48.15416645 ], [ 17.42669014, 48.15410443 ], [ 17.425474, 48.15398733 ], [ 17.42381732, 48.15382775 ], [ 17.42383829, 48.15378936 ], [ 17.42391606, 48.15364722 ], [ 17.42414679, 48.15328119 ], [ 17.42415201, 48.15327412 ], [ 17.4242704, 48.15311538 ], [ 17.42438412, 48.15296275 ], [ 17.42441111, 48.15292656 ], [ 17.42434923, 48.15292217 ], [ 17.4242296, 48.15291376 ], [ 17.42414739, 48.15290796 ], [ 17.42414525, 48.15290782 ], [ 17.4240458, 48.15290082 ], [ 17.4237754, 48.15291522 ], [ 17.4236381, 48.15292246 ], [ 17.42340614, 48.15295852 ], [ 17.42315853, 48.15302609 ], [ 17.42312298, 48.15303841 ], [ 17.42309342, 48.1530486 ], [ 17.42307607, 48.15305461 ], [ 17.42274395, 48.15316945 ], [ 17.42242748, 48.15334566 ], [ 17.4221756, 48.15344168 ], [ 17.42177163, 48.15359558 ], [ 17.42168796, 48.15354225 ], [ 17.42163678, 48.15350973 ], [ 17.42159574, 48.15348366 ], [ 17.42158609, 48.15347572 ], [ 17.42149642, 48.1534023 ], [ 17.42146526, 48.15337605 ], [ 17.42113611, 48.15309866 ], [ 17.42112144, 48.15308623 ], [ 17.42102905, 48.15300838 ], [ 17.42078454, 48.15280273 ], [ 17.42044637, 48.15290714 ], [ 17.42011992, 48.1530377 ], [ 17.41995593, 48.15312913 ], [ 17.41974273, 48.15320616 ], [ 17.41954683, 48.15325052 ], [ 17.41936556, 48.15329357 ], [ 17.41900689, 48.15338941 ], [ 17.41876747, 48.15343862 ], [ 17.41843069, 48.15349071 ], [ 17.41824764, 48.1535228 ], [ 17.4178308, 48.15355052 ], [ 17.41759834, 48.15357235 ], [ 17.41698736, 48.15357839 ], [ 17.41679186, 48.15358654 ], [ 17.41675938, 48.15358795 ], [ 17.41659197, 48.1535775 ], [ 17.41640039, 48.15352527 ], [ 17.41633298, 48.15350688 ], [ 17.41622629, 48.15347256 ], [ 17.41609309, 48.15341446 ], [ 17.4159357, 48.15338244 ], [ 17.4157413, 48.15332822 ], [ 17.41572768, 48.15332435 ], [ 17.41546769, 48.1532355 ], [ 17.41543724, 48.15322764 ], [ 17.41503026, 48.15312254 ], [ 17.41493636, 48.15308579 ], [ 17.41468157, 48.15298625 ], [ 17.41466116, 48.15297896 ], [ 17.41435335, 48.15286802 ], [ 17.41389822, 48.15273004 ], [ 17.41341119, 48.15259333 ], [ 17.41305825, 48.15250113 ], [ 17.41231248, 48.1523144 ], [ 17.4116104, 48.15216891 ], [ 17.41075499, 48.15199979 ], [ 17.41018947, 48.15190421 ], [ 17.41009706, 48.15188509 ], [ 17.40972731, 48.15181383 ], [ 17.40907757, 48.15169388 ], [ 17.40883395, 48.15166707 ], [ 17.40808195, 48.15158264 ], [ 17.40795413, 48.15157395 ], [ 17.40767348, 48.15155485 ], [ 17.40756236, 48.15155194 ], [ 17.40749819, 48.15155029 ], [ 17.40705197, 48.15153964 ], [ 17.40675282, 48.15157896 ], [ 17.40638994, 48.1516173 ], [ 17.40602516, 48.15163626 ], [ 17.40555106, 48.15166218 ], [ 17.40503393, 48.15162567 ], [ 17.40468091, 48.15161115 ], [ 17.40421689, 48.15165318 ], [ 17.40367044, 48.15169562 ], [ 17.40306797, 48.15174072 ], [ 17.40295845, 48.15175834 ], [ 17.4026397, 48.15182746 ], [ 17.40237951, 48.15189217 ], [ 17.40214199, 48.15199785 ], [ 17.40178794, 48.15208581 ], [ 17.40121932, 48.15223215 ], [ 17.40084178, 48.15246279 ], [ 17.40030307, 48.15266611 ], [ 17.40008494, 48.15276374 ], [ 17.39983862, 48.15287408 ], [ 17.3994848, 48.15303452 ], [ 17.39924903, 48.15316145 ], [ 17.39897441, 48.15333898 ], [ 17.3988025, 48.15346692 ], [ 17.39850873, 48.153736 ], [ 17.39838913, 48.15388949 ], [ 17.39820813, 48.15412508 ], [ 17.39799523, 48.15443784 ], [ 17.397826, 48.15471776 ], [ 17.39769575, 48.15509898 ], [ 17.39764067, 48.15531008 ], [ 17.39758726, 48.15569966 ], [ 17.39754819, 48.15605936 ], [ 17.39760765, 48.15618044 ], [ 17.397773, 48.15654879 ], [ 17.39791331, 48.15681195 ], [ 17.39798619, 48.15694293 ], [ 17.39808207, 48.15711247 ], [ 17.39811551, 48.1571573 ], [ 17.39822427, 48.15727744 ], [ 17.39856029, 48.15764978 ], [ 17.3989972, 48.15805274 ], [ 17.39929684, 48.1583393 ], [ 17.39952023, 48.15850785 ], [ 17.39973171, 48.15869143 ], [ 17.40037952, 48.15918657 ], [ 17.40093982, 48.15955854 ], [ 17.40138074, 48.15984979 ], [ 17.40186615, 48.16007581 ], [ 17.40199515, 48.160135 ], [ 17.40249078, 48.16036232 ], [ 17.40262694, 48.16040762 ], [ 17.40304688, 48.16053611 ], [ 17.40319857, 48.16057401 ], [ 17.40362766, 48.16066199 ], [ 17.40388283, 48.16069137 ], [ 17.40413064, 48.16071556 ], [ 17.40498029, 48.16091679 ], [ 17.4067807, 48.16137904 ], [ 17.40722735, 48.16150791 ], [ 17.40796543, 48.16172515 ], [ 17.40813888, 48.16179636 ], [ 17.40842478, 48.16194493 ], [ 17.40853691, 48.1620032 ], [ 17.4086164, 48.16206015 ], [ 17.40879413, 48.16218739 ], [ 17.40893026, 48.16223014 ], [ 17.4090837, 48.16232652 ], [ 17.4093078, 48.16247476 ], [ 17.40944742, 48.16263178 ], [ 17.40954787, 48.1627388 ], [ 17.40960949, 48.16280444 ], [ 17.40981769, 48.16307679 ], [ 17.41002847, 48.16337966 ], [ 17.41003697, 48.1634094 ], [ 17.41007596, 48.16354793 ], [ 17.41009291, 48.16360596 ], [ 17.41011962, 48.16369716 ], [ 17.41014402, 48.16378007 ], [ 17.4101455, 48.16378749 ], [ 17.41018268, 48.1639812 ], [ 17.41019913, 48.16405194 ], [ 17.41022899, 48.16417993 ], [ 17.41022157, 48.16424758 ], [ 17.41018323, 48.1645982 ], [ 17.41016449, 48.16466204 ], [ 17.41013516, 48.16476242 ], [ 17.41006386, 48.16493397 ], [ 17.41006881, 48.16511429 ], [ 17.40991002, 48.16527174 ], [ 17.40949747, 48.1656766 ], [ 17.40945367, 48.16572417 ], [ 17.40913254, 48.16593249 ], [ 17.40852246, 48.16629873 ], [ 17.40786435, 48.16651699 ], [ 17.40737111, 48.16661596 ], [ 17.40722514, 48.16663139 ], [ 17.40623722, 48.16665918 ], [ 17.40620287, 48.1668598 ], [ 17.4061937, 48.1669135 ], [ 17.40618916, 48.16694004 ], [ 17.4061839, 48.1669706 ], [ 17.40617662, 48.16698161 ], [ 17.40612656, 48.16705641 ], [ 17.40607474, 48.167134 ], [ 17.40600556, 48.1672213 ], [ 17.4059718, 48.16726391 ], [ 17.40592693, 48.16732063 ], [ 17.40585624, 48.16740999 ], [ 17.40570645, 48.16759911 ], [ 17.40564983, 48.16767069 ], [ 17.4055542, 48.16779494 ], [ 17.40548239, 48.1678883 ], [ 17.40540808, 48.16798484 ], [ 17.40534477, 48.16806709 ], [ 17.40526152, 48.16817679 ], [ 17.40518662, 48.16827555 ], [ 17.40511206, 48.16837388 ], [ 17.40501941, 48.16849615 ], [ 17.40480147, 48.1687766 ], [ 17.40467033, 48.16894525 ], [ 17.40464392, 48.16898464 ], [ 17.40442168, 48.16931687 ], [ 17.40435088, 48.16942267 ], [ 17.40411184, 48.16966705 ], [ 17.40401328, 48.1697678 ], [ 17.40388164, 48.169899 ], [ 17.40381604, 48.16996448 ], [ 17.40367341, 48.17010807 ], [ 17.40363237, 48.17014778 ], [ 17.40358633, 48.17019583 ], [ 17.40340427, 48.17037923 ], [ 17.40336623, 48.17041777 ], [ 17.40320978, 48.17059498 ], [ 17.40316285, 48.17064821 ], [ 17.4030145, 48.17081248 ], [ 17.40291189, 48.17092615 ], [ 17.40288283, 48.17098932 ], [ 17.4028206, 48.17109188 ], [ 17.40269173, 48.17130604 ], [ 17.40248785, 48.17177816 ], [ 17.40232154, 48.17219815 ], [ 17.40215202, 48.17231857 ], [ 17.4020023, 48.17242176 ], [ 17.40182783, 48.17259742 ], [ 17.40166018, 48.17276613 ], [ 17.40156356, 48.17294335 ], [ 17.40148517, 48.17324022 ], [ 17.40110933, 48.1735045 ], [ 17.40083228, 48.17376845 ], [ 17.40069292, 48.17386725 ], [ 17.40038027, 48.17408903 ], [ 17.40008587, 48.1741217 ], [ 17.39965091, 48.17410471 ], [ 17.39935363, 48.17402551 ], [ 17.39926662, 48.17400239 ], [ 17.39905776, 48.17390239 ], [ 17.39892546, 48.17380349 ], [ 17.39888588, 48.1737729 ], [ 17.39872287, 48.17367163 ], [ 17.39853789, 48.17349864 ], [ 17.3985238, 48.17348127 ], [ 17.3985206, 48.17347727 ], [ 17.39838001, 48.17330373 ], [ 17.39824999, 48.1731411 ], [ 17.39810977, 48.1729178 ], [ 17.39799651, 48.17267728 ], [ 17.39785127, 48.1723726 ], [ 17.39778447, 48.172273 ], [ 17.39766239, 48.17208649 ], [ 17.39742164, 48.17184118 ], [ 17.39723039, 48.17163623 ], [ 17.39714292, 48.17154125 ], [ 17.39711611, 48.17151203 ], [ 17.39710024, 48.17149211 ], [ 17.39695124, 48.17130592 ], [ 17.39690045, 48.17121513 ], [ 17.3968569, 48.17113025 ], [ 17.39686953, 48.17103719 ], [ 17.39689413, 48.1709037 ], [ 17.39702527, 48.17072512 ], [ 17.39731907, 48.17042505 ], [ 17.3974267, 48.17030484 ], [ 17.39747098, 48.17024204 ], [ 17.39766189, 48.16982863 ], [ 17.39766812, 48.16976271 ], [ 17.39762746, 48.16961729 ], [ 17.39752154, 48.16937192 ], [ 17.39730435, 48.16903082 ], [ 17.39713102, 48.16885036 ], [ 17.3969445, 48.16872045 ], [ 17.39667261, 48.16854151 ], [ 17.39663132, 48.16851433 ], [ 17.39660076, 48.16849417 ], [ 17.39654118, 48.1684526 ], [ 17.39644086, 48.1683828 ], [ 17.39624637, 48.1682474 ], [ 17.39592301, 48.16851401 ], [ 17.39558563, 48.16864335 ], [ 17.39529136, 48.16874287 ], [ 17.39499419, 48.16881691 ], [ 17.39450832, 48.16892607 ], [ 17.39407103, 48.16896241 ], [ 17.39346531, 48.16899859 ], [ 17.39320008, 48.16901661 ], [ 17.39291426, 48.16903599 ], [ 17.3926448, 48.16905427 ], [ 17.39240766, 48.16905569 ], [ 17.3920866, 48.1690481 ], [ 17.39171972, 48.16903978 ], [ 17.39131148, 48.16901303 ], [ 17.39081463, 48.1690002 ], [ 17.3905097, 48.16896998 ], [ 17.39019341, 48.16893713 ], [ 17.39010226, 48.16893967 ], [ 17.38978381, 48.16894842 ], [ 17.38980011, 48.16934481 ], [ 17.38976491, 48.16952857 ], [ 17.38970599, 48.16983601 ], [ 17.38959215, 48.17047701 ], [ 17.38956451, 48.17061734 ], [ 17.38952181, 48.1707979 ], [ 17.38947674, 48.17102799 ], [ 17.38940268, 48.1710809 ], [ 17.38939235, 48.17117483 ], [ 17.38946265, 48.17129472 ], [ 17.38948143, 48.17148625 ], [ 17.389542, 48.17161364 ], [ 17.389562, 48.17170802 ], [ 17.38959927, 48.17183668 ], [ 17.3894917, 48.17211276 ], [ 17.38951345, 48.17222099 ], [ 17.38959096, 48.17226843 ], [ 17.38972032, 48.17236136 ], [ 17.38976511, 48.17240992 ], [ 17.38987753, 48.17252262 ], [ 17.3899826, 48.17265337 ], [ 17.39005945, 48.17279411 ], [ 17.39009077, 48.17294417 ], [ 17.39014131, 48.17307921 ], [ 17.39023637, 48.17311931 ], [ 17.39022658, 48.17313177 ], [ 17.39002801, 48.17338248 ], [ 17.3899554, 48.17349674 ], [ 17.38990195, 48.17360006 ], [ 17.38982972, 48.17373946 ], [ 17.38979553, 48.17381268 ], [ 17.38972472, 48.17396456 ], [ 17.38971096, 48.17399403 ], [ 17.38969689, 48.17404696 ], [ 17.3896826, 48.17420497 ], [ 17.38966773, 48.17432997 ], [ 17.38966018, 48.17439282 ], [ 17.38964352, 48.17466516 ], [ 17.38964325, 48.17477249 ], [ 17.38964584, 48.17480194 ], [ 17.38967045, 48.17508592 ], [ 17.38970996, 48.17524925 ], [ 17.38968087, 48.17529859 ], [ 17.38960799, 48.17542214 ], [ 17.38963926, 48.17555313 ], [ 17.38966102, 48.17564464 ], [ 17.38964125, 48.17585687 ], [ 17.38960167, 48.17608724 ], [ 17.38958484, 48.17615445 ], [ 17.38957412, 48.17619731 ], [ 17.38955302, 48.17628168 ], [ 17.38953811, 48.17629589 ], [ 17.38942111, 48.17640698 ], [ 17.38939257, 48.17643403 ], [ 17.38935166, 48.17645883 ], [ 17.38930522, 48.17649375 ], [ 17.38917938, 48.17658854 ], [ 17.38915479, 48.17660709 ], [ 17.38891689, 48.17677815 ], [ 17.3888778, 48.17680622 ], [ 17.38862393, 48.17694326 ], [ 17.38834985, 48.17706045 ], [ 17.38828766, 48.17708295 ], [ 17.38812046, 48.1771436 ], [ 17.38795089, 48.17721032 ], [ 17.38770101, 48.17733478 ], [ 17.38759856, 48.17737481 ], [ 17.38723131, 48.17751473 ], [ 17.38693295, 48.17758072 ], [ 17.38609358, 48.17777935 ], [ 17.38591789, 48.17782408 ], [ 17.38571057, 48.17792719 ], [ 17.38557204, 48.17800244 ], [ 17.38545234, 48.17808842 ], [ 17.38528752, 48.1782187 ], [ 17.38516272, 48.17840157 ], [ 17.38504726, 48.17861578 ], [ 17.38504966, 48.17884437 ], [ 17.38512177, 48.17917113 ], [ 17.38542748, 48.17948866 ], [ 17.38551727, 48.17955932 ], [ 17.38576405, 48.17972354 ], [ 17.3861168, 48.17994014 ], [ 17.38635439, 48.18001648 ], [ 17.38696396, 48.18020467 ], [ 17.38738952, 48.18033358 ], [ 17.38776327, 48.18039812 ], [ 17.38805789, 48.18043371 ], [ 17.38845835, 48.18043285 ], [ 17.38866659, 48.18035401 ], [ 17.38873149, 48.18029265 ], [ 17.38887726, 48.18034644 ], [ 17.38904031, 48.18035031 ], [ 17.38973436, 48.18036157 ], [ 17.39028399, 48.1803746 ], [ 17.39082539, 48.18039034 ], [ 17.39349696, 48.18045051 ], [ 17.3938988, 48.18029394 ], [ 17.39454198, 48.18004359 ], [ 17.39464463, 48.17996879 ], [ 17.39472754, 48.17992007 ], [ 17.39486315, 48.18000365 ], [ 17.3949784, 48.18007035 ], [ 17.39501187, 48.18014564 ], [ 17.39520053, 48.18020087 ], [ 17.39606194, 48.18014476 ], [ 17.3966838, 48.18005069 ], [ 17.39712079, 48.17998739 ], [ 17.39740514, 48.17992199 ], [ 17.3980067, 48.17980681 ], [ 17.39816876, 48.17977301 ], [ 17.39847803, 48.17968493 ], [ 17.39926981, 48.17945952 ], [ 17.39948465, 48.17941119 ], [ 17.39969107, 48.17936411 ], [ 17.40015417, 48.17933855 ], [ 17.40034948, 48.17930927 ], [ 17.40052265, 48.17925487 ], [ 17.40087007, 48.1791043 ], [ 17.40104182, 48.17902903 ], [ 17.40119058, 48.17894927 ], [ 17.40128083, 48.17888531 ], [ 17.40132302, 48.17885544 ], [ 17.40150827, 48.1786736 ], [ 17.40163706, 48.17856028 ], [ 17.40185383, 48.17844403 ], [ 17.40209394, 48.17824914 ], [ 17.40225663, 48.17812105 ], [ 17.40255299, 48.17778959 ], [ 17.40262475, 48.17769767 ], [ 17.40275258, 48.17740556 ], [ 17.40275672, 48.17732613 ], [ 17.40276213, 48.17722131 ], [ 17.40269343, 48.17692235 ], [ 17.40267863, 48.17685705 ], [ 17.4025899, 48.17667425 ], [ 17.40246643, 48.1764591 ], [ 17.40228274, 48.17623071 ], [ 17.40220286, 48.1761309 ], [ 17.40218183, 48.17610459 ], [ 17.40210597, 48.17604949 ], [ 17.40191896, 48.17593474 ], [ 17.40178229, 48.17588716 ], [ 17.40170806, 48.17576241 ], [ 17.40169255, 48.17573628 ], [ 17.40169295, 48.17572239 ], [ 17.40167348, 48.17560293 ], [ 17.40165763, 48.17542805 ], [ 17.40165446, 48.17524685 ], [ 17.40165376, 48.17520343 ], [ 17.40165903, 48.17509408 ], [ 17.40169726, 48.17493374 ], [ 17.40183274, 48.17473737 ], [ 17.40194271, 48.17462517 ], [ 17.40211826, 48.17449033 ], [ 17.40219947, 48.17443183 ], [ 17.40246659, 48.17431479 ], [ 17.40255953, 48.17428145 ], [ 17.40270297, 48.17424454 ], [ 17.40292169, 48.17417033 ], [ 17.40298621, 48.17414851 ], [ 17.40327146, 48.17405253 ], [ 17.40334858, 48.1740619 ], [ 17.40347481, 48.17396793 ], [ 17.40357519, 48.17397348 ], [ 17.4038422, 48.17378848 ], [ 17.40391087, 48.17372979 ], [ 17.40413747, 48.1734958 ], [ 17.40417741, 48.17342007 ], [ 17.4042267, 48.17330708 ], [ 17.4043289, 48.17303679 ], [ 17.40434035, 48.17300085 ], [ 17.40435725, 48.17270864 ], [ 17.40436399, 48.17255204 ], [ 17.40435184, 48.17239528 ], [ 17.40430115, 48.17212569 ], [ 17.4042844, 48.17205611 ], [ 17.40436285, 48.17188114 ], [ 17.40448519, 48.17170532 ], [ 17.404692, 48.17143362 ], [ 17.40478001, 48.17135713 ], [ 17.40482677, 48.17138666 ], [ 17.40500193, 48.17149738 ], [ 17.40537598, 48.17173383 ], [ 17.40588505, 48.17206916 ], [ 17.40628419, 48.17230318 ], [ 17.40674458, 48.17257398 ], [ 17.40683503, 48.17262722 ], [ 17.40695685, 48.17269887 ], [ 17.40696795, 48.17270609 ], [ 17.40743734, 48.17301164 ], [ 17.40799114, 48.17352788 ], [ 17.4084206, 48.17393979 ], [ 17.40862783, 48.17414016 ], [ 17.4087697, 48.17427734 ], [ 17.40880298, 48.17430951 ], [ 17.40914866, 48.17464828 ], [ 17.4091775, 48.17468495 ], [ 17.40959434, 48.17521431 ], [ 17.41013838, 48.17591758 ], [ 17.41038045, 48.17621752 ], [ 17.4104184, 48.1763512 ], [ 17.41048805, 48.17647139 ], [ 17.41076131, 48.17684935 ], [ 17.41100062, 48.17716457 ], [ 17.41111668, 48.1773232 ], [ 17.41148207, 48.17765774 ], [ 17.41151628, 48.17771508 ], [ 17.41153431, 48.17774526 ], [ 17.41163056, 48.1779064 ], [ 17.41169134, 48.17798725 ], [ 17.41183215, 48.17822647 ], [ 17.41184175, 48.17824409 ], [ 17.41186114, 48.17827978 ], [ 17.41203286, 48.17850158 ], [ 17.4120846, 48.17856847 ], [ 17.41211214, 48.17860388 ], [ 17.41215301, 48.17865632 ], [ 17.41216825, 48.17867602 ], [ 17.41219077, 48.17870505 ], [ 17.41224439, 48.17877387 ], [ 17.41232439, 48.17887675 ], [ 17.41257678, 48.17920438 ], [ 17.41259415, 48.17922701 ], [ 17.41264376, 48.1793169 ], [ 17.41268984, 48.1794004 ], [ 17.4127014, 48.17942122 ], [ 17.41281382, 48.17959841 ], [ 17.41283467, 48.1796529 ], [ 17.41285597, 48.17970895 ], [ 17.41293108, 48.17971546 ], [ 17.41296497, 48.17977505 ], [ 17.41298694, 48.17981344 ], [ 17.41307221, 48.17996284 ], [ 17.41323135, 48.18023677 ], [ 17.41327706, 48.18033028 ], [ 17.41328296, 48.18034449 ], [ 17.41331326, 48.18041017 ], [ 17.41331832, 48.18042089 ], [ 17.41339632, 48.18061274 ], [ 17.41332527, 48.18067109 ], [ 17.41329956, 48.18069553 ], [ 17.41329265, 48.18070213 ], [ 17.4132999, 48.18071362 ], [ 17.41336711, 48.18082092 ], [ 17.41339254, 48.18086152 ], [ 17.41349111, 48.18087959 ], [ 17.4135069, 48.18088251 ], [ 17.41351975, 48.18090748 ], [ 17.4135323, 48.1809317 ], [ 17.41354369, 48.18095367 ], [ 17.41359986, 48.18106259 ], [ 17.41364683, 48.18115483 ], [ 17.41374636, 48.18135007 ], [ 17.41383611, 48.18152624 ], [ 17.41391341, 48.18168397 ], [ 17.41394534, 48.18174957 ], [ 17.41398471, 48.18182722 ], [ 17.41414679, 48.18214607 ], [ 17.41418377, 48.18222059 ], [ 17.4142099, 48.18227316 ], [ 17.41422268, 48.18229306 ], [ 17.41424177, 48.18232249 ], [ 17.41430253, 48.18241653 ], [ 17.41438446, 48.1825434 ], [ 17.41440772, 48.18257952 ], [ 17.4144702, 48.18267195 ], [ 17.41455691, 48.1828003 ], [ 17.41463094, 48.18291463 ], [ 17.41480975, 48.18317701 ], [ 17.41506104, 48.18350871 ], [ 17.4151356, 48.18360636 ], [ 17.41522633, 48.18372567 ], [ 17.4154866, 48.18406997 ], [ 17.41576978, 48.1844379 ], [ 17.41582132, 48.18443375 ], [ 17.41610382, 48.18473305 ], [ 17.41653852, 48.18516849 ], [ 17.41716824, 48.18581458 ], [ 17.41763366, 48.18619689 ], [ 17.41783781, 48.18636612 ], [ 17.41824344, 48.18670243 ], [ 17.41864919, 48.18703893 ], [ 17.41877213, 48.1869778 ], [ 17.41927484, 48.18736677 ], [ 17.41948291, 48.18752677 ], [ 17.41970873, 48.18770039 ], [ 17.4199895, 48.18791798 ], [ 17.42003916, 48.18795654 ], [ 17.42049138, 48.18830906 ], [ 17.42106955, 48.18864112 ], [ 17.42109375, 48.18865408 ], [ 17.42167476, 48.18899174 ], [ 17.4220177, 48.18869815 ] ] ] ] } },
{ "type": "Feature", "properties": { "@featureType": "CadastralZoning", "beginLifespanVersion": { "@nilReason": "http://inspire.ec.europa.eu/codelist/VoidReasonValue/Unpopulated", "@nil": "true" }, "endLifespanVersion": { "@nilReason": "http://inspire.ec.europa.eu/codelist/VoidReasonValue/Unpopulated", "@nil": "true" }, "estimatedAccuracy": { "value": -1, "@uom": "m" }, "inspireId": { "@dataType": "Identifier", "localId": "838519", "namespace": "SK.ESKN.CP", "versionId": "20260703T04:07:40" }, "label": "Studené", "level": { "@href": "http://inspire.ec.europa.eu/codelist/CadastralZoningLevelValue/3rdOrder" }, "levelName": { "value": "Katastrálne územie", "@locale": "sk" }, "name": { "@dataType": "name", "GeographicalName": { "@dataType": "GeographicalName", "language": "SLK", "nativeness": { "@href": "http://inspire.ec.europa.eu/codelist/NativenessValue/endonym", "@title": "endonym" }, "nameStatus": { "@href": "http://inspire.ec.europa.eu/codelist/NameStatusValue/official", "@title": "official" }, "sourceOfName": { "@nilReason": "http://inspire.ec.europa.eu/codelist/VoidReasonValue/Unpopulated", "@nil": "true" }, "pronunciation": { "@dataType": "pronunciation", "@nilReason": "http://inspire.ec.europa.eu/codelist/VoidReasonValue/Unpopulated", "@nil": "true" }, "spelling": { "@dataType": "SpellingOfName", "text": "Studené", "script": "LATN" } } }, "nationalCadastalZoningReference": "838519", "validFrom": "2026-06-30T16:00:00Z", "validTo": { "@nilReason": "http://inspire.ec.europa.eu/codelist/VoidReasonValue/Unpopulated", "@nil": "true" } }, "geometry": { "type": "MultiPolygon", "coordinates": [ [ [ [ 17.29694146, 48.14532101 ], [ 17.29699118, 48.14532087 ], [ 17.29727201, 48.1453202 ], [ 17.29736171, 48.14531999 ], [ 17.29751802, 48.14531949 ], [ 17.29754963, 48.14531941 ], [ 17.29767351, 48.14531902 ], [ 17.29769377, 48.14531901 ], [ 17.29774268, 48.14531881 ], [ 17.29792763, 48.14531821 ], [ 17.29793533, 48.14531818 ], [ 17.2981173, 48.14531766 ], [ 17.29815026, 48.14531758 ], [ 17.29815526, 48.14531755 ], [ 17.29820254, 48.14531742 ], [ 17.29828685, 48.14531713 ], [ 17.29835399, 48.14531696 ], [ 17.29860756, 48.1453162 ], [ 17.29870699, 48.14531591 ], [ 17.2990369, 48.14531487 ], [ 17.2990954, 48.14531467 ], [ 17.2991027, 48.14531461 ], [ 17.29931236, 48.14531402 ], [ 17.29931911, 48.14531402 ], [ 17.29947164, 48.14531353 ], [ 17.29948677, 48.14531345 ], [ 17.29963145, 48.14531308 ], [ 17.29964524, 48.145313 ], [ 17.29968522, 48.14531293 ], [ 17.29972386, 48.14531277 ], [ 17.29978924, 48.14531258 ], [ 17.29995042, 48.14531203 ], [ 17.3000512, 48.14531174 ], [ 17.30010267, 48.14531162 ], [ 17.3001047, 48.14531157 ], [ 17.30026519, 48.14531107 ], [ 17.30042259, 48.14531055 ], [ 17.30060794, 48.14530997 ], [ 17.30069643, 48.14530968 ], [ 17.30101174, 48.14530875 ], [ 17.30123041, 48.1453084 ], [ 17.30124635, 48.14530836 ], [ 17.30125973, 48.14530826 ], [ 17.30127245, 48.1453081 ], [ 17.30127894, 48.14530808 ], [ 17.30129461, 48.14530803 ], [ 17.30142445, 48.14530749 ], [ 17.30198975, 48.14475204 ], [ 17.30207528, 48.14466389 ], [ 17.30312873, 48.14361982 ], [ 17.30365808, 48.14309633 ], [ 17.30368947, 48.14306479 ], [ 17.30406503, 48.14269397 ], [ 17.30431899, 48.14244164 ], [ 17.30445742, 48.14230421 ], [ 17.30452925, 48.14222555 ], [ 17.30582446, 48.14095516 ], [ 17.30568105, 48.14073475 ], [ 17.30580957, 48.14063788 ], [ 17.30612269, 48.14040174 ], [ 17.30645932, 48.14014809 ], [ 17.30659484, 48.14004589 ], [ 17.3070527, 48.13969804 ], [ 17.30726683, 48.13953525 ], [ 17.30748519, 48.1393693 ], [ 17.30770497, 48.13920109 ], [ 17.30795906, 48.13900895 ], [ 17.30837809, 48.13867986 ], [ 17.30854183, 48.13855286 ], [ 17.30882204, 48.13834012 ], [ 17.30925522, 48.13802118 ], [ 17.31009273, 48.13738193 ], [ 17.31050412, 48.13706787 ], [ 17.31060817, 48.13698844 ], [ 17.31068408, 48.13693055 ], [ 17.31103107, 48.13666583 ], [ 17.31110728, 48.13660589 ], [ 17.31182683, 48.13607324 ], [ 17.31235865, 48.13567558 ], [ 17.31269142, 48.13542663 ], [ 17.31380433, 48.13459263 ], [ 17.31376055, 48.13445735 ], [ 17.31370384, 48.13429799 ], [ 17.31367543, 48.13404742 ], [ 17.31365022, 48.13362581 ], [ 17.31369155, 48.13332616 ], [ 17.31373857, 48.13317383 ], [ 17.31378192, 48.13303174 ], [ 17.31385145, 48.13273215 ], [ 17.31385379, 48.1326723 ], [ 17.31386492, 48.1323815 ], [ 17.31382107, 48.13210931 ], [ 17.3137632, 48.13193677 ], [ 17.31376149, 48.13193187 ], [ 17.31356881, 48.13149432 ], [ 17.31353666, 48.13144683 ], [ 17.31341741, 48.13128225 ], [ 17.31330316, 48.13115434 ], [ 17.31300327, 48.13093951 ], [ 17.31296738, 48.13091374 ], [ 17.31282037, 48.13080842 ], [ 17.31262459, 48.13069147 ], [ 17.31259593, 48.13067431 ], [ 17.31244618, 48.13059131 ], [ 17.31222616, 48.13046933 ], [ 17.31204898, 48.13036725 ], [ 17.31183127, 48.1302644 ], [ 17.31138673, 48.13008503 ], [ 17.31134759, 48.13007395 ], [ 17.31111331, 48.13000759 ], [ 17.31077176, 48.12992258 ], [ 17.3104072, 48.12983244 ], [ 17.31020783, 48.12979577 ], [ 17.31000695, 48.12975828 ], [ 17.30983551, 48.12972716 ], [ 17.30959901, 48.12969418 ], [ 17.30943517, 48.12970487 ], [ 17.30912618, 48.12977807 ], [ 17.30884569, 48.12989238 ], [ 17.3086257, 48.13001105 ], [ 17.30843502, 48.13015063 ], [ 17.30827558, 48.12987061 ], [ 17.30807056, 48.12950796 ], [ 17.30794159, 48.12928861 ], [ 17.30784374, 48.12912192 ], [ 17.30762708, 48.12875488 ], [ 17.30740385, 48.12837657 ], [ 17.30718398, 48.1280039 ], [ 17.30709044, 48.12784554 ], [ 17.30696891, 48.12763715 ], [ 17.30649298, 48.12682155 ], [ 17.30647618, 48.1267927 ], [ 17.30645365, 48.12675416 ], [ 17.30634795, 48.12657303 ], [ 17.30598984, 48.12595897 ], [ 17.30594675, 48.12588509 ], [ 17.3058538, 48.12572549 ], [ 17.30580639, 48.12564428 ], [ 17.30573075, 48.12551466 ], [ 17.30557666, 48.12525162 ], [ 17.30543963, 48.12501754 ], [ 17.30529817, 48.12477602 ], [ 17.30520241, 48.12461263 ], [ 17.30517271, 48.12456232 ], [ 17.30501845, 48.12430053 ], [ 17.30487322, 48.12405433 ], [ 17.30473341, 48.12381718 ], [ 17.30458594, 48.12356704 ], [ 17.30436312, 48.12318079 ], [ 17.30416435, 48.12284105 ], [ 17.30399753, 48.12255557 ], [ 17.30381596, 48.1222438 ], [ 17.30347802, 48.1216654 ], [ 17.30345863, 48.12163403 ], [ 17.30341217, 48.1215583 ], [ 17.30340529, 48.12154727 ], [ 17.30338637, 48.1215255 ], [ 17.30337634, 48.12151481 ], [ 17.30332167, 48.12145082 ], [ 17.3033089, 48.12143398 ], [ 17.30316799, 48.1212657 ], [ 17.30282474, 48.12085603 ], [ 17.30250834, 48.1204785 ], [ 17.30243811, 48.12039469 ], [ 17.3022188, 48.12009362 ], [ 17.3019565, 48.11973006 ], [ 17.30166492, 48.11933257 ], [ 17.30138759, 48.11895012 ], [ 17.30129363, 48.11882407 ], [ 17.301238, 48.11876843 ], [ 17.30107454, 48.11860489 ], [ 17.3009183, 48.11844725 ], [ 17.30074251, 48.11827304 ], [ 17.30057435, 48.11810937 ], [ 17.30040676, 48.11794175 ], [ 17.30024317, 48.11777911 ], [ 17.30007451, 48.11761242 ], [ 17.29990036, 48.11744365 ], [ 17.2995738, 48.11712327 ], [ 17.29937339, 48.11692764 ], [ 17.29929407, 48.11686519 ], [ 17.29915231, 48.11675947 ], [ 17.29914101, 48.11675104 ], [ 17.29868123, 48.11640802 ], [ 17.29807979, 48.11596055 ], [ 17.29786628, 48.11580155 ], [ 17.29777538, 48.1157536 ], [ 17.29737345, 48.11554174 ], [ 17.29658402, 48.11511914 ], [ 17.2963228, 48.11498255 ], [ 17.29591835, 48.11477142 ], [ 17.29518773, 48.11439571 ], [ 17.29460885, 48.11409829 ], [ 17.29440807, 48.11401586 ], [ 17.29345222, 48.1136348 ], [ 17.29262077, 48.11330509 ], [ 17.29252157, 48.1132668 ], [ 17.29251373, 48.11265031 ], [ 17.2924781, 48.11200541 ], [ 17.29242882, 48.11200648 ], [ 17.29060179, 48.1121598 ], [ 17.28964742, 48.11224025 ], [ 17.28944408, 48.11225741 ], [ 17.28850691, 48.11233655 ], [ 17.28849667, 48.11233732 ], [ 17.28797911, 48.11237405 ], [ 17.28745664, 48.11241117 ], [ 17.28604561, 48.11251337 ], [ 17.28332944, 48.1127618 ], [ 17.28329975, 48.11276453 ], [ 17.28453124, 48.11668332 ], [ 17.28441973, 48.11666707 ], [ 17.28310726, 48.11659395 ], [ 17.28240965, 48.11658663 ], [ 17.28184579, 48.11661122 ], [ 17.28111287, 48.1166555 ], [ 17.28062221, 48.11668522 ], [ 17.28055714, 48.11669175 ], [ 17.28028955, 48.11671882 ], [ 17.28017337, 48.11673054 ], [ 17.28011377, 48.11673653 ], [ 17.28002827, 48.11674522 ], [ 17.28001403, 48.11674663 ], [ 17.27980266, 48.11678872 ], [ 17.27957906, 48.11685324 ], [ 17.27950927, 48.11687337 ], [ 17.27933055, 48.11694745 ], [ 17.27943936, 48.11708219 ], [ 17.28101931, 48.11882195 ], [ 17.28176556, 48.11963365 ], [ 17.28200626, 48.11991152 ], [ 17.28219782, 48.12012928 ], [ 17.28252286, 48.1204985 ], [ 17.28260303, 48.12058976 ], [ 17.28276943, 48.12077874 ], [ 17.28491414, 48.12289026 ], [ 17.2850577, 48.12303118 ], [ 17.28534586, 48.12331688 ], [ 17.28674453, 48.12469957 ], [ 17.28796634, 48.12596966 ], [ 17.28909845, 48.12717035 ], [ 17.29052563, 48.12866006 ], [ 17.29078418, 48.12895661 ], [ 17.29081182, 48.1289879 ], [ 17.2908177, 48.12900745 ], [ 17.29083104, 48.12907521 ], [ 17.29083411, 48.12909096 ], [ 17.29083419, 48.12910687 ], [ 17.29091623, 48.12924226 ], [ 17.29091764, 48.12924461 ], [ 17.29126097, 48.12983335 ], [ 17.29131205, 48.12982751 ], [ 17.29159838, 48.13034262 ], [ 17.29220518, 48.13128254 ], [ 17.29224824, 48.13134929 ], [ 17.29251784, 48.13176667 ], [ 17.29296579, 48.13219948 ], [ 17.2929872, 48.13221997 ], [ 17.29301369, 48.13224531 ], [ 17.29302742, 48.13225842 ], [ 17.29303624, 48.13226813 ], [ 17.29304042, 48.13227275 ], [ 17.29304848, 48.13228033 ], [ 17.29305015, 48.1322818 ], [ 17.29306594, 48.13229649 ], [ 17.29306796, 48.13229834 ], [ 17.29340736, 48.13261804 ], [ 17.29348379, 48.13269007 ], [ 17.29352033, 48.13270496 ], [ 17.29358743, 48.13277076 ], [ 17.2942427, 48.133405 ], [ 17.29431287, 48.133471 ], [ 17.29474061, 48.13404263 ], [ 17.29498064, 48.13436343 ], [ 17.29522054, 48.13468423 ], [ 17.29567491, 48.13529141 ], [ 17.2957195, 48.13534235 ], [ 17.29629773, 48.13600229 ], [ 17.29630148, 48.13600705 ], [ 17.29674326, 48.13657445 ], [ 17.2968244, 48.1366786 ], [ 17.29691564, 48.13679579 ], [ 17.29741309, 48.1373694 ], [ 17.29777222, 48.13778347 ], [ 17.29804201, 48.13810506 ], [ 17.29833913, 48.13845918 ], [ 17.29868155, 48.13886492 ], [ 17.29882346, 48.13903309 ], [ 17.29895262, 48.13918614 ], [ 17.29900274, 48.13924539 ], [ 17.2989843, 48.13936563 ], [ 17.29895672, 48.13954599 ], [ 17.29892995, 48.1397199 ], [ 17.29890602, 48.13987556 ], [ 17.29888571, 48.13989329 ], [ 17.29860006, 48.14014252 ], [ 17.29855232, 48.14018419 ], [ 17.29842956, 48.14029129 ], [ 17.29804454, 48.1406273 ], [ 17.2979021, 48.14075153 ], [ 17.2974276, 48.14119232 ], [ 17.29707893, 48.1415161 ], [ 17.29701054, 48.14157962 ], [ 17.29691014, 48.1416816 ], [ 17.29669775, 48.14189727 ], [ 17.29663277, 48.14196328 ], [ 17.29649914, 48.14209912 ], [ 17.29638125, 48.14221892 ], [ 17.296349, 48.14225167 ], [ 17.29630804, 48.14229315 ], [ 17.29629612, 48.14230529 ], [ 17.29613565, 48.14246836 ], [ 17.29612545, 48.14247799 ], [ 17.29574522, 48.14283518 ], [ 17.29573283, 48.14284684 ], [ 17.29563035, 48.14294461 ], [ 17.29554547, 48.14302557 ], [ 17.29536801, 48.14319484 ], [ 17.29535884, 48.14320481 ], [ 17.29535044, 48.1432141 ], [ 17.29526865, 48.14328785 ], [ 17.29524542, 48.143308 ], [ 17.29518874, 48.14336354 ], [ 17.29517391, 48.14337801 ], [ 17.29516885, 48.14338301 ], [ 17.29505329, 48.14349609 ], [ 17.29500861, 48.14353986 ], [ 17.2947988, 48.1437453 ], [ 17.29476848, 48.14377502 ], [ 17.2947268, 48.14381582 ], [ 17.29467879, 48.14386288 ], [ 17.2949345, 48.14403037 ], [ 17.29500455, 48.1440763 ], [ 17.29501231, 48.14408134 ], [ 17.29505343, 48.14410828 ], [ 17.2951891, 48.14419714 ], [ 17.29522259, 48.14421906 ], [ 17.29541969, 48.14434823 ], [ 17.2954794, 48.14438734 ], [ 17.2955012, 48.14440161 ], [ 17.29559637, 48.14446394 ], [ 17.29562505, 48.14448274 ], [ 17.2956967, 48.14452969 ], [ 17.29573437, 48.14455441 ], [ 17.29587324, 48.14464539 ], [ 17.2959007, 48.14466338 ], [ 17.29606258, 48.14476952 ], [ 17.29611835, 48.14480611 ], [ 17.29615995, 48.14483344 ], [ 17.29632466, 48.14494149 ], [ 17.29640578, 48.14499476 ], [ 17.29645157, 48.14502481 ], [ 17.29661924, 48.14513477 ], [ 17.29673864, 48.14521316 ], [ 17.29683096, 48.14527376 ], [ 17.29685387, 48.14528874 ], [ 17.2969031, 48.1453211 ], [ 17.29694146, 48.14532101 ] ] ] ] } }
]
}
