{
"type": "FeatureCollection",
"name": "gis",
"crs": { "type": "name", "properties": { "name": "urn:ogc:def:crs:OGC:1.3:CRS84" } },
"features": [
{ "type": "Feature", "properties": { "@featureType": "CadastralZoning", "beginLifespanVersion": { "@nilReason": "http://inspire.ec.europa.eu/codelist/VoidReasonValue/Unpopulated", "@nil": "true" }, "endLifespanVersion": { "@nilReason": "http://inspire.ec.europa.eu/codelist/VoidReasonValue/Unpopulated", "@nil": "true" }, "estimatedAccuracy": { "value": -1, "@uom": "m" }, "inspireId": { "@dataType": "Identifier", "localId": "801470", "namespace": "SK.ESKN.CP", "versionId": "20260703T04:07:40" }, "label": "Banská Štiavnica", "level": { "@href": "http://inspire.ec.europa.eu/codelist/CadastralZoningLevelValue/3rdOrder" }, "levelName": { "value": "Katastrálne územie", "@locale": "sk" }, "name": { "@dataType": "name", "GeographicalName": { "@dataType": "GeographicalName", "language": "SLK", "nativeness": { "@href": "http://inspire.ec.europa.eu/codelist/NativenessValue/endonym", "@title": "endonym" }, "nameStatus": { "@href": "http://inspire.ec.europa.eu/codelist/NameStatusValue/official", "@title": "official" }, "sourceOfName": { "@nilReason": "http://inspire.ec.europa.eu/codelist/VoidReasonValue/Unpopulated", "@nil": "true" }, "pronunciation": { "@dataType": "pronunciation", "@nilReason": "http://inspire.ec.europa.eu/codelist/VoidReasonValue/Unpopulated", "@nil": "true" }, "spelling": { "@dataType": "SpellingOfName", "text": "Banská Štiavnica", "script": "LATN" } } }, "nationalCadastalZoningReference": "801470", "validFrom": "2026-06-30T16:00:00Z", "validTo": { "@nilReason": "http://inspire.ec.europa.eu/codelist/VoidReasonValue/Unpopulated", "@nil": "true" } }, "geometry": { "type": "MultiPolygon", "coordinates": [ [ [ [ 18.89788256, 48.49164557 ], [ 18.89795412, 48.49163122 ], [ 18.89938689, 48.49131948 ], [ 18.90008958, 48.49150784 ], [ 18.90047107, 48.49170533 ], [ 18.90125238, 48.49186896 ], [ 18.90166275, 48.49181807 ], [ 18.90220094, 48.49185107 ], [ 18.90240103, 48.49186338 ], [ 18.90245965, 48.49182626 ], [ 18.90302242, 48.49146976 ], [ 18.90329598, 48.49143056 ], [ 18.90346891, 48.49140583 ], [ 18.90350887, 48.49135422 ], [ 18.90402723, 48.4909781 ], [ 18.90578895, 48.49006606 ], [ 18.90604596, 48.48995925 ], [ 18.90611584, 48.4899302 ], [ 18.90705467, 48.48989291 ], [ 18.90815595, 48.48984045 ], [ 18.90894805, 48.48968121 ], [ 18.90958168, 48.48968455 ], [ 18.91041305, 48.48968896 ], [ 18.91182509, 48.48944203 ], [ 18.91208111, 48.48928653 ], [ 18.91215524, 48.48927926 ], [ 18.91247979, 48.4888712 ], [ 18.91298086, 48.48783007 ], [ 18.91318726, 48.48713277 ], [ 18.91329269, 48.48639835 ], [ 18.91349937, 48.48516768 ], [ 18.91350316, 48.48500479 ], [ 18.91356461, 48.48490719 ], [ 18.91501925, 48.4840116 ], [ 18.91537918, 48.48386073 ], [ 18.91555987, 48.48378894 ], [ 18.91584206, 48.48367168 ], [ 18.91743613, 48.48306711 ], [ 18.91752608, 48.48260592 ], [ 18.91749174, 48.48226002 ], [ 18.91753319, 48.48200778 ], [ 18.91747547, 48.48163317 ], [ 18.91737761, 48.48126181 ], [ 18.91726485, 48.48091242 ], [ 18.91718293, 48.48072346 ], [ 18.91703489, 48.48043467 ], [ 18.91703666, 48.48040319 ], [ 18.91702177, 48.48029806 ], [ 18.91682932, 48.48012849 ], [ 18.9166769, 48.47998101 ], [ 18.91660309, 48.47971543 ], [ 18.91615368, 48.47942348 ], [ 18.91587875, 48.47934582 ], [ 18.91531536, 48.47931492 ], [ 18.91549029, 48.47870196 ], [ 18.91520409, 48.47828329 ], [ 18.91531686, 48.47738525 ], [ 18.91533482, 48.47734522 ], [ 18.91535608, 48.47728037 ], [ 18.91536368, 48.47723729 ], [ 18.91554684, 48.47684242 ], [ 18.91555355, 48.47682797 ], [ 18.91790946, 48.475366 ], [ 18.91839586, 48.47416093 ], [ 18.91859036, 48.47367896 ], [ 18.91859551, 48.47366615 ], [ 18.91859576, 48.47366165 ], [ 18.91859659, 48.47364176 ], [ 18.91860135, 48.47353791 ], [ 18.91861079, 48.47350583 ], [ 18.91862534, 48.47346472 ], [ 18.91864831, 48.47340024 ], [ 18.91866867, 48.4733431 ], [ 18.91867815, 48.47331644 ], [ 18.91868786, 48.47328898 ], [ 18.91871788, 48.47320474 ], [ 18.9187328, 48.47316284 ], [ 18.91873603, 48.47315371 ], [ 18.91876347, 48.47307647 ], [ 18.91871121, 48.4728286 ], [ 18.91870541, 48.47280151 ], [ 18.91869984, 48.4727748 ], [ 18.91864551, 48.4725178 ], [ 18.91872727, 48.47249369 ], [ 18.91893645, 48.47243202 ], [ 18.91897705, 48.47242004 ], [ 18.91910925, 48.47238102 ], [ 18.91908843, 48.47214966 ], [ 18.91908596, 48.47211841 ], [ 18.91908115, 48.47206422 ], [ 18.9190829, 48.47203869 ], [ 18.91933624, 48.47194718 ], [ 18.91938484, 48.47192831 ], [ 18.91955333, 48.47180591 ], [ 18.91958574, 48.47179197 ], [ 18.92000912, 48.4717757 ], [ 18.92024055, 48.4716965 ], [ 18.92040939, 48.47171791 ], [ 18.92070369, 48.4717197 ], [ 18.92111841, 48.47175105 ], [ 18.92148762, 48.4717678 ], [ 18.92186639, 48.47182246 ], [ 18.92214788, 48.47185038 ], [ 18.92221292, 48.47183235 ], [ 18.92231315, 48.47186286 ], [ 18.92237122, 48.47188028 ], [ 18.92259381, 48.47194693 ], [ 18.92297147, 48.47199712 ], [ 18.92313799, 48.4721132 ], [ 18.92360259, 48.47217634 ], [ 18.92402274, 48.47215059 ], [ 18.92445387, 48.47220993 ], [ 18.92448779, 48.47221456 ], [ 18.92449992, 48.4721616 ], [ 18.92494008, 48.47108537 ], [ 18.92496606, 48.47102185 ], [ 18.92559898, 48.47049378 ], [ 18.92667778, 48.46962619 ], [ 18.92691905, 48.46947496 ], [ 18.92738547, 48.46952816 ], [ 18.92992085, 48.46981712 ], [ 18.93000225, 48.46982636 ], [ 18.93033467, 48.46986427 ], [ 18.93076301, 48.46746306 ], [ 18.93084085, 48.46730559 ], [ 18.93127234, 48.4664333 ], [ 18.93212067, 48.46566351 ], [ 18.93214333, 48.46559802 ], [ 18.93214738, 48.46537281 ], [ 18.93214997, 48.46522789 ], [ 18.93211137, 48.46497632 ], [ 18.93206197, 48.46465419 ], [ 18.93214865, 48.46395461 ], [ 18.93239388, 48.46349093 ], [ 18.93253533, 48.46324121 ], [ 18.93273598, 48.46306326 ], [ 18.93327719, 48.46288305 ], [ 18.93385473, 48.46260836 ], [ 18.9344055, 48.46235863 ], [ 18.93468403, 48.46211261 ], [ 18.93480024, 48.46217008 ], [ 18.93486862, 48.46205886 ], [ 18.93494207, 48.46197757 ], [ 18.93511446, 48.46187474 ], [ 18.93522652, 48.46165715 ], [ 18.93542637, 48.46158064 ], [ 18.9357094, 48.46147917 ], [ 18.93599685, 48.46149979 ], [ 18.93627314, 48.4613489 ], [ 18.93650021, 48.46133927 ], [ 18.93655294, 48.46115724 ], [ 18.9365952, 48.46101156 ], [ 18.93634225, 48.46098595 ], [ 18.93635323, 48.46094159 ], [ 18.93556355, 48.46082411 ], [ 18.93534975, 48.46100094 ], [ 18.93499462, 48.46107742 ], [ 18.93502096, 48.46116834 ], [ 18.93506004, 48.46130367 ], [ 18.93470779, 48.46138337 ], [ 18.93451812, 48.46173552 ], [ 18.93413238, 48.46197857 ], [ 18.93372916, 48.46191077 ], [ 18.93352389, 48.46153401 ], [ 18.93323824, 48.46102602 ], [ 18.93320958, 48.46103456 ], [ 18.93303761, 48.46085822 ], [ 18.93282293, 48.46062791 ], [ 18.93242605, 48.46053951 ], [ 18.93205092, 48.46063281 ], [ 18.93174556, 48.46072212 ], [ 18.93137274, 48.46079552 ], [ 18.93097158, 48.4608385 ], [ 18.93068774, 48.46083592 ], [ 18.93044098, 48.46077922 ], [ 18.93012626, 48.46074473 ], [ 18.9300453, 48.46073417 ], [ 18.92983808, 48.46069899 ], [ 18.92934847, 48.46050397 ], [ 18.92920588, 48.46044721 ], [ 18.92900478, 48.46029868 ], [ 18.92887675, 48.46020415 ], [ 18.92867357, 48.46008989 ], [ 18.9286755, 48.46008142 ], [ 18.92867919, 48.46006483 ], [ 18.92866175, 48.46001062 ], [ 18.92860941, 48.45984719 ], [ 18.92858564, 48.45977281 ], [ 18.92870641, 48.45959013 ], [ 18.92879101, 48.4594562 ], [ 18.92885632, 48.45935285 ], [ 18.92893206, 48.45902317 ], [ 18.92938894, 48.45835569 ], [ 18.92937133, 48.45830066 ], [ 18.92897108, 48.45705206 ], [ 18.92828401, 48.45614555 ], [ 18.92782385, 48.45571391 ], [ 18.92769722, 48.45560159 ], [ 18.927574, 48.45538526 ], [ 18.92740561, 48.45511528 ], [ 18.92726353, 48.45488743 ], [ 18.92722958, 48.454833 ], [ 18.92729745, 48.45443337 ], [ 18.9274571, 48.45423113 ], [ 18.92753545, 48.45386623 ], [ 18.92753845, 48.45385204 ], [ 18.92760002, 48.45365712 ], [ 18.92760648, 48.45363652 ], [ 18.92761807, 48.45359987 ], [ 18.92763566, 48.45354412 ], [ 18.92767816, 48.45340947 ], [ 18.92793251, 48.45317539 ], [ 18.92799902, 48.45311413 ], [ 18.92801572, 48.45309875 ], [ 18.92806963, 48.45306084 ], [ 18.92844895, 48.45288433 ], [ 18.9286936, 48.45285036 ], [ 18.92937438, 48.45247412 ], [ 18.92944652, 48.45244616 ], [ 18.92948685, 48.45239664 ], [ 18.92986827, 48.4520456 ], [ 18.93058699, 48.45172668 ], [ 18.93067233, 48.45163518 ], [ 18.93075161, 48.45155041 ], [ 18.93175714, 48.45087973 ], [ 18.93200876, 48.45072488 ], [ 18.93262857, 48.45052886 ], [ 18.93298796, 48.45036259 ], [ 18.93343935, 48.44996092 ], [ 18.93430899, 48.44962168 ], [ 18.93587881, 48.45010884 ], [ 18.93825355, 48.45012972 ], [ 18.93942069, 48.45027423 ], [ 18.94079282, 48.45057474 ], [ 18.94174315, 48.45039762 ], [ 18.94218054, 48.45029738 ], [ 18.94271718, 48.45025698 ], [ 18.94342124, 48.44995473 ], [ 18.944127, 48.44970561 ], [ 18.94508483, 48.44929965 ], [ 18.94579503, 48.44911623 ], [ 18.94638448, 48.44888775 ], [ 18.94685108, 48.4486839 ], [ 18.94748265, 48.44868172 ], [ 18.94853623, 48.44852689 ], [ 18.94876595, 48.44846108 ], [ 18.9496931, 48.4481954 ], [ 18.95141944, 48.44809476 ], [ 18.95273485, 48.44758103 ], [ 18.95369205, 48.44702479 ], [ 18.95495362, 48.44679332 ], [ 18.95492761, 48.44676385 ], [ 18.95738829, 48.44501818 ], [ 18.9574408, 48.44495682 ], [ 18.95748655, 48.4449082 ], [ 18.9584968, 48.44388856 ], [ 18.95884528, 48.44342832 ], [ 18.9600165, 48.44312588 ], [ 18.96063139, 48.44287896 ], [ 18.96143764, 48.44236978 ], [ 18.96357499, 48.44086084 ], [ 18.96295563, 48.43965585 ], [ 18.96178355, 48.43843486 ], [ 18.96036957, 48.43725713 ], [ 18.96046531, 48.43721107 ], [ 18.96391194, 48.43699374 ], [ 18.96149545, 48.43579076 ], [ 18.9601215, 48.43555209 ], [ 18.9578338, 48.43544696 ], [ 18.95656853, 48.43556758 ], [ 18.95387762, 48.43600812 ], [ 18.95298035, 48.43606211 ], [ 18.95287984, 48.43577897 ], [ 18.95250806, 48.43568479 ], [ 18.95159399, 48.4357703 ], [ 18.95091626, 48.43577915 ], [ 18.95062139, 48.43578298 ], [ 18.94997908, 48.43572942 ], [ 18.9498334, 48.43571727 ], [ 18.94875748, 48.43596206 ], [ 18.94618893, 48.43573713 ], [ 18.94587424, 48.43570955 ], [ 18.94559687, 48.43555993 ], [ 18.94556663, 48.43554359 ], [ 18.94539847, 48.43545288 ], [ 18.94534948, 48.43542646 ], [ 18.94508077, 48.43528162 ], [ 18.9449981, 48.43523697 ], [ 18.94465361, 48.43505117 ], [ 18.94463805, 48.43504279 ], [ 18.9446017, 48.43503245 ], [ 18.94360393, 48.43474873 ], [ 18.94268372, 48.43448712 ], [ 18.9424513, 48.43441178 ], [ 18.94238557, 48.43439055 ], [ 18.94221074, 48.43439376 ], [ 18.94174084, 48.43440249 ], [ 18.94140648, 48.43416578 ], [ 18.94102029, 48.43414587 ], [ 18.9408187, 48.43411794 ], [ 18.93926407, 48.43390239 ], [ 18.93898258, 48.43386332 ], [ 18.93892378, 48.43387121 ], [ 18.93888625, 48.43386288 ], [ 18.93882969, 48.43385033 ], [ 18.93873044, 48.43382836 ], [ 18.93715582, 48.43347907 ], [ 18.93602252, 48.43245714 ], [ 18.93592836, 48.43244383 ], [ 18.9358841, 48.4324375 ], [ 18.93447823, 48.43223827 ], [ 18.9328123, 48.43201647 ], [ 18.93279229, 48.43197864 ], [ 18.93276861, 48.43193394 ], [ 18.93276218, 48.43192161 ], [ 18.93275116, 48.43190093 ], [ 18.93271781, 48.43183788 ], [ 18.93271683, 48.43182764 ], [ 18.93271011, 48.43182251 ], [ 18.93269776, 48.43181556 ], [ 18.9326479, 48.43178738 ], [ 18.93258655, 48.43174138 ], [ 18.93233719, 48.43163818 ], [ 18.93222, 48.43154187 ], [ 18.93173948, 48.43114246 ], [ 18.93138767, 48.43085341 ], [ 18.9312376, 48.4307987 ], [ 18.93124015, 48.43074525 ], [ 18.93014327, 48.43046885 ], [ 18.93008953, 48.43052193 ], [ 18.92988152, 48.43045612 ], [ 18.92969976, 48.43043847 ], [ 18.92958231, 48.43037488 ], [ 18.92941709, 48.43030361 ], [ 18.92929139, 48.43019079 ], [ 18.92925671, 48.4301661 ], [ 18.92925152, 48.4301606 ], [ 18.92845682, 48.42933306 ], [ 18.92793334, 48.42891303 ], [ 18.92768499, 48.4287138 ], [ 18.92753411, 48.42859266 ], [ 18.92746083, 48.42853386 ], [ 18.92731923, 48.42842032 ], [ 18.92717417, 48.42830389 ], [ 18.92695286, 48.42812626 ], [ 18.92660083, 48.42808569 ], [ 18.92615333, 48.4276839 ], [ 18.9253069, 48.42647067 ], [ 18.92521022, 48.42642898 ], [ 18.92368379, 48.42577032 ], [ 18.92225958, 48.42487623 ], [ 18.9219779, 48.42469945 ], [ 18.92168385, 48.42451482 ], [ 18.91931944, 48.42538007 ], [ 18.91860994, 48.42563966 ], [ 18.91698939, 48.4259574 ], [ 18.9168034, 48.42599382 ], [ 18.91630697, 48.42596318 ], [ 18.91604506, 48.42603935 ], [ 18.91547897, 48.42643612 ], [ 18.91511534, 48.42669106 ], [ 18.9150352, 48.42677984 ], [ 18.9143036, 48.42759104 ], [ 18.91419918, 48.4277068 ], [ 18.9140231, 48.42782338 ], [ 18.91351791, 48.42815771 ], [ 18.9133684, 48.42816245 ], [ 18.91328045, 48.42819372 ], [ 18.9132016, 48.42813986 ], [ 18.91313584, 48.42814008 ], [ 18.91219628, 48.42811202 ], [ 18.91171544, 48.42801948 ], [ 18.91148498, 48.42796979 ], [ 18.91130635, 48.42793126 ], [ 18.91128467, 48.42792654 ], [ 18.91110388, 48.42773554 ], [ 18.91075326, 48.42766315 ], [ 18.91049251, 48.42760938 ], [ 18.91043547, 48.42759759 ], [ 18.91024936, 48.42757094 ], [ 18.91016955, 48.42760444 ], [ 18.90991203, 48.42771257 ], [ 18.90841448, 48.4278343 ], [ 18.9072016, 48.42775339 ], [ 18.90701235, 48.42784203 ], [ 18.90698023, 48.42785716 ], [ 18.90698246, 48.42790192 ], [ 18.90698729, 48.42799662 ], [ 18.90588849, 48.42801946 ], [ 18.90585666, 48.42805651 ], [ 18.9057438, 48.4281003 ], [ 18.90467593, 48.42803569 ], [ 18.90371479, 48.42828446 ], [ 18.90334313, 48.4283321 ], [ 18.90318493, 48.42830562 ], [ 18.90292502, 48.42826207 ], [ 18.90203297, 48.42811252 ], [ 18.90191039, 48.42809203 ], [ 18.90190135, 48.42809048 ], [ 18.90086917, 48.42831598 ], [ 18.9008132, 48.42832057 ], [ 18.90030478, 48.42836232 ], [ 18.90031933, 48.42816101 ], [ 18.90032574, 48.42807239 ], [ 18.90033677, 48.42791862 ], [ 18.9003763, 48.4273696 ], [ 18.90015682, 48.42679374 ], [ 18.89992129, 48.42656697 ], [ 18.89991141, 48.42649484 ], [ 18.89988082, 48.42627027 ], [ 18.89993783, 48.4259943 ], [ 18.90002901, 48.42555321 ], [ 18.89986943, 48.42535616 ], [ 18.89976058, 48.42522163 ], [ 18.89955057, 48.42502125 ], [ 18.89938574, 48.42482745 ], [ 18.89943401, 48.42452532 ], [ 18.8993981, 48.42451363 ], [ 18.89933072, 48.42449175 ], [ 18.89930278, 48.42448264 ], [ 18.89921751, 48.42445495 ], [ 18.899183, 48.42437208 ], [ 18.89912529, 48.4242336 ], [ 18.89887685, 48.42406759 ], [ 18.89866837, 48.42394478 ], [ 18.89761663, 48.42369412 ], [ 18.89751075, 48.42366889 ], [ 18.89675458, 48.4235984 ], [ 18.89645526, 48.42354332 ], [ 18.89627182, 48.42355431 ], [ 18.8960234, 48.42356933 ], [ 18.89589603, 48.42352261 ], [ 18.89563597, 48.42342725 ], [ 18.89542055, 48.4232734 ], [ 18.89530892, 48.42325797 ], [ 18.89516727, 48.42323838 ], [ 18.89504704, 48.42313871 ], [ 18.89503902, 48.42314127 ], [ 18.89490854, 48.42318152 ], [ 18.89486438, 48.42313377 ], [ 18.89484369, 48.42311601 ], [ 18.89467161, 48.42317251 ], [ 18.89447023, 48.42317003 ], [ 18.89445359, 48.42316745 ], [ 18.89426176, 48.42313769 ], [ 18.89412288, 48.42324993 ], [ 18.89399381, 48.42329909 ], [ 18.89366425, 48.42343792 ], [ 18.89335134, 48.42352466 ], [ 18.8930035, 48.4237016 ], [ 18.89263663, 48.42371076 ], [ 18.89253822, 48.42371315 ], [ 18.89251924, 48.42368421 ], [ 18.89095815, 48.42279263 ], [ 18.8902713, 48.42154019 ], [ 18.89006004, 48.42101696 ], [ 18.8900466, 48.42098352 ], [ 18.88983114, 48.42044998 ], [ 18.88895066, 48.42028171 ], [ 18.8884289, 48.42034084 ], [ 18.88800231, 48.4203892 ], [ 18.8876588, 48.42029257 ], [ 18.88747064, 48.4202397 ], [ 18.88632087, 48.42020838 ], [ 18.88627115, 48.42020707 ], [ 18.88460818, 48.41983143 ], [ 18.88391513, 48.41899727 ], [ 18.88383034, 48.41901308 ], [ 18.88375733, 48.41902671 ], [ 18.88271462, 48.41922136 ], [ 18.88248222, 48.41908916 ], [ 18.88235885, 48.4190189 ], [ 18.88218402, 48.41891944 ], [ 18.88068386, 48.41868624 ], [ 18.87939353, 48.41871792 ], [ 18.87883495, 48.41854398 ], [ 18.87846205, 48.41842784 ], [ 18.87818028, 48.41834007 ], [ 18.87802335, 48.4181931 ], [ 18.87795288, 48.41812711 ], [ 18.87751847, 48.41772037 ], [ 18.87646738, 48.41727974 ], [ 18.8764168, 48.41727423 ], [ 18.87485849, 48.41710306 ], [ 18.87485294, 48.41706136 ], [ 18.87407783, 48.41644928 ], [ 18.87317585, 48.41621336 ], [ 18.87251619, 48.41595656 ], [ 18.87188606, 48.41563624 ], [ 18.87141869, 48.41497265 ], [ 18.87119365, 48.4147284 ], [ 18.87104555, 48.41456762 ], [ 18.87069498, 48.41408916 ], [ 18.87036387, 48.41364707 ], [ 18.86993936, 48.41328042 ], [ 18.86984057, 48.41286447 ], [ 18.87016821, 48.41228666 ], [ 18.87028963, 48.41223569 ], [ 18.87034276, 48.41177676 ], [ 18.87053564, 48.41156821 ], [ 18.87062055, 48.41154899 ], [ 18.87101665, 48.41163308 ], [ 18.87106205, 48.41155326 ], [ 18.87127359, 48.41118086 ], [ 18.87137804, 48.41099721 ], [ 18.87107335, 48.41047089 ], [ 18.87078355, 48.41025331 ], [ 18.87077232, 48.41012139 ], [ 18.87086947, 48.40998508 ], [ 18.87095431, 48.40984966 ], [ 18.87115238, 48.4095343 ], [ 18.87143291, 48.40923099 ], [ 18.87149006, 48.40911326 ], [ 18.87137688, 48.40869864 ], [ 18.87171916, 48.40820251 ], [ 18.87159914, 48.40791094 ], [ 18.87157067, 48.40758165 ], [ 18.87156912, 48.4075637 ], [ 18.87052936, 48.40768855 ], [ 18.87022625, 48.40742518 ], [ 18.87041339, 48.40700659 ], [ 18.87052456, 48.40686957 ], [ 18.87046759, 48.40661817 ], [ 18.87029911, 48.40633329 ], [ 18.86993418, 48.40605767 ], [ 18.86816001, 48.40595343 ], [ 18.86799069, 48.4053975 ], [ 18.86780374, 48.40501377 ], [ 18.86769401, 48.4047884 ], [ 18.86759889, 48.40475503 ], [ 18.86724428, 48.40463069 ], [ 18.86704915, 48.40527087 ], [ 18.8670159, 48.40537992 ], [ 18.86699049, 48.40544986 ], [ 18.86698088, 48.40547634 ], [ 18.86696349, 48.40552414 ], [ 18.8666838, 48.40629371 ], [ 18.86642806, 48.40675636 ], [ 18.86566612, 48.40770181 ], [ 18.8656408, 48.40749382 ], [ 18.86561154, 48.40725352 ], [ 18.86302023, 48.40641136 ], [ 18.86226374, 48.40623875 ], [ 18.86020552, 48.40567938 ], [ 18.86013055, 48.40565896 ], [ 18.86015565, 48.40546253 ], [ 18.86019602, 48.40543838 ], [ 18.86005091, 48.40493078 ], [ 18.86004248, 48.40489525 ], [ 18.86001292, 48.40477084 ], [ 18.85999757, 48.40470663 ], [ 18.86009483, 48.40454751 ], [ 18.86016143, 48.40443839 ], [ 18.86039273, 48.40405973 ], [ 18.8601992, 48.40413174 ], [ 18.86013816, 48.40410358 ], [ 18.85904203, 48.40359896 ], [ 18.85897751, 48.40356926 ], [ 18.85887751, 48.40352318 ], [ 18.85910731, 48.40319884 ], [ 18.8595898, 48.40251789 ], [ 18.85961269, 48.40248561 ], [ 18.85971062, 48.40234736 ], [ 18.85915664, 48.40217436 ], [ 18.85869808, 48.40203112 ], [ 18.85859875, 48.40200015 ], [ 18.85915038, 48.40132559 ], [ 18.85952815, 48.40098938 ], [ 18.8597608, 48.40077786 ], [ 18.86080992, 48.39984892 ], [ 18.8611944, 48.39936529 ], [ 18.8612464, 48.3993182 ], [ 18.86228027, 48.39838132 ], [ 18.862206, 48.39834236 ], [ 18.86206079, 48.39826606 ], [ 18.86143633, 48.39817113 ], [ 18.86102356, 48.39835577 ], [ 18.86029587, 48.39788929 ], [ 18.85998093, 48.39780496 ], [ 18.85899116, 48.39754006 ], [ 18.85876901, 48.39751342 ], [ 18.85837561, 48.39746623 ], [ 18.85795135, 48.39741535 ], [ 18.85649868, 48.39668843 ], [ 18.85700181, 48.39737554 ], [ 18.85548361, 48.39782777 ], [ 18.85524589, 48.39787483 ], [ 18.85386048, 48.39821363 ], [ 18.85383468, 48.3982084 ], [ 18.85362194, 48.39832984 ], [ 18.85358082, 48.39835124 ], [ 18.85343196, 48.39840175 ], [ 18.85180641, 48.39884357 ], [ 18.85147561, 48.39893565 ], [ 18.85138127, 48.39895915 ], [ 18.85109369, 48.39903725 ], [ 18.85032288, 48.39924675 ], [ 18.85028599, 48.39926441 ], [ 18.84957322, 48.39945492 ], [ 18.84979328, 48.400142 ], [ 18.84984196, 48.40029366 ], [ 18.84985275, 48.40032751 ], [ 18.84988226, 48.4004198 ], [ 18.8499136, 48.40051733 ], [ 18.85017867, 48.40134478 ], [ 18.85018373, 48.40136056 ], [ 18.85022407, 48.40148635 ], [ 18.85023419, 48.40151782 ], [ 18.85030591, 48.40174194 ], [ 18.85034351, 48.40185884 ], [ 18.85037491, 48.401957 ], [ 18.85042446, 48.40211168 ], [ 18.85083252, 48.40249183 ], [ 18.85089077, 48.40252644 ], [ 18.8509646, 48.4026048 ], [ 18.85113775, 48.40247455 ], [ 18.8512598, 48.40305538 ], [ 18.85063262, 48.40338054 ], [ 18.85076016, 48.40375219 ], [ 18.85063788, 48.40402926 ], [ 18.85051086, 48.40410933 ], [ 18.85044769, 48.40412345 ], [ 18.850928, 48.40446315 ], [ 18.85098706, 48.40450006 ], [ 18.85045043, 48.40471069 ], [ 18.85030768, 48.40476666 ], [ 18.85026422, 48.4047837 ], [ 18.85024092, 48.40479286 ], [ 18.85017675, 48.40533728 ], [ 18.85007212, 48.40570269 ], [ 18.85032421, 48.40607397 ], [ 18.85051594, 48.4070127 ], [ 18.85111032, 48.40766723 ], [ 18.8511787, 48.40774252 ], [ 18.85120736, 48.40777414 ], [ 18.85162493, 48.40823398 ], [ 18.85161813, 48.40923659 ], [ 18.8518737, 48.40967887 ], [ 18.85244787, 48.410153 ], [ 18.85247332, 48.41017399 ], [ 18.85382601, 48.41069492 ], [ 18.85394761, 48.41080283 ], [ 18.8539735, 48.41082583 ], [ 18.85442417, 48.41122585 ], [ 18.85520512, 48.41140637 ], [ 18.85544538, 48.41158957 ], [ 18.8564027, 48.41231954 ], [ 18.85637926, 48.41233916 ], [ 18.85642246, 48.41236468 ], [ 18.85680608, 48.41255723 ], [ 18.85695605, 48.41259788 ], [ 18.8569801, 48.41259968 ], [ 18.85743849, 48.41263447 ], [ 18.85757411, 48.4125874 ], [ 18.85766212, 48.41255681 ], [ 18.85782245, 48.4125012 ], [ 18.85789181, 48.41247711 ], [ 18.85798589, 48.41244449 ], [ 18.85801083, 48.41244443 ], [ 18.85863385, 48.41245631 ], [ 18.85864196, 48.41245646 ], [ 18.85867951, 48.41244019 ], [ 18.85868743, 48.41243618 ], [ 18.85881503, 48.41237084 ], [ 18.85883389, 48.41235793 ], [ 18.85891082, 48.41233749 ], [ 18.85892081, 48.41245429 ], [ 18.85885915, 48.41301498 ], [ 18.85876349, 48.41311293 ], [ 18.85863273, 48.4131902 ], [ 18.85834076, 48.4133132 ], [ 18.85813373, 48.4134076 ], [ 18.85791784, 48.4135554 ], [ 18.85768205, 48.41404793 ], [ 18.85762166, 48.41438425 ], [ 18.85751916, 48.41477683 ], [ 18.8574452, 48.41504649 ], [ 18.85748894, 48.41517362 ], [ 18.85763622, 48.41531444 ], [ 18.85815953, 48.41554088 ], [ 18.85843635, 48.41559652 ], [ 18.85860326, 48.41578148 ], [ 18.85924735, 48.41682212 ], [ 18.85964675, 48.41748169 ], [ 18.85970118, 48.4176459 ], [ 18.85976974, 48.4178814 ], [ 18.85981674, 48.41787474 ], [ 18.85986013, 48.4178641 ], [ 18.8599353, 48.4179787 ], [ 18.86008872, 48.41825785 ], [ 18.86012501, 48.41832379 ], [ 18.8601259, 48.41832546 ], [ 18.86014204, 48.41836347 ], [ 18.86015975, 48.41840535 ], [ 18.86023863, 48.41859222 ], [ 18.86055943, 48.41889199 ], [ 18.86079986, 48.4192381 ], [ 18.86116225, 48.41981274 ], [ 18.86182575, 48.42070859 ], [ 18.86184844, 48.42073927 ], [ 18.8619012, 48.42081048 ], [ 18.86213961, 48.42113231 ], [ 18.86215855, 48.42115801 ], [ 18.86217599, 48.42118147 ], [ 18.86219855, 48.42121205 ], [ 18.86278145, 48.42173041 ], [ 18.86334112, 48.42210151 ], [ 18.86498488, 48.42319121 ], [ 18.86502293, 48.42344667 ], [ 18.86574182, 48.42397885 ], [ 18.8660481, 48.42427713 ], [ 18.86636839, 48.42461077 ], [ 18.86678722, 48.42504714 ], [ 18.86679459, 48.42505483 ], [ 18.86696427, 48.42523162 ], [ 18.86775512, 48.42605547 ], [ 18.86758818, 48.42620412 ], [ 18.86788624, 48.42635312 ], [ 18.86807597, 48.42706038 ], [ 18.86826134, 48.42785113 ], [ 18.86830198, 48.42836428 ], [ 18.86830391, 48.42838828 ], [ 18.86830041, 48.4284019 ], [ 18.86829872, 48.42840822 ], [ 18.86814607, 48.42899422 ], [ 18.86818828, 48.42911856 ], [ 18.86819897, 48.42914987 ], [ 18.86820289, 48.42916153 ], [ 18.86820813, 48.42917696 ], [ 18.86821519, 48.42919762 ], [ 18.86822638, 48.4292305 ], [ 18.86827986, 48.42938817 ], [ 18.86830841, 48.42945794 ], [ 18.86853148, 48.43000366 ], [ 18.86881175, 48.43068928 ], [ 18.86892809, 48.43098823 ], [ 18.86936757, 48.43143414 ], [ 18.86943916, 48.43150678 ], [ 18.86997674, 48.43206062 ], [ 18.87019589, 48.43228634 ], [ 18.87020121, 48.43229185 ], [ 18.87022917, 48.43231703 ], [ 18.87023456, 48.43232191 ], [ 18.87029501, 48.43251386 ], [ 18.87046211, 48.43266443 ], [ 18.87048761, 48.43268741 ], [ 18.87049214, 48.43269152 ], [ 18.87053702, 48.43273192 ], [ 18.87103845, 48.43354106 ], [ 18.87139692, 48.43403309 ], [ 18.87151149, 48.43408027 ], [ 18.87182523, 48.43420932 ], [ 18.87190761, 48.43424319 ], [ 18.87196589, 48.43426876 ], [ 18.87239903, 48.43445814 ], [ 18.87291296, 48.43468238 ], [ 18.8732023, 48.43518723 ], [ 18.87393417, 48.43529974 ], [ 18.8745819, 48.43556456 ], [ 18.87494161, 48.43553055 ], [ 18.87539136, 48.43549633 ], [ 18.87537343, 48.43553022 ], [ 18.87537412, 48.43556598 ], [ 18.87536976, 48.4356344 ], [ 18.87536739, 48.43572629 ], [ 18.87536965, 48.43586785 ], [ 18.87535262, 48.43603052 ], [ 18.87533103, 48.43616498 ], [ 18.8753252, 48.43620202 ], [ 18.87532226, 48.43622009 ], [ 18.87531866, 48.43623235 ], [ 18.87525035, 48.43646813 ], [ 18.87524997, 48.43647371 ], [ 18.87524863, 48.43649438 ], [ 18.87524732, 48.43651371 ], [ 18.87517597, 48.43660427 ], [ 18.87478466, 48.43710095 ], [ 18.87437318, 48.43766793 ], [ 18.87435441, 48.43769618 ], [ 18.87415655, 48.43799397 ], [ 18.87390186, 48.43837749 ], [ 18.87389656, 48.43838569 ], [ 18.87379203, 48.4386563 ], [ 18.87367228, 48.43885324 ], [ 18.87364692, 48.43889495 ], [ 18.87363768, 48.43891017 ], [ 18.87359573, 48.43897889 ], [ 18.87358816, 48.4389914 ], [ 18.87361922, 48.43901096 ], [ 18.87369851, 48.43906081 ], [ 18.87374145, 48.43908776 ], [ 18.87376921, 48.43910535 ], [ 18.87378511, 48.43911546 ], [ 18.87382873, 48.43907533 ], [ 18.87386489, 48.43904212 ], [ 18.87421852, 48.43871669 ], [ 18.87451939, 48.438374 ], [ 18.87471707, 48.43798527 ], [ 18.87497825, 48.43777303 ], [ 18.87502065, 48.43773861 ], [ 18.87504582, 48.43771817 ], [ 18.8750955, 48.43772463 ], [ 18.87516533, 48.43773376 ], [ 18.87574231, 48.43780907 ], [ 18.87575593, 48.43781086 ], [ 18.87599148, 48.43788893 ], [ 18.87646456, 48.43804572 ], [ 18.877035, 48.43823471 ], [ 18.87715854, 48.4382633 ], [ 18.87747266, 48.43831893 ], [ 18.87762557, 48.4383514 ], [ 18.87776655, 48.43838857 ], [ 18.87783599, 48.43840687 ], [ 18.87790793, 48.43842585 ], [ 18.87800889, 48.43842621 ], [ 18.87810131, 48.43843119 ], [ 18.87824576, 48.43839357 ], [ 18.8783003, 48.43836781 ], [ 18.8784881, 48.43822167 ], [ 18.87876769, 48.43848983 ], [ 18.87877854, 48.43850022 ], [ 18.87891731, 48.43855974 ], [ 18.87908771, 48.4386328 ], [ 18.87916452, 48.43866574 ], [ 18.87920995, 48.43868524 ], [ 18.87951563, 48.43881637 ], [ 18.87945361, 48.43901946 ], [ 18.87956596, 48.43918306 ], [ 18.87961552, 48.43925536 ], [ 18.87973489, 48.43937052 ], [ 18.87975176, 48.43956687 ], [ 18.87976284, 48.43969681 ], [ 18.87976566, 48.43972943 ], [ 18.87978138, 48.43979438 ], [ 18.87979071, 48.43982698 ], [ 18.87980163, 48.43989809 ], [ 18.87980634, 48.43992503 ], [ 18.88002531, 48.43991915 ], [ 18.88005998, 48.43991825 ], [ 18.88019422, 48.43991465 ], [ 18.88037989, 48.43998706 ], [ 18.88052866, 48.44011168 ], [ 18.88061344, 48.44028152 ], [ 18.88067433, 48.44047934 ], [ 18.88075929, 48.44075527 ], [ 18.88084204, 48.44093555 ], [ 18.88100815, 48.44115525 ], [ 18.88117515, 48.44132231 ], [ 18.88157284, 48.44155248 ], [ 18.8818966, 48.441637 ], [ 18.8820158, 48.44163452 ], [ 18.8820828, 48.44163312 ], [ 18.88281834, 48.44161801 ], [ 18.88282367, 48.44161874 ], [ 18.88319008, 48.44166795 ], [ 18.88335783, 48.44177424 ], [ 18.88342147, 48.44189652 ], [ 18.88343421, 48.4422047 ], [ 18.88335939, 48.44249066 ], [ 18.88322758, 48.44277574 ], [ 18.88275464, 48.44330637 ], [ 18.88252288, 48.44353143 ], [ 18.88257197, 48.44383247 ], [ 18.88286613, 48.44395352 ], [ 18.88345037, 48.44407743 ], [ 18.88400424, 48.44422231 ], [ 18.88492411, 48.4444548 ], [ 18.88525768, 48.44457743 ], [ 18.88540333, 48.44464551 ], [ 18.88585071, 48.44485459 ], [ 18.88605157, 48.44492832 ], [ 18.88650971, 48.44509647 ], [ 18.88693991, 48.44526939 ], [ 18.88798159, 48.44625516 ], [ 18.88783534, 48.44646688 ], [ 18.88783028, 48.44675005 ], [ 18.88782977, 48.44729577 ], [ 18.88783184, 48.44755505 ], [ 18.88783736, 48.44786258 ], [ 18.88768798, 48.44885903 ], [ 18.8876772, 48.44917492 ], [ 18.88775322, 48.44956485 ], [ 18.88770325, 48.44984244 ], [ 18.88739965, 48.45011007 ], [ 18.88711959, 48.45024838 ], [ 18.88678807, 48.45029679 ], [ 18.88620657, 48.45034571 ], [ 18.88532873, 48.45032668 ], [ 18.88496564, 48.45036444 ], [ 18.88444715, 48.45042653 ], [ 18.88400754, 48.4504623 ], [ 18.88220042, 48.45061792 ], [ 18.88193691, 48.45068536 ], [ 18.88164028, 48.45064419 ], [ 18.88134179, 48.45057839 ], [ 18.88104918, 48.45042764 ], [ 18.88075295, 48.45031712 ], [ 18.88042763, 48.45033219 ], [ 18.88003495, 48.45015371 ], [ 18.87956203, 48.44922937 ], [ 18.87906637, 48.44978299 ], [ 18.87899211, 48.44986592 ], [ 18.87867993, 48.45021444 ], [ 18.87866385, 48.45023246 ], [ 18.87858438, 48.45023944 ], [ 18.87860798, 48.45057506 ], [ 18.87863599, 48.45097135 ], [ 18.87884347, 48.45155123 ], [ 18.87896108, 48.4518275 ], [ 18.87899701, 48.45196413 ], [ 18.87891649, 48.45221046 ], [ 18.87870006, 48.45266291 ], [ 18.87860631, 48.45285885 ], [ 18.87861109, 48.45307154 ], [ 18.87863709, 48.45309968 ], [ 18.87873539, 48.45320626 ], [ 18.8787595, 48.45321581 ], [ 18.8789973, 48.45331013 ], [ 18.87925873, 48.45330691 ], [ 18.87950935, 48.45322229 ], [ 18.87919428, 48.45378636 ], [ 18.87836954, 48.45421638 ], [ 18.8782599, 48.45427357 ], [ 18.87824719, 48.45428022 ], [ 18.87812167, 48.4543457 ], [ 18.87810119, 48.45444873 ], [ 18.87809264, 48.45449159 ], [ 18.87804795, 48.45471669 ], [ 18.87831925, 48.45492903 ], [ 18.877706, 48.45531084 ], [ 18.8771844, 48.45554819 ], [ 18.87713598, 48.45557021 ], [ 18.87681607, 48.45571582 ], [ 18.87585766, 48.45603732 ], [ 18.87493503, 48.45606866 ], [ 18.87403236, 48.45624194 ], [ 18.87228851, 48.45644931 ], [ 18.8727229, 48.45656495 ], [ 18.87305915, 48.45674496 ], [ 18.87387425, 48.45695874 ], [ 18.87438374, 48.45750504 ], [ 18.87474338, 48.45814604 ], [ 18.87472081, 48.45849696 ], [ 18.87459743, 48.45913157 ], [ 18.87445526, 48.45922785 ], [ 18.87410029, 48.45929287 ], [ 18.87374926, 48.45939599 ], [ 18.87340258, 48.45946433 ], [ 18.87318726, 48.45975409 ], [ 18.87340101, 48.46004664 ], [ 18.87298983, 48.46051675 ], [ 18.872458, 48.46049033 ], [ 18.87219948, 48.4606465 ], [ 18.87219861, 48.46092556 ], [ 18.87250148, 48.46133251 ], [ 18.87251395, 48.46154768 ], [ 18.87244776, 48.46154884 ], [ 18.87175586, 48.46199293 ], [ 18.87127767, 48.4622999 ], [ 18.87190268, 48.46332418 ], [ 18.87187151, 48.4635101 ], [ 18.87204264, 48.46354975 ], [ 18.87207723, 48.46366773 ], [ 18.87230969, 48.46446217 ], [ 18.87200458, 48.46474935 ], [ 18.87209604, 48.46547621 ], [ 18.87161299, 48.46561622 ], [ 18.87153189, 48.4660461 ], [ 18.87085185, 48.46638859 ], [ 18.87106759, 48.46653944 ], [ 18.87127572, 48.46637496 ], [ 18.87127727, 48.46643575 ], [ 18.87145588, 48.46663717 ], [ 18.87166831, 48.46679785 ], [ 18.87194847, 48.46682519 ], [ 18.87213526, 48.46676507 ], [ 18.87218274, 48.46681471 ], [ 18.87230537, 48.46676965 ], [ 18.87240499, 48.4668432 ], [ 18.87280242, 48.46665607 ], [ 18.87309173, 48.46661353 ], [ 18.87318269, 48.46646715 ], [ 18.87339315, 48.46646427 ], [ 18.8736204, 48.46638179 ], [ 18.87458925, 48.46695499 ], [ 18.87467551, 48.46710199 ], [ 18.87507909, 48.46701846 ], [ 18.87539426, 48.46721234 ], [ 18.87534516, 48.46729441 ], [ 18.87551631, 48.4674035 ], [ 18.87566001, 48.46730595 ], [ 18.87576555, 48.46735445 ], [ 18.87580967, 48.46737966 ], [ 18.87600986, 48.46750713 ], [ 18.87535167, 48.46834702 ], [ 18.87504819, 48.46915578 ], [ 18.87523544, 48.46930108 ], [ 18.87586864, 48.46894863 ], [ 18.87619749, 48.46978369 ], [ 18.87560183, 48.46990967 ], [ 18.87498321, 48.47000704 ], [ 18.87459427, 48.46999093 ], [ 18.8741917, 48.46991872 ], [ 18.87369632, 48.46968942 ], [ 18.87282869, 48.4693377 ], [ 18.8728101, 48.46936669 ], [ 18.87277192, 48.46943308 ], [ 18.87274285, 48.46945999 ], [ 18.87361088, 48.47046628 ], [ 18.87397104, 48.47067918 ], [ 18.87469709, 48.47110826 ], [ 18.87510929, 48.4717011 ], [ 18.87471717, 48.47194102 ], [ 18.87500963, 48.47229979 ], [ 18.87531675, 48.47256252 ], [ 18.87486341, 48.47285826 ], [ 18.87481522, 48.47288968 ], [ 18.87442313, 48.47314547 ], [ 18.87483796, 48.47337473 ], [ 18.87486, 48.47338697 ], [ 18.87502308, 48.47347707 ], [ 18.874838, 48.47367395 ], [ 18.87473559, 48.47392132 ], [ 18.87473483, 48.47392317 ], [ 18.87454588, 48.47418084 ], [ 18.87450969, 48.47423029 ], [ 18.87443347, 48.47462786 ], [ 18.87441995, 48.47486341 ], [ 18.87427461, 48.47519451 ], [ 18.87427507, 48.47530964 ], [ 18.8742754, 48.47537398 ], [ 18.87431902, 48.47568908 ], [ 18.87443967, 48.47577896 ], [ 18.87453625, 48.47585082 ], [ 18.87461062, 48.47590618 ], [ 18.87476657, 48.47602243 ], [ 18.87497672, 48.47635212 ], [ 18.87499438, 48.47657865 ], [ 18.87486003, 48.47686576 ], [ 18.87479348, 48.47691959 ], [ 18.87459589, 48.47707957 ], [ 18.87443991, 48.47730701 ], [ 18.87433673, 48.47756543 ], [ 18.87434654, 48.47776521 ], [ 18.87443373, 48.47814031 ], [ 18.87447828, 48.47836083 ], [ 18.87445922, 48.47858807 ], [ 18.87446755, 48.47883279 ], [ 18.87453298, 48.47902679 ], [ 18.87467312, 48.47932074 ], [ 18.87470185, 48.47931528 ], [ 18.8748249, 48.47958372 ], [ 18.87484561, 48.47957947 ], [ 18.87490247, 48.4795679 ], [ 18.87491803, 48.47956473 ], [ 18.87494125, 48.47955998 ], [ 18.87500588, 48.47954683 ], [ 18.87501047, 48.47954589 ], [ 18.87648172, 48.47924591 ], [ 18.87653696, 48.47920647 ], [ 18.8766033, 48.47915903 ], [ 18.87665253, 48.47927146 ], [ 18.87665308, 48.47927257 ], [ 18.8766748, 48.47932222 ], [ 18.87667555, 48.47932398 ], [ 18.87668185, 48.47933847 ], [ 18.8767158, 48.47941573 ], [ 18.87671739, 48.47941951 ], [ 18.87673164, 48.47945191 ], [ 18.87673515, 48.47946012 ], [ 18.87674972, 48.47949326 ], [ 18.8768324, 48.47953453 ], [ 18.87719306, 48.47971488 ], [ 18.87729226, 48.4797645 ], [ 18.87731022, 48.47976407 ], [ 18.8773275, 48.47976362 ], [ 18.87850761, 48.47973529 ], [ 18.87932063, 48.47955695 ], [ 18.87951128, 48.47965749 ], [ 18.88015708, 48.47976329 ], [ 18.88026605, 48.48021231 ], [ 18.88063779, 48.48034342 ], [ 18.88087442, 48.48055414 ], [ 18.88170426, 48.48069085 ], [ 18.88181307, 48.48081826 ], [ 18.88199334, 48.48078755 ], [ 18.88222026, 48.48074887 ], [ 18.88386929, 48.48103217 ], [ 18.88439411, 48.48170766 ], [ 18.88478185, 48.48205338 ], [ 18.88472939, 48.48225111 ], [ 18.88479993, 48.48226396 ], [ 18.88504691, 48.48230895 ], [ 18.88526864, 48.48187895 ], [ 18.88575963, 48.48163735 ], [ 18.88588432, 48.48157597 ], [ 18.88568114, 48.481741 ], [ 18.88547451, 48.48191342 ], [ 18.88526814, 48.48232581 ], [ 18.8851387, 48.48272667 ], [ 18.88511532, 48.48315683 ], [ 18.88516881, 48.48380891 ], [ 18.88519005, 48.48425663 ], [ 18.88516081, 48.48453412 ], [ 18.88513225, 48.48480462 ], [ 18.88519874, 48.48482782 ], [ 18.88554658, 48.48494902 ], [ 18.88620325, 48.48554662 ], [ 18.88837352, 48.48705314 ], [ 18.88840596, 48.48712491 ], [ 18.88809749, 48.48735341 ], [ 18.88788528, 48.48732999 ], [ 18.88768251, 48.48750767 ], [ 18.88755564, 48.48773934 ], [ 18.88738986, 48.48782467 ], [ 18.88724655, 48.48810872 ], [ 18.88774619, 48.48863395 ], [ 18.88832834, 48.4884731 ], [ 18.88878268, 48.48838501 ], [ 18.88997664, 48.48862356 ], [ 18.89087591, 48.48840359 ], [ 18.89107752, 48.48846435 ], [ 18.89206797, 48.48830709 ], [ 18.89204463, 48.48858778 ], [ 18.89160998, 48.48871523 ], [ 18.89146754, 48.48885635 ], [ 18.89107287, 48.48890423 ], [ 18.89081191, 48.4889703 ], [ 18.8906286, 48.48910344 ], [ 18.89057633, 48.48927294 ], [ 18.89078813, 48.48953647 ], [ 18.8908267, 48.48958844 ], [ 18.89122683, 48.48994506 ], [ 18.89189028, 48.49000452 ], [ 18.89192733, 48.49011468 ], [ 18.89184879, 48.49026867 ], [ 18.8909464, 48.49059737 ], [ 18.89102142, 48.49071815 ], [ 18.89226618, 48.49037693 ], [ 18.89271345, 48.48978556 ], [ 18.89287177, 48.48974539 ], [ 18.89303452, 48.48974857 ], [ 18.89357703, 48.49001701 ], [ 18.89383569, 48.48999493 ], [ 18.89403275, 48.48991129 ], [ 18.894075, 48.4899759 ], [ 18.89447512, 48.49058698 ], [ 18.89522762, 48.49109538 ], [ 18.8959329, 48.49159458 ], [ 18.89788256, 48.49164557 ] ] ] ] } },
{ "type": "Feature", "properties": { "@featureType": "CadastralZoning", "beginLifespanVersion": { "@nilReason": "http://inspire.ec.europa.eu/codelist/VoidReasonValue/Unpopulated", "@nil": "true" }, "endLifespanVersion": { "@nilReason": "http://inspire.ec.europa.eu/codelist/VoidReasonValue/Unpopulated", "@nil": "true" }, "estimatedAccuracy": { "value": -1, "@uom": "m" }, "inspireId": { "@dataType": "Identifier", "localId": "800210", "namespace": "SK.ESKN.CP", "versionId": "20260703T04:07:40" }, "label": "Svätý Anton", "level": { "@href": "http://inspire.ec.europa.eu/codelist/CadastralZoningLevelValue/3rdOrder" }, "levelName": { "value": "Katastrálne územie", "@locale": "sk" }, "name": { "@dataType": "name", "GeographicalName": { "@dataType": "GeographicalName", "language": "SLK", "nativeness": { "@href": "http://inspire.ec.europa.eu/codelist/NativenessValue/endonym", "@title": "endonym" }, "nameStatus": { "@href": "http://inspire.ec.europa.eu/codelist/NameStatusValue/official", "@title": "official" }, "sourceOfName": { "@nilReason": "http://inspire.ec.europa.eu/codelist/VoidReasonValue/Unpopulated", "@nil": "true" }, "pronunciation": { "@dataType": "pronunciation", "@nilReason": "http://inspire.ec.europa.eu/codelist/VoidReasonValue/Unpopulated", "@nil": "true" }, "spelling": { "@dataType": "SpellingOfName", "text": "Svätý Anton", "script": "LATN" } } }, "nationalCadastalZoningReference": "800210", "validFrom": "2026-06-30T16:00:00Z", "validTo": { "@nilReason": "http://inspire.ec.europa.eu/codelist/VoidReasonValue/Unpopulated", "@nil": "true" } }, "geometry": { "type": "MultiPolygon", "coordinates": [ [ [ [ 18.9680829, 48.4374632 ], [ 18.96885323, 48.43708527 ], [ 18.96934021, 48.43699433 ], [ 18.9695145, 48.43696173 ], [ 18.97051158, 48.43658987 ], [ 18.97117128, 48.43650223 ], [ 18.97182754, 48.43617989 ], [ 18.97196436, 48.43611363 ], [ 18.97355459, 48.43534429 ], [ 18.97427464, 48.43499029 ], [ 18.97418065, 48.43474493 ], [ 18.97458193, 48.43467629 ], [ 18.97460834, 48.43467177 ], [ 18.97475155, 48.43430186 ], [ 18.97535514, 48.4336079 ], [ 18.97536716, 48.43360238 ], [ 18.97571714, 48.43344127 ], [ 18.97600108, 48.4333698 ], [ 18.97600559, 48.43327649 ], [ 18.97642321, 48.43310594 ], [ 18.97665817, 48.43294537 ], [ 18.97731266, 48.43278004 ], [ 18.97734738, 48.43276927 ], [ 18.9773582, 48.43276595 ], [ 18.97788827, 48.43277818 ], [ 18.97791774, 48.43277888 ], [ 18.97843763, 48.43283714 ], [ 18.97877886, 48.43288845 ], [ 18.97911218, 48.43286594 ], [ 18.97964661, 48.43278143 ], [ 18.97979607, 48.43270417 ], [ 18.98010871, 48.43228796 ], [ 18.98012118, 48.43227146 ], [ 18.98035541, 48.43229494 ], [ 18.98105381, 48.4317502 ], [ 18.98147012, 48.43152598 ], [ 18.98172053, 48.43139118 ], [ 18.98208129, 48.43120436 ], [ 18.9824376, 48.43096076 ], [ 18.98253845, 48.43088769 ], [ 18.98281659, 48.4306862 ], [ 18.98419929, 48.42963113 ], [ 18.98422232, 48.42961355 ], [ 18.98436035, 48.42959307 ], [ 18.98480091, 48.43000851 ], [ 18.985746, 48.42975998 ], [ 18.98576501, 48.42975499 ], [ 18.98581851, 48.42976827 ], [ 18.98584237, 48.4297611 ], [ 18.98781048, 48.42916949 ], [ 18.99120837, 48.42750481 ], [ 18.99198704, 48.42723306 ], [ 18.99236678, 48.42698656 ], [ 18.99341047, 48.42636605 ], [ 18.99388939, 48.42611016 ], [ 18.99400552, 48.42550254 ], [ 18.99399747, 48.42501551 ], [ 18.9941377, 48.42462396 ], [ 18.9943017, 48.42416589 ], [ 18.99457403, 48.42384781 ], [ 18.99462942, 48.42378433 ], [ 18.99470337, 48.42368445 ], [ 18.99482993, 48.42351103 ], [ 18.99484412, 48.42349371 ], [ 18.99511977, 48.423254 ], [ 18.99527789, 48.42311971 ], [ 18.99538718, 48.42296092 ], [ 18.99540202, 48.42294265 ], [ 18.99551799, 48.42284022 ], [ 18.99553356, 48.42281323 ], [ 18.99581501, 48.42232342 ], [ 18.99531354, 48.42149641 ], [ 18.99474483, 48.42098493 ], [ 18.99458885, 48.42080201 ], [ 18.99431044, 48.42051338 ], [ 18.99415208, 48.42032763 ], [ 18.99365982, 48.41989408 ], [ 18.99364738, 48.41988316 ], [ 18.9933209, 48.41958847 ], [ 18.99235286, 48.41843302 ], [ 18.99157261, 48.41764972 ], [ 18.99153686, 48.4175209 ], [ 18.99158015, 48.41738113 ], [ 18.99110928, 48.41623681 ], [ 18.99037431, 48.4155174 ], [ 18.98971437, 48.41526201 ], [ 18.98833005, 48.4147261 ], [ 18.98773427, 48.41438187 ], [ 18.98666285, 48.41307037 ], [ 18.98635982, 48.41254522 ], [ 18.98595179, 48.41223588 ], [ 18.98548175, 48.41160318 ], [ 18.98525237, 48.41129438 ], [ 18.98432612, 48.41113578 ], [ 18.9842785, 48.41113516 ], [ 18.98352891, 48.41113575 ], [ 18.9833934, 48.41113948 ], [ 18.98299416, 48.4108811 ], [ 18.98253988, 48.41041226 ], [ 18.98213509, 48.41020104 ], [ 18.98185682, 48.41011848 ], [ 18.98129764, 48.41010224 ], [ 18.98065966, 48.41014557 ], [ 18.9801878, 48.41025716 ], [ 18.97964843, 48.41043261 ], [ 18.97909374, 48.41037257 ], [ 18.97899983, 48.409969 ], [ 18.97883003, 48.40981864 ], [ 18.97821389, 48.40925791 ], [ 18.97813671, 48.40912336 ], [ 18.97800289, 48.40894885 ], [ 18.97779441, 48.40867673 ], [ 18.9776844, 48.40818241 ], [ 18.9776075, 48.40802416 ], [ 18.97753004, 48.40777675 ], [ 18.97736476, 48.40760253 ], [ 18.97724018, 48.4075573 ], [ 18.97678039, 48.40753113 ], [ 18.97671358, 48.40746774 ], [ 18.97664354, 48.40743241 ], [ 18.97659868, 48.40729257 ], [ 18.97649713, 48.4071391 ], [ 18.97642405, 48.40708423 ], [ 18.97601919, 48.4066941 ], [ 18.97593742, 48.40653118 ], [ 18.97585182, 48.40646863 ], [ 18.97543861, 48.40628518 ], [ 18.97538705, 48.40623411 ], [ 18.975297, 48.40602665 ], [ 18.97520387, 48.40589309 ], [ 18.97507821, 48.40578782 ], [ 18.9745428, 48.40528802 ], [ 18.97379387, 48.40527305 ], [ 18.97341123, 48.40530646 ], [ 18.9732309, 48.40528661 ], [ 18.97311056, 48.40525052 ], [ 18.97274037, 48.40509244 ], [ 18.97256508, 48.40502883 ], [ 18.97216413, 48.40490254 ], [ 18.97199053, 48.40486896 ], [ 18.97181188, 48.40483341 ], [ 18.97158049, 48.40477938 ], [ 18.97131301, 48.40468814 ], [ 18.97099335, 48.40463474 ], [ 18.97081145, 48.40456384 ], [ 18.97067004, 48.40445785 ], [ 18.97051853, 48.40434782 ], [ 18.97038683, 48.40425513 ], [ 18.97022645, 48.40408458 ], [ 18.97020534, 48.40408909 ], [ 18.97019924, 48.40409031 ], [ 18.96954255, 48.40420487 ], [ 18.96915748, 48.40429939 ], [ 18.96827578, 48.40452783 ], [ 18.96821274, 48.4045458 ], [ 18.96740381, 48.40441795 ], [ 18.96717808, 48.4044241 ], [ 18.96695155, 48.40441252 ], [ 18.96675337, 48.40435368 ], [ 18.96570709, 48.40410256 ], [ 18.9652191, 48.40368117 ], [ 18.96498644, 48.40363229 ], [ 18.96475657, 48.40358166 ], [ 18.9640716, 48.40353969 ], [ 18.96393248, 48.40352905 ], [ 18.9637168, 48.4034704 ], [ 18.96318611, 48.40345561 ], [ 18.96179097, 48.40316397 ], [ 18.96127567, 48.40304992 ], [ 18.96064077, 48.40265401 ], [ 18.96050289, 48.40238276 ], [ 18.96048967, 48.4021757 ], [ 18.96027107, 48.40189138 ], [ 18.96096207, 48.40092442 ], [ 18.96160583, 48.40009079 ], [ 18.96161191, 48.40008271 ], [ 18.96161671, 48.40007628 ], [ 18.96162763, 48.40006151 ], [ 18.96163368, 48.4000537 ], [ 18.96167021, 48.40000596 ], [ 18.96167721, 48.39999693 ], [ 18.9616812, 48.39999172 ], [ 18.96169457, 48.39997446 ], [ 18.96169973, 48.39996733 ], [ 18.96176069, 48.39988394 ], [ 18.96171692, 48.39975849 ], [ 18.96171469, 48.39975197 ], [ 18.96122154, 48.3982633 ], [ 18.96114323, 48.39753226 ], [ 18.96078152, 48.39700808 ], [ 18.96022928, 48.39622537 ], [ 18.95928333, 48.39497555 ], [ 18.95927945, 48.39497048 ], [ 18.95926389, 48.3949492 ], [ 18.95925706, 48.39494029 ], [ 18.95920229, 48.39486794 ], [ 18.95920077, 48.39486587 ], [ 18.95850633, 48.39394381 ], [ 18.95780847, 48.39265752 ], [ 18.95764474, 48.39235589 ], [ 18.95762722, 48.39232351 ], [ 18.9569559, 48.39084995 ], [ 18.95568626, 48.39045053 ], [ 18.95567672, 48.39044752 ], [ 18.95567214, 48.39044611 ], [ 18.95561628, 48.39042557 ], [ 18.95543288, 48.38992746 ], [ 18.95537403, 48.38920228 ], [ 18.95536527, 48.38918316 ], [ 18.95543597, 48.38900142 ], [ 18.95546539, 48.38872203 ], [ 18.95547637, 48.38848401 ], [ 18.95548293, 48.38821265 ], [ 18.95557527, 48.38798421 ], [ 18.95564067, 48.38780021 ], [ 18.95574815, 48.38756145 ], [ 18.95569362, 48.38727028 ], [ 18.95556608, 48.38694515 ], [ 18.95567496, 48.38676581 ], [ 18.95574132, 48.38654884 ], [ 18.95579257, 48.38636782 ], [ 18.95587681, 48.38611569 ], [ 18.95597291, 48.38590385 ], [ 18.95623859, 48.38550885 ], [ 18.95644605, 48.38531192 ], [ 18.95661015, 48.38515507 ], [ 18.95663615, 48.38510932 ], [ 18.95664478, 48.38509443 ], [ 18.956665, 48.38508464 ], [ 18.95771873, 48.38457782 ], [ 18.95864286, 48.38314646 ], [ 18.95896177, 48.38218554 ], [ 18.9576664, 48.38177625 ], [ 18.95681584, 48.38174134 ], [ 18.95601078, 48.38180491 ], [ 18.95584749, 48.38182117 ], [ 18.95472228, 48.38193309 ], [ 18.9547073, 48.38194197 ], [ 18.95411465, 48.38229082 ], [ 18.95360736, 48.38248329 ], [ 18.95359022, 48.3824898 ], [ 18.953046, 48.38269716 ], [ 18.95235227, 48.38287871 ], [ 18.95140542, 48.38351508 ], [ 18.95048955, 48.38403324 ], [ 18.94963668, 48.38441499 ], [ 18.94929244, 48.38456845 ], [ 18.94913149, 48.38463813 ], [ 18.94649355, 48.38544885 ], [ 18.94412051, 48.38692331 ], [ 18.9429359, 48.38633967 ], [ 18.93332174, 48.38490787 ], [ 18.93297935, 48.38485679 ], [ 18.93295578, 48.38485333 ], [ 18.93281687, 48.38481804 ], [ 18.93280792, 48.38481577 ], [ 18.93275156, 48.38480079 ], [ 18.9327429, 48.38479845 ], [ 18.93192772, 48.38458522 ], [ 18.9314963, 48.38468065 ], [ 18.93134619, 48.38544481 ], [ 18.93129654, 48.38569781 ], [ 18.93105962, 48.38575553 ], [ 18.93097703, 48.38591058 ], [ 18.93083122, 48.3860106 ], [ 18.93034831, 48.38605125 ], [ 18.93034147, 48.38605189 ], [ 18.93032205, 48.3860535 ], [ 18.93022743, 48.38606126 ], [ 18.93019434, 48.38606398 ], [ 18.92561655, 48.38662323 ], [ 18.92478993, 48.38758627 ], [ 18.92465766, 48.38806991 ], [ 18.92312624, 48.38829439 ], [ 18.92307788, 48.38830146 ], [ 18.92210969, 48.38811005 ], [ 18.9212247, 48.39000243 ], [ 18.9200895, 48.39036799 ], [ 18.91758846, 48.39153875 ], [ 18.91806453, 48.39287868 ], [ 18.91780749, 48.39357381 ], [ 18.91793034, 48.39444648 ], [ 18.91553889, 48.39627054 ], [ 18.91553592, 48.39627282 ], [ 18.91549291, 48.39630606 ], [ 18.91539449, 48.39632886 ], [ 18.9152973, 48.39644355 ], [ 18.9152312, 48.39652385 ], [ 18.91513184, 48.39673405 ], [ 18.91514972, 48.39722199 ], [ 18.91531765, 48.39750181 ], [ 18.91539173, 48.39779077 ], [ 18.91529538, 48.3979203 ], [ 18.91504318, 48.39807607 ], [ 18.91494473, 48.39815155 ], [ 18.91475993, 48.39824846 ], [ 18.91458887, 48.39831108 ], [ 18.91421029, 48.39839105 ], [ 18.91365999, 48.39852891 ], [ 18.91326386, 48.39858741 ], [ 18.91285349, 48.3986624 ], [ 18.91246377, 48.3987822 ], [ 18.91183964, 48.39895134 ], [ 18.91119526, 48.39908145 ], [ 18.91078618, 48.39911618 ], [ 18.90988233, 48.39926419 ], [ 18.90927979, 48.39938861 ], [ 18.90863835, 48.39957244 ], [ 18.90838173, 48.39969847 ], [ 18.90838506, 48.39970126 ], [ 18.90850586, 48.39979932 ], [ 18.90880626, 48.39995925 ], [ 18.9089258, 48.40004481 ], [ 18.90928705, 48.40017775 ], [ 18.90935662, 48.40032026 ], [ 18.90957432, 48.40036325 ], [ 18.9098459, 48.40047288 ], [ 18.91025574, 48.40051902 ], [ 18.91037611, 48.400836 ], [ 18.91065488, 48.40093283 ], [ 18.91071598, 48.40104333 ], [ 18.91072394, 48.4010506 ], [ 18.91089411, 48.40120633 ], [ 18.91114826, 48.40140292 ], [ 18.91127091, 48.40169926 ], [ 18.91136124, 48.40175886 ], [ 18.91137167, 48.40176589 ], [ 18.91146476, 48.40182852 ], [ 18.91148317, 48.4018403 ], [ 18.91167841, 48.40196466 ], [ 18.91197094, 48.40208647 ], [ 18.91219937, 48.402177 ], [ 18.91255939, 48.40230094 ], [ 18.91293277, 48.4024114 ], [ 18.91313595, 48.40255954 ], [ 18.91326523, 48.40261392 ], [ 18.91328331, 48.40262153 ], [ 18.91329084, 48.40262778 ], [ 18.91361995, 48.40290103 ], [ 18.91396412, 48.40309252 ], [ 18.91406146, 48.4032002 ], [ 18.91412611, 48.40326054 ], [ 18.9149382, 48.40340914 ], [ 18.91529032, 48.40356856 ], [ 18.91582091, 48.40367043 ], [ 18.91606053, 48.40361486 ], [ 18.91617311, 48.40363464 ], [ 18.91638508, 48.4035338 ], [ 18.91661902, 48.40348858 ], [ 18.91669667, 48.40348023 ], [ 18.9168333, 48.40346562 ], [ 18.91684277, 48.40346458 ], [ 18.91716651, 48.40350111 ], [ 18.9174655, 48.40354305 ], [ 18.91768903, 48.40353616 ], [ 18.91819509, 48.40361601 ], [ 18.91837341, 48.40362159 ], [ 18.91879109, 48.40372403 ], [ 18.91899662, 48.40386136 ], [ 18.91911597, 48.40388943 ], [ 18.91920188, 48.40400815 ], [ 18.91942999, 48.40403749 ], [ 18.91969893, 48.40407345 ], [ 18.92009652, 48.40414256 ], [ 18.92031895, 48.40416142 ], [ 18.92067298, 48.40424154 ], [ 18.9207381, 48.40432707 ], [ 18.9213787, 48.40447571 ], [ 18.9215558, 48.4044207 ], [ 18.9217285, 48.40445828 ], [ 18.92185535, 48.40450098 ], [ 18.92204192, 48.4044193 ], [ 18.92248567, 48.40445019 ], [ 18.92273378, 48.40461884 ], [ 18.92273893, 48.40462235 ], [ 18.92275872, 48.4046351 ], [ 18.92296714, 48.40455526 ], [ 18.92309954, 48.40458644 ], [ 18.92332671, 48.40459597 ], [ 18.92360917, 48.40449929 ], [ 18.92382792, 48.40446708 ], [ 18.92402883, 48.40435745 ], [ 18.92442464, 48.40438008 ], [ 18.92452432, 48.40449346 ], [ 18.92487767, 48.40448513 ], [ 18.92520359, 48.40459392 ], [ 18.92526598, 48.40455365 ], [ 18.92539206, 48.40456456 ], [ 18.925415, 48.40470998 ], [ 18.92560181, 48.40494114 ], [ 18.92590554, 48.40510922 ], [ 18.92611185, 48.40512579 ], [ 18.9264713, 48.40518624 ], [ 18.9266611, 48.40512673 ], [ 18.92691619, 48.40510243 ], [ 18.92709615, 48.40517203 ], [ 18.92730545, 48.405297 ], [ 18.9274405, 48.4053054 ], [ 18.92764502, 48.4053852 ], [ 18.92777274, 48.40558156 ], [ 18.92787832, 48.40562677 ], [ 18.9280703, 48.40563954 ], [ 18.92821586, 48.40563675 ], [ 18.92835095, 48.40558993 ], [ 18.92854217, 48.40555557 ], [ 18.92871393, 48.40568655 ], [ 18.92903001, 48.40579861 ], [ 18.92911215, 48.40587996 ], [ 18.9292303, 48.40594052 ], [ 18.92947184, 48.40599796 ], [ 18.92942064, 48.40608652 ], [ 18.92937936, 48.40620292 ], [ 18.92938723, 48.40622029 ], [ 18.92954608, 48.40632128 ], [ 18.92978664, 48.40635566 ], [ 18.9297828, 48.40638875 ], [ 18.92977426, 48.40640978 ], [ 18.92977349, 48.40641173 ], [ 18.92954259, 48.40647282 ], [ 18.92923674, 48.40656092 ], [ 18.92903062, 48.40669671 ], [ 18.92884784, 48.40675289 ], [ 18.92874792, 48.40673593 ], [ 18.92860961, 48.40663897 ], [ 18.92859298, 48.40662928 ], [ 18.92848809, 48.40662605 ], [ 18.92815694, 48.40672312 ], [ 18.92792697, 48.40674809 ], [ 18.92768729, 48.40671438 ], [ 18.92731918, 48.40678672 ], [ 18.92705408, 48.40688439 ], [ 18.92661664, 48.40691555 ], [ 18.92630895, 48.40703809 ], [ 18.92530298, 48.40714543 ], [ 18.9251695, 48.40730778 ], [ 18.924964, 48.40736936 ], [ 18.92484392, 48.4073639 ], [ 18.92460757, 48.4075114 ], [ 18.92442928, 48.40747282 ], [ 18.92423215, 48.40745301 ], [ 18.92404903, 48.40748634 ], [ 18.92384856, 48.4076107 ], [ 18.92354952, 48.40770652 ], [ 18.92344994, 48.40781027 ], [ 18.92344063, 48.40794754 ], [ 18.92346814, 48.40807344 ], [ 18.9232174, 48.40827828 ], [ 18.922893, 48.40819004 ], [ 18.92286729, 48.40822119 ], [ 18.92274915, 48.4086001 ], [ 18.92253257, 48.40887237 ], [ 18.92239975, 48.40903476 ], [ 18.92225612, 48.40911649 ], [ 18.92199447, 48.40913765 ], [ 18.92198138, 48.40915466 ], [ 18.92208982, 48.40942237 ], [ 18.92207197, 48.40970307 ], [ 18.92195023, 48.40991122 ], [ 18.9219277, 48.41007703 ], [ 18.92196995, 48.41025682 ], [ 18.92185127, 48.41027651 ], [ 18.92172846, 48.41025836 ], [ 18.92156755, 48.41029166 ], [ 18.92140005, 48.41039796 ], [ 18.92133624, 48.41055532 ], [ 18.92110805, 48.41071866 ], [ 18.9208734, 48.41080237 ], [ 18.92062849, 48.41090901 ], [ 18.92051201, 48.41110091 ], [ 18.92045781, 48.41121521 ], [ 18.92031758, 48.41134564 ], [ 18.92038057, 48.41149032 ], [ 18.92034255, 48.41153175 ], [ 18.92017918, 48.41154544 ], [ 18.91992905, 48.41170746 ], [ 18.91947937, 48.41215345 ], [ 18.91926437, 48.41226271 ], [ 18.91915847, 48.41231697 ], [ 18.91907191, 48.41242283 ], [ 18.9188947, 48.41278967 ], [ 18.91882163, 48.41284824 ], [ 18.91873866, 48.41292316 ], [ 18.91868242, 48.41302111 ], [ 18.91862255, 48.41321666 ], [ 18.91817068, 48.41333058 ], [ 18.91789101, 48.41350181 ], [ 18.91769413, 48.41356698 ], [ 18.91752652, 48.4136334 ], [ 18.91739242, 48.41367835 ], [ 18.91725712, 48.41373371 ], [ 18.91713851, 48.41381329 ], [ 18.91699588, 48.41396777 ], [ 18.91684397, 48.41408199 ], [ 18.91677377, 48.41411472 ], [ 18.91666988, 48.41416908 ], [ 18.91666179, 48.41426888 ], [ 18.91665149, 48.41432599 ], [ 18.91660415, 48.4145617 ], [ 18.91656748, 48.41462881 ], [ 18.91652891, 48.4146657 ], [ 18.91638185, 48.41480687 ], [ 18.91634755, 48.41489792 ], [ 18.91635729, 48.41499468 ], [ 18.91638865, 48.41515379 ], [ 18.91641019, 48.41519342 ], [ 18.91644109, 48.4152283 ], [ 18.91653988, 48.4153401 ], [ 18.91658633, 48.41543703 ], [ 18.91664314, 48.41552989 ], [ 18.91676003, 48.41569693 ], [ 18.91677336, 48.41573966 ], [ 18.91673818, 48.41583932 ], [ 18.91670935, 48.41586237 ], [ 18.91665309, 48.41594057 ], [ 18.91656739, 48.41609139 ], [ 18.91653727, 48.41612547 ], [ 18.91645226, 48.41618063 ], [ 18.91646661, 48.41619472 ], [ 18.91647098, 48.41619909 ], [ 18.91647751, 48.41620466 ], [ 18.9167204, 48.41641148 ], [ 18.91684073, 48.41651402 ], [ 18.91689647, 48.41663831 ], [ 18.91702495, 48.41673018 ], [ 18.91715062, 48.41682641 ], [ 18.91724132, 48.41689594 ], [ 18.91737723, 48.41694489 ], [ 18.91747778, 48.41700437 ], [ 18.9175846, 48.41701917 ], [ 18.91767889, 48.41703224 ], [ 18.9179797, 48.41730852 ], [ 18.91813538, 48.4174311 ], [ 18.91823871, 48.41761575 ], [ 18.91825038, 48.41763656 ], [ 18.91825229, 48.41764108 ], [ 18.91826277, 48.41766516 ], [ 18.91826866, 48.41767746 ], [ 18.9182702, 48.41768052 ], [ 18.91827412, 48.41768875 ], [ 18.91841881, 48.41798856 ], [ 18.91840074, 48.41821152 ], [ 18.91845512, 48.41832762 ], [ 18.91852536, 48.41847755 ], [ 18.91853202, 48.41849602 ], [ 18.91861831, 48.41873284 ], [ 18.91866447, 48.41885916 ], [ 18.91872001, 48.41894203 ], [ 18.91887983, 48.41903253 ], [ 18.91900034, 48.41905443 ], [ 18.91924183, 48.41906724 ], [ 18.91930088, 48.41911764 ], [ 18.91935697, 48.41916554 ], [ 18.91938976, 48.41922153 ], [ 18.91932916, 48.41937789 ], [ 18.91941838, 48.41958022 ], [ 18.91948494, 48.41985155 ], [ 18.9195026, 48.41991525 ], [ 18.91951729, 48.42019329 ], [ 18.91952832, 48.42032339 ], [ 18.91947974, 48.42049408 ], [ 18.91946905, 48.42051374 ], [ 18.91935642, 48.42072127 ], [ 18.91933054, 48.42080744 ], [ 18.91929227, 48.42093491 ], [ 18.91923658, 48.42105256 ], [ 18.91904564, 48.42120743 ], [ 18.91897903, 48.4212418 ], [ 18.91888815, 48.42134735 ], [ 18.91890213, 48.42147535 ], [ 18.91883268, 48.42155394 ], [ 18.91868675, 48.42166207 ], [ 18.91866925, 48.42167506 ], [ 18.91867551, 48.42171092 ], [ 18.9186912, 48.42180212 ], [ 18.91864221, 48.42188538 ], [ 18.9188942, 48.4220306 ], [ 18.91894267, 48.42206945 ], [ 18.91895246, 48.42207735 ], [ 18.91923315, 48.42233239 ], [ 18.91959139, 48.4226606 ], [ 18.91981533, 48.42275693 ], [ 18.92006399, 48.42301013 ], [ 18.92020275, 48.42314429 ], [ 18.92061572, 48.42355091 ], [ 18.92113396, 48.42400806 ], [ 18.92156, 48.42435139 ], [ 18.9216444, 48.42449042 ], [ 18.92168385, 48.42451482 ], [ 18.9219779, 48.42469945 ], [ 18.92225958, 48.42487623 ], [ 18.92368379, 48.42577032 ], [ 18.92521022, 48.42642898 ], [ 18.9253069, 48.42647067 ], [ 18.92615333, 48.4276839 ], [ 18.92660083, 48.42808569 ], [ 18.92695286, 48.42812626 ], [ 18.92717417, 48.42830389 ], [ 18.92731923, 48.42842032 ], [ 18.92746083, 48.42853386 ], [ 18.92753411, 48.42859266 ], [ 18.92768499, 48.4287138 ], [ 18.92793334, 48.42891303 ], [ 18.92845682, 48.42933306 ], [ 18.92925152, 48.4301606 ], [ 18.92925671, 48.4301661 ], [ 18.92929139, 48.43019079 ], [ 18.92941709, 48.43030361 ], [ 18.92958231, 48.43037488 ], [ 18.92969976, 48.43043847 ], [ 18.92988152, 48.43045612 ], [ 18.93008953, 48.43052193 ], [ 18.93014327, 48.43046885 ], [ 18.93124015, 48.43074525 ], [ 18.9312376, 48.4307987 ], [ 18.93138767, 48.43085341 ], [ 18.93173948, 48.43114246 ], [ 18.93222, 48.43154187 ], [ 18.93233719, 48.43163818 ], [ 18.93258655, 48.43174138 ], [ 18.9326479, 48.43178738 ], [ 18.93269776, 48.43181556 ], [ 18.93271011, 48.43182251 ], [ 18.93271683, 48.43182764 ], [ 18.93271781, 48.43183788 ], [ 18.93275116, 48.43190093 ], [ 18.93276218, 48.43192161 ], [ 18.93276861, 48.43193394 ], [ 18.93279229, 48.43197864 ], [ 18.9328123, 48.43201647 ], [ 18.93447823, 48.43223827 ], [ 18.9358841, 48.4324375 ], [ 18.93592836, 48.43244383 ], [ 18.93602252, 48.43245714 ], [ 18.93715582, 48.43347907 ], [ 18.93873044, 48.43382836 ], [ 18.93882969, 48.43385033 ], [ 18.93888625, 48.43386288 ], [ 18.93892378, 48.43387121 ], [ 18.93898258, 48.43386332 ], [ 18.93926407, 48.43390239 ], [ 18.9408187, 48.43411794 ], [ 18.94102029, 48.43414587 ], [ 18.94140648, 48.43416578 ], [ 18.94174084, 48.43440249 ], [ 18.94221074, 48.43439376 ], [ 18.94238557, 48.43439055 ], [ 18.9424513, 48.43441178 ], [ 18.94268372, 48.43448712 ], [ 18.94360393, 48.43474873 ], [ 18.9446017, 48.43503245 ], [ 18.94463805, 48.43504279 ], [ 18.94465361, 48.43505117 ], [ 18.9449981, 48.43523697 ], [ 18.94508077, 48.43528162 ], [ 18.94534948, 48.43542646 ], [ 18.94539847, 48.43545288 ], [ 18.94556663, 48.43554359 ], [ 18.94559687, 48.43555993 ], [ 18.94587424, 48.43570955 ], [ 18.94618893, 48.43573713 ], [ 18.94875748, 48.43596206 ], [ 18.9498334, 48.43571727 ], [ 18.94997908, 48.43572942 ], [ 18.95062139, 48.43578298 ], [ 18.95091626, 48.43577915 ], [ 18.95159399, 48.4357703 ], [ 18.95250806, 48.43568479 ], [ 18.95287984, 48.43577897 ], [ 18.95298035, 48.43606211 ], [ 18.95387762, 48.43600812 ], [ 18.95656853, 48.43556758 ], [ 18.9578338, 48.43544696 ], [ 18.9601215, 48.43555209 ], [ 18.96149545, 48.43579076 ], [ 18.96391194, 48.43699374 ], [ 18.96471173, 48.43712418 ], [ 18.96520372, 48.43735047 ], [ 18.96585085, 48.43764801 ], [ 18.96604591, 48.4376504 ], [ 18.96657051, 48.43781981 ], [ 18.96683545, 48.43783461 ], [ 18.96745235, 48.43786901 ], [ 18.9680829, 48.4374632 ] ] ] ] } },
{ "type": "Feature", "properties": { "@featureType": "CadastralZoning", "beginLifespanVersion": { "@nilReason": "http://inspire.ec.europa.eu/codelist/VoidReasonValue/Unpopulated", "@nil": "true" }, "endLifespanVersion": { "@nilReason": "http://inspire.ec.europa.eu/codelist/VoidReasonValue/Unpopulated", "@nil": "true" }, "estimatedAccuracy": { "value": -1, "@uom": "m" }, "inspireId": { "@dataType": "Identifier", "localId": "874558", "namespace": "SK.ESKN.CP", "versionId": "20260703T04:07:40" }, "label": "Žibritov", "level": { "@href": "http://inspire.ec.europa.eu/codelist/CadastralZoningLevelValue/3rdOrder" }, "levelName": { "value": "Katastrálne územie", "@locale": "sk" }, "name": { "@dataType": "name", "GeographicalName": { "@dataType": "GeographicalName", "language": "SLK", "nativeness": { "@href": "http://inspire.ec.europa.eu/codelist/NativenessValue/endonym", "@title": "endonym" }, "nameStatus": { "@href": "http://inspire.ec.europa.eu/codelist/NameStatusValue/official", "@title": "official" }, "sourceOfName": { "@nilReason": "http://inspire.ec.europa.eu/codelist/VoidReasonValue/Unpopulated", "@nil": "true" }, "pronunciation": { "@dataType": "pronunciation", "@nilReason": "http://inspire.ec.europa.eu/codelist/VoidReasonValue/Unpopulated", "@nil": "true" }, "spelling": { "@dataType": "SpellingOfName", "text": "Žibritov", "script": "LATN" } } }, "nationalCadastalZoningReference": "874558", "validFrom": "2026-06-30T16:00:00Z", "validTo": { "@nilReason": "http://inspire.ec.europa.eu/codelist/VoidReasonValue/Unpopulated", "@nil": "true" } }, "geometry": { "type": "MultiPolygon", "coordinates": [ [ [ [ 18.98482114, 48.41048343 ], [ 18.98445597, 48.40988628 ], [ 18.98440863, 48.409809 ], [ 18.98436781, 48.40974216 ], [ 18.98430868, 48.40938214 ], [ 18.98429669, 48.40904454 ], [ 18.98436546, 48.4086656 ], [ 18.98465406, 48.40792064 ], [ 18.98479408, 48.40739452 ], [ 18.9848836, 48.40724042 ], [ 18.98511663, 48.40702941 ], [ 18.98515262, 48.40699679 ], [ 18.98519089, 48.40696437 ], [ 18.98522213, 48.40693782 ], [ 18.98580788, 48.40644081 ], [ 18.98631143, 48.40600248 ], [ 18.98699816, 48.40540472 ], [ 18.98738269, 48.40481473 ], [ 18.9880165, 48.40452753 ], [ 18.98932235, 48.40374634 ], [ 18.99045612, 48.40312072 ], [ 18.99055216, 48.4030677 ], [ 18.99133553, 48.40265036 ], [ 18.99187415, 48.40234702 ], [ 18.99260789, 48.40192273 ], [ 18.99290781, 48.40166072 ], [ 18.99322223, 48.40134785 ], [ 18.99341904, 48.40114383 ], [ 18.99366935, 48.40091627 ], [ 18.99400079, 48.40073587 ], [ 18.99457091, 48.40047056 ], [ 18.9949281, 48.40029598 ], [ 18.99543691, 48.39986835 ], [ 18.99572659, 48.39957487 ], [ 18.99577118, 48.39956406 ], [ 18.99654542, 48.39959731 ], [ 18.9965754, 48.39959216 ], [ 18.99681509, 48.39955141 ], [ 18.99708393, 48.399436 ], [ 18.99764474, 48.39906025 ], [ 18.99835536, 48.39853671 ], [ 18.99916185, 48.39826968 ], [ 18.99994128, 48.39791839 ], [ 19.00007662, 48.39777283 ], [ 19.00019749, 48.39761887 ], [ 19.00030083, 48.39736724 ], [ 19.00029788, 48.39712834 ], [ 19.00030566, 48.39669894 ], [ 19.00047067, 48.396298 ], [ 19.00051392, 48.39605071 ], [ 19.00080791, 48.39556208 ], [ 19.00100163, 48.39534318 ], [ 19.00122621, 48.39513388 ], [ 19.00147063, 48.39499838 ], [ 19.00207564, 48.39470423 ], [ 19.00248526, 48.39378067 ], [ 19.0025356, 48.39348206 ], [ 19.00247902, 48.39296758 ], [ 19.00226528, 48.39240281 ], [ 19.00189947, 48.39206122 ], [ 19.00156783, 48.39193675 ], [ 19.00109843, 48.39178301 ], [ 19.00040777, 48.391343 ], [ 18.99964728, 48.39084595 ], [ 18.9996178, 48.39082668 ], [ 18.99956816, 48.39079421 ], [ 18.99886131, 48.39050273 ], [ 18.99823816, 48.39009086 ], [ 18.9982091, 48.39005844 ], [ 18.99818136, 48.39002753 ], [ 18.99693834, 48.38861683 ], [ 18.99624011, 48.38752679 ], [ 18.99619325, 48.38738992 ], [ 18.99618818, 48.38737505 ], [ 18.99616289, 48.38730981 ], [ 18.99617339, 48.38729032 ], [ 18.99633217, 48.38699452 ], [ 18.99625296, 48.38682443 ], [ 18.99637704, 48.38661517 ], [ 18.99650732, 48.38639549 ], [ 18.99650899, 48.38639269 ], [ 18.99654024, 48.38635756 ], [ 18.99661113, 48.38627792 ], [ 18.99676277, 48.38613762 ], [ 18.99674741, 48.38571425 ], [ 18.99674401, 48.38568603 ], [ 18.99666525, 48.38503024 ], [ 18.99665885, 48.38497742 ], [ 18.99670156, 48.38483167 ], [ 18.9966595, 48.38483007 ], [ 18.99660946, 48.38482824 ], [ 18.99670742, 48.38477469 ], [ 18.99720945, 48.38450032 ], [ 18.99752405, 48.38452128 ], [ 18.99835235, 48.38430662 ], [ 18.99860474, 48.38419579 ], [ 18.99867489, 48.38408941 ], [ 18.99922854, 48.38397884 ], [ 18.99934825, 48.38390555 ], [ 18.99970483, 48.38389103 ], [ 19.00021893, 48.38373091 ], [ 19.00040943, 48.38370398 ], [ 19.00059231, 48.38359701 ], [ 19.000684, 48.38347873 ], [ 19.00067185, 48.38334958 ], [ 19.00079135, 48.38330884 ], [ 19.00087958, 48.38337547 ], [ 19.00095777, 48.38330287 ], [ 19.00093007, 48.38321379 ], [ 19.00105803, 48.38309447 ], [ 19.0012508, 48.38307486 ], [ 19.00131636, 48.38301199 ], [ 19.00129944, 48.38294104 ], [ 19.00142588, 48.38289877 ], [ 19.00149512, 48.3827034 ], [ 19.00184242, 48.38235376 ], [ 19.00171957, 48.38212716 ], [ 19.00288864, 48.38181199 ], [ 19.00301775, 48.38167775 ], [ 19.00293155, 48.38146574 ], [ 19.0030628, 48.38132232 ], [ 19.0032975, 48.38122384 ], [ 19.00328827, 48.38120037 ], [ 19.00276707, 48.38093819 ], [ 19.00224921, 48.38067763 ], [ 19.00203479, 48.38055533 ], [ 19.00195129, 48.3805077 ], [ 19.00125435, 48.38016875 ], [ 19.0005921, 48.37990634 ], [ 18.99979361, 48.3795899 ], [ 18.99933152, 48.37906986 ], [ 18.99926829, 48.37900603 ], [ 18.99919657, 48.37893356 ], [ 18.9990502, 48.37878595 ], [ 18.99902092, 48.37876732 ], [ 18.99886621, 48.3785933 ], [ 18.99855948, 48.37847443 ], [ 18.9984988, 48.37842615 ], [ 18.99792276, 48.37796723 ], [ 18.99785937, 48.37791665 ], [ 18.99749639, 48.37761532 ], [ 18.99724474, 48.3775051 ], [ 18.9968107, 48.37743738 ], [ 18.99674766, 48.37742632 ], [ 18.99573572, 48.37724909 ], [ 18.99535598, 48.37718259 ], [ 18.9952313, 48.37714585 ], [ 18.99522913, 48.37714474 ], [ 18.99521522, 48.37713736 ], [ 18.99519044, 48.37712437 ], [ 18.99517129, 48.37711429 ], [ 18.99516606, 48.3771115 ], [ 18.99497495, 48.37718286 ], [ 18.99495133, 48.37719167 ], [ 18.99482013, 48.37724948 ], [ 18.99457447, 48.37750135 ], [ 18.99455239, 48.37752395 ], [ 18.99420719, 48.37770157 ], [ 18.99419654, 48.37770707 ], [ 18.99396775, 48.37777291 ], [ 18.99379601, 48.37784778 ], [ 18.9937454, 48.37786992 ], [ 18.99365679, 48.37785278 ], [ 18.99363384, 48.37784512 ], [ 18.99356995, 48.37782373 ], [ 18.99279127, 48.37756301 ], [ 18.99274054, 48.37754608 ], [ 18.99243778, 48.37744471 ], [ 18.99066241, 48.3769226 ], [ 18.99012199, 48.37682634 ], [ 18.98966965, 48.37678733 ], [ 18.98924102, 48.37684604 ], [ 18.98905085, 48.37686909 ], [ 18.98865095, 48.37689805 ], [ 18.98769462, 48.37679926 ], [ 18.98669195, 48.3767763 ], [ 18.98665008, 48.37677534 ], [ 18.98642392, 48.37666621 ], [ 18.98613535, 48.37656518 ], [ 18.98600468, 48.37648167 ], [ 18.98587098, 48.37639142 ], [ 18.9858694, 48.3763816 ], [ 18.985863, 48.37633951 ], [ 18.9858605, 48.3763236 ], [ 18.98585375, 48.37627978 ], [ 18.9858366, 48.37616976 ], [ 18.98571635, 48.37597782 ], [ 18.9853257, 48.37552918 ], [ 18.98512167, 48.37531934 ], [ 18.98507783, 48.37527435 ], [ 18.98483917, 48.37502893 ], [ 18.98463787, 48.37472822 ], [ 18.98434486, 48.37428185 ], [ 18.98408572, 48.37384361 ], [ 18.9838717, 48.37367016 ], [ 18.9844408, 48.37262444 ], [ 18.98430093, 48.37192583 ], [ 18.98399788, 48.37148932 ], [ 18.98392855, 48.37077663 ], [ 18.98378378, 48.37040475 ], [ 18.98331306, 48.37004194 ], [ 18.9804434, 48.369987 ], [ 18.98043409, 48.36998679 ], [ 18.98031588, 48.36998464 ], [ 18.98030237, 48.3699844 ], [ 18.98015834, 48.36998192 ], [ 18.98013594, 48.36998014 ], [ 18.9800312, 48.37021401 ], [ 18.9798791, 48.3704525 ], [ 18.97969673, 48.37073048 ], [ 18.97963256, 48.37089525 ], [ 18.97962301, 48.37107011 ], [ 18.97953445, 48.37138824 ], [ 18.97952153, 48.37143106 ], [ 18.97945752, 48.37157924 ], [ 18.97934048, 48.37179642 ], [ 18.97925219, 48.37189664 ], [ 18.97916878, 48.37200513 ], [ 18.97907546, 48.37211023 ], [ 18.97899498, 48.3721873 ], [ 18.97892458, 48.37224965 ], [ 18.97879672, 48.37233964 ], [ 18.97857933, 48.37243579 ], [ 18.97836234, 48.37250382 ], [ 18.97806242, 48.37263247 ], [ 18.97763252, 48.37282475 ], [ 18.97750252, 48.37289325 ], [ 18.97746493, 48.37291289 ], [ 18.97738466, 48.37296688 ], [ 18.97723931, 48.37306995 ], [ 18.9768807, 48.37332035 ], [ 18.9767278, 48.37341844 ], [ 18.97652256, 48.37353604 ], [ 18.97633475, 48.37365039 ], [ 18.97600389, 48.3739243 ], [ 18.97553096, 48.37420683 ], [ 18.97514858, 48.37440243 ], [ 18.97499293, 48.37453023 ], [ 18.97487518, 48.37460865 ], [ 18.97473917, 48.37474819 ], [ 18.97467557, 48.3748502 ], [ 18.97462442, 48.37495231 ], [ 18.97459765, 48.37508607 ], [ 18.97456679, 48.37531892 ], [ 18.97450334, 48.37557961 ], [ 18.97438189, 48.37589606 ], [ 18.97433234, 48.37605598 ], [ 18.97424779, 48.37623883 ], [ 18.97415357, 48.37640341 ], [ 18.97398045, 48.37669467 ], [ 18.97391623, 48.37684788 ], [ 18.97390039, 48.37690553 ], [ 18.97377867, 48.37708314 ], [ 18.9736801, 48.37721133 ], [ 18.97353142, 48.37736547 ], [ 18.97347293, 48.37746422 ], [ 18.97342483, 48.37753158 ], [ 18.9733186, 48.37766633 ], [ 18.97334079, 48.37767468 ], [ 18.97300839, 48.37801092 ], [ 18.97250216, 48.37853745 ], [ 18.97209168, 48.37895558 ], [ 18.97200354, 48.37904245 ], [ 18.97156806, 48.37930839 ], [ 18.97120278, 48.3795302 ], [ 18.97080495, 48.37971959 ], [ 18.97075123, 48.37974516 ], [ 18.97053935, 48.379846 ], [ 18.97005239, 48.38005907 ], [ 18.96956399, 48.38034809 ], [ 18.96911977, 48.38039231 ], [ 18.96876543, 48.38089863 ], [ 18.96848906, 48.38106896 ], [ 18.96807899, 48.38127152 ], [ 18.96749233, 48.38166682 ], [ 18.96680906, 48.38209083 ], [ 18.96592501, 48.38255895 ], [ 18.96567536, 48.38289671 ], [ 18.96555809, 48.38305533 ], [ 18.96554137, 48.38305113 ], [ 18.9655257, 48.38304727 ], [ 18.96550331, 48.38304071 ], [ 18.96548958, 48.38303874 ], [ 18.96429367, 48.38286788 ], [ 18.96340763, 48.38253931 ], [ 18.96314058, 48.38243842 ], [ 18.96276192, 48.38214645 ], [ 18.96248515, 48.38162752 ], [ 18.96148125, 48.38119521 ], [ 18.96065912, 48.38079665 ], [ 18.96023911, 48.38056759 ], [ 18.96001446, 48.38047959 ], [ 18.95994861, 48.38037907 ], [ 18.95963914, 48.38025517 ], [ 18.95900866, 48.37988345 ], [ 18.95888281, 48.37973376 ], [ 18.95868509, 48.37961079 ], [ 18.95842714, 48.37943368 ], [ 18.95766035, 48.37885761 ], [ 18.95667542, 48.37811404 ], [ 18.95583358, 48.3774836 ], [ 18.95520224, 48.37701078 ], [ 18.955003, 48.37684479 ], [ 18.95341594, 48.3764361 ], [ 18.95264348, 48.37689198 ], [ 18.95207685, 48.37726452 ], [ 18.9518079, 48.37779212 ], [ 18.95146783, 48.3786364 ], [ 18.95100961, 48.37934174 ], [ 18.94988966, 48.37993205 ], [ 18.94965038, 48.37989001 ], [ 18.94855642, 48.37965809 ], [ 18.94614291, 48.37996001 ], [ 18.94553494, 48.38035078 ], [ 18.94511287, 48.38062462 ], [ 18.94473317, 48.38083885 ], [ 18.94444975, 48.38130238 ], [ 18.9438352, 48.38186085 ], [ 18.94322474, 48.38260743 ], [ 18.94178684, 48.38327696 ], [ 18.94260353, 48.38542742 ], [ 18.9429359, 48.38633967 ], [ 18.94412051, 48.38692331 ], [ 18.94649355, 48.38544885 ], [ 18.94913149, 48.38463813 ], [ 18.94929244, 48.38456845 ], [ 18.94963668, 48.38441499 ], [ 18.95048955, 48.38403324 ], [ 18.95140542, 48.38351508 ], [ 18.95235227, 48.38287871 ], [ 18.953046, 48.38269716 ], [ 18.95359022, 48.3824898 ], [ 18.95360736, 48.38248329 ], [ 18.95411465, 48.38229082 ], [ 18.9547073, 48.38194197 ], [ 18.95472228, 48.38193309 ], [ 18.95584749, 48.38182117 ], [ 18.95601078, 48.38180491 ], [ 18.95681584, 48.38174134 ], [ 18.9576664, 48.38177625 ], [ 18.95896177, 48.38218554 ], [ 18.95864286, 48.38314646 ], [ 18.95771873, 48.38457782 ], [ 18.956665, 48.38508464 ], [ 18.95664478, 48.38509443 ], [ 18.95663615, 48.38510932 ], [ 18.95661015, 48.38515507 ], [ 18.95644605, 48.38531192 ], [ 18.95623859, 48.38550885 ], [ 18.95597291, 48.38590385 ], [ 18.95587681, 48.38611569 ], [ 18.95579257, 48.38636782 ], [ 18.95574132, 48.38654884 ], [ 18.95567496, 48.38676581 ], [ 18.95556608, 48.38694515 ], [ 18.95569362, 48.38727028 ], [ 18.95574815, 48.38756145 ], [ 18.95564067, 48.38780021 ], [ 18.95557527, 48.38798421 ], [ 18.95548293, 48.38821265 ], [ 18.95547637, 48.38848401 ], [ 18.95546539, 48.38872203 ], [ 18.95543597, 48.38900142 ], [ 18.95536527, 48.38918316 ], [ 18.95537403, 48.38920228 ], [ 18.95543288, 48.38992746 ], [ 18.95561628, 48.39042557 ], [ 18.95567214, 48.39044611 ], [ 18.95567672, 48.39044752 ], [ 18.95568626, 48.39045053 ], [ 18.9569559, 48.39084995 ], [ 18.95762722, 48.39232351 ], [ 18.95764474, 48.39235589 ], [ 18.95780847, 48.39265752 ], [ 18.95850633, 48.39394381 ], [ 18.95920077, 48.39486587 ], [ 18.95920229, 48.39486794 ], [ 18.95925706, 48.39494029 ], [ 18.95926389, 48.3949492 ], [ 18.95927945, 48.39497048 ], [ 18.95928333, 48.39497555 ], [ 18.96022928, 48.39622537 ], [ 18.96078152, 48.39700808 ], [ 18.96114323, 48.39753226 ], [ 18.96122154, 48.3982633 ], [ 18.96171469, 48.39975197 ], [ 18.96171692, 48.39975849 ], [ 18.96176069, 48.39988394 ], [ 18.96169973, 48.39996733 ], [ 18.96169457, 48.39997446 ], [ 18.9616812, 48.39999172 ], [ 18.96167721, 48.39999693 ], [ 18.96167021, 48.40000596 ], [ 18.96163368, 48.4000537 ], [ 18.96162763, 48.40006151 ], [ 18.96161671, 48.40007628 ], [ 18.96161191, 48.40008271 ], [ 18.96160583, 48.40009079 ], [ 18.96096207, 48.40092442 ], [ 18.96027107, 48.40189138 ], [ 18.96048967, 48.4021757 ], [ 18.96050289, 48.40238276 ], [ 18.96064077, 48.40265401 ], [ 18.96127567, 48.40304992 ], [ 18.96179097, 48.40316397 ], [ 18.96318611, 48.40345561 ], [ 18.9637168, 48.4034704 ], [ 18.96393248, 48.40352905 ], [ 18.9640716, 48.40353969 ], [ 18.96475657, 48.40358166 ], [ 18.96498644, 48.40363229 ], [ 18.9652191, 48.40368117 ], [ 18.96570709, 48.40410256 ], [ 18.96675337, 48.40435368 ], [ 18.96695155, 48.40441252 ], [ 18.96717808, 48.4044241 ], [ 18.96740381, 48.40441795 ], [ 18.96821274, 48.4045458 ], [ 18.96827578, 48.40452783 ], [ 18.96915748, 48.40429939 ], [ 18.96954255, 48.40420487 ], [ 18.97019924, 48.40409031 ], [ 18.97020534, 48.40408909 ], [ 18.97022645, 48.40408458 ], [ 18.97038683, 48.40425513 ], [ 18.97051853, 48.40434782 ], [ 18.97067004, 48.40445785 ], [ 18.97081145, 48.40456384 ], [ 18.97099335, 48.40463474 ], [ 18.97131301, 48.40468814 ], [ 18.97158049, 48.40477938 ], [ 18.97181188, 48.40483341 ], [ 18.97199053, 48.40486896 ], [ 18.97216413, 48.40490254 ], [ 18.97256508, 48.40502883 ], [ 18.97274037, 48.40509244 ], [ 18.97311056, 48.40525052 ], [ 18.9732309, 48.40528661 ], [ 18.97341123, 48.40530646 ], [ 18.97379387, 48.40527305 ], [ 18.9745428, 48.40528802 ], [ 18.97507821, 48.40578782 ], [ 18.97520387, 48.40589309 ], [ 18.975297, 48.40602665 ], [ 18.97538705, 48.40623411 ], [ 18.97543861, 48.40628518 ], [ 18.97585182, 48.40646863 ], [ 18.97593742, 48.40653118 ], [ 18.97601919, 48.4066941 ], [ 18.97642405, 48.40708423 ], [ 18.97649713, 48.4071391 ], [ 18.97659868, 48.40729257 ], [ 18.97664354, 48.40743241 ], [ 18.97671358, 48.40746774 ], [ 18.97678039, 48.40753113 ], [ 18.97724018, 48.4075573 ], [ 18.97736476, 48.40760253 ], [ 18.97753004, 48.40777675 ], [ 18.9776075, 48.40802416 ], [ 18.9776844, 48.40818241 ], [ 18.97779441, 48.40867673 ], [ 18.97800289, 48.40894885 ], [ 18.97813671, 48.40912336 ], [ 18.97821389, 48.40925791 ], [ 18.97883003, 48.40981864 ], [ 18.97899983, 48.409969 ], [ 18.97909374, 48.41037257 ], [ 18.97964843, 48.41043261 ], [ 18.9801878, 48.41025716 ], [ 18.98065966, 48.41014557 ], [ 18.98129764, 48.41010224 ], [ 18.98185682, 48.41011848 ], [ 18.98213509, 48.41020104 ], [ 18.98253988, 48.41041226 ], [ 18.98299416, 48.4108811 ], [ 18.9833934, 48.41113948 ], [ 18.98352891, 48.41113575 ], [ 18.9842785, 48.41113516 ], [ 18.98432612, 48.41113578 ], [ 18.98525237, 48.41129438 ], [ 18.98482114, 48.41048343 ] ] ] ] } }
]
}
