{
"type": "FeatureCollection",
"name": "gis",
"crs": { "type": "name", "properties": { "name": "urn:ogc:def:crs:OGC:1.3:CRS84" } },
"features": [
{ "type": "Feature", "properties": { "@featureType": "CadastralParcel", "areaValue": { "value": 65881, "@uom": "m2" }, "beginLifespanVersion": { "@nilReason": "http://inspire.ec.europa.eu/codelist/VoidReasonValue/Unpopulated", "@nil": "true" }, "endLifespanVersion": { "@nilReason": "http://inspire.ec.europa.eu/codelist/VoidReasonValue/Unpopulated", "@nil": "true" }, "inspireId": { "@dataType": "Identifier", "localId": "874604_6083/49.C", "namespace": "SK.ESKN.CP", "versionId": "20260703T05:07:50" }, "label": "6083/49", "nationalCadastralReference": "874604_6083/49.C", "referencePoint": { "type": "Point", "coordinates": [ 18.72142233, 49.23080322 ] }, "validFrom": "2026-06-30T16:00:00Z", "validTo": { "@nilReason": "http://inspire.ec.europa.eu/codelist/VoidReasonValue/Unpopulated", "@nil": "true" }, "administrativeUnit": { "@href": "#auAdmUnitS.2962" } }, "geometry": { "type": "Polygon", "coordinates": [ [ [ 18.72870279, 49.23114935 ], [ 18.72184997, 49.2302239 ], [ 18.72126562, 49.23021618 ], [ 18.71813612, 49.23041783 ], [ 18.71781467, 49.23045456 ], [ 18.71670669, 49.23069496 ], [ 18.71670322, 49.23091147 ], [ 18.71704596, 49.2312865 ], [ 18.71749542, 49.23121914 ], [ 18.71750373, 49.23124466 ], [ 18.71753085, 49.23132817 ], [ 18.71826531, 49.23124057 ], [ 18.71900643, 49.23118182 ], [ 18.71973186, 49.23113875 ], [ 18.71990748, 49.23113208 ], [ 18.7200834, 49.2311331 ], [ 18.72342092, 49.23122483 ], [ 18.72350115, 49.23122209 ], [ 18.72413399, 49.23124 ], [ 18.72594843, 49.23128975 ], [ 18.72595248, 49.23122727 ], [ 18.72841943, 49.231295 ], [ 18.72871463, 49.23129503 ], [ 18.72892027, 49.23129181 ], [ 18.72905717, 49.23128635 ], [ 18.72918014, 49.23127989 ], [ 18.72920353, 49.23127561 ], [ 18.72965626, 49.23125799 ], [ 18.72965964, 49.23120656 ], [ 18.72885871, 49.23118332 ], [ 18.72870279, 49.23114935 ] ] ] } },
{ "type": "Feature", "properties": { "@featureType": "CadastralParcel", "areaValue": { "value": 381268, "@uom": "m2" }, "beginLifespanVersion": { "@nilReason": "http://inspire.ec.europa.eu/codelist/VoidReasonValue/Unpopulated", "@nil": "true" }, "endLifespanVersion": { "@nilReason": "http://inspire.ec.europa.eu/codelist/VoidReasonValue/Unpopulated", "@nil": "true" }, "inspireId": { "@dataType": "Identifier", "localId": "874604_6083/1.C", "namespace": "SK.ESKN.CP", "versionId": "20260703T05:07:50" }, "label": "6083/1", "nationalCadastralReference": "874604_6083/1.C", "referencePoint": { "type": "Point", "coordinates": [ 18.71952503, 49.23165628 ] }, "validFrom": "2026-06-30T16:00:00Z", "validTo": { "@nilReason": "http://inspire.ec.europa.eu/codelist/VoidReasonValue/Unpopulated", "@nil": "true" }, "administrativeUnit": { "@href": "#auAdmUnitS.2962" } }, "geometry": { "type": "Polygon", "coordinates": [ [ [ 18.73009312, 49.23209861 ], [ 18.73012906, 49.2320276 ], [ 18.73026375, 49.23203465 ], [ 18.73007586, 49.23269625 ], [ 18.7300864, 49.2327871 ], [ 18.73013113, 49.23282579 ], [ 18.73019218, 49.23287869 ], [ 18.73024339, 49.23292296 ], [ 18.73023861, 49.23290124 ], [ 18.73023274, 49.23287477 ], [ 18.73019995, 49.23272583 ], [ 18.73024481, 49.23257266 ], [ 18.73027836, 49.23246138 ], [ 18.73030968, 49.23235712 ], [ 18.73033096, 49.23228651 ], [ 18.7303474, 49.23223198 ], [ 18.73035714, 49.23219957 ], [ 18.73036778, 49.23215863 ], [ 18.73039481, 49.23205567 ], [ 18.73040747, 49.23200717 ], [ 18.73052302, 49.23156478 ], [ 18.73052869, 49.23154315 ], [ 18.73070661, 49.23155824 ], [ 18.73072835, 49.23152681 ], [ 18.73105903, 49.23158381 ], [ 18.73127901, 49.23162563 ], [ 18.73155531, 49.23169475 ], [ 18.73191751, 49.23179814 ], [ 18.73219728, 49.23189757 ], [ 18.73250712, 49.23203954 ], [ 18.73292382, 49.23229254 ], [ 18.73315698, 49.23247379 ], [ 18.73331298, 49.23262574 ], [ 18.73346159, 49.23276937 ], [ 18.73363954, 49.23300231 ], [ 18.73384811, 49.23333103 ], [ 18.73395446, 49.2335411 ], [ 18.73396367, 49.23355935 ], [ 18.73405139, 49.23373245 ], [ 18.73402903, 49.23355095 ], [ 18.73402665, 49.23353089 ], [ 18.734002, 49.23333087 ], [ 18.73396438, 49.23306323 ], [ 18.73381227, 49.23289173 ], [ 18.73352333, 49.23260202 ], [ 18.73326077, 49.2323569 ], [ 18.73299614, 49.23215479 ], [ 18.73251545, 49.23188995 ], [ 18.73206585, 49.23171244 ], [ 18.73195259, 49.23167657 ], [ 18.73143645, 49.23150938 ], [ 18.73099403, 49.23141424 ], [ 18.73100872, 49.23137965 ], [ 18.73130974, 49.23139855 ], [ 18.73198088, 49.23138595 ], [ 18.73212312, 49.23137057 ], [ 18.73241013, 49.23133939 ], [ 18.73274707, 49.23128963 ], [ 18.73332194, 49.23114695 ], [ 18.73357905, 49.23106622 ], [ 18.73361343, 49.23105539 ], [ 18.7337348, 49.2310078 ], [ 18.73402962, 49.23089223 ], [ 18.73442323, 49.2306872 ], [ 18.73478159, 49.23046057 ], [ 18.73487339, 49.2304025 ], [ 18.7350244, 49.23029249 ], [ 18.73522051, 49.23014939 ], [ 18.73524557, 49.23016522 ], [ 18.73545014, 49.23002383 ], [ 18.73564815, 49.22989328 ], [ 18.73568416, 49.22993575 ], [ 18.73591574, 49.22977276 ], [ 18.7366756, 49.22941061 ], [ 18.73726555, 49.22920267 ], [ 18.73779835, 49.22905894 ], [ 18.73823404, 49.22895262 ], [ 18.73897551, 49.22876937 ], [ 18.73981403, 49.22856394 ], [ 18.74031625, 49.22844053 ], [ 18.74024267, 49.22831752 ], [ 18.74023051, 49.22832004 ], [ 18.74014913, 49.22834023 ], [ 18.73961243, 49.22846744 ], [ 18.73892281, 49.22859594 ], [ 18.73852771, 49.22866424 ], [ 18.73853044, 49.22867124 ], [ 18.7378937, 49.22884616 ], [ 18.73740301, 49.22897323 ], [ 18.73654823, 49.22917626 ], [ 18.73647248, 49.22919431 ], [ 18.73630427, 49.22922954 ], [ 18.73624723, 49.22924207 ], [ 18.73619444, 49.22925366 ], [ 18.73620665, 49.22926422 ], [ 18.73609642, 49.22931538 ], [ 18.73603712, 49.22934538 ], [ 18.73600982, 49.22936705 ], [ 18.73576257, 49.22950946 ], [ 18.73556163, 49.22962561 ], [ 18.73544645, 49.22969248 ], [ 18.73528157, 49.22978633 ], [ 18.73520085, 49.22982929 ], [ 18.73485261, 49.23004526 ], [ 18.73467708, 49.23015408 ], [ 18.73467146, 49.23015387 ], [ 18.73465259, 49.2301629 ], [ 18.73463665, 49.23015242 ], [ 18.73453216, 49.2302174 ], [ 18.73452026, 49.23022463 ], [ 18.73451206, 49.23023205 ], [ 18.73449546, 49.23024165 ], [ 18.73415387, 49.23046293 ], [ 18.73413653, 49.23047411 ], [ 18.73412567, 49.23047841 ], [ 18.73410116, 49.23049418 ], [ 18.73403453, 49.23053787 ], [ 18.7338144, 49.23058202 ], [ 18.73354018, 49.23063488 ], [ 18.73335874, 49.23066788 ], [ 18.73319771, 49.23069726 ], [ 18.73317819, 49.23060314 ], [ 18.73310177, 49.23061538 ], [ 18.73300213, 49.23063155 ], [ 18.73298878, 49.23063373 ], [ 18.7330216, 49.23073053 ], [ 18.73294353, 49.23074269 ], [ 18.73273863, 49.23077491 ], [ 18.73264496, 49.23078958 ], [ 18.73150887, 49.23096875 ], [ 18.73099107, 49.23105009 ], [ 18.73098737, 49.23104087 ], [ 18.73091168, 49.23085397 ], [ 18.73066979, 49.23089354 ], [ 18.73060956, 49.23090284 ], [ 18.73060764, 49.23090616 ], [ 18.73057289, 49.23113682 ], [ 18.73036255, 49.23114692 ], [ 18.73029783, 49.23114227 ], [ 18.73030591, 49.23110309 ], [ 18.73017656, 49.23110426 ], [ 18.7300391, 49.23108723 ], [ 18.7299793, 49.23105009 ], [ 18.72959834, 49.23099551 ], [ 18.72955649, 49.2310009 ], [ 18.7295517, 49.23100065 ], [ 18.72949828, 49.2309937 ], [ 18.72927599, 49.23096628 ], [ 18.72922985, 49.23095945 ], [ 18.72916121, 49.23096659 ], [ 18.72915406, 49.23098561 ], [ 18.72906899, 49.23097385 ], [ 18.72905382, 49.23097179 ], [ 18.7290459, 49.23098247 ], [ 18.72900016, 49.23097692 ], [ 18.72900139, 49.23096454 ], [ 18.72896278, 49.23095927 ], [ 18.72895975, 49.23096714 ], [ 18.72892024, 49.23096128 ], [ 18.72892078, 49.23095346 ], [ 18.728833, 49.23094138 ], [ 18.72883169, 49.23094871 ], [ 18.72879778, 49.23094441 ], [ 18.72879831, 49.23093668 ], [ 18.72879833, 49.2309365 ], [ 18.7287116, 49.23092474 ], [ 18.72870915, 49.23093246 ], [ 18.72867724, 49.23092862 ], [ 18.72867774, 49.23092008 ], [ 18.72859388, 49.23090856 ], [ 18.72859234, 49.23091435 ], [ 18.72855744, 49.23091026 ], [ 18.72855827, 49.23090688 ], [ 18.72854538, 49.23090521 ], [ 18.7285398, 49.23090808 ], [ 18.72846451, 49.23089746 ], [ 18.72846532, 49.23089083 ], [ 18.72839211, 49.23088005 ], [ 18.72830954, 49.23085002 ], [ 18.72839428, 49.23057561 ], [ 18.72745312, 49.23047907 ], [ 18.72742343, 49.230579 ], [ 18.72690471, 49.23050872 ], [ 18.72688468, 49.23050578 ], [ 18.72623661, 49.23041979 ], [ 18.72625511, 49.23034723 ], [ 18.72610724, 49.23034102 ], [ 18.72612198, 49.2302597 ], [ 18.72491651, 49.23011005 ], [ 18.72489099, 49.23019045 ], [ 18.72474913, 49.23017111 ], [ 18.72458288, 49.23014842 ], [ 18.72447652, 49.23013392 ], [ 18.72388282, 49.23005284 ], [ 18.72391234, 49.22995993 ], [ 18.72326307, 49.22986917 ], [ 18.72273773, 49.22979907 ], [ 18.72229573, 49.22975597 ], [ 18.72229371, 49.22976912 ], [ 18.72227569, 49.22984215 ], [ 18.72160093, 49.22977287 ], [ 18.72161918, 49.22969904 ], [ 18.72162058, 49.22968757 ], [ 18.72104511, 49.2296298 ], [ 18.71924999, 49.2294675 ], [ 18.71908842, 49.22944829 ], [ 18.71903163, 49.2296233 ], [ 18.71896105, 49.22964179 ], [ 18.71895213, 49.22967082 ], [ 18.71886137, 49.22965939 ], [ 18.71886518, 49.22964515 ], [ 18.71750238, 49.2295082 ], [ 18.71755902, 49.22936944 ], [ 18.71773612, 49.22932695 ], [ 18.7174725, 49.2293493 ], [ 18.71723295, 49.22938545 ], [ 18.71723204, 49.22939514 ], [ 18.71745713, 49.22940064 ], [ 18.71745483, 49.22943858 ], [ 18.71742598, 49.22943797 ], [ 18.71742349, 49.22948538 ], [ 18.71722972, 49.22948172 ], [ 18.71722828, 49.22950131 ], [ 18.71718964, 49.22950081 ], [ 18.71719055, 49.22950916 ], [ 18.7171107, 49.22950876 ], [ 18.7169143, 49.2295018 ], [ 18.71690298, 49.22943553 ], [ 18.71646249, 49.22951301 ], [ 18.71594852, 49.22960567 ], [ 18.71506997, 49.22984221 ], [ 18.71477879, 49.22996361 ], [ 18.71471391, 49.22999178 ], [ 18.71449754, 49.23009851 ], [ 18.71332643, 49.23070282 ], [ 18.71251436, 49.23113877 ], [ 18.71178718, 49.23151125 ], [ 18.71179102, 49.23151587 ], [ 18.71177771, 49.23152329 ], [ 18.71177149, 49.23151899 ], [ 18.71118243, 49.23182312 ], [ 18.71080943, 49.23201183 ], [ 18.70987907, 49.2324864 ], [ 18.7092355, 49.23281354 ], [ 18.70914146, 49.2328593 ], [ 18.70903713, 49.23333565 ], [ 18.70891933, 49.23388255 ], [ 18.70891789, 49.23388978 ], [ 18.70887861, 49.23406436 ], [ 18.70887699, 49.23406968 ], [ 18.70885586, 49.23417475 ], [ 18.70885353, 49.23418257 ], [ 18.70882936, 49.23435514 ], [ 18.70882855, 49.23436177 ], [ 18.70877934, 49.23459491 ], [ 18.70877235, 49.23462838 ], [ 18.70869713, 49.234985 ], [ 18.70873451, 49.23499139 ], [ 18.708764, 49.23499582 ], [ 18.70910179, 49.23490702 ], [ 18.70946862, 49.23492529 ], [ 18.71166436, 49.23467142 ], [ 18.71274597, 49.23443689 ], [ 18.71326499, 49.23439692 ], [ 18.7144189, 49.23370078 ], [ 18.71514925, 49.23357283 ], [ 18.71596282, 49.23338268 ], [ 18.71614945, 49.23334357 ], [ 18.7164044, 49.23329091 ], [ 18.71649534, 49.23327159 ], [ 18.71697085, 49.23315355 ], [ 18.71711272, 49.23311877 ], [ 18.71722814, 49.23308964 ], [ 18.71764513, 49.23301417 ], [ 18.71920344, 49.23272222 ], [ 18.71967838, 49.23264816 ], [ 18.72011984, 49.23258317 ], [ 18.72051272, 49.23253809 ], [ 18.72157339, 49.23249445 ], [ 18.72167583, 49.23248809 ], [ 18.72188206, 49.23247445 ], [ 18.72187785, 49.23244806 ], [ 18.72193268, 49.23244462 ], [ 18.72192999, 49.23242716 ], [ 18.72191927, 49.23235597 ], [ 18.72191287, 49.23235644 ], [ 18.72191008, 49.2323387 ], [ 18.72191661, 49.23233823 ], [ 18.72191178, 49.23230902 ], [ 18.72189928, 49.23230981 ], [ 18.721899, 49.23230646 ], [ 18.72187075, 49.23230435 ], [ 18.72185588, 49.23229861 ], [ 18.72183653, 49.23228 ], [ 18.72183528, 49.23219324 ], [ 18.72189306, 49.23209127 ], [ 18.7219484, 49.23205889 ], [ 18.72192209, 49.23187168 ], [ 18.72330536, 49.23178413 ], [ 18.72361373, 49.2317338 ], [ 18.72405216, 49.23168902 ], [ 18.72426179, 49.23167231 ], [ 18.72450806, 49.2316613 ], [ 18.72465571, 49.2316592 ], [ 18.72496125, 49.23164111 ], [ 18.72501505, 49.23168786 ], [ 18.72526182, 49.231684 ], [ 18.72665616, 49.23167593 ], [ 18.72673571, 49.23169786 ], [ 18.72673667, 49.23179724 ], [ 18.72673546, 49.23188278 ], [ 18.72706071, 49.23190514 ], [ 18.72784359, 49.23208207 ], [ 18.72783833, 49.23209352 ], [ 18.72848146, 49.2319742 ], [ 18.72909882, 49.23199145 ], [ 18.72916755, 49.232048 ], [ 18.72983882, 49.23258984 ], [ 18.73009312, 49.23209861 ], [ 18.730075, 49.23209585 ], [ 18.73000031, 49.23208482 ], [ 18.73001782, 49.23202935 ], [ 18.73009305, 49.23204051 ], [ 18.73011254, 49.23204333 ], [ 18.73009312, 49.23209861 ] ], [ [ 18.71901831, 49.22968385 ], [ 18.71898432, 49.22968018 ], [ 18.71898968, 49.22965322 ], [ 18.7190268, 49.22965832 ], [ 18.71901831, 49.22968385 ] ], [ [ 18.73092304, 49.23091211 ], [ 18.73095349, 49.23099562 ], [ 18.73091019, 49.23100282 ], [ 18.73088035, 49.23091998 ], [ 18.73092304, 49.23091211 ] ], [ [ 18.7280569, 49.23079484 ], [ 18.72789391, 49.23077476 ], [ 18.72791111, 49.23070494 ], [ 18.72807668, 49.23072533 ], [ 18.72815891, 49.2307355 ], [ 18.72818049, 49.23073817 ], [ 18.72817438, 49.23076229 ], [ 18.72815284, 49.23076044 ], [ 18.72814114, 49.23080548 ], [ 18.7280569, 49.23079484 ] ], [ [ 18.71693543, 49.22981342 ], [ 18.71696265, 49.22989161 ], [ 18.7166344, 49.22993664 ], [ 18.71660827, 49.22985742 ], [ 18.71693543, 49.22981342 ] ], [ [ 18.71925792, 49.22969227 ], [ 18.71906402, 49.22966821 ], [ 18.71908048, 49.22961134 ], [ 18.71908472, 49.22961156 ], [ 18.7190955, 49.22957974 ], [ 18.71907892, 49.22957788 ], [ 18.71908603, 49.22955353 ], [ 18.71910425, 49.22955548 ], [ 18.7191143, 49.22952849 ], [ 18.71918906, 49.22953891 ], [ 18.71919516, 49.22952055 ], [ 18.71920237, 49.22952129 ], [ 18.71920387, 49.22951695 ], [ 18.71923992, 49.2295229 ], [ 18.71923285, 49.22954463 ], [ 18.71929156, 49.22955231 ], [ 18.71926763, 49.22963315 ], [ 18.71927315, 49.22963533 ], [ 18.71925792, 49.22969227 ] ], [ [ 18.71603698, 49.23011802 ], [ 18.71603461, 49.23010581 ], [ 18.7158696, 49.23012151 ], [ 18.71570276, 49.23013748 ], [ 18.71543029, 49.23016342 ], [ 18.71539141, 49.23016706 ], [ 18.71537183, 49.23000058 ], [ 18.71560743, 49.22997984 ], [ 18.71559421, 49.2299021 ], [ 18.71599055, 49.22987589 ], [ 18.71599136, 49.22987269 ], [ 18.71625244, 49.22985653 ], [ 18.71626743, 49.22993219 ], [ 18.71611951, 49.22994662 ], [ 18.71613608, 49.23002516 ], [ 18.71614529, 49.23006471 ], [ 18.71613505, 49.23006624 ], [ 18.71608007, 49.23011487 ], [ 18.71603698, 49.23011802 ] ], [ [ 18.7299319, 49.23152329 ], [ 18.73044076, 49.23153675 ], [ 18.73028043, 49.23198942 ], [ 18.72958979, 49.23171693 ], [ 18.72938748, 49.23166917 ], [ 18.72904085, 49.23162099 ], [ 18.72840169, 49.23159844 ], [ 18.72839568, 49.23155284 ], [ 18.72868067, 49.23153493 ], [ 18.72921259, 49.23149601 ], [ 18.72944543, 49.2314889 ], [ 18.72978772, 49.23151953 ], [ 18.72989207, 49.23152229 ], [ 18.7299319, 49.23152329 ] ], [ [ 18.71381968, 49.23122 ], [ 18.71438397, 49.23110689 ], [ 18.71485168, 49.2314534 ], [ 18.71295763, 49.23221183 ], [ 18.71228666, 49.23248054 ], [ 18.71224374, 49.23240576 ], [ 18.71206631, 49.23209622 ], [ 18.71238497, 49.23185052 ], [ 18.71271064, 49.23165336 ], [ 18.7130415, 49.23149598 ], [ 18.71342983, 49.23133495 ], [ 18.71381968, 49.23122 ] ], [ [ 18.72126562, 49.23021618 ], [ 18.72184997, 49.2302239 ], [ 18.72870279, 49.23114935 ], [ 18.72885871, 49.23118332 ], [ 18.72965964, 49.23120656 ], [ 18.72965626, 49.23125799 ], [ 18.72920353, 49.23127561 ], [ 18.72918014, 49.23127989 ], [ 18.72905717, 49.23128635 ], [ 18.72892027, 49.23129181 ], [ 18.72871463, 49.23129503 ], [ 18.72841943, 49.231295 ], [ 18.72595248, 49.23122727 ], [ 18.72594843, 49.23128975 ], [ 18.72413399, 49.23124 ], [ 18.72350115, 49.23122209 ], [ 18.72342092, 49.23122483 ], [ 18.7200834, 49.2311331 ], [ 18.71990748, 49.23113208 ], [ 18.71973186, 49.23113875 ], [ 18.71900643, 49.23118182 ], [ 18.71826531, 49.23124057 ], [ 18.71753085, 49.23132817 ], [ 18.71750373, 49.23124466 ], [ 18.71749542, 49.23121914 ], [ 18.71704596, 49.2312865 ], [ 18.71670322, 49.23091147 ], [ 18.71670669, 49.23069496 ], [ 18.71781467, 49.23045456 ], [ 18.71761434, 49.23047743 ], [ 18.71760026, 49.23044386 ], [ 18.71707717, 49.23054687 ], [ 18.71672532, 49.23060573 ], [ 18.71671167, 49.23060808 ], [ 18.71594476, 49.23073916 ], [ 18.71561409, 49.23075438 ], [ 18.71567532, 49.23064682 ], [ 18.71594456, 49.23054366 ], [ 18.71620528, 49.23036158 ], [ 18.71656325, 49.23031459 ], [ 18.71700438, 49.23025663 ], [ 18.71718898, 49.23023285 ], [ 18.71886743, 49.23013611 ], [ 18.71936258, 49.2300881 ], [ 18.71992236, 49.23010301 ], [ 18.72084437, 49.23017011 ], [ 18.72083737, 49.23021052 ], [ 18.72014387, 49.23025734 ], [ 18.71929179, 49.23031677 ], [ 18.71855396, 49.2303701 ], [ 18.71813612, 49.23041783 ], [ 18.72126562, 49.23021618 ] ] ] } },
{ "type": "Feature", "properties": { "@featureType": "CadastralParcel", "areaValue": { "value": 3950, "@uom": "m2" }, "beginLifespanVersion": { "@nilReason": "http://inspire.ec.europa.eu/codelist/VoidReasonValue/Unpopulated", "@nil": "true" }, "endLifespanVersion": { "@nilReason": "http://inspire.ec.europa.eu/codelist/VoidReasonValue/Unpopulated", "@nil": "true" }, "inspireId": { "@dataType": "Identifier", "localId": "874604_6083/45.C", "namespace": "SK.ESKN.CP", "versionId": "20260703T05:07:50" }, "label": "6083/45", "nationalCadastralReference": "874604_6083/45.C", "referencePoint": { "type": "Point", "coordinates": [ 18.72289065, 49.23201277 ] }, "validFrom": "2026-06-30T16:00:00Z", "validTo": { "@nilReason": "http://inspire.ec.europa.eu/codelist/VoidReasonValue/Unpopulated", "@nil": "true" }, "administrativeUnit": { "@href": "#auAdmUnitS.2962" } }, "geometry": { "type": "Polygon", "coordinates": [ [ [ 18.72349787, 49.23225492 ], [ 18.72348018, 49.23219906 ], [ 18.72344471, 49.23208678 ], [ 18.72330536, 49.23178413 ], [ 18.72192209, 49.23187168 ], [ 18.7219484, 49.23205889 ], [ 18.72200122, 49.23202792 ], [ 18.72214754, 49.23199274 ], [ 18.72233691, 49.23199761 ], [ 18.72247207, 49.23205828 ], [ 18.72255428, 49.23212736 ], [ 18.72263115, 49.23220734 ], [ 18.72272441, 49.232266 ], [ 18.72285137, 49.23226417 ], [ 18.72326562, 49.23225827 ], [ 18.72349787, 49.23225492 ] ] ] } },
{ "type": "Feature", "properties": { "@featureType": "CadastralParcel", "areaValue": { "value": 4825, "@uom": "m2" }, "beginLifespanVersion": { "@nilReason": "http://inspire.ec.europa.eu/codelist/VoidReasonValue/Unpopulated", "@nil": "true" }, "endLifespanVersion": { "@nilReason": "http://inspire.ec.europa.eu/codelist/VoidReasonValue/Unpopulated", "@nil": "true" }, "inspireId": { "@dataType": "Identifier", "localId": "874604_6083/1.E", "namespace": "SK.ESKN.CP", "versionId": "20260703T05:07:50" }, "label": "6083/1", "nationalCadastralReference": "874604_6083/1.E", "referencePoint": { "type": "Point", "coordinates": [ 18.70927469, 49.23512571 ] }, "validFrom": "2026-06-30T16:00:00Z", "validTo": { "@nilReason": "http://inspire.ec.europa.eu/codelist/VoidReasonValue/Unpopulated", "@nil": "true" }, "administrativeUnit": { "@href": "#auAdmUnitS.2962" } }, "geometry": { "type": "Polygon", "coordinates": [ [ [ 18.71095029, 49.23475401 ], [ 18.70946862, 49.23492529 ], [ 18.70910179, 49.23490702 ], [ 18.708764, 49.23499582 ], [ 18.70873451, 49.23499139 ], [ 18.7086627, 49.23557787 ], [ 18.7094403, 49.2352556 ], [ 18.71095029, 49.23475401 ] ] ] } }
]
}
