{
"type": "FeatureCollection",
"name": "gis",
"crs": { "type": "name", "properties": { "name": "urn:ogc:def:crs:OGC:1.3:CRS84" } },
"features": [
{ "type": "Feature", "properties": { "@featureType": "CadastralParcel", "areaValue": { "value": 610, "@uom": "m2" }, "beginLifespanVersion": { "@nilReason": "http://inspire.ec.europa.eu/codelist/VoidReasonValue/Unpopulated", "@nil": "true" }, "endLifespanVersion": { "@nilReason": "http://inspire.ec.europa.eu/codelist/VoidReasonValue/Unpopulated", "@nil": "true" }, "inspireId": { "@dataType": "Identifier", "localId": "842320_499/7.C", "namespace": "SK.ESKN.CP", "versionId": "20260703T07:07:09" }, "label": "499/7", "nationalCadastralReference": "842320_499/7.C", "referencePoint": { "type": "Point", "coordinates": [ 18.16141833, 47.9905341 ] }, "validFrom": "2026-06-30T16:00:00Z", "validTo": { "@nilReason": "http://inspire.ec.europa.eu/codelist/VoidReasonValue/Unpopulated", "@nil": "true" }, "administrativeUnit": { "@href": "#auAdmUnitS.657" } }, "geometry": { "type": "Polygon", "coordinates": [ [ [ 18.16208877, 47.99044752 ], [ 18.16210453, 47.99043183 ], [ 18.16131923, 47.99012522 ], [ 18.16132246, 47.99016035 ], [ 18.16139349, 47.99018392 ], [ 18.16139448, 47.99037781 ], [ 18.1613431, 47.99037886 ], [ 18.16136606, 47.99062495 ], [ 18.16142133, 47.99062088 ], [ 18.16142405, 47.99062068 ], [ 18.16145429, 47.99086458 ], [ 18.16151839, 47.99086084 ], [ 18.16144095, 47.99021713 ], [ 18.16148109, 47.99020938 ], [ 18.16208877, 47.99044752 ] ] ] } },
{ "type": "Feature", "properties": { "@featureType": "CadastralParcel", "areaValue": { "value": 15016, "@uom": "m2" }, "beginLifespanVersion": { "@nilReason": "http://inspire.ec.europa.eu/codelist/VoidReasonValue/Unpopulated", "@nil": "true" }, "endLifespanVersion": { "@nilReason": "http://inspire.ec.europa.eu/codelist/VoidReasonValue/Unpopulated", "@nil": "true" }, "inspireId": { "@dataType": "Identifier", "localId": "842320_521/1.C", "namespace": "SK.ESKN.CP", "versionId": "20260703T07:07:09" }, "label": "521/1", "nationalCadastralReference": "842320_521/1.C", "referencePoint": { "type": "Point", "coordinates": [ 18.15946773, 47.99073342 ] }, "validFrom": "2026-06-30T16:00:00Z", "validTo": { "@nilReason": "http://inspire.ec.europa.eu/codelist/VoidReasonValue/Unpopulated", "@nil": "true" }, "administrativeUnit": { "@href": "#auAdmUnitS.657" } }, "geometry": { "type": "Polygon", "coordinates": [ [ [ 18.16076834, 47.99151983 ], [ 18.16081454, 47.99151207 ], [ 18.16072659, 47.99128166 ], [ 18.16054625, 47.9913136 ], [ 18.16052302, 47.99117493 ], [ 18.160505, 47.991051 ], [ 18.16049404, 47.99105153 ], [ 18.1604961, 47.99107494 ], [ 18.16042283, 47.99107886 ], [ 18.1604205, 47.99105543 ], [ 18.16037676, 47.99105774 ], [ 18.16037278, 47.99102428 ], [ 18.16036875, 47.99099218 ], [ 18.16036473, 47.99095908 ], [ 18.16039656, 47.99095734 ], [ 18.16038353, 47.99083533 ], [ 18.16038034, 47.99080617 ], [ 18.16039646, 47.99080522 ], [ 18.16039083, 47.99077518 ], [ 18.16038532, 47.99074516 ], [ 18.16045778, 47.99074129 ], [ 18.16045133, 47.9906565 ], [ 18.16044452, 47.99060554 ], [ 18.16044044, 47.99059456 ], [ 18.16048126, 47.99045973 ], [ 18.16049357, 47.99041893 ], [ 18.16072073, 47.99040743 ], [ 18.160861, 47.99040022 ], [ 18.16116886, 47.99038461 ], [ 18.16123899, 47.99038105 ], [ 18.1613431, 47.99037886 ], [ 18.16139448, 47.99037781 ], [ 18.16139349, 47.99018392 ], [ 18.16132246, 47.99016035 ], [ 18.16122656, 47.99012845 ], [ 18.16094849, 47.99003612 ], [ 18.16089538, 47.99001847 ], [ 18.16089427, 47.99001046 ], [ 18.16088823, 47.98996695 ], [ 18.1607459, 47.98997557 ], [ 18.16074814, 47.98999864 ], [ 18.1607501, 47.99001771 ], [ 18.16075152, 47.9900326 ], [ 18.16071355, 47.99001439 ], [ 18.16068191, 47.98999917 ], [ 18.16061065, 47.98996493 ], [ 18.16059825, 47.98995896 ], [ 18.16058288, 47.98995301 ], [ 18.16032175, 47.98985147 ], [ 18.16025293, 47.98983055 ], [ 18.16025009, 47.98982966 ], [ 18.16018805, 47.98982169 ], [ 18.15999348, 47.98979664 ], [ 18.15998608, 47.98979566 ], [ 18.15980852, 47.9898042 ], [ 18.15978106, 47.98992726 ], [ 18.15974445, 47.98990173 ], [ 18.15972817, 47.98989039 ], [ 18.1590967, 47.99017996 ], [ 18.15905193, 47.99020044 ], [ 18.15892051, 47.99028021 ], [ 18.15886331, 47.99039511 ], [ 18.158792, 47.99040772 ], [ 18.15872496, 47.99042067 ], [ 18.15851384, 47.99045964 ], [ 18.15852704, 47.99048741 ], [ 18.15853025, 47.99049582 ], [ 18.1588601, 47.99043627 ], [ 18.15885049, 47.99057302 ], [ 18.15883834, 47.99074582 ], [ 18.15888648, 47.99086258 ], [ 18.15890735, 47.99091301 ], [ 18.15888522, 47.99091667 ], [ 18.1587783, 47.99093423 ], [ 18.158708, 47.9909515 ], [ 18.15872365, 47.99099241 ], [ 18.15877139, 47.99111736 ], [ 18.15877383, 47.99112337 ], [ 18.1587963, 47.99117804 ], [ 18.15880085, 47.9911896 ], [ 18.15903928, 47.99114744 ], [ 18.15919828, 47.9911193 ], [ 18.15924893, 47.99111036 ], [ 18.15931862, 47.99128887 ], [ 18.15933081, 47.99132019 ], [ 18.15935651, 47.99138615 ], [ 18.15947025, 47.99136584 ], [ 18.15973705, 47.99139603 ], [ 18.15985864, 47.99167788 ], [ 18.16076834, 47.99151983 ] ], [ [ 18.15986997, 47.9914607 ], [ 18.15987623, 47.99143336 ], [ 18.15990702, 47.99143652 ], [ 18.15991351, 47.99140837 ], [ 18.16024681, 47.99144219 ], [ 18.16023355, 47.99149856 ], [ 18.15990062, 47.99146395 ], [ 18.15986997, 47.9914607 ] ], [ [ 18.1594826, 47.99127926 ], [ 18.1595077, 47.99117023 ], [ 18.16015022, 47.99123891 ], [ 18.16012445, 47.99134591 ], [ 18.16006978, 47.99134026 ], [ 18.15955133, 47.99128646 ], [ 18.1594826, 47.99127926 ] ], [ [ 18.160378, 47.99119278 ], [ 18.16050917, 47.99118522 ], [ 18.16052033, 47.9912803 ], [ 18.16038993, 47.99128809 ], [ 18.160378, 47.99119278 ] ], [ [ 18.16042538, 47.99110573 ], [ 18.16049852, 47.99110181 ], [ 18.16050058, 47.99112522 ], [ 18.16042759, 47.99112906 ], [ 18.16042538, 47.99110573 ] ], [ [ 18.15952303, 47.99105459 ], [ 18.15956787, 47.99105929 ], [ 18.15955658, 47.99110675 ], [ 18.15951176, 47.99110186 ], [ 18.15952303, 47.99105459 ] ], [ [ 18.15966379, 47.99105292 ], [ 18.15953566, 47.99103917 ], [ 18.15956029, 47.99092235 ], [ 18.15963866, 47.99092984 ], [ 18.15968678, 47.99072556 ], [ 18.15966303, 47.99072309 ], [ 18.15966812, 47.99070154 ], [ 18.15969187, 47.99070401 ], [ 18.15973932, 47.99050187 ], [ 18.15965997, 47.99049459 ], [ 18.15957812, 47.99048699 ], [ 18.15959614, 47.99041059 ], [ 18.15936068, 47.99038558 ], [ 18.15935737, 47.9903852 ], [ 18.15936598, 47.99034174 ], [ 18.15934167, 47.9903395 ], [ 18.15929023, 47.99055577 ], [ 18.15926395, 47.99055314 ], [ 18.15924635, 47.99063246 ], [ 18.15927264, 47.99063508 ], [ 18.15918637, 47.99101867 ], [ 18.15916262, 47.99101619 ], [ 18.15898947, 47.99099808 ], [ 18.15895178, 47.99099416 ], [ 18.15903751, 47.99062201 ], [ 18.15897483, 47.99061481 ], [ 18.1589955, 47.9905243 ], [ 18.15905836, 47.99053106 ], [ 18.15913307, 47.99020222 ], [ 18.1593686, 47.99022562 ], [ 18.15935452, 47.99028519 ], [ 18.15937683, 47.9902874 ], [ 18.15938852, 47.9902276 ], [ 18.15964529, 47.99025314 ], [ 18.15963188, 47.99031067 ], [ 18.15970038, 47.99031857 ], [ 18.15977408, 47.98999636 ], [ 18.15994388, 47.99001337 ], [ 18.15992857, 47.9900689 ], [ 18.16011894, 47.99008801 ], [ 18.16012285, 47.99007037 ], [ 18.16013148, 47.99007123 ], [ 18.16020038, 47.99007817 ], [ 18.16020901, 47.99007903 ], [ 18.16020509, 47.99009668 ], [ 18.16029471, 47.99010564 ], [ 18.16032163, 47.989996 ], [ 18.16049426, 47.99001389 ], [ 18.16047141, 47.99012224 ], [ 18.16053543, 47.99012843 ], [ 18.16051102, 47.99024355 ], [ 18.16044553, 47.99023736 ], [ 18.16039165, 47.99044969 ], [ 18.16021816, 47.99043111 ], [ 18.16021908, 47.99042719 ], [ 18.16026738, 47.99021634 ], [ 18.15994095, 47.99018148 ], [ 18.1598934, 47.99039165 ], [ 18.15987135, 47.99048867 ], [ 18.15986668, 47.99050907 ], [ 18.16017424, 47.9905422 ], [ 18.16022173, 47.99054724 ], [ 18.16029017, 47.9905546 ], [ 18.16034017, 47.99055997 ], [ 18.16032041, 47.9906508 ], [ 18.16031508, 47.99067215 ], [ 18.16024003, 47.99100575 ], [ 18.16023203, 47.99104139 ], [ 18.16021712, 47.99110732 ], [ 18.1600996, 47.99109573 ], [ 18.159861, 47.99107216 ], [ 18.15984474, 47.99113088 ], [ 18.15964941, 47.99111066 ], [ 18.15966379, 47.99105292 ] ] ] } }
]
}
