{
"type": "FeatureCollection",
"name": "gis",
"crs": { "type": "name", "properties": { "name": "urn:ogc:def:crs:OGC:1.3:CRS84" } },
"features": [
{ "type": "Feature", "properties": { "@featureType": "CadastralZoning", "beginLifespanVersion": { "@nilReason": "http://inspire.ec.europa.eu/codelist/VoidReasonValue/Unpopulated", "@nil": "true" }, "endLifespanVersion": { "@nilReason": "http://inspire.ec.europa.eu/codelist/VoidReasonValue/Unpopulated", "@nil": "true" }, "estimatedAccuracy": { "value": -1, "@uom": "m" }, "inspireId": { "@dataType": "Identifier", "localId": "820121", "namespace": "SK.ESKN.CP", "versionId": "20260703T04:07:40" }, "label": "Humenné", "level": { "@href": "http://inspire.ec.europa.eu/codelist/CadastralZoningLevelValue/3rdOrder" }, "levelName": { "value": "Katastrálne územie", "@locale": "sk" }, "name": { "@dataType": "name", "GeographicalName": { "@dataType": "GeographicalName", "language": "SLK", "nativeness": { "@href": "http://inspire.ec.europa.eu/codelist/NativenessValue/endonym", "@title": "endonym" }, "nameStatus": { "@href": "http://inspire.ec.europa.eu/codelist/NameStatusValue/official", "@title": "official" }, "sourceOfName": { "@nilReason": "http://inspire.ec.europa.eu/codelist/VoidReasonValue/Unpopulated", "@nil": "true" }, "pronunciation": { "@dataType": "pronunciation", "@nilReason": "http://inspire.ec.europa.eu/codelist/VoidReasonValue/Unpopulated", "@nil": "true" }, "spelling": { "@dataType": "SpellingOfName", "text": "Humenné", "script": "LATN" } } }, "nationalCadastalZoningReference": "820121", "validFrom": "2026-06-30T16:00:00Z", "validTo": { "@nilReason": "http://inspire.ec.europa.eu/codelist/VoidReasonValue/Unpopulated", "@nil": "true" } }, "geometry": { "type": "MultiPolygon", "coordinates": [ [ [ [ 21.90929716, 48.97979763 ], [ 21.91004742, 48.97977912 ], [ 21.91074901, 48.97974428 ], [ 21.91135447, 48.97966238 ], [ 21.91169238, 48.97961353 ], [ 21.91220309, 48.97953654 ], [ 21.91289577, 48.97958919 ], [ 21.91325066, 48.97967225 ], [ 21.91333107, 48.9796955 ], [ 21.91438092, 48.97959333 ], [ 21.91444821, 48.97963542 ], [ 21.91464597, 48.97955849 ], [ 21.91476083, 48.9795629 ], [ 21.91484663, 48.97956613 ], [ 21.91505807, 48.97951284 ], [ 21.91536505, 48.97951883 ], [ 21.91571532, 48.97947848 ], [ 21.91579128, 48.97941559 ], [ 21.91616116, 48.97940722 ], [ 21.91653206, 48.97923698 ], [ 21.91674692, 48.97925901 ], [ 21.91695994, 48.97919713 ], [ 21.91720283, 48.97925955 ], [ 21.91768996, 48.97916439 ], [ 21.91783393, 48.97907198 ], [ 21.9180273, 48.97903551 ], [ 21.91821227, 48.97891236 ], [ 21.91841129, 48.97882069 ], [ 21.91839509, 48.97859234 ], [ 21.91846591, 48.97858512 ], [ 21.91856085, 48.97867407 ], [ 21.91865401, 48.9787061 ], [ 21.91874456, 48.97868389 ], [ 21.91895521, 48.97858252 ], [ 21.91916463, 48.97878637 ], [ 21.91923918, 48.97885906 ], [ 21.9193863, 48.97876168 ], [ 21.91964446, 48.9787371 ], [ 21.91977552, 48.97881606 ], [ 21.9198036, 48.97881505 ], [ 21.91982873, 48.97874216 ], [ 21.92026949, 48.97869938 ], [ 21.92058855, 48.97845116 ], [ 21.9206355, 48.9783034 ], [ 21.92086564, 48.97828576 ], [ 21.92102324, 48.97825299 ], [ 21.9209819, 48.97815216 ], [ 21.92148597, 48.97800486 ], [ 21.92173378, 48.97786824 ], [ 21.92223579, 48.97777065 ], [ 21.92338921, 48.97740308 ], [ 21.92394827, 48.97704621 ], [ 21.92417448, 48.97703261 ], [ 21.92444998, 48.97690154 ], [ 21.92453176, 48.97673989 ], [ 21.92507923, 48.97655541 ], [ 21.92525239, 48.97656802 ], [ 21.92535313, 48.97646632 ], [ 21.92543805, 48.97650606 ], [ 21.92611021, 48.97683367 ], [ 21.92672582, 48.97715591 ], [ 21.92673901, 48.97710251 ], [ 21.92671951, 48.97709456 ], [ 21.92713423, 48.97687229 ], [ 21.92744853, 48.97660855 ], [ 21.92759603, 48.97655877 ], [ 21.92794083, 48.976551 ], [ 21.92821979, 48.97644755 ], [ 21.92870184, 48.97599109 ], [ 21.92906913, 48.97568034 ], [ 21.92925657, 48.97555183 ], [ 21.92948991, 48.97511725 ], [ 21.92974551, 48.97481136 ], [ 21.93007833, 48.97453412 ], [ 21.93027418, 48.97439952 ], [ 21.93058624, 48.97411241 ], [ 21.93093414, 48.97387937 ], [ 21.93100024, 48.97346689 ], [ 21.93138559, 48.97304374 ], [ 21.93188908, 48.97223244 ], [ 21.93197163, 48.97209474 ], [ 21.9320312, 48.97194073 ], [ 21.93232533, 48.97138733 ], [ 21.93281687, 48.97098779 ], [ 21.93294239, 48.9708967 ], [ 21.93321898, 48.97062678 ], [ 21.93366719, 48.97045536 ], [ 21.93387017, 48.97032219 ], [ 21.93440876, 48.96944831 ], [ 21.93446168, 48.96912675 ], [ 21.93444149, 48.96898802 ], [ 21.93439376, 48.96873387 ], [ 21.93453856, 48.96843089 ], [ 21.93484764, 48.96815881 ], [ 21.93490709, 48.96808281 ], [ 21.93492889, 48.96808641 ], [ 21.93497533, 48.96808937 ], [ 21.93497047, 48.96800501 ], [ 21.93495104, 48.96782932 ], [ 21.93486245, 48.9677392 ], [ 21.93469695, 48.96761278 ], [ 21.93448463, 48.96746153 ], [ 21.93425622, 48.96730727 ], [ 21.93407029, 48.96722956 ], [ 21.93360947, 48.96715257 ], [ 21.93359226, 48.96637931 ], [ 21.93354932, 48.96445094 ], [ 21.93349845, 48.96436823 ], [ 21.93284332, 48.96330425 ], [ 21.93234221, 48.9624904 ], [ 21.93214696, 48.96200229 ], [ 21.93205399, 48.96176996 ], [ 21.93205956, 48.96070327 ], [ 21.93252085, 48.95810606 ], [ 21.93271561, 48.95742312 ], [ 21.93320439, 48.95644614 ], [ 21.93411655, 48.95509688 ], [ 21.93437022, 48.95481038 ], [ 21.93440096, 48.95449177 ], [ 21.93444199, 48.95406516 ], [ 21.93465859, 48.95360567 ], [ 21.93499232, 48.95289802 ], [ 21.93556856, 48.9516266 ], [ 21.93565367, 48.95143875 ], [ 21.93593575, 48.95076159 ], [ 21.93602596, 48.95018025 ], [ 21.93621082, 48.94965427 ], [ 21.93756782, 48.94649162 ], [ 21.93769956, 48.94605044 ], [ 21.93798442, 48.94509508 ], [ 21.93840223, 48.94369849 ], [ 21.93941295, 48.94337826 ], [ 21.93958159, 48.94332486 ], [ 21.93971179, 48.94326024 ], [ 21.93987294, 48.94318029 ], [ 21.94001144, 48.94311156 ], [ 21.94010607, 48.9430646 ], [ 21.94037323, 48.94293203 ], [ 21.94048108, 48.94287847 ], [ 21.9415999, 48.94232324 ], [ 21.94200105, 48.94212417 ], [ 21.94252016, 48.94186656 ], [ 21.94240545, 48.9417919 ], [ 21.94233578, 48.94174652 ], [ 21.94210215, 48.94159439 ], [ 21.94185615, 48.9413984 ], [ 21.94176169, 48.94132316 ], [ 21.94133631, 48.94105351 ], [ 21.94128808, 48.94101775 ], [ 21.94117525, 48.94093423 ], [ 21.94098417, 48.94076434 ], [ 21.94077582, 48.94057891 ], [ 21.94073518, 48.94054911 ], [ 21.94062441, 48.94046779 ], [ 21.94043962, 48.94040515 ], [ 21.94043694, 48.94040428 ], [ 21.94012472, 48.9403364 ], [ 21.94004444, 48.94031901 ], [ 21.93969133, 48.94024247 ], [ 21.93937736, 48.94017436 ], [ 21.93905111, 48.94010361 ], [ 21.9390718, 48.93983326 ], [ 21.93909508, 48.93952715 ], [ 21.93919022, 48.93827983 ], [ 21.93919117, 48.93819895 ], [ 21.93933691, 48.93820393 ], [ 21.93948593, 48.93826127 ], [ 21.93974522, 48.93836095 ], [ 21.93979774, 48.93836685 ], [ 21.94015417, 48.93840667 ], [ 21.94015747, 48.93837759 ], [ 21.94018392, 48.93814248 ], [ 21.94019339, 48.93805839 ], [ 21.940225, 48.9377785 ], [ 21.94025036, 48.9375529 ], [ 21.94026922, 48.9373859 ], [ 21.9403869, 48.93634044 ], [ 21.94003632, 48.93550768 ], [ 21.93976009, 48.93528907 ], [ 21.93968522, 48.93522979 ], [ 21.93959963, 48.93516215 ], [ 21.93872368, 48.93446876 ], [ 21.93852769, 48.93431369 ], [ 21.9378832, 48.93379568 ], [ 21.93688815, 48.93299591 ], [ 21.9366718, 48.93282206 ], [ 21.93689461, 48.93215475 ], [ 21.93726599, 48.9312425 ], [ 21.93738026, 48.9310003 ], [ 21.9374084, 48.9309408 ], [ 21.93749842, 48.93074992 ], [ 21.93750929, 48.93073435 ], [ 21.93756378, 48.9306558 ], [ 21.93757629, 48.93063775 ], [ 21.93697828, 48.93042929 ], [ 21.93686635, 48.93039024 ], [ 21.93682095, 48.93037444 ], [ 21.93687351, 48.93019622 ], [ 21.93690947, 48.93007419 ], [ 21.93691694, 48.93004873 ], [ 21.93692447, 48.92953408 ], [ 21.93730508, 48.9287511 ], [ 21.93755549, 48.9283378 ], [ 21.93785514, 48.92786121 ], [ 21.93813459, 48.9272916 ], [ 21.93822582, 48.92712469 ], [ 21.93840126, 48.9268041 ], [ 21.93843763, 48.92670556 ], [ 21.93847919, 48.92659294 ], [ 21.93860079, 48.92626309 ], [ 21.93863264, 48.92617687 ], [ 21.93866187, 48.92604585 ], [ 21.93874555, 48.92558421 ], [ 21.93887521, 48.92529479 ], [ 21.93908447, 48.92499151 ], [ 21.93903307, 48.92497565 ], [ 21.93900583, 48.92496724 ], [ 21.93895887, 48.92495275 ], [ 21.93923314, 48.92462049 ], [ 21.93973334, 48.92425642 ], [ 21.93980695, 48.92419202 ], [ 21.94010026, 48.92393493 ], [ 21.94032072, 48.92370509 ], [ 21.94032883, 48.92365651 ], [ 21.94034316, 48.92357093 ], [ 21.94028483, 48.92330419 ], [ 21.94068783, 48.92286525 ], [ 21.94105175, 48.92277486 ], [ 21.94128613, 48.92261412 ], [ 21.94167741, 48.92237962 ], [ 21.9420558, 48.92200999 ], [ 21.9423235, 48.92190173 ], [ 21.94284214, 48.921842 ], [ 21.94369761, 48.92156116 ], [ 21.94394662, 48.92154305 ], [ 21.94413778, 48.92140022 ], [ 21.94429114, 48.92107539 ], [ 21.94443106, 48.92075382 ], [ 21.94471456, 48.9207057 ], [ 21.94508782, 48.9204396 ], [ 21.94599257, 48.92020137 ], [ 21.94607246, 48.92011984 ], [ 21.94623144, 48.92003092 ], [ 21.94662125, 48.91991695 ], [ 21.94692097, 48.91979516 ], [ 21.94719419, 48.91973562 ], [ 21.94746083, 48.91960969 ], [ 21.9475814, 48.91943045 ], [ 21.94772026, 48.91932303 ], [ 21.94790869, 48.91880207 ], [ 21.9479427, 48.9185558 ], [ 21.94810155, 48.91820824 ], [ 21.94812107, 48.91799095 ], [ 21.94803511, 48.91738517 ], [ 21.94814179, 48.91693741 ], [ 21.94801123, 48.91663685 ], [ 21.94818829, 48.91650113 ], [ 21.94865571, 48.91630422 ], [ 21.94891636, 48.91617759 ], [ 21.94988325, 48.91621957 ], [ 21.95053212, 48.91600591 ], [ 21.95086018, 48.91585584 ], [ 21.9514484, 48.91554925 ], [ 21.9519081, 48.91504941 ], [ 21.95220886, 48.91480093 ], [ 21.95234804, 48.91460847 ], [ 21.95107194, 48.9147364 ], [ 21.94993159, 48.91485373 ], [ 21.94891275, 48.91489235 ], [ 21.94805412, 48.91472679 ], [ 21.94732629, 48.91462818 ], [ 21.94710992, 48.91459888 ], [ 21.94705898, 48.91459194 ], [ 21.94689545, 48.91462226 ], [ 21.94669453, 48.91465957 ], [ 21.94648449, 48.91469854 ], [ 21.9462706, 48.91473822 ], [ 21.9460625, 48.91477679 ], [ 21.94585453, 48.91481545 ], [ 21.94574441, 48.91483584 ], [ 21.94564718, 48.9148409 ], [ 21.94542999, 48.91485224 ], [ 21.94521403, 48.91486343 ], [ 21.94500355, 48.9148744 ], [ 21.94479019, 48.91488548 ], [ 21.94457615, 48.91489663 ], [ 21.94435595, 48.91490808 ], [ 21.9441126, 48.91492075 ], [ 21.94369096, 48.91494267 ], [ 21.94337393, 48.91495917 ], [ 21.94265745, 48.91483895 ], [ 21.94197638, 48.91464861 ], [ 21.94194749, 48.91464051 ], [ 21.94171528, 48.91459469 ], [ 21.94143985, 48.91454041 ], [ 21.94121317, 48.91449572 ], [ 21.94098109, 48.91444999 ], [ 21.94077857, 48.91441003 ], [ 21.94075985, 48.91440327 ], [ 21.94055949, 48.91433043 ], [ 21.94042828, 48.9142828 ], [ 21.94039102, 48.91427054 ], [ 21.94024603, 48.91422283 ], [ 21.94011899, 48.91418097 ], [ 21.93997547, 48.91413367 ], [ 21.93992455, 48.91411692 ], [ 21.93985214, 48.91408668 ], [ 21.93972681, 48.91403425 ], [ 21.93959067, 48.91397732 ], [ 21.93945266, 48.91391962 ], [ 21.93940639, 48.91390029 ], [ 21.93921372, 48.91381972 ], [ 21.93918758, 48.91380881 ], [ 21.93915425, 48.91379484 ], [ 21.93904331, 48.91374852 ], [ 21.93891797, 48.91369609 ], [ 21.93877424, 48.913636 ], [ 21.93863797, 48.91357897 ], [ 21.93847983, 48.91351285 ], [ 21.93835836, 48.91346204 ], [ 21.93832076, 48.91344634 ], [ 21.9382973, 48.91343649 ], [ 21.93823356, 48.91340989 ], [ 21.93814156, 48.91337142 ], [ 21.9379985, 48.91334716 ], [ 21.93785842, 48.91332333 ], [ 21.93769345, 48.91329538 ], [ 21.93761317, 48.9133669 ], [ 21.93753059, 48.91344034 ], [ 21.93656631, 48.91337763 ], [ 21.936524, 48.91337495 ], [ 21.93647082, 48.91337147 ], [ 21.93637914, 48.91336549 ], [ 21.93632866, 48.91327433 ], [ 21.9359672, 48.91324211 ], [ 21.9318163, 48.91287249 ], [ 21.93172126, 48.91262561 ], [ 21.93172946, 48.91259468 ], [ 21.93177212, 48.9124343 ], [ 21.9316495, 48.91241081 ], [ 21.93125127, 48.91230107 ], [ 21.93116453, 48.91216401 ], [ 21.93113149, 48.91211171 ], [ 21.93067345, 48.91194522 ], [ 21.93042646, 48.91188839 ], [ 21.93004924, 48.91174335 ], [ 21.93001663, 48.91174766 ], [ 21.92992803, 48.91175949 ], [ 21.9299184, 48.91176078 ], [ 21.92685505, 48.91216785 ], [ 21.92660092, 48.9122019 ], [ 21.92609317, 48.91227056 ], [ 21.92497007, 48.91239887 ], [ 21.92463385, 48.91246902 ], [ 21.92433981, 48.91259143 ], [ 21.92399769, 48.91428587 ], [ 21.92403509, 48.91440937 ], [ 21.92415029, 48.9145521 ], [ 21.92448055, 48.9143415 ], [ 21.92483895, 48.91471854 ], [ 21.92468733, 48.91508479 ], [ 21.92431333, 48.91537681 ], [ 21.92394001, 48.91576838 ], [ 21.92286875, 48.91585325 ], [ 21.92199404, 48.91571184 ], [ 21.92075556, 48.91575092 ], [ 21.91982803, 48.91606605 ], [ 21.919395, 48.91585875 ], [ 21.91867986, 48.91564248 ], [ 21.91779635, 48.91579338 ], [ 21.91720689, 48.91603489 ], [ 21.91674574, 48.91622959 ], [ 21.91630924, 48.91626939 ], [ 21.91520679, 48.91683693 ], [ 21.9149183, 48.91696648 ], [ 21.91457302, 48.91712411 ], [ 21.91446087, 48.91717223 ], [ 21.91441046, 48.91719392 ], [ 21.91434605, 48.91722155 ], [ 21.91420702, 48.91728114 ], [ 21.91411839, 48.91731923 ], [ 21.91406616, 48.91734159 ], [ 21.91400931, 48.91736608 ], [ 21.91397907, 48.917379 ], [ 21.91396128, 48.91738674 ], [ 21.91390287, 48.91741227 ], [ 21.91387668, 48.91742367 ], [ 21.91384572, 48.9174372 ], [ 21.91378997, 48.91746145 ], [ 21.9137317, 48.9174869 ], [ 21.91358966, 48.91754884 ], [ 21.913551, 48.91756569 ], [ 21.91345883, 48.91760585 ], [ 21.91336946, 48.91764482 ], [ 21.91328024, 48.91768371 ], [ 21.91324746, 48.917698 ], [ 21.9132151, 48.91771213 ], [ 21.91317153, 48.91773119 ], [ 21.91312853, 48.91774991 ], [ 21.91307894, 48.91777152 ], [ 21.91302235, 48.9177962 ], [ 21.91290483, 48.91784742 ], [ 21.91278492, 48.91789976 ], [ 21.91268687, 48.91794247 ], [ 21.91266908, 48.91795021 ], [ 21.91255379, 48.91800059 ], [ 21.91252101, 48.91801489 ], [ 21.91239886, 48.91806806 ], [ 21.91239102, 48.91807156 ], [ 21.912327, 48.91809946 ], [ 21.91227545, 48.91812193 ], [ 21.91222783, 48.91814269 ], [ 21.91219855, 48.91815545 ], [ 21.91217474, 48.91816583 ], [ 21.91217376, 48.91816626 ], [ 21.91214422, 48.91817883 ], [ 21.91204945, 48.91821911 ], [ 21.91200017, 48.9182401 ], [ 21.91196755, 48.91825395 ], [ 21.91191771, 48.91827519 ], [ 21.91185696, 48.91830102 ], [ 21.9118473, 48.9183051 ], [ 21.91178066, 48.91833348 ], [ 21.91173516, 48.91835286 ], [ 21.91169708, 48.91836909 ], [ 21.91162667, 48.918399 ], [ 21.91155317, 48.91843027 ], [ 21.91153063, 48.91843987 ], [ 21.91150418, 48.91845109 ], [ 21.91149507, 48.918455 ], [ 21.91145042, 48.91847394 ], [ 21.91143825, 48.91847904 ], [ 21.91138113, 48.91850334 ], [ 21.91132541, 48.91852705 ], [ 21.9112704, 48.91855041 ], [ 21.91119256, 48.91858346 ], [ 21.91111403, 48.91861676 ], [ 21.91103619, 48.9186499 ], [ 21.91103297, 48.91865126 ], [ 21.9104964, 48.91887913 ], [ 21.90900658, 48.9191822 ], [ 21.9087964, 48.91924171 ], [ 21.90878119, 48.91921676 ], [ 21.90872546, 48.9191251 ], [ 21.90866462, 48.91902503 ], [ 21.9083239, 48.91846435 ], [ 21.90824647, 48.91837016 ], [ 21.90809775, 48.91818914 ], [ 21.90792401, 48.91797788 ], [ 21.90790908, 48.91795968 ], [ 21.90783939, 48.91784274 ], [ 21.90762422, 48.91748168 ], [ 21.90765455, 48.9172481 ], [ 21.90749362, 48.91695248 ], [ 21.90750229, 48.91686873 ], [ 21.9075052, 48.91683983 ], [ 21.90750576, 48.9168348 ], [ 21.90751365, 48.91675752 ], [ 21.907518, 48.91671551 ], [ 21.90747502, 48.91672667 ], [ 21.90730413, 48.916589 ], [ 21.90712723, 48.91663269 ], [ 21.90708678, 48.91664266 ], [ 21.90703013, 48.91665662 ], [ 21.90696294, 48.9166732 ], [ 21.90696018, 48.91667385 ], [ 21.90692541, 48.91668242 ], [ 21.906919, 48.9166846 ], [ 21.90608066, 48.91697613 ], [ 21.9047727, 48.91743077 ], [ 21.90473126, 48.91745555 ], [ 21.90468047, 48.91749063 ], [ 21.90458546, 48.91755618 ], [ 21.9043246, 48.91773616 ], [ 21.90278651, 48.91892283 ], [ 21.90274234, 48.91895681 ], [ 21.90223992, 48.91934371 ], [ 21.90222262, 48.91935704 ], [ 21.9021989, 48.91925997 ], [ 21.90191693, 48.91878221 ], [ 21.90106179, 48.91800741 ], [ 21.90086828, 48.91790669 ], [ 21.8996886, 48.91763962 ], [ 21.89883023, 48.91735131 ], [ 21.89890282, 48.9172699 ], [ 21.89888732, 48.91726636 ], [ 21.89826425, 48.91712338 ], [ 21.89824996, 48.91712014 ], [ 21.89807748, 48.9170806 ], [ 21.8980756, 48.9170801 ], [ 21.8976242, 48.91697655 ], [ 21.89745859, 48.91693862 ], [ 21.89743137, 48.91693236 ], [ 21.89664419, 48.91710857 ], [ 21.89658484, 48.91712183 ], [ 21.89625392, 48.9171959 ], [ 21.89572188, 48.91715699 ], [ 21.89568489, 48.91715435 ], [ 21.89553424, 48.91714334 ], [ 21.89549359, 48.91714034 ], [ 21.89499948, 48.91710427 ], [ 21.89487154, 48.91709492 ], [ 21.89481511, 48.91709079 ], [ 21.89455673, 48.9172134 ], [ 21.89428038, 48.91734455 ], [ 21.89371003, 48.91756736 ], [ 21.89324754, 48.91774807 ], [ 21.89257188, 48.91774862 ], [ 21.89221752, 48.91761996 ], [ 21.89155956, 48.91703528 ], [ 21.89096275, 48.91618865 ], [ 21.89073343, 48.9152993 ], [ 21.8907293, 48.91528353 ], [ 21.89072395, 48.91526288 ], [ 21.89071171, 48.91521514 ], [ 21.89064376, 48.91495181 ], [ 21.88971396, 48.91373767 ], [ 21.88893811, 48.91344589 ], [ 21.88890056, 48.9134318 ], [ 21.88886943, 48.91342012 ], [ 21.88883189, 48.91340594 ], [ 21.88877753, 48.91338521 ], [ 21.8887424, 48.91337181 ], [ 21.88866386, 48.91334193 ], [ 21.88796527, 48.91309511 ], [ 21.88750086, 48.91270744 ], [ 21.88746427, 48.91267691 ], [ 21.88737069, 48.91267319 ], [ 21.88732384, 48.91267128 ], [ 21.88706162, 48.91266076 ], [ 21.88661484, 48.91264278 ], [ 21.88621383, 48.91262668 ], [ 21.88564683, 48.91268942 ], [ 21.88557729, 48.91269711 ], [ 21.88551107, 48.91270425 ], [ 21.8853766, 48.91272028 ], [ 21.88392581, 48.91319698 ], [ 21.88321573, 48.91324538 ], [ 21.88316765, 48.91323642 ], [ 21.88166537, 48.91295567 ], [ 21.88159906, 48.91294328 ], [ 21.88140917, 48.91290777 ], [ 21.88040854, 48.91264333 ], [ 21.87923948, 48.91217734 ], [ 21.87796234, 48.91180417 ], [ 21.87703396, 48.91171955 ], [ 21.87637068, 48.91174768 ], [ 21.87590443, 48.91185731 ], [ 21.87515233, 48.91217565 ], [ 21.87444396, 48.91261443 ], [ 21.87385467, 48.91282423 ], [ 21.87355083, 48.91254778 ], [ 21.87318991, 48.91208061 ], [ 21.87310488, 48.91197054 ], [ 21.87305996, 48.91191234 ], [ 21.87290901, 48.91175065 ], [ 21.8728444, 48.91168133 ], [ 21.87279224, 48.91162555 ], [ 21.87270925, 48.9115366 ], [ 21.87270373, 48.91152827 ], [ 21.87269183, 48.91151006 ], [ 21.87206077, 48.91054608 ], [ 21.87198747, 48.91043415 ], [ 21.87176388, 48.90999099 ], [ 21.87156866, 48.90960418 ], [ 21.87140224, 48.90935029 ], [ 21.87131036, 48.90896602 ], [ 21.87128354, 48.90880425 ], [ 21.87124098, 48.90843581 ], [ 21.87123771, 48.90840765 ], [ 21.87122164, 48.90839311 ], [ 21.87111883, 48.90830004 ], [ 21.87103483, 48.90822393 ], [ 21.87096287, 48.90815892 ], [ 21.87088742, 48.90809058 ], [ 21.87080652, 48.90801742 ], [ 21.87071797, 48.90793732 ], [ 21.87061919, 48.90784787 ], [ 21.8705405, 48.90777666 ], [ 21.87051981, 48.90775939 ], [ 21.8702405, 48.90752639 ], [ 21.87008119, 48.90739346 ], [ 21.87000219, 48.90732755 ], [ 21.86981425, 48.90723834 ], [ 21.86952696, 48.90710197 ], [ 21.86947162, 48.90708409 ], [ 21.8690962, 48.90696301 ], [ 21.86879689, 48.90686638 ], [ 21.86877773, 48.90686022 ], [ 21.86848188, 48.90681622 ], [ 21.86822988, 48.90677866 ], [ 21.86803107, 48.90674911 ], [ 21.86795894, 48.90673836 ], [ 21.86787843, 48.9067121 ], [ 21.86777381, 48.90667802 ], [ 21.86767616, 48.90664619 ], [ 21.86742565, 48.90656465 ], [ 21.86679431, 48.90635911 ], [ 21.86721376, 48.90700427 ], [ 21.86773457, 48.90809056 ], [ 21.86765159, 48.90817609 ], [ 21.86670669, 48.90915047 ], [ 21.86654509, 48.90931706 ], [ 21.86639073, 48.90952533 ], [ 21.86630876, 48.90967731 ], [ 21.86590849, 48.90975816 ], [ 21.86563948, 48.90981249 ], [ 21.86469056, 48.90993657 ], [ 21.8630005, 48.91017761 ], [ 21.86278049, 48.91020897 ], [ 21.86253258, 48.91024331 ], [ 21.86217786, 48.91029229 ], [ 21.86113916, 48.91043601 ], [ 21.86107176, 48.91045373 ], [ 21.8610502, 48.91049763 ], [ 21.86051298, 48.91183336 ], [ 21.86049748, 48.91187175 ], [ 21.86047844, 48.91191905 ], [ 21.86044886, 48.91199254 ], [ 21.86043589, 48.91202497 ], [ 21.86027643, 48.91200856 ], [ 21.85967614, 48.91237649 ], [ 21.85845984, 48.91381912 ], [ 21.85811399, 48.91422928 ], [ 21.85747821, 48.91498327 ], [ 21.85749536, 48.91499118 ], [ 21.85733796, 48.91518064 ], [ 21.85718746, 48.9153619 ], [ 21.85716208, 48.91534542 ], [ 21.85687548, 48.91568825 ], [ 21.85677294, 48.91581089 ], [ 21.85680926, 48.91582487 ], [ 21.8566926, 48.91595769 ], [ 21.85761617, 48.91642383 ], [ 21.85869088, 48.91697168 ], [ 21.85970822, 48.9174924 ], [ 21.85976887, 48.91752221 ], [ 21.85986976, 48.91757357 ], [ 21.86069997, 48.91799599 ], [ 21.8606447, 48.9180951 ], [ 21.86048696, 48.91820914 ], [ 21.86037337, 48.91825528 ], [ 21.86027532, 48.91830416 ], [ 21.8600791, 48.91840839 ], [ 21.85986457, 48.91852224 ], [ 21.85974202, 48.91859974 ], [ 21.85905868, 48.91884387 ], [ 21.85923712, 48.91905075 ], [ 21.85944362, 48.91899915 ], [ 21.85949956, 48.91900931 ], [ 21.85961833, 48.9190353 ], [ 21.85973051, 48.91906193 ], [ 21.85996274, 48.91912528 ], [ 21.8603757, 48.91927335 ], [ 21.86067708, 48.91938464 ], [ 21.86070488, 48.91939489 ], [ 21.86087675, 48.91944455 ], [ 21.86181756, 48.91964256 ], [ 21.86192892, 48.91969706 ], [ 21.86220655, 48.91979433 ], [ 21.86247875, 48.91987247 ], [ 21.86264663, 48.91994353 ], [ 21.86289366, 48.92003642 ], [ 21.8630482, 48.92006259 ], [ 21.86359231, 48.92029824 ], [ 21.86374436, 48.92036917 ], [ 21.86406679, 48.92051734 ], [ 21.86422656, 48.9206754 ], [ 21.86441589, 48.92082755 ], [ 21.86450216, 48.92087934 ], [ 21.86475741, 48.92106234 ], [ 21.86505662, 48.92123421 ], [ 21.86511462, 48.92131138 ], [ 21.86526173, 48.9216059 ], [ 21.86550219, 48.92204311 ], [ 21.8654903, 48.92225699 ], [ 21.86526371, 48.92251777 ], [ 21.86536896, 48.92266958 ], [ 21.8655587, 48.92274066 ], [ 21.8657845, 48.92284181 ], [ 21.8659723, 48.92296459 ], [ 21.86577652, 48.92351674 ], [ 21.86575944, 48.92367262 ], [ 21.86581591, 48.92397122 ], [ 21.86577664, 48.92416767 ], [ 21.86573143, 48.92431428 ], [ 21.86562067, 48.92456056 ], [ 21.86548668, 48.9248606 ], [ 21.8651477, 48.9255835 ], [ 21.86503761, 48.92581837 ], [ 21.86492142, 48.92606882 ], [ 21.86485733, 48.92621577 ], [ 21.86564488, 48.92637716 ], [ 21.86548517, 48.92725871 ], [ 21.86547217, 48.92731723 ], [ 21.86534237, 48.92790374 ], [ 21.8651377, 48.9288088 ], [ 21.86536542, 48.92894519 ], [ 21.86550316, 48.92902763 ], [ 21.86553831, 48.9290198 ], [ 21.86559589, 48.92903242 ], [ 21.86557055, 48.92911961 ], [ 21.86549899, 48.92936581 ], [ 21.86545087, 48.92953161 ], [ 21.8651607, 48.9305342 ], [ 21.86509133, 48.93090104 ], [ 21.86504861, 48.93108399 ], [ 21.86479631, 48.93130982 ], [ 21.86486335, 48.93132413 ], [ 21.8648736, 48.93132637 ], [ 21.86490406, 48.93133327 ], [ 21.86502982, 48.93136177 ], [ 21.86565538, 48.93150354 ], [ 21.86586728, 48.9315283 ], [ 21.8660146, 48.93154555 ], [ 21.86610851, 48.93156739 ], [ 21.86774635, 48.93194826 ], [ 21.86763472, 48.93205583 ], [ 21.86792683, 48.93209631 ], [ 21.86831256, 48.9321497 ], [ 21.86920921, 48.9322738 ], [ 21.86970047, 48.93234203 ], [ 21.87002387, 48.93238689 ], [ 21.87004677, 48.93239009 ], [ 21.87008701, 48.9323957 ], [ 21.87042003, 48.93244189 ], [ 21.87049183, 48.93245191 ], [ 21.87052787, 48.93245688 ], [ 21.87054481, 48.9324592 ], [ 21.87056459, 48.93246195 ], [ 21.87016475, 48.93341469 ], [ 21.86985858, 48.93441419 ], [ 21.86984311, 48.93520816 ], [ 21.86984187, 48.93527131 ], [ 21.86934178, 48.93645331 ], [ 21.8690725, 48.93703104 ], [ 21.86903844, 48.93710397 ], [ 21.86860543, 48.93761777 ], [ 21.86853598, 48.93787698 ], [ 21.86845809, 48.9381681 ], [ 21.86848083, 48.93865321 ], [ 21.86837474, 48.93927325 ], [ 21.86820824, 48.94024732 ], [ 21.8678594, 48.94070684 ], [ 21.86784681, 48.94072335 ], [ 21.8677861, 48.94090341 ], [ 21.86777682, 48.94093107 ], [ 21.86776109, 48.94097792 ], [ 21.86773049, 48.94106866 ], [ 21.8677032, 48.9411495 ], [ 21.86779598, 48.94116302 ], [ 21.86797044, 48.94118853 ], [ 21.86837786, 48.941253 ], [ 21.86912042, 48.94137047 ], [ 21.86949237, 48.94142935 ], [ 21.86978622, 48.94147589 ], [ 21.86998696, 48.94150765 ], [ 21.87006438, 48.94151988 ], [ 21.87013896, 48.94153168 ], [ 21.87050713, 48.94158992 ], [ 21.87048967, 48.94164761 ], [ 21.8701505, 48.94276415 ], [ 21.87045867, 48.94280422 ], [ 21.87056158, 48.94281764 ], [ 21.87093632, 48.94286642 ], [ 21.87099896, 48.94287459 ], [ 21.87104085, 48.94288006 ], [ 21.87134022, 48.942919 ], [ 21.87179019, 48.94299427 ], [ 21.87181026, 48.94325297 ], [ 21.87203203, 48.94373899 ], [ 21.87202835, 48.94459356 ], [ 21.87185513, 48.94481908 ], [ 21.87190252, 48.94515236 ], [ 21.87184606, 48.9453858 ], [ 21.87172837, 48.94599458 ], [ 21.87182202, 48.94644756 ], [ 21.87194024, 48.94687551 ], [ 21.87232452, 48.94713718 ], [ 21.87268679, 48.94720121 ], [ 21.87269234, 48.94720216 ], [ 21.87288395, 48.94723601 ], [ 21.87303243, 48.94726229 ], [ 21.8731636, 48.94728552 ], [ 21.87330464, 48.94731043 ], [ 21.87451073, 48.94748177 ], [ 21.87464675, 48.94750143 ], [ 21.87468563, 48.9475071 ], [ 21.87602657, 48.9475106 ], [ 21.87801583, 48.94756745 ], [ 21.87875263, 48.94738845 ], [ 21.87938396, 48.94750563 ], [ 21.87984708, 48.94755789 ], [ 21.88272674, 48.94801226 ], [ 21.88366699, 48.94798013 ], [ 21.88580784, 48.94815066 ], [ 21.88869506, 48.94826373 ], [ 21.88935073, 48.948339 ], [ 21.88972882, 48.94837583 ], [ 21.89105629, 48.94847709 ], [ 21.89111735, 48.94847962 ], [ 21.89230042, 48.94859944 ], [ 21.89214872, 48.94882751 ], [ 21.89275376, 48.94889023 ], [ 21.89311784, 48.94884877 ], [ 21.89318427, 48.94884118 ], [ 21.89329884, 48.94882815 ], [ 21.89336831, 48.94882018 ], [ 21.89340121, 48.94882065 ], [ 21.89345581, 48.94882149 ], [ 21.89350113, 48.94882219 ], [ 21.89371709, 48.94882549 ], [ 21.89371805, 48.94882551 ], [ 21.89373866, 48.94882585 ], [ 21.89387817, 48.94882803 ], [ 21.89404457, 48.94883052 ], [ 21.89410522, 48.94883547 ], [ 21.89424042, 48.94881324 ], [ 21.89431181, 48.94880496 ], [ 21.89572586, 48.94929694 ], [ 21.89640939, 48.94953476 ], [ 21.89612387, 48.95034171 ], [ 21.89614225, 48.95080779 ], [ 21.89608945, 48.95139338 ], [ 21.89618083, 48.95182828 ], [ 21.89591907, 48.95203891 ], [ 21.8957659, 48.95314922 ], [ 21.8959162, 48.9532386 ], [ 21.89613851, 48.95350402 ], [ 21.89671, 48.95356425 ], [ 21.89677743, 48.95540205 ], [ 21.89683558, 48.95613811 ], [ 21.89674621, 48.95696243 ], [ 21.89853979, 48.95706087 ], [ 21.89864208, 48.95795256 ], [ 21.89771094, 48.95902336 ], [ 21.8990623, 48.95943793 ], [ 21.8993844, 48.95953676 ], [ 21.89891714, 48.96032671 ], [ 21.90064836, 48.96083003 ], [ 21.90081219, 48.96087762 ], [ 21.899752, 48.96144115 ], [ 21.89797902, 48.96239778 ], [ 21.89850101, 48.96282688 ], [ 21.89915905, 48.96336776 ], [ 21.90030317, 48.96377349 ], [ 21.90028968, 48.96444286 ], [ 21.89986188, 48.96514841 ], [ 21.90039312, 48.96586103 ], [ 21.90222739, 48.96550219 ], [ 21.9021732, 48.96630336 ], [ 21.90211055, 48.96721474 ], [ 21.90251307, 48.96725476 ], [ 21.90255141, 48.96860189 ], [ 21.90268459, 48.96929989 ], [ 21.90290924, 48.96987284 ], [ 21.90290971, 48.9703849 ], [ 21.90307805, 48.97083765 ], [ 21.90343232, 48.97104311 ], [ 21.90347531, 48.97142791 ], [ 21.90343823, 48.9722405 ], [ 21.90331015, 48.97265708 ], [ 21.90348546, 48.97288899 ], [ 21.90363789, 48.97299235 ], [ 21.90380966, 48.9730522 ], [ 21.90391819, 48.97312522 ], [ 21.90447136, 48.97401834 ], [ 21.90479805, 48.97484278 ], [ 21.90482087, 48.97494432 ], [ 21.90483223, 48.97532788 ], [ 21.90508026, 48.97560481 ], [ 21.90514191, 48.975659 ], [ 21.90525229, 48.97570272 ], [ 21.90540149, 48.97573716 ], [ 21.90567299, 48.97573229 ], [ 21.90600593, 48.97578755 ], [ 21.90636532, 48.97584186 ], [ 21.9066572, 48.97585801 ], [ 21.90694051, 48.97585929 ], [ 21.90724314, 48.97589758 ], [ 21.90747947, 48.97593349 ], [ 21.90778184, 48.97599985 ], [ 21.9079523, 48.97608954 ], [ 21.90813896, 48.97626539 ], [ 21.90826294, 48.97640457 ], [ 21.90821175, 48.97666506 ], [ 21.90830354, 48.97690441 ], [ 21.90836972, 48.97700551 ], [ 21.90847392, 48.9771135 ], [ 21.90852877, 48.97720262 ], [ 21.90842815, 48.97773554 ], [ 21.90848201, 48.97792416 ], [ 21.90853063, 48.97824575 ], [ 21.90866646, 48.9785958 ], [ 21.90877068, 48.97890862 ], [ 21.90898955, 48.97948168 ], [ 21.90912522, 48.97962701 ], [ 21.9092754, 48.9798122 ], [ 21.90929716, 48.97979763 ] ] ] ] } }
]
}
