{
"type": "FeatureCollection",
"name": "gis",
"crs": { "type": "name", "properties": { "name": "urn:ogc:def:crs:OGC:1.3:CRS84" } },
"features": [
{ "type": "Feature", "properties": { "@featureType": "CadastralParcel", "areaValue": { "value": 432, "@uom": "m2" }, "beginLifespanVersion": { "@nilReason": "http://inspire.ec.europa.eu/codelist/VoidReasonValue/Unpopulated", "@nil": "true" }, "endLifespanVersion": { "@nilReason": "http://inspire.ec.europa.eu/codelist/VoidReasonValue/Unpopulated", "@nil": "true" }, "inspireId": { "@dataType": "Identifier", "localId": "807818_326/3.C", "namespace": "SK.ESKN.CP", "versionId": "20260703T07:07:22" }, "label": "326/3", "nationalCadastralReference": "807818_326/3.C", "referencePoint": { "type": "Point", "coordinates": [ 17.78250376, 48.78494782 ] }, "validFrom": "2026-06-30T16:00:00Z", "validTo": { "@nilReason": "http://inspire.ec.europa.eu/codelist/VoidReasonValue/Unpopulated", "@nil": "true" }, "administrativeUnit": { "@href": "#auAdmUnitS.2529" } }, "geometry": { "type": "Polygon", "coordinates": [ [ [ 17.78218519, 48.78493308 ], [ 17.7821724, 48.7849864 ], [ 17.78235478, 48.7850436 ], [ 17.78256393, 48.78500327 ], [ 17.78277943, 48.78493317 ], [ 17.78263571, 48.78488095 ], [ 17.78258122, 48.7849412 ], [ 17.78235066, 48.7848591 ], [ 17.78226734, 48.78495445 ], [ 17.78218519, 48.78493308 ] ] ] } },
{ "type": "Feature", "properties": { "@featureType": "CadastralParcel", "areaValue": { "value": 4766, "@uom": "m2" }, "beginLifespanVersion": { "@nilReason": "http://inspire.ec.europa.eu/codelist/VoidReasonValue/Unpopulated", "@nil": "true" }, "endLifespanVersion": { "@nilReason": "http://inspire.ec.europa.eu/codelist/VoidReasonValue/Unpopulated", "@nil": "true" }, "inspireId": { "@dataType": "Identifier", "localId": "807818_43/1.C", "namespace": "SK.ESKN.CP", "versionId": "20260703T07:07:22" }, "label": "43/1", "nationalCadastralReference": "807818_43/1.C", "referencePoint": { "type": "Point", "coordinates": [ 17.77594417, 48.78656707 ] }, "validFrom": "2026-06-30T16:00:00Z", "validTo": { "@nilReason": "http://inspire.ec.europa.eu/codelist/VoidReasonValue/Unpopulated", "@nil": "true" }, "administrativeUnit": { "@href": "#auAdmUnitS.2529" } }, "geometry": { "type": "Polygon", "coordinates": [ [ [ 17.77274543, 48.78697732 ], [ 17.77275364, 48.78704357 ], [ 17.77298597, 48.78700865 ], [ 17.77325466, 48.7869513 ], [ 17.77342382, 48.78696138 ], [ 17.77356043, 48.78700189 ], [ 17.77356343, 48.78708589 ], [ 17.77356163, 48.78716408 ], [ 17.77342315, 48.78716618 ], [ 17.77295958, 48.78719508 ], [ 17.77293108, 48.78719749 ], [ 17.77277858, 48.78720116 ], [ 17.77277744, 48.78721419 ], [ 17.77277707, 48.78721778 ], [ 17.7727758, 48.7872327 ], [ 17.77314304, 48.78722996 ], [ 17.77377731, 48.78719823 ], [ 17.77380338, 48.78719657 ], [ 17.77407268, 48.78718261 ], [ 17.77433849, 48.78714874 ], [ 17.77435688, 48.78714138 ], [ 17.77442799, 48.78713823 ], [ 17.77491714, 48.78698914 ], [ 17.77523566, 48.78686285 ], [ 17.77579672, 48.78664725 ], [ 17.77592017, 48.78661388 ], [ 17.7761403, 48.78655085 ], [ 17.77629679, 48.78652158 ], [ 17.77648796, 48.78649849 ], [ 17.77647982, 48.78649122 ], [ 17.77653033, 48.78648582 ], [ 17.77654154, 48.78649265 ], [ 17.77674568, 48.78647451 ], [ 17.77663929, 48.78641924 ], [ 17.77693199, 48.78638068 ], [ 17.77742808, 48.78623851 ], [ 17.77774423, 48.78589675 ], [ 17.77761411, 48.7859895 ], [ 17.77757058, 48.78602215 ], [ 17.77750673, 48.78604381 ], [ 17.77741606, 48.78607349 ], [ 17.77737291, 48.78608395 ], [ 17.77732495, 48.78609456 ], [ 17.77736669, 48.78617036 ], [ 17.77732372, 48.78618245 ], [ 17.77729948, 48.78618766 ], [ 17.77732801, 48.78624061 ], [ 17.77726954, 48.786256 ], [ 17.7772277, 48.78626789 ], [ 17.77714984, 48.78628996 ], [ 17.77703322, 48.78633612 ], [ 17.77687549, 48.78635664 ], [ 17.77665874, 48.78638574 ], [ 17.77662153, 48.78639088 ], [ 17.77654472, 48.78640352 ], [ 17.77644331, 48.7864162 ], [ 17.77638379, 48.78642448 ], [ 17.77630861, 48.78643523 ], [ 17.77618406, 48.7864492 ], [ 17.7761793, 48.78645 ], [ 17.77613911, 48.78645684 ], [ 17.77607372, 48.78646802 ], [ 17.77604288, 48.78649007 ], [ 17.77601666, 48.78650653 ], [ 17.77597358, 48.78652232 ], [ 17.77574349, 48.7865833 ], [ 17.77569069, 48.78660111 ], [ 17.77563677, 48.78661335 ], [ 17.77551003, 48.78664778 ], [ 17.77540869, 48.78667455 ], [ 17.77534808, 48.78668963 ], [ 17.77532041, 48.78669688 ], [ 17.77532623, 48.78670807 ], [ 17.77534803, 48.78675149 ], [ 17.77530526, 48.78676017 ], [ 17.77527051, 48.78676725 ], [ 17.77515037, 48.78679161 ], [ 17.77514659, 48.78679228 ], [ 17.77516529, 48.7868403 ], [ 17.77500902, 48.78687771 ], [ 17.77483741, 48.78691138 ], [ 17.77469701, 48.78692916 ], [ 17.77468795, 48.78693041 ], [ 17.77469458, 48.78695042 ], [ 17.77463178, 48.78695769 ], [ 17.77456416, 48.78696619 ], [ 17.77455697, 48.78694435 ], [ 17.77435739, 48.78693187 ], [ 17.77436255, 48.78698773 ], [ 17.7741867, 48.78700976 ], [ 17.77418435, 48.78699137 ], [ 17.77418377, 48.78698384 ], [ 17.77406323, 48.78698767 ], [ 17.77406049, 48.78694866 ], [ 17.77399484, 48.78694898 ], [ 17.77392124, 48.78694845 ], [ 17.773919, 48.78690686 ], [ 17.77385336, 48.78690808 ], [ 17.77378321, 48.7869093 ], [ 17.77377786, 48.78690943 ], [ 17.77372973, 48.78691253 ], [ 17.77366102, 48.7869161 ], [ 17.77365483, 48.78687733 ], [ 17.77348548, 48.78689398 ], [ 17.77324519, 48.78692037 ], [ 17.77303478, 48.78694318 ], [ 17.77297439, 48.78694987 ], [ 17.77274543, 48.78697732 ] ] ] } },
{ "type": "Feature", "properties": { "@featureType": "CadastralParcel", "areaValue": { "value": 5795, "@uom": "m2" }, "beginLifespanVersion": { "@nilReason": "http://inspire.ec.europa.eu/codelist/VoidReasonValue/Unpopulated", "@nil": "true" }, "endLifespanVersion": { "@nilReason": "http://inspire.ec.europa.eu/codelist/VoidReasonValue/Unpopulated", "@nil": "true" }, "inspireId": { "@dataType": "Identifier", "localId": "807818_326/7.C", "namespace": "SK.ESKN.CP", "versionId": "20260703T07:07:22" }, "label": "326/7", "nationalCadastralReference": "807818_326/7.C", "referencePoint": { "type": "Point", "coordinates": [ 17.78342502, 48.78488672 ] }, "validFrom": "2026-06-30T16:00:00Z", "validTo": { "@nilReason": "http://inspire.ec.europa.eu/codelist/VoidReasonValue/Unpopulated", "@nil": "true" }, "administrativeUnit": { "@href": "#auAdmUnitS.2529" } }, "geometry": { "type": "Polygon", "coordinates": [ [ [ 17.78412894, 48.78465271 ], [ 17.7840004, 48.78472551 ], [ 17.78368214, 48.78450629 ], [ 17.78358211, 48.78443877 ], [ 17.78341824, 48.78449839 ], [ 17.78323982, 48.78455649 ], [ 17.78290084, 48.78464462 ], [ 17.78260399, 48.7847345 ], [ 17.78265017, 48.78473263 ], [ 17.78287365, 48.78481944 ], [ 17.78277943, 48.78493317 ], [ 17.78256393, 48.78500327 ], [ 17.78235478, 48.7850436 ], [ 17.7821724, 48.7849864 ], [ 17.78218519, 48.78493308 ], [ 17.782234, 48.7848714 ], [ 17.7821842, 48.78490204 ], [ 17.78213575, 48.78501776 ], [ 17.78194021, 48.78508294 ], [ 17.78181256, 48.78516203 ], [ 17.78180647, 48.78524953 ], [ 17.78171345, 48.78530481 ], [ 17.78220573, 48.78513204 ], [ 17.78239749, 48.78509002 ], [ 17.78251459, 48.78507161 ], [ 17.78288361, 48.78505992 ], [ 17.78334159, 48.78509612 ], [ 17.78346438, 48.78509477 ], [ 17.78361956, 48.78508167 ], [ 17.78380533, 48.78502673 ], [ 17.78388928, 48.78498941 ], [ 17.78405627, 48.78486937 ], [ 17.78420367, 48.78471454 ], [ 17.78412894, 48.78465271 ] ] ] } },
{ "type": "Feature", "properties": { "@featureType": "CadastralParcel", "areaValue": { "value": 2370, "@uom": "m2" }, "beginLifespanVersion": { "@nilReason": "http://inspire.ec.europa.eu/codelist/VoidReasonValue/Unpopulated", "@nil": "true" }, "endLifespanVersion": { "@nilReason": "http://inspire.ec.europa.eu/codelist/VoidReasonValue/Unpopulated", "@nil": "true" }, "inspireId": { "@dataType": "Identifier", "localId": "807818_210/1.C", "namespace": "SK.ESKN.CP", "versionId": "20260703T07:07:22" }, "label": "210/1", "nationalCadastralReference": "807818_210/1.C", "referencePoint": { "type": "Point", "coordinates": [ 17.77866966, 48.78767421 ] }, "validFrom": "2026-06-30T16:00:00Z", "validTo": { "@nilReason": "http://inspire.ec.europa.eu/codelist/VoidReasonValue/Unpopulated", "@nil": "true" }, "administrativeUnit": { "@href": "#auAdmUnitS.2529" } }, "geometry": { "type": "Polygon", "coordinates": [ [ [ 17.77836038, 48.78673625 ], [ 17.7783977, 48.7867333 ], [ 17.77840974, 48.78674397 ], [ 17.77842008, 48.78678822 ], [ 17.77842532, 48.78681031 ], [ 17.77845541, 48.78691367 ], [ 17.77846972, 48.78696277 ], [ 17.7784751, 48.78698586 ], [ 17.77848587, 48.78703393 ], [ 17.77849031, 48.78703339 ], [ 17.77852732, 48.78716255 ], [ 17.77868458, 48.78714633 ], [ 17.77869566, 48.78718142 ], [ 17.77871493, 48.78724194 ], [ 17.7787584, 48.78735324 ], [ 17.77876776, 48.78738696 ], [ 17.77875409, 48.78752269 ], [ 17.77873993, 48.78763165 ], [ 17.77873821, 48.78764292 ], [ 17.77861364, 48.78763648 ], [ 17.77858362, 48.7875922 ], [ 17.77855079, 48.78759724 ], [ 17.77853711, 48.78759929 ], [ 17.77842471, 48.78761626 ], [ 17.77844348, 48.78768912 ], [ 17.77872076, 48.78770508 ], [ 17.77865328, 48.78800749 ], [ 17.77864598, 48.78802249 ], [ 17.77863315, 48.7880702 ], [ 17.77862578, 48.78809748 ], [ 17.77862004, 48.78811899 ], [ 17.7786185, 48.78814165 ], [ 17.7785777, 48.78831501 ], [ 17.77856601, 48.78836821 ], [ 17.77854415, 48.78845502 ], [ 17.7785221, 48.78854029 ], [ 17.77851111, 48.7885827 ], [ 17.77849258, 48.78867893 ], [ 17.77869263, 48.78861683 ], [ 17.7787071, 48.78852125 ], [ 17.77874557, 48.78840854 ], [ 17.77890281, 48.78765931 ], [ 17.77892832, 48.78755122 ], [ 17.778926, 48.78747801 ], [ 17.77892506, 48.7874486 ], [ 17.77888719, 48.78727486 ], [ 17.77884764, 48.78716976 ], [ 17.77878169, 48.78706484 ], [ 17.7787469, 48.7870097 ], [ 17.77860428, 48.78680219 ], [ 17.77842643, 48.78666081 ], [ 17.77841672, 48.7866697 ], [ 17.77836038, 48.78673625 ] ] ] } },
{ "type": "Feature", "properties": { "@featureType": "CadastralParcel", "areaValue": { "value": 1542, "@uom": "m2" }, "beginLifespanVersion": { "@nilReason": "http://inspire.ec.europa.eu/codelist/VoidReasonValue/Unpopulated", "@nil": "true" }, "endLifespanVersion": { "@nilReason": "http://inspire.ec.europa.eu/codelist/VoidReasonValue/Unpopulated", "@nil": "true" }, "inspireId": { "@dataType": "Identifier", "localId": "807818_81/3.C", "namespace": "SK.ESKN.CP", "versionId": "20260703T07:07:22" }, "label": "81/3", "nationalCadastralReference": "807818_81/3.C", "referencePoint": { "type": "Point", "coordinates": [ 17.77788429, 48.78586065 ] }, "validFrom": "2026-06-30T16:00:00Z", "validTo": { "@nilReason": "http://inspire.ec.europa.eu/codelist/VoidReasonValue/Unpopulated", "@nil": "true" }, "administrativeUnit": { "@href": "#auAdmUnitS.2529" } }, "geometry": { "type": "Polygon", "coordinates": [ [ [ 17.77867577, 48.78537178 ], [ 17.77874259, 48.78524888 ], [ 17.77869061, 48.78523649 ], [ 17.77861773, 48.78521912 ], [ 17.77855071, 48.78521267 ], [ 17.77842519, 48.78543369 ], [ 17.77836758, 48.78553963 ], [ 17.77832429, 48.78557058 ], [ 17.77814114, 48.7856712 ], [ 17.77804139, 48.78575108 ], [ 17.77799664, 48.78577101 ], [ 17.7778824, 48.78582454 ], [ 17.77774423, 48.78589675 ], [ 17.77742808, 48.78623851 ], [ 17.77693199, 48.78638068 ], [ 17.77663929, 48.78641924 ], [ 17.77674568, 48.78647451 ], [ 17.7769006, 48.7864633 ], [ 17.77741494, 48.78633236 ], [ 17.77743119, 48.7863227 ], [ 17.77750616, 48.78626071 ], [ 17.77767119, 48.78608258 ], [ 17.77775083, 48.78600869 ], [ 17.77779283, 48.78597911 ], [ 17.77785879, 48.78591902 ], [ 17.77847071, 48.78554882 ], [ 17.77856827, 48.78544749 ], [ 17.77856607, 48.7854115 ], [ 17.77861213, 48.7853949 ], [ 17.77867577, 48.78537178 ] ] ] } },
{ "type": "Feature", "properties": { "@featureType": "CadastralParcel", "areaValue": { "value": 1189, "@uom": "m2" }, "beginLifespanVersion": { "@nilReason": "http://inspire.ec.europa.eu/codelist/VoidReasonValue/Unpopulated", "@nil": "true" }, "endLifespanVersion": { "@nilReason": "http://inspire.ec.europa.eu/codelist/VoidReasonValue/Unpopulated", "@nil": "true" }, "inspireId": { "@dataType": "Identifier", "localId": "807818_81/1.C", "namespace": "SK.ESKN.CP", "versionId": "20260703T07:07:22" }, "label": "81/1", "nationalCadastralReference": "807818_81/1.C", "referencePoint": { "type": "Point", "coordinates": [ 17.77358573, 48.78738429 ] }, "validFrom": "2026-06-30T16:00:00Z", "validTo": { "@nilReason": "http://inspire.ec.europa.eu/codelist/VoidReasonValue/Unpopulated", "@nil": "true" }, "administrativeUnit": { "@href": "#auAdmUnitS.2529" } }, "geometry": { "type": "Polygon", "coordinates": [ [ [ 17.77278406, 48.78734447 ], [ 17.7727855, 48.78736642 ], [ 17.77278975, 48.7874346 ], [ 17.77279094, 48.78745246 ], [ 17.77287181, 48.7874342 ], [ 17.77298725, 48.78742582 ], [ 17.77303559, 48.78742227 ], [ 17.77317561, 48.78741015 ], [ 17.7733197, 48.78740217 ], [ 17.77345333, 48.78740538 ], [ 17.77353466, 48.78740828 ], [ 17.77356756, 48.78740857 ], [ 17.77386803, 48.78742686 ], [ 17.77401787, 48.78743829 ], [ 17.77439144, 48.78747721 ], [ 17.77438345, 48.78736446 ], [ 17.77428678, 48.7873618 ], [ 17.77414931, 48.78735763 ], [ 17.77402285, 48.78735297 ], [ 17.77401239, 48.78735251 ], [ 17.77347915, 48.78732549 ], [ 17.77299383, 48.78734376 ], [ 17.77287361, 48.78734526 ], [ 17.77278406, 48.78734447 ] ] ] } },
{ "type": "Feature", "properties": { "@featureType": "CadastralParcel", "areaValue": { "value": 641, "@uom": "m2" }, "beginLifespanVersion": { "@nilReason": "http://inspire.ec.europa.eu/codelist/VoidReasonValue/Unpopulated", "@nil": "true" }, "endLifespanVersion": { "@nilReason": "http://inspire.ec.europa.eu/codelist/VoidReasonValue/Unpopulated", "@nil": "true" }, "inspireId": { "@dataType": "Identifier", "localId": "807842_644.E", "namespace": "SK.ESKN.CP", "versionId": "20260703T07:07:14" }, "label": "644", "nationalCadastralReference": "807842_644.E", "referencePoint": { "type": "Point", "coordinates": [ 17.75743325, 48.77860166 ] }, "validFrom": "2026-06-30T16:00:00Z", "validTo": { "@nilReason": "http://inspire.ec.europa.eu/codelist/VoidReasonValue/Unpopulated", "@nil": "true" }, "administrativeUnit": { "@href": "#auAdmUnitS.2529" } }, "geometry": { "type": "Polygon", "coordinates": [ [ [ 17.75765905, 48.77888066 ], [ 17.75783622, 48.77905058 ], [ 17.75744072, 48.77852785 ], [ 17.75725047, 48.77830411 ], [ 17.75717512, 48.77823825 ], [ 17.7571311, 48.77826662 ], [ 17.75699966, 48.7781808 ], [ 17.75724356, 48.77843899 ], [ 17.75729522, 48.77849933 ], [ 17.75742382, 48.77867548 ], [ 17.75765905, 48.77888066 ] ] ] } },
{ "type": "Feature", "properties": { "@featureType": "CadastralParcel", "areaValue": { "value": 2628, "@uom": "m2" }, "beginLifespanVersion": { "@nilReason": "http://inspire.ec.europa.eu/codelist/VoidReasonValue/Unpopulated", "@nil": "true" }, "endLifespanVersion": { "@nilReason": "http://inspire.ec.europa.eu/codelist/VoidReasonValue/Unpopulated", "@nil": "true" }, "inspireId": { "@dataType": "Identifier", "localId": "807842_646/1.E", "namespace": "SK.ESKN.CP", "versionId": "20260703T07:07:14" }, "label": "646/1", "nationalCadastralReference": "807842_646/1.E", "referencePoint": { "type": "Point", "coordinates": [ 17.75664147, 48.77727675 ] }, "validFrom": "2026-06-30T16:00:00Z", "validTo": { "@nilReason": "http://inspire.ec.europa.eu/codelist/VoidReasonValue/Unpopulated", "@nil": "true" }, "administrativeUnit": { "@href": "#auAdmUnitS.2529" } }, "geometry": { "type": "Polygon", "coordinates": [ [ [ 17.75775886, 48.77861555 ], [ 17.75772174, 48.77856748 ], [ 17.75769454, 48.77852273 ], [ 17.75762789, 48.77842995 ], [ 17.75759074, 48.77837529 ], [ 17.75755362, 48.77832722 ], [ 17.75753207, 48.77829383 ], [ 17.75750724, 48.77825654 ], [ 17.75746271, 48.77818824 ], [ 17.75744, 48.77815822 ], [ 17.75741586, 48.77812576 ], [ 17.75737185, 48.77806444 ], [ 17.75734242, 48.77802786 ], [ 17.75731918, 48.77800061 ], [ 17.75730887, 48.77798742 ], [ 17.75725917, 48.77792774 ], [ 17.75724164, 48.77790463 ], [ 17.75717755, 48.77781995 ], [ 17.75711803, 48.77775525 ], [ 17.75707926, 48.77770437 ], [ 17.75705453, 48.77767801 ], [ 17.75701233, 48.77763306 ], [ 17.75695682, 48.7775612 ], [ 17.75693037, 48.77752868 ], [ 17.75687452, 48.77746023 ], [ 17.75649913, 48.77705723 ], [ 17.75626524, 48.77682901 ], [ 17.75625761, 48.77681716 ], [ 17.75618347, 48.77673006 ], [ 17.7556466, 48.77636574 ], [ 17.75533573, 48.77612719 ], [ 17.75530598, 48.77613856 ], [ 17.75524151, 48.7761841 ], [ 17.75555115, 48.77637208 ], [ 17.75575706, 48.77652118 ], [ 17.75593877, 48.77665282 ], [ 17.7561507, 48.77681259 ], [ 17.75618821, 48.77686953 ], [ 17.75643187, 48.77709727 ], [ 17.75672681, 48.77745623 ], [ 17.75700543, 48.77778438 ], [ 17.75701535, 48.77779944 ], [ 17.75711102, 48.77795505 ], [ 17.75724756, 48.77813504 ], [ 17.75746086, 48.77839704 ], [ 17.75747993, 48.77842476 ], [ 17.75764836, 48.77855765 ], [ 17.75786009, 48.77876961 ], [ 17.75783621, 48.77873039 ], [ 17.75781964, 48.77870337 ], [ 17.75779101, 48.77866196 ], [ 17.75775886, 48.77861555 ] ] ] } },
{ "type": "Feature", "properties": { "@featureType": "CadastralParcel", "areaValue": { "value": 540, "@uom": "m2" }, "beginLifespanVersion": { "@nilReason": "http://inspire.ec.europa.eu/codelist/VoidReasonValue/Unpopulated", "@nil": "true" }, "endLifespanVersion": { "@nilReason": "http://inspire.ec.europa.eu/codelist/VoidReasonValue/Unpopulated", "@nil": "true" }, "inspireId": { "@dataType": "Identifier", "localId": "807842_647.E", "namespace": "SK.ESKN.CP", "versionId": "20260703T07:07:14" }, "label": "647", "nationalCadastralReference": "807842_647.E", "referencePoint": { "type": "Point", "coordinates": [ 17.75638928, 48.77708148 ] }, "validFrom": "2026-06-30T16:00:00Z", "validTo": { "@nilReason": "http://inspire.ec.europa.eu/codelist/VoidReasonValue/Unpopulated", "@nil": "true" }, "administrativeUnit": { "@href": "#auAdmUnitS.2529" } }, "geometry": { "type": "Polygon", "coordinates": [ [ [ 17.75552751, 48.77638662 ], [ 17.75560107, 48.7764399 ], [ 17.75597524, 48.77672496 ], [ 17.75613605, 48.77686733 ], [ 17.75615298, 48.77688688 ], [ 17.7561718, 48.77690077 ], [ 17.75618826, 48.77691686 ], [ 17.75620856, 48.7769368 ], [ 17.75622766, 48.7769555 ], [ 17.7562328, 48.77696078 ], [ 17.75625186, 48.77698074 ], [ 17.75626906, 48.77699642 ], [ 17.75628768, 48.77701175 ], [ 17.75630999, 48.77703 ], [ 17.7563325, 48.77705171 ], [ 17.7563531, 48.7770714 ], [ 17.75637405, 48.77709156 ], [ 17.75639367, 48.77711046 ], [ 17.75640988, 48.77712934 ], [ 17.75642633, 48.77714841 ], [ 17.75644783, 48.7771734 ], [ 17.75646477, 48.77719295 ], [ 17.75648569, 48.77721817 ], [ 17.75650709, 48.77724387 ], [ 17.75652662, 48.77726728 ], [ 17.75654751, 48.77729078 ], [ 17.75656663, 48.77731228 ], [ 17.75658611, 48.77733416 ], [ 17.75660594, 48.77735642 ], [ 17.75662197, 48.77737655 ], [ 17.75663822, 48.77739705 ], [ 17.75665496, 48.77741804 ], [ 17.75666783, 48.77743148 ], [ 17.75667868, 48.7774428 ], [ 17.75669343, 48.77746032 ], [ 17.75672728, 48.77749961 ], [ 17.7567556, 48.77753242 ], [ 17.75676638, 48.77754518 ], [ 17.75680877, 48.77759565 ], [ 17.75684112, 48.77763196 ], [ 17.7568776, 48.77767285 ], [ 17.75692057, 48.7777211 ], [ 17.75699613, 48.77780584 ], [ 17.75701535, 48.77779944 ], [ 17.75700543, 48.77778438 ], [ 17.75672681, 48.77745623 ], [ 17.75643187, 48.77709727 ], [ 17.75618821, 48.77686953 ], [ 17.7561507, 48.77681259 ], [ 17.75593877, 48.77665282 ], [ 17.75575706, 48.77652118 ], [ 17.75555115, 48.77637208 ], [ 17.75552751, 48.77638662 ] ] ] } },
{ "type": "Feature", "properties": { "@featureType": "CadastralParcel", "areaValue": { "value": 303, "@uom": "m2" }, "beginLifespanVersion": { "@nilReason": "http://inspire.ec.europa.eu/codelist/VoidReasonValue/Unpopulated", "@nil": "true" }, "endLifespanVersion": { "@nilReason": "http://inspire.ec.europa.eu/codelist/VoidReasonValue/Unpopulated", "@nil": "true" }, "inspireId": { "@dataType": "Identifier", "localId": "807842_640/1.E", "namespace": "SK.ESKN.CP", "versionId": "20260703T07:07:14" }, "label": "640/1", "nationalCadastralReference": "807842_640/1.E", "referencePoint": { "type": "Point", "coordinates": [ 17.75727036, 48.77881699 ] }, "validFrom": "2026-06-30T16:00:00Z", "validTo": { "@nilReason": "http://inspire.ec.europa.eu/codelist/VoidReasonValue/Unpopulated", "@nil": "true" }, "administrativeUnit": { "@href": "#auAdmUnitS.2529" } }, "geometry": { "type": "Polygon", "coordinates": [ [ [ 17.75761434, 48.77909107 ], [ 17.75763238, 48.77908224 ], [ 17.75762573, 48.77907705 ], [ 17.75744799, 48.77891315 ], [ 17.75738965, 48.77887994 ], [ 17.75730958, 48.77880973 ], [ 17.757235, 48.77874428 ], [ 17.75718558, 48.77870205 ], [ 17.75712736, 48.77861738 ], [ 17.75704861, 48.77854752 ], [ 17.75704296, 48.77863451 ], [ 17.75712151, 48.77874085 ], [ 17.75723252, 48.77882424 ], [ 17.75737793, 48.77892836 ], [ 17.75761434, 48.77909107 ] ] ] } },
{ "type": "Feature", "properties": { "@featureType": "CadastralParcel", "areaValue": { "value": 1301, "@uom": "m2" }, "beginLifespanVersion": { "@nilReason": "http://inspire.ec.europa.eu/codelist/VoidReasonValue/Unpopulated", "@nil": "true" }, "endLifespanVersion": { "@nilReason": "http://inspire.ec.europa.eu/codelist/VoidReasonValue/Unpopulated", "@nil": "true" }, "inspireId": { "@dataType": "Identifier", "localId": "807842_646/2.E", "namespace": "SK.ESKN.CP", "versionId": "20260703T07:07:14" }, "label": "646/2", "nationalCadastralReference": "807842_646/2.E", "referencePoint": { "type": "Point", "coordinates": [ 17.75802632, 48.77913153 ] }, "validFrom": "2026-06-30T16:00:00Z", "validTo": { "@nilReason": "http://inspire.ec.europa.eu/codelist/VoidReasonValue/Unpopulated", "@nil": "true" }, "administrativeUnit": { "@href": "#auAdmUnitS.2529" } }, "geometry": { "type": "Polygon", "coordinates": [ [ [ 17.75799322, 48.77898163 ], [ 17.75795392, 48.77891211 ], [ 17.75793654, 48.77888891 ], [ 17.75791448, 48.77884746 ], [ 17.7578884, 48.77879962 ], [ 17.75788685, 48.77879799 ], [ 17.75786009, 48.77876961 ], [ 17.75764836, 48.77855765 ], [ 17.75747993, 48.77842476 ], [ 17.75803763, 48.77924257 ], [ 17.75835175, 48.77953803 ], [ 17.75853797, 48.77971365 ], [ 17.75878221, 48.77989554 ], [ 17.75890713, 48.77988378 ], [ 17.75870187, 48.77974547 ], [ 17.75860979, 48.77968391 ], [ 17.75854085, 48.77962008 ], [ 17.7583994, 48.77949453 ], [ 17.75834496, 48.77943257 ], [ 17.75827531, 48.7793612 ], [ 17.75825047, 48.77933465 ], [ 17.75821803, 48.77929997 ], [ 17.75815864, 48.77923337 ], [ 17.75811178, 48.77916222 ], [ 17.75806969, 48.77910084 ], [ 17.75799322, 48.77898163 ] ] ] } },
{ "type": "Feature", "properties": { "@featureType": "CadastralParcel", "areaValue": { "value": 375, "@uom": "m2" }, "beginLifespanVersion": { "@nilReason": "http://inspire.ec.europa.eu/codelist/VoidReasonValue/Unpopulated", "@nil": "true" }, "endLifespanVersion": { "@nilReason": "http://inspire.ec.europa.eu/codelist/VoidReasonValue/Unpopulated", "@nil": "true" }, "inspireId": { "@dataType": "Identifier", "localId": "807842_641/1.E", "namespace": "SK.ESKN.CP", "versionId": "20260703T07:07:14" }, "label": "641/1", "nationalCadastralReference": "807842_641/1.E", "referencePoint": { "type": "Point", "coordinates": [ 17.75574197, 48.77763309 ] }, "validFrom": "2026-06-30T16:00:00Z", "validTo": { "@nilReason": "http://inspire.ec.europa.eu/codelist/VoidReasonValue/Unpopulated", "@nil": "true" }, "administrativeUnit": { "@href": "#auAdmUnitS.2529" } }, "geometry": { "type": "Polygon", "coordinates": [ [ [ 17.75487938, 48.77736241 ], [ 17.75493485, 48.77738298 ], [ 17.75548911, 48.7775661 ], [ 17.75596979, 48.7777428 ], [ 17.75612571, 48.77781975 ], [ 17.75601237, 48.77768192 ], [ 17.75561283, 48.77758425 ], [ 17.75543591, 48.77752255 ], [ 17.75531828, 48.77746783 ], [ 17.75507525, 48.77736802 ], [ 17.75496212, 48.7773571 ], [ 17.75487938, 48.77736241 ] ] ] } },
{ "type": "Feature", "properties": { "@featureType": "CadastralParcel", "areaValue": { "value": 580, "@uom": "m2" }, "beginLifespanVersion": { "@nilReason": "http://inspire.ec.europa.eu/codelist/VoidReasonValue/Unpopulated", "@nil": "true" }, "endLifespanVersion": { "@nilReason": "http://inspire.ec.europa.eu/codelist/VoidReasonValue/Unpopulated", "@nil": "true" }, "inspireId": { "@dataType": "Identifier", "localId": "807826_225/1.C", "namespace": "SK.ESKN.CP", "versionId": "20260703T07:07:06" }, "label": "225/1", "nationalCadastralReference": "807826_225/1.C", "referencePoint": { "type": "Point", "coordinates": [ 17.76684889, 48.78859246 ] }, "validFrom": "2026-06-30T16:00:00Z", "validTo": { "@nilReason": "http://inspire.ec.europa.eu/codelist/VoidReasonValue/Unpopulated", "@nil": "true" }, "administrativeUnit": { "@href": "#auAdmUnitS.2529" } }, "geometry": { "type": "Polygon", "coordinates": [ [ [ 17.76679137, 48.78833751 ], [ 17.76690227, 48.78838196 ], [ 17.76694517, 48.78840356 ], [ 17.76696004, 48.78841648 ], [ 17.76695429, 48.788435 ], [ 17.76691598, 48.78848017 ], [ 17.76682079, 48.78857802 ], [ 17.76678402, 48.78861605 ], [ 17.76675328, 48.78864127 ], [ 17.7667061, 48.78868923 ], [ 17.76658433, 48.78879142 ], [ 17.76651025, 48.78884983 ], [ 17.76649426, 48.78886249 ], [ 17.76647979, 48.78887407 ], [ 17.76644649, 48.78890102 ], [ 17.7664118, 48.78892907 ], [ 17.76637525, 48.78895871 ], [ 17.76632575, 48.78899876 ], [ 17.76638311, 48.78901961 ], [ 17.76643981, 48.78901974 ], [ 17.76656837, 48.7888477 ], [ 17.76661911, 48.78880366 ], [ 17.76668016, 48.78877082 ], [ 17.76675773, 48.78872653 ], [ 17.76684319, 48.78864343 ], [ 17.7668777, 48.78860689 ], [ 17.76691239, 48.78856909 ], [ 17.76694859, 48.78852245 ], [ 17.76700523, 48.7884617 ], [ 17.76703823, 48.78842127 ], [ 17.76711195, 48.78834982 ], [ 17.76709991, 48.78834403 ], [ 17.76703192, 48.78830446 ], [ 17.76697586, 48.7883806 ], [ 17.76685001, 48.7883131 ], [ 17.76691562, 48.78825363 ], [ 17.76692641, 48.788243 ], [ 17.76687157, 48.78821101 ], [ 17.76684441, 48.78823509 ], [ 17.76668373, 48.78818496 ], [ 17.76670888, 48.7882668 ], [ 17.76680265, 48.78831752 ], [ 17.76677015, 48.78836015 ], [ 17.76679137, 48.78833751 ] ] ] } },
{ "type": "Feature", "properties": { "@featureType": "CadastralParcel", "areaValue": { "value": 1220, "@uom": "m2" }, "beginLifespanVersion": { "@nilReason": "http://inspire.ec.europa.eu/codelist/VoidReasonValue/Unpopulated", "@nil": "true" }, "endLifespanVersion": { "@nilReason": "http://inspire.ec.europa.eu/codelist/VoidReasonValue/Unpopulated", "@nil": "true" }, "inspireId": { "@dataType": "Identifier", "localId": "807826_313.C", "namespace": "SK.ESKN.CP", "versionId": "20260703T07:07:06" }, "label": "313", "nationalCadastralReference": "807826_313.C", "referencePoint": { "type": "Point", "coordinates": [ 17.76694538, 48.78671445 ] }, "validFrom": "2026-06-30T16:00:00Z", "validTo": { "@nilReason": "http://inspire.ec.europa.eu/codelist/VoidReasonValue/Unpopulated", "@nil": "true" }, "administrativeUnit": { "@href": "#auAdmUnitS.2529" } }, "geometry": { "type": "Polygon", "coordinates": [ [ [ 17.76723208, 48.78675231 ], [ 17.76718544, 48.7867369 ], [ 17.76714806, 48.78672955 ], [ 17.76708901, 48.78670625 ], [ 17.7670479, 48.78668359 ], [ 17.76687273, 48.78661687 ], [ 17.76672969, 48.78656286 ], [ 17.76668608, 48.7865629 ], [ 17.76662024, 48.78652852 ], [ 17.76632192, 48.78662748 ], [ 17.76640365, 48.78661488 ], [ 17.76653054, 48.78659013 ], [ 17.76655122, 48.78659862 ], [ 17.76662643, 48.7866315 ], [ 17.76679626, 48.78672264 ], [ 17.76683445, 48.78678658 ], [ 17.76686265, 48.786835 ], [ 17.7669481, 48.78690499 ], [ 17.76716211, 48.78684087 ], [ 17.7673972, 48.78689257 ], [ 17.76755909, 48.78687367 ], [ 17.76755431, 48.78686778 ], [ 17.76723208, 48.78675231 ] ] ] } },
{ "type": "Feature", "properties": { "@featureType": "CadastralParcel", "areaValue": { "value": 4707, "@uom": "m2" }, "beginLifespanVersion": { "@nilReason": "http://inspire.ec.europa.eu/codelist/VoidReasonValue/Unpopulated", "@nil": "true" }, "endLifespanVersion": { "@nilReason": "http://inspire.ec.europa.eu/codelist/VoidReasonValue/Unpopulated", "@nil": "true" }, "inspireId": { "@dataType": "Identifier", "localId": "807826_322/1.C", "namespace": "SK.ESKN.CP", "versionId": "20260703T07:07:06" }, "label": "322/1", "nationalCadastralReference": "807826_322/1.C", "referencePoint": { "type": "Point", "coordinates": [ 17.77068274, 48.78684406 ] }, "validFrom": "2026-06-30T16:00:00Z", "validTo": { "@nilReason": "http://inspire.ec.europa.eu/codelist/VoidReasonValue/Unpopulated", "@nil": "true" }, "administrativeUnit": { "@href": "#auAdmUnitS.2529" } }, "geometry": { "type": "Polygon", "coordinates": [ [ [ 17.77177736, 48.78719942 ], [ 17.7720441, 48.78723688 ], [ 17.77221177, 48.78727423 ], [ 17.77229367, 48.78727211 ], [ 17.77261704, 48.78725568 ], [ 17.77277504, 48.78724791 ], [ 17.77277482, 48.78724456 ], [ 17.7727758, 48.7872327 ], [ 17.77277707, 48.78721778 ], [ 17.77231793, 48.78724135 ], [ 17.77227469, 48.78722805 ], [ 17.77215196, 48.78723291 ], [ 17.77197471, 48.78722098 ], [ 17.77197561, 48.78712873 ], [ 17.77192637, 48.78708408 ], [ 17.77191848, 48.78700972 ], [ 17.77187769, 48.78701011 ], [ 17.77187798, 48.7870207 ], [ 17.77186555, 48.78701967 ], [ 17.771721, 48.78700757 ], [ 17.77157552, 48.78697871 ], [ 17.77155243, 48.78697278 ], [ 17.77154427, 48.78699585 ], [ 17.77137812, 48.78696916 ], [ 17.77139152, 48.78693692 ], [ 17.77133795, 48.78692615 ], [ 17.77122436, 48.78690764 ], [ 17.77114791, 48.78689727 ], [ 17.77106437, 48.78688574 ], [ 17.77106842, 48.78686856 ], [ 17.77087848, 48.78685359 ], [ 17.77088142, 48.78683454 ], [ 17.77075244, 48.78681571 ], [ 17.77049965, 48.7867801 ], [ 17.77036455, 48.78676099 ], [ 17.77036828, 48.78675391 ], [ 17.77027527, 48.78674171 ], [ 17.7702637, 48.78674037 ], [ 17.77025967, 48.78673985 ], [ 17.77017818, 48.78672936 ], [ 17.77011283, 48.78672066 ], [ 17.77009311, 48.78671801 ], [ 17.77014702, 48.78660742 ], [ 17.77001383, 48.78664686 ], [ 17.7698895, 48.7866631 ], [ 17.76989862, 48.78663024 ], [ 17.76976564, 48.78660674 ], [ 17.76971569, 48.78659547 ], [ 17.76956111, 48.78656036 ], [ 17.76954799, 48.78655738 ], [ 17.76950388, 48.78654737 ], [ 17.76946766, 48.78651128 ], [ 17.76945118, 48.78654207 ], [ 17.76934574, 48.78653471 ], [ 17.76932008, 48.78656954 ], [ 17.7693208, 48.78662874 ], [ 17.7692685, 48.78663231 ], [ 17.7692097, 48.78663639 ], [ 17.76884391, 48.78659864 ], [ 17.76883038, 48.78659763 ], [ 17.76876567, 48.78659024 ], [ 17.76870979, 48.78658429 ], [ 17.76862991, 48.78657588 ], [ 17.76862444, 48.78659054 ], [ 17.76853651, 48.7865772 ], [ 17.76845642, 48.78656643 ], [ 17.76844363, 48.78656411 ], [ 17.76832172, 48.78654157 ], [ 17.7683122, 48.78656853 ], [ 17.7682935, 48.78662103 ], [ 17.7681607, 48.78660306 ], [ 17.76815496, 48.78661382 ], [ 17.76813912, 48.78666632 ], [ 17.76814274, 48.78666681 ], [ 17.76814441, 48.78669491 ], [ 17.76808349, 48.78670726 ], [ 17.76800064, 48.78671916 ], [ 17.76800341, 48.78666135 ], [ 17.76796901, 48.78666006 ], [ 17.76787821, 48.78665648 ], [ 17.76786537, 48.78665642 ], [ 17.76785914, 48.78669307 ], [ 17.76775729, 48.7866825 ], [ 17.76775164, 48.78670816 ], [ 17.76768814, 48.78669994 ], [ 17.76769903, 48.78667496 ], [ 17.76768761, 48.78667354 ], [ 17.76770149, 48.78663501 ], [ 17.7676217, 48.78666498 ], [ 17.76755027, 48.78665582 ], [ 17.76753754, 48.78665107 ], [ 17.76752315, 48.78664938 ], [ 17.76735136, 48.78658593 ], [ 17.76724323, 48.78655285 ], [ 17.7671308, 48.7865232 ], [ 17.76699377, 48.78647986 ], [ 17.76698346, 48.78647643 ], [ 17.76683611, 48.78642775 ], [ 17.76682106, 48.78642683 ], [ 17.76669901, 48.78644438 ], [ 17.7666502, 48.78646108 ], [ 17.76675183, 48.78649268 ], [ 17.76682781, 48.7864967 ], [ 17.76715572, 48.78662137 ], [ 17.76718092, 48.78663167 ], [ 17.76768823, 48.78677148 ], [ 17.7677323, 48.78677689 ], [ 17.76788024, 48.78678432 ], [ 17.7680445, 48.78677577 ], [ 17.76812925, 48.78676307 ], [ 17.76814767, 48.78676131 ], [ 17.76841981, 48.78670861 ], [ 17.76857654, 48.7866865 ], [ 17.76872257, 48.78667837 ], [ 17.76884323, 48.78667754 ], [ 17.76896578, 48.78668378 ], [ 17.76959142, 48.78670193 ], [ 17.77004006, 48.78679036 ], [ 17.77042841, 48.78683201 ], [ 17.77058214, 48.78686445 ], [ 17.77060133, 48.78686888 ], [ 17.77072106, 48.78690402 ], [ 17.77100617, 48.7869977 ], [ 17.7714556, 48.78714677 ], [ 17.77154574, 48.78717459 ], [ 17.77159569, 48.78718975 ], [ 17.77177736, 48.78719942 ] ] ] } },
{ "type": "Feature", "properties": { "@featureType": "CadastralParcel", "areaValue": { "value": 1076, "@uom": "m2" }, "beginLifespanVersion": { "@nilReason": "http://inspire.ec.europa.eu/codelist/VoidReasonValue/Unpopulated", "@nil": "true" }, "endLifespanVersion": { "@nilReason": "http://inspire.ec.europa.eu/codelist/VoidReasonValue/Unpopulated", "@nil": "true" }, "inspireId": { "@dataType": "Identifier", "localId": "807826_307/1.C", "namespace": "SK.ESKN.CP", "versionId": "20260703T07:07:06" }, "label": "307/1", "nationalCadastralReference": "807826_307/1.C", "referencePoint": { "type": "Point", "coordinates": [ 17.77252685, 48.78746191 ] }, "validFrom": "2026-06-30T16:00:00Z", "validTo": { "@nilReason": "http://inspire.ec.europa.eu/codelist/VoidReasonValue/Unpopulated", "@nil": "true" }, "administrativeUnit": { "@href": "#auAdmUnitS.2529" } }, "geometry": { "type": "Polygon", "coordinates": [ [ [ 17.77048976, 48.78745038 ], [ 17.77057827, 48.78746745 ], [ 17.77063045, 48.78747741 ], [ 17.77064391, 48.78747986 ], [ 17.77073896, 48.78749408 ], [ 17.77075927, 48.78743499 ], [ 17.77089381, 48.78745614 ], [ 17.77089886, 48.78744155 ], [ 17.77103381, 48.7874676 ], [ 17.77104072, 48.78744562 ], [ 17.7710446, 48.78744622 ], [ 17.7711812, 48.78746822 ], [ 17.77118549, 48.78746884 ], [ 17.77117926, 48.78749863 ], [ 17.77127921, 48.78751405 ], [ 17.77129045, 48.78751573 ], [ 17.77140049, 48.78752833 ], [ 17.77154049, 48.78754367 ], [ 17.77170586, 48.78757213 ], [ 17.77172124, 48.78757253 ], [ 17.77173311, 48.78753469 ], [ 17.77185686, 48.78754993 ], [ 17.77199125, 48.7875643 ], [ 17.77199717, 48.78751038 ], [ 17.77206666, 48.78751581 ], [ 17.77209754, 48.78751788 ], [ 17.77211668, 48.78751589 ], [ 17.77215445, 48.78749797 ], [ 17.77229409, 48.78749251 ], [ 17.77231761, 48.78749242 ], [ 17.77242983, 48.78748068 ], [ 17.7724816, 48.78748484 ], [ 17.77277064, 48.78746856 ], [ 17.77277071, 48.78745637 ], [ 17.77279094, 48.78745246 ], [ 17.77278975, 48.7874346 ], [ 17.77244856, 48.78745138 ], [ 17.77183472, 48.78749042 ], [ 17.77133588, 48.78744418 ], [ 17.77103488, 48.78740435 ], [ 17.77063362, 48.78738557 ], [ 17.77052108, 48.78736053 ], [ 17.77050942, 48.78739008 ], [ 17.77048858, 48.78744227 ], [ 17.77049243, 48.78744305 ], [ 17.77048976, 48.78745038 ] ] ] } },
{ "type": "Feature", "properties": { "@featureType": "CadastralParcel", "areaValue": { "value": 1244, "@uom": "m2" }, "beginLifespanVersion": { "@nilReason": "http://inspire.ec.europa.eu/codelist/VoidReasonValue/Unpopulated", "@nil": "true" }, "endLifespanVersion": { "@nilReason": "http://inspire.ec.europa.eu/codelist/VoidReasonValue/Unpopulated", "@nil": "true" }, "inspireId": { "@dataType": "Identifier", "localId": "807826_997.C", "namespace": "SK.ESKN.CP", "versionId": "20260703T07:07:06" }, "label": "997", "nationalCadastralReference": "807826_997.C", "referencePoint": { "type": "Point", "coordinates": [ 17.76551825, 48.7858914 ] }, "validFrom": "2026-06-30T16:00:00Z", "validTo": { "@nilReason": "http://inspire.ec.europa.eu/codelist/VoidReasonValue/Unpopulated", "@nil": "true" }, "administrativeUnit": { "@href": "#auAdmUnitS.2529" } }, "geometry": { "type": "Polygon", "coordinates": [ [ [ 17.76457244, 48.78535269 ], [ 17.76467835, 48.78542782 ], [ 17.76476707, 48.78548329 ], [ 17.76482062, 48.78551367 ], [ 17.76487303, 48.78554343 ], [ 17.76498869, 48.78561338 ], [ 17.76521316, 48.78574075 ], [ 17.76535932, 48.78582909 ], [ 17.76550002, 48.78591827 ], [ 17.76563477, 48.78601296 ], [ 17.76574925, 48.78610207 ], [ 17.76577423, 48.78612076 ], [ 17.76585628, 48.78616724 ], [ 17.76595898, 48.78623414 ], [ 17.76603072, 48.78628396 ], [ 17.76612522, 48.78634204 ], [ 17.76628073, 48.78643782 ], [ 17.76629556, 48.78644704 ], [ 17.76656972, 48.78646184 ], [ 17.76645921, 48.78642825 ], [ 17.76641157, 48.78640925 ], [ 17.76637411, 48.78638501 ], [ 17.76633473, 48.78636463 ], [ 17.7662784, 48.78633453 ], [ 17.76625976, 48.78632418 ], [ 17.76624097, 48.78631391 ], [ 17.76619271, 48.78628377 ], [ 17.76601236, 48.78618683 ], [ 17.7658726, 48.78607233 ], [ 17.7657096, 48.78596959 ], [ 17.76553394, 48.78586453 ], [ 17.76523744, 48.7856885 ], [ 17.76516275, 48.78563434 ], [ 17.76502485, 48.7855456 ], [ 17.76485927, 48.78543204 ], [ 17.76475502, 48.78536063 ], [ 17.76469096, 48.78533403 ], [ 17.76463412, 48.78534265 ], [ 17.76458509, 48.78535022 ], [ 17.76457244, 48.78535269 ] ] ] } },
{ "type": "Feature", "properties": { "@featureType": "CadastralParcel", "areaValue": { "value": 4855, "@uom": "m2" }, "beginLifespanVersion": { "@nilReason": "http://inspire.ec.europa.eu/codelist/VoidReasonValue/Unpopulated", "@nil": "true" }, "endLifespanVersion": { "@nilReason": "http://inspire.ec.europa.eu/codelist/VoidReasonValue/Unpopulated", "@nil": "true" }, "inspireId": { "@dataType": "Identifier", "localId": "807826_306.C", "namespace": "SK.ESKN.CP", "versionId": "20260703T07:07:06" }, "label": "306", "nationalCadastralReference": "807826_306.C", "referencePoint": { "type": "Point", "coordinates": [ 17.7698464, 48.78715577 ] }, "validFrom": "2026-06-30T16:00:00Z", "validTo": { "@nilReason": "http://inspire.ec.europa.eu/codelist/VoidReasonValue/Unpopulated", "@nil": "true" }, "administrativeUnit": { "@href": "#auAdmUnitS.2529" } }, "geometry": { "type": "Polygon", "coordinates": [ [ [ 17.77278975, 48.7874346 ], [ 17.7727855, 48.78736642 ], [ 17.77278406, 48.78734447 ], [ 17.77278338, 48.78733856 ], [ 17.77245636, 48.78735477 ], [ 17.77228692, 48.78738757 ], [ 17.77178137, 48.78742438 ], [ 17.77088284, 48.78730229 ], [ 17.7704145, 48.7872384 ], [ 17.77036357, 48.78723023 ], [ 17.76996098, 48.7871234 ], [ 17.7698309, 48.78710749 ], [ 17.76966412, 48.78708725 ], [ 17.7696137, 48.78707739 ], [ 17.76946412, 48.7870387 ], [ 17.76937722, 48.78699464 ], [ 17.76936153, 48.78698663 ], [ 17.76932384, 48.78696789 ], [ 17.76929191, 48.78695184 ], [ 17.76893833, 48.78679969 ], [ 17.7689085, 48.78679895 ], [ 17.7685757, 48.7868007 ], [ 17.76796302, 48.78690554 ], [ 17.76794083, 48.78690589 ], [ 17.76755909, 48.78687367 ], [ 17.7673972, 48.78689257 ], [ 17.76716211, 48.78684087 ], [ 17.7669481, 48.78690499 ], [ 17.76691001, 48.78691639 ], [ 17.76686157, 48.78693139 ], [ 17.76677429, 48.78695531 ], [ 17.76666773, 48.78698419 ], [ 17.76662591, 48.78699491 ], [ 17.76661916, 48.7869982 ], [ 17.76654105, 48.78704345 ], [ 17.76648991, 48.78706895 ], [ 17.76637821, 48.78712669 ], [ 17.76627712, 48.78718381 ], [ 17.76626903, 48.78719081 ], [ 17.76618861, 48.78724866 ], [ 17.76609927, 48.78731553 ], [ 17.76597724, 48.78741671 ], [ 17.76556677, 48.78741966 ], [ 17.76571258, 48.78751837 ], [ 17.76579476, 48.78750931 ], [ 17.7659917, 48.78750069 ], [ 17.76599584, 48.78750826 ], [ 17.76602441, 48.78749168 ], [ 17.76612091, 48.78741657 ], [ 17.76621839, 48.78732969 ], [ 17.76633782, 48.78725193 ], [ 17.76641755, 48.7872 ], [ 17.7664666, 48.78716796 ], [ 17.76660285, 48.78709113 ], [ 17.76663104, 48.78707723 ], [ 17.76665931, 48.78707056 ], [ 17.76676566, 48.78704321 ], [ 17.76676875, 48.78704647 ], [ 17.76679548, 48.7870752 ], [ 17.76686071, 48.78711586 ], [ 17.76695563, 48.78704725 ], [ 17.76703726, 48.78698171 ], [ 17.767092, 48.7869773 ], [ 17.76713785, 48.78697396 ], [ 17.76718754, 48.78696951 ], [ 17.76734886, 48.78696051 ], [ 17.76741136, 48.78695539 ], [ 17.76759977, 48.78694029 ], [ 17.76803047, 48.78697045 ], [ 17.76828031, 48.78691494 ], [ 17.76848061, 48.78686479 ], [ 17.76855968, 48.78685066 ], [ 17.76882417, 48.78686812 ], [ 17.76910307, 48.78696512 ], [ 17.76920992, 48.78700047 ], [ 17.76921991, 48.78699458 ], [ 17.76923835, 48.78700339 ], [ 17.76928708, 48.78702146 ], [ 17.76929935, 48.78702753 ], [ 17.76929162, 48.78703095 ], [ 17.76955015, 48.78714359 ], [ 17.76984315, 48.78720343 ], [ 17.77011932, 48.78727119 ], [ 17.77028792, 48.78730869 ], [ 17.77040616, 48.78733498 ], [ 17.77052108, 48.78736053 ], [ 17.77063362, 48.78738557 ], [ 17.77103488, 48.78740435 ], [ 17.77133588, 48.78744418 ], [ 17.77183472, 48.78749042 ], [ 17.77244856, 48.78745138 ], [ 17.77278975, 48.7874346 ] ] ] } },
{ "type": "Feature", "properties": { "@featureType": "CadastralParcel", "areaValue": { "value": 109, "@uom": "m2" }, "beginLifespanVersion": { "@nilReason": "http://inspire.ec.europa.eu/codelist/VoidReasonValue/Unpopulated", "@nil": "true" }, "endLifespanVersion": { "@nilReason": "http://inspire.ec.europa.eu/codelist/VoidReasonValue/Unpopulated", "@nil": "true" }, "inspireId": { "@dataType": "Identifier", "localId": "807826_25/2.C", "namespace": "SK.ESKN.CP", "versionId": "20260703T07:07:06" }, "label": "25/2", "nationalCadastralReference": "807826_25/2.C", "referencePoint": { "type": "Point", "coordinates": [ 17.7722739, 48.7879806 ] }, "validFrom": "2026-06-30T16:00:00Z", "validTo": { "@nilReason": "http://inspire.ec.europa.eu/codelist/VoidReasonValue/Unpopulated", "@nil": "true" }, "administrativeUnit": { "@href": "#auAdmUnitS.2529" } }, "geometry": { "type": "Polygon", "coordinates": [ [ [ 17.77229566, 48.78808609 ], [ 17.77233183, 48.7879372 ], [ 17.7722358, 48.78793186 ], [ 17.77221825, 48.788024 ], [ 17.77220751, 48.78807627 ], [ 17.77229566, 48.78808609 ] ] ] } },
{ "type": "Feature", "properties": { "@featureType": "CadastralParcel", "areaValue": { "value": 547, "@uom": "m2" }, "beginLifespanVersion": { "@nilReason": "http://inspire.ec.europa.eu/codelist/VoidReasonValue/Unpopulated", "@nil": "true" }, "endLifespanVersion": { "@nilReason": "http://inspire.ec.europa.eu/codelist/VoidReasonValue/Unpopulated", "@nil": "true" }, "inspireId": { "@dataType": "Identifier", "localId": "807826_263/1.C", "namespace": "SK.ESKN.CP", "versionId": "20260703T07:07:06" }, "label": "263/1", "nationalCadastralReference": "807826_263/1.C", "referencePoint": { "type": "Point", "coordinates": [ 17.76801986, 48.78707965 ] }, "validFrom": "2026-06-30T16:00:00Z", "validTo": { "@nilReason": "http://inspire.ec.europa.eu/codelist/VoidReasonValue/Unpopulated", "@nil": "true" }, "administrativeUnit": { "@href": "#auAdmUnitS.2529" } }, "geometry": { "type": "Polygon", "coordinates": [ [ [ 17.76796435, 48.78710956 ], [ 17.76799802, 48.78712778 ], [ 17.7680172, 48.78714206 ], [ 17.76801421, 48.78715072 ], [ 17.76797983, 48.7872029 ], [ 17.7680462, 48.78723162 ], [ 17.76812789, 48.7871715 ], [ 17.76806934, 48.78714263 ], [ 17.7680863, 48.78709959 ], [ 17.76811253, 48.78705387 ], [ 17.76811571, 48.78704874 ], [ 17.76814065, 48.78699959 ], [ 17.76821797, 48.78695113 ], [ 17.76829309, 48.7869262 ], [ 17.76828031, 48.78691494 ], [ 17.76803047, 48.78697045 ], [ 17.76759977, 48.78694029 ], [ 17.7676776, 48.78702372 ], [ 17.76770916, 48.78705112 ], [ 17.76776585, 48.78702018 ], [ 17.76782085, 48.78699149 ], [ 17.76784707, 48.78698189 ], [ 17.76792009, 48.7870597 ], [ 17.76797159, 48.78710666 ], [ 17.76796435, 48.78710956 ] ] ] } },
{ "type": "Feature", "properties": { "@featureType": "CadastralParcel", "areaValue": { "value": 552, "@uom": "m2" }, "beginLifespanVersion": { "@nilReason": "http://inspire.ec.europa.eu/codelist/VoidReasonValue/Unpopulated", "@nil": "true" }, "endLifespanVersion": { "@nilReason": "http://inspire.ec.europa.eu/codelist/VoidReasonValue/Unpopulated", "@nil": "true" }, "inspireId": { "@dataType": "Identifier", "localId": "807826_993/1.C", "namespace": "SK.ESKN.CP", "versionId": "20260703T07:07:06" }, "label": "993/1", "nationalCadastralReference": "807826_993/1.C", "referencePoint": { "type": "Point", "coordinates": [ 17.76667141, 48.78628718 ] }, "validFrom": "2026-06-30T16:00:00Z", "validTo": { "@nilReason": "http://inspire.ec.europa.eu/codelist/VoidReasonValue/Unpopulated", "@nil": "true" }, "administrativeUnit": { "@href": "#auAdmUnitS.2529" } }, "geometry": { "type": "Polygon", "coordinates": [ [ [ 17.76645921, 48.78642825 ], [ 17.76656972, 48.78646184 ], [ 17.7666502, 48.78646108 ], [ 17.76669901, 48.78644438 ], [ 17.76673323, 48.7863865 ], [ 17.76677212, 48.78632069 ], [ 17.76681172, 48.78625366 ], [ 17.76682174, 48.78623684 ], [ 17.76684434, 48.78619849 ], [ 17.76664256, 48.78614612 ], [ 17.76652369, 48.78632905 ], [ 17.76645921, 48.78642825 ] ] ] } },
{ "type": "Feature", "properties": { "@featureType": "CadastralParcel", "areaValue": { "value": 1892, "@uom": "m2" }, "beginLifespanVersion": { "@nilReason": "http://inspire.ec.europa.eu/codelist/VoidReasonValue/Unpopulated", "@nil": "true" }, "endLifespanVersion": { "@nilReason": "http://inspire.ec.europa.eu/codelist/VoidReasonValue/Unpopulated", "@nil": "true" }, "inspireId": { "@dataType": "Identifier", "localId": "807826_566.C", "namespace": "SK.ESKN.CP", "versionId": "20260703T07:07:06" }, "label": "566", "nationalCadastralReference": "807826_566.C", "referencePoint": { "type": "Point", "coordinates": [ 17.78824745, 48.78100266 ] }, "validFrom": "2026-06-30T16:00:00Z", "validTo": { "@nilReason": "http://inspire.ec.europa.eu/codelist/VoidReasonValue/Unpopulated", "@nil": "true" }, "administrativeUnit": { "@href": "#auAdmUnitS.2529" } }, "geometry": { "type": "Polygon", "coordinates": [ [ [ 17.7862823, 48.78297681 ], [ 17.78633709, 48.7829564 ], [ 17.78624496, 48.78275127 ], [ 17.78627432, 48.78267033 ], [ 17.78637489, 48.78251896 ], [ 17.78648706, 48.7824009 ], [ 17.78661379, 48.78230288 ], [ 17.7867323, 48.78223136 ], [ 17.78683549, 48.78217462 ], [ 17.78706974, 48.78205137 ], [ 17.78729352, 48.78195124 ], [ 17.78759541, 48.78181053 ], [ 17.78771382, 48.78175048 ], [ 17.78788767, 48.78156655 ], [ 17.78797164, 48.78149283 ], [ 17.78802506, 48.78144696 ], [ 17.78805633, 48.78138754 ], [ 17.78811607, 48.78129356 ], [ 17.78818354, 48.78118632 ], [ 17.78824854, 48.78107911 ], [ 17.78829195, 48.78093671 ], [ 17.7882975, 48.78091853 ], [ 17.78834448, 48.78083271 ], [ 17.78847359, 48.7806531 ], [ 17.78854099, 48.78055416 ], [ 17.78867984, 48.78038788 ], [ 17.78874915, 48.78030558 ], [ 17.7888236, 48.78022171 ], [ 17.788893, 48.78014267 ], [ 17.78892896, 48.78010152 ], [ 17.78895984, 48.78006538 ], [ 17.78903435, 48.77997808 ], [ 17.78905764, 48.77994346 ], [ 17.78910126, 48.77989735 ], [ 17.78910902, 48.77988582 ], [ 17.7892518, 48.77976773 ], [ 17.78929246, 48.7797349 ], [ 17.7893234, 48.7797003 ], [ 17.78936697, 48.77965256 ], [ 17.78939019, 48.77962625 ], [ 17.78952634, 48.77947145 ], [ 17.78966006, 48.77932328 ], [ 17.78969858, 48.77928038 ], [ 17.78974718, 48.77923773 ], [ 17.78982364, 48.77917367 ], [ 17.7899024, 48.77911959 ], [ 17.7899506, 48.77909345 ], [ 17.79000131, 48.77906403 ], [ 17.79009488, 48.77901348 ], [ 17.79018874, 48.77895788 ], [ 17.79015701, 48.77893264 ], [ 17.78987067, 48.77909435 ], [ 17.78980202, 48.77914354 ], [ 17.78966669, 48.77926019 ], [ 17.78962299, 48.77930792 ], [ 17.78936363, 48.77958941 ], [ 17.789279, 48.7796816 ], [ 17.78924055, 48.77972107 ], [ 17.78906222, 48.77986869 ], [ 17.78885101, 48.78012729 ], [ 17.78849404, 48.78054199 ], [ 17.78829744, 48.78082216 ], [ 17.78825045, 48.78090807 ], [ 17.78820395, 48.78106862 ], [ 17.78798824, 48.78142493 ], [ 17.78785309, 48.78155288 ], [ 17.78768219, 48.78172353 ], [ 17.78756108, 48.78179019 ], [ 17.78731447, 48.78190501 ], [ 17.78703801, 48.78202613 ], [ 17.78680129, 48.78215429 ], [ 17.78670052, 48.78220937 ], [ 17.78658197, 48.78227926 ], [ 17.786458, 48.78237221 ], [ 17.7863355, 48.78250843 ], [ 17.78622982, 48.7826631 ], [ 17.7861979, 48.78275065 ], [ 17.7862823, 48.78297681 ] ] ] } },
{ "type": "Feature", "properties": { "@featureType": "CadastralParcel", "areaValue": { "value": 98, "@uom": "m2" }, "beginLifespanVersion": { "@nilReason": "http://inspire.ec.europa.eu/codelist/VoidReasonValue/Unpopulated", "@nil": "true" }, "endLifespanVersion": { "@nilReason": "http://inspire.ec.europa.eu/codelist/VoidReasonValue/Unpopulated", "@nil": "true" }, "inspireId": { "@dataType": "Identifier", "localId": "807826_276.E", "namespace": "SK.ESKN.CP", "versionId": "20260703T07:07:06" }, "label": "276", "nationalCadastralReference": "807826_276.E", "referencePoint": { "type": "Point", "coordinates": [ 17.76673493, 48.78801992 ] }, "validFrom": "2026-06-30T16:00:00Z", "validTo": { "@nilReason": "http://inspire.ec.europa.eu/codelist/VoidReasonValue/Unpopulated", "@nil": "true" }, "administrativeUnit": { "@href": "#auAdmUnitS.2529" } }, "geometry": { "type": "Polygon", "coordinates": [ [ [ 17.76672324, 48.78799094 ], [ 17.76667586, 48.78805099 ], [ 17.76678009, 48.78810018 ], [ 17.76683401, 48.78805878 ], [ 17.76681571, 48.7880489 ], [ 17.76672324, 48.78799094 ] ] ] } },
{ "type": "Feature", "properties": { "@featureType": "CadastralParcel", "areaValue": { "value": 239, "@uom": "m2" }, "beginLifespanVersion": { "@nilReason": "http://inspire.ec.europa.eu/codelist/VoidReasonValue/Unpopulated", "@nil": "true" }, "endLifespanVersion": { "@nilReason": "http://inspire.ec.europa.eu/codelist/VoidReasonValue/Unpopulated", "@nil": "true" }, "inspireId": { "@dataType": "Identifier", "localId": "807826_188.E", "namespace": "SK.ESKN.CP", "versionId": "20260703T07:07:06" }, "label": "188", "nationalCadastralReference": "807826_188.E", "referencePoint": { "type": "Point", "coordinates": [ 17.76622749, 48.78778023 ] }, "validFrom": "2026-06-30T16:00:00Z", "validTo": { "@nilReason": "http://inspire.ec.europa.eu/codelist/VoidReasonValue/Unpopulated", "@nil": "true" }, "administrativeUnit": { "@href": "#auAdmUnitS.2529" } }, "geometry": { "type": "Polygon", "coordinates": [ [ [ 17.76667001, 48.78807321 ], [ 17.76667586, 48.78805099 ], [ 17.76647267, 48.78791021 ], [ 17.76637, 48.78785479 ], [ 17.76631049, 48.78781718 ], [ 17.7662141, 48.78774327 ], [ 17.76611408, 48.78765532 ], [ 17.76603681, 48.78759522 ], [ 17.7660117, 48.78756568 ], [ 17.76599584, 48.78750826 ], [ 17.7659917, 48.78750069 ], [ 17.76579476, 48.78750931 ], [ 17.76585408, 48.78754637 ], [ 17.76594861, 48.78752921 ], [ 17.7659624, 48.78754198 ], [ 17.76598691, 48.78761872 ], [ 17.76606494, 48.78767823 ], [ 17.76609497, 48.78769705 ], [ 17.76608027, 48.78770735 ], [ 17.76662792, 48.78806242 ], [ 17.7666674, 48.78808796 ], [ 17.76667001, 48.78807321 ] ] ] } },
{ "type": "Feature", "properties": { "@featureType": "CadastralParcel", "areaValue": { "value": 87, "@uom": "m2" }, "beginLifespanVersion": { "@nilReason": "http://inspire.ec.europa.eu/codelist/VoidReasonValue/Unpopulated", "@nil": "true" }, "endLifespanVersion": { "@nilReason": "http://inspire.ec.europa.eu/codelist/VoidReasonValue/Unpopulated", "@nil": "true" }, "inspireId": { "@dataType": "Identifier", "localId": "807826_225/1.E", "namespace": "SK.ESKN.CP", "versionId": "20260703T07:07:06" }, "label": "225/1", "nationalCadastralReference": "807826_225/1.E", "referencePoint": { "type": "Point", "coordinates": [ 17.76712225, 48.78827992 ] }, "validFrom": "2026-06-30T16:00:00Z", "validTo": { "@nilReason": "http://inspire.ec.europa.eu/codelist/VoidReasonValue/Unpopulated", "@nil": "true" }, "administrativeUnit": { "@href": "#auAdmUnitS.2529" } }, "geometry": { "type": "Polygon", "coordinates": [ [ [ 17.76714006, 48.78822338 ], [ 17.76713662, 48.78822552 ], [ 17.76711119, 48.7882441 ], [ 17.767083, 48.78826189 ], [ 17.76703192, 48.78830446 ], [ 17.76709991, 48.78834403 ], [ 17.76711195, 48.78834982 ], [ 17.76711463, 48.78835116 ], [ 17.76716173, 48.78829796 ], [ 17.76720792, 48.78825906 ], [ 17.76719509, 48.78825304 ], [ 17.76714006, 48.78822338 ] ] ] } },
{ "type": "Feature", "properties": { "@featureType": "CadastralParcel", "areaValue": { "value": 59, "@uom": "m2" }, "beginLifespanVersion": { "@nilReason": "http://inspire.ec.europa.eu/codelist/VoidReasonValue/Unpopulated", "@nil": "true" }, "endLifespanVersion": { "@nilReason": "http://inspire.ec.europa.eu/codelist/VoidReasonValue/Unpopulated", "@nil": "true" }, "inspireId": { "@dataType": "Identifier", "localId": "807826_225/2.E", "namespace": "SK.ESKN.CP", "versionId": "20260703T07:07:06" }, "label": "225/2", "nationalCadastralReference": "807826_225/2.E", "referencePoint": { "type": "Point", "coordinates": [ 17.76693323, 48.78819734 ] }, "validFrom": "2026-06-30T16:00:00Z", "validTo": { "@nilReason": "http://inspire.ec.europa.eu/codelist/VoidReasonValue/Unpopulated", "@nil": "true" }, "administrativeUnit": { "@href": "#auAdmUnitS.2529" } }, "geometry": { "type": "Polygon", "coordinates": [ [ [ 17.7669684, 48.78820962 ], [ 17.76698907, 48.78818506 ], [ 17.76700294, 48.78816703 ], [ 17.76701424, 48.78815571 ], [ 17.76696696, 48.78813023 ], [ 17.76687157, 48.78821101 ], [ 17.76692641, 48.788243 ], [ 17.7669684, 48.78820962 ] ] ] } },
{ "type": "Feature", "properties": { "@featureType": "CadastralParcel", "areaValue": { "value": 155, "@uom": "m2" }, "beginLifespanVersion": { "@nilReason": "http://inspire.ec.europa.eu/codelist/VoidReasonValue/Unpopulated", "@nil": "true" }, "endLifespanVersion": { "@nilReason": "http://inspire.ec.europa.eu/codelist/VoidReasonValue/Unpopulated", "@nil": "true" }, "inspireId": { "@dataType": "Identifier", "localId": "807826_278.E", "namespace": "SK.ESKN.CP", "versionId": "20260703T07:07:06" }, "label": "278", "nationalCadastralReference": "807826_278.E", "referencePoint": { "type": "Point", "coordinates": [ 17.76659014, 48.78795518 ] }, "validFrom": "2026-06-30T16:00:00Z", "validTo": { "@nilReason": "http://inspire.ec.europa.eu/codelist/VoidReasonValue/Unpopulated", "@nil": "true" }, "administrativeUnit": { "@href": "#auAdmUnitS.2529" } }, "geometry": { "type": "Polygon", "coordinates": [ [ [ 17.76665991, 48.7879513 ], [ 17.76664966, 48.78795907 ], [ 17.76656042, 48.78790926 ], [ 17.76657434, 48.78789774 ], [ 17.7665237, 48.787866 ], [ 17.76647267, 48.78791021 ], [ 17.76667586, 48.78805099 ], [ 17.76672324, 48.78799094 ], [ 17.76665991, 48.7879513 ] ] ] } },
{ "type": "Feature", "properties": { "@featureType": "CadastralParcel", "areaValue": { "value": 2683, "@uom": "m2" }, "beginLifespanVersion": { "@nilReason": "http://inspire.ec.europa.eu/codelist/VoidReasonValue/Unpopulated", "@nil": "true" }, "endLifespanVersion": { "@nilReason": "http://inspire.ec.europa.eu/codelist/VoidReasonValue/Unpopulated", "@nil": "true" }, "inspireId": { "@dataType": "Identifier", "localId": "807826_1032.E", "namespace": "SK.ESKN.CP", "versionId": "20260703T07:07:06" }, "label": "1032", "nationalCadastralReference": "807826_1032.E", "referencePoint": { "type": "Point", "coordinates": [ 17.76541056, 48.78618588 ] }, "validFrom": "2026-06-30T16:00:00Z", "validTo": { "@nilReason": "http://inspire.ec.europa.eu/codelist/VoidReasonValue/Unpopulated", "@nil": "true" }, "administrativeUnit": { "@href": "#auAdmUnitS.2529" } }, "geometry": { "type": "Polygon", "coordinates": [ [ [ 17.76485661, 48.78594796 ], [ 17.76489896, 48.78596464 ], [ 17.76494091, 48.7859813 ], [ 17.7649516, 48.78596651 ], [ 17.76507014, 48.78603149 ], [ 17.76521188, 48.78609969 ], [ 17.7654404, 48.78629857 ], [ 17.76544738, 48.78630532 ], [ 17.76551472, 48.78638459 ], [ 17.76564876, 48.78649892 ], [ 17.76584258, 48.78665476 ], [ 17.76596254, 48.78668532 ], [ 17.7660306, 48.78669319 ], [ 17.76610448, 48.78670142 ], [ 17.76616278, 48.78668042 ], [ 17.76622694, 48.78665472 ], [ 17.76632192, 48.78662748 ], [ 17.76662024, 48.78652852 ], [ 17.76668001, 48.7865087 ], [ 17.7666502, 48.78646108 ], [ 17.76656972, 48.78646184 ], [ 17.76629556, 48.78644704 ], [ 17.76626959, 48.7864617 ], [ 17.76621228, 48.78649414 ], [ 17.76616952, 48.7865076 ], [ 17.76611191, 48.78652566 ], [ 17.76585444, 48.78651856 ], [ 17.76583072, 48.78650257 ], [ 17.76572802, 48.78643179 ], [ 17.76571891, 48.78642554 ], [ 17.76563294, 48.78634468 ], [ 17.76561141, 48.786315 ], [ 17.76555967, 48.78625511 ], [ 17.76554513, 48.78623697 ], [ 17.76553652, 48.78622624 ], [ 17.76548387, 48.78614552 ], [ 17.76545498, 48.78612542 ], [ 17.76537898, 48.78607479 ], [ 17.76532256, 48.78603855 ], [ 17.76526336, 48.78600159 ], [ 17.76519474, 48.78596072 ], [ 17.76510893, 48.78591473 ], [ 17.76503647, 48.78588564 ], [ 17.76483193, 48.7858004 ], [ 17.76462449, 48.78572023 ], [ 17.76451465, 48.78567313 ], [ 17.76442427, 48.78562659 ], [ 17.76432997, 48.78559823 ], [ 17.76430495, 48.78572983 ], [ 17.76482074, 48.78593375 ], [ 17.76485661, 48.78594796 ] ] ] } },
{ "type": "Feature", "properties": { "@featureType": "CadastralParcel", "areaValue": { "value": 90, "@uom": "m2" }, "beginLifespanVersion": { "@nilReason": "http://inspire.ec.europa.eu/codelist/VoidReasonValue/Unpopulated", "@nil": "true" }, "endLifespanVersion": { "@nilReason": "http://inspire.ec.europa.eu/codelist/VoidReasonValue/Unpopulated", "@nil": "true" }, "inspireId": { "@dataType": "Identifier", "localId": "807826_250.E", "namespace": "SK.ESKN.CP", "versionId": "20260703T07:07:06" }, "label": "250", "nationalCadastralReference": "807826_250.E", "referencePoint": { "type": "Point", "coordinates": [ 17.76702033, 48.788253 ] }, "validFrom": "2026-06-30T16:00:00Z", "validTo": { "@nilReason": "http://inspire.ec.europa.eu/codelist/VoidReasonValue/Unpopulated", "@nil": "true" }, "administrativeUnit": { "@href": "#auAdmUnitS.2529" } }, "geometry": { "type": "Polygon", "coordinates": [ [ [ 17.76698907, 48.78818506 ], [ 17.7669684, 48.78820962 ], [ 17.76692641, 48.788243 ], [ 17.76699515, 48.78828306 ], [ 17.76703192, 48.78830446 ], [ 17.767083, 48.78826189 ], [ 17.76711119, 48.7882441 ], [ 17.76698907, 48.78818506 ] ] ] } },
{ "type": "Feature", "properties": { "@featureType": "CadastralParcel", "areaValue": { "value": 143, "@uom": "m2" }, "beginLifespanVersion": { "@nilReason": "http://inspire.ec.europa.eu/codelist/VoidReasonValue/Unpopulated", "@nil": "true" }, "endLifespanVersion": { "@nilReason": "http://inspire.ec.europa.eu/codelist/VoidReasonValue/Unpopulated", "@nil": "true" }, "inspireId": { "@dataType": "Identifier", "localId": "807826_275.E", "namespace": "SK.ESKN.CP", "versionId": "20260703T07:07:06" }, "label": "275", "nationalCadastralReference": "807826_275.E", "referencePoint": { "type": "Point", "coordinates": [ 17.76686071, 48.78817062 ] }, "validFrom": "2026-06-30T16:00:00Z", "validTo": { "@nilReason": "http://inspire.ec.europa.eu/codelist/VoidReasonValue/Unpopulated", "@nil": "true" }, "administrativeUnit": { "@href": "#auAdmUnitS.2529" } }, "geometry": { "type": "Polygon", "coordinates": [ [ [ 17.76687157, 48.78821101 ], [ 17.76696696, 48.78813023 ], [ 17.76683401, 48.78805878 ], [ 17.76678009, 48.78810018 ], [ 17.76673104, 48.78812924 ], [ 17.76687157, 48.78821101 ] ] ] } }
]
}
