{
"type": "FeatureCollection",
"name": "gis",
"crs": { "type": "name", "properties": { "name": "urn:ogc:def:crs:OGC:1.3:CRS84" } },
"features": [
{ "type": "Feature", "properties": { "@featureType": "CadastralParcel", "areaValue": { "value": 36, "@uom": "m2" }, "beginLifespanVersion": { "@nilReason": "http://inspire.ec.europa.eu/codelist/VoidReasonValue/Unpopulated", "@nil": "true" }, "endLifespanVersion": { "@nilReason": "http://inspire.ec.europa.eu/codelist/VoidReasonValue/Unpopulated", "@nil": "true" }, "inspireId": { "@dataType": "Identifier", "localId": "804274_15512/10.C", "namespace": "SK.ESKN.CP", "versionId": "20260703T04:07:46" }, "label": "15512/10", "nationalCadastralReference": "804274_15512/10.C", "referencePoint": { "type": "Point", "coordinates": [ 17.15724081, 48.1487168 ] }, "validFrom": "2026-06-30T16:00:00Z", "validTo": { "@nilReason": "http://inspire.ec.europa.eu/codelist/VoidReasonValue/Unpopulated", "@nil": "true" }, "administrativeUnit": { "@href": "#auAdmUnitS.2397" } }, "geometry": { "type": "Polygon", "coordinates": [ [ [ 17.15726153, 48.14876041 ], [ 17.15727259, 48.14867619 ], [ 17.15722006, 48.14867337 ], [ 17.15720904, 48.14875741 ], [ 17.15726153, 48.14876041 ] ] ] } },
{ "type": "Feature", "properties": { "@featureType": "CadastralParcel", "areaValue": { "value": 36, "@uom": "m2" }, "beginLifespanVersion": { "@nilReason": "http://inspire.ec.europa.eu/codelist/VoidReasonValue/Unpopulated", "@nil": "true" }, "endLifespanVersion": { "@nilReason": "http://inspire.ec.europa.eu/codelist/VoidReasonValue/Unpopulated", "@nil": "true" }, "inspireId": { "@dataType": "Identifier", "localId": "804274_15512/11.C", "namespace": "SK.ESKN.CP", "versionId": "20260703T04:07:46" }, "label": "15512/11", "nationalCadastralReference": "804274_15512/11.C", "referencePoint": { "type": "Point", "coordinates": [ 17.15718882, 48.14871412 ] }, "validFrom": "2026-06-30T16:00:00Z", "validTo": { "@nilReason": "http://inspire.ec.europa.eu/codelist/VoidReasonValue/Unpopulated", "@nil": "true" }, "administrativeUnit": { "@href": "#auAdmUnitS.2397" } }, "geometry": { "type": "Polygon", "coordinates": [ [ [ 17.15720904, 48.14875741 ], [ 17.15722006, 48.14867337 ], [ 17.15716836, 48.14867052 ], [ 17.15715782, 48.14875486 ], [ 17.15720904, 48.14875741 ] ] ] } },
{ "type": "Feature", "properties": { "@featureType": "CadastralParcel", "areaValue": { "value": 36, "@uom": "m2" }, "beginLifespanVersion": { "@nilReason": "http://inspire.ec.europa.eu/codelist/VoidReasonValue/Unpopulated", "@nil": "true" }, "endLifespanVersion": { "@nilReason": "http://inspire.ec.europa.eu/codelist/VoidReasonValue/Unpopulated", "@nil": "true" }, "inspireId": { "@dataType": "Identifier", "localId": "804274_15512/12.C", "namespace": "SK.ESKN.CP", "versionId": "20260703T04:07:46" }, "label": "15512/12", "nationalCadastralReference": "804274_15512/12.C", "referencePoint": { "type": "Point", "coordinates": [ 17.15713715, 48.14871139 ] }, "validFrom": "2026-06-30T16:00:00Z", "validTo": { "@nilReason": "http://inspire.ec.europa.eu/codelist/VoidReasonValue/Unpopulated", "@nil": "true" }, "administrativeUnit": { "@href": "#auAdmUnitS.2397" } }, "geometry": { "type": "Polygon", "coordinates": [ [ [ 17.15715782, 48.14875486 ], [ 17.15716836, 48.14867052 ], [ 17.15711659, 48.14866811 ], [ 17.15710581, 48.14875226 ], [ 17.15715782, 48.14875486 ] ] ] } },
{ "type": "Feature", "properties": { "@featureType": "CadastralParcel", "areaValue": { "value": 36, "@uom": "m2" }, "beginLifespanVersion": { "@nilReason": "http://inspire.ec.europa.eu/codelist/VoidReasonValue/Unpopulated", "@nil": "true" }, "endLifespanVersion": { "@nilReason": "http://inspire.ec.europa.eu/codelist/VoidReasonValue/Unpopulated", "@nil": "true" }, "inspireId": { "@dataType": "Identifier", "localId": "804274_15512/13.C", "namespace": "SK.ESKN.CP", "versionId": "20260703T04:07:46" }, "label": "15512/13", "nationalCadastralReference": "804274_15512/13.C", "referencePoint": { "type": "Point", "coordinates": [ 17.15708494, 48.14870867 ] }, "validFrom": "2026-06-30T16:00:00Z", "validTo": { "@nilReason": "http://inspire.ec.europa.eu/codelist/VoidReasonValue/Unpopulated", "@nil": "true" }, "administrativeUnit": { "@href": "#auAdmUnitS.2397" } }, "geometry": { "type": "Polygon", "coordinates": [ [ [ 17.15710581, 48.14875226 ], [ 17.15711659, 48.14866811 ], [ 17.15706464, 48.14866506 ], [ 17.15705278, 48.14874923 ], [ 17.15710581, 48.14875226 ] ] ] } },
{ "type": "Feature", "properties": { "@featureType": "CadastralParcel", "areaValue": { "value": 36, "@uom": "m2" }, "beginLifespanVersion": { "@nilReason": "http://inspire.ec.europa.eu/codelist/VoidReasonValue/Unpopulated", "@nil": "true" }, "endLifespanVersion": { "@nilReason": "http://inspire.ec.europa.eu/codelist/VoidReasonValue/Unpopulated", "@nil": "true" }, "inspireId": { "@dataType": "Identifier", "localId": "804274_15512/14.C", "namespace": "SK.ESKN.CP", "versionId": "20260703T04:07:46" }, "label": "15512/14", "nationalCadastralReference": "804274_15512/14.C", "referencePoint": { "type": "Point", "coordinates": [ 17.15703297, 48.14870587 ] }, "validFrom": "2026-06-30T16:00:00Z", "validTo": { "@nilReason": "http://inspire.ec.europa.eu/codelist/VoidReasonValue/Unpopulated", "@nil": "true" }, "administrativeUnit": { "@href": "#auAdmUnitS.2397" } }, "geometry": { "type": "Polygon", "coordinates": [ [ [ 17.15705278, 48.14874923 ], [ 17.15706464, 48.14866506 ], [ 17.15701287, 48.14866266 ], [ 17.15700157, 48.14874668 ], [ 17.15705278, 48.14874923 ] ] ] } },
{ "type": "Feature", "properties": { "@featureType": "CadastralParcel", "areaValue": { "value": 36, "@uom": "m2" }, "beginLifespanVersion": { "@nilReason": "http://inspire.ec.europa.eu/codelist/VoidReasonValue/Unpopulated", "@nil": "true" }, "endLifespanVersion": { "@nilReason": "http://inspire.ec.europa.eu/codelist/VoidReasonValue/Unpopulated", "@nil": "true" }, "inspireId": { "@dataType": "Identifier", "localId": "804274_15512/15.C", "namespace": "SK.ESKN.CP", "versionId": "20260703T04:07:46" }, "label": "15512/15", "nationalCadastralReference": "804274_15512/15.C", "referencePoint": { "type": "Point", "coordinates": [ 17.15698095, 48.14870331 ] }, "validFrom": "2026-06-30T16:00:00Z", "validTo": { "@nilReason": "http://inspire.ec.europa.eu/codelist/VoidReasonValue/Unpopulated", "@nil": "true" }, "administrativeUnit": { "@href": "#auAdmUnitS.2397" } }, "geometry": { "type": "Polygon", "coordinates": [ [ [ 17.15700157, 48.14874668 ], [ 17.15701287, 48.14866266 ], [ 17.15696006, 48.14865991 ], [ 17.1569493, 48.14874397 ], [ 17.15700157, 48.14874668 ] ] ] } },
{ "type": "Feature", "properties": { "@featureType": "CadastralParcel", "areaValue": { "value": 39, "@uom": "m2" }, "beginLifespanVersion": { "@nilReason": "http://inspire.ec.europa.eu/codelist/VoidReasonValue/Unpopulated", "@nil": "true" }, "endLifespanVersion": { "@nilReason": "http://inspire.ec.europa.eu/codelist/VoidReasonValue/Unpopulated", "@nil": "true" }, "inspireId": { "@dataType": "Identifier", "localId": "804274_15512/16.C", "namespace": "SK.ESKN.CP", "versionId": "20260703T04:07:46" }, "label": "15512/16", "nationalCadastralReference": "804274_15512/16.C", "referencePoint": { "type": "Point", "coordinates": [ 17.15692736, 48.14870048 ] }, "validFrom": "2026-06-30T16:00:00Z", "validTo": { "@nilReason": "http://inspire.ec.europa.eu/codelist/VoidReasonValue/Unpopulated", "@nil": "true" }, "administrativeUnit": { "@href": "#auAdmUnitS.2397" } }, "geometry": { "type": "Polygon", "coordinates": [ [ [ 17.1569493, 48.14874397 ], [ 17.15696006, 48.14865991 ], [ 17.15690495, 48.14865638 ], [ 17.15689518, 48.14874104 ], [ 17.1569493, 48.14874397 ] ] ] } },
{ "type": "Feature", "properties": { "@featureType": "CadastralParcel", "areaValue": { "value": 4333, "@uom": "m2" }, "beginLifespanVersion": { "@nilReason": "http://inspire.ec.europa.eu/codelist/VoidReasonValue/Unpopulated", "@nil": "true" }, "endLifespanVersion": { "@nilReason": "http://inspire.ec.europa.eu/codelist/VoidReasonValue/Unpopulated", "@nil": "true" }, "inspireId": { "@dataType": "Identifier", "localId": "804274_15512/2.C", "namespace": "SK.ESKN.CP", "versionId": "20260703T04:07:46" }, "label": "15512/2", "nationalCadastralReference": "804274_15512/2.C", "referencePoint": { "type": "Point", "coordinates": [ 17.15747226, 48.14848528 ] }, "validFrom": "2026-06-30T16:00:00Z", "validTo": { "@nilReason": "http://inspire.ec.europa.eu/codelist/VoidReasonValue/Unpopulated", "@nil": "true" }, "administrativeUnit": { "@href": "#auAdmUnitS.2397" } }, "geometry": { "type": "Polygon", "coordinates": [ [ [ 17.15787286, 48.14881589 ], [ 17.15787643, 48.14879218 ], [ 17.1579117, 48.14853361 ], [ 17.15791956, 48.14846879 ], [ 17.15792163, 48.14845239 ], [ 17.15792231, 48.14844692 ], [ 17.15795746, 48.14817126 ], [ 17.15776643, 48.14816797 ], [ 17.15775702, 48.1481677 ], [ 17.15766179, 48.14816598 ], [ 17.15765372, 48.1481657 ], [ 17.15689755, 48.14814836 ], [ 17.15680642, 48.14814628 ], [ 17.15681523, 48.14840448 ], [ 17.15682834, 48.14879204 ], [ 17.15718607, 48.14878976 ], [ 17.15748005, 48.14878833 ], [ 17.15747992, 48.14880532 ], [ 17.15777076, 48.14882302 ], [ 17.15777241, 48.14881201 ], [ 17.15787286, 48.14881589 ] ], [ [ 17.1569493, 48.14874397 ], [ 17.15689518, 48.14874104 ], [ 17.15690495, 48.14865638 ], [ 17.15696006, 48.14865991 ], [ 17.15701287, 48.14866266 ], [ 17.15706464, 48.14866506 ], [ 17.15711659, 48.14866811 ], [ 17.15716836, 48.14867052 ], [ 17.15722006, 48.14867337 ], [ 17.15727259, 48.14867619 ], [ 17.15732439, 48.14867841 ], [ 17.15737829, 48.14868105 ], [ 17.15742995, 48.14868417 ], [ 17.1574862, 48.14868824 ], [ 17.15747597, 48.14877233 ], [ 17.15741828, 48.14876889 ], [ 17.15736655, 48.14876622 ], [ 17.1573135, 48.14876328 ], [ 17.15726153, 48.14876041 ], [ 17.15720904, 48.14875741 ], [ 17.15715782, 48.14875486 ], [ 17.15710581, 48.14875226 ], [ 17.15705278, 48.14874923 ], [ 17.15700157, 48.14874668 ], [ 17.1569493, 48.14874397 ] ], [ [ 17.15774161, 48.14878517 ], [ 17.15758671, 48.14877781 ], [ 17.15761989, 48.1485125 ], [ 17.15765454, 48.14851384 ], [ 17.15765604, 48.14850029 ], [ 17.15767854, 48.14850154 ], [ 17.15777904, 48.14850686 ], [ 17.15777733, 48.14852004 ], [ 17.15774161, 48.14878517 ] ], [ [ 17.15699185, 48.14857528 ], [ 17.15691788, 48.14857319 ], [ 17.1569211, 48.14854457 ], [ 17.15699378, 48.14854631 ], [ 17.15699185, 48.14857528 ] ], [ [ 17.15702046, 48.14853952 ], [ 17.15691968, 48.14853426 ], [ 17.15695129, 48.14826867 ], [ 17.15712876, 48.14827765 ], [ 17.15711942, 48.14835765 ], [ 17.15708856, 48.14835629 ], [ 17.15708703, 48.14836649 ], [ 17.15708575, 48.14838213 ], [ 17.15706411, 48.14838058 ], [ 17.15706563, 48.14836505 ], [ 17.15706659, 48.14835508 ], [ 17.15704194, 48.14835378 ], [ 17.15703285, 48.14843388 ], [ 17.15705291, 48.14843523 ], [ 17.1570817, 48.148436 ], [ 17.15707985, 48.14845006 ], [ 17.15705092, 48.14844848 ], [ 17.15704844, 48.14847027 ], [ 17.15702891, 48.14846905 ], [ 17.15702046, 48.14853952 ] ], [ [ 17.15768973, 48.14844065 ], [ 17.15766732, 48.14843878 ], [ 17.15767353, 48.14838677 ], [ 17.15766096, 48.14838592 ], [ 17.15766622, 48.14834922 ], [ 17.15767773, 48.1483499 ], [ 17.15768291, 48.14829756 ], [ 17.15774266, 48.14830077 ], [ 17.15775123, 48.14830126 ], [ 17.15777776, 48.14830268 ], [ 17.15776505, 48.14844455 ], [ 17.15772402, 48.1484426 ], [ 17.15772323, 48.1484514 ], [ 17.15768873, 48.14844908 ], [ 17.15768973, 48.14844065 ] ], [ [ 17.15732828, 48.14840761 ], [ 17.15716491, 48.14839822 ], [ 17.15718155, 48.14827868 ], [ 17.15749871, 48.14829644 ], [ 17.15748179, 48.14841606 ], [ 17.1573695, 48.14841011 ], [ 17.15732828, 48.14840761 ] ] ] } },
{ "type": "Feature", "properties": { "@featureType": "CadastralParcel", "areaValue": { "value": 373, "@uom": "m2" }, "beginLifespanVersion": { "@nilReason": "http://inspire.ec.europa.eu/codelist/VoidReasonValue/Unpopulated", "@nil": "true" }, "endLifespanVersion": { "@nilReason": "http://inspire.ec.europa.eu/codelist/VoidReasonValue/Unpopulated", "@nil": "true" }, "inspireId": { "@dataType": "Identifier", "localId": "804274_15512/17.C", "namespace": "SK.ESKN.CP", "versionId": "20260703T04:07:46" }, "label": "15512/17", "nationalCadastralReference": "804274_15512/17.C", "referencePoint": { "type": "Point", "coordinates": [ 17.1576814, 48.14864892 ] }, "validFrom": "2026-06-30T16:00:00Z", "validTo": { "@nilReason": "http://inspire.ec.europa.eu/codelist/VoidReasonValue/Unpopulated", "@nil": "true" }, "administrativeUnit": { "@href": "#auAdmUnitS.2397" } }, "geometry": { "type": "Polygon", "coordinates": [ [ [ 17.15758671, 48.14877781 ], [ 17.15774161, 48.14878517 ], [ 17.15777733, 48.14852004 ], [ 17.15777904, 48.14850686 ], [ 17.15767854, 48.14850154 ], [ 17.15765604, 48.14850029 ], [ 17.15765454, 48.14851384 ], [ 17.15761989, 48.1485125 ], [ 17.15758671, 48.14877781 ] ] ] } },
{ "type": "Feature", "properties": { "@featureType": "CadastralParcel", "areaValue": { "value": 18, "@uom": "m2" }, "beginLifespanVersion": { "@nilReason": "http://inspire.ec.europa.eu/codelist/VoidReasonValue/Unpopulated", "@nil": "true" }, "endLifespanVersion": { "@nilReason": "http://inspire.ec.europa.eu/codelist/VoidReasonValue/Unpopulated", "@nil": "true" }, "inspireId": { "@dataType": "Identifier", "localId": "804274_15512/5.C", "namespace": "SK.ESKN.CP", "versionId": "20260703T04:07:46" }, "label": "15512/5", "nationalCadastralReference": "804274_15512/5.C", "referencePoint": { "type": "Point", "coordinates": [ 17.15695614, 48.14855975 ] }, "validFrom": "2026-06-30T16:00:00Z", "validTo": { "@nilReason": "http://inspire.ec.europa.eu/codelist/VoidReasonValue/Unpopulated", "@nil": "true" }, "administrativeUnit": { "@href": "#auAdmUnitS.2397" } }, "geometry": { "type": "Polygon", "coordinates": [ [ [ 17.15691788, 48.14857319 ], [ 17.15699185, 48.14857528 ], [ 17.15699378, 48.14854631 ], [ 17.1569211, 48.14854457 ], [ 17.15691788, 48.14857319 ] ] ] } },
{ "type": "Feature", "properties": { "@featureType": "CadastralParcel", "areaValue": { "value": 286, "@uom": "m2" }, "beginLifespanVersion": { "@nilReason": "http://inspire.ec.europa.eu/codelist/VoidReasonValue/Unpopulated", "@nil": "true" }, "endLifespanVersion": { "@nilReason": "http://inspire.ec.europa.eu/codelist/VoidReasonValue/Unpopulated", "@nil": "true" }, "inspireId": { "@dataType": "Identifier", "localId": "804274_15512/4.C", "namespace": "SK.ESKN.CP", "versionId": "20260703T04:07:46" }, "label": "15512/4", "nationalCadastralReference": "804274_15512/4.C", "referencePoint": { "type": "Point", "coordinates": [ 17.15698525, 48.14840801 ] }, "validFrom": "2026-06-30T16:00:00Z", "validTo": { "@nilReason": "http://inspire.ec.europa.eu/codelist/VoidReasonValue/Unpopulated", "@nil": "true" }, "administrativeUnit": { "@href": "#auAdmUnitS.2397" } }, "geometry": { "type": "Polygon", "coordinates": [ [ [ 17.15691968, 48.14853426 ], [ 17.15702046, 48.14853952 ], [ 17.15702891, 48.14846905 ], [ 17.15704844, 48.14847027 ], [ 17.15705092, 48.14844848 ], [ 17.15707985, 48.14845006 ], [ 17.1570817, 48.148436 ], [ 17.15705291, 48.14843523 ], [ 17.15703285, 48.14843388 ], [ 17.15704194, 48.14835378 ], [ 17.15706659, 48.14835508 ], [ 17.15706563, 48.14836505 ], [ 17.15706411, 48.14838058 ], [ 17.15708575, 48.14838213 ], [ 17.15708703, 48.14836649 ], [ 17.15708856, 48.14835629 ], [ 17.15711942, 48.14835765 ], [ 17.15712876, 48.14827765 ], [ 17.15695129, 48.14826867 ], [ 17.15691968, 48.14853426 ] ] ] } },
{ "type": "Feature", "properties": { "@featureType": "CadastralParcel", "areaValue": { "value": 123, "@uom": "m2" }, "beginLifespanVersion": { "@nilReason": "http://inspire.ec.europa.eu/codelist/VoidReasonValue/Unpopulated", "@nil": "true" }, "endLifespanVersion": { "@nilReason": "http://inspire.ec.europa.eu/codelist/VoidReasonValue/Unpopulated", "@nil": "true" }, "inspireId": { "@dataType": "Identifier", "localId": "804274_15512/18.C", "namespace": "SK.ESKN.CP", "versionId": "20260703T04:07:46" }, "label": "15512/18", "nationalCadastralReference": "804274_15512/18.C", "referencePoint": { "type": "Point", "coordinates": [ 17.15771773, 48.14836791 ] }, "validFrom": "2026-06-30T16:00:00Z", "validTo": { "@nilReason": "http://inspire.ec.europa.eu/codelist/VoidReasonValue/Unpopulated", "@nil": "true" }, "administrativeUnit": { "@href": "#auAdmUnitS.2397" } }, "geometry": { "type": "Polygon", "coordinates": [ [ [ 17.15766732, 48.14843878 ], [ 17.15768973, 48.14844065 ], [ 17.15768873, 48.14844908 ], [ 17.15772323, 48.1484514 ], [ 17.15772402, 48.1484426 ], [ 17.15776505, 48.14844455 ], [ 17.15777776, 48.14830268 ], [ 17.15775123, 48.14830126 ], [ 17.15774266, 48.14830077 ], [ 17.15768291, 48.14829756 ], [ 17.15767773, 48.1483499 ], [ 17.15766622, 48.14834922 ], [ 17.15766096, 48.14838592 ], [ 17.15767353, 48.14838677 ], [ 17.15766732, 48.14843878 ] ] ] } },
{ "type": "Feature", "properties": { "@featureType": "CadastralParcel", "areaValue": { "value": 318, "@uom": "m2" }, "beginLifespanVersion": { "@nilReason": "http://inspire.ec.europa.eu/codelist/VoidReasonValue/Unpopulated", "@nil": "true" }, "endLifespanVersion": { "@nilReason": "http://inspire.ec.europa.eu/codelist/VoidReasonValue/Unpopulated", "@nil": "true" }, "inspireId": { "@dataType": "Identifier", "localId": "804274_15512/3.C", "namespace": "SK.ESKN.CP", "versionId": "20260703T04:07:46" }, "label": "15512/3", "nationalCadastralReference": "804274_15512/3.C", "referencePoint": { "type": "Point", "coordinates": [ 17.15733175, 48.14834733 ] }, "validFrom": "2026-06-30T16:00:00Z", "validTo": { "@nilReason": "http://inspire.ec.europa.eu/codelist/VoidReasonValue/Unpopulated", "@nil": "true" }, "administrativeUnit": { "@href": "#auAdmUnitS.2397" } }, "geometry": { "type": "Polygon", "coordinates": [ [ [ 17.15716491, 48.14839822 ], [ 17.15732828, 48.14840761 ], [ 17.1573695, 48.14841011 ], [ 17.15748179, 48.14841606 ], [ 17.15749871, 48.14829644 ], [ 17.15718155, 48.14827868 ], [ 17.15716491, 48.14839822 ] ] ] } },
{ "type": "Feature", "properties": { "@featureType": "CadastralParcel", "areaValue": { "value": 36, "@uom": "m2" }, "beginLifespanVersion": { "@nilReason": "http://inspire.ec.europa.eu/codelist/VoidReasonValue/Unpopulated", "@nil": "true" }, "endLifespanVersion": { "@nilReason": "http://inspire.ec.europa.eu/codelist/VoidReasonValue/Unpopulated", "@nil": "true" }, "inspireId": { "@dataType": "Identifier", "localId": "804274_15512/7.C", "namespace": "SK.ESKN.CP", "versionId": "20260703T04:07:46" }, "label": "15512/7", "nationalCadastralReference": "804274_15512/7.C", "referencePoint": { "type": "Point", "coordinates": [ 17.15739825, 48.1487252 ] }, "validFrom": "2026-06-30T16:00:00Z", "validTo": { "@nilReason": "http://inspire.ec.europa.eu/codelist/VoidReasonValue/Unpopulated", "@nil": "true" }, "administrativeUnit": { "@href": "#auAdmUnitS.2397" } }, "geometry": { "type": "Polygon", "coordinates": [ [ [ 17.15741828, 48.14876889 ], [ 17.15742995, 48.14868417 ], [ 17.15737829, 48.14868105 ], [ 17.15736655, 48.14876622 ], [ 17.15741828, 48.14876889 ] ] ] } },
{ "type": "Feature", "properties": { "@featureType": "CadastralParcel", "areaValue": { "value": 38, "@uom": "m2" }, "beginLifespanVersion": { "@nilReason": "http://inspire.ec.europa.eu/codelist/VoidReasonValue/Unpopulated", "@nil": "true" }, "endLifespanVersion": { "@nilReason": "http://inspire.ec.europa.eu/codelist/VoidReasonValue/Unpopulated", "@nil": "true" }, "inspireId": { "@dataType": "Identifier", "localId": "804274_15512/8.C", "namespace": "SK.ESKN.CP", "versionId": "20260703T04:07:46" }, "label": "15512/8", "nationalCadastralReference": "804274_15512/8.C", "referencePoint": { "type": "Point", "coordinates": [ 17.15745257, 48.14872856 ] }, "validFrom": "2026-06-30T16:00:00Z", "validTo": { "@nilReason": "http://inspire.ec.europa.eu/codelist/VoidReasonValue/Unpopulated", "@nil": "true" }, "administrativeUnit": { "@href": "#auAdmUnitS.2397" } }, "geometry": { "type": "Polygon", "coordinates": [ [ [ 17.15742995, 48.14868417 ], [ 17.15741828, 48.14876889 ], [ 17.15747597, 48.14877233 ], [ 17.1574862, 48.14868824 ], [ 17.15742995, 48.14868417 ] ] ] } },
{ "type": "Feature", "properties": { "@featureType": "CadastralParcel", "areaValue": { "value": 37, "@uom": "m2" }, "beginLifespanVersion": { "@nilReason": "http://inspire.ec.europa.eu/codelist/VoidReasonValue/Unpopulated", "@nil": "true" }, "endLifespanVersion": { "@nilReason": "http://inspire.ec.europa.eu/codelist/VoidReasonValue/Unpopulated", "@nil": "true" }, "inspireId": { "@dataType": "Identifier", "localId": "804274_15512/6.C", "namespace": "SK.ESKN.CP", "versionId": "20260703T04:07:46" }, "label": "15512/6", "nationalCadastralReference": "804274_15512/6.C", "referencePoint": { "type": "Point", "coordinates": [ 17.1573457, 48.14872216 ] }, "validFrom": "2026-06-30T16:00:00Z", "validTo": { "@nilReason": "http://inspire.ec.europa.eu/codelist/VoidReasonValue/Unpopulated", "@nil": "true" }, "administrativeUnit": { "@href": "#auAdmUnitS.2397" } }, "geometry": { "type": "Polygon", "coordinates": [ [ [ 17.15736655, 48.14876622 ], [ 17.15737829, 48.14868105 ], [ 17.15732439, 48.14867841 ], [ 17.1573135, 48.14876328 ], [ 17.15736655, 48.14876622 ] ] ] } },
{ "type": "Feature", "properties": { "@featureType": "CadastralParcel", "areaValue": { "value": 36, "@uom": "m2" }, "beginLifespanVersion": { "@nilReason": "http://inspire.ec.europa.eu/codelist/VoidReasonValue/Unpopulated", "@nil": "true" }, "endLifespanVersion": { "@nilReason": "http://inspire.ec.europa.eu/codelist/VoidReasonValue/Unpopulated", "@nil": "true" }, "inspireId": { "@dataType": "Identifier", "localId": "804274_15512/9.C", "namespace": "SK.ESKN.CP", "versionId": "20260703T04:07:46" }, "label": "15512/9", "nationalCadastralReference": "804274_15512/9.C", "referencePoint": { "type": "Point", "coordinates": [ 17.15729302, 48.14871941 ] }, "validFrom": "2026-06-30T16:00:00Z", "validTo": { "@nilReason": "http://inspire.ec.europa.eu/codelist/VoidReasonValue/Unpopulated", "@nil": "true" }, "administrativeUnit": { "@href": "#auAdmUnitS.2397" } }, "geometry": { "type": "Polygon", "coordinates": [ [ [ 17.1573135, 48.14876328 ], [ 17.15732439, 48.14867841 ], [ 17.15727259, 48.14867619 ], [ 17.15726153, 48.14876041 ], [ 17.1573135, 48.14876328 ] ] ] } }
]
}
