{
"type": "FeatureCollection",
"name": "gis",
"crs": { "type": "name", "properties": { "name": "urn:ogc:def:crs:OGC:1.3:CRS84" } },
"features": [
{ "type": "Feature", "properties": { "@featureType": "CadastralZoning", "beginLifespanVersion": { "@nilReason": "http://inspire.ec.europa.eu/codelist/VoidReasonValue/Unpopulated", "@nil": "true" }, "endLifespanVersion": { "@nilReason": "http://inspire.ec.europa.eu/codelist/VoidReasonValue/Unpopulated", "@nil": "true" }, "estimatedAccuracy": { "value": -1, "@uom": "m" }, "inspireId": { "@dataType": "Identifier", "localId": "861553", "namespace": "SK.ESKN.CP", "versionId": "20260703T04:07:40" }, "label": "Štúrovo", "level": { "@href": "http://inspire.ec.europa.eu/codelist/CadastralZoningLevelValue/3rdOrder" }, "levelName": { "value": "Katastrálne územie", "@locale": "sk" }, "name": { "@dataType": "name", "GeographicalName": { "@dataType": "GeographicalName", "language": "SLK", "nativeness": { "@href": "http://inspire.ec.europa.eu/codelist/NativenessValue/endonym", "@title": "endonym" }, "nameStatus": { "@href": "http://inspire.ec.europa.eu/codelist/NameStatusValue/official", "@title": "official" }, "sourceOfName": { "@nilReason": "http://inspire.ec.europa.eu/codelist/VoidReasonValue/Unpopulated", "@nil": "true" }, "pronunciation": { "@dataType": "pronunciation", "@nilReason": "http://inspire.ec.europa.eu/codelist/VoidReasonValue/Unpopulated", "@nil": "true" }, "spelling": { "@dataType": "SpellingOfName", "text": "Štúrovo", "script": "LATN" } } }, "nationalCadastalZoningReference": "861553", "validFrom": "2026-06-30T16:00:00Z", "validTo": { "@nilReason": "http://inspire.ec.europa.eu/codelist/VoidReasonValue/Unpopulated", "@nil": "true" } }, "geometry": { "type": "MultiPolygon", "coordinates": [ [ [ [ 18.73836172, 47.81933434 ], [ 18.73909209, 47.81907395 ], [ 18.73962535, 47.81902771 ], [ 18.74029736, 47.81907228 ], [ 18.74030364, 47.81925911 ], [ 18.74085517, 47.81928603 ], [ 18.74067782, 47.81861382 ], [ 18.74728413, 47.8150363 ], [ 18.74515485, 47.81465877 ], [ 18.74276468, 47.81425393 ], [ 18.7420881, 47.81408895 ], [ 18.74142956, 47.8138938 ], [ 18.74079179, 47.81366918 ], [ 18.74017829, 47.81341608 ], [ 18.73959132, 47.81313571 ], [ 18.73899917, 47.81276575 ], [ 18.73851436, 47.81245424 ], [ 18.73804021, 47.81213526 ], [ 18.73639821, 47.8109924 ], [ 18.73570642, 47.81048597 ], [ 18.7350515, 47.80995778 ], [ 18.7344352, 47.80940902 ], [ 18.73385884, 47.80884084 ], [ 18.73332374, 47.80825467 ], [ 18.73283095, 47.80765173 ], [ 18.73248117, 47.80710448 ], [ 18.73215283, 47.80655143 ], [ 18.73184596, 47.80599259 ], [ 18.73156059, 47.8054286 ], [ 18.73126196, 47.80480028 ], [ 18.7310106, 47.80412226 ], [ 18.73081242, 47.80343637 ], [ 18.73051664, 47.80228599 ], [ 18.73042877, 47.80173153 ], [ 18.73040457, 47.80117428 ], [ 18.73050582, 47.79882563 ], [ 18.73037621, 47.79742706 ], [ 18.73012723, 47.79603587 ], [ 18.7298271, 47.79461314 ], [ 18.72959475, 47.79375281 ], [ 18.72920916, 47.79291798 ], [ 18.72867627, 47.79212068 ], [ 18.72813753, 47.79150622 ], [ 18.72718384, 47.79047883 ], [ 18.72613399, 47.78949497 ], [ 18.7249923, 47.78855885 ], [ 18.72376342, 47.78767413 ], [ 18.72245278, 47.78684463 ], [ 18.72159405, 47.78641868 ], [ 18.7206956, 47.78603199 ], [ 18.71876446, 47.78521346 ], [ 18.71690621, 47.7843216 ], [ 18.71512706, 47.78335936 ], [ 18.71362713, 47.78241821 ], [ 18.71224639, 47.78164596 ], [ 18.71090483, 47.78084288 ], [ 18.7096038, 47.78001003 ], [ 18.70834493, 47.77914823 ], [ 18.70561889, 47.77726281 ], [ 18.70504798, 47.77696154 ], [ 18.70444806, 47.77668695 ], [ 18.7016932, 47.77555739 ], [ 18.7008622, 47.77527912 ], [ 18.69999854, 47.7750504 ], [ 18.69798925, 47.77462082 ], [ 18.69649659, 47.77430164 ], [ 18.69618732, 47.77467304 ], [ 18.69480607, 47.77633139 ], [ 18.69477123, 47.77637326 ], [ 18.69465312, 47.77651519 ], [ 18.69457471, 47.77660929 ], [ 18.69417071, 47.77645686 ], [ 18.69381242, 47.77642852 ], [ 18.69325564, 47.77641794 ], [ 18.69282752, 47.77642299 ], [ 18.69233186, 47.77650495 ], [ 18.69201421, 47.7765758 ], [ 18.69170993, 47.77665576 ], [ 18.69140753, 47.77680187 ], [ 18.69112765, 47.77696121 ], [ 18.6909552, 47.77709965 ], [ 18.69088147, 47.7771589 ], [ 18.69069798, 47.77734953 ], [ 18.69052506, 47.77754236 ], [ 18.69018326, 47.77792227 ], [ 18.68998074, 47.77810618 ], [ 18.68979667, 47.77829037 ], [ 18.68960107, 47.77849045 ], [ 18.68943662, 47.77869745 ], [ 18.68928547, 47.77887945 ], [ 18.68917544, 47.77902867 ], [ 18.68901986, 47.77923543 ], [ 18.68878646, 47.77964901 ], [ 18.68867021, 47.77986601 ], [ 18.6884889, 47.78005613 ], [ 18.68830206, 47.78023538 ], [ 18.68807698, 47.78039741 ], [ 18.68784344, 47.78055843 ], [ 18.6875969, 47.7807017 ], [ 18.68708734, 47.7809895 ], [ 18.68682982, 47.78113614 ], [ 18.68658132, 47.78129572 ], [ 18.68643544, 47.78137731 ], [ 18.68603062, 47.78164769 ], [ 18.68569187, 47.78183775 ], [ 18.68525783, 47.78202867 ], [ 18.68505312, 47.78208046 ], [ 18.68498326, 47.78211619 ], [ 18.68483912, 47.78218876 ], [ 18.68475091, 47.78223469 ], [ 18.68449642, 47.78237373 ], [ 18.6843267, 47.78244527 ], [ 18.68393471, 47.782617 ], [ 18.68353663, 47.7827903 ], [ 18.68327188, 47.78289305 ], [ 18.68307795, 47.78295426 ], [ 18.68265815, 47.78308866 ], [ 18.68240287, 47.78319832 ], [ 18.68176297, 47.78347732 ], [ 18.68172237, 47.78349217 ], [ 18.68115786, 47.78373176 ], [ 18.68093327, 47.78382767 ], [ 18.6805875, 47.78397537 ], [ 18.68026874, 47.784111 ], [ 18.68001036, 47.78422086 ], [ 18.67946501, 47.78445228 ], [ 18.67878683, 47.78473983 ], [ 18.67855189, 47.78483941 ], [ 18.67812642, 47.78501869 ], [ 18.67783137, 47.78514514 ], [ 18.67739408, 47.78532359 ], [ 18.67712652, 47.78543728 ], [ 18.67664218, 47.78566433 ], [ 18.67597214, 47.7859552 ], [ 18.67546993, 47.78617153 ], [ 18.67509252, 47.78633943 ], [ 18.67453824, 47.78659363 ], [ 18.67395361, 47.78683851 ], [ 18.67347846, 47.78705225 ], [ 18.67298501, 47.78736524 ], [ 18.67252941, 47.7875767 ], [ 18.67221759, 47.78770981 ], [ 18.6718259, 47.78789063 ], [ 18.67132334, 47.78811289 ], [ 18.67079502, 47.78834449 ], [ 18.67067419, 47.7883741 ], [ 18.6706561, 47.78838205 ], [ 18.67044844, 47.78847823 ], [ 18.67047155, 47.78855924 ], [ 18.67048466, 47.78860516 ], [ 18.67050448, 47.78867454 ], [ 18.67050897, 47.7888205 ], [ 18.67054144, 47.78989941 ], [ 18.67059443, 47.79165596 ], [ 18.67060233, 47.79179354 ], [ 18.67069597, 47.79203259 ], [ 18.66946589, 47.79229182 ], [ 18.66944323, 47.79229654 ], [ 18.67016377, 47.79388131 ], [ 18.67027649, 47.79415334 ], [ 18.6702854, 47.79417512 ], [ 18.67029985, 47.79420983 ], [ 18.67014748, 47.79424332 ], [ 18.67016422, 47.79428249 ], [ 18.6692731, 47.79447145 ], [ 18.66937182, 47.79467694 ], [ 18.66966718, 47.79529238 ], [ 18.6697618, 47.7954796 ], [ 18.66989981, 47.79575292 ], [ 18.66996823, 47.79588837 ], [ 18.66997248, 47.79589762 ], [ 18.67025678, 47.79651607 ], [ 18.67025711, 47.79651663 ], [ 18.6705575, 47.79724242 ], [ 18.67062013, 47.7973937 ], [ 18.67056141, 47.79744014 ], [ 18.67048108, 47.7975038 ], [ 18.67042531, 47.79754796 ], [ 18.67128603, 47.7976301 ], [ 18.67219774, 47.79773721 ], [ 18.67280231, 47.79778674 ], [ 18.67351007, 47.79789277 ], [ 18.67353263, 47.79789787 ], [ 18.6742933, 47.79807092 ], [ 18.67431073, 47.79807295 ], [ 18.67451184, 47.79809668 ], [ 18.67475152, 47.79812486 ], [ 18.6752226, 47.79821234 ], [ 18.67608294, 47.79837735 ], [ 18.67620643, 47.79840065 ], [ 18.67627206, 47.79840837 ], [ 18.67627841, 47.79840907 ], [ 18.67669107, 47.79852153 ], [ 18.6768355, 47.79856907 ], [ 18.67697807, 47.79861985 ], [ 18.67698218, 47.79862133 ], [ 18.67717935, 47.79869817 ], [ 18.67756118, 47.79884676 ], [ 18.67847128, 47.79919824 ], [ 18.67847662, 47.79922749 ], [ 18.67847751, 47.79923241 ], [ 18.6784843, 47.79926968 ], [ 18.67847328, 47.79927901 ], [ 18.67918423, 47.7995512 ], [ 18.67918689, 47.799548 ], [ 18.67928395, 47.79958521 ], [ 18.6792813, 47.79958831 ], [ 18.67939361, 47.79963131 ], [ 18.67945828, 47.79955632 ], [ 18.67947229, 47.79954102 ], [ 18.67951453, 47.79949468 ], [ 18.67964412, 47.79954764 ], [ 18.68014672, 47.79955867 ], [ 18.68060885, 47.79956886 ], [ 18.68074909, 47.79957196 ], [ 18.68092219, 47.79957576 ], [ 18.68101315, 47.79961245 ], [ 18.68108175, 47.79964017 ], [ 18.68117181, 47.79967655 ], [ 18.68126571, 47.79971449 ], [ 18.68134479, 47.79974639 ], [ 18.68138401, 47.79976223 ], [ 18.68139947, 47.79976848 ], [ 18.68154945, 47.79982904 ], [ 18.68162099, 47.79985791 ], [ 18.68164947, 47.79986947 ], [ 18.68168678, 47.79988449 ], [ 18.6817541, 47.79991169 ], [ 18.6818162, 47.79993672 ], [ 18.68188007, 47.79996256 ], [ 18.68194854, 47.79999018 ], [ 18.68207654, 47.80004197 ], [ 18.68195984, 47.80026328 ], [ 18.68218296, 47.80041776 ], [ 18.68246802, 47.80066817 ], [ 18.68298528, 47.80112264 ], [ 18.68317232, 47.80124747 ], [ 18.68367383, 47.80146847 ], [ 18.68443709, 47.80180662 ], [ 18.68497058, 47.80200436 ], [ 18.68586393, 47.80233547 ], [ 18.68692616, 47.80274628 ], [ 18.68715351, 47.80283422 ], [ 18.68850698, 47.80333524 ], [ 18.68849754, 47.80337063 ], [ 18.68905597, 47.80366932 ], [ 18.69023282, 47.80410092 ], [ 18.69024578, 47.80410235 ], [ 18.69034604, 47.80414315 ], [ 18.69043801, 47.8041973 ], [ 18.69137438, 47.80459386 ], [ 18.69204249, 47.80454712 ], [ 18.69255124, 47.80451151 ], [ 18.69274105, 47.80458756 ], [ 18.69400299, 47.8050933 ], [ 18.69727655, 47.80637212 ], [ 18.69809457, 47.80670266 ], [ 18.69824088, 47.80676173 ], [ 18.6982856, 47.80677985 ], [ 18.70063665, 47.80772959 ], [ 18.70067372, 47.80779168 ], [ 18.70071829, 47.8078402 ], [ 18.70349962, 47.80889796 ], [ 18.70470899, 47.80938115 ], [ 18.70472457, 47.80938415 ], [ 18.70474566, 47.80938809 ], [ 18.70482647, 47.80940347 ], [ 18.70490506, 47.80941836 ], [ 18.70662498, 47.81004036 ], [ 18.70706851, 47.81020074 ], [ 18.7072843, 47.81011955 ], [ 18.70740558, 47.81007404 ], [ 18.70755154, 47.81001913 ], [ 18.70766752, 47.81009577 ], [ 18.70794639, 47.81028027 ], [ 18.70844194, 47.81060803 ], [ 18.7082064, 47.81083152 ], [ 18.70819099, 47.8108462 ], [ 18.70813377, 47.81090041 ], [ 18.70810282, 47.81092977 ], [ 18.7085478, 47.81107921 ], [ 18.70969817, 47.81138133 ], [ 18.71014484, 47.81147049 ], [ 18.71038355, 47.81149276 ], [ 18.71123395, 47.81184751 ], [ 18.7109128, 47.81216581 ], [ 18.71109893, 47.81223829 ], [ 18.7121402, 47.81223386 ], [ 18.71319483, 47.81223862 ], [ 18.71426872, 47.8127789 ], [ 18.71560311, 47.81334657 ], [ 18.71594095, 47.81350067 ], [ 18.71637461, 47.81367474 ], [ 18.71964367, 47.8150654 ], [ 18.72008907, 47.81520733 ], [ 18.7201135, 47.81521478 ], [ 18.72019767, 47.81524034 ], [ 18.72024886, 47.81525591 ], [ 18.72369457, 47.81634271 ], [ 18.72398341, 47.81643378 ], [ 18.72449201, 47.81683235 ], [ 18.72448854, 47.81655347 ], [ 18.72447269, 47.81634392 ], [ 18.72393722, 47.81558391 ], [ 18.72387416, 47.81508708 ], [ 18.72386241, 47.81485097 ], [ 18.72393667, 47.81455263 ], [ 18.72414185, 47.81389494 ], [ 18.72418802, 47.81352174 ], [ 18.72422014, 47.81326128 ], [ 18.72467667, 47.81337149 ], [ 18.72581629, 47.81336789 ], [ 18.72586547, 47.81336775 ], [ 18.72603845, 47.81339889 ], [ 18.72637457, 47.8134594 ], [ 18.72661006, 47.81352693 ], [ 18.72699384, 47.81368365 ], [ 18.72721249, 47.81384014 ], [ 18.72728591, 47.8139224 ], [ 18.72770165, 47.8142704 ], [ 18.72853805, 47.81521079 ], [ 18.72923425, 47.8159455 ], [ 18.7293735, 47.8160702 ], [ 18.72957339, 47.81621331 ], [ 18.72965908, 47.81627467 ], [ 18.72978441, 47.81636433 ], [ 18.72981022, 47.81638277 ], [ 18.72987683, 47.8164265 ], [ 18.72988341, 47.81643083 ], [ 18.72999849, 47.8165064 ], [ 18.73033157, 47.81672489 ], [ 18.73035643, 47.8167412 ], [ 18.73038116, 47.81675742 ], [ 18.7304341, 47.81679221 ], [ 18.73044032, 47.81679624 ], [ 18.73047049, 47.81681293 ], [ 18.7312123, 47.8172232 ], [ 18.73171723, 47.81749839 ], [ 18.73178681, 47.81753633 ], [ 18.73229779, 47.81779785 ], [ 18.73278491, 47.81804708 ], [ 18.73286149, 47.81811525 ], [ 18.73286415, 47.81811765 ], [ 18.73297526, 47.81821656 ], [ 18.73299078, 47.81823029 ], [ 18.73301404, 47.81825103 ], [ 18.73303004, 47.81826524 ], [ 18.73306361, 47.81829511 ], [ 18.73307999, 47.81831963 ], [ 18.73311967, 47.81837932 ], [ 18.73315284, 47.81842947 ], [ 18.73317922, 47.81846905 ], [ 18.73323823, 47.81855776 ], [ 18.73324369, 47.81856599 ], [ 18.73332611, 47.81861427 ], [ 18.7334098, 47.81866316 ], [ 18.73341751, 47.81866592 ], [ 18.73358205, 47.8187243 ], [ 18.73384905, 47.81881904 ], [ 18.73391254, 47.81884168 ], [ 18.73395214, 47.81885571 ], [ 18.73412414, 47.81891675 ], [ 18.73429871, 47.81897874 ], [ 18.73443164, 47.81902585 ], [ 18.73443536, 47.81902722 ], [ 18.73451297, 47.81906189 ], [ 18.7345879, 47.81909533 ], [ 18.73467544, 47.81913441 ], [ 18.73471124, 47.81914428 ], [ 18.7347198, 47.81914663 ], [ 18.73478921, 47.8191657 ], [ 18.73483254, 47.8191776 ], [ 18.73491298, 47.81919969 ], [ 18.73503667, 47.81921401 ], [ 18.73513274, 47.81922513 ], [ 18.73533214, 47.81924821 ], [ 18.73538381, 47.81925424 ], [ 18.73539702, 47.81925576 ], [ 18.73547475, 47.81925552 ], [ 18.73550732, 47.81925537 ], [ 18.7355175, 47.81925538 ], [ 18.73569801, 47.8192548 ], [ 18.73607082, 47.81925363 ], [ 18.73625334, 47.81928013 ], [ 18.73626374, 47.81928168 ], [ 18.73648697, 47.81931407 ], [ 18.73677826, 47.81935643 ], [ 18.73717006, 47.8191882 ], [ 18.73731233, 47.81938604 ], [ 18.73757121, 47.81975191 ], [ 18.73836172, 47.81933434 ] ] ] ] } }
]
}
