{
"type": "FeatureCollection",
"name": "gis",
"crs": { "type": "name", "properties": { "name": "urn:ogc:def:crs:OGC:1.3:CRS84" } },
"features": [
{ "type": "Feature", "properties": { "@featureType": "CadastralParcel", "areaValue": { "value": 949, "@uom": "m2" }, "beginLifespanVersion": { "@nilReason": "http://inspire.ec.europa.eu/codelist/VoidReasonValue/Unpopulated", "@nil": "true" }, "endLifespanVersion": { "@nilReason": "http://inspire.ec.europa.eu/codelist/VoidReasonValue/Unpopulated", "@nil": "true" }, "inspireId": { "@dataType": "Identifier", "localId": "834211_568/2.C", "namespace": "SK.ESKN.CP", "versionId": "20260703T05:07:15" }, "label": "568/2", "nationalCadastralReference": "834211_568/2.C", "referencePoint": { "type": "Point", "coordinates": [ 18.24087643, 49.18760696 ] }, "validFrom": "2026-06-30T16:00:00Z", "validTo": { "@nilReason": "http://inspire.ec.europa.eu/codelist/VoidReasonValue/Unpopulated", "@nil": "true" }, "administrativeUnit": { "@href": "#auAdmUnitS.365" } }, "geometry": { "type": "Polygon", "coordinates": [ [ [ 18.24078426, 49.18735725 ], [ 18.24046432, 49.18749664 ], [ 18.24059883, 49.18763793 ], [ 18.24078377, 49.18783226 ], [ 18.2411037, 49.18769287 ], [ 18.24086059, 49.18743739 ], [ 18.24081219, 49.18738663 ], [ 18.24078426, 49.18735725 ] ], [ [ 18.2405113, 49.1875048 ], [ 18.24055485, 49.18748886 ], [ 18.24058285, 49.18752194 ], [ 18.24058535, 49.18752497 ], [ 18.24072413, 49.1874729 ], [ 18.24081382, 49.187576 ], [ 18.24063293, 49.18764356 ], [ 18.24054319, 49.18754082 ], [ 18.24054021, 49.1875383 ], [ 18.2405113, 49.1875048 ] ], [ [ 18.24065957, 49.18768487 ], [ 18.24078036, 49.18763972 ], [ 18.24081989, 49.18768565 ], [ 18.24069927, 49.18773053 ], [ 18.24065957, 49.18768487 ] ], [ [ 18.24090264, 49.1875007 ], [ 18.24087779, 49.18751057 ], [ 18.24085573, 49.18748676 ], [ 18.24088031, 49.18747687 ], [ 18.24090264, 49.1875007 ] ] ] } },
{ "type": "Feature", "properties": { "@featureType": "CadastralParcel", "areaValue": { "value": 217, "@uom": "m2" }, "beginLifespanVersion": { "@nilReason": "http://inspire.ec.europa.eu/codelist/VoidReasonValue/Unpopulated", "@nil": "true" }, "endLifespanVersion": { "@nilReason": "http://inspire.ec.europa.eu/codelist/VoidReasonValue/Unpopulated", "@nil": "true" }, "inspireId": { "@dataType": "Identifier", "localId": "834211_568/15.C", "namespace": "SK.ESKN.CP", "versionId": "20260703T05:07:15" }, "label": "568/15", "nationalCadastralReference": "834211_568/15.C", "referencePoint": { "type": "Point", "coordinates": [ 18.24067853, 49.18755841 ] }, "validFrom": "2026-06-30T16:00:00Z", "validTo": { "@nilReason": "http://inspire.ec.europa.eu/codelist/VoidReasonValue/Unpopulated", "@nil": "true" }, "administrativeUnit": { "@href": "#auAdmUnitS.365" } }, "geometry": { "type": "Polygon", "coordinates": [ [ [ 18.24063293, 49.18764356 ], [ 18.24081382, 49.187576 ], [ 18.24072413, 49.1874729 ], [ 18.24058535, 49.18752497 ], [ 18.24058285, 49.18752194 ], [ 18.24055485, 49.18748886 ], [ 18.2405113, 49.1875048 ], [ 18.24054021, 49.1875383 ], [ 18.24054319, 49.18754082 ], [ 18.24063293, 49.18764356 ] ] ] } },
{ "type": "Feature", "properties": { "@featureType": "CadastralParcel", "areaValue": { "value": 59, "@uom": "m2" }, "beginLifespanVersion": { "@nilReason": "http://inspire.ec.europa.eu/codelist/VoidReasonValue/Unpopulated", "@nil": "true" }, "endLifespanVersion": { "@nilReason": "http://inspire.ec.europa.eu/codelist/VoidReasonValue/Unpopulated", "@nil": "true" }, "inspireId": { "@dataType": "Identifier", "localId": "834211_568/14.C", "namespace": "SK.ESKN.CP", "versionId": "20260703T05:07:15" }, "label": "568/14", "nationalCadastralReference": "834211_568/14.C", "referencePoint": { "type": "Point", "coordinates": [ 18.24073973, 49.18768526 ] }, "validFrom": "2026-06-30T16:00:00Z", "validTo": { "@nilReason": "http://inspire.ec.europa.eu/codelist/VoidReasonValue/Unpopulated", "@nil": "true" }, "administrativeUnit": { "@href": "#auAdmUnitS.365" } }, "geometry": { "type": "Polygon", "coordinates": [ [ [ 18.24069927, 49.18773053 ], [ 18.24081989, 49.18768565 ], [ 18.24078036, 49.18763972 ], [ 18.24065957, 49.18768487 ], [ 18.24069927, 49.18773053 ] ] ] } }
]
}
