{
"type": "FeatureCollection",
"name": "gis",
"crs": { "type": "name", "properties": { "name": "urn:ogc:def:crs:OGC:1.3:CRS84" } },
"features": [
{ "type": "Feature", "properties": { "@featureType": "CadastralParcel", "areaValue": { "value": 431, "@uom": "m2" }, "beginLifespanVersion": { "@nilReason": "http://inspire.ec.europa.eu/codelist/VoidReasonValue/Unpopulated", "@nil": "true" }, "endLifespanVersion": { "@nilReason": "http://inspire.ec.europa.eu/codelist/VoidReasonValue/Unpopulated", "@nil": "true" }, "inspireId": { "@dataType": "Identifier", "localId": "842044_5122/2.C", "namespace": "SK.ESKN.CP", "versionId": "20260703T04:07:54" }, "label": "5122/2", "nationalCadastralReference": "842044_5122/2.C", "referencePoint": { "type": "Point", "coordinates": [ 17.86090305, 48.76457478 ] }, "validFrom": "2026-06-30T16:00:00Z", "validTo": { "@nilReason": "http://inspire.ec.europa.eu/codelist/VoidReasonValue/Unpopulated", "@nil": "true" }, "administrativeUnit": { "@href": "#auAdmUnitS.1484" } }, "geometry": { "type": "Polygon", "coordinates": [ [ [ 17.86126912, 48.76508616 ], [ 17.86136985, 48.76510064 ], [ 17.86123823, 48.76494205 ], [ 17.86113334, 48.76482924 ], [ 17.86104855, 48.76474302 ], [ 17.86097714, 48.76465878 ], [ 17.86088248, 48.76449078 ], [ 17.86074585, 48.76433785 ], [ 17.86059545, 48.76418471 ], [ 17.86054559, 48.76414422 ], [ 17.86126078, 48.76507536 ], [ 17.86126912, 48.76508616 ] ] ] } },
{ "type": "Feature", "properties": { "@featureType": "CadastralParcel", "areaValue": { "value": 815, "@uom": "m2" }, "beginLifespanVersion": { "@nilReason": "http://inspire.ec.europa.eu/codelist/VoidReasonValue/Unpopulated", "@nil": "true" }, "endLifespanVersion": { "@nilReason": "http://inspire.ec.europa.eu/codelist/VoidReasonValue/Unpopulated", "@nil": "true" }, "inspireId": { "@dataType": "Identifier", "localId": "842044_1701/2.E", "namespace": "SK.ESKN.CP", "versionId": "20260703T04:07:54" }, "label": "1701/2", "nationalCadastralReference": "842044_1701/2.E", "referencePoint": { "type": "Point", "coordinates": [ 17.86086867, 48.76463208 ] }, "validFrom": "2026-06-30T16:00:00Z", "validTo": { "@nilReason": "http://inspire.ec.europa.eu/codelist/VoidReasonValue/Unpopulated", "@nil": "true" }, "administrativeUnit": { "@href": "#auAdmUnitS.1484" } }, "geometry": { "type": "Polygon", "coordinates": [ [ [ 17.86038721, 48.76408633 ], [ 17.86064302, 48.76442356 ], [ 17.86099107, 48.7648406 ], [ 17.86118908, 48.76507229 ], [ 17.86126078, 48.76507536 ], [ 17.8605457, 48.76414441 ], [ 17.86050469, 48.76411105 ], [ 17.86037033, 48.76406418 ], [ 17.86038721, 48.76408633 ] ] ] } }
]
}
