{
"type": "FeatureCollection",
"name": "gis",
"crs": { "type": "name", "properties": { "name": "urn:ogc:def:crs:OGC:1.3:CRS84" } },
"features": [
{ "type": "Feature", "properties": { "@featureType": "CadastralParcel", "areaValue": { "value": 7372, "@uom": "m2" }, "beginLifespanVersion": { "@nilReason": "http://inspire.ec.europa.eu/codelist/VoidReasonValue/Unpopulated", "@nil": "true" }, "endLifespanVersion": { "@nilReason": "http://inspire.ec.europa.eu/codelist/VoidReasonValue/Unpopulated", "@nil": "true" }, "inspireId": { "@dataType": "Identifier", "localId": "813141_4290/80.C", "namespace": "SK.ESKN.CP", "versionId": "20260703T05:07:30" }, "label": "4290/80", "nationalCadastralReference": "813141_4290/80.C", "referencePoint": { "type": "Point", "coordinates": [ 18.17203388, 48.97820519 ] }, "validFrom": "2026-06-30T16:00:00Z", "validTo": { "@nilReason": "http://inspire.ec.europa.eu/codelist/VoidReasonValue/Unpopulated", "@nil": "true" }, "administrativeUnit": { "@href": "#auAdmUnitS.106" } }, "geometry": { "type": "Polygon", "coordinates": [ [ [ 18.17045742, 48.97880488 ], [ 18.17048481, 48.97879688 ], [ 18.17062436, 48.97878802 ], [ 18.17058706, 48.97872801 ], [ 18.17062115, 48.97871607 ], [ 18.17079209, 48.97866388 ], [ 18.17097448, 48.97862264 ], [ 18.17101918, 48.97861545 ], [ 18.17133782, 48.97858186 ], [ 18.17151061, 48.97857879 ], [ 18.17163076, 48.97857658 ], [ 18.17175723, 48.97857437 ], [ 18.17193351, 48.97857186 ], [ 18.17208161, 48.9785699 ], [ 18.17211018, 48.97856847 ], [ 18.17230262, 48.97848655 ], [ 18.17244097, 48.97841226 ], [ 18.17262962, 48.97827515 ], [ 18.1728403, 48.97813523 ], [ 18.17272049, 48.97809973 ], [ 18.17259509, 48.978065 ], [ 18.17230706, 48.97792775 ], [ 18.17218153, 48.97783397 ], [ 18.1721257, 48.97780305 ], [ 18.17210518, 48.97777993 ], [ 18.17205441, 48.97771085 ], [ 18.17045742, 48.97880488 ] ] ] } },
{ "type": "Feature", "properties": { "@featureType": "CadastralParcel", "areaValue": { "value": 1431, "@uom": "m2" }, "beginLifespanVersion": { "@nilReason": "http://inspire.ec.europa.eu/codelist/VoidReasonValue/Unpopulated", "@nil": "true" }, "endLifespanVersion": { "@nilReason": "http://inspire.ec.europa.eu/codelist/VoidReasonValue/Unpopulated", "@nil": "true" }, "inspireId": { "@dataType": "Identifier", "localId": "813141_4290/81.C", "namespace": "SK.ESKN.CP", "versionId": "20260703T05:07:30" }, "label": "4290/81", "nationalCadastralReference": "813141_4290/81.C", "referencePoint": { "type": "Point", "coordinates": [ 18.17080343, 48.97851512 ] }, "validFrom": "2026-06-30T16:00:00Z", "validTo": { "@nilReason": "http://inspire.ec.europa.eu/codelist/VoidReasonValue/Unpopulated", "@nil": "true" }, "administrativeUnit": { "@href": "#auAdmUnitS.106" } }, "geometry": { "type": "Polygon", "coordinates": [ [ [ 18.17019974, 48.97887095 ], [ 18.17022462, 48.97887572 ], [ 18.17023559, 48.97886949 ], [ 18.17045742, 48.97880488 ], [ 18.17205441, 48.97771085 ], [ 18.17200791, 48.97764372 ], [ 18.17115539, 48.97822537 ], [ 18.17019974, 48.97887095 ] ] ] } },
{ "type": "Feature", "properties": { "@featureType": "CadastralParcel", "areaValue": { "value": 3275, "@uom": "m2" }, "beginLifespanVersion": { "@nilReason": "http://inspire.ec.europa.eu/codelist/VoidReasonValue/Unpopulated", "@nil": "true" }, "endLifespanVersion": { "@nilReason": "http://inspire.ec.europa.eu/codelist/VoidReasonValue/Unpopulated", "@nil": "true" }, "inspireId": { "@dataType": "Identifier", "localId": "813141_4290/82.C", "namespace": "SK.ESKN.CP", "versionId": "20260703T05:07:30" }, "label": "4290/82", "nationalCadastralReference": "813141_4290/82.C", "referencePoint": { "type": "Point", "coordinates": [ 18.17104631, 48.97818985 ] }, "validFrom": "2026-06-30T16:00:00Z", "validTo": { "@nilReason": "http://inspire.ec.europa.eu/codelist/VoidReasonValue/Unpopulated", "@nil": "true" }, "administrativeUnit": { "@href": "#auAdmUnitS.106" } }, "geometry": { "type": "Polygon", "coordinates": [ [ [ 18.1709373, 48.97815434 ], [ 18.1706792, 48.97833016 ], [ 18.16994589, 48.97882964 ], [ 18.17009608, 48.97885226 ], [ 18.17019974, 48.97887095 ], [ 18.17115539, 48.97822537 ], [ 18.17200791, 48.97764372 ], [ 18.17195321, 48.9775764 ], [ 18.17191288, 48.97750412 ], [ 18.1709373, 48.97815434 ] ] ] } },
{ "type": "Feature", "properties": { "@featureType": "CadastralParcel", "areaValue": { "value": 110, "@uom": "m2" }, "beginLifespanVersion": { "@nilReason": "http://inspire.ec.europa.eu/codelist/VoidReasonValue/Unpopulated", "@nil": "true" }, "endLifespanVersion": { "@nilReason": "http://inspire.ec.europa.eu/codelist/VoidReasonValue/Unpopulated", "@nil": "true" }, "inspireId": { "@dataType": "Identifier", "localId": "813141_4241/6.C", "namespace": "SK.ESKN.CP", "versionId": "20260703T05:07:30" }, "label": "4241/6", "nationalCadastralReference": "813141_4241/6.C", "referencePoint": { "type": "Point", "coordinates": [ 18.17034976, 48.9788534 ] }, "validFrom": "2026-06-30T16:00:00Z", "validTo": { "@nilReason": "http://inspire.ec.europa.eu/codelist/VoidReasonValue/Unpopulated", "@nil": "true" }, "administrativeUnit": { "@href": "#auAdmUnitS.106" } }, "geometry": { "type": "Polygon", "coordinates": [ [ [ 18.17062436, 48.97878802 ], [ 18.17048481, 48.97879688 ], [ 18.17045742, 48.97880488 ], [ 18.17023559, 48.97886949 ], [ 18.17022462, 48.97887572 ], [ 18.17018489, 48.97889817 ], [ 18.17024133, 48.97892443 ], [ 18.17033198, 48.97888207 ], [ 18.17045174, 48.97883732 ], [ 18.17062436, 48.97878802 ] ] ] } },
{ "type": "Feature", "properties": { "@featureType": "CadastralParcel", "areaValue": { "value": 17, "@uom": "m2" }, "beginLifespanVersion": { "@nilReason": "http://inspire.ec.europa.eu/codelist/VoidReasonValue/Unpopulated", "@nil": "true" }, "endLifespanVersion": { "@nilReason": "http://inspire.ec.europa.eu/codelist/VoidReasonValue/Unpopulated", "@nil": "true" }, "inspireId": { "@dataType": "Identifier", "localId": "813141_4241/7.C", "namespace": "SK.ESKN.CP", "versionId": "20260703T05:07:30" }, "label": "4241/7", "nationalCadastralReference": "813141_4241/7.C", "referencePoint": { "type": "Point", "coordinates": [ 18.1701944, 48.97892178 ] }, "validFrom": "2026-06-30T16:00:00Z", "validTo": { "@nilReason": "http://inspire.ec.europa.eu/codelist/VoidReasonValue/Unpopulated", "@nil": "true" }, "administrativeUnit": { "@href": "#auAdmUnitS.106" } }, "geometry": { "type": "Polygon", "coordinates": [ [ [ 18.17018489, 48.97889817 ], [ 18.17014755, 48.97891913 ], [ 18.17019994, 48.9789439 ], [ 18.17024133, 48.97892443 ], [ 18.17018489, 48.97889817 ] ] ] } },
{ "type": "Feature", "properties": { "@featureType": "CadastralParcel", "areaValue": { "value": 375, "@uom": "m2" }, "beginLifespanVersion": { "@nilReason": "http://inspire.ec.europa.eu/codelist/VoidReasonValue/Unpopulated", "@nil": "true" }, "endLifespanVersion": { "@nilReason": "http://inspire.ec.europa.eu/codelist/VoidReasonValue/Unpopulated", "@nil": "true" }, "inspireId": { "@dataType": "Identifier", "localId": "813141_4290/100.C", "namespace": "SK.ESKN.CP", "versionId": "20260703T05:07:30" }, "label": "4290/100", "nationalCadastralReference": "813141_4290/100.C", "referencePoint": { "type": "Point", "coordinates": [ 18.17257599, 48.9783437 ] }, "validFrom": "2026-06-30T16:00:00Z", "validTo": { "@nilReason": "http://inspire.ec.europa.eu/codelist/VoidReasonValue/Unpopulated", "@nil": "true" }, "administrativeUnit": { "@href": "#auAdmUnitS.106" } }, "geometry": { "type": "Polygon", "coordinates": [ [ [ 18.17295432, 48.97817103 ], [ 18.17295048, 48.97816792 ], [ 18.1728403, 48.97813523 ], [ 18.17262962, 48.97827515 ], [ 18.17244097, 48.97841226 ], [ 18.17230262, 48.97848655 ], [ 18.17211018, 48.97856847 ], [ 18.17226111, 48.97856071 ], [ 18.17241072, 48.97848626 ], [ 18.17275862, 48.97824546 ], [ 18.17281063, 48.9782628 ], [ 18.17295432, 48.97817103 ] ] ] } },
{ "type": "Feature", "properties": { "@featureType": "CadastralParcel", "areaValue": { "value": 2619, "@uom": "m2" }, "beginLifespanVersion": { "@nilReason": "http://inspire.ec.europa.eu/codelist/VoidReasonValue/Unpopulated", "@nil": "true" }, "endLifespanVersion": { "@nilReason": "http://inspire.ec.europa.eu/codelist/VoidReasonValue/Unpopulated", "@nil": "true" }, "inspireId": { "@dataType": "Identifier", "localId": "813141_4241/8.C", "namespace": "SK.ESKN.CP", "versionId": "20260703T05:07:30" }, "label": "4241/8", "nationalCadastralReference": "813141_4241/8.C", "referencePoint": { "type": "Point", "coordinates": [ 18.17014409, 48.97912282 ] }, "validFrom": "2026-06-30T16:00:00Z", "validTo": { "@nilReason": "http://inspire.ec.europa.eu/codelist/VoidReasonValue/Unpopulated", "@nil": "true" }, "administrativeUnit": { "@href": "#auAdmUnitS.106" } }, "geometry": { "type": "Polygon", "coordinates": [ [ [ 18.1697006, 48.97904943 ], [ 18.1697015, 48.9791171 ], [ 18.16972695, 48.97915268 ], [ 18.16974557, 48.9791932 ], [ 18.16972751, 48.97922908 ], [ 18.16960056, 48.97931043 ], [ 18.16959488, 48.97931913 ], [ 18.16978642, 48.97934838 ], [ 18.17021789, 48.97938239 ], [ 18.17059483, 48.97912854 ], [ 18.17019994, 48.9789439 ], [ 18.17014755, 48.97891913 ], [ 18.17018489, 48.97889817 ], [ 18.17002508, 48.97887364 ], [ 18.16990163, 48.97885625 ], [ 18.16971451, 48.97896835 ], [ 18.1697006, 48.97904943 ] ] ] } },
{ "type": "Feature", "properties": { "@featureType": "CadastralParcel", "areaValue": { "value": 73, "@uom": "m2" }, "beginLifespanVersion": { "@nilReason": "http://inspire.ec.europa.eu/codelist/VoidReasonValue/Unpopulated", "@nil": "true" }, "endLifespanVersion": { "@nilReason": "http://inspire.ec.europa.eu/codelist/VoidReasonValue/Unpopulated", "@nil": "true" }, "inspireId": { "@dataType": "Identifier", "localId": "813141_4290/72.C", "namespace": "SK.ESKN.CP", "versionId": "20260703T05:07:30" }, "label": "4290/72", "nationalCadastralReference": "813141_4290/72.C", "referencePoint": { "type": "Point", "coordinates": [ 18.17005639, 48.9788636 ] }, "validFrom": "2026-06-30T16:00:00Z", "validTo": { "@nilReason": "http://inspire.ec.europa.eu/codelist/VoidReasonValue/Unpopulated", "@nil": "true" }, "administrativeUnit": { "@href": "#auAdmUnitS.106" } }, "geometry": { "type": "Polygon", "coordinates": [ [ [ 18.16990163, 48.97885625 ], [ 18.17002508, 48.97887364 ], [ 18.17018489, 48.97889817 ], [ 18.17022462, 48.97887572 ], [ 18.17019974, 48.97887095 ], [ 18.17009608, 48.97885226 ], [ 18.16994589, 48.97882964 ], [ 18.16990163, 48.97885625 ] ] ] } },
{ "type": "Feature", "properties": { "@featureType": "CadastralParcel", "areaValue": { "value": 425, "@uom": "m2" }, "beginLifespanVersion": { "@nilReason": "http://inspire.ec.europa.eu/codelist/VoidReasonValue/Unpopulated", "@nil": "true" }, "endLifespanVersion": { "@nilReason": "http://inspire.ec.europa.eu/codelist/VoidReasonValue/Unpopulated", "@nil": "true" }, "inspireId": { "@dataType": "Identifier", "localId": "813141_4290/73.C", "namespace": "SK.ESKN.CP", "versionId": "20260703T05:07:30" }, "label": "4290/73", "nationalCadastralReference": "813141_4290/73.C", "referencePoint": { "type": "Point", "coordinates": [ 18.17011613, 48.9786803 ] }, "validFrom": "2026-06-30T16:00:00Z", "validTo": { "@nilReason": "http://inspire.ec.europa.eu/codelist/VoidReasonValue/Unpopulated", "@nil": "true" }, "administrativeUnit": { "@href": "#auAdmUnitS.106" } }, "geometry": { "type": "Polygon", "coordinates": [ [ [ 18.16987121, 48.97881262 ], [ 18.16988093, 48.97881688 ], [ 18.16994589, 48.97882964 ], [ 18.1706792, 48.97833016 ], [ 18.17062075, 48.97829313 ], [ 18.1706057, 48.9782836 ], [ 18.17054927, 48.97834399 ], [ 18.17026302, 48.97854798 ], [ 18.16987121, 48.97881262 ] ] ] } },
{ "type": "Feature", "properties": { "@featureType": "CadastralParcel", "areaValue": { "value": 1661, "@uom": "m2" }, "beginLifespanVersion": { "@nilReason": "http://inspire.ec.europa.eu/codelist/VoidReasonValue/Unpopulated", "@nil": "true" }, "endLifespanVersion": { "@nilReason": "http://inspire.ec.europa.eu/codelist/VoidReasonValue/Unpopulated", "@nil": "true" }, "inspireId": { "@dataType": "Identifier", "localId": "813141_4290/78.C", "namespace": "SK.ESKN.CP", "versionId": "20260703T05:07:30" }, "label": "4290/78", "nationalCadastralReference": "813141_4290/78.C", "referencePoint": { "type": "Point", "coordinates": [ 18.17174198, 48.97757687 ] }, "validFrom": "2026-06-30T16:00:00Z", "validTo": { "@nilReason": "http://inspire.ec.europa.eu/codelist/VoidReasonValue/Unpopulated", "@nil": "true" }, "administrativeUnit": { "@href": "#auAdmUnitS.106" } }, "geometry": { "type": "Polygon", "coordinates": [ [ [ 18.17141324, 48.97723664 ], [ 18.17165574, 48.97734283 ], [ 18.17168549, 48.97735844 ], [ 18.17171084, 48.97737714 ], [ 18.17173106, 48.97739843 ], [ 18.17174553, 48.97742165 ], [ 18.17175382, 48.97744605 ], [ 18.17175585, 48.97747108 ], [ 18.17175131, 48.97749601 ], [ 18.17174058, 48.97752004 ], [ 18.17172374, 48.97754254 ], [ 18.17163674, 48.9776112 ], [ 18.17101217, 48.9780365 ], [ 18.17062075, 48.97829313 ], [ 18.1706792, 48.97833016 ], [ 18.1709373, 48.97815434 ], [ 18.17191288, 48.97750412 ], [ 18.17180951, 48.97734977 ], [ 18.17141656, 48.97714647 ], [ 18.17134686, 48.97715086 ], [ 18.17119347, 48.97707804 ], [ 18.17115886, 48.97703913 ], [ 18.17064058, 48.97682338 ], [ 18.17055956, 48.97687795 ], [ 18.1708278, 48.97699474 ], [ 18.17141324, 48.97723664 ] ] ] } },
{ "type": "Feature", "properties": { "@featureType": "CadastralParcel", "areaValue": { "value": 502, "@uom": "m2" }, "beginLifespanVersion": { "@nilReason": "http://inspire.ec.europa.eu/codelist/VoidReasonValue/Unpopulated", "@nil": "true" }, "endLifespanVersion": { "@nilReason": "http://inspire.ec.europa.eu/codelist/VoidReasonValue/Unpopulated", "@nil": "true" }, "inspireId": { "@dataType": "Identifier", "localId": "813141_4290/15.C", "namespace": "SK.ESKN.CP", "versionId": "20260703T05:07:30" }, "label": "4290/15", "nationalCadastralReference": "813141_4290/15.C", "referencePoint": { "type": "Point", "coordinates": [ 18.17093302, 48.97867658 ] }, "validFrom": "2026-06-30T16:00:00Z", "validTo": { "@nilReason": "http://inspire.ec.europa.eu/codelist/VoidReasonValue/Unpopulated", "@nil": "true" }, "administrativeUnit": { "@href": "#auAdmUnitS.106" } }, "geometry": { "type": "Polygon", "coordinates": [ [ [ 18.17151061, 48.97857879 ], [ 18.17133782, 48.97858186 ], [ 18.17101918, 48.97861545 ], [ 18.17097448, 48.97862264 ], [ 18.17079209, 48.97866388 ], [ 18.17062115, 48.97871607 ], [ 18.17058706, 48.97872801 ], [ 18.17062436, 48.97878802 ], [ 18.17098909, 48.97868928 ], [ 18.17134296, 48.97865374 ], [ 18.1713892, 48.97865252 ], [ 18.17151061, 48.97857879 ] ] ] } },
{ "type": "Feature", "properties": { "@featureType": "CadastralParcel", "areaValue": { "value": 71, "@uom": "m2" }, "beginLifespanVersion": { "@nilReason": "http://inspire.ec.europa.eu/codelist/VoidReasonValue/Unpopulated", "@nil": "true" }, "endLifespanVersion": { "@nilReason": "http://inspire.ec.europa.eu/codelist/VoidReasonValue/Unpopulated", "@nil": "true" }, "inspireId": { "@dataType": "Identifier", "localId": "813141_4290/16.C", "namespace": "SK.ESKN.CP", "versionId": "20260703T05:07:30" }, "label": "4290/16", "nationalCadastralReference": "813141_4290/16.C", "referencePoint": { "type": "Point", "coordinates": [ 18.17151241, 48.97861395 ] }, "validFrom": "2026-06-30T16:00:00Z", "validTo": { "@nilReason": "http://inspire.ec.europa.eu/codelist/VoidReasonValue/Unpopulated", "@nil": "true" }, "administrativeUnit": { "@href": "#auAdmUnitS.106" } }, "geometry": { "type": "Polygon", "coordinates": [ [ [ 18.17163076, 48.97857658 ], [ 18.17151061, 48.97857879 ], [ 18.1713892, 48.97865252 ], [ 18.17148815, 48.9786499 ], [ 18.17151692, 48.97864911 ], [ 18.17163076, 48.97857658 ] ] ] } },
{ "type": "Feature", "properties": { "@featureType": "CadastralParcel", "areaValue": { "value": 72, "@uom": "m2" }, "beginLifespanVersion": { "@nilReason": "http://inspire.ec.europa.eu/codelist/VoidReasonValue/Unpopulated", "@nil": "true" }, "endLifespanVersion": { "@nilReason": "http://inspire.ec.europa.eu/codelist/VoidReasonValue/Unpopulated", "@nil": "true" }, "inspireId": { "@dataType": "Identifier", "localId": "813141_4290/17.C", "namespace": "SK.ESKN.CP", "versionId": "20260703T05:07:30" }, "label": "4290/17", "nationalCadastralReference": "813141_4290/17.C", "referencePoint": { "type": "Point", "coordinates": [ 18.1716383, 48.97861115 ] }, "validFrom": "2026-06-30T16:00:00Z", "validTo": { "@nilReason": "http://inspire.ec.europa.eu/codelist/VoidReasonValue/Unpopulated", "@nil": "true" }, "administrativeUnit": { "@href": "#auAdmUnitS.106" } }, "geometry": { "type": "Polygon", "coordinates": [ [ [ 18.17175723, 48.97857437 ], [ 18.17163076, 48.97857658 ], [ 18.17151692, 48.97864911 ], [ 18.17164642, 48.97864572 ], [ 18.17175723, 48.97857437 ] ] ] } },
{ "type": "Feature", "properties": { "@featureType": "CadastralParcel", "areaValue": { "value": 298, "@uom": "m2" }, "beginLifespanVersion": { "@nilReason": "http://inspire.ec.europa.eu/codelist/VoidReasonValue/Unpopulated", "@nil": "true" }, "endLifespanVersion": { "@nilReason": "http://inspire.ec.europa.eu/codelist/VoidReasonValue/Unpopulated", "@nil": "true" }, "inspireId": { "@dataType": "Identifier", "localId": "813141_4290/20.C", "namespace": "SK.ESKN.CP", "versionId": "20260703T05:07:30" }, "label": "4290/20", "nationalCadastralReference": "813141_4290/20.C", "referencePoint": { "type": "Point", "coordinates": [ 18.17260351, 48.97837453 ] }, "validFrom": "2026-06-30T16:00:00Z", "validTo": { "@nilReason": "http://inspire.ec.europa.eu/codelist/VoidReasonValue/Unpopulated", "@nil": "true" }, "administrativeUnit": { "@href": "#auAdmUnitS.106" } }, "geometry": { "type": "Polygon", "coordinates": [ [ [ 18.17281063, 48.9782628 ], [ 18.17275862, 48.97824546 ], [ 18.17241072, 48.97848626 ], [ 18.17226111, 48.97856071 ], [ 18.17211018, 48.97856847 ], [ 18.17208161, 48.9785699 ], [ 18.17197589, 48.97863694 ], [ 18.17223269, 48.97863021 ], [ 18.17281063, 48.9782628 ] ] ] } },
{ "type": "Feature", "properties": { "@featureType": "CadastralParcel", "areaValue": { "value": 370, "@uom": "m2" }, "beginLifespanVersion": { "@nilReason": "http://inspire.ec.europa.eu/codelist/VoidReasonValue/Unpopulated", "@nil": "true" }, "endLifespanVersion": { "@nilReason": "http://inspire.ec.europa.eu/codelist/VoidReasonValue/Unpopulated", "@nil": "true" }, "inspireId": { "@dataType": "Identifier", "localId": "813141_4210/10.C", "namespace": "SK.ESKN.CP", "versionId": "20260703T05:07:30" }, "label": "4210/10", "nationalCadastralReference": "813141_4210/10.C", "referencePoint": { "type": "Point", "coordinates": [ 18.17255879, 48.97845333 ] }, "validFrom": "2026-06-30T16:00:00Z", "validTo": { "@nilReason": "http://inspire.ec.europa.eu/codelist/VoidReasonValue/Unpopulated", "@nil": "true" }, "administrativeUnit": { "@href": "#auAdmUnitS.106" } }, "geometry": { "type": "Polygon", "coordinates": [ [ [ 18.17281063, 48.9782628 ], [ 18.17223269, 48.97863021 ], [ 18.17238342, 48.97858977 ], [ 18.17251654, 48.97850841 ], [ 18.17275293, 48.97836393 ], [ 18.17291994, 48.97839826 ], [ 18.17297033, 48.97831711 ], [ 18.17281063, 48.9782628 ] ] ] } }
]
}
