{
"type": "FeatureCollection",
"name": "gis",
"crs": { "type": "name", "properties": { "name": "urn:ogc:def:crs:OGC:1.3:CRS84" } },
"features": [
{ "type": "Feature", "properties": { "@featureType": "CadastralParcel", "areaValue": { "value": 671, "@uom": "m2" }, "beginLifespanVersion": { "@nilReason": "http://inspire.ec.europa.eu/codelist/VoidReasonValue/Unpopulated", "@nil": "true" }, "endLifespanVersion": { "@nilReason": "http://inspire.ec.europa.eu/codelist/VoidReasonValue/Unpopulated", "@nil": "true" }, "inspireId": { "@dataType": "Identifier", "localId": "861375_3552.C", "namespace": "SK.ESKN.CP", "versionId": "20260703T06:07:14" }, "label": "3552", "nationalCadastralReference": "861375_3552.C", "referencePoint": { "type": "Point", "coordinates": [ 20.05870264, 49.11964274 ] }, "validFrom": "2026-06-30T16:00:00Z", "validTo": { "@nilReason": "http://inspire.ec.europa.eu/codelist/VoidReasonValue/Unpopulated", "@nil": "true" }, "administrativeUnit": { "@href": "#auAdmUnitS.1169" } }, "geometry": { "type": "Polygon", "coordinates": [ [ [ 20.05879125, 49.11970065 ], [ 20.0588428, 49.11970132 ], [ 20.05890272, 49.11970053 ], [ 20.05897201, 49.11969941 ], [ 20.05903884, 49.119678 ], [ 20.05911763, 49.11965203 ], [ 20.05926361, 49.11958917 ], [ 20.05924985, 49.11957798 ], [ 20.05911251, 49.11958461 ], [ 20.05891164, 49.11959512 ], [ 20.05877686, 49.11957483 ], [ 20.05876814, 49.11957411 ], [ 20.05874156, 49.11957644 ], [ 20.05861464, 49.11958314 ], [ 20.05852392, 49.11959024 ], [ 20.05844106, 49.11960702 ], [ 20.05830672, 49.11963396 ], [ 20.05822544, 49.11965153 ], [ 20.05846117, 49.11967272 ], [ 20.05867031, 49.11969065 ], [ 20.05874604, 49.11969682 ], [ 20.05879125, 49.11970065 ] ] ] } },
{ "type": "Feature", "properties": { "@featureType": "CadastralParcel", "areaValue": { "value": 3655, "@uom": "m2" }, "beginLifespanVersion": { "@nilReason": "http://inspire.ec.europa.eu/codelist/VoidReasonValue/Unpopulated", "@nil": "true" }, "endLifespanVersion": { "@nilReason": "http://inspire.ec.europa.eu/codelist/VoidReasonValue/Unpopulated", "@nil": "true" }, "inspireId": { "@dataType": "Identifier", "localId": "861375_3553/1.C", "namespace": "SK.ESKN.CP", "versionId": "20260703T06:07:14" }, "label": "3553/1", "nationalCadastralReference": "861375_3553/1.C", "referencePoint": { "type": "Point", "coordinates": [ 20.05998683, 49.11950836 ] }, "validFrom": "2026-06-30T16:00:00Z", "validTo": { "@nilReason": "http://inspire.ec.europa.eu/codelist/VoidReasonValue/Unpopulated", "@nil": "true" }, "administrativeUnit": { "@href": "#auAdmUnitS.1169" } }, "geometry": { "type": "Polygon", "coordinates": [ [ [ 20.05715069, 49.11961048 ], [ 20.05715304, 49.11961463 ], [ 20.05721014, 49.11961319 ], [ 20.05720311, 49.11961785 ], [ 20.0571996, 49.11962447 ], [ 20.05720017, 49.11962999 ], [ 20.05722332, 49.11969112 ], [ 20.05722902, 49.11969901 ], [ 20.05723708, 49.11970529 ], [ 20.05724959, 49.11970796 ], [ 20.05738027, 49.1197007 ], [ 20.05738797, 49.11970201 ], [ 20.05747272, 49.1196971 ], [ 20.05777575, 49.11967456 ], [ 20.05801886, 49.11965857 ], [ 20.05809875, 49.11964995 ], [ 20.058145, 49.1196486 ], [ 20.05817683, 49.11964882 ], [ 20.05822544, 49.11965153 ], [ 20.05830672, 49.11963396 ], [ 20.05844106, 49.11960702 ], [ 20.05852392, 49.11959024 ], [ 20.05861464, 49.11958314 ], [ 20.05874156, 49.11957644 ], [ 20.05876814, 49.11957411 ], [ 20.05877686, 49.11957483 ], [ 20.05891164, 49.11959512 ], [ 20.05911251, 49.11958461 ], [ 20.05924985, 49.11957798 ], [ 20.05933032, 49.11956614 ], [ 20.05939274, 49.11955644 ], [ 20.05963937, 49.11957843 ], [ 20.05983842, 49.11954658 ], [ 20.05999546, 49.11957535 ], [ 20.06007808, 49.11957261 ], [ 20.06008602, 49.11957438 ], [ 20.06030835, 49.1196224 ], [ 20.06066637, 49.11969724 ], [ 20.06088532, 49.11973765 ], [ 20.06092436, 49.11974574 ], [ 20.06098405, 49.11976034 ], [ 20.06101761, 49.11975532 ], [ 20.06102817, 49.1197453 ], [ 20.06103807, 49.11970471 ], [ 20.06104697, 49.119663 ], [ 20.06105002, 49.11961501 ], [ 20.06102958, 49.1196149 ], [ 20.06102806, 49.119667 ], [ 20.0609846, 49.11966648 ], [ 20.0609847, 49.11966541 ], [ 20.06088489, 49.11966411 ], [ 20.0608852, 49.11966521 ], [ 20.06087779, 49.11966517 ], [ 20.06085795, 49.11960093 ], [ 20.06086426, 49.11960101 ], [ 20.06086829, 49.1195846 ], [ 20.06087954, 49.1195847 ], [ 20.06088151, 49.11951774 ], [ 20.0608183, 49.1194765 ], [ 20.06081336, 49.11947648 ], [ 20.06080749, 49.1194921 ], [ 20.06070934, 49.11947763 ], [ 20.06070943, 49.11947529 ], [ 20.0606683, 49.11947478 ], [ 20.06066977, 49.11942168 ], [ 20.06064934, 49.11942148 ], [ 20.06065096, 49.11935964 ], [ 20.06060682, 49.11935901 ], [ 20.06058681, 49.11935873 ], [ 20.06058694, 49.11935441 ], [ 20.06057213, 49.11935425 ], [ 20.06054348, 49.11935389 ], [ 20.06054321, 49.11936388 ], [ 20.06057173, 49.11936424 ], [ 20.06058667, 49.11936449 ], [ 20.06058651, 49.11937052 ], [ 20.06060653, 49.11937071 ], [ 20.06060418, 49.11945179 ], [ 20.06058417, 49.11945151 ], [ 20.06058252, 49.11950352 ], [ 20.06054139, 49.11950301 ], [ 20.06054148, 49.11950635 ], [ 20.06044129, 49.11951774 ], [ 20.06043587, 49.11950112 ], [ 20.06043162, 49.11950104 ], [ 20.06041193, 49.11943816 ], [ 20.06041964, 49.11943793 ], [ 20.06041998, 49.11943866 ], [ 20.0604333, 49.11943858 ], [ 20.06043572, 49.11935687 ], [ 20.06037924, 49.11935609 ], [ 20.06037824, 49.11938101 ], [ 20.06035891, 49.11938075 ], [ 20.06035742, 49.11943259 ], [ 20.06031711, 49.11943202 ], [ 20.06031693, 49.11943544 ], [ 20.06021557, 49.11944751 ], [ 20.06021274, 49.11943108 ], [ 20.06020644, 49.119431 ], [ 20.06018712, 49.11936705 ], [ 20.06019475, 49.11936619 ], [ 20.06019539, 49.11936811 ], [ 20.06020814, 49.11936827 ], [ 20.06020934, 49.11932246 ], [ 20.06016575, 49.11932185 ], [ 20.06013665, 49.11929435 ], [ 20.06000974, 49.11935871 ], [ 20.05997676, 49.11937358 ], [ 20.05969014, 49.11947185 ], [ 20.05934331, 49.1195537 ], [ 20.05888898, 49.1195823 ], [ 20.05883764, 49.11954767 ], [ 20.05859658, 49.11956375 ], [ 20.0584721, 49.11949711 ], [ 20.05824792, 49.11951037 ], [ 20.0582621, 49.11961096 ], [ 20.0580053, 49.11963377 ], [ 20.05757602, 49.11965016 ], [ 20.05758812, 49.11956614 ], [ 20.05754237, 49.11956228 ], [ 20.05754168, 49.11956514 ], [ 20.05753476, 49.11956432 ], [ 20.05753518, 49.1195628 ], [ 20.05737068, 49.11954462 ], [ 20.05737026, 49.11954613 ], [ 20.05736333, 49.1195454 ], [ 20.05737922, 49.1194837 ], [ 20.05736319, 49.11948187 ], [ 20.05736281, 49.11948303 ], [ 20.05735534, 49.11948218 ], [ 20.05739181, 49.11938736 ], [ 20.05739857, 49.11938845 ], [ 20.05739784, 49.11939031 ], [ 20.05745554, 49.11939997 ], [ 20.05745533, 49.11940069 ], [ 20.05746384, 49.11940212 ], [ 20.05747554, 49.11935277 ], [ 20.05760972, 49.11934475 ], [ 20.0576104, 49.11935064 ], [ 20.05765195, 49.11934819 ], [ 20.05764599, 49.11931272 ], [ 20.05778949, 49.11930346 ], [ 20.05778562, 49.11928348 ], [ 20.05793642, 49.11927398 ], [ 20.0579338, 49.11925676 ], [ 20.05783316, 49.11927002 ], [ 20.05742776, 49.11932252 ], [ 20.05738615, 49.11933424 ], [ 20.05733812, 49.11935723 ], [ 20.05730178, 49.11937854 ], [ 20.05726057, 49.11940622 ], [ 20.05723142, 49.11942845 ], [ 20.05720286, 49.11946026 ], [ 20.05716989, 49.11951684 ], [ 20.05714887, 49.11956319 ], [ 20.05714758, 49.11958837 ], [ 20.05715069, 49.11961048 ] ] ] } }
]
}
