{
"type": "FeatureCollection",
"name": "gis",
"crs": { "type": "name", "properties": { "name": "urn:ogc:def:crs:OGC:1.3:CRS84" } },
"features": [
{ "type": "Feature", "properties": { "place_id": 188096611, "osm_type": "way", "osm_id": 80901822, "place_rank": 25, "category": "boundary", "type": "protected_area", "importance": 0.35865652324189978, "addresstype": "protected_area", "name": "Ďumbier", "display_name": "Ďumbier, Liptovský Ján, okres Liptovský Mikuláš, Žilinský kraj, Slovensko" }, "geometry": { "type": "Polygon", "coordinates": [ [ [ 19.6266078, 48.9486248 ], [ 19.6266372, 48.94821 ], [ 19.6273934, 48.9450681 ], [ 19.6297521, 48.9413184 ], [ 19.6298107, 48.9410981 ], [ 19.6299038, 48.9401452 ], [ 19.629888, 48.9394984 ], [ 19.6313353, 48.9384723 ], [ 19.6321072, 48.9380544 ], [ 19.6321334, 48.9378743 ], [ 19.6329643, 48.9376974 ], [ 19.635162, 48.9373886 ], [ 19.6368008, 48.9372821 ], [ 19.6372947, 48.9369963 ], [ 19.6402661, 48.9363961 ], [ 19.6480623, 48.9329745 ], [ 19.6492708, 48.9273589 ], [ 19.6497944, 48.9268036 ], [ 19.6529357, 48.9257595 ], [ 19.6541332, 48.9252081 ], [ 19.6546348, 48.9247329 ], [ 19.6555089, 48.9240671 ], [ 19.6577613, 48.9232851 ], [ 19.6587077, 48.9228595 ], [ 19.6603517, 48.9224344 ], [ 19.6621897, 48.9221711 ], [ 19.6638046, 48.9217482 ], [ 19.6652568, 48.9215514 ], [ 19.6693221, 48.9191591 ], [ 19.6752706, 48.9181915 ], [ 19.676474, 48.9192355 ], [ 19.6772168, 48.9197823 ], [ 19.6783305, 48.9207818 ], [ 19.6793171, 48.9209509 ], [ 19.6806737, 48.9211526 ], [ 19.6812358, 48.9213543 ], [ 19.6824755, 48.921951 ], [ 19.6875055, 48.9231548 ], [ 19.6901416, 48.9236979 ], [ 19.6902413, 48.9265071 ], [ 19.6911007, 48.929213 ], [ 19.6928741, 48.9303349 ], [ 19.6950703, 48.9325596 ], [ 19.6995213, 48.9354551 ], [ 19.7007267, 48.9363366 ], [ 19.7026709, 48.9366094 ], [ 19.7066035, 48.9367673 ], [ 19.7072103, 48.9369293 ], [ 19.709775, 48.9374906 ], [ 19.7118209, 48.9389997 ], [ 19.7134062, 48.9401426 ], [ 19.7114868, 48.941259 ], [ 19.7108674, 48.94232 ], [ 19.7096676, 48.9438903 ], [ 19.7091587, 48.9450087 ], [ 19.7081299, 48.9469537 ], [ 19.7079252, 48.9472194 ], [ 19.7079804, 48.9481952 ], [ 19.7079423, 48.9489308 ], [ 19.7080938, 48.9496361 ], [ 19.7086763, 48.9511372 ], [ 19.7092015, 48.9526181 ], [ 19.7085378, 48.952341 ], [ 19.7076848, 48.9519345 ], [ 19.7065938, 48.9514613 ], [ 19.706134, 48.9511738 ], [ 19.7060157, 48.9512155 ], [ 19.7055536, 48.9515536 ], [ 19.7054571, 48.9515852 ], [ 19.7051455, 48.9517922 ], [ 19.7047574, 48.9521599 ], [ 19.7045866, 48.9524159 ], [ 19.7038628, 48.9520515 ], [ 19.7036284, 48.9516601 ], [ 19.7043482, 48.9510949 ], [ 19.7050832, 48.9504645 ], [ 19.7044231, 48.9496356 ], [ 19.7042557, 48.9498078 ], [ 19.7038947, 48.9500219 ], [ 19.7033978, 48.9490124 ], [ 19.7029587, 48.9482904 ], [ 19.7024462, 48.9476445 ], [ 19.7020215, 48.9476883 ], [ 19.7012145, 48.9477992 ], [ 19.7007226, 48.9478856 ], [ 19.7004696, 48.9479044 ], [ 19.698406, 48.9479582 ], [ 19.6978286, 48.9479197 ], [ 19.6966896, 48.9475068 ], [ 19.695268, 48.9470776 ], [ 19.6937663, 48.946498 ], [ 19.6931443, 48.9466795 ], [ 19.6927619, 48.9468167 ], [ 19.6919492, 48.9471412 ], [ 19.6919869, 48.9472886 ], [ 19.6921523, 48.9475232 ], [ 19.6922735, 48.9476571 ], [ 19.6912809, 48.947562 ], [ 19.6909943, 48.9475887 ], [ 19.6907373, 48.9476904 ], [ 19.690525, 48.9477204 ], [ 19.6900277, 48.9476886 ], [ 19.6893116, 48.9476027 ], [ 19.6889036, 48.947501 ], [ 19.6884797, 48.9473345 ], [ 19.6879789, 48.9471077 ], [ 19.6872052, 48.9467196 ], [ 19.6864408, 48.9463121 ], [ 19.6863537, 48.9462149 ], [ 19.6862336, 48.9460031 ], [ 19.6860347, 48.9457585 ], [ 19.6857166, 48.9455133 ], [ 19.6853503, 48.9453004 ], [ 19.6850435, 48.945164 ], [ 19.6847929, 48.9450287 ], [ 19.6843405, 48.9448454 ], [ 19.6830381, 48.94442 ], [ 19.6827375, 48.9442971 ], [ 19.682261, 48.9441696 ], [ 19.681961, 48.9440403 ], [ 19.6825301, 48.9456372 ], [ 19.6828264, 48.9463141 ], [ 19.683179, 48.9472996 ], [ 19.6831484, 48.9480229 ], [ 19.6832062, 48.9480617 ], [ 19.6828613, 48.9483402 ], [ 19.6819917, 48.9485121 ], [ 19.6814406, 48.9484726 ], [ 19.6806191, 48.9485464 ], [ 19.6794548, 48.9489206 ], [ 19.6792546, 48.9490388 ], [ 19.6790074, 48.9487657 ], [ 19.678673, 48.9482745 ], [ 19.6783236, 48.9481118 ], [ 19.6779504, 48.9483705 ], [ 19.6777742, 48.9488577 ], [ 19.6775553, 48.9491313 ], [ 19.6774462, 48.9494041 ], [ 19.6756778, 48.9497765 ], [ 19.6675808, 48.9509158 ], [ 19.6658615, 48.9510911 ], [ 19.6652372, 48.9510494 ], [ 19.665246, 48.951594 ], [ 19.6641304, 48.9512173 ], [ 19.6631789, 48.9516982 ], [ 19.6632651, 48.9517424 ], [ 19.6634682, 48.9517961 ], [ 19.663756, 48.9518138 ], [ 19.6640412, 48.9518559 ], [ 19.6644653, 48.9519921 ], [ 19.6648916, 48.9521089 ], [ 19.6659666, 48.9523426 ], [ 19.66679, 48.9524232 ], [ 19.6673664, 48.952518 ], [ 19.6688408, 48.9526024 ], [ 19.669096, 48.9526938 ], [ 19.6692704, 48.9528052 ], [ 19.6694863, 48.9528618 ], [ 19.6698056, 48.9528855 ], [ 19.6702804, 48.952996 ], [ 19.6710954, 48.9533478 ], [ 19.6714211, 48.9535177 ], [ 19.6718428, 48.953788 ], [ 19.6721709, 48.9540706 ], [ 19.6725559, 48.9543558 ], [ 19.6726826, 48.9545825 ], [ 19.6728177, 48.954659 ], [ 19.6730115, 48.9547194 ], [ 19.6731644, 48.9548296 ], [ 19.672145, 48.954957 ], [ 19.6721103, 48.9547307 ], [ 19.672065, 48.9545982 ], [ 19.6719957, 48.9545278 ], [ 19.6718929, 48.9545183 ], [ 19.6715986, 48.9546121 ], [ 19.6715356, 48.9546609 ], [ 19.6714638, 48.9547759 ], [ 19.6714544, 48.9549103 ], [ 19.6714055, 48.9548382 ], [ 19.6708514, 48.9544572 ], [ 19.6705651, 48.9542235 ], [ 19.6703266, 48.9541376 ], [ 19.6697285, 48.9538407 ], [ 19.6694539, 48.9537213 ], [ 19.668284, 48.9533731 ], [ 19.667858, 48.9532683 ], [ 19.6675229, 48.9532319 ], [ 19.6671608, 48.9532683 ], [ 19.6669322, 48.9559312 ], [ 19.6665712, 48.9608839 ], [ 19.6662914, 48.9609957 ], [ 19.6658429, 48.9609157 ], [ 19.6654761, 48.9608723 ], [ 19.6650189, 48.9609062 ], [ 19.6638425, 48.9608131 ], [ 19.6623517, 48.960869 ], [ 19.661729, 48.9608073 ], [ 19.6614362, 48.9607467 ], [ 19.6610182, 48.9605991 ], [ 19.6605339, 48.9603942 ], [ 19.6598187, 48.9599277 ], [ 19.6593645, 48.9597309 ], [ 19.6589753, 48.9596049 ], [ 19.6588029, 48.9595769 ], [ 19.6586808, 48.9596026 ], [ 19.6585042, 48.9596993 ], [ 19.6581623, 48.9599351 ], [ 19.6576631, 48.9603103 ], [ 19.6572673, 48.9606848 ], [ 19.6568863, 48.9609921 ], [ 19.6563444, 48.9614788 ], [ 19.6561197, 48.9616279 ], [ 19.6556452, 48.9617024 ], [ 19.656289, 48.9632733 ], [ 19.6561136, 48.9633643 ], [ 19.65454, 48.963762 ], [ 19.653277, 48.9641001 ], [ 19.6519253, 48.9644971 ], [ 19.650767, 48.964815 ], [ 19.6511542, 48.9656842 ], [ 19.6511324, 48.9660105 ], [ 19.6509231, 48.9659332 ], [ 19.6507193, 48.9659528 ], [ 19.6502194, 48.965757 ], [ 19.6498458, 48.9656746 ], [ 19.649041, 48.9651666 ], [ 19.6485659, 48.9653695 ], [ 19.6485054, 48.9653734 ], [ 19.6482356, 48.9652781 ], [ 19.6479356, 48.9651545 ], [ 19.646683, 48.9644153 ], [ 19.6461401, 48.9646305 ], [ 19.6423374, 48.9662478 ], [ 19.6436652, 48.9668641 ], [ 19.6437198, 48.9669478 ], [ 19.6436624, 48.9674725 ], [ 19.6434856, 48.9676077 ], [ 19.6435004, 48.9677708 ], [ 19.6438917, 48.9680056 ], [ 19.6442386, 48.9694778 ], [ 19.643259, 48.9698032 ], [ 19.6429083, 48.9697311 ], [ 19.6419437, 48.9704697 ], [ 19.6424945, 48.9711897 ], [ 19.6430901, 48.9715601 ], [ 19.6427576, 48.9719414 ], [ 19.6424129, 48.9718786 ], [ 19.6416768, 48.972494 ], [ 19.6405685, 48.9724918 ], [ 19.6407613, 48.9725875 ], [ 19.6413313, 48.9729865 ], [ 19.6419274, 48.9732155 ], [ 19.6420525, 48.973314 ], [ 19.6427054, 48.9732874 ], [ 19.6434476, 48.9732824 ], [ 19.6438154, 48.973225 ], [ 19.6446484, 48.9729804 ], [ 19.644866, 48.9732522 ], [ 19.6463848, 48.9728821 ], [ 19.6475073, 48.9726611 ], [ 19.647661, 48.9725972 ], [ 19.6487154, 48.9726054 ], [ 19.6492591, 48.9726391 ], [ 19.6502137, 48.9727264 ], [ 19.6505874, 48.9723785 ], [ 19.6517197, 48.9724932 ], [ 19.651717, 48.9725926 ], [ 19.6514219, 48.9731116 ], [ 19.6511469, 48.9735071 ], [ 19.6504922, 48.9743632 ], [ 19.6508514, 48.9745434 ], [ 19.6508782, 48.9747236 ], [ 19.6510561, 48.9747564 ], [ 19.65118, 48.9747271 ], [ 19.6515701, 48.9747545 ], [ 19.6529423, 48.9747809 ], [ 19.6541913, 48.974757 ], [ 19.6550101, 48.9747782 ], [ 19.6547861, 48.9753615 ], [ 19.6551603, 48.9751456 ], [ 19.6551905, 48.975166 ], [ 19.6551924, 48.9751321 ], [ 19.6563588, 48.9747263 ], [ 19.6565422, 48.9746219 ], [ 19.6574388, 48.9751657 ], [ 19.6580915, 48.9748232 ], [ 19.659857, 48.9744476 ], [ 19.6602375, 48.9739961 ], [ 19.6611748, 48.9734355 ], [ 19.6619246, 48.9736236 ], [ 19.66251, 48.9736554 ], [ 19.6636568, 48.9741124 ], [ 19.6640513, 48.9746296 ], [ 19.664366, 48.9746841 ], [ 19.6642891, 48.9748337 ], [ 19.664428, 48.9748919 ], [ 19.6642245, 48.9755229 ], [ 19.6639515, 48.9775406 ], [ 19.6640668, 48.97807 ], [ 19.6640685, 48.9787758 ], [ 19.6641216, 48.9790968 ], [ 19.6644946, 48.9797301 ], [ 19.664387, 48.9800161 ], [ 19.6641524, 48.9804026 ], [ 19.6639713, 48.9806231 ], [ 19.6637699, 48.9806262 ], [ 19.6635838, 48.9804816 ], [ 19.6635002, 48.9804658 ], [ 19.6633335, 48.9804747 ], [ 19.663129, 48.9804614 ], [ 19.6625199, 48.980342 ], [ 19.6620996, 48.9802419 ], [ 19.6616384, 48.9802696 ], [ 19.6612308, 48.9803118 ], [ 19.6612021, 48.9803227 ], [ 19.660716, 48.980506 ], [ 19.6600665, 48.9807549 ], [ 19.659706, 48.9808756 ], [ 19.6592456, 48.9810159 ], [ 19.6585724, 48.9812071 ], [ 19.6582392, 48.9814271 ], [ 19.6577681, 48.9815655 ], [ 19.6575142, 48.9816559 ], [ 19.6573165, 48.9820156 ], [ 19.6570258, 48.9821509 ], [ 19.6565734, 48.9822959 ], [ 19.6562751, 48.9823801 ], [ 19.6560902, 48.9826132 ], [ 19.6554754, 48.9828383 ], [ 19.6549002, 48.9831053 ], [ 19.6541423, 48.9835211 ], [ 19.6535511, 48.9838806 ], [ 19.653299, 48.9840692 ], [ 19.6530437, 48.9842466 ], [ 19.6523008, 48.9848922 ], [ 19.6517276, 48.9851829 ], [ 19.6513719, 48.9853229 ], [ 19.6509613, 48.9854587 ], [ 19.6508793, 48.985579 ], [ 19.6507224, 48.9856805 ], [ 19.6503447, 48.9858803 ], [ 19.6498521, 48.9861072 ], [ 19.6496125, 48.9861887 ], [ 19.6491179, 48.9863003 ], [ 19.6486321, 48.9865967 ], [ 19.6479402, 48.986787 ], [ 19.6476243, 48.9869988 ], [ 19.6475118, 48.9870795 ], [ 19.6474544, 48.9871081 ], [ 19.6466967, 48.9874879 ], [ 19.6463557, 48.9875544 ], [ 19.646102, 48.9875767 ], [ 19.6458355, 48.9875435 ], [ 19.6451892, 48.9874043 ], [ 19.644682, 48.9872684 ], [ 19.6443192, 48.9872215 ], [ 19.6439119, 48.9872003 ], [ 19.6434674, 48.9872233 ], [ 19.6430912, 48.9872617 ], [ 19.643008, 48.9872796 ], [ 19.6424484, 48.9874002 ], [ 19.6420254, 48.9875255 ], [ 19.6416675, 48.987648 ], [ 19.6414314, 48.9877289 ], [ 19.6405887, 48.9880308 ], [ 19.6404081, 48.9881003 ], [ 19.6402242, 48.9881711 ], [ 19.6398848, 48.9883402 ], [ 19.6387749, 48.9888703 ], [ 19.6381459, 48.9891712 ], [ 19.6379022, 48.9893092 ], [ 19.636428, 48.9883289 ], [ 19.6354823, 48.9873747 ], [ 19.6352846, 48.9870659 ], [ 19.6353381, 48.986402 ], [ 19.6344726, 48.9854103 ], [ 19.6330338, 48.9849804 ], [ 19.632826, 48.9848103 ], [ 19.6333027, 48.9830369 ], [ 19.6327732, 48.9817442 ], [ 19.6327454, 48.9811426 ], [ 19.6334039, 48.9788399 ], [ 19.6326472, 48.9775173 ], [ 19.6335016, 48.9769515 ], [ 19.6329109, 48.9735799 ], [ 19.6317433, 48.9681567 ], [ 19.6306541, 48.9665171 ], [ 19.6297467, 48.9640084 ], [ 19.6307466, 48.9603477 ], [ 19.6306761, 48.9596202 ], [ 19.6306357, 48.9582945 ], [ 19.6308523, 48.9559962 ], [ 19.6311836, 48.9556042 ], [ 19.630449, 48.9535109 ], [ 19.6286504, 48.9504933 ], [ 19.6266078, 48.9486248 ] ] ] } }
]
}
