{
"type": "FeatureCollection",
"name": "gis",
"crs": { "type": "name", "properties": { "name": "urn:ogc:def:crs:OGC:1.3:CRS84" } },
"features": [
{ "type": "Feature", "properties": { "@featureType": "CadastralParcel", "areaValue": { "value": 5774, "@uom": "m2" }, "beginLifespanVersion": { "@nilReason": "http://inspire.ec.europa.eu/codelist/VoidReasonValue/Unpopulated", "@nil": "true" }, "endLifespanVersion": { "@nilReason": "http://inspire.ec.europa.eu/codelist/VoidReasonValue/Unpopulated", "@nil": "true" }, "inspireId": { "@dataType": "Identifier", "localId": "808300_4020.C", "namespace": "SK.ESKN.CP", "versionId": "20260703T07:07:17" }, "label": "4020", "nationalCadastralReference": "808300_4020.C", "referencePoint": { "type": "Point", "coordinates": [ 21.89905547, 49.17981939 ] }, "validFrom": "2026-06-30T16:00:00Z", "validTo": { "@nilReason": "http://inspire.ec.europa.eu/codelist/VoidReasonValue/Unpopulated", "@nil": "true" }, "administrativeUnit": { "@href": "#auAdmUnitS.2986" } }, "geometry": { "type": "Polygon", "coordinates": [ [ [ 21.89965384, 49.18291386 ], [ 21.89960465, 49.18288644 ], [ 21.89948964, 49.18273796 ], [ 21.89945035, 49.18266795 ], [ 21.89941669, 49.18258387 ], [ 21.89932923, 49.18230921 ], [ 21.89920723, 49.18192569 ], [ 21.89920642, 49.18192306 ], [ 21.89905246, 49.18138172 ], [ 21.89900779, 49.18108896 ], [ 21.89901824, 49.18090521 ], [ 21.89902857, 49.18013853 ], [ 21.89917848, 49.17951529 ], [ 21.89919698, 49.17943818 ], [ 21.89940943, 49.17899675 ], [ 21.89963595, 49.17862675 ], [ 21.90075103, 49.17749537 ], [ 21.90123081, 49.17707521 ], [ 21.90114387, 49.17704334 ], [ 21.90066759, 49.1774482 ], [ 21.90036025, 49.17769325 ], [ 21.90004905, 49.17799508 ], [ 21.89967431, 49.17841175 ], [ 21.89942233, 49.17877103 ], [ 21.89918093, 49.17919123 ], [ 21.89892073, 49.1801235 ], [ 21.89889592, 49.18069886 ], [ 21.89890743, 49.18095768 ], [ 21.89896452, 49.1813949 ], [ 21.89911299, 49.18192927 ], [ 21.89928679, 49.18248604 ], [ 21.89941429, 49.18278484 ], [ 21.89941409, 49.18283064 ], [ 21.89960436, 49.18295257 ], [ 21.89963025, 49.18293234 ], [ 21.89965384, 49.18291386 ] ] ] } }
]
}
