{
"type": "FeatureCollection",
"name": "gis",
"crs": { "type": "name", "properties": { "name": "urn:ogc:def:crs:OGC:1.3:CRS84" } },
"features": [
{ "type": "Feature", "properties": { "@featureType": "CadastralZoning", "beginLifespanVersion": { "@nilReason": "http://inspire.ec.europa.eu/codelist/VoidReasonValue/Unpopulated", "@nil": "true" }, "endLifespanVersion": { "@nilReason": "http://inspire.ec.europa.eu/codelist/VoidReasonValue/Unpopulated", "@nil": "true" }, "estimatedAccuracy": { "value": -1, "@uom": "m" }, "inspireId": { "@dataType": "Identifier", "localId": "806099", "namespace": "SK.ESKN.CP", "versionId": "20260703T04:07:40" }, "label": "Dúbravka", "level": { "@href": "http://inspire.ec.europa.eu/codelist/CadastralZoningLevelValue/3rdOrder" }, "levelName": { "value": "Katastrálne územie", "@locale": "sk" }, "name": { "@dataType": "name", "GeographicalName": { "@dataType": "GeographicalName", "language": "SLK", "nativeness": { "@href": "http://inspire.ec.europa.eu/codelist/NativenessValue/endonym", "@title": "endonym" }, "nameStatus": { "@href": "http://inspire.ec.europa.eu/codelist/NameStatusValue/official", "@title": "official" }, "sourceOfName": { "@nilReason": "http://inspire.ec.europa.eu/codelist/VoidReasonValue/Unpopulated", "@nil": "true" }, "pronunciation": { "@dataType": "pronunciation", "@nilReason": "http://inspire.ec.europa.eu/codelist/VoidReasonValue/Unpopulated", "@nil": "true" }, "spelling": { "@dataType": "SpellingOfName", "text": "Dúbravka", "script": "LATN" } } }, "nationalCadastalZoningReference": "806099", "validFrom": "2026-06-30T16:00:00Z", "validTo": { "@nilReason": "http://inspire.ec.europa.eu/codelist/VoidReasonValue/Unpopulated", "@nil": "true" } }, "geometry": { "type": "MultiPolygon", "coordinates": [ [ [ [ 17.00761044, 48.20395218 ], [ 17.00780294, 48.20394479 ], [ 17.00911319, 48.2037913 ], [ 17.00961075, 48.20373307 ], [ 17.00966391, 48.20372687 ], [ 17.01050934, 48.20362788 ], [ 17.01078567, 48.2036171 ], [ 17.01116782, 48.20360229 ], [ 17.01188956, 48.20357427 ], [ 17.01198344, 48.20357059 ], [ 17.01219132, 48.20356252 ], [ 17.01251995, 48.20355018 ], [ 17.0132958, 48.20352116 ], [ 17.01361326, 48.20350932 ], [ 17.01367205, 48.20350693 ], [ 17.0157584, 48.2034229 ], [ 17.01579181, 48.20342022 ], [ 17.01600075, 48.20340345 ], [ 17.01610989, 48.20339467 ], [ 17.01613506, 48.20339368 ], [ 17.01629033, 48.20338734 ], [ 17.01645172, 48.20338087 ], [ 17.01655378, 48.20337675 ], [ 17.01659228, 48.20337524 ], [ 17.01660113, 48.20337485 ], [ 17.01674306, 48.20336913 ], [ 17.01687656, 48.20336373 ], [ 17.01710394, 48.20335455 ], [ 17.01740087, 48.20334256 ], [ 17.01747122, 48.2033397 ], [ 17.01749963, 48.20333875 ], [ 17.01752356, 48.20333795 ], [ 17.01757331, 48.2033363 ], [ 17.01993157, 48.20325945 ], [ 17.02000431, 48.20325694 ], [ 17.02008721, 48.2032543 ], [ 17.02016713, 48.20325165 ], [ 17.02039017, 48.20324434 ], [ 17.02079197, 48.20261221 ], [ 17.02154985, 48.20260234 ], [ 17.02222319, 48.20272299 ], [ 17.02296048, 48.20278383 ], [ 17.02299548, 48.20278668 ], [ 17.02320476, 48.20280383 ], [ 17.02324976, 48.20280755 ], [ 17.0237014, 48.20284483 ], [ 17.02372014, 48.2028717 ], [ 17.02392109, 48.20316011 ], [ 17.02488533, 48.20315821 ], [ 17.02564908, 48.2031365 ], [ 17.02580664, 48.20313202 ], [ 17.02633257, 48.20309148 ], [ 17.02652471, 48.20307662 ], [ 17.02669286, 48.20306219 ], [ 17.02684148, 48.20305077 ], [ 17.02689545, 48.20304624 ], [ 17.02701678, 48.20316963 ], [ 17.02779727, 48.20313929 ], [ 17.02781876, 48.2031385 ], [ 17.02796715, 48.20313294 ], [ 17.02810995, 48.20312771 ], [ 17.02817688, 48.20312515 ], [ 17.02818803, 48.20312474 ], [ 17.02833166, 48.20311939 ], [ 17.02887592, 48.20308444 ], [ 17.02901028, 48.2030752 ], [ 17.02904264, 48.20307317 ], [ 17.02906777, 48.20307154 ], [ 17.02939347, 48.20305091 ], [ 17.02946365, 48.20304649 ], [ 17.02977405, 48.20303656 ], [ 17.03026955, 48.20302068 ], [ 17.03041639, 48.20301554 ], [ 17.03116386, 48.20298618 ], [ 17.03246838, 48.20288166 ], [ 17.03309286, 48.20282795 ], [ 17.03310082, 48.20282723 ], [ 17.03312873, 48.20282336 ], [ 17.03477093, 48.20259331 ], [ 17.03679765, 48.20199974 ], [ 17.03772176, 48.20168473 ], [ 17.03808557, 48.20153776 ], [ 17.03859894, 48.20125123 ], [ 17.03912353, 48.20109194 ], [ 17.03971419, 48.20075184 ], [ 17.0399153, 48.20064735 ], [ 17.04098654, 48.20006954 ], [ 17.04165234, 48.19960404 ], [ 17.04161628, 48.19956396 ], [ 17.04181445, 48.19938053 ], [ 17.04185911, 48.1993025 ], [ 17.0419003, 48.19923037 ], [ 17.04191009, 48.19920437 ], [ 17.04195601, 48.19908276 ], [ 17.0419981, 48.19897119 ], [ 17.04204237, 48.19885416 ], [ 17.04205558, 48.19881909 ], [ 17.0423262, 48.19802941 ], [ 17.04230556, 48.19763575 ], [ 17.04239104, 48.19743494 ], [ 17.04244929, 48.19743341 ], [ 17.04250618, 48.19743187 ], [ 17.04256904, 48.1974302 ], [ 17.04258355, 48.19739721 ], [ 17.04269537, 48.19714269 ], [ 17.0428509, 48.19666335 ], [ 17.04287485, 48.19658987 ], [ 17.0429513, 48.19635436 ], [ 17.04302783, 48.19609002 ], [ 17.04309999, 48.19582601 ], [ 17.0431748, 48.19555965 ], [ 17.04319302, 48.19549093 ], [ 17.04321582, 48.19540462 ], [ 17.04324541, 48.19529246 ], [ 17.04327876, 48.19512922 ], [ 17.04330286, 48.19501054 ], [ 17.04335355, 48.19476224 ], [ 17.04336363, 48.19471755 ], [ 17.04340322, 48.1945409 ], [ 17.04341381, 48.19449381 ], [ 17.04347326, 48.19422884 ], [ 17.04366017, 48.19354951 ], [ 17.04369237, 48.19343266 ], [ 17.04371702, 48.19333779 ], [ 17.04376874, 48.19313838 ], [ 17.04382032, 48.19294167 ], [ 17.04383872, 48.19287178 ], [ 17.04399259, 48.19234126 ], [ 17.04405354, 48.19210713 ], [ 17.04425739, 48.191324 ], [ 17.04433275, 48.1910566 ], [ 17.04455051, 48.19026738 ], [ 17.04463225, 48.19000068 ], [ 17.04471835, 48.18973554 ], [ 17.04481218, 48.18947293 ], [ 17.04499181, 48.18894534 ], [ 17.04517081, 48.18842006 ], [ 17.04527436, 48.18815747 ], [ 17.04540762, 48.18791454 ], [ 17.04570294, 48.1874021 ], [ 17.04587732, 48.1871608 ], [ 17.04606587, 48.18692229 ], [ 17.04646849, 48.18645514 ], [ 17.04651034, 48.18640774 ], [ 17.0465651, 48.18634576 ], [ 17.04659143, 48.18631592 ], [ 17.04660736, 48.18629125 ], [ 17.0466512, 48.18622292 ], [ 17.04669096, 48.18616091 ], [ 17.04676881, 48.18603985 ], [ 17.04692305, 48.18579583 ], [ 17.04695064, 48.18574266 ], [ 17.04707934, 48.18555421 ], [ 17.04708197, 48.18555032 ], [ 17.0472481, 48.18533368 ], [ 17.04727119, 48.18531176 ], [ 17.0473784, 48.18520997 ], [ 17.0474108, 48.18517928 ], [ 17.0473647, 48.18511032 ], [ 17.04736164, 48.18508344 ], [ 17.04735001, 48.18498176 ], [ 17.04734574, 48.1849407 ], [ 17.04733963, 48.18489137 ], [ 17.047325, 48.18484111 ], [ 17.04732289, 48.18481339 ], [ 17.04732642, 48.18478317 ], [ 17.04733494, 48.18475753 ], [ 17.04734526, 48.18473067 ], [ 17.04742145, 48.18460986 ], [ 17.0476944, 48.18440541 ], [ 17.04797508, 48.18420962 ], [ 17.04826504, 48.18402215 ], [ 17.04850165, 48.18386701 ], [ 17.04855588, 48.18383148 ], [ 17.04874724, 48.18373545 ], [ 17.04887022, 48.1836737 ], [ 17.04891763, 48.18363942 ], [ 17.04914735, 48.18347369 ], [ 17.04939955, 48.18329882 ], [ 17.04941725, 48.18328647 ], [ 17.04957859, 48.18317365 ], [ 17.04969469, 48.18309236 ], [ 17.04978761, 48.18302738 ], [ 17.04990111, 48.18294808 ], [ 17.0500706, 48.18282967 ], [ 17.05015579, 48.18277022 ], [ 17.05024265, 48.18270953 ], [ 17.05032482, 48.18265214 ], [ 17.05040744, 48.18259441 ], [ 17.05051035, 48.18252253 ], [ 17.05061963, 48.1824584 ], [ 17.05073815, 48.18238866 ], [ 17.05082859, 48.18233554 ], [ 17.05090612, 48.18228994 ], [ 17.05098661, 48.18224264 ], [ 17.05106813, 48.18219479 ], [ 17.05113942, 48.18215283 ], [ 17.0512107, 48.18211096 ], [ 17.05129509, 48.1820709 ], [ 17.05137212, 48.18203033 ], [ 17.05152395, 48.18195048 ], [ 17.05166535, 48.18187607 ], [ 17.05174399, 48.1818347 ], [ 17.05181969, 48.18179486 ], [ 17.05189818, 48.18175357 ], [ 17.05198421, 48.18170801 ], [ 17.05208459, 48.18165439 ], [ 17.0522273, 48.18158378 ], [ 17.05238831, 48.18150401 ], [ 17.05239912, 48.1814987 ], [ 17.05253749, 48.18144152 ], [ 17.05280253, 48.18133198 ], [ 17.05293918, 48.18127713 ], [ 17.05308709, 48.18121763 ], [ 17.0530953, 48.1812143 ], [ 17.0531615, 48.18113222 ], [ 17.05322993, 48.18104704 ], [ 17.05328929, 48.18097344 ], [ 17.05329242, 48.18096534 ], [ 17.05332497, 48.18088051 ], [ 17.05335956, 48.1807903 ], [ 17.05339479, 48.1806986 ], [ 17.05342239, 48.18062672 ], [ 17.0534518, 48.18055008 ], [ 17.05345248, 48.18054832 ], [ 17.05346392, 48.18051855 ], [ 17.0534944, 48.18045789 ], [ 17.05353478, 48.18040415 ], [ 17.05353952, 48.18039787 ], [ 17.05356043, 48.18037336 ], [ 17.05360465, 48.18032368 ], [ 17.05363071, 48.18029725 ], [ 17.05365987, 48.18027538 ], [ 17.05366567, 48.18027107 ], [ 17.05373122, 48.18023035 ], [ 17.05381069, 48.18020387 ], [ 17.05403969, 48.18013996 ], [ 17.05426417, 48.18007736 ], [ 17.05440931, 48.18003683 ], [ 17.05456067, 48.17999456 ], [ 17.05478656, 48.17993152 ], [ 17.05479532, 48.17993166 ], [ 17.05511444, 48.18002387 ], [ 17.05537243, 48.18009853 ], [ 17.05542534, 48.18010522 ], [ 17.05557202, 48.18012364 ], [ 17.05559272, 48.18012623 ], [ 17.05560505, 48.1801278 ], [ 17.05569577, 48.18013914 ], [ 17.05597623, 48.18004095 ], [ 17.05611004, 48.17999404 ], [ 17.05624798, 48.17994579 ], [ 17.05642648, 48.1798833 ], [ 17.0565097, 48.17985699 ], [ 17.05665371, 48.17981149 ], [ 17.05678934, 48.17976859 ], [ 17.05694415, 48.17971959 ], [ 17.05709768, 48.17967104 ], [ 17.05715974, 48.17965141 ], [ 17.05722542, 48.17963203 ], [ 17.05736979, 48.17958945 ], [ 17.05739711, 48.17958138 ], [ 17.05740984, 48.17957764 ], [ 17.05744481, 48.17956728 ], [ 17.05751685, 48.17954607 ], [ 17.05765018, 48.17950672 ], [ 17.05774996, 48.17947728 ], [ 17.0577627, 48.17947354 ], [ 17.05776455, 48.17947294 ], [ 17.05779567, 48.17946386 ], [ 17.05792844, 48.17942465 ], [ 17.05801633, 48.17939874 ], [ 17.05807733, 48.17938075 ], [ 17.05827152, 48.1793235 ], [ 17.05831256, 48.17930966 ], [ 17.05832838, 48.17930432 ], [ 17.05856904, 48.1792233 ], [ 17.05857245, 48.17922218 ], [ 17.058635, 48.17920114 ], [ 17.05870413, 48.1791715 ], [ 17.05891024, 48.17908306 ], [ 17.05899601, 48.17904625 ], [ 17.05928716, 48.1789213 ], [ 17.05932149, 48.17890538 ], [ 17.05934763, 48.17889352 ], [ 17.05943942, 48.17885178 ], [ 17.0595932, 48.178782 ], [ 17.05962339, 48.1787649 ], [ 17.05983479, 48.17864526 ], [ 17.0609428, 48.17799172 ], [ 17.06102769, 48.17793586 ], [ 17.06151681, 48.17761443 ], [ 17.0616502, 48.1775268 ], [ 17.06164878, 48.17752454 ], [ 17.06171654, 48.17747908 ], [ 17.0619845, 48.17729957 ], [ 17.06205037, 48.17725055 ], [ 17.06207233, 48.17723415 ], [ 17.06208361, 48.17722579 ], [ 17.06225926, 48.17709503 ], [ 17.06228228, 48.17707789 ], [ 17.0623667, 48.17687176 ], [ 17.0623798, 48.17683993 ], [ 17.0624912, 48.17687519 ], [ 17.06252055, 48.17688036 ], [ 17.06253359, 48.1768826 ], [ 17.06257296, 48.17688945 ], [ 17.06265104, 48.176903 ], [ 17.06266667, 48.17689891 ], [ 17.06280137, 48.17678489 ], [ 17.06303492, 48.1765873 ], [ 17.06329889, 48.17636386 ], [ 17.06338441, 48.17629141 ], [ 17.06359639, 48.17611206 ], [ 17.06360735, 48.17610042 ], [ 17.06360512, 48.17609114 ], [ 17.06359187, 48.1760858 ], [ 17.06357414, 48.17606914 ], [ 17.06356775, 48.17606319 ], [ 17.06354068, 48.17603775 ], [ 17.06364336, 48.17598572 ], [ 17.06366723, 48.17597361 ], [ 17.0638007, 48.17590316 ], [ 17.06380584, 48.17590044 ], [ 17.06383786, 48.17587306 ], [ 17.06389755, 48.1758379 ], [ 17.06398189, 48.17577676 ], [ 17.06403771, 48.1757351 ], [ 17.06409849, 48.17561567 ], [ 17.06410137, 48.17561008 ], [ 17.06409042, 48.17558791 ], [ 17.06408556, 48.17557818 ], [ 17.06407678, 48.1755604 ], [ 17.06404266, 48.17549163 ], [ 17.0639999, 48.17546892 ], [ 17.06394177, 48.17543802 ], [ 17.06379366, 48.17540595 ], [ 17.06370377, 48.17538653 ], [ 17.06369854, 48.17538536 ], [ 17.06370028, 48.1753899 ], [ 17.06371392, 48.17542546 ], [ 17.06367261, 48.17541541 ], [ 17.06360326, 48.17539865 ], [ 17.06359192, 48.17539589 ], [ 17.06354617, 48.17538482 ], [ 17.06345886, 48.17536358 ], [ 17.06344698, 48.17536078 ], [ 17.06342914, 48.1753564 ], [ 17.06337112, 48.17534331 ], [ 17.06335073, 48.17533876 ], [ 17.06333609, 48.1753355 ], [ 17.06329795, 48.17532684 ], [ 17.06326188, 48.17531878 ], [ 17.06317145, 48.17529841 ], [ 17.06309214, 48.17528053 ], [ 17.0630698, 48.17527548 ], [ 17.06304131, 48.17526911 ], [ 17.06301517, 48.17526326 ], [ 17.06287667, 48.17523202 ], [ 17.06285564, 48.17522724 ], [ 17.06259155, 48.17516782 ], [ 17.06243392, 48.1751389 ], [ 17.06219099, 48.17512594 ], [ 17.06214621, 48.17513246 ], [ 17.06181497, 48.17518101 ], [ 17.06179181, 48.17516804 ], [ 17.06177437, 48.17515835 ], [ 17.06169506, 48.17511479 ], [ 17.06167087, 48.17510148 ], [ 17.06162809, 48.17507885 ], [ 17.06158268, 48.17505496 ], [ 17.06137363, 48.17488639 ], [ 17.06136136, 48.17487642 ], [ 17.06129722, 48.17482467 ], [ 17.06121054, 48.1747346 ], [ 17.06088153, 48.17481285 ], [ 17.06053134, 48.17489617 ], [ 17.06046369, 48.17491704 ], [ 17.06001086, 48.17505654 ], [ 17.05998278, 48.1750652 ], [ 17.05990967, 48.17493229 ], [ 17.05992241, 48.17492937 ], [ 17.05991526, 48.17491776 ], [ 17.05978047, 48.1746992 ], [ 17.05973865, 48.17463135 ], [ 17.05973237, 48.17462116 ], [ 17.05965176, 48.17451079 ], [ 17.05958468, 48.17443046 ], [ 17.05955587, 48.17439252 ], [ 17.05938078, 48.17418033 ], [ 17.05935005, 48.1740496 ], [ 17.0593598, 48.17401844 ], [ 17.05936379, 48.17400561 ], [ 17.05937602, 48.17398655 ], [ 17.05943787, 48.17388944 ], [ 17.05944022, 48.17388644 ], [ 17.05948936, 48.17382299 ], [ 17.0595141, 48.17379105 ], [ 17.0595902, 48.17369264 ], [ 17.05971704, 48.17349465 ], [ 17.05975377, 48.17343722 ], [ 17.05960816, 48.17335696 ], [ 17.05961016, 48.17335538 ], [ 17.05959742, 48.17334854 ], [ 17.05948749, 48.17328951 ], [ 17.05938296, 48.1732332 ], [ 17.05910781, 48.17322165 ], [ 17.05896573, 48.17322894 ], [ 17.05887833, 48.17324992 ], [ 17.05875252, 48.1733207 ], [ 17.05862863, 48.17339044 ], [ 17.05849867, 48.17346356 ], [ 17.05830893, 48.17359813 ], [ 17.0583269, 48.1736159 ], [ 17.05834568, 48.17363454 ], [ 17.05828796, 48.17366468 ], [ 17.05816415, 48.17372945 ], [ 17.0582226, 48.17389996 ], [ 17.05631828, 48.17446691 ], [ 17.05578476, 48.17463388 ], [ 17.05557875, 48.17484662 ], [ 17.05557184, 48.17504855 ], [ 17.05557038, 48.17509356 ], [ 17.05537218, 48.17517187 ], [ 17.05520852, 48.17523645 ], [ 17.0550227, 48.17530982 ], [ 17.05489196, 48.17536146 ], [ 17.05478602, 48.17538432 ], [ 17.05457039, 48.17543071 ], [ 17.05410971, 48.17545149 ], [ 17.05410241, 48.17543472 ], [ 17.05402689, 48.17523177 ], [ 17.05395013, 48.1750281 ], [ 17.05394965, 48.17502681 ], [ 17.05391084, 48.17492426 ], [ 17.05390796, 48.17491656 ], [ 17.05386745, 48.17480921 ], [ 17.05384447, 48.17474815 ], [ 17.05382706, 48.17470195 ], [ 17.05325747, 48.17467217 ], [ 17.05325599, 48.17463853 ], [ 17.05324318, 48.17450377 ], [ 17.05323393, 48.17439529 ], [ 17.05322468, 48.17428682 ], [ 17.05321838, 48.17421298 ], [ 17.05320565, 48.17410074 ], [ 17.05320579, 48.17406441 ], [ 17.05326791, 48.17396117 ], [ 17.05331931, 48.17387591 ], [ 17.05338161, 48.17377241 ], [ 17.05340096, 48.17374037 ], [ 17.0534446, 48.17366787 ], [ 17.05350578, 48.17356637 ], [ 17.05359177, 48.17342363 ], [ 17.05343266, 48.17335482 ], [ 17.05318783, 48.17324905 ], [ 17.05316438, 48.17323886 ], [ 17.05294923, 48.17314588 ], [ 17.05293619, 48.17310385 ], [ 17.05281471, 48.17270006 ], [ 17.0527969, 48.17262643 ], [ 17.05274514, 48.17243785 ], [ 17.05276731, 48.17210859 ], [ 17.05276413, 48.17208424 ], [ 17.05285597, 48.17150491 ], [ 17.052912, 48.17101398 ], [ 17.0529506, 48.17067618 ], [ 17.05252525, 48.17084826 ], [ 17.05211747, 48.17097245 ], [ 17.05209393, 48.17097707 ], [ 17.05176411, 48.17104214 ], [ 17.05148472, 48.17109726 ], [ 17.05145448, 48.17110324 ], [ 17.05119753, 48.17115394 ], [ 17.05119075, 48.17108947 ], [ 17.05115928, 48.17079117 ], [ 17.05098145, 48.17082196 ], [ 17.05087961, 48.17085966 ], [ 17.05076237, 48.17090173 ], [ 17.05076958, 48.17087926 ], [ 17.05065708, 48.17045664 ], [ 17.05045347, 48.17045104 ], [ 17.05035776, 48.17035121 ], [ 17.05034027, 48.17033302 ], [ 17.05032938, 48.17028752 ], [ 17.0502554, 48.16997728 ], [ 17.05019337, 48.16998262 ], [ 17.05017347, 48.1699837 ], [ 17.0499994, 48.1699935 ], [ 17.0499791, 48.16999456 ], [ 17.04986664, 48.17000088 ], [ 17.0498117, 48.170004 ], [ 17.04968967, 48.17001021 ], [ 17.04968231, 48.17001061 ], [ 17.04961526, 48.17001426 ], [ 17.04957438, 48.17001643 ], [ 17.04954176, 48.17001854 ], [ 17.04942426, 48.17002606 ], [ 17.0491906, 48.1700411 ], [ 17.04915221, 48.17004381 ], [ 17.04909155, 48.17004807 ], [ 17.04908884, 48.17004815 ], [ 17.04901832, 48.17004975 ], [ 17.04883662, 48.17005198 ], [ 17.04874445, 48.17005463 ], [ 17.04862417, 48.17005816 ], [ 17.04844807, 48.17006799 ], [ 17.04817131, 48.17008822 ], [ 17.04781271, 48.17011604 ], [ 17.04753154, 48.17013244 ], [ 17.04743685, 48.17014278 ], [ 17.0473225, 48.1701553 ], [ 17.04676841, 48.17023223 ], [ 17.04645041, 48.17027476 ], [ 17.04629664, 48.17029579 ], [ 17.04608557, 48.17031065 ], [ 17.04588926, 48.17031648 ], [ 17.0458457, 48.17031594 ], [ 17.04579218, 48.17030975 ], [ 17.0457679, 48.17031297 ], [ 17.04571433, 48.170316 ], [ 17.04453757, 48.1703827 ], [ 17.0445238, 48.17038347 ], [ 17.04448052, 48.1703872 ], [ 17.04444606, 48.17038277 ], [ 17.04442246, 48.1703798 ], [ 17.04438438, 48.1703752 ], [ 17.04441559, 48.17025855 ], [ 17.04448824, 48.16998653 ], [ 17.04450185, 48.16994082 ], [ 17.0445321, 48.16983576 ], [ 17.04462421, 48.16951608 ], [ 17.04462855, 48.16950092 ], [ 17.04463518, 48.16947787 ], [ 17.04470656, 48.16938132 ], [ 17.04464585, 48.16943286 ], [ 17.04439799, 48.16964335 ], [ 17.04424878, 48.16972915 ], [ 17.04384195, 48.16996294 ], [ 17.04211639, 48.17069774 ], [ 17.04210965, 48.17070116 ], [ 17.04185871, 48.17083008 ], [ 17.04161758, 48.17095398 ], [ 17.04136971, 48.1710813 ], [ 17.04135182, 48.17109047 ], [ 17.04119005, 48.1711736 ], [ 17.04098002, 48.17128145 ], [ 17.04096236, 48.17129091 ], [ 17.04095972, 48.17129226 ], [ 17.04073065, 48.17141418 ], [ 17.04063327, 48.17146591 ], [ 17.04055028, 48.17151014 ], [ 17.04034667, 48.17159546 ], [ 17.04002583, 48.17172981 ], [ 17.03978251, 48.17183177 ], [ 17.03985183, 48.17197763 ], [ 17.03987497, 48.17202604 ], [ 17.03990063, 48.17208005 ], [ 17.03990471, 48.17208873 ], [ 17.03993375, 48.17214984 ], [ 17.04025552, 48.1720669 ], [ 17.040288, 48.17205864 ], [ 17.04030011, 48.17205549 ], [ 17.04037524, 48.17203613 ], [ 17.04035218, 48.1721321 ], [ 17.04034784, 48.17214988 ], [ 17.04033997, 48.17218279 ], [ 17.04043713, 48.17223943 ], [ 17.04051345, 48.17228389 ], [ 17.04054043, 48.17235489 ], [ 17.04056675, 48.17242404 ], [ 17.04057337, 48.17243995 ], [ 17.04077783, 48.17237647 ], [ 17.04087061, 48.17242024 ], [ 17.04113285, 48.17240049 ], [ 17.04115323, 48.1723989 ], [ 17.04129246, 48.1723917 ], [ 17.04131251, 48.17238693 ], [ 17.04137809, 48.17237261 ], [ 17.04139792, 48.17236664 ], [ 17.04149539, 48.17234348 ], [ 17.04156943, 48.17232595 ], [ 17.04159061, 48.17232089 ], [ 17.0416519, 48.17230637 ], [ 17.04173113, 48.17228756 ], [ 17.0417488, 48.17228334 ], [ 17.04176403, 48.17235788 ], [ 17.04181092, 48.17254885 ], [ 17.04208606, 48.17251895 ], [ 17.04211094, 48.17251622 ], [ 17.04231105, 48.17249447 ], [ 17.04240615, 48.17248416 ], [ 17.04242636, 48.17248193 ], [ 17.04270438, 48.17245177 ], [ 17.04277021, 48.17244461 ], [ 17.04284087, 48.1725968 ], [ 17.04288205, 48.17268369 ], [ 17.04282876, 48.17285723 ], [ 17.04261171, 48.17332042 ], [ 17.04259764, 48.17333021 ], [ 17.04243679, 48.17344261 ], [ 17.04243119, 48.17347395 ], [ 17.04240693, 48.17361052 ], [ 17.04236597, 48.17364858 ], [ 17.04201356, 48.17397603 ], [ 17.04156203, 48.17412793 ], [ 17.04109069, 48.17428643 ], [ 17.04071898, 48.1745624 ], [ 17.04068923, 48.17456606 ], [ 17.04017106, 48.1746304 ], [ 17.03978891, 48.17460434 ], [ 17.03943226, 48.17475785 ], [ 17.03936687, 48.17478601 ], [ 17.03900752, 48.17483256 ], [ 17.03894578, 48.17482888 ], [ 17.0385099, 48.1748032 ], [ 17.03805438, 48.17484146 ], [ 17.03764491, 48.17476163 ], [ 17.03744574, 48.17451124 ], [ 17.03676486, 48.17452601 ], [ 17.03642498, 48.1744127 ], [ 17.03638835, 48.17442421 ], [ 17.03598178, 48.1745524 ], [ 17.03514448, 48.17476963 ], [ 17.03506958, 48.17466379 ], [ 17.03472865, 48.17453088 ], [ 17.03458222, 48.17431573 ], [ 17.03423988, 48.17426092 ], [ 17.03407856, 48.17426054 ], [ 17.03379417, 48.17425978 ], [ 17.03345236, 48.17432424 ], [ 17.03316275, 48.1743788 ], [ 17.03274977, 48.17449489 ], [ 17.03259265, 48.17465164 ], [ 17.03259346, 48.17472845 ], [ 17.0325944, 48.17482913 ], [ 17.03272667, 48.17495743 ], [ 17.03272893, 48.17497268 ], [ 17.03276934, 48.17524638 ], [ 17.03153059, 48.17534975 ], [ 17.03095832, 48.17540538 ], [ 17.03061636, 48.17549803 ], [ 17.03032142, 48.17549997 ], [ 17.02977871, 48.17568554 ], [ 17.02974876, 48.17569578 ], [ 17.0299555, 48.1754711 ], [ 17.03017699, 48.17488357 ], [ 17.03014328, 48.17456973 ], [ 17.03014324, 48.174262 ], [ 17.03000103, 48.17401242 ], [ 17.02998793, 48.17398938 ], [ 17.03002152, 48.17398806 ], [ 17.03022573, 48.17398017 ], [ 17.03066461, 48.17349721 ], [ 17.03075978, 48.1732526 ], [ 17.03071595, 48.17304104 ], [ 17.03040718, 48.17296474 ], [ 17.03006849, 48.17297001 ], [ 17.02977996, 48.1730193 ], [ 17.0297427, 48.17302959 ], [ 17.02970345, 48.17306613 ], [ 17.02957419, 48.17318646 ], [ 17.02955543, 48.17320398 ], [ 17.0294708, 48.17330648 ], [ 17.02946053, 48.1733188 ], [ 17.02941924, 48.17336867 ], [ 17.02914832, 48.17347947 ], [ 17.0291129, 48.173468 ], [ 17.02906026, 48.17348257 ], [ 17.02839006, 48.17367376 ], [ 17.02822485, 48.17441965 ], [ 17.02818117, 48.1749616 ], [ 17.02822146, 48.17518296 ], [ 17.02829485, 48.17521474 ], [ 17.02818425, 48.17527849 ], [ 17.02811782, 48.17531688 ], [ 17.02803849, 48.1753627 ], [ 17.02794049, 48.17541927 ], [ 17.02768509, 48.17557859 ], [ 17.02765922, 48.17559481 ], [ 17.02733955, 48.17589572 ], [ 17.02732328, 48.17591106 ], [ 17.02689582, 48.17629969 ], [ 17.02665777, 48.17651074 ], [ 17.02629595, 48.17678851 ], [ 17.02625443, 48.17682038 ], [ 17.02590089, 48.17702297 ], [ 17.02570374, 48.1771249 ], [ 17.0256869, 48.17713333 ], [ 17.02559034, 48.17691318 ], [ 17.02519204, 48.17663338 ], [ 17.02517798, 48.17649229 ], [ 17.02513469, 48.17647223 ], [ 17.02482619, 48.17634296 ], [ 17.02467869, 48.17630175 ], [ 17.02433954, 48.17615555 ], [ 17.02430539, 48.17611822 ], [ 17.02408125, 48.17600468 ], [ 17.02383793, 48.17591142 ], [ 17.02358872, 48.17576045 ], [ 17.02337365, 48.17551815 ], [ 17.0229378, 48.17504439 ], [ 17.02289261, 48.17495034 ], [ 17.02280865, 48.17486322 ], [ 17.02265974, 48.17460992 ], [ 17.02240432, 48.17448898 ], [ 17.02222946, 48.1740426 ], [ 17.02205875, 48.17373319 ], [ 17.02184971, 48.17363062 ], [ 17.02177752, 48.17345617 ], [ 17.02157145, 48.17329458 ], [ 17.02114639, 48.17307151 ], [ 17.02091237, 48.17301116 ], [ 17.02072646, 48.17291641 ], [ 17.02067262, 48.17293966 ], [ 17.020624, 48.17296055 ], [ 17.0205993, 48.17303262 ], [ 17.02058872, 48.17306372 ], [ 17.02050984, 48.17329435 ], [ 17.02047627, 48.17358116 ], [ 17.02050857, 48.17411178 ], [ 17.0202029, 48.17451598 ], [ 17.0198018, 48.17483823 ], [ 17.01974803, 48.17513513 ], [ 17.01966478, 48.17526195 ], [ 17.01942661, 48.17532643 ], [ 17.01899179, 48.17574952 ], [ 17.01865202, 48.17597933 ], [ 17.01847944, 48.17620037 ], [ 17.0184549, 48.17651103 ], [ 17.0182204, 48.17679029 ], [ 17.01818896, 48.17682782 ], [ 17.01797667, 48.17701783 ], [ 17.0178484, 48.1773588 ], [ 17.01773334, 48.17759165 ], [ 17.01707549, 48.17806913 ], [ 17.01683383, 48.17824872 ], [ 17.01663452, 48.17846412 ], [ 17.01659832, 48.17864986 ], [ 17.01655478, 48.17873013 ], [ 17.01646854, 48.17888694 ], [ 17.01631569, 48.17905066 ], [ 17.01616101, 48.17914165 ], [ 17.01607662, 48.17919128 ], [ 17.01604854, 48.17920779 ], [ 17.01562368, 48.17941314 ], [ 17.01521345, 48.17967988 ], [ 17.01498221, 48.17966554 ], [ 17.0146994, 48.17959614 ], [ 17.01452148, 48.17959106 ], [ 17.01437453, 48.17969859 ], [ 17.01430621, 48.17981965 ], [ 17.01404953, 48.18010226 ], [ 17.01385469, 48.18045755 ], [ 17.01330974, 48.18083482 ], [ 17.01275114, 48.18119353 ], [ 17.01265084, 48.18125779 ], [ 17.01229059, 48.18160208 ], [ 17.01148764, 48.18245252 ], [ 17.01121638, 48.18318561 ], [ 17.01094762, 48.18348854 ], [ 17.01063589, 48.18376582 ], [ 17.01061209, 48.18378697 ], [ 17.01061131, 48.18378764 ], [ 17.0109243, 48.18392386 ], [ 17.01116988, 48.18403077 ], [ 17.01179597, 48.18435004 ], [ 17.01215304, 48.18449506 ], [ 17.01230088, 48.1845553 ], [ 17.01237566, 48.18455338 ], [ 17.01270954, 48.18454475 ], [ 17.01279628, 48.18454248 ], [ 17.01280456, 48.18454224 ], [ 17.01288721, 48.18454014 ], [ 17.01288541, 48.18451931 ], [ 17.01288485, 48.18451322 ], [ 17.01305938, 48.18443751 ], [ 17.01375119, 48.18440888 ], [ 17.0137813, 48.18441176 ], [ 17.01379729, 48.18441331 ], [ 17.01383486, 48.18441688 ], [ 17.01387962, 48.18442122 ], [ 17.01391026, 48.18442414 ], [ 17.01392825, 48.18442583 ], [ 17.01399433, 48.18443217 ], [ 17.01412591, 48.18445567 ], [ 17.01418789, 48.1844667 ], [ 17.0142104, 48.18447069 ], [ 17.0144783, 48.18447181 ], [ 17.01457665, 48.18447223 ], [ 17.01454128, 48.18452124 ], [ 17.01416329, 48.1848278 ], [ 17.01357584, 48.18539707 ], [ 17.01342786, 48.18560723 ], [ 17.01344056, 48.18563016 ], [ 17.01338508, 48.18584187 ], [ 17.01338283, 48.1858504 ], [ 17.01343641, 48.18596455 ], [ 17.01317548, 48.18612844 ], [ 17.0126617, 48.18656643 ], [ 17.01232942, 48.1867935 ], [ 17.0122074, 48.18697009 ], [ 17.01206909, 48.18721933 ], [ 17.01193945, 48.18732135 ], [ 17.01188532, 48.18745641 ], [ 17.01188611, 48.18754017 ], [ 17.01183329, 48.18766058 ], [ 17.01168697, 48.18782719 ], [ 17.01146395, 48.18825739 ], [ 17.01146817, 48.18847031 ], [ 17.01136229, 48.18867115 ], [ 17.01134188, 48.18882786 ], [ 17.0114372, 48.18903031 ], [ 17.01146041, 48.18904818 ], [ 17.01231558, 48.18941689 ], [ 17.01261341, 48.18960811 ], [ 17.01275659, 48.18978682 ], [ 17.01296986, 48.19025936 ], [ 17.01306134, 48.19053179 ], [ 17.01305529, 48.19073939 ], [ 17.01301675, 48.19089441 ], [ 17.01304251, 48.19178603 ], [ 17.01309745, 48.19237309 ], [ 17.01306048, 48.19245625 ], [ 17.01321033, 48.19283114 ], [ 17.01319759, 48.19292293 ], [ 17.01308524, 48.19318444 ], [ 17.01292487, 48.19341788 ], [ 17.01287802, 48.19354684 ], [ 17.01284674, 48.19359206 ], [ 17.01292136, 48.19369871 ], [ 17.01301755, 48.19390176 ], [ 17.01299811, 48.19411821 ], [ 17.0128225, 48.19439717 ], [ 17.01278125, 48.19455047 ], [ 17.01278499, 48.19466346 ], [ 17.01281921, 48.19478053 ], [ 17.01274033, 48.1949816 ], [ 17.0127623, 48.19523832 ], [ 17.01279257, 48.19550266 ], [ 17.01265843, 48.19603633 ], [ 17.0126647, 48.19624116 ], [ 17.01264725, 48.19643931 ], [ 17.01249497, 48.19689208 ], [ 17.01247849, 48.19786144 ], [ 17.01241322, 48.19807692 ], [ 17.01228952, 48.19828187 ], [ 17.01215822, 48.1984289 ], [ 17.01201188, 48.19856386 ], [ 17.01189249, 48.19877327 ], [ 17.01186247, 48.19879001 ], [ 17.01179969, 48.19882548 ], [ 17.0117405, 48.19885866 ], [ 17.01118199, 48.19917317 ], [ 17.01081416, 48.19938017 ], [ 17.01074866, 48.19942015 ], [ 17.00902093, 48.20047416 ], [ 17.00884489, 48.20044227 ], [ 17.00864835, 48.20040654 ], [ 17.0083789, 48.20035775 ], [ 17.00835863, 48.20035409 ], [ 17.00832918, 48.20034864 ], [ 17.00826879, 48.20033771 ], [ 17.007598, 48.20018053 ], [ 17.00754327, 48.20021022 ], [ 17.00734943, 48.20031525 ], [ 17.00733071, 48.20032536 ], [ 17.0071913, 48.20040094 ], [ 17.00713156, 48.20043327 ], [ 17.00704641, 48.20062044 ], [ 17.00704088, 48.20063262 ], [ 17.00691217, 48.20091579 ], [ 17.00684336, 48.20106701 ], [ 17.00672323, 48.20133124 ], [ 17.00557378, 48.20222758 ], [ 17.00546165, 48.20220306 ], [ 17.00515809, 48.20211747 ], [ 17.00526178, 48.20239482 ], [ 17.00536758, 48.2026479 ], [ 17.00589058, 48.20306724 ], [ 17.00662427, 48.20373844 ], [ 17.00659958, 48.20385771 ], [ 17.00658957, 48.20392636 ], [ 17.00664051, 48.20392489 ], [ 17.00669075, 48.20393503 ], [ 17.0067953, 48.20395604 ], [ 17.00684489, 48.20396605 ], [ 17.00690956, 48.20397908 ], [ 17.00761044, 48.20395218 ] ] ] ] } }
]
}
