{
"type": "FeatureCollection",
"name": "gis",
"crs": { "type": "name", "properties": { "name": "urn:ogc:def:crs:OGC:1.3:CRS84" } },
"features": [
{ "type": "Feature", "properties": { "@featureType": "CadastralZoning", "beginLifespanVersion": { "@nilReason": "http://inspire.ec.europa.eu/codelist/VoidReasonValue/Unpopulated", "@nil": "true" }, "endLifespanVersion": { "@nilReason": "http://inspire.ec.europa.eu/codelist/VoidReasonValue/Unpopulated", "@nil": "true" }, "estimatedAccuracy": { "value": -1, "@uom": "m" }, "inspireId": { "@dataType": "Identifier", "localId": "812641", "namespace": "SK.ESKN.CP", "versionId": "20260703T04:07:40" }, "label": "Donovaly", "level": { "@href": "http://inspire.ec.europa.eu/codelist/CadastralZoningLevelValue/3rdOrder" }, "levelName": { "value": "Katastrálne územie", "@locale": "sk" }, "name": { "@dataType": "name", "GeographicalName": { "@dataType": "GeographicalName", "language": "SLK", "nativeness": { "@href": "http://inspire.ec.europa.eu/codelist/NativenessValue/endonym", "@title": "endonym" }, "nameStatus": { "@href": "http://inspire.ec.europa.eu/codelist/NameStatusValue/official", "@title": "official" }, "sourceOfName": { "@nilReason": "http://inspire.ec.europa.eu/codelist/VoidReasonValue/Unpopulated", "@nil": "true" }, "pronunciation": { "@dataType": "pronunciation", "@nilReason": "http://inspire.ec.europa.eu/codelist/VoidReasonValue/Unpopulated", "@nil": "true" }, "spelling": { "@dataType": "SpellingOfName", "text": "Donovaly", "script": "LATN" } } }, "nationalCadastalZoningReference": "812641", "validFrom": "2026-06-30T16:00:00Z", "validTo": { "@nilReason": "http://inspire.ec.europa.eu/codelist/VoidReasonValue/Unpopulated", "@nil": "true" } }, "geometry": { "type": "MultiPolygon", "coordinates": [ [ [ [ 19.24357764, 48.89517264 ], [ 19.24383822, 48.89517709 ], [ 19.24405102, 48.89516102 ], [ 19.24436549, 48.8951284 ], [ 19.24454276, 48.89510466 ], [ 19.24494763, 48.89502022 ], [ 19.24505266, 48.89500166 ], [ 19.24530806, 48.89493814 ], [ 19.24547841, 48.89487566 ], [ 19.24569873, 48.89480035 ], [ 19.2460118, 48.89467297 ], [ 19.24613568, 48.89462259 ], [ 19.24620901, 48.89459276 ], [ 19.24653838, 48.89449222 ], [ 19.24672736, 48.89442207 ], [ 19.24706319, 48.89434475 ], [ 19.24728983, 48.89431483 ], [ 19.24754905, 48.89424509 ], [ 19.24774948, 48.89416286 ], [ 19.2479196, 48.89408882 ], [ 19.24815287, 48.89399042 ], [ 19.24834205, 48.89392586 ], [ 19.2485868, 48.89384469 ], [ 19.24895679, 48.89371203 ], [ 19.24923106, 48.89358043 ], [ 19.24942493, 48.89349572 ], [ 19.24968006, 48.8933567 ], [ 19.24994001, 48.89320503 ], [ 19.25005914, 48.89314684 ], [ 19.2506807, 48.8928922 ], [ 19.25110671, 48.89272778 ], [ 19.25125775, 48.89265553 ], [ 19.25140586, 48.89259495 ], [ 19.25155282, 48.89253485 ], [ 19.2517118, 48.89242429 ], [ 19.25172949, 48.89241026 ], [ 19.25177355, 48.89237542 ], [ 19.25186184, 48.89230546 ], [ 19.25195152, 48.89219824 ], [ 19.25207021, 48.89201802 ], [ 19.25214877, 48.89189521 ], [ 19.25225582, 48.89181146 ], [ 19.25245617, 48.89172489 ], [ 19.25263973, 48.89164906 ], [ 19.25278262, 48.89153313 ], [ 19.25281863, 48.89143757 ], [ 19.25288674, 48.89128558 ], [ 19.25299063, 48.89112287 ], [ 19.2530677, 48.89092207 ], [ 19.2531838, 48.89076887 ], [ 19.2532738, 48.89060684 ], [ 19.25334392, 48.8903453 ], [ 19.25352373, 48.89002907 ], [ 19.25366602, 48.88980238 ], [ 19.25374286, 48.88971348 ], [ 19.25377627, 48.88967478 ], [ 19.25402045, 48.88939231 ], [ 19.25405134, 48.88935656 ], [ 19.25428009, 48.8888564 ], [ 19.25440335, 48.88867054 ], [ 19.25444824, 48.88859849 ], [ 19.25450444, 48.88857758 ], [ 19.25459599, 48.8885497 ], [ 19.25468702, 48.88847347 ], [ 19.25473326, 48.88839914 ], [ 19.25477153, 48.88833381 ], [ 19.25480598, 48.88815351 ], [ 19.25480958, 48.88805666 ], [ 19.25484647, 48.88784942 ], [ 19.25487572, 48.88763577 ], [ 19.25489665, 48.88740459 ], [ 19.25488717, 48.88729133 ], [ 19.25486538, 48.88717072 ], [ 19.25481517, 48.88692881 ], [ 19.25474975, 48.88670078 ], [ 19.25468179, 48.88644142 ], [ 19.25464503, 48.88623488 ], [ 19.25460334, 48.88606055 ], [ 19.25460122, 48.88595243 ], [ 19.25461796, 48.88577028 ], [ 19.25462268, 48.88560414 ], [ 19.25462225, 48.88538564 ], [ 19.25458764, 48.88523754 ], [ 19.25458043, 48.88519147 ], [ 19.2545451, 48.88511538 ], [ 19.25451985, 48.8850396 ], [ 19.25448554, 48.88493695 ], [ 19.25447518, 48.88489588 ], [ 19.25446493, 48.88485508 ], [ 19.25456886, 48.88482654 ], [ 19.25476397, 48.88478084 ], [ 19.25491224, 48.88471485 ], [ 19.25518979, 48.88465436 ], [ 19.2556575, 48.88456939 ], [ 19.2561901, 48.88461595 ], [ 19.25657608, 48.88468638 ], [ 19.25705181, 48.88477248 ], [ 19.25794563, 48.88484876 ], [ 19.25951112, 48.88465997 ], [ 19.26003663, 48.88454188 ], [ 19.26103454, 48.88422829 ], [ 19.26153201, 48.88412129 ], [ 19.26168342, 48.88402677 ], [ 19.26186628, 48.8839224 ], [ 19.26227482, 48.88372681 ], [ 19.26246364, 48.88365257 ], [ 19.26268468, 48.88360838 ], [ 19.26288568, 48.88358477 ], [ 19.26337215, 48.88350924 ], [ 19.26340018, 48.88350923 ], [ 19.26359898, 48.88352276 ], [ 19.26418292, 48.88356246 ], [ 19.26431876, 48.88357169 ], [ 19.26471909, 48.88359391 ], [ 19.2651462, 48.88370171 ], [ 19.26528693, 48.88386104 ], [ 19.26532334, 48.88391635 ], [ 19.26536992, 48.88384249 ], [ 19.26539077, 48.88372925 ], [ 19.26530015, 48.88330561 ], [ 19.26527417, 48.88325116 ], [ 19.26529649, 48.88303059 ], [ 19.26541254, 48.88288469 ], [ 19.26556687, 48.88192928 ], [ 19.26540529, 48.8817162 ], [ 19.26532893, 48.88091102 ], [ 19.26534105, 48.88078392 ], [ 19.26541481, 48.88072759 ], [ 19.26558498, 48.88058068 ], [ 19.2655793, 48.8805603 ], [ 19.26547037, 48.87996707 ], [ 19.26545793, 48.87978262 ], [ 19.26541387, 48.87966292 ], [ 19.26536086, 48.87957345 ], [ 19.26534424, 48.8794392 ], [ 19.26539862, 48.87935534 ], [ 19.26532996, 48.87909939 ], [ 19.26524293, 48.87898249 ], [ 19.26524992, 48.87888824 ], [ 19.26525766, 48.87886156 ], [ 19.26528395, 48.87878195 ], [ 19.26529588, 48.87874573 ], [ 19.26511829, 48.87817508 ], [ 19.26511198, 48.8781654 ], [ 19.26487079, 48.87779809 ], [ 19.264855, 48.87776658 ], [ 19.26483099, 48.87774009 ], [ 19.26481343, 48.87771093 ], [ 19.26471494, 48.87763479 ], [ 19.26475966, 48.87761854 ], [ 19.26469788, 48.87739565 ], [ 19.26464481, 48.87720401 ], [ 19.26454255, 48.87605675 ], [ 19.26481966, 48.87509489 ], [ 19.26514441, 48.87441584 ], [ 19.26556282, 48.87295907 ], [ 19.26608273, 48.87188391 ], [ 19.26628307, 48.87027365 ], [ 19.26653401, 48.86976868 ], [ 19.26668966, 48.86927744 ], [ 19.26660233, 48.86884647 ], [ 19.26663221, 48.86871329 ], [ 19.26693781, 48.86764369 ], [ 19.26696546, 48.86727307 ], [ 19.26674807, 48.86682675 ], [ 19.26685945, 48.86652472 ], [ 19.26691102, 48.8659833 ], [ 19.26644124, 48.86550437 ], [ 19.26648201, 48.86497776 ], [ 19.26562174, 48.86401768 ], [ 19.26517079, 48.8638896 ], [ 19.26501112, 48.86371665 ], [ 19.26433107, 48.86353454 ], [ 19.26325233, 48.86436993 ], [ 19.26200097, 48.86512695 ], [ 19.26113616, 48.86424696 ], [ 19.26078142, 48.86375046 ], [ 19.26088966, 48.86111226 ], [ 19.26079615, 48.86058072 ], [ 19.26046265, 48.86000977 ], [ 19.26015682, 48.85946431 ], [ 19.26002391, 48.85936603 ], [ 19.25990368, 48.85933987 ], [ 19.25837947, 48.85900042 ], [ 19.25802389, 48.85892126 ], [ 19.25709703, 48.85873877 ], [ 19.25666313, 48.85890327 ], [ 19.25648103, 48.85903615 ], [ 19.25643297, 48.85901103 ], [ 19.25619356, 48.85888607 ], [ 19.25536033, 48.85832539 ], [ 19.2550442, 48.85783776 ], [ 19.25412539, 48.85700587 ], [ 19.25346037, 48.85665318 ], [ 19.25347321, 48.85640502 ], [ 19.25294093, 48.85611247 ], [ 19.25156892, 48.8566697 ], [ 19.25054587, 48.85671605 ], [ 19.25049395, 48.85671842 ], [ 19.24919072, 48.8567775 ], [ 19.24670373, 48.85654962 ], [ 19.24663081, 48.85698586 ], [ 19.24662279, 48.85768366 ], [ 19.24653742, 48.85823355 ], [ 19.24629303, 48.85912211 ], [ 19.24622171, 48.85940938 ], [ 19.24530486, 48.86060571 ], [ 19.24459091, 48.86094133 ], [ 19.24355851, 48.86091819 ], [ 19.24313156, 48.86066801 ], [ 19.24202127, 48.86030955 ], [ 19.24097308, 48.8600308 ], [ 19.23997577, 48.85956705 ], [ 19.23959914, 48.85939196 ], [ 19.23892718, 48.85905436 ], [ 19.23778206, 48.85855838 ], [ 19.23714072, 48.85800539 ], [ 19.23659951, 48.85778907 ], [ 19.23576397, 48.8575109 ], [ 19.23557386, 48.85742498 ], [ 19.23555004, 48.85741427 ], [ 19.23531814, 48.85725166 ], [ 19.23450857, 48.85695392 ], [ 19.23240719, 48.85578766 ], [ 19.23097479, 48.85515174 ], [ 19.2293288, 48.8545629 ], [ 19.22910463, 48.85446639 ], [ 19.22732657, 48.85360431 ], [ 19.22655069, 48.85296025 ], [ 19.22571678, 48.85256045 ], [ 19.223392, 48.85196131 ], [ 19.22325901, 48.8519518 ], [ 19.22322581, 48.85194938 ], [ 19.22174925, 48.85184368 ], [ 19.2215379, 48.85182857 ], [ 19.22006584, 48.85172307 ], [ 19.21883643, 48.85163499 ], [ 19.21692877, 48.85161888 ], [ 19.21561743, 48.85160155 ], [ 19.21551862, 48.85160902 ], [ 19.21551408, 48.85155776 ], [ 19.214188, 48.85165314 ], [ 19.2136164, 48.85192063 ], [ 19.21061773, 48.85165842 ], [ 19.20877688, 48.85047218 ], [ 19.20750735, 48.85066815 ], [ 19.20706596, 48.85069784 ], [ 19.20703278, 48.8507001 ], [ 19.206822, 48.8507143 ], [ 19.2067683, 48.85071792 ], [ 19.20670585, 48.8507266 ], [ 19.20658133, 48.85074166 ], [ 19.20579011, 48.85083766 ], [ 19.20579904, 48.85153415 ], [ 19.205837, 48.85241491 ], [ 19.20584559, 48.85260118 ], [ 19.20585392, 48.85276904 ], [ 19.20587562, 48.85320897 ], [ 19.20586738, 48.8539919 ], [ 19.20585932, 48.85444139 ], [ 19.20585703, 48.8545035 ], [ 19.2058523, 48.85466837 ], [ 19.20583639, 48.85512938 ], [ 19.20583536, 48.85530886 ], [ 19.20583152, 48.85545837 ], [ 19.20583041, 48.85562631 ], [ 19.20581629, 48.85601373 ], [ 19.20834838, 48.86002155 ], [ 19.20837985, 48.86007141 ], [ 19.20839821, 48.86010044 ], [ 19.20845758, 48.8601943 ], [ 19.20908173, 48.86197488 ], [ 19.20909439, 48.86201084 ], [ 19.20913251, 48.86210169 ], [ 19.20948504, 48.86210736 ], [ 19.2097068, 48.86233823 ], [ 19.21013612, 48.86254636 ], [ 19.21035124, 48.86264319 ], [ 19.21063797, 48.8630674 ], [ 19.2106776, 48.86331631 ], [ 19.2103915, 48.86361208 ], [ 19.20943082, 48.86497585 ], [ 19.20957719, 48.86526151 ], [ 19.20957696, 48.86532119 ], [ 19.20955975, 48.86548654 ], [ 19.20952422, 48.86559312 ], [ 19.20953204, 48.86565049 ], [ 19.20959076, 48.86568769 ], [ 19.20956416, 48.86569704 ], [ 19.20952207, 48.86591385 ], [ 19.20933527, 48.86601029 ], [ 19.20918501, 48.86608785 ], [ 19.2090059, 48.86631387 ], [ 19.20883536, 48.86664925 ], [ 19.20878972, 48.86678265 ], [ 19.20878423, 48.86699484 ], [ 19.20878239, 48.86706896 ], [ 19.20883078, 48.86710693 ], [ 19.2089098, 48.86716685 ], [ 19.20891241, 48.8671998 ], [ 19.20886991, 48.86723525 ], [ 19.20886723, 48.86729112 ], [ 19.20872344, 48.86733274 ], [ 19.20844518, 48.86741329 ], [ 19.20840633, 48.86742456 ], [ 19.20800207, 48.86754164 ], [ 19.20791917, 48.86767829 ], [ 19.20775774, 48.86777262 ], [ 19.20764833, 48.86792015 ], [ 19.2076633, 48.86806164 ], [ 19.20809123, 48.86827277 ], [ 19.20818704, 48.86853018 ], [ 19.2080504, 48.86864492 ], [ 19.20763927, 48.86885157 ], [ 19.20736573, 48.86892043 ], [ 19.20717529, 48.86886556 ], [ 19.20688497, 48.86897815 ], [ 19.20673914, 48.86902572 ], [ 19.20672072, 48.8691957 ], [ 19.20667354, 48.86930613 ], [ 19.20655825, 48.86937033 ], [ 19.20622569, 48.86961397 ], [ 19.20567374, 48.87003875 ], [ 19.20529111, 48.87026914 ], [ 19.20521052, 48.87031761 ], [ 19.20227783, 48.87208276 ], [ 19.20191688, 48.87229995 ], [ 19.20206134, 48.87243123 ], [ 19.20165188, 48.87262856 ], [ 19.20148425, 48.87268885 ], [ 19.20128241, 48.87272251 ], [ 19.20066974, 48.87317002 ], [ 19.20036193, 48.8732565 ], [ 19.20026821, 48.87328288 ], [ 19.20023364, 48.87329256 ], [ 19.20021035, 48.87329909 ], [ 19.20014571, 48.87331723 ], [ 19.2001045, 48.87332884 ], [ 19.19972118, 48.87343654 ], [ 19.19960685, 48.87346868 ], [ 19.1994318, 48.87365891 ], [ 19.19935929, 48.87373771 ], [ 19.19947076, 48.87413233 ], [ 19.19919996, 48.87507293 ], [ 19.19912237, 48.87585773 ], [ 19.19911585, 48.8759246 ], [ 19.19911574, 48.87592558 ], [ 19.19908599, 48.87600584 ], [ 19.19907014, 48.87604862 ], [ 19.19906546, 48.87606111 ], [ 19.19905589, 48.87608679 ], [ 19.19904687, 48.87611124 ], [ 19.199042, 48.87612426 ], [ 19.19901398, 48.8762 ], [ 19.19855106, 48.87744895 ], [ 19.19795296, 48.87946179 ], [ 19.19785951, 48.8796422 ], [ 19.19777834, 48.87979831 ], [ 19.19523145, 48.88469439 ], [ 19.19515416, 48.88484997 ], [ 19.19504385, 48.88507211 ], [ 19.19502619, 48.88510525 ], [ 19.19502333, 48.88522982 ], [ 19.1950169, 48.88551347 ], [ 19.1952199, 48.88552984 ], [ 19.19562916, 48.88556282 ], [ 19.1966447, 48.88609726 ], [ 19.19744318, 48.88636947 ], [ 19.19991094, 48.8869541 ], [ 19.20084666, 48.8870434 ], [ 19.20090701, 48.88704913 ], [ 19.20112675, 48.88718497 ], [ 19.20122818, 48.8872477 ], [ 19.20224984, 48.88723981 ], [ 19.20378404, 48.88722796 ], [ 19.20406882, 48.88704963 ], [ 19.20457327, 48.88685969 ], [ 19.20485649, 48.8869831 ], [ 19.20537534, 48.88739162 ], [ 19.20581125, 48.8877348 ], [ 19.20713185, 48.88854384 ], [ 19.20771353, 48.88870093 ], [ 19.20800229, 48.88871233 ], [ 19.20831678, 48.88883635 ], [ 19.20964282, 48.88970261 ], [ 19.21191216, 48.89100335 ], [ 19.2127988, 48.89145997 ], [ 19.21328987, 48.8913386 ], [ 19.21479783, 48.89096562 ], [ 19.21572292, 48.89083462 ], [ 19.21827627, 48.89080054 ], [ 19.22273236, 48.89081911 ], [ 19.22326615, 48.89059372 ], [ 19.2241538, 48.89033433 ], [ 19.22531033, 48.89019489 ], [ 19.22822049, 48.88944676 ], [ 19.22878371, 48.88914821 ], [ 19.22932808, 48.88900068 ], [ 19.22957714, 48.88893626 ], [ 19.23049667, 48.88869821 ], [ 19.23071751, 48.88867733 ], [ 19.23075179, 48.88867403 ], [ 19.23084355, 48.8886653 ], [ 19.23092882, 48.88865725 ], [ 19.23101194, 48.88878534 ], [ 19.2310221, 48.88880098 ], [ 19.23103111, 48.88881467 ], [ 19.23103414, 48.88881942 ], [ 19.23105481, 48.88885117 ], [ 19.23215271, 48.89054195 ], [ 19.23244946, 48.8911104 ], [ 19.23135738, 48.89203688 ], [ 19.23135851, 48.89275264 ], [ 19.23140577, 48.89279865 ], [ 19.23146995, 48.89292006 ], [ 19.23151595, 48.89316196 ], [ 19.23151449, 48.89328958 ], [ 19.23152182, 48.89341428 ], [ 19.23154459, 48.893506 ], [ 19.23204039, 48.89370598 ], [ 19.23243227, 48.89386893 ], [ 19.23288543, 48.89403059 ], [ 19.23311505, 48.89412284 ], [ 19.23357341, 48.89421812 ], [ 19.23400718, 48.89430571 ], [ 19.23435748, 48.89434329 ], [ 19.23475333, 48.89441399 ], [ 19.23542303, 48.89447059 ], [ 19.23592902, 48.89450765 ], [ 19.2365117, 48.89445626 ], [ 19.23705199, 48.89437532 ], [ 19.23805866, 48.89437775 ], [ 19.2390666, 48.89443037 ], [ 19.23969192, 48.89452828 ], [ 19.24060531, 48.89463313 ], [ 19.24144195, 48.89485655 ], [ 19.24179071, 48.89500421 ], [ 19.24185721, 48.89503591 ], [ 19.24205839, 48.89507655 ], [ 19.24227486, 48.89509393 ], [ 19.24252676, 48.89510392 ], [ 19.24301805, 48.89515151 ], [ 19.24357764, 48.89517264 ] ] ] ] } }
]
}
