{
"type": "FeatureCollection",
"name": "gis",
"crs": { "type": "name", "properties": { "name": "urn:ogc:def:crs:OGC:1.3:CRS84" } },
"features": [
{ "type": "Feature", "properties": { "@featureType": "CadastralParcel", "areaValue": { "value": 7040, "@uom": "m2" }, "beginLifespanVersion": { "@nilReason": "http://inspire.ec.europa.eu/codelist/VoidReasonValue/Unpopulated", "@nil": "true" }, "endLifespanVersion": { "@nilReason": "http://inspire.ec.europa.eu/codelist/VoidReasonValue/Unpopulated", "@nil": "true" }, "inspireId": { "@dataType": "Identifier", "localId": "836915_5330/1.C", "namespace": "SK.ESKN.CP", "versionId": "20260703T05:07:44" }, "label": "5330/1", "nationalCadastralReference": "836915_5330/1.C", "referencePoint": { "type": "Point", "coordinates": [ 21.90819639, 48.75509217 ] }, "validFrom": "2026-06-30T16:00:00Z", "validTo": { "@nilReason": "http://inspire.ec.europa.eu/codelist/VoidReasonValue/Unpopulated", "@nil": "true" }, "administrativeUnit": { "@href": "#auAdmUnitS.2187" } }, "geometry": { "type": "Polygon", "coordinates": [ [ [ 21.9072339, 48.75518801 ], [ 21.90757279, 48.75519071 ], [ 21.90826433, 48.75519359 ], [ 21.90828719, 48.75519372 ], [ 21.90900063, 48.75519445 ], [ 21.90972731, 48.75519442 ], [ 21.90990015, 48.7551924 ], [ 21.90995484, 48.75515985 ], [ 21.91032271, 48.7549409 ], [ 21.90777294, 48.75493955 ], [ 21.90774936, 48.75494012 ], [ 21.90773997, 48.75494016 ], [ 21.90747728, 48.75494018 ], [ 21.90743591, 48.75494013 ], [ 21.90725706, 48.7549402 ], [ 21.90721963, 48.75494016 ], [ 21.90720275, 48.75494018 ], [ 21.90711532, 48.75495282 ], [ 21.9070598, 48.75497851 ], [ 21.90701026, 48.75500669 ], [ 21.90692442, 48.75504133 ], [ 21.90688627, 48.75505377 ], [ 21.90684882, 48.75505886 ], [ 21.90680316, 48.75505761 ], [ 21.90636806, 48.75505688 ], [ 21.90634925, 48.75505038 ], [ 21.90634032, 48.75503521 ], [ 21.90634323, 48.75502026 ], [ 21.90628667, 48.75498382 ], [ 21.9062607, 48.75500935 ], [ 21.90623791, 48.75501967 ], [ 21.90621843, 48.75502233 ], [ 21.90619585, 48.75502221 ], [ 21.90645923, 48.75516574 ], [ 21.90644447, 48.75514791 ], [ 21.90645224, 48.75513596 ], [ 21.90646863, 48.75512548 ], [ 21.90654029, 48.75513134 ], [ 21.90659548, 48.75515389 ], [ 21.90665605, 48.75518916 ], [ 21.90677121, 48.75518892 ], [ 21.90686683, 48.75518774 ], [ 21.90694915, 48.75518577 ], [ 21.9072339, 48.75518801 ] ], [ [ 21.90853222, 48.75504925 ], [ 21.9084969, 48.755048 ], [ 21.90849831, 48.75503067 ], [ 21.90853207, 48.75503062 ], [ 21.90853222, 48.75504925 ] ] ] } },
{ "type": "Feature", "properties": { "@featureType": "CadastralParcel", "areaValue": { "value": 2964, "@uom": "m2" }, "beginLifespanVersion": { "@nilReason": "http://inspire.ec.europa.eu/codelist/VoidReasonValue/Unpopulated", "@nil": "true" }, "endLifespanVersion": { "@nilReason": "http://inspire.ec.europa.eu/codelist/VoidReasonValue/Unpopulated", "@nil": "true" }, "inspireId": { "@dataType": "Identifier", "localId": "836915_17.C", "namespace": "SK.ESKN.CP", "versionId": "20260703T05:07:44" }, "label": "17", "nationalCadastralReference": "836915_17.C", "referencePoint": { "type": "Point", "coordinates": [ 21.92994756, 48.7574954 ] }, "validFrom": "2026-06-30T16:00:00Z", "validTo": { "@nilReason": "http://inspire.ec.europa.eu/codelist/VoidReasonValue/Unpopulated", "@nil": "true" }, "administrativeUnit": { "@href": "#auAdmUnitS.2187" } }, "geometry": { "type": "Polygon", "coordinates": [ [ [ 21.93004755, 48.75768611 ], [ 21.93014894, 48.75754628 ], [ 21.93019026, 48.75746893 ], [ 21.93038045, 48.75705477 ], [ 21.9303826, 48.75703871 ], [ 21.93036383, 48.7570242 ], [ 21.93027831, 48.75700595 ], [ 21.93025254, 48.75700674 ], [ 21.93023621, 48.75701615 ], [ 21.9300279, 48.75716923 ], [ 21.92998121, 48.75720721 ], [ 21.92991747, 48.75726735 ], [ 21.92980276, 48.75738309 ], [ 21.92969926, 48.75752188 ], [ 21.92956265, 48.75775127 ], [ 21.92950278, 48.75789826 ], [ 21.92946928, 48.7579507 ], [ 21.92947169, 48.75796327 ], [ 21.92950484, 48.75798093 ], [ 21.92960926, 48.75801622 ], [ 21.92963866, 48.75802109 ], [ 21.92966576, 48.75801376 ], [ 21.92980512, 48.7579215 ], [ 21.93004755, 48.75768611 ] ] ] } },
{ "type": "Feature", "properties": { "@featureType": "CadastralParcel", "areaValue": { "value": 3178, "@uom": "m2" }, "beginLifespanVersion": { "@nilReason": "http://inspire.ec.europa.eu/codelist/VoidReasonValue/Unpopulated", "@nil": "true" }, "endLifespanVersion": { "@nilReason": "http://inspire.ec.europa.eu/codelist/VoidReasonValue/Unpopulated", "@nil": "true" }, "inspireId": { "@dataType": "Identifier", "localId": "836915_1696/3.E", "namespace": "SK.ESKN.CP", "versionId": "20260703T05:07:44" }, "label": "1696/3", "nationalCadastralReference": "836915_1696/3.E", "referencePoint": { "type": "Point", "coordinates": [ 21.90412131, 48.75053569 ] }, "validFrom": "2026-06-30T16:00:00Z", "validTo": { "@nilReason": "http://inspire.ec.europa.eu/codelist/VoidReasonValue/Unpopulated", "@nil": "true" }, "administrativeUnit": { "@href": "#auAdmUnitS.2187" } }, "geometry": { "type": "Polygon", "coordinates": [ [ [ 21.90352613, 48.75084566 ], [ 21.90364812, 48.75090832 ], [ 21.90366967, 48.7509194 ], [ 21.90375557, 48.75086946 ], [ 21.9037681, 48.75087887 ], [ 21.90380091, 48.75085981 ], [ 21.90378839, 48.75085031 ], [ 21.90390275, 48.75078382 ], [ 21.90391541, 48.75079323 ], [ 21.90394752, 48.75077451 ], [ 21.903935, 48.75076501 ], [ 21.90401302, 48.75071965 ], [ 21.90404967, 48.7507473 ], [ 21.90455731, 48.75035173 ], [ 21.90465536, 48.75027528 ], [ 21.90508661, 48.74993924 ], [ 21.90484352, 48.7498125 ], [ 21.90352613, 48.75084566 ] ] ] } }
]
}
