{
"type": "FeatureCollection",
"name": "gis",
"crs": { "type": "name", "properties": { "name": "urn:ogc:def:crs:OGC:1.3:CRS84" } },
"features": [
{ "type": "Feature", "properties": { "@featureType": "CadastralZoning", "beginLifespanVersion": { "@nilReason": "http://inspire.ec.europa.eu/codelist/VoidReasonValue/Unpopulated", "@nil": "true" }, "endLifespanVersion": { "@nilReason": "http://inspire.ec.europa.eu/codelist/VoidReasonValue/Unpopulated", "@nil": "true" }, "estimatedAccuracy": { "value": -1, "@uom": "m" }, "inspireId": { "@dataType": "Identifier", "localId": "849171", "namespace": "SK.ESKN.CP", "versionId": "20260703T04:07:40" }, "label": "Prašice", "level": { "@href": "http://inspire.ec.europa.eu/codelist/CadastralZoningLevelValue/3rdOrder" }, "levelName": { "value": "Katastrálne územie", "@locale": "sk" }, "name": { "@dataType": "name", "GeographicalName": { "@dataType": "GeographicalName", "language": "SLK", "nativeness": { "@href": "http://inspire.ec.europa.eu/codelist/NativenessValue/endonym", "@title": "endonym" }, "nameStatus": { "@href": "http://inspire.ec.europa.eu/codelist/NameStatusValue/official", "@title": "official" }, "sourceOfName": { "@nilReason": "http://inspire.ec.europa.eu/codelist/VoidReasonValue/Unpopulated", "@nil": "true" }, "pronunciation": { "@dataType": "pronunciation", "@nilReason": "http://inspire.ec.europa.eu/codelist/VoidReasonValue/Unpopulated", "@nil": "true" }, "spelling": { "@dataType": "SpellingOfName", "text": "Prašice", "script": "LATN" } } }, "nationalCadastalZoningReference": "849171", "validFrom": "2026-06-30T16:00:00Z", "validTo": { "@nilReason": "http://inspire.ec.europa.eu/codelist/VoidReasonValue/Unpopulated", "@nil": "true" } }, "geometry": { "type": "MultiPolygon", "coordinates": [ [ [ [ 18.04887301, 48.69994749 ], [ 18.05124764, 48.69969738 ], [ 18.05241221, 48.69942722 ], [ 18.05326316, 48.69923955 ], [ 18.05331917, 48.69922678 ], [ 18.05363655, 48.69915064 ], [ 18.05636285, 48.69843111 ], [ 18.05705326, 48.69807958 ], [ 18.05860014, 48.69726692 ], [ 18.05883847, 48.69743532 ], [ 18.0590053, 48.69763852 ], [ 18.05910352, 48.69781024 ], [ 18.05918456, 48.69802366 ], [ 18.05936577, 48.69835158 ], [ 18.05958024, 48.69856065 ], [ 18.05971528, 48.69864804 ], [ 18.05987524, 48.69879883 ], [ 18.05998523, 48.69889098 ], [ 18.06029521, 48.69911099 ], [ 18.06037032, 48.69922321 ], [ 18.06041515, 48.69920219 ], [ 18.06047759, 48.6991729 ], [ 18.0619342, 48.69856742 ], [ 18.06228372, 48.69841523 ], [ 18.06298217, 48.69812445 ], [ 18.06328726, 48.69799331 ], [ 18.06355707, 48.69787616 ], [ 18.06441608, 48.69779976 ], [ 18.06451915, 48.69778893 ], [ 18.06636685, 48.6976169 ], [ 18.06694365, 48.69740618 ], [ 18.06773055, 48.69718783 ], [ 18.06789153, 48.69709796 ], [ 18.0680043, 48.69702278 ], [ 18.06808304, 48.69694407 ], [ 18.06845033, 48.6967883 ], [ 18.06906109, 48.69658254 ], [ 18.0693675, 48.69657073 ], [ 18.06979388, 48.69649102 ], [ 18.07001153, 48.69641892 ], [ 18.07027678, 48.69636108 ], [ 18.07044694, 48.69631455 ], [ 18.0707179, 48.69634345 ], [ 18.07111095, 48.69634051 ], [ 18.07144386, 48.69632943 ], [ 18.07156352, 48.69641057 ], [ 18.07176, 48.69639158 ], [ 18.07201611, 48.696402 ], [ 18.07237222, 48.69634796 ], [ 18.07240297, 48.69625577 ], [ 18.07297067, 48.69613008 ], [ 18.07309716, 48.69614282 ], [ 18.07359059, 48.69631315 ], [ 18.07425098, 48.69644361 ], [ 18.07496079, 48.69669705 ], [ 18.07544287, 48.69678716 ], [ 18.0756266, 48.69685842 ], [ 18.07572837, 48.69689798 ], [ 18.07626502, 48.69708997 ], [ 18.07659069, 48.69705552 ], [ 18.07714904, 48.6969568 ], [ 18.07754028, 48.69690633 ], [ 18.07761288, 48.69689072 ], [ 18.07772794, 48.69687679 ], [ 18.07785924, 48.69678436 ], [ 18.07824352, 48.69661349 ], [ 18.07872274, 48.69649756 ], [ 18.07880801, 48.69647692 ], [ 18.07926002, 48.69662873 ], [ 18.07953913, 48.69658856 ], [ 18.08018713, 48.6965088 ], [ 18.08044904, 48.69637274 ], [ 18.0805558, 48.69635154 ], [ 18.08062709, 48.69633658 ], [ 18.08070185, 48.6963211 ], [ 18.08137195, 48.69604237 ], [ 18.08227464, 48.69568246 ], [ 18.08312418, 48.69563353 ], [ 18.08373785, 48.69553495 ], [ 18.08397323, 48.69546775 ], [ 18.08403793, 48.69532852 ], [ 18.08434847, 48.69524279 ], [ 18.08429118, 48.69515303 ], [ 18.08475396, 48.69505174 ], [ 18.08488456, 48.69479187 ], [ 18.08504083, 48.69468483 ], [ 18.08525591, 48.69424175 ], [ 18.08552784, 48.69400397 ], [ 18.0857136, 48.69384971 ], [ 18.08591504, 48.69375064 ], [ 18.08607096, 48.69362064 ], [ 18.08631787, 48.69352729 ], [ 18.08642372, 48.6934097 ], [ 18.08640936, 48.69333546 ], [ 18.0865659, 48.69313137 ], [ 18.08661401, 48.69300499 ], [ 18.0866051, 48.69295021 ], [ 18.0866742, 48.69287399 ], [ 18.08687048, 48.69275321 ], [ 18.08702572, 48.69272329 ], [ 18.08722505, 48.69263177 ], [ 18.08727367, 48.69254442 ], [ 18.08749348, 48.69250681 ], [ 18.08788014, 48.69224821 ], [ 18.08801309, 48.69211758 ], [ 18.08830085, 48.69217568 ], [ 18.08866731, 48.69204274 ], [ 18.08904851, 48.69218044 ], [ 18.08940753, 48.69207766 ], [ 18.08951012, 48.69214786 ], [ 18.08963024, 48.69213882 ], [ 18.08974741, 48.69210902 ], [ 18.08992278, 48.69198855 ], [ 18.09041683, 48.69192952 ], [ 18.0906676, 48.691945 ], [ 18.09070705, 48.69207344 ], [ 18.09072766, 48.69207536 ], [ 18.09074525, 48.69207639 ], [ 18.09075513, 48.69207697 ], [ 18.09078229, 48.69208091 ], [ 18.09089684, 48.69200121 ], [ 18.09096848, 48.69194879 ], [ 18.09097839, 48.69194404 ], [ 18.09098312, 48.69194739 ], [ 18.09111563, 48.69204073 ], [ 18.09148314, 48.69193457 ], [ 18.09158893, 48.69195529 ], [ 18.09175329, 48.69190911 ], [ 18.09191514, 48.69196751 ], [ 18.09206846, 48.69189161 ], [ 18.09238928, 48.69197999 ], [ 18.09248884, 48.69207293 ], [ 18.09292136, 48.69193951 ], [ 18.09301992, 48.69190907 ], [ 18.09319816, 48.69180176 ], [ 18.0933458, 48.69165601 ], [ 18.09373619, 48.69160318 ], [ 18.09391895, 48.69154886 ], [ 18.09430937, 48.69148764 ], [ 18.09466253, 48.69147154 ], [ 18.09505836, 48.69156809 ], [ 18.09546013, 48.69152504 ], [ 18.09586134, 48.69140025 ], [ 18.09623381, 48.69129969 ], [ 18.09646251, 48.69121482 ], [ 18.09648647, 48.69120593 ], [ 18.09645031, 48.69118152 ], [ 18.09643457, 48.6911267 ], [ 18.09637305, 48.69085279 ], [ 18.0964228, 48.69077941 ], [ 18.09655268, 48.69060201 ], [ 18.09672898, 48.69044881 ], [ 18.09687511, 48.6903184 ], [ 18.09697066, 48.69011317 ], [ 18.0970168, 48.68996961 ], [ 18.09703536, 48.68977108 ], [ 18.09704165, 48.6895879 ], [ 18.09704205, 48.68950007 ], [ 18.09701588, 48.68930669 ], [ 18.09700575, 48.68925581 ], [ 18.09693324, 48.68913384 ], [ 18.09682985, 48.68905431 ], [ 18.09666312, 48.68892304 ], [ 18.09652573, 48.68880396 ], [ 18.09642174, 48.68873603 ], [ 18.09628813, 48.6886755 ], [ 18.09617992, 48.68856462 ], [ 18.09602045, 48.68839838 ], [ 18.09591151, 48.68830317 ], [ 18.09546775, 48.6881716 ], [ 18.09508234, 48.68805643 ], [ 18.09473907, 48.68791466 ], [ 18.09448131, 48.68779223 ], [ 18.09440822, 48.68775753 ], [ 18.09431331, 48.68760013 ], [ 18.09415063, 48.68735578 ], [ 18.09415635, 48.68718819 ], [ 18.09416838, 48.68700904 ], [ 18.0941833, 48.68691566 ], [ 18.09422004, 48.68670564 ], [ 18.09421071, 48.68663142 ], [ 18.09420597, 48.68642466 ], [ 18.09417358, 48.68633835 ], [ 18.09410509, 48.68609943 ], [ 18.0939925, 48.68594171 ], [ 18.09391722, 48.68572613 ], [ 18.09384321, 48.68547541 ], [ 18.09384759, 48.68535062 ], [ 18.09386007, 48.68515589 ], [ 18.09393989, 48.6850635 ], [ 18.09408759, 48.68488642 ], [ 18.09416912, 48.6847434 ], [ 18.09423113, 48.68465466 ], [ 18.09431291, 48.68450767 ], [ 18.09438089, 48.68441514 ], [ 18.09445635, 48.68427979 ], [ 18.09451973, 48.68415213 ], [ 18.09455048, 48.68394203 ], [ 18.09453589, 48.68385207 ], [ 18.09451267, 48.68366842 ], [ 18.09452081, 48.68360227 ], [ 18.09455514, 48.68343788 ], [ 18.09465284, 48.6831388 ], [ 18.09462827, 48.68297855 ], [ 18.09461903, 48.68289648 ], [ 18.09459729, 48.6828377 ], [ 18.09455885, 48.68274354 ], [ 18.09446961, 48.68257843 ], [ 18.09444933, 48.68247287 ], [ 18.09444471, 48.68223868 ], [ 18.09448335, 48.68213395 ], [ 18.09448447, 48.68209492 ], [ 18.09445743, 48.68201651 ], [ 18.09462272, 48.6818159 ], [ 18.09479373, 48.68161933 ], [ 18.09494674, 48.68143814 ], [ 18.09511078, 48.68127646 ], [ 18.09529306, 48.68109563 ], [ 18.09548853, 48.68087205 ], [ 18.09568715, 48.6807383 ], [ 18.09592206, 48.68057373 ], [ 18.09616823, 48.68042498 ], [ 18.09642667, 48.68026078 ], [ 18.09669703, 48.68008898 ], [ 18.09672712, 48.68006988 ], [ 18.09684811, 48.67996618 ], [ 18.0969753, 48.6798548 ], [ 18.09707218, 48.67977036 ], [ 18.09729616, 48.67957833 ], [ 18.09735743, 48.67950119 ], [ 18.09752798, 48.67932021 ], [ 18.0976866, 48.67914287 ], [ 18.09776206, 48.67898793 ], [ 18.09781513, 48.67879746 ], [ 18.0979068, 48.67849838 ], [ 18.0979985, 48.67839034 ], [ 18.09810234, 48.67826695 ], [ 18.09821139, 48.67817094 ], [ 18.09831424, 48.6780826 ], [ 18.09855102, 48.67785574 ], [ 18.09865556, 48.6777128 ], [ 18.09877475, 48.67748033 ], [ 18.098818, 48.6774146 ], [ 18.09896679, 48.67717484 ], [ 18.09912774, 48.67691953 ], [ 18.09915973, 48.67683807 ], [ 18.09928001, 48.67656666 ], [ 18.09937947, 48.67639633 ], [ 18.09953444, 48.67614492 ], [ 18.09971827, 48.67591731 ], [ 18.09985231, 48.67577085 ], [ 18.09997498, 48.6756165 ], [ 18.10012242, 48.67541954 ], [ 18.10027008, 48.67521483 ], [ 18.10043553, 48.67500646 ], [ 18.10062475, 48.67479054 ], [ 18.1007339, 48.67469066 ], [ 18.10097077, 48.67445983 ], [ 18.1009508, 48.67415134 ], [ 18.10088868, 48.67386963 ], [ 18.10091581, 48.67375294 ], [ 18.10093256, 48.67358934 ], [ 18.10098177, 48.67333255 ], [ 18.10103211, 48.67322788 ], [ 18.10110146, 48.67307673 ], [ 18.10118445, 48.67286716 ], [ 18.10123647, 48.67270796 ], [ 18.10132701, 48.67244781 ], [ 18.10133521, 48.67236992 ], [ 18.10136029, 48.67212843 ], [ 18.10139112, 48.67189089 ], [ 18.10141745, 48.67161029 ], [ 18.10155247, 48.67143274 ], [ 18.10160134, 48.67137493 ], [ 18.10175462, 48.67117803 ], [ 18.10197547, 48.67089237 ], [ 18.10211027, 48.67072257 ], [ 18.10223855, 48.67057613 ], [ 18.1023632, 48.67035156 ], [ 18.10246219, 48.67019682 ], [ 18.10250914, 48.67002342 ], [ 18.10257216, 48.66993709 ], [ 18.10263454, 48.66981569 ], [ 18.10264547, 48.6697766 ], [ 18.10271274, 48.66960827 ], [ 18.10278585, 48.66944001 ], [ 18.10280013, 48.66926831 ], [ 18.10286943, 48.6692014 ], [ 18.10301973, 48.66906356 ], [ 18.10316412, 48.66891797 ], [ 18.10338002, 48.66881466 ], [ 18.10363025, 48.66866036 ], [ 18.10371189, 48.66862459 ], [ 18.10372942, 48.6686127 ], [ 18.10393806, 48.66844315 ], [ 18.104035, 48.6682863 ], [ 18.10411581, 48.6682076 ], [ 18.10423736, 48.66809733 ], [ 18.10439267, 48.66791265 ], [ 18.10443792, 48.66782257 ], [ 18.10455685, 48.66758756 ], [ 18.10463037, 48.66743873 ], [ 18.10470569, 48.66737569 ], [ 18.1048741, 48.66725326 ], [ 18.10507672, 48.66708381 ], [ 18.10525584, 48.66691063 ], [ 18.10542931, 48.66674923 ], [ 18.10562013, 48.66657204 ], [ 18.10586857, 48.66633583 ], [ 18.10608221, 48.66612341 ], [ 18.10630189, 48.66591477 ], [ 18.10649778, 48.66569852 ], [ 18.10655415, 48.66557713 ], [ 18.10661594, 48.66543231 ], [ 18.10665425, 48.66528377 ], [ 18.10668192, 48.66519772 ], [ 18.1067835, 48.66498237 ], [ 18.106858, 48.66488037 ], [ 18.10701413, 48.66473853 ], [ 18.10722874, 48.66456896 ], [ 18.10729135, 48.6644631 ], [ 18.10734264, 48.66438078 ], [ 18.10738281, 48.66432579 ], [ 18.10749087, 48.66414161 ], [ 18.10754778, 48.66403966 ], [ 18.10762714, 48.66389081 ], [ 18.10765568, 48.66382485 ], [ 18.10775089, 48.66360507 ], [ 18.10776767, 48.66356199 ], [ 18.10792631, 48.66324858 ], [ 18.10802766, 48.66302156 ], [ 18.10821651, 48.66303936 ], [ 18.10875575, 48.66319047 ], [ 18.10895205, 48.66328237 ], [ 18.10911248, 48.66335502 ], [ 18.10945762, 48.66351963 ], [ 18.10980819, 48.66337604 ], [ 18.11011153, 48.66323296 ], [ 18.11033263, 48.66309843 ], [ 18.11045437, 48.66299981 ], [ 18.11080816, 48.66273155 ], [ 18.11091115, 48.66258634 ], [ 18.11124337, 48.66269646 ], [ 18.11161058, 48.66279454 ], [ 18.11225573, 48.66301014 ], [ 18.11228092, 48.66301856 ], [ 18.11232818, 48.66302601 ], [ 18.11244163, 48.66281442 ], [ 18.11249793, 48.66268517 ], [ 18.11256514, 48.66251692 ], [ 18.1125984, 48.66242153 ], [ 18.11263192, 48.66232526 ], [ 18.11271671, 48.66215289 ], [ 18.11281118, 48.66187907 ], [ 18.11286726, 48.66173816 ], [ 18.11293813, 48.66153211 ], [ 18.11299502, 48.6613666 ], [ 18.11302359, 48.66103486 ], [ 18.11308275, 48.66104607 ], [ 18.11378053, 48.66117625 ], [ 18.11411873, 48.66100557 ], [ 18.11440484, 48.66088215 ], [ 18.11452782, 48.66084589 ], [ 18.11511284, 48.6606535 ], [ 18.11537152, 48.66062778 ], [ 18.11554697, 48.6605638 ], [ 18.11571015, 48.66048041 ], [ 18.11580484, 48.66049912 ], [ 18.11620124, 48.6603005 ], [ 18.11684856, 48.65998272 ], [ 18.11698845, 48.65990736 ], [ 18.11736964, 48.66011458 ], [ 18.11764954, 48.6602563 ], [ 18.11772103, 48.66029469 ], [ 18.11785278, 48.66040267 ], [ 18.11809593, 48.66047842 ], [ 18.11851687, 48.66061112 ], [ 18.11859113, 48.66051785 ], [ 18.11898181, 48.65995695 ], [ 18.11928247, 48.65950122 ], [ 18.11939638, 48.65936494 ], [ 18.11949434, 48.6590645 ], [ 18.11953103, 48.65895135 ], [ 18.11959777, 48.6587875 ], [ 18.11965306, 48.65860411 ], [ 18.11966604, 48.65848686 ], [ 18.11976358, 48.6582255 ], [ 18.11992568, 48.65800743 ], [ 18.11980299, 48.65784662 ], [ 18.11979762, 48.65779575 ], [ 18.11987541, 48.65771795 ], [ 18.11995317, 48.65763626 ], [ 18.12008, 48.65739032 ], [ 18.1200892, 48.65737235 ], [ 18.12035745, 48.65685162 ], [ 18.12039862, 48.6568597 ], [ 18.12058683, 48.65653013 ], [ 18.12085891, 48.6561724 ], [ 18.12089501, 48.65611808 ], [ 18.12114366, 48.65606504 ], [ 18.1212415, 48.65582797 ], [ 18.12125497, 48.65571112 ], [ 18.12160291, 48.65491434 ], [ 18.12163816, 48.65456059 ], [ 18.12173421, 48.65359792 ], [ 18.12168815, 48.65351578 ], [ 18.12169075, 48.65334431 ], [ 18.12176493, 48.65311092 ], [ 18.12209648, 48.65221668 ], [ 18.12209885, 48.65220499 ], [ 18.12238977, 48.65076371 ], [ 18.12238804, 48.65074699 ], [ 18.12237256, 48.65059983 ], [ 18.12238465, 48.65051793 ], [ 18.12242037, 48.6503659 ], [ 18.12249794, 48.65004225 ], [ 18.12251585, 48.64997603 ], [ 18.12255781, 48.64972252 ], [ 18.12256991, 48.64962112 ], [ 18.12258198, 48.64953533 ], [ 18.12264172, 48.64923511 ], [ 18.1228023, 48.64874385 ], [ 18.12280328, 48.64873641 ], [ 18.12281508, 48.64864853 ], [ 18.12281829, 48.64862435 ], [ 18.12282637, 48.64856451 ], [ 18.1228503, 48.64843969 ], [ 18.12289873, 48.64802243 ], [ 18.12289889, 48.64792881 ], [ 18.12293479, 48.64774556 ], [ 18.12298252, 48.64755839 ], [ 18.12302425, 48.64737123 ], [ 18.12304809, 48.64729326 ], [ 18.12313134, 48.64706328 ], [ 18.12328578, 48.64665003 ], [ 18.12332724, 48.64656036 ], [ 18.12336878, 48.64648243 ], [ 18.12348191, 48.64606524 ], [ 18.12345835, 48.64606522 ], [ 18.12355944, 48.6457767 ], [ 18.12367835, 48.64544535 ], [ 18.12377916, 48.6452349 ], [ 18.12381482, 48.64513352 ], [ 18.12389815, 48.64483719 ], [ 18.12392217, 48.644689 ], [ 18.12392874, 48.64444336 ], [ 18.12390012, 48.6441118 ], [ 18.12398901, 48.64392856 ], [ 18.12391033, 48.64363029 ], [ 18.12390154, 48.64359692 ], [ 18.12422718, 48.64308639 ], [ 18.12428249, 48.64291799 ], [ 18.12438525, 48.64273492 ], [ 18.12439322, 48.64256701 ], [ 18.1244488, 48.64237199 ], [ 18.12458027, 48.64176709 ], [ 18.12469983, 48.64117395 ], [ 18.12477451, 48.64086575 ], [ 18.12491764, 48.6402766 ], [ 18.12497899, 48.64008941 ], [ 18.12500361, 48.64000752 ], [ 18.12518137, 48.63948494 ], [ 18.12555925, 48.63854943 ], [ 18.12580353, 48.63790217 ], [ 18.1259068, 48.63767616 ], [ 18.12585935, 48.63768369 ], [ 18.12586578, 48.63766393 ], [ 18.12589001, 48.63759014 ], [ 18.12609465, 48.63680207 ], [ 18.12610078, 48.63675585 ], [ 18.12614032, 48.63645462 ], [ 18.12613717, 48.63643322 ], [ 18.12612392, 48.63634515 ], [ 18.12623513, 48.63594726 ], [ 18.12629637, 48.63576791 ], [ 18.12645436, 48.63492486 ], [ 18.12649618, 48.63488992 ], [ 18.12657421, 48.6347966 ], [ 18.12663984, 48.63474228 ], [ 18.12672874, 48.63472318 ], [ 18.12845796, 48.63493179 ], [ 18.12890066, 48.63498104 ], [ 18.12954941, 48.63508608 ], [ 18.1298147, 48.63514613 ], [ 18.12982357, 48.63514701 ], [ 18.12990898, 48.63515523 ], [ 18.12995055, 48.63515918 ], [ 18.12997677, 48.63516171 ], [ 18.12998243, 48.63516221 ], [ 18.13002654, 48.6351665 ], [ 18.13080247, 48.63524111 ], [ 18.13083972, 48.63524472 ], [ 18.13101901, 48.63526193 ], [ 18.1311136, 48.6352687 ], [ 18.13137334, 48.63528734 ], [ 18.13140877, 48.63529139 ], [ 18.13142169, 48.63529052 ], [ 18.13170828, 48.635271 ], [ 18.13172821, 48.63526963 ], [ 18.13223785, 48.63530002 ], [ 18.13296614, 48.63534349 ], [ 18.13338198, 48.63536833 ], [ 18.13343644, 48.63537366 ], [ 18.13453906, 48.63548396 ], [ 18.13507857, 48.63552122 ], [ 18.1351435, 48.63552572 ], [ 18.1352122, 48.63553044 ], [ 18.13694331, 48.63576837 ], [ 18.13701421, 48.63577809 ], [ 18.13781448, 48.6358881 ], [ 18.13782193, 48.63588845 ], [ 18.14132916, 48.63607079 ], [ 18.14144532, 48.63603908 ], [ 18.14149974, 48.63602419 ], [ 18.14190421, 48.63591363 ], [ 18.14221815, 48.63586444 ], [ 18.14327721, 48.63576456 ], [ 18.14373724, 48.63572828 ], [ 18.14379849, 48.63572344 ], [ 18.14476219, 48.63564736 ], [ 18.14614636, 48.63555686 ], [ 18.14642403, 48.63555837 ], [ 18.14671997, 48.63552473 ], [ 18.14682413, 48.63552816 ], [ 18.14748537, 48.63558128 ], [ 18.14828804, 48.63570517 ], [ 18.1489138, 48.63576597 ], [ 18.1499284, 48.63597248 ], [ 18.15030599, 48.63603629 ], [ 18.15101941, 48.63621826 ], [ 18.15104887, 48.6362262 ], [ 18.15136013, 48.63588794 ], [ 18.15161481, 48.63547173 ], [ 18.15203771, 48.63413884 ], [ 18.15215258, 48.63397551 ], [ 18.15229687, 48.63381642 ], [ 18.15241062, 48.63372344 ], [ 18.15293731, 48.63328952 ], [ 18.15323822, 48.63219402 ], [ 18.15328241, 48.63209665 ], [ 18.15328933, 48.63208134 ], [ 18.15333007, 48.63199153 ], [ 18.15351162, 48.63171931 ], [ 18.15407812, 48.63100838 ], [ 18.15503384, 48.62996026 ], [ 18.15546026, 48.62951781 ], [ 18.15565305, 48.6293274 ], [ 18.15567685, 48.62930802 ], [ 18.15568919, 48.62928779 ], [ 18.15572504, 48.62922875 ], [ 18.15572958, 48.62922125 ], [ 18.15574299, 48.62919909 ], [ 18.15639059, 48.62826228 ], [ 18.15715111, 48.62723633 ], [ 18.15796554, 48.62614434 ], [ 18.15846869, 48.62545634 ], [ 18.15880993, 48.6250056 ], [ 18.15907282, 48.62415255 ], [ 18.159452, 48.62297338 ], [ 18.15942325, 48.62296422 ], [ 18.15940639, 48.62295882 ], [ 18.15812002, 48.62254739 ], [ 18.15670145, 48.62213081 ], [ 18.15646044, 48.62206871 ], [ 18.1564374, 48.62206277 ], [ 18.15591093, 48.62193085 ], [ 18.15585227, 48.62191616 ], [ 18.15514312, 48.62173842 ], [ 18.15482439, 48.6215967 ], [ 18.15456027, 48.62142916 ], [ 18.15402369, 48.62099953 ], [ 18.15370893, 48.62094434 ], [ 18.15321345, 48.62085428 ], [ 18.15268791, 48.62075878 ], [ 18.15295231, 48.62026306 ], [ 18.15174949, 48.619888 ], [ 18.1509176, 48.61969652 ], [ 18.15053683, 48.61967928 ], [ 18.15008834, 48.61980464 ], [ 18.15005032, 48.61981001 ], [ 18.14971192, 48.61985762 ], [ 18.1494433, 48.61982324 ], [ 18.1492972, 48.61977061 ], [ 18.14924222, 48.61975081 ], [ 18.14864308, 48.61948489 ], [ 18.14855432, 48.61937547 ], [ 18.14804855, 48.61920372 ], [ 18.14758319, 48.61918571 ], [ 18.14716442, 48.61894607 ], [ 18.14711417, 48.61891724 ], [ 18.1467174, 48.61971655 ], [ 18.14662918, 48.61969788 ], [ 18.14600535, 48.61955907 ], [ 18.14541484, 48.61945254 ], [ 18.14499745, 48.61934775 ], [ 18.14462248, 48.61932686 ], [ 18.14456246, 48.61932455 ], [ 18.14437781, 48.61931734 ], [ 18.14339453, 48.61927824 ], [ 18.14296048, 48.61926032 ], [ 18.1415809, 48.61902294 ], [ 18.14070747, 48.61888124 ], [ 18.13981845, 48.61864437 ], [ 18.13867094, 48.61838317 ], [ 18.13863683, 48.6183754 ], [ 18.13860073, 48.61836012 ], [ 18.13850329, 48.61833396 ], [ 18.13843645, 48.61831328 ], [ 18.13835553, 48.61826208 ], [ 18.13701514, 48.61792851 ], [ 18.13691741, 48.61787985 ], [ 18.13681572, 48.61782925 ], [ 18.13681056, 48.61768098 ], [ 18.13716688, 48.61638497 ], [ 18.13770799, 48.61505466 ], [ 18.13785195, 48.61478271 ], [ 18.13776894, 48.61476181 ], [ 18.13697184, 48.61456142 ], [ 18.13679764, 48.6145176 ], [ 18.13669617, 48.61449211 ], [ 18.13504761, 48.61402294 ], [ 18.13482207, 48.61429393 ], [ 18.13465027, 48.61419807 ], [ 18.13437305, 48.61408705 ], [ 18.13421254, 48.61404881 ], [ 18.13416331, 48.6140371 ], [ 18.13399277, 48.61399648 ], [ 18.13331377, 48.61391722 ], [ 18.13298023, 48.61392308 ], [ 18.13256548, 48.61393044 ], [ 18.13244141, 48.61393269 ], [ 18.13211409, 48.61406946 ], [ 18.13185487, 48.61414329 ], [ 18.13163058, 48.61416002 ], [ 18.13151603, 48.61420454 ], [ 18.13102978, 48.61415446 ], [ 18.13084535, 48.6141355 ], [ 18.13076985, 48.61412777 ], [ 18.13067128, 48.61409792 ], [ 18.13018955, 48.61395204 ], [ 18.13006888, 48.6138978 ], [ 18.12998472, 48.61385994 ], [ 18.12992522, 48.61383318 ], [ 18.12982255, 48.61378703 ], [ 18.12965075, 48.61370976 ], [ 18.12961528, 48.61369379 ], [ 18.12953393, 48.61365727 ], [ 18.12950875, 48.61364596 ], [ 18.12939695, 48.61359566 ], [ 18.12884004, 48.61334528 ], [ 18.12858453, 48.61327911 ], [ 18.12844314, 48.61324253 ], [ 18.12564309, 48.61251761 ], [ 18.12560603, 48.61250552 ], [ 18.12558619, 48.61249904 ], [ 18.1255045, 48.61247234 ], [ 18.12547827, 48.61246376 ], [ 18.12529197, 48.61275472 ], [ 18.12508954, 48.61306152 ], [ 18.12496802, 48.61325405 ], [ 18.12483695, 48.6134406 ], [ 18.12477969, 48.61355102 ], [ 18.12461872, 48.61381519 ], [ 18.12447565, 48.61405215 ], [ 18.12427386, 48.61428116 ], [ 18.12401259, 48.6145839 ], [ 18.12387599, 48.61473917 ], [ 18.1237454, 48.6148984 ], [ 18.12348395, 48.61521277 ], [ 18.12328167, 48.61550803 ], [ 18.12322195, 48.61560512 ], [ 18.12315056, 48.61570605 ], [ 18.12309681, 48.61581874 ], [ 18.12301319, 48.61596256 ], [ 18.12295954, 48.61605188 ], [ 18.1229118, 48.61614904 ], [ 18.12266767, 48.61651029 ], [ 18.1225665, 48.61665399 ], [ 18.1224917, 48.61680319 ], [ 18.12244914, 48.6168612 ], [ 18.1223697, 48.61698892 ], [ 18.12226588, 48.61714745 ], [ 18.12215612, 48.61731385 ], [ 18.12208892, 48.61742215 ], [ 18.12202168, 48.61752666 ], [ 18.12194256, 48.61764266 ], [ 18.12180245, 48.61784377 ], [ 18.12173482, 48.61796766 ], [ 18.12167378, 48.61806441 ], [ 18.12158302, 48.61816863 ], [ 18.121504, 48.61828075 ], [ 18.12146134, 48.61834264 ], [ 18.1213826, 48.61843528 ], [ 18.12126731, 48.61858989 ], [ 18.12104222, 48.61890295 ], [ 18.12080552, 48.61921208 ], [ 18.1207634, 48.6192545 ], [ 18.12067274, 48.61935484 ], [ 18.12044681, 48.61945758 ], [ 18.12024483, 48.61954511 ], [ 18.12007805, 48.61962901 ], [ 18.11995282, 48.61970558 ], [ 18.11985138, 48.61976295 ], [ 18.11977288, 48.61985172 ], [ 18.11963966, 48.62001007 ], [ 18.11961584, 48.62002538 ], [ 18.11957015, 48.62021574 ], [ 18.11957264, 48.620356 ], [ 18.11957633, 48.62045336 ], [ 18.1195142, 48.62058904 ], [ 18.11945933, 48.62067414 ], [ 18.11939836, 48.62076312 ], [ 18.11927624, 48.62095272 ], [ 18.11907234, 48.62126286 ], [ 18.11906262, 48.62127764 ], [ 18.11894646, 48.62146335 ], [ 18.11883636, 48.62164137 ], [ 18.11872625, 48.6218194 ], [ 18.11867745, 48.62189672 ], [ 18.11863383, 48.62199755 ], [ 18.11859799, 48.62202444 ], [ 18.11848934, 48.62214016 ], [ 18.11833887, 48.6222827 ], [ 18.1183049, 48.62232008 ], [ 18.11828451, 48.62234444 ], [ 18.11815809, 48.62246382 ], [ 18.11801911, 48.62261822 ], [ 18.11794707, 48.62267974 ], [ 18.11788048, 48.62276081 ], [ 18.11777112, 48.62291161 ], [ 18.11766185, 48.62305456 ], [ 18.11757597, 48.6231978 ], [ 18.11746681, 48.62333687 ], [ 18.11736331, 48.62348765 ], [ 18.1172604, 48.62360732 ], [ 18.11717465, 48.62375056 ], [ 18.117047, 48.62392837 ], [ 18.11693675, 48.62408996 ], [ 18.11671833, 48.6243923 ], [ 18.11666383, 48.62445403 ], [ 18.11659616, 48.62457801 ], [ 18.11651722, 48.62468229 ], [ 18.11644999, 48.62479067 ], [ 18.11632828, 48.62496468 ], [ 18.11624272, 48.62509619 ], [ 18.11619453, 48.62514629 ], [ 18.11604982, 48.62529665 ], [ 18.11597744, 48.62536989 ], [ 18.11586889, 48.62548173 ], [ 18.11581482, 48.62552787 ], [ 18.11567104, 48.62563938 ], [ 18.1155625, 48.62575113 ], [ 18.11545416, 48.62585522 ], [ 18.11535775, 48.62595153 ], [ 18.1152675, 48.62603627 ], [ 18.1151649, 48.62614431 ], [ 18.11511671, 48.6261944 ], [ 18.11503826, 48.62627541 ], [ 18.11492311, 48.62641441 ], [ 18.11483842, 48.62651473 ], [ 18.11477213, 48.62658417 ], [ 18.11472945, 48.62664606 ], [ 18.11459014, 48.62681208 ], [ 18.11448108, 48.62694719 ], [ 18.11437222, 48.62707463 ], [ 18.11434795, 48.62710554 ], [ 18.11425121, 48.62721356 ], [ 18.11418321, 48.62734916 ], [ 18.11410311, 48.62750411 ], [ 18.11402916, 48.62764352 ], [ 18.11397959, 48.62775213 ], [ 18.11396119, 48.62778301 ], [ 18.11396055, 48.62781033 ], [ 18.11391086, 48.62791884 ], [ 18.11387936, 48.62800422 ], [ 18.11383544, 48.62812055 ], [ 18.11381662, 48.62817101 ], [ 18.1137663, 48.62830683 ], [ 18.11372248, 48.6284193 ], [ 18.11367844, 48.6285396 ], [ 18.11365345, 48.62860161 ], [ 18.11361577, 48.62869863 ], [ 18.11359068, 48.62876452 ], [ 18.11357141, 48.62883057 ], [ 18.1135341, 48.62891975 ], [ 18.11350793, 48.62902855 ], [ 18.11344069, 48.62918506 ], [ 18.11335454, 48.62932809 ], [ 18.11323172, 48.62951747 ], [ 18.11309653, 48.62972617 ], [ 18.11298696, 48.62986504 ], [ 18.11287076, 48.63002717 ], [ 18.1127369, 48.63019297 ], [ 18.11266341, 48.63030117 ], [ 18.11259656, 48.63037889 ], [ 18.11257226, 48.63040907 ], [ 18.11250492, 48.63050174 ], [ 18.11240054, 48.63066402 ], [ 18.11239966, 48.63069521 ], [ 18.11240877, 48.6307927 ], [ 18.11243391, 48.63094485 ], [ 18.11228985, 48.63091171 ], [ 18.11214777, 48.63087903 ], [ 18.11211007, 48.63086961 ], [ 18.1120328, 48.63085047 ], [ 18.11186759, 48.63080941 ], [ 18.11170999, 48.63076852 ], [ 18.1114181, 48.63069477 ], [ 18.11126376, 48.6306529 ], [ 18.11113229, 48.63061723 ], [ 18.1109166, 48.63055227 ], [ 18.11076531, 48.63049974 ], [ 18.11067806, 48.63046756 ], [ 18.11046226, 48.63040647 ], [ 18.11041003, 48.63038239 ], [ 18.11031713, 48.63033841 ], [ 18.11018935, 48.63028626 ], [ 18.11002676, 48.63020508 ], [ 18.10987502, 48.63034961 ], [ 18.10981134, 48.6304034 ], [ 18.10978724, 48.63042384 ], [ 18.10971431, 48.63048991 ], [ 18.10968799, 48.63051365 ], [ 18.10957702, 48.630623 ], [ 18.1094671, 48.63072447 ], [ 18.10945436, 48.63073628 ], [ 18.10936475, 48.63083866 ], [ 18.10935528, 48.63084948 ], [ 18.10928532, 48.6309392 ], [ 18.10925284, 48.63100222 ], [ 18.10923317, 48.63104052 ], [ 18.10919257, 48.6311185 ], [ 18.10915004, 48.63116892 ], [ 18.10904543, 48.63129291 ], [ 18.10904107, 48.63129807 ], [ 18.10893468, 48.6314262 ], [ 18.10886607, 48.63150887 ], [ 18.10882816, 48.63155324 ], [ 18.10877282, 48.63161808 ], [ 18.10873808, 48.63166218 ], [ 18.108668, 48.63175081 ], [ 18.10893519, 48.63186492 ], [ 18.10893931, 48.63186669 ], [ 18.10894271, 48.63193126 ], [ 18.10895296, 48.63212363 ], [ 18.10885262, 48.63222267 ], [ 18.10873095, 48.63234278 ], [ 18.10870774, 48.63236571 ], [ 18.1086785, 48.63239307 ], [ 18.10861023, 48.63246293 ], [ 18.10857933, 48.63249453 ], [ 18.10847582, 48.63258464 ], [ 18.10846244, 48.63259613 ], [ 18.10844519, 48.63264289 ], [ 18.10841013, 48.63272218 ], [ 18.10837296, 48.63280605 ], [ 18.10836416, 48.63282612 ], [ 18.10830646, 48.63297425 ], [ 18.10827416, 48.63302762 ], [ 18.10823089, 48.63309903 ], [ 18.10814842, 48.63316301 ], [ 18.10804955, 48.63323966 ], [ 18.10800343, 48.63328428 ], [ 18.10794451, 48.63334123 ], [ 18.1079189, 48.63338325 ], [ 18.10789574, 48.63342117 ], [ 18.10789224, 48.63342702 ], [ 18.10780496, 48.63355581 ], [ 18.1078018, 48.63355906 ], [ 18.1076824, 48.63368462 ], [ 18.10766935, 48.63369776 ], [ 18.10755115, 48.63381942 ], [ 18.10751896, 48.63385248 ], [ 18.10744289, 48.63390726 ], [ 18.10740764, 48.63393264 ], [ 18.10739273, 48.63394333 ], [ 18.10737266, 48.63395805 ], [ 18.10725912, 48.63404052 ], [ 18.10723815, 48.63405582 ], [ 18.10716798, 48.63411438 ], [ 18.10710744, 48.63415679 ], [ 18.10703927, 48.63420436 ], [ 18.10694555, 48.63426687 ], [ 18.10693246, 48.63427414 ], [ 18.10684021, 48.63432563 ], [ 18.10674096, 48.63438158 ], [ 18.10665275, 48.63443132 ], [ 18.10664806, 48.63443376 ], [ 18.10654766, 48.63448612 ], [ 18.10646524, 48.63452916 ], [ 18.10644464, 48.63455197 ], [ 18.10642267, 48.63457678 ], [ 18.10632528, 48.6346853 ], [ 18.10632291, 48.63468778 ], [ 18.1062146, 48.63479647 ], [ 18.10620849, 48.63480243 ], [ 18.10606224, 48.63491577 ], [ 18.1059511, 48.63500172 ], [ 18.10591478, 48.6350331 ], [ 18.10578564, 48.63514472 ], [ 18.10576998, 48.63515798 ], [ 18.1057291, 48.63519703 ], [ 18.10567078, 48.63525556 ], [ 18.10561229, 48.63531426 ], [ 18.10557582, 48.63535393 ], [ 18.10556563, 48.63536498 ], [ 18.10548911, 48.63544565 ], [ 18.10544307, 48.63549378 ], [ 18.1054129, 48.63552191 ], [ 18.10532622, 48.63560315 ], [ 18.10532263, 48.63560755 ], [ 18.10522158, 48.63573228 ], [ 18.1052185, 48.63573598 ], [ 18.10521541, 48.63573978 ], [ 18.10508156, 48.63593085 ], [ 18.10491019, 48.63580292 ], [ 18.10482983, 48.63574243 ], [ 18.10479183, 48.63571375 ], [ 18.10469849, 48.63581529 ], [ 18.10457003, 48.63594022 ], [ 18.10440655, 48.63610419 ], [ 18.10425482, 48.63627598 ], [ 18.10409131, 48.63643607 ], [ 18.10401539, 48.63651415 ], [ 18.10392198, 48.63660394 ], [ 18.10382868, 48.63670936 ], [ 18.1036304, 48.6369474 ], [ 18.10351951, 48.63707228 ], [ 18.10329792, 48.63732991 ], [ 18.10309958, 48.63756019 ], [ 18.10303544, 48.63762659 ], [ 18.10284861, 48.63782567 ], [ 18.10272019, 48.63795837 ], [ 18.10265005, 48.63802478 ], [ 18.10253312, 48.63812241 ], [ 18.10242803, 48.63822009 ], [ 18.1023813, 48.63826304 ], [ 18.10231692, 48.63831381 ], [ 18.10207699, 48.63848197 ], [ 18.10182501, 48.63860339 ], [ 18.10165492, 48.63868174 ], [ 18.10139713, 48.63881103 ], [ 18.10110988, 48.63895594 ], [ 18.10112195, 48.63896558 ], [ 18.10087505, 48.63909487 ], [ 18.10080357, 48.63914884 ], [ 18.10047641, 48.63936833 ], [ 18.10035729, 48.63946085 ], [ 18.09992141, 48.6398625 ], [ 18.09944294, 48.64034553 ], [ 18.09924579, 48.6405309 ], [ 18.09914981, 48.64064699 ], [ 18.09891508, 48.64097228 ], [ 18.09869673, 48.64138322 ], [ 18.09838254, 48.64189084 ], [ 18.09814457, 48.64242242 ], [ 18.09797539, 48.64270143 ], [ 18.09791327, 48.64279756 ], [ 18.09818887, 48.64289991 ], [ 18.09802826, 48.64309004 ], [ 18.09774924, 48.64334981 ], [ 18.09749447, 48.64355132 ], [ 18.09732314, 48.64371852 ], [ 18.09715092, 48.64387105 ], [ 18.09704745, 48.64394309 ], [ 18.09695542, 48.64401924 ], [ 18.09675968, 48.64417129 ], [ 18.09664332, 48.6442665 ], [ 18.09659439, 48.64430445 ], [ 18.09651561, 48.64434968 ], [ 18.0963397, 48.64447761 ], [ 18.09612935, 48.6446391 ], [ 18.09567331, 48.64497365 ], [ 18.09534928, 48.64520812 ], [ 18.09546485, 48.64530291 ], [ 18.09536308, 48.64536421 ], [ 18.09524354, 48.64543315 ], [ 18.09509586, 48.64544329 ], [ 18.09489375, 48.64551524 ], [ 18.09467903, 48.64561436 ], [ 18.0945239, 48.64569466 ], [ 18.09432699, 48.64579004 ], [ 18.09412433, 48.64588146 ], [ 18.09391559, 48.64598066 ], [ 18.09381297, 48.6460299 ], [ 18.09374863, 48.64606081 ], [ 18.09366766, 48.64599359 ], [ 18.09357491, 48.64593408 ], [ 18.09349958, 48.64587875 ], [ 18.09332619, 48.6457404 ], [ 18.09312297, 48.64585129 ], [ 18.09303955, 48.64588938 ], [ 18.09283711, 48.64597305 ], [ 18.09254492, 48.64610646 ], [ 18.09228888, 48.6462129 ], [ 18.09194931, 48.6463614 ], [ 18.09165711, 48.6464948 ], [ 18.09139447, 48.64663237 ], [ 18.09117333, 48.64675096 ], [ 18.09099965, 48.64686611 ], [ 18.09095776, 48.64688903 ], [ 18.09088519, 48.64696631 ], [ 18.09074652, 48.64708964 ], [ 18.09064922, 48.64721341 ], [ 18.09046794, 48.64739475 ], [ 18.09036954, 48.64756143 ], [ 18.0905206, 48.64765271 ], [ 18.09068293, 48.64776369 ], [ 18.09079295, 48.6478429 ], [ 18.09087423, 48.64789443 ], [ 18.09099576, 48.64798542 ], [ 18.09110578, 48.64806463 ], [ 18.09121583, 48.64814773 ], [ 18.09131806, 48.64830485 ], [ 18.0911041, 48.64837665 ], [ 18.09081309, 48.64846326 ], [ 18.09056928, 48.6485464 ], [ 18.09040769, 48.64862596 ], [ 18.09033667, 48.64866099 ], [ 18.08999076, 48.64882103 ], [ 18.08991317, 48.64885928 ], [ 18.08946148, 48.64901042 ], [ 18.08906934, 48.64913498 ], [ 18.08899773, 48.64916925 ], [ 18.08896193, 48.64918837 ], [ 18.0889322, 48.64919981 ], [ 18.08886005, 48.64925752 ], [ 18.08854108, 48.64949335 ], [ 18.08848197, 48.64953711 ], [ 18.08771883, 48.65018011 ], [ 18.08745835, 48.65039626 ], [ 18.08722407, 48.65059064 ], [ 18.08579446, 48.65175409 ], [ 18.08578927, 48.6517583 ], [ 18.08571757, 48.65181667 ], [ 18.08571237, 48.65182088 ], [ 18.08547787, 48.65201173 ], [ 18.08394468, 48.65340735 ], [ 18.08373559, 48.65359761 ], [ 18.08350258, 48.65380976 ], [ 18.08326977, 48.65403068 ], [ 18.08313815, 48.65417031 ], [ 18.08295898, 48.65434869 ], [ 18.08286315, 48.65446116 ], [ 18.08276777, 48.65453863 ], [ 18.08267808, 48.6546317 ], [ 18.08255887, 48.65472845 ], [ 18.08234371, 48.65494562 ], [ 18.08230767, 48.65499614 ], [ 18.08190664, 48.65499385 ], [ 18.08133878, 48.65465927 ], [ 18.08095975, 48.65477799 ], [ 18.08038897, 48.65467337 ], [ 18.08005531, 48.65446881 ], [ 18.0794265, 48.65429371 ], [ 18.07908477, 48.65425669 ], [ 18.07890817, 48.65423622 ], [ 18.07715886, 48.65403917 ], [ 18.07681763, 48.65397094 ], [ 18.07675084, 48.65411482 ], [ 18.07668535, 48.65416126 ], [ 18.07647822, 48.65422242 ], [ 18.07627597, 48.65434996 ], [ 18.0760565, 48.65444227 ], [ 18.07530702, 48.65492927 ], [ 18.07528765, 48.65505787 ], [ 18.07516162, 48.65522482 ], [ 18.07499394, 48.65541488 ], [ 18.07485024, 48.65558557 ], [ 18.07478973, 48.65615841 ], [ 18.07475659, 48.6564053 ], [ 18.07477097, 48.65663105 ], [ 18.07476624, 48.65695788 ], [ 18.07486782, 48.65725818 ], [ 18.07475805, 48.65752982 ], [ 18.07478848, 48.65786079 ], [ 18.07485422, 48.65819979 ], [ 18.07485195, 48.65876007 ], [ 18.07473989, 48.65918732 ], [ 18.07463679, 48.65939679 ], [ 18.07463244, 48.65969637 ], [ 18.07451801, 48.65987845 ], [ 18.07457535, 48.65998781 ], [ 18.074454, 48.6602399 ], [ 18.07391173, 48.66069933 ], [ 18.07390494, 48.66076539 ], [ 18.07383929, 48.66082726 ], [ 18.07381905, 48.66100611 ], [ 18.07369979, 48.66111422 ], [ 18.07338697, 48.66117044 ], [ 18.07314162, 48.6614529 ], [ 18.07300088, 48.6615045 ], [ 18.07292277, 48.66153314 ], [ 18.07283868, 48.66164928 ], [ 18.07260221, 48.66172163 ], [ 18.07233471, 48.66190266 ], [ 18.07180095, 48.66218309 ], [ 18.07157006, 48.66227888 ], [ 18.07144725, 48.66235843 ], [ 18.07143337, 48.66236737 ], [ 18.07140133, 48.66238075 ], [ 18.07104849, 48.66252824 ], [ 18.07072341, 48.66262716 ], [ 18.07049798, 48.66274628 ], [ 18.0703565, 48.66276867 ], [ 18.07021441, 48.66282218 ], [ 18.06985365, 48.66294428 ], [ 18.06952191, 48.66308984 ], [ 18.06915578, 48.66318075 ], [ 18.0687473, 48.66333752 ], [ 18.06869676, 48.66336994 ], [ 18.06809581, 48.66375286 ], [ 18.06760421, 48.66388289 ], [ 18.06722301, 48.66416161 ], [ 18.0669862, 48.66421496 ], [ 18.06534971, 48.6647874 ], [ 18.06506948, 48.66500821 ], [ 18.06456577, 48.66516542 ], [ 18.0642835, 48.66527117 ], [ 18.06393852, 48.66540032 ], [ 18.06378899, 48.66545636 ], [ 18.0636109, 48.665523 ], [ 18.06323488, 48.66585645 ], [ 18.06296843, 48.66592133 ], [ 18.0626411, 48.66612627 ], [ 18.06231466, 48.66627267 ], [ 18.06214287, 48.66631467 ], [ 18.06196543, 48.66634496 ], [ 18.06174602, 48.66641784 ], [ 18.06149618, 48.66657641 ], [ 18.06146485, 48.66720803 ], [ 18.06124627, 48.66721468 ], [ 18.06109167, 48.66681609 ], [ 18.06105829, 48.66664818 ], [ 18.0611885, 48.6666255 ], [ 18.06105503, 48.66643753 ], [ 18.06050546, 48.6664658 ], [ 18.05963661, 48.66653913 ], [ 18.05915149, 48.66661849 ], [ 18.05878584, 48.66658137 ], [ 18.05759722, 48.66673492 ], [ 18.05715293, 48.66685731 ], [ 18.05660951, 48.66686606 ], [ 18.05625031, 48.66679003 ], [ 18.05561902, 48.66674765 ], [ 18.05508832, 48.66669412 ], [ 18.05462236, 48.66664874 ], [ 18.05451024, 48.66664421 ], [ 18.05416195, 48.66664232 ], [ 18.05413844, 48.66662658 ], [ 18.05402863, 48.66661596 ], [ 18.05396741, 48.66661001 ], [ 18.05377857, 48.66660124 ], [ 18.05365416, 48.66663952 ], [ 18.05339412, 48.66666159 ], [ 18.05323425, 48.66669191 ], [ 18.05322017, 48.66687509 ], [ 18.05323034, 48.66701166 ], [ 18.05313567, 48.66703453 ], [ 18.05297021, 48.66752508 ], [ 18.05267529, 48.66797975 ], [ 18.05252902, 48.66810369 ], [ 18.05246042, 48.66816186 ], [ 18.05234232, 48.66816123 ], [ 18.05198588, 48.66833482 ], [ 18.05162397, 48.668481 ], [ 18.05135683, 48.66859655 ], [ 18.05116143, 48.66863452 ], [ 18.05086829, 48.6686848 ], [ 18.05071767, 48.66871006 ], [ 18.05015588, 48.66877332 ], [ 18.05003175, 48.66879219 ], [ 18.04963598, 48.66880166 ], [ 18.04945, 48.66877455 ], [ 18.04935896, 48.66876124 ], [ 18.04820743, 48.66876276 ], [ 18.04706212, 48.66922448 ], [ 18.04686666, 48.66927409 ], [ 18.046535, 48.66935026 ], [ 18.04612556, 48.66951421 ], [ 18.04600684, 48.66956184 ], [ 18.04611889, 48.66967751 ], [ 18.04605885, 48.66975514 ], [ 18.04594538, 48.66985193 ], [ 18.04576781, 48.66986268 ], [ 18.04564187, 48.67002185 ], [ 18.04550505, 48.67008349 ], [ 18.04540291, 48.67023494 ], [ 18.04508174, 48.67038919 ], [ 18.04484921, 48.6705594 ], [ 18.04466467, 48.67066365 ], [ 18.04450324, 48.67081097 ], [ 18.04444872, 48.67092757 ], [ 18.04431175, 48.67101259 ], [ 18.04399179, 48.67106542 ], [ 18.04367763, 48.67113394 ], [ 18.04345746, 48.67124963 ], [ 18.04329066, 48.67136178 ], [ 18.04319542, 48.67140808 ], [ 18.04306234, 48.67153305 ], [ 18.04288945, 48.67162968 ], [ 18.0427996, 48.671719 ], [ 18.0426748, 48.67176519 ], [ 18.04259607, 48.67189752 ], [ 18.04248908, 48.6719359 ], [ 18.04236282, 48.67209532 ], [ 18.0421547, 48.67217614 ], [ 18.04200602, 48.67224168 ], [ 18.04111947, 48.67262723 ], [ 18.04011145, 48.67325806 ], [ 18.03976014, 48.6738887 ], [ 18.03961005, 48.67402241 ], [ 18.03956312, 48.67406425 ], [ 18.03913748, 48.67444356 ], [ 18.03818816, 48.6751098 ], [ 18.03775592, 48.67603272 ], [ 18.03698531, 48.67659852 ], [ 18.03575732, 48.67756523 ], [ 18.03561627, 48.67767627 ], [ 18.03549033, 48.67780058 ], [ 18.03543544, 48.67793295 ], [ 18.0354035, 48.67810849 ], [ 18.03548064, 48.6785384 ], [ 18.03601666, 48.67915827 ], [ 18.03653751, 48.67958284 ], [ 18.03719119, 48.67981679 ], [ 18.03753837, 48.67995537 ], [ 18.03786217, 48.68007821 ], [ 18.03858258, 48.68017596 ], [ 18.03901341, 48.68026033 ], [ 18.03964525, 48.68035357 ], [ 18.04002327, 48.68039472 ], [ 18.04030632, 48.6804627 ], [ 18.04063102, 48.68051913 ], [ 18.04087808, 48.68063374 ], [ 18.04141562, 48.68069522 ], [ 18.0417164, 48.68076324 ], [ 18.04220158, 48.68076593 ], [ 18.04240202, 48.68082171 ], [ 18.04272112, 48.68085082 ], [ 18.04299302, 48.68086792 ], [ 18.04323585, 48.68085578 ], [ 18.04349672, 48.68082303 ], [ 18.04364983, 48.68085562 ], [ 18.04438049, 48.68099086 ], [ 18.04452175, 48.68102329 ], [ 18.04463369, 48.68104767 ], [ 18.04498537, 48.68121078 ], [ 18.04520858, 48.68128686 ], [ 18.0455801, 48.68134089 ], [ 18.0456784, 48.68145873 ], [ 18.0458362, 48.6815538 ], [ 18.04638133, 48.68180044 ], [ 18.0467169, 48.68187754 ], [ 18.04688419, 48.68178934 ], [ 18.04689211, 48.68199224 ], [ 18.04701633, 48.68229372 ], [ 18.04710287, 48.68240364 ], [ 18.04734934, 48.68249951 ], [ 18.0479804, 48.68259482 ], [ 18.04825279, 48.68257384 ], [ 18.04852807, 48.68240848 ], [ 18.04871894, 48.68232437 ], [ 18.04896509, 48.68213932 ], [ 18.04919747, 48.6820517 ], [ 18.04946325, 48.68206573 ], [ 18.04972948, 48.68206416 ], [ 18.05002459, 48.6820902 ], [ 18.05060282, 48.68216162 ], [ 18.05100497, 48.68216127 ], [ 18.05114658, 48.68218207 ], [ 18.05137963, 48.68235966 ], [ 18.05143367, 48.6826254 ], [ 18.05138641, 48.68263418 ], [ 18.0513418, 48.68264248 ], [ 18.05128853, 48.6826462 ], [ 18.0511085, 48.68264445 ], [ 18.05104913, 48.68264385 ], [ 18.05072123, 48.68264062 ], [ 18.05020616, 48.68275991 ], [ 18.04954792, 48.68309342 ], [ 18.04922287, 48.68307292 ], [ 18.04931058, 48.68323312 ], [ 18.04932622, 48.68323954 ], [ 18.04876406, 48.68349925 ], [ 18.0481779, 48.68382896 ], [ 18.04804159, 48.68394942 ], [ 18.04798252, 48.68394152 ], [ 18.04775177, 48.68406562 ], [ 18.04775144, 48.68412799 ], [ 18.0472361, 48.68447342 ], [ 18.04708787, 48.68460952 ], [ 18.04684707, 48.68476472 ], [ 18.04648652, 48.68499729 ], [ 18.04635948, 48.68507919 ], [ 18.04582054, 48.6854012 ], [ 18.04563035, 48.68568515 ], [ 18.04559383, 48.68590719 ], [ 18.04542617, 48.68639382 ], [ 18.0450159, 48.68700845 ], [ 18.04467733, 48.68742839 ], [ 18.04463602, 48.68742831 ], [ 18.04461168, 48.68758407 ], [ 18.04453459, 48.68764625 ], [ 18.04453257, 48.68781551 ], [ 18.044491, 48.68788945 ], [ 18.04441378, 48.6879983 ], [ 18.04429514, 48.68811492 ], [ 18.04417648, 48.68825104 ], [ 18.04424113, 48.68830577 ], [ 18.0443411, 48.68836051 ], [ 18.0443528, 48.68837998 ], [ 18.04436437, 48.68845018 ], [ 18.04439351, 48.68851646 ], [ 18.04444012, 48.68863739 ], [ 18.04444515, 48.6888049 ], [ 18.04449196, 48.68888685 ], [ 18.04453231, 48.68908181 ], [ 18.04457875, 48.68921827 ], [ 18.04459037, 48.68927285 ], [ 18.04461338, 48.68938978 ], [ 18.04469538, 48.68949908 ], [ 18.04478317, 48.68964347 ], [ 18.04480664, 48.68967077 ], [ 18.04486533, 48.68973328 ], [ 18.04496501, 48.68985815 ], [ 18.04508825, 48.69000256 ], [ 18.04517613, 48.69011581 ], [ 18.04520508, 48.69024446 ], [ 18.04523986, 48.69036922 ], [ 18.04524523, 48.69045106 ], [ 18.04528055, 48.69047843 ], [ 18.04538041, 48.69056042 ], [ 18.04546273, 48.69063082 ], [ 18.04550378, 48.69068154 ], [ 18.04562122, 48.69078697 ], [ 18.04583868, 48.69095896 ], [ 18.04592678, 48.6910371 ], [ 18.04596792, 48.69108006 ], [ 18.04603823, 48.6911698 ], [ 18.04630306, 48.69130286 ], [ 18.04637902, 48.69145107 ], [ 18.04643148, 48.69156811 ], [ 18.04643126, 48.6916266 ], [ 18.04623629, 48.69169629 ], [ 18.04601707, 48.69186721 ], [ 18.04580988, 48.6920187 ], [ 18.04563743, 48.69228709 ], [ 18.04551261, 48.69249336 ], [ 18.04538783, 48.69268004 ], [ 18.04527492, 48.69284738 ], [ 18.04530896, 48.69310454 ], [ 18.04533764, 48.69328392 ], [ 18.04537219, 48.6934632 ], [ 18.04541866, 48.69360353 ], [ 18.04546521, 48.69373611 ], [ 18.04552341, 48.69390387 ], [ 18.04556412, 48.69401299 ], [ 18.0456166, 48.69415729 ], [ 18.04563379, 48.69425473 ], [ 18.04567956, 48.69453931 ], [ 18.04575469, 48.69487844 ], [ 18.04577754, 48.69501486 ], [ 18.04581216, 48.69518249 ], [ 18.04589422, 48.69529955 ], [ 18.04602315, 48.69545964 ], [ 18.0460456, 48.69549049 ], [ 18.04604814, 48.69549389 ], [ 18.046117, 48.69558841 ], [ 18.0461871, 48.69573664 ], [ 18.04630433, 48.69590056 ], [ 18.04642149, 48.69605273 ], [ 18.04652126, 48.69616596 ], [ 18.04666207, 48.69633 ], [ 18.04679119, 48.69647439 ], [ 18.04693785, 48.69663454 ], [ 18.04705533, 48.69674384 ], [ 18.04711703, 48.69686015 ], [ 18.04717475, 48.69696964 ], [ 18.04728445, 48.69716526 ], [ 18.04744082, 48.6974196 ], [ 18.04755044, 48.69762695 ], [ 18.04778368, 48.69788175 ], [ 18.04794686, 48.69806209 ], [ 18.04815087, 48.69828168 ], [ 18.04829076, 48.69843844 ], [ 18.04825984, 48.69853964 ], [ 18.04818649, 48.69873026 ], [ 18.04813093, 48.69890928 ], [ 18.04809414, 48.69900652 ], [ 18.04802684, 48.69918151 ], [ 18.04796552, 48.6993527 ], [ 18.04791053, 48.69948887 ], [ 18.04785488, 48.69967565 ], [ 18.04775316, 48.69976474 ], [ 18.04759154, 48.69991188 ], [ 18.04745392, 48.70003966 ], [ 18.04730403, 48.70019083 ], [ 18.04714263, 48.70033021 ], [ 18.04700489, 48.70046196 ], [ 18.04688959, 48.70056072 ], [ 18.04887301, 48.69994749 ] ] ] ] } }
]
}
