{
"type": "FeatureCollection",
"name": "gis",
"crs": { "type": "name", "properties": { "name": "urn:ogc:def:crs:OGC:1.3:CRS84" } },
"features": [
{ "type": "Feature", "properties": { "@featureType": "CadastralParcel", "areaValue": { "value": 1516, "@uom": "m2" }, "beginLifespanVersion": { "@nilReason": "http://inspire.ec.europa.eu/codelist/VoidReasonValue/Unpopulated", "@nil": "true" }, "endLifespanVersion": { "@nilReason": "http://inspire.ec.europa.eu/codelist/VoidReasonValue/Unpopulated", "@nil": "true" }, "inspireId": { "@dataType": "Identifier", "localId": "836125_254/1.C", "namespace": "SK.ESKN.CP", "versionId": "20260703T05:07:42" }, "label": "254/1", "nationalCadastralReference": "836125_254/1.C", "referencePoint": { "type": "Point", "coordinates": [ 20.62109291, 48.91644426 ] }, "validFrom": "2026-06-30T16:00:00Z", "validTo": { "@nilReason": "http://inspire.ec.europa.eu/codelist/VoidReasonValue/Unpopulated", "@nil": "true" }, "administrativeUnit": { "@href": "#auAdmUnitS.586" } }, "geometry": { "type": "Polygon", "coordinates": [ [ [ 20.6213948, 48.91663548 ], [ 20.62158393, 48.91664198 ], [ 20.62158567, 48.91660151 ], [ 20.62159949, 48.9162821 ], [ 20.62119223, 48.91625797 ], [ 20.62107794, 48.91633704 ], [ 20.62095315, 48.91643555 ], [ 20.6209368, 48.91645297 ], [ 20.62093307, 48.91648292 ], [ 20.62095257, 48.9166226 ], [ 20.6213948, 48.91663548 ] ], [ [ 20.6212879, 48.91653442 ], [ 20.62128669, 48.91654231 ], [ 20.62125924, 48.9165405 ], [ 20.62126005, 48.91653242 ], [ 20.62123039, 48.9165309 ], [ 20.62125437, 48.916332 ], [ 20.62141092, 48.91634092 ], [ 20.62141045, 48.91634487 ], [ 20.62139413, 48.91634392 ], [ 20.62139048, 48.91637134 ], [ 20.62140679, 48.9163723 ], [ 20.62140648, 48.91637607 ], [ 20.62140089, 48.91637586 ], [ 20.62138405, 48.91650396 ], [ 20.62138949, 48.91650424 ], [ 20.62138903, 48.91650819 ], [ 20.62137271, 48.91650724 ], [ 20.62136905, 48.91653466 ], [ 20.62138537, 48.91653562 ], [ 20.62138749, 48.91653975 ], [ 20.6212879, 48.91653442 ] ] ] } }
]
}
