{
"type": "FeatureCollection",
"name": "gis",
"crs": { "type": "name", "properties": { "name": "urn:ogc:def:crs:OGC:1.3:CRS84" } },
"features": [
{ "type": "Feature", "properties": { "@featureType": "CadastralParcel", "areaValue": { "value": 1022, "@uom": "m2" }, "beginLifespanVersion": { "@nilReason": "http://inspire.ec.europa.eu/codelist/VoidReasonValue/Unpopulated", "@nil": "true" }, "endLifespanVersion": { "@nilReason": "http://inspire.ec.europa.eu/codelist/VoidReasonValue/Unpopulated", "@nil": "true" }, "inspireId": { "@dataType": "Identifier", "localId": "867942_471/1.C", "namespace": "SK.ESKN.CP", "versionId": "20260703T07:07:53" }, "label": "471/1", "nationalCadastralReference": "867942_471/1.C", "referencePoint": { "type": "Point", "coordinates": [ 17.96670386, 48.85340743 ] }, "validFrom": "2026-06-30T16:00:00Z", "validTo": { "@nilReason": "http://inspire.ec.europa.eu/codelist/VoidReasonValue/Unpopulated", "@nil": "true" }, "administrativeUnit": { "@href": "#auAdmUnitS.1700" } }, "geometry": { "type": "Polygon", "coordinates": [ [ [ 17.96692175, 48.85355032 ], [ 17.96691285, 48.85346311 ], [ 17.96689874, 48.85337396 ], [ 17.966838, 48.85323942 ], [ 17.966753, 48.85319248 ], [ 17.96664987, 48.8532203 ], [ 17.96650306, 48.85336265 ], [ 17.96650416, 48.85344091 ], [ 17.96655767, 48.85351804 ], [ 17.96655817, 48.85354344 ], [ 17.96656435, 48.85357839 ], [ 17.96654623, 48.85361398 ], [ 17.96654631, 48.85364649 ], [ 17.96659749, 48.85363038 ], [ 17.96665725, 48.85360955 ], [ 17.96664692, 48.85359603 ], [ 17.96668695, 48.85358242 ], [ 17.96671212, 48.85357444 ], [ 17.96672384, 48.85357477 ], [ 17.96673526, 48.85357635 ], [ 17.9667464, 48.85357891 ], [ 17.96675671, 48.85358259 ], [ 17.96676607, 48.85358721 ], [ 17.96677436, 48.85359267 ], [ 17.96678085, 48.8535982 ], [ 17.96692175, 48.85355032 ] ] ] } },
{ "type": "Feature", "properties": { "@featureType": "CadastralParcel", "areaValue": { "value": 23, "@uom": "m2" }, "beginLifespanVersion": { "@nilReason": "http://inspire.ec.europa.eu/codelist/VoidReasonValue/Unpopulated", "@nil": "true" }, "endLifespanVersion": { "@nilReason": "http://inspire.ec.europa.eu/codelist/VoidReasonValue/Unpopulated", "@nil": "true" }, "inspireId": { "@dataType": "Identifier", "localId": "867942_471/7.C", "namespace": "SK.ESKN.CP", "versionId": "20260703T07:07:53" }, "label": "471/7", "nationalCadastralReference": "867942_471/7.C", "referencePoint": { "type": "Point", "coordinates": [ 17.96671409, 48.85359435 ] }, "validFrom": "2026-06-30T16:00:00Z", "validTo": { "@nilReason": "http://inspire.ec.europa.eu/codelist/VoidReasonValue/Unpopulated", "@nil": "true" }, "administrativeUnit": { "@href": "#auAdmUnitS.1700" } }, "geometry": { "type": "Polygon", "coordinates": [ [ [ 17.96665725, 48.85360955 ], [ 17.9666821, 48.85360092 ], [ 17.96669922, 48.85360681 ], [ 17.96670447, 48.85359845 ], [ 17.96674125, 48.85361165 ], [ 17.96678085, 48.8535982 ], [ 17.96677436, 48.85359267 ], [ 17.96676607, 48.85358721 ], [ 17.96675671, 48.85358259 ], [ 17.9667464, 48.85357891 ], [ 17.96673526, 48.85357635 ], [ 17.96672384, 48.85357477 ], [ 17.96671212, 48.85357444 ], [ 17.96668695, 48.85358242 ], [ 17.96664692, 48.85359603 ], [ 17.96665725, 48.85360955 ] ] ] } },
{ "type": "Feature", "properties": { "@featureType": "CadastralParcel", "areaValue": { "value": 910, "@uom": "m2" }, "beginLifespanVersion": { "@nilReason": "http://inspire.ec.europa.eu/codelist/VoidReasonValue/Unpopulated", "@nil": "true" }, "endLifespanVersion": { "@nilReason": "http://inspire.ec.europa.eu/codelist/VoidReasonValue/Unpopulated", "@nil": "true" }, "inspireId": { "@dataType": "Identifier", "localId": "867942_471/3.C", "namespace": "SK.ESKN.CP", "versionId": "20260703T07:07:53" }, "label": "471/3", "nationalCadastralReference": "867942_471/3.C", "referencePoint": { "type": "Point", "coordinates": [ 17.96637126, 48.85340152 ] }, "validFrom": "2026-06-30T16:00:00Z", "validTo": { "@nilReason": "http://inspire.ec.europa.eu/codelist/VoidReasonValue/Unpopulated", "@nil": "true" }, "administrativeUnit": { "@href": "#auAdmUnitS.1700" } }, "geometry": { "type": "Polygon", "coordinates": [ [ [ 17.96703766, 48.85349508 ], [ 17.96699225, 48.85334448 ], [ 17.9668846, 48.85319876 ], [ 17.96682858, 48.85317205 ], [ 17.96677578, 48.85314787 ], [ 17.96660029, 48.85315948 ], [ 17.96640998, 48.85329671 ], [ 17.96637048, 48.85333554 ], [ 17.96622494, 48.85338234 ], [ 17.96626274, 48.85343424 ], [ 17.96640566, 48.8534207 ], [ 17.96642049, 48.85344235 ], [ 17.96646245, 48.85352801 ], [ 17.96646205, 48.8535901 ], [ 17.96644856, 48.85367897 ], [ 17.96654631, 48.85364649 ], [ 17.96654623, 48.85361398 ], [ 17.96656435, 48.85357839 ], [ 17.96655817, 48.85354344 ], [ 17.96655767, 48.85351804 ], [ 17.96650416, 48.85344091 ], [ 17.96650306, 48.85336265 ], [ 17.96664987, 48.8532203 ], [ 17.966753, 48.85319248 ], [ 17.966838, 48.85323942 ], [ 17.96689874, 48.85337396 ], [ 17.96691285, 48.85346311 ], [ 17.96692175, 48.85355032 ], [ 17.9670141, 48.85352131 ], [ 17.96705004, 48.85351062 ], [ 17.96703766, 48.85349508 ] ] ] } },
{ "type": "Feature", "properties": { "@featureType": "CadastralParcel", "areaValue": { "value": 90144, "@uom": "m2" }, "beginLifespanVersion": { "@nilReason": "http://inspire.ec.europa.eu/codelist/VoidReasonValue/Unpopulated", "@nil": "true" }, "endLifespanVersion": { "@nilReason": "http://inspire.ec.europa.eu/codelist/VoidReasonValue/Unpopulated", "@nil": "true" }, "inspireId": { "@dataType": "Identifier", "localId": "867942_541.C", "namespace": "SK.ESKN.CP", "versionId": "20260703T07:07:53" }, "label": "541", "nationalCadastralReference": "867942_541.C", "referencePoint": { "type": "Point", "coordinates": [ 17.96504651, 48.84843458 ] }, "validFrom": "2026-06-30T16:00:00Z", "validTo": { "@nilReason": "http://inspire.ec.europa.eu/codelist/VoidReasonValue/Unpopulated", "@nil": "true" }, "administrativeUnit": { "@href": "#auAdmUnitS.1700" } }, "geometry": { "type": "Polygon", "coordinates": [ [ [ 17.96793666, 48.85718899 ], [ 17.96852969, 48.85728759 ], [ 17.96844742, 48.85698076 ], [ 17.96843582, 48.85693637 ], [ 17.96838923, 48.85673315 ], [ 17.96828075, 48.85615297 ], [ 17.96810734, 48.85526934 ], [ 17.96789594, 48.85423591 ], [ 17.96783706, 48.85388008 ], [ 17.96774865, 48.85343473 ], [ 17.96787962, 48.8533914 ], [ 17.96789035, 48.85340305 ], [ 17.96790516, 48.85340484 ], [ 17.96791534, 48.85340038 ], [ 17.96790219, 48.85338245 ], [ 17.96801796, 48.85334426 ], [ 17.96806093, 48.85333011 ], [ 17.96808844, 48.85332109 ], [ 17.96810047, 48.85331711 ], [ 17.96821253, 48.85328006 ], [ 17.96824314, 48.85328432 ], [ 17.96824905, 48.85328512 ], [ 17.96825459, 48.8532766 ], [ 17.96820829, 48.85326897 ], [ 17.96813261, 48.85316172 ], [ 17.96813841, 48.8531413 ], [ 17.96812586, 48.85313694 ], [ 17.9681194, 48.85315227 ], [ 17.96811558, 48.85315818 ], [ 17.96805215, 48.8531788 ], [ 17.96800348, 48.8531946 ], [ 17.96799503, 48.85319735 ], [ 17.96781062, 48.85325728 ], [ 17.96779981, 48.85324219 ], [ 17.96778278, 48.85324064 ], [ 17.96777683, 48.85325021 ], [ 17.96778998, 48.85326815 ], [ 17.96771706, 48.85328712 ], [ 17.96749972, 48.85269966 ], [ 17.9672795, 48.85209515 ], [ 17.96685531, 48.85105413 ], [ 17.9665094, 48.85031799 ], [ 17.96639941, 48.85010829 ], [ 17.96592885, 48.84933315 ], [ 17.96552502, 48.84871998 ], [ 17.96476387, 48.84764313 ], [ 17.96462579, 48.8474769 ], [ 17.96453043, 48.84736063 ], [ 17.963786, 48.84653759 ], [ 17.96326349, 48.84600539 ], [ 17.96293557, 48.84570147 ], [ 17.96216438, 48.84499873 ], [ 17.96196247, 48.84482419 ], [ 17.96118454, 48.84420908 ], [ 17.9610271, 48.84408459 ], [ 17.96043633, 48.84367699 ], [ 17.95976406, 48.84319005 ], [ 17.95911968, 48.84279957 ], [ 17.95845678, 48.84239445 ], [ 17.95716622, 48.84162691 ], [ 17.95624692, 48.84107106 ], [ 17.95460734, 48.840027 ], [ 17.95370873, 48.83997189 ], [ 17.95472812, 48.84059186 ], [ 17.95569315, 48.84117726 ], [ 17.95631338, 48.84156804 ], [ 17.95769391, 48.84244099 ], [ 17.9583065, 48.84283582 ], [ 17.95862001, 48.84304147 ], [ 17.95953631, 48.84361878 ], [ 17.9602618, 48.84409263 ], [ 17.9607852, 48.84450372 ], [ 17.96143312, 48.84501891 ], [ 17.96166136, 48.84519601 ], [ 17.96216238, 48.84562183 ], [ 17.96260646, 48.84602594 ], [ 17.96308555, 48.84649424 ], [ 17.96374992, 48.84718304 ], [ 17.9639735, 48.84744356 ], [ 17.96425784, 48.84777514 ], [ 17.96455788, 48.84814918 ], [ 17.9650678, 48.84883611 ], [ 17.96548708, 48.84944939 ], [ 17.96592908, 48.85019304 ], [ 17.96619228, 48.85068589 ], [ 17.96647302, 48.85130294 ], [ 17.96650819, 48.8513881 ], [ 17.96689128, 48.85243959 ], [ 17.96703803, 48.85293256 ], [ 17.96718493, 48.85346464 ], [ 17.96706859, 48.85350107 ], [ 17.9670626, 48.85349078 ], [ 17.96704197, 48.85348956 ], [ 17.96703766, 48.85349508 ], [ 17.96705004, 48.85351062 ], [ 17.9670141, 48.85352131 ], [ 17.96692175, 48.85355032 ], [ 17.96678085, 48.8535982 ], [ 17.96674125, 48.85361165 ], [ 17.96670447, 48.85359845 ], [ 17.96669922, 48.85360681 ], [ 17.9667427, 48.85362312 ], [ 17.96681536, 48.85372441 ], [ 17.96680316, 48.85375168 ], [ 17.96682141, 48.85374825 ], [ 17.96682843, 48.85373494 ], [ 17.9668712, 48.85372132 ], [ 17.9669433, 48.85369833 ], [ 17.96698249, 48.85368585 ], [ 17.96706118, 48.85366072 ], [ 17.96713971, 48.85363568 ], [ 17.96715305, 48.85364821 ], [ 17.96716873, 48.85364968 ], [ 17.96717421, 48.85363954 ], [ 17.9671629, 48.85362821 ], [ 17.9672162, 48.85360862 ], [ 17.96724659, 48.853767 ], [ 17.96737773, 48.85437651 ], [ 17.96757076, 48.855361 ], [ 17.96784666, 48.85670012 ], [ 17.96788651, 48.85698375 ], [ 17.96789342, 48.85702444 ], [ 17.96793666, 48.85718899 ] ] ] } },
{ "type": "Feature", "properties": { "@featureType": "CadastralParcel", "areaValue": { "value": 26504, "@uom": "m2" }, "beginLifespanVersion": { "@nilReason": "http://inspire.ec.europa.eu/codelist/VoidReasonValue/Unpopulated", "@nil": "true" }, "endLifespanVersion": { "@nilReason": "http://inspire.ec.europa.eu/codelist/VoidReasonValue/Unpopulated", "@nil": "true" }, "inspireId": { "@dataType": "Identifier", "localId": "867942_469/8.C", "namespace": "SK.ESKN.CP", "versionId": "20260703T07:07:53" }, "label": "469/8", "nationalCadastralReference": "867942_469/8.C", "referencePoint": { "type": "Point", "coordinates": [ 17.96804967, 48.85151322 ] }, "validFrom": "2026-06-30T16:00:00Z", "validTo": { "@nilReason": "http://inspire.ec.europa.eu/codelist/VoidReasonValue/Unpopulated", "@nil": "true" }, "administrativeUnit": { "@href": "#auAdmUnitS.1700" } }, "geometry": { "type": "Polygon", "coordinates": [ [ [ 17.96742708, 48.85035805 ], [ 17.96727554, 48.85042779 ], [ 17.96712535, 48.85049878 ], [ 17.9670102, 48.85055452 ], [ 17.96705028, 48.85063581 ], [ 17.96726195, 48.85107819 ], [ 17.96754279, 48.85173172 ], [ 17.96781809, 48.85254836 ], [ 17.96806031, 48.85307282 ], [ 17.96806135, 48.85307424 ], [ 17.9680827, 48.8530672 ], [ 17.96821463, 48.85305797 ], [ 17.96891981, 48.85281135 ], [ 17.96878125, 48.852206 ], [ 17.96875058, 48.85202449 ], [ 17.96860764, 48.85129473 ], [ 17.96846678, 48.85057781 ], [ 17.96844628, 48.85049235 ], [ 17.96843926, 48.85047559 ], [ 17.96842288, 48.85043624 ], [ 17.96840402, 48.8503879 ], [ 17.96839641, 48.85036541 ], [ 17.96838841, 48.85033379 ], [ 17.96837065, 48.85028542 ], [ 17.96834393, 48.8502115 ], [ 17.96832325, 48.85014743 ], [ 17.96831359, 48.85010388 ], [ 17.96829901, 48.85004125 ], [ 17.96828529, 48.8499803 ], [ 17.96818137, 48.85002 ], [ 17.96773377, 48.85022204 ], [ 17.96757982, 48.85028947 ], [ 17.96742708, 48.85035805 ] ] ] } },
{ "type": "Feature", "properties": { "@featureType": "CadastralParcel", "areaValue": { "value": 231, "@uom": "m2" }, "beginLifespanVersion": { "@nilReason": "http://inspire.ec.europa.eu/codelist/VoidReasonValue/Unpopulated", "@nil": "true" }, "endLifespanVersion": { "@nilReason": "http://inspire.ec.europa.eu/codelist/VoidReasonValue/Unpopulated", "@nil": "true" }, "inspireId": { "@dataType": "Identifier", "localId": "867942_471/2.C", "namespace": "SK.ESKN.CP", "versionId": "20260703T07:07:53" }, "label": "471/2", "nationalCadastralReference": "867942_471/2.C", "referencePoint": { "type": "Point", "coordinates": [ 17.9664085, 48.85355905 ] }, "validFrom": "2026-06-30T16:00:00Z", "validTo": { "@nilReason": "http://inspire.ec.europa.eu/codelist/VoidReasonValue/Unpopulated", "@nil": "true" }, "administrativeUnit": { "@href": "#auAdmUnitS.1700" } }, "geometry": { "type": "Polygon", "coordinates": [ [ [ 17.96626274, 48.85343424 ], [ 17.96642647, 48.85365634 ], [ 17.96635793, 48.85367828 ], [ 17.96637605, 48.85370292 ], [ 17.96644856, 48.85367897 ], [ 17.96646205, 48.8535901 ], [ 17.96646245, 48.85352801 ], [ 17.96642049, 48.85344235 ], [ 17.96640566, 48.8534207 ], [ 17.96626274, 48.85343424 ] ] ] } },
{ "type": "Feature", "properties": { "@featureType": "CadastralParcel", "areaValue": { "value": 587, "@uom": "m2" }, "beginLifespanVersion": { "@nilReason": "http://inspire.ec.europa.eu/codelist/VoidReasonValue/Unpopulated", "@nil": "true" }, "endLifespanVersion": { "@nilReason": "http://inspire.ec.europa.eu/codelist/VoidReasonValue/Unpopulated", "@nil": "true" }, "inspireId": { "@dataType": "Identifier", "localId": "867942_471/8.C", "namespace": "SK.ESKN.CP", "versionId": "20260703T07:07:53" }, "label": "471/8", "nationalCadastralReference": "867942_471/8.C", "referencePoint": { "type": "Point", "coordinates": [ 17.96570805, 48.85390748 ] }, "validFrom": "2026-06-30T16:00:00Z", "validTo": { "@nilReason": "http://inspire.ec.europa.eu/codelist/VoidReasonValue/Unpopulated", "@nil": "true" }, "administrativeUnit": { "@href": "#auAdmUnitS.1700" } }, "geometry": { "type": "Polygon", "coordinates": [ [ [ 17.96500321, 48.85411122 ], [ 17.96491327, 48.85413857 ], [ 17.96478138, 48.85422473 ], [ 17.96479116, 48.85423226 ], [ 17.964869, 48.85421233 ], [ 17.96543102, 48.85402846 ], [ 17.96604977, 48.85381185 ], [ 17.96637605, 48.85370292 ], [ 17.96635793, 48.85367828 ], [ 17.96588105, 48.8538309 ], [ 17.96539794, 48.85398406 ], [ 17.96500321, 48.85411122 ] ] ] } },
{ "type": "Feature", "properties": { "@featureType": "CadastralParcel", "areaValue": { "value": 32190, "@uom": "m2" }, "beginLifespanVersion": { "@nilReason": "http://inspire.ec.europa.eu/codelist/VoidReasonValue/Unpopulated", "@nil": "true" }, "endLifespanVersion": { "@nilReason": "http://inspire.ec.europa.eu/codelist/VoidReasonValue/Unpopulated", "@nil": "true" }, "inspireId": { "@dataType": "Identifier", "localId": "867942_464.C", "namespace": "SK.ESKN.CP", "versionId": "20260703T07:07:53" }, "label": "464", "nationalCadastralReference": "867942_464.C", "referencePoint": { "type": "Point", "coordinates": [ 17.97042292, 48.850099 ] }, "validFrom": "2026-06-30T16:00:00Z", "validTo": { "@nilReason": "http://inspire.ec.europa.eu/codelist/VoidReasonValue/Unpopulated", "@nil": "true" }, "administrativeUnit": { "@href": "#auAdmUnitS.1700" } }, "geometry": { "type": "Polygon", "coordinates": [ [ [ 17.97214656, 48.85183105 ], [ 17.97189927, 48.85150919 ], [ 17.9715889, 48.85136697 ], [ 17.97126646, 48.85124011 ], [ 17.97105483, 48.85117563 ], [ 17.97092694, 48.85116732 ], [ 17.97033853, 48.85111063 ], [ 17.97034394, 48.8510649 ], [ 17.970375, 48.85106692 ], [ 17.97032411, 48.85082191 ], [ 17.97032681, 48.85079913 ], [ 17.97043905, 48.85044046 ], [ 17.97061523, 48.85001227 ], [ 17.97087728, 48.84947703 ], [ 17.97100093, 48.84910991 ], [ 17.97118141, 48.84867511 ], [ 17.97129133, 48.84827721 ], [ 17.97130457, 48.84787293 ], [ 17.97130316, 48.84776783 ], [ 17.97130071, 48.84773762 ], [ 17.97129971, 48.84758333 ], [ 17.97118369, 48.84752814 ], [ 17.97116501, 48.84754076 ], [ 17.97115243, 48.84756078 ], [ 17.9711435, 48.84764539 ], [ 17.97113365, 48.84767244 ], [ 17.97110919, 48.84767325 ], [ 17.97106366, 48.84764291 ], [ 17.97103531, 48.84764818 ], [ 17.97099937, 48.84769201 ], [ 17.9709752, 48.84772281 ], [ 17.97096972, 48.8477409 ], [ 17.97097792, 48.84776207 ], [ 17.97097258, 48.84778017 ], [ 17.97093018, 48.84785134 ], [ 17.97094201, 48.84787696 ], [ 17.97095234, 48.84790755 ], [ 17.97099425, 48.84796548 ], [ 17.97105565, 48.84803396 ], [ 17.97105693, 48.84813995 ], [ 17.97102048, 48.84818356 ], [ 17.9709742, 48.84822199 ], [ 17.97092269, 48.84842119 ], [ 17.97090465, 48.84851439 ], [ 17.97085632, 48.84889103 ], [ 17.97076604, 48.84897723 ], [ 17.97068709, 48.84911476 ], [ 17.97060341, 48.8492037 ], [ 17.97035592, 48.8497054 ], [ 17.97027342, 48.8500476 ], [ 17.97024938, 48.85022098 ], [ 17.97024805, 48.85028989 ], [ 17.97018962, 48.85048868 ], [ 17.97021218, 48.85073869 ], [ 17.9701704, 48.85088556 ], [ 17.97013543, 48.85094543 ], [ 17.97005877, 48.8510049 ], [ 17.97001348, 48.85094668 ], [ 17.96998731, 48.8508737 ], [ 17.96998971, 48.85085307 ], [ 17.9699833, 48.85076059 ], [ 17.97001848, 48.85061098 ], [ 17.97001918, 48.85054665 ], [ 17.97000417, 48.85052724 ], [ 17.96990707, 48.85046568 ], [ 17.96992321, 48.85038844 ], [ 17.96995456, 48.85035825 ], [ 17.96997421, 48.85028131 ], [ 17.97001409, 48.8501504 ], [ 17.97002906, 48.85002451 ], [ 17.97012013, 48.84984427 ], [ 17.9701363, 48.84973968 ], [ 17.97010629, 48.84972598 ], [ 17.9700648, 48.84972324 ], [ 17.96999828, 48.84978566 ], [ 17.96999394, 48.84983055 ], [ 17.9698176, 48.84998794 ], [ 17.96969003, 48.85032954 ], [ 17.96966826, 48.85039488 ], [ 17.96963851, 48.85052874 ], [ 17.96958679, 48.85078771 ], [ 17.96949239, 48.85093813 ], [ 17.96948136, 48.85097188 ], [ 17.96944989, 48.85123683 ], [ 17.96948274, 48.85125278 ], [ 17.96954178, 48.8512543 ], [ 17.9695545, 48.85126435 ], [ 17.96955532, 48.85128743 ], [ 17.96956624, 48.85137097 ], [ 17.96960039, 48.8514055 ], [ 17.96962263, 48.85142298 ], [ 17.96962666, 48.8514486 ], [ 17.96963267, 48.85148579 ], [ 17.96963145, 48.85152491 ], [ 17.96963507, 48.85158264 ], [ 17.96962745, 48.85164657 ], [ 17.96963635, 48.85168863 ], [ 17.96962451, 48.85172929 ], [ 17.96962102, 48.85175897 ], [ 17.96964138, 48.85182239 ], [ 17.96966832, 48.85221081 ], [ 17.96979244, 48.85258604 ], [ 17.9700243, 48.85251024 ], [ 17.97032261, 48.85241571 ], [ 17.97060481, 48.85232591 ], [ 17.97059739, 48.85231509 ], [ 17.9705988, 48.8523037 ], [ 17.97061779, 48.85230492 ], [ 17.97062651, 48.85231925 ], [ 17.97080903, 48.8522621 ], [ 17.97105166, 48.85218359 ], [ 17.97121572, 48.85212931 ], [ 17.97120874, 48.85212131 ], [ 17.97120778, 48.8521143 ], [ 17.97121726, 48.852108 ], [ 17.97123093, 48.85211007 ], [ 17.97124082, 48.85212086 ], [ 17.97162379, 48.85199641 ], [ 17.97161474, 48.85198549 ], [ 17.97162278, 48.85197568 ], [ 17.97163808, 48.85197893 ], [ 17.97164565, 48.85198859 ], [ 17.97202102, 48.85186468 ], [ 17.97201482, 48.85185501 ], [ 17.97201755, 48.85184597 ], [ 17.97203371, 48.85184692 ], [ 17.97204217, 48.85185908 ], [ 17.97214656, 48.85183105 ] ] ] } },
{ "type": "Feature", "properties": { "@featureType": "CadastralParcel", "areaValue": { "value": 4670, "@uom": "m2" }, "beginLifespanVersion": { "@nilReason": "http://inspire.ec.europa.eu/codelist/VoidReasonValue/Unpopulated", "@nil": "true" }, "endLifespanVersion": { "@nilReason": "http://inspire.ec.europa.eu/codelist/VoidReasonValue/Unpopulated", "@nil": "true" }, "inspireId": { "@dataType": "Identifier", "localId": "867942_513/19.C", "namespace": "SK.ESKN.CP", "versionId": "20260703T07:07:53" }, "label": "513/19", "nationalCadastralReference": "867942_513/19.C", "referencePoint": { "type": "Point", "coordinates": [ 17.96487685, 48.85431131 ] }, "validFrom": "2026-06-30T16:00:00Z", "validTo": { "@nilReason": "http://inspire.ec.europa.eu/codelist/VoidReasonValue/Unpopulated", "@nil": "true" }, "administrativeUnit": { "@href": "#auAdmUnitS.1700" } }, "geometry": { "type": "Polygon", "coordinates": [ [ [ 17.96479116, 48.85423226 ], [ 17.96474298, 48.85425541 ], [ 17.96463293, 48.8542988 ], [ 17.96456315, 48.85432382 ], [ 17.96458288, 48.85434567 ], [ 17.96459835, 48.85436266 ], [ 17.96448221, 48.85440958 ], [ 17.96437816, 48.85445315 ], [ 17.96426161, 48.85450401 ], [ 17.96413763, 48.85456022 ], [ 17.96395345, 48.85464851 ], [ 17.96384612, 48.85470299 ], [ 17.96378408, 48.85465027 ], [ 17.96376372, 48.85463299 ], [ 17.9636458, 48.85468495 ], [ 17.96355965, 48.85474773 ], [ 17.96350965, 48.85478422 ], [ 17.96358747, 48.85484365 ], [ 17.96344764, 48.85492573 ], [ 17.96337356, 48.85497126 ], [ 17.9632996, 48.85501689 ], [ 17.96330072, 48.85501768 ], [ 17.9637939, 48.8548049 ], [ 17.9642958, 48.85460447 ], [ 17.96438111, 48.8545689 ], [ 17.96499973, 48.85436132 ], [ 17.96554893, 48.85418518 ], [ 17.96617506, 48.85397668 ], [ 17.96644336, 48.85388959 ], [ 17.96647251, 48.85387452 ], [ 17.96649981, 48.85386594 ], [ 17.96666996, 48.8538123 ], [ 17.9667832, 48.85377659 ], [ 17.96679364, 48.85377332 ], [ 17.96680316, 48.85375168 ], [ 17.96681536, 48.85372441 ], [ 17.9667427, 48.85362312 ], [ 17.96669922, 48.85360681 ], [ 17.9666821, 48.85360092 ], [ 17.96665725, 48.85360955 ], [ 17.96659749, 48.85363038 ], [ 17.96654631, 48.85364649 ], [ 17.96644856, 48.85367897 ], [ 17.96637605, 48.85370292 ], [ 17.96604977, 48.85381185 ], [ 17.96543102, 48.85402846 ], [ 17.964869, 48.85421233 ], [ 17.96479116, 48.85423226 ] ] ] } },
{ "type": "Feature", "properties": { "@featureType": "CadastralParcel", "areaValue": { "value": 87774, "@uom": "m2" }, "beginLifespanVersion": { "@nilReason": "http://inspire.ec.europa.eu/codelist/VoidReasonValue/Unpopulated", "@nil": "true" }, "endLifespanVersion": { "@nilReason": "http://inspire.ec.europa.eu/codelist/VoidReasonValue/Unpopulated", "@nil": "true" }, "inspireId": { "@dataType": "Identifier", "localId": "867942_537/1.C", "namespace": "SK.ESKN.CP", "versionId": "20260703T07:07:53" }, "label": "537/1", "nationalCadastralReference": "867942_537/1.C", "referencePoint": { "type": "Point", "coordinates": [ 17.9705444, 48.84879211 ] }, "validFrom": "2026-06-30T16:00:00Z", "validTo": { "@nilReason": "http://inspire.ec.europa.eu/codelist/VoidReasonValue/Unpopulated", "@nil": "true" }, "administrativeUnit": { "@href": "#auAdmUnitS.1700" } }, "geometry": { "type": "Polygon", "coordinates": [ [ [ 17.97221807, 48.85181037 ], [ 17.97214656, 48.85183105 ], [ 17.97204217, 48.85185908 ], [ 17.97203371, 48.85184692 ], [ 17.97201755, 48.85184597 ], [ 17.97201482, 48.85185501 ], [ 17.97202102, 48.85186468 ], [ 17.97164565, 48.85198859 ], [ 17.97163808, 48.85197893 ], [ 17.97162278, 48.85197568 ], [ 17.97161474, 48.85198549 ], [ 17.97162379, 48.85199641 ], [ 17.97124082, 48.85212086 ], [ 17.97123093, 48.85211007 ], [ 17.97121726, 48.852108 ], [ 17.97120778, 48.8521143 ], [ 17.97120874, 48.85212131 ], [ 17.97121572, 48.85212931 ], [ 17.97105166, 48.85218359 ], [ 17.97080903, 48.8522621 ], [ 17.97062651, 48.85231925 ], [ 17.97061779, 48.85230492 ], [ 17.9705988, 48.8523037 ], [ 17.97059739, 48.85231509 ], [ 17.97060481, 48.85232591 ], [ 17.97032261, 48.85241571 ], [ 17.9700243, 48.85251024 ], [ 17.96979244, 48.85258604 ], [ 17.96966832, 48.85221081 ], [ 17.96964138, 48.85182239 ], [ 17.96962102, 48.85175897 ], [ 17.96962451, 48.85172929 ], [ 17.96963635, 48.85168863 ], [ 17.96962745, 48.85164657 ], [ 17.96963507, 48.85158264 ], [ 17.96963145, 48.85152491 ], [ 17.96963267, 48.85148579 ], [ 17.96962666, 48.8514486 ], [ 17.96962263, 48.85142298 ], [ 17.96960039, 48.8514055 ], [ 17.96956624, 48.85137097 ], [ 17.96955532, 48.85128743 ], [ 17.9695545, 48.85126435 ], [ 17.96954178, 48.8512543 ], [ 17.96948274, 48.85125278 ], [ 17.96944989, 48.85123683 ], [ 17.96948136, 48.85097188 ], [ 17.96949239, 48.85093813 ], [ 17.96958679, 48.85078771 ], [ 17.96963851, 48.85052874 ], [ 17.96966826, 48.85039488 ], [ 17.96969003, 48.85032954 ], [ 17.9698176, 48.84998794 ], [ 17.96999394, 48.84983055 ], [ 17.96999828, 48.84978566 ], [ 17.9700648, 48.84972324 ], [ 17.97010629, 48.84972598 ], [ 17.9701363, 48.84973968 ], [ 17.97012013, 48.84984427 ], [ 17.97002906, 48.85002451 ], [ 17.97001409, 48.8501504 ], [ 17.96997421, 48.85028131 ], [ 17.96995456, 48.85035825 ], [ 17.96992321, 48.85038844 ], [ 17.96990707, 48.85046568 ], [ 17.97000417, 48.85052724 ], [ 17.97001918, 48.85054665 ], [ 17.97001848, 48.85061098 ], [ 17.9699833, 48.85076059 ], [ 17.96998971, 48.85085307 ], [ 17.96998731, 48.8508737 ], [ 17.97001348, 48.85094668 ], [ 17.97005877, 48.8510049 ], [ 17.97013543, 48.85094543 ], [ 17.9701704, 48.85088556 ], [ 17.97021218, 48.85073869 ], [ 17.97018962, 48.85048868 ], [ 17.97024805, 48.85028989 ], [ 17.97024938, 48.85022098 ], [ 17.97027342, 48.8500476 ], [ 17.97035592, 48.8497054 ], [ 17.97060341, 48.8492037 ], [ 17.97068709, 48.84911476 ], [ 17.97076604, 48.84897723 ], [ 17.97085632, 48.84889103 ], [ 17.97090465, 48.84851439 ], [ 17.97092269, 48.84842119 ], [ 17.9709742, 48.84822199 ], [ 17.97102048, 48.84818356 ], [ 17.97105693, 48.84813995 ], [ 17.97105565, 48.84803396 ], [ 17.97099425, 48.84796548 ], [ 17.97095234, 48.84790755 ], [ 17.97094201, 48.84787696 ], [ 17.97093018, 48.84785134 ], [ 17.97097258, 48.84778017 ], [ 17.97097792, 48.84776207 ], [ 17.97096972, 48.8477409 ], [ 17.9709752, 48.84772281 ], [ 17.97099937, 48.84769201 ], [ 17.97103531, 48.84764818 ], [ 17.97106366, 48.84764291 ], [ 17.97110919, 48.84767325 ], [ 17.97113365, 48.84767244 ], [ 17.9711435, 48.84764539 ], [ 17.97115243, 48.84756078 ], [ 17.97116501, 48.84754076 ], [ 17.97118369, 48.84752814 ], [ 17.97129971, 48.84758333 ], [ 17.97128311, 48.84741205 ], [ 17.97121764, 48.84697999 ], [ 17.97120095, 48.84690766 ], [ 17.97109095, 48.84659955 ], [ 17.97086195, 48.84613466 ], [ 17.97067868, 48.84582915 ], [ 17.97050567, 48.84559088 ], [ 17.97033247, 48.84538718 ], [ 17.97015938, 48.84521573 ], [ 17.96972945, 48.84477575 ], [ 17.96957377, 48.84463521 ], [ 17.96930266, 48.84443726 ], [ 17.96922322, 48.84436573 ], [ 17.96908228, 48.84428367 ], [ 17.96892957, 48.84421465 ], [ 17.96881722, 48.84419182 ], [ 17.96865661, 48.84413162 ], [ 17.96857085, 48.84408734 ], [ 17.96836892, 48.84399011 ], [ 17.96827478, 48.843927 ], [ 17.96819407, 48.84383471 ], [ 17.96803767, 48.84373558 ], [ 17.96770913, 48.84355254 ], [ 17.9675157, 48.84347423 ], [ 17.96721059, 48.84336617 ], [ 17.96700027, 48.84328225 ], [ 17.96680926, 48.8432133 ], [ 17.96671882, 48.8431803 ], [ 17.96663433, 48.84315686 ], [ 17.96658378, 48.8431423 ], [ 17.96632096, 48.84309435 ], [ 17.96608842, 48.84302293 ], [ 17.96600023, 48.84300153 ], [ 17.96572582, 48.84293222 ], [ 17.96546075, 48.84287268 ], [ 17.96493366, 48.84275829 ], [ 17.96381261, 48.84243811 ], [ 17.9630835, 48.84219423 ], [ 17.96289036, 48.84214591 ], [ 17.96281504, 48.84213448 ], [ 17.96275677, 48.84212641 ], [ 17.96269498, 48.84211804 ], [ 17.9625158, 48.84210279 ], [ 17.96232538, 48.84209372 ], [ 17.96184634, 48.84208348 ], [ 17.96158448, 48.84205862 ], [ 17.96142498, 48.84202141 ], [ 17.96117221, 48.84191193 ], [ 17.96078672, 48.84170932 ], [ 17.96045435, 48.84151457 ], [ 17.96021707, 48.84137377 ], [ 17.9600329, 48.84124074 ], [ 17.95984279, 48.84109814 ], [ 17.95954433, 48.84082937 ], [ 17.95928955, 48.84064148 ], [ 17.9591038, 48.84049002 ], [ 17.95890489, 48.8402957 ], [ 17.95866568, 48.84028833 ], [ 17.95829721, 48.84026587 ], [ 17.95833643, 48.84031922 ], [ 17.95837693, 48.84035224 ], [ 17.95845222, 48.84041099 ], [ 17.95861628, 48.84059204 ], [ 17.95885103, 48.84080637 ], [ 17.95889975, 48.84087139 ], [ 17.95891873, 48.84088869 ], [ 17.95898997, 48.84093898 ], [ 17.95910915, 48.84102896 ], [ 17.95912747, 48.84105307 ], [ 17.95918795, 48.84110507 ], [ 17.9592362, 48.84114243 ], [ 17.95954664, 48.84136361 ], [ 17.95998387, 48.84163603 ], [ 17.96025173, 48.84179932 ], [ 17.96044526, 48.84190988 ], [ 17.96053453, 48.84195438 ], [ 17.96060741, 48.84198869 ], [ 17.96073085, 48.84203748 ], [ 17.96090782, 48.8421401 ], [ 17.96110651, 48.8422349 ], [ 17.96129811, 48.84233153 ], [ 17.96161109, 48.84246301 ], [ 17.96166402, 48.84248918 ], [ 17.96178602, 48.84251946 ], [ 17.96194681, 48.84251304 ], [ 17.96212757, 48.84254681 ], [ 17.9623516, 48.84259931 ], [ 17.96320426, 48.84279303 ], [ 17.96364278, 48.84292284 ], [ 17.96458511, 48.84312413 ], [ 17.96497122, 48.84319096 ], [ 17.96543312, 48.84329687 ], [ 17.96552405, 48.8433253 ], [ 17.96556913, 48.84332572 ], [ 17.96557206, 48.84329826 ], [ 17.96572291, 48.84328655 ], [ 17.96578167, 48.84329004 ], [ 17.96585682, 48.84330372 ], [ 17.96588098, 48.84330515 ], [ 17.96588244, 48.84329142 ], [ 17.9658768, 48.84327962 ], [ 17.96587826, 48.84326589 ], [ 17.96593302, 48.84324151 ], [ 17.96602928, 48.84325193 ], [ 17.96637193, 48.8433345 ], [ 17.96668797, 48.8434386 ], [ 17.96680304, 48.8435007 ], [ 17.96728884, 48.84370925 ], [ 17.96766261, 48.84389272 ], [ 17.96778685, 48.84393468 ], [ 17.9678229, 48.84395524 ], [ 17.96784524, 48.84397499 ], [ 17.9678425, 48.84400011 ], [ 17.96782331, 48.84401739 ], [ 17.96777742, 48.84402387 ], [ 17.96777194, 48.84404197 ], [ 17.96778093, 48.84405632 ], [ 17.96797983, 48.84414876 ], [ 17.96805339, 48.84417616 ], [ 17.96813078, 48.84420152 ], [ 17.96831506, 48.84426773 ], [ 17.96845813, 48.84429699 ], [ 17.96858607, 48.84433692 ], [ 17.96870148, 48.84436445 ], [ 17.96882828, 48.84441577 ], [ 17.9689726, 48.84449811 ], [ 17.96905805, 48.84454463 ], [ 17.96937082, 48.84474515 ], [ 17.96940268, 48.84477233 ], [ 17.96943806, 48.8447998 ], [ 17.96944626, 48.84482096 ], [ 17.96943739, 48.84483886 ], [ 17.96940727, 48.8448601 ], [ 17.96934461, 48.84489321 ], [ 17.96933204, 48.84491315 ], [ 17.96933283, 48.84493848 ], [ 17.96934696, 48.84496929 ], [ 17.96936512, 48.84499565 ], [ 17.9694301, 48.84507094 ], [ 17.96948224, 48.84510392 ], [ 17.96953031, 48.8451437 ], [ 17.96957777, 48.84518797 ], [ 17.96966401, 48.84525982 ], [ 17.96994501, 48.84552978 ], [ 17.9700658, 48.84563826 ], [ 17.97018013, 48.84580623 ], [ 17.97023879, 48.84590877 ], [ 17.97026386, 48.84596777 ], [ 17.97027866, 48.84599168 ], [ 17.97029827, 48.8460044 ], [ 17.97036862, 48.84602925 ], [ 17.97038792, 48.84604421 ], [ 17.97041699, 48.84609894 ], [ 17.97080642, 48.8466585 ], [ 17.97080125, 48.84670651 ], [ 17.97081452, 48.84677872 ], [ 17.97080809, 48.84680588 ], [ 17.97081707, 48.84682022 ], [ 17.97083734, 48.84682612 ], [ 17.97085846, 48.84682277 ], [ 17.97089452, 48.8468111 ], [ 17.97092221, 48.84681274 ], [ 17.9709383, 48.84682516 ], [ 17.97095856, 48.84686321 ], [ 17.97096159, 48.84690023 ], [ 17.97097555, 48.84693329 ], [ 17.97101485, 48.84708759 ], [ 17.97101581, 48.84711067 ], [ 17.97100373, 48.84712603 ], [ 17.97097344, 48.84714951 ], [ 17.97096474, 48.84716516 ], [ 17.97093553, 48.84724397 ], [ 17.97091653, 48.84725891 ], [ 17.97088994, 48.84728036 ], [ 17.9708875, 48.84730324 ], [ 17.97092112, 48.84734668 ], [ 17.97092287, 48.84736295 ], [ 17.97083706, 48.84754883 ], [ 17.97082722, 48.84757587 ], [ 17.9707787, 48.84763972 ], [ 17.97076565, 48.84766423 ], [ 17.97076303, 48.84768945 ], [ 17.9707293, 48.84780943 ], [ 17.97071929, 48.84783873 ], [ 17.97066657, 48.8479695 ], [ 17.97066137, 48.84804279 ], [ 17.97047636, 48.84813438 ], [ 17.97046387, 48.84818185 ], [ 17.97055914, 48.84819961 ], [ 17.97047067, 48.84841702 ], [ 17.97039671, 48.84845372 ], [ 17.97035963, 48.8485019 ], [ 17.97029403, 48.84852753 ], [ 17.97028419, 48.84860975 ], [ 17.9702568, 48.84869318 ], [ 17.97017373, 48.84891516 ], [ 17.97008583, 48.84908728 ], [ 17.97005764, 48.84914249 ], [ 17.97002629, 48.84920285 ], [ 17.97004764, 48.8491968 ], [ 17.97005212, 48.84919806 ], [ 17.97006014, 48.84921045 ], [ 17.97005823, 48.84921341 ], [ 17.9700369, 48.84921937 ], [ 17.97003254, 48.84921821 ], [ 17.97002463, 48.849206 ], [ 17.9699122, 48.84942253 ], [ 17.96977291, 48.84969047 ], [ 17.96969174, 48.84984629 ], [ 17.96953395, 48.85029517 ], [ 17.96941383, 48.85063929 ], [ 17.96932033, 48.85097984 ], [ 17.9692594, 48.85134643 ], [ 17.96925546, 48.85173058 ], [ 17.96928491, 48.8520685 ], [ 17.96936736, 48.85234085 ], [ 17.96939421, 48.85255436 ], [ 17.96943916, 48.8527034 ], [ 17.96934315, 48.85275125 ], [ 17.96932489, 48.85275468 ], [ 17.96924529, 48.85278155 ], [ 17.96922937, 48.85278693 ], [ 17.96919121, 48.85279983 ], [ 17.96915532, 48.85279012 ], [ 17.96914437, 48.85279814 ], [ 17.96918837, 48.85281465 ], [ 17.96921344, 48.85294183 ], [ 17.9692008, 48.85297232 ], [ 17.96921277, 48.85297484 ], [ 17.96922002, 48.85296588 ], [ 17.96922508, 48.85294884 ], [ 17.96929362, 48.8529298 ], [ 17.96933093, 48.85291811 ], [ 17.96936311, 48.85290792 ], [ 17.96938232, 48.85290147 ], [ 17.96950404, 48.85286175 ], [ 17.96959668, 48.85306138 ], [ 17.96974332, 48.85333664 ], [ 17.96991969, 48.853698 ], [ 17.97018696, 48.85405599 ], [ 17.97016179, 48.85400375 ], [ 17.97014724, 48.85394988 ], [ 17.97013896, 48.85390325 ], [ 17.97016209, 48.85388413 ], [ 17.97026452, 48.85395983 ], [ 17.97032154, 48.85400727 ], [ 17.97042926, 48.85406721 ], [ 17.97048278, 48.85414434 ], [ 17.97060813, 48.85426068 ], [ 17.97062348, 48.85430773 ], [ 17.9706372, 48.85433852 ], [ 17.97070024, 48.85442317 ], [ 17.97091258, 48.8546281 ], [ 17.97095144, 48.85468125 ], [ 17.97099124, 48.85472758 ], [ 17.9710167, 48.8547476 ], [ 17.97152187, 48.8550659 ], [ 17.9717121, 48.85522328 ], [ 17.97200912, 48.85544751 ], [ 17.97212487, 48.8554988 ], [ 17.97223783, 48.85551535 ], [ 17.97237272, 48.8555517 ], [ 17.97242282, 48.85559874 ], [ 17.97246664, 48.85564071 ], [ 17.97253428, 48.85568653 ], [ 17.97258519, 48.85572666 ], [ 17.97267085, 48.85576678 ], [ 17.97283133, 48.85582326 ], [ 17.97293163, 48.85585738 ], [ 17.97301422, 48.85589497 ], [ 17.97323167, 48.85605649 ], [ 17.97340525, 48.85614833 ], [ 17.97348303, 48.8561971 ], [ 17.97358868, 48.85627533 ], [ 17.97382805, 48.85644177 ], [ 17.97386099, 48.85648318 ], [ 17.97400114, 48.85666071 ], [ 17.9742571, 48.85696348 ], [ 17.97433217, 48.85708135 ], [ 17.97458108, 48.8574479 ], [ 17.97499151, 48.85738827 ], [ 17.97483431, 48.8571561 ], [ 17.97479735, 48.85711201 ], [ 17.97459927, 48.85684545 ], [ 17.97456818, 48.85679042 ], [ 17.9742583, 48.85647461 ], [ 17.97401283, 48.85625056 ], [ 17.97396929, 48.8561855 ], [ 17.97376793, 48.85604949 ], [ 17.97364301, 48.85594194 ], [ 17.97348683, 48.85584292 ], [ 17.97285406, 48.85542659 ], [ 17.97273669, 48.85535903 ], [ 17.97237862, 48.85509182 ], [ 17.97202745, 48.85479504 ], [ 17.97188767, 48.85471225 ], [ 17.97159463, 48.85456429 ], [ 17.9712095, 48.85440834 ], [ 17.97083102, 48.85420158 ], [ 17.97074152, 48.85416349 ], [ 17.970642, 48.85409257 ], [ 17.97058879, 48.85401312 ], [ 17.97038436, 48.85378129 ], [ 17.970206, 48.8535661 ], [ 17.97016122, 48.85351116 ], [ 17.97013443, 48.85344266 ], [ 17.97012825, 48.85340771 ], [ 17.97005719, 48.8533318 ], [ 17.97005699, 48.85330415 ], [ 17.97004808, 48.85326209 ], [ 17.96989616, 48.85301749 ], [ 17.9698902, 48.85300802 ], [ 17.96972385, 48.85278902 ], [ 17.96983711, 48.85275312 ], [ 17.96984833, 48.85276517 ], [ 17.96986195, 48.85276164 ], [ 17.96987218, 48.85275484 ], [ 17.96986318, 48.85274456 ], [ 17.97070832, 48.85246894 ], [ 17.97072087, 48.85248125 ], [ 17.97073165, 48.85248243 ], [ 17.97074282, 48.85247478 ], [ 17.97072972, 48.85246245 ], [ 17.97082563, 48.85243139 ], [ 17.9713235, 48.85227015 ], [ 17.97133225, 48.85228223 ], [ 17.97134836, 48.85228246 ], [ 17.97135724, 48.85227757 ], [ 17.971347, 48.85226035 ], [ 17.97137349, 48.85225172 ], [ 17.97173018, 48.85213537 ], [ 17.97173755, 48.85214755 ], [ 17.97175213, 48.85214697 ], [ 17.97175998, 48.85214364 ], [ 17.97175346, 48.85212519 ], [ 17.97212665, 48.85200323 ], [ 17.97213716, 48.8520165 ], [ 17.97214898, 48.8520181 ], [ 17.97215454, 48.8520094 ], [ 17.97214606, 48.85199536 ], [ 17.97219798, 48.85197785 ], [ 17.97228003, 48.85195202 ], [ 17.9724857, 48.85188161 ], [ 17.97258574, 48.85184736 ], [ 17.97261597, 48.85185439 ], [ 17.97261988, 48.8518418 ], [ 17.97258253, 48.85183272 ], [ 17.9725008, 48.85172765 ], [ 17.97250696, 48.85170255 ], [ 17.97248801, 48.85170106 ], [ 17.97248406, 48.85172196 ], [ 17.97238903, 48.85175361 ], [ 17.97221807, 48.85181037 ] ], [ [ 17.97007855, 48.84934636 ], [ 17.97007053, 48.84933396 ], [ 17.9700723, 48.849331 ], [ 17.97009365, 48.84932495 ], [ 17.97009814, 48.84932612 ], [ 17.97010617, 48.84933852 ], [ 17.97010439, 48.84934148 ], [ 17.97008305, 48.84934753 ], [ 17.97007855, 48.84934636 ] ], [ [ 17.97007393, 48.84928893 ], [ 17.97007216, 48.84929189 ], [ 17.97005081, 48.84929794 ], [ 17.97004632, 48.84929677 ], [ 17.9700383, 48.84928437 ], [ 17.97004007, 48.84928141 ], [ 17.97006142, 48.84927536 ], [ 17.97006577, 48.84927652 ], [ 17.97007393, 48.84928893 ] ] ] } },
{ "type": "Feature", "properties": { "@featureType": "CadastralParcel", "areaValue": { "value": 39928, "@uom": "m2" }, "beginLifespanVersion": { "@nilReason": "http://inspire.ec.europa.eu/codelist/VoidReasonValue/Unpopulated", "@nil": "true" }, "endLifespanVersion": { "@nilReason": "http://inspire.ec.europa.eu/codelist/VoidReasonValue/Unpopulated", "@nil": "true" }, "inspireId": { "@dataType": "Identifier", "localId": "867942_542/2.C", "namespace": "SK.ESKN.CP", "versionId": "20260703T07:07:53" }, "label": "542/2", "nationalCadastralReference": "867942_542/2.C", "referencePoint": { "type": "Point", "coordinates": [ 17.96309598, 48.84667928 ] }, "validFrom": "2026-06-30T16:00:00Z", "validTo": { "@nilReason": "http://inspire.ec.europa.eu/codelist/VoidReasonValue/Unpopulated", "@nil": "true" }, "administrativeUnit": { "@href": "#auAdmUnitS.1700" } }, "geometry": { "type": "Polygon", "coordinates": [ [ [ 17.95370873, 48.83997189 ], [ 17.95339789, 48.83995321 ], [ 17.95334415, 48.83995001 ], [ 17.95324279, 48.83994397 ], [ 17.95352917, 48.84011769 ], [ 17.95401567, 48.84041871 ], [ 17.95455253, 48.84074666 ], [ 17.95470504, 48.84083989 ], [ 17.95505076, 48.84105099 ], [ 17.95535539, 48.84123139 ], [ 17.95550006, 48.84132298 ], [ 17.95597258, 48.84163535 ], [ 17.95625679, 48.84181606 ], [ 17.95653147, 48.8419915 ], [ 17.95712345, 48.84234782 ], [ 17.95772838, 48.84272251 ], [ 17.95801513, 48.84289876 ], [ 17.95827372, 48.84305284 ], [ 17.95855851, 48.84324043 ], [ 17.9587198, 48.84334664 ], [ 17.95938527, 48.84373404 ], [ 17.95950652, 48.84380789 ], [ 17.95953766, 48.84383133 ], [ 17.95981305, 48.84404979 ], [ 17.95996065, 48.84414805 ], [ 17.96010229, 48.844253 ], [ 17.96040466, 48.84448326 ], [ 17.96077563, 48.84476528 ], [ 17.96133489, 48.84519033 ], [ 17.96203519, 48.84580299 ], [ 17.96228183, 48.84603075 ], [ 17.96232889, 48.84607291 ], [ 17.9623378, 48.84608175 ], [ 17.96275252, 48.84649648 ], [ 17.9628271, 48.84656855 ], [ 17.96302877, 48.84679002 ], [ 17.96360748, 48.84742578 ], [ 17.964169, 48.84808237 ], [ 17.96418783, 48.84809974 ], [ 17.9647321, 48.84885779 ], [ 17.96501148, 48.84927196 ], [ 17.96528632, 48.84967936 ], [ 17.96533052, 48.84976055 ], [ 17.96573512, 48.8505176 ], [ 17.96579668, 48.85064307 ], [ 17.96584562, 48.85074268 ], [ 17.96609356, 48.85124808 ], [ 17.96612422, 48.85131419 ], [ 17.96613585, 48.85133926 ], [ 17.96617407, 48.8514302 ], [ 17.96620436, 48.85150207 ], [ 17.96637135, 48.85189881 ], [ 17.96641994, 48.85201303 ], [ 17.96642581, 48.8520272 ], [ 17.9664658, 48.8521242 ], [ 17.96661093, 48.8525759 ], [ 17.96677578, 48.85314787 ], [ 17.96682858, 48.85317205 ], [ 17.9668846, 48.85319876 ], [ 17.96699225, 48.85334448 ], [ 17.96703766, 48.85349508 ], [ 17.96704197, 48.85348956 ], [ 17.9670626, 48.85349078 ], [ 17.96706859, 48.85350107 ], [ 17.96718493, 48.85346464 ], [ 17.96703803, 48.85293256 ], [ 17.96689128, 48.85243959 ], [ 17.96650819, 48.8513881 ], [ 17.96647302, 48.85130294 ], [ 17.96619228, 48.85068589 ], [ 17.96592908, 48.85019304 ], [ 17.96548708, 48.84944939 ], [ 17.9650678, 48.84883611 ], [ 17.96455788, 48.84814918 ], [ 17.96425784, 48.84777514 ], [ 17.9639735, 48.84744356 ], [ 17.96374992, 48.84718304 ], [ 17.96308555, 48.84649424 ], [ 17.96260646, 48.84602594 ], [ 17.96216238, 48.84562183 ], [ 17.96166136, 48.84519601 ], [ 17.96143312, 48.84501891 ], [ 17.9607852, 48.84450372 ], [ 17.9602618, 48.84409263 ], [ 17.95953631, 48.84361878 ], [ 17.95862001, 48.84304147 ], [ 17.9583065, 48.84283582 ], [ 17.95769391, 48.84244099 ], [ 17.95631338, 48.84156804 ], [ 17.95569315, 48.84117726 ], [ 17.95472812, 48.84059186 ], [ 17.95370873, 48.83997189 ] ], [ [ 17.96594976, 48.85079374 ], [ 17.96595465, 48.85079394 ], [ 17.96596789, 48.85080421 ], [ 17.96596745, 48.85080744 ], [ 17.96594982, 48.85081732 ], [ 17.96594494, 48.85081702 ], [ 17.96593417, 48.85080871 ], [ 17.9659317, 48.85080676 ], [ 17.96593205, 48.85080416 ], [ 17.96593213, 48.85080362 ], [ 17.96594976, 48.85079374 ] ], [ [ 17.96601528, 48.85096839 ], [ 17.96600687, 48.85096184 ], [ 17.96600204, 48.85095812 ], [ 17.96600233, 48.85095497 ], [ 17.96600337, 48.8509544 ], [ 17.96601997, 48.85094501 ], [ 17.96602473, 48.8509452 ], [ 17.96603811, 48.85095547 ], [ 17.96603768, 48.85095861 ], [ 17.96602018, 48.85096859 ], [ 17.96601528, 48.85096839 ] ], [ [ 17.96607343, 48.85100949 ], [ 17.96606867, 48.8510093 ], [ 17.96605529, 48.85099902 ], [ 17.96605572, 48.85099589 ], [ 17.9660673, 48.85098926 ], [ 17.96607323, 48.85098591 ], [ 17.96607799, 48.85098611 ], [ 17.96609136, 48.85099638 ], [ 17.96609107, 48.85099952 ], [ 17.96607654, 48.85100778 ], [ 17.96607652, 48.85100787 ], [ 17.96607343, 48.85100949 ] ], [ [ 17.9660076, 48.8508351 ], [ 17.96602084, 48.85084537 ], [ 17.96602041, 48.85084851 ], [ 17.9660025, 48.85085846 ], [ 17.96599788, 48.85085818 ], [ 17.96598464, 48.85084792 ], [ 17.96598508, 48.85084469 ], [ 17.96599338, 48.85084004 ], [ 17.96600271, 48.85083481 ], [ 17.9660076, 48.8508351 ] ] ] } },
{ "type": "Feature", "properties": { "@featureType": "CadastralParcel", "areaValue": { "value": 41950, "@uom": "m2" }, "beginLifespanVersion": { "@nilReason": "http://inspire.ec.europa.eu/codelist/VoidReasonValue/Unpopulated", "@nil": "true" }, "endLifespanVersion": { "@nilReason": "http://inspire.ec.europa.eu/codelist/VoidReasonValue/Unpopulated", "@nil": "true" }, "inspireId": { "@dataType": "Identifier", "localId": "867942_540/2.C", "namespace": "SK.ESKN.CP", "versionId": "20260703T07:07:53" }, "label": "540/2", "nationalCadastralReference": "867942_540/2.C", "referencePoint": { "type": "Point", "coordinates": [ 17.96405839, 48.84662463 ] }, "validFrom": "2026-06-30T16:00:00Z", "validTo": { "@nilReason": "http://inspire.ec.europa.eu/codelist/VoidReasonValue/Unpopulated", "@nil": "true" }, "administrativeUnit": { "@href": "#auAdmUnitS.1700" } }, "geometry": { "type": "Polygon", "coordinates": [ [ [ 17.96799301, 48.85314594 ], [ 17.96800103, 48.85312926 ], [ 17.968013, 48.85311372 ], [ 17.96802017, 48.85310728 ], [ 17.96802874, 48.85309966 ], [ 17.96804763, 48.85308751 ], [ 17.96806123, 48.85308516 ], [ 17.96805462, 48.85307646 ], [ 17.96806135, 48.85307424 ], [ 17.96806031, 48.85307282 ], [ 17.96781809, 48.85254836 ], [ 17.96754279, 48.85173172 ], [ 17.96726195, 48.85107819 ], [ 17.96705028, 48.85063581 ], [ 17.9670102, 48.85055452 ], [ 17.96697333, 48.85047973 ], [ 17.96685968, 48.85026873 ], [ 17.96657639, 48.8497607 ], [ 17.96627291, 48.84923918 ], [ 17.9660482, 48.84890456 ], [ 17.9654006, 48.84799925 ], [ 17.96518999, 48.84772082 ], [ 17.96500678, 48.84750631 ], [ 17.96484036, 48.84730112 ], [ 17.96472264, 48.84716518 ], [ 17.96465703, 48.84709455 ], [ 17.96456134, 48.8469806 ], [ 17.96451297, 48.846911 ], [ 17.9643359, 48.84671167 ], [ 17.96375935, 48.84611324 ], [ 17.96300247, 48.84540973 ], [ 17.96232774, 48.84481918 ], [ 17.96165996, 48.84430317 ], [ 17.96159151, 48.84425034 ], [ 17.96130591, 48.84402243 ], [ 17.96078031, 48.84363957 ], [ 17.95992436, 48.84307805 ], [ 17.95892142, 48.84244709 ], [ 17.95840346, 48.84213573 ], [ 17.95686095, 48.84117667 ], [ 17.95545606, 48.84030416 ], [ 17.95505328, 48.84005318 ], [ 17.95500673, 48.84005041 ], [ 17.95494688, 48.84004694 ], [ 17.95460734, 48.840027 ], [ 17.95624692, 48.84107106 ], [ 17.95716622, 48.84162691 ], [ 17.95845678, 48.84239445 ], [ 17.95911968, 48.84279957 ], [ 17.95976406, 48.84319005 ], [ 17.96043633, 48.84367699 ], [ 17.9610271, 48.84408459 ], [ 17.96118454, 48.84420908 ], [ 17.96196247, 48.84482419 ], [ 17.96216438, 48.84499873 ], [ 17.96293557, 48.84570147 ], [ 17.96326349, 48.84600539 ], [ 17.963786, 48.84653759 ], [ 17.96453043, 48.84736063 ], [ 17.96462579, 48.8474769 ], [ 17.96476387, 48.84764313 ], [ 17.96552502, 48.84871998 ], [ 17.96592885, 48.84933315 ], [ 17.96639941, 48.85010829 ], [ 17.9665094, 48.85031799 ], [ 17.96685531, 48.85105413 ], [ 17.9672795, 48.85209515 ], [ 17.96749972, 48.85269966 ], [ 17.96771706, 48.85328712 ], [ 17.96778998, 48.85326815 ], [ 17.96777683, 48.85325021 ], [ 17.96778278, 48.85324064 ], [ 17.96779981, 48.85324219 ], [ 17.96781062, 48.85325728 ], [ 17.96799503, 48.85319735 ], [ 17.96799018, 48.85318072 ], [ 17.96798975, 48.85316182 ], [ 17.96799301, 48.85314594 ] ] ] } },
{ "type": "Feature", "properties": { "@featureType": "CadastralParcel", "areaValue": { "value": 1633, "@uom": "m2" }, "beginLifespanVersion": { "@nilReason": "http://inspire.ec.europa.eu/codelist/VoidReasonValue/Unpopulated", "@nil": "true" }, "endLifespanVersion": { "@nilReason": "http://inspire.ec.europa.eu/codelist/VoidReasonValue/Unpopulated", "@nil": "true" }, "inspireId": { "@dataType": "Identifier", "localId": "867942_542.E", "namespace": "SK.ESKN.CP", "versionId": "20260703T07:07:53" }, "label": "542", "nationalCadastralReference": "867942_542.E", "referencePoint": { "type": "Point", "coordinates": [ 17.9743368, 48.85094351 ] }, "validFrom": "2026-06-30T16:00:00Z", "validTo": { "@nilReason": "http://inspire.ec.europa.eu/codelist/VoidReasonValue/Unpopulated", "@nil": "true" }, "administrativeUnit": { "@href": "#auAdmUnitS.1700" } }, "geometry": { "type": "Polygon", "coordinates": [ [ [ 17.97525579, 48.85068694 ], [ 17.97430509, 48.85089429 ], [ 17.97354245, 48.8510559 ], [ 17.9736016, 48.85115197 ], [ 17.97435407, 48.85099273 ], [ 17.97503015, 48.85085785 ], [ 17.97552444, 48.85070153 ], [ 17.9754208, 48.85070504 ], [ 17.97525579, 48.85068694 ] ] ] } },
{ "type": "Feature", "properties": { "@featureType": "CadastralParcel", "areaValue": { "value": 515, "@uom": "m2" }, "beginLifespanVersion": { "@nilReason": "http://inspire.ec.europa.eu/codelist/VoidReasonValue/Unpopulated", "@nil": "true" }, "endLifespanVersion": { "@nilReason": "http://inspire.ec.europa.eu/codelist/VoidReasonValue/Unpopulated", "@nil": "true" }, "inspireId": { "@dataType": "Identifier", "localId": "867942_10980.E", "namespace": "SK.ESKN.CP", "versionId": "20260703T07:07:53" }, "label": "10980", "nationalCadastralReference": "867942_10980.E", "referencePoint": { "type": "Point", "coordinates": [ 17.97258247, 48.85148443 ] }, "validFrom": "2026-06-30T16:00:00Z", "validTo": { "@nilReason": "http://inspire.ec.europa.eu/codelist/VoidReasonValue/Unpopulated", "@nil": "true" }, "administrativeUnit": { "@href": "#auAdmUnitS.1700" } }, "geometry": { "type": "MultiPolygon", "coordinates": [ [ [ [ 17.97229213, 48.85131914 ], [ 17.97227233, 48.85144131 ], [ 17.97269119, 48.85158057 ], [ 17.97270455, 48.85158497 ], [ 17.97288573, 48.85152755 ], [ 17.97229213, 48.85131914 ] ] ], [ [ [ 17.97303601, 48.8517772 ], [ 17.97308382, 48.85175069 ], [ 17.97303029, 48.85176801 ], [ 17.97303601, 48.8517772 ] ] ] ] } },
{ "type": "Feature", "properties": { "@featureType": "CadastralParcel", "areaValue": { "value": 1561, "@uom": "m2" }, "beginLifespanVersion": { "@nilReason": "http://inspire.ec.europa.eu/codelist/VoidReasonValue/Unpopulated", "@nil": "true" }, "endLifespanVersion": { "@nilReason": "http://inspire.ec.europa.eu/codelist/VoidReasonValue/Unpopulated", "@nil": "true" }, "inspireId": { "@dataType": "Identifier", "localId": "867942_541.E", "namespace": "SK.ESKN.CP", "versionId": "20260703T07:07:53" }, "label": "541", "nationalCadastralReference": "867942_541.E", "referencePoint": { "type": "Point", "coordinates": [ 17.97428137, 48.85104279 ] }, "validFrom": "2026-06-30T16:00:00Z", "validTo": { "@nilReason": "http://inspire.ec.europa.eu/codelist/VoidReasonValue/Unpopulated", "@nil": "true" }, "administrativeUnit": { "@href": "#auAdmUnitS.1700" } }, "geometry": { "type": "MultiPolygon", "coordinates": [ [ [ [ 17.9736016, 48.85115197 ], [ 17.97366762, 48.85126288 ], [ 17.97375728, 48.85123651 ], [ 17.97380814, 48.85122273 ], [ 17.97428693, 48.85109285 ], [ 17.97493035, 48.8508894 ], [ 17.97503015, 48.85085785 ], [ 17.97435407, 48.85099273 ], [ 17.9736016, 48.85115197 ] ] ], [ [ [ 17.97656875, 48.85072997 ], [ 17.9763426, 48.8507329 ], [ 17.97610007, 48.85071039 ], [ 17.97601716, 48.85073852 ], [ 17.97570481, 48.85083981 ], [ 17.97505336, 48.85105905 ], [ 17.97656875, 48.85072997 ] ] ] ] } },
{ "type": "Feature", "properties": { "@featureType": "CadastralParcel", "areaValue": { "value": 228930, "@uom": "m2" }, "beginLifespanVersion": { "@nilReason": "http://inspire.ec.europa.eu/codelist/VoidReasonValue/Unpopulated", "@nil": "true" }, "endLifespanVersion": { "@nilReason": "http://inspire.ec.europa.eu/codelist/VoidReasonValue/Unpopulated", "@nil": "true" }, "inspireId": { "@dataType": "Identifier", "localId": "867942_11036/2.E", "namespace": "SK.ESKN.CP", "versionId": "20260703T07:07:53" }, "label": "11036/2", "nationalCadastralReference": "867942_11036/2.E", "referencePoint": { "type": "Point", "coordinates": [ 17.97063573, 48.85532103 ] }, "validFrom": "2026-06-30T16:00:00Z", "validTo": { "@nilReason": "http://inspire.ec.europa.eu/codelist/VoidReasonValue/Unpopulated", "@nil": "true" }, "administrativeUnit": { "@href": "#auAdmUnitS.1700" } }, "geometry": { "type": "MultiPolygon", "coordinates": [ [ [ [ 17.96916799, 48.85304839 ], [ 17.96898678, 48.85310698 ], [ 17.96911978, 48.85380934 ], [ 17.96916836, 48.85401502 ], [ 17.96935142, 48.8548762 ], [ 17.96944711, 48.85541878 ], [ 17.96957704, 48.85614072 ], [ 17.96968578, 48.85680841 ], [ 17.96981136, 48.85750816 ], [ 17.96989359, 48.85752134 ], [ 17.97012861, 48.85754794 ], [ 17.97015858, 48.85755098 ], [ 17.97216507, 48.85776885 ], [ 17.97257391, 48.85772701 ], [ 17.97303103, 48.85766023 ], [ 17.97340535, 48.85760858 ], [ 17.97458108, 48.8574479 ], [ 17.97433217, 48.85708135 ], [ 17.9742571, 48.85696348 ], [ 17.97400114, 48.85666071 ], [ 17.97386099, 48.85648318 ], [ 17.97382805, 48.85644177 ], [ 17.97358868, 48.85627533 ], [ 17.97348303, 48.8561971 ], [ 17.97340525, 48.85614833 ], [ 17.97323167, 48.85605649 ], [ 17.97301422, 48.85589497 ], [ 17.97293163, 48.85585738 ], [ 17.97283133, 48.85582326 ], [ 17.97267085, 48.85576678 ], [ 17.97258519, 48.85572666 ], [ 17.97253428, 48.85568653 ], [ 17.97246664, 48.85564071 ], [ 17.97242282, 48.85559874 ], [ 17.97237272, 48.8555517 ], [ 17.97223783, 48.85551535 ], [ 17.97212487, 48.8554988 ], [ 17.97200912, 48.85544751 ], [ 17.9717121, 48.85522328 ], [ 17.97152187, 48.8550659 ], [ 17.9710167, 48.8547476 ], [ 17.97099124, 48.85472758 ], [ 17.97095144, 48.85468125 ], [ 17.97091258, 48.8546281 ], [ 17.97070024, 48.85442317 ], [ 17.9706372, 48.85433852 ], [ 17.97062348, 48.85430773 ], [ 17.97060813, 48.85426068 ], [ 17.97048278, 48.85414434 ], [ 17.97042926, 48.85406721 ], [ 17.97032154, 48.85400727 ], [ 17.97026452, 48.85395983 ], [ 17.97016209, 48.85388413 ], [ 17.97013896, 48.85390325 ], [ 17.97014724, 48.85394988 ], [ 17.97016179, 48.85400375 ], [ 17.97018696, 48.85405599 ], [ 17.97047466, 48.85441773 ], [ 17.97056362, 48.85451791 ], [ 17.97113965, 48.85508935 ], [ 17.97104206, 48.85514975 ], [ 17.97039636, 48.85449525 ], [ 17.96988663, 48.8538592 ], [ 17.96974591, 48.85366592 ], [ 17.96949954, 48.85313959 ], [ 17.96938232, 48.85290147 ], [ 17.96933093, 48.85291811 ], [ 17.96933588, 48.85292599 ], [ 17.96934107, 48.85294011 ], [ 17.96934252, 48.85295455 ], [ 17.96934028, 48.85296896 ], [ 17.96933454, 48.85298297 ], [ 17.96932536, 48.85299606 ], [ 17.96931305, 48.85300806 ], [ 17.96930173, 48.85301588 ], [ 17.96929781, 48.85301854 ], [ 17.9692802, 48.85302724 ], [ 17.96926069, 48.85303385 ], [ 17.96923279, 48.85304176 ], [ 17.96921102, 48.85304788 ], [ 17.96917061, 48.85304223 ], [ 17.96916799, 48.85304839 ] ] ], [ [ [ 17.97228003, 48.85195202 ], [ 17.97219798, 48.85197785 ], [ 17.97236907, 48.85218421 ], [ 17.97232467, 48.8521767 ], [ 17.97226916, 48.8521754 ], [ 17.97222316, 48.8521816 ], [ 17.97219729, 48.8521937 ], [ 17.97217415, 48.85221292 ], [ 17.97218226, 48.8522618 ], [ 17.97232148, 48.85240893 ], [ 17.97231396, 48.85244298 ], [ 17.97226896, 48.85247002 ], [ 17.97212556, 48.85253428 ], [ 17.97206142, 48.85257617 ], [ 17.97199246, 48.85259925 ], [ 17.9719606, 48.85260413 ], [ 17.97192314, 48.85262701 ], [ 17.97189889, 48.85265537 ], [ 17.97188384, 48.85269348 ], [ 17.97187954, 48.85273007 ], [ 17.97190228, 48.85286036 ], [ 17.9719553, 48.85294215 ], [ 17.97197226, 48.85297539 ], [ 17.97200198, 48.85304641 ], [ 17.97201605, 48.85310486 ], [ 17.97207233, 48.85318684 ], [ 17.97206163, 48.85324824 ], [ 17.97205789, 48.85330283 ], [ 17.97226315, 48.85361894 ], [ 17.97232628, 48.85365673 ], [ 17.97243691, 48.85383486 ], [ 17.97243041, 48.85401109 ], [ 17.97244064, 48.85407156 ], [ 17.97246438, 48.85413527 ], [ 17.97249758, 48.85417887 ], [ 17.97261661, 48.85426024 ], [ 17.97274278, 48.85428227 ], [ 17.97280972, 48.85430511 ], [ 17.97290253, 48.85428579 ], [ 17.97302628, 48.85429846 ], [ 17.97309323, 48.85432121 ], [ 17.97310886, 48.85433605 ], [ 17.97314123, 48.85435657 ], [ 17.97322233, 48.85437799 ], [ 17.97325439, 48.85440075 ], [ 17.97331622, 48.85443702 ], [ 17.97333656, 48.85447055 ], [ 17.97336152, 48.85449524 ], [ 17.97342086, 48.85458192 ], [ 17.97349981, 48.85464918 ], [ 17.97356295, 48.85470394 ], [ 17.97367188, 48.85476919 ], [ 17.97364268, 48.85473441 ], [ 17.97361058, 48.85469286 ], [ 17.97357958, 48.85465527 ], [ 17.97355265, 48.85462089 ], [ 17.97351269, 48.85458276 ], [ 17.973464, 48.85454249 ], [ 17.97339736, 48.85446513 ], [ 17.97335201, 48.85441838 ], [ 17.97331867, 48.8543829 ], [ 17.97327824, 48.85433616 ], [ 17.97322126, 48.85426533 ], [ 17.97316195, 48.85418651 ], [ 17.97311203, 48.85413009 ], [ 17.97308583, 48.85409946 ], [ 17.97306231, 48.85406421 ], [ 17.97300515, 48.85399968 ], [ 17.97296686, 48.85396734 ], [ 17.97289296, 48.85388512 ], [ 17.97283613, 48.85381114 ], [ 17.97277204, 48.85373221 ], [ 17.97272197, 48.85367895 ], [ 17.9727007, 48.85364527 ], [ 17.97266363, 48.85355883 ], [ 17.97261945, 48.85346437 ], [ 17.97262381, 48.85338012 ], [ 17.97265504, 48.85329158 ], [ 17.97269922, 48.85317619 ], [ 17.97278843, 48.85301056 ], [ 17.97287, 48.85285278 ], [ 17.97282484, 48.85279962 ], [ 17.97285285, 48.85275072 ], [ 17.97288085, 48.85270191 ], [ 17.97290611, 48.85266413 ], [ 17.97292887, 48.85262466 ], [ 17.9729442, 48.85259948 ], [ 17.97295726, 48.85255989 ], [ 17.97298908, 48.8525011 ], [ 17.97300328, 48.85246519 ], [ 17.97302678, 48.85239715 ], [ 17.97306266, 48.85232461 ], [ 17.97308123, 48.85225961 ], [ 17.97307946, 48.85222944 ], [ 17.97309271, 48.85218345 ], [ 17.97310178, 48.85210887 ], [ 17.97311782, 48.85204237 ], [ 17.97312021, 48.8520128 ], [ 17.97312175, 48.85198039 ], [ 17.97312037, 48.85193426 ], [ 17.97312028, 48.85192188 ], [ 17.97311907, 48.85190664 ], [ 17.97311881, 48.85189453 ], [ 17.97308094, 48.85184307 ], [ 17.97303944, 48.85178218 ], [ 17.97303601, 48.8517772 ], [ 17.97303029, 48.85176801 ], [ 17.97284946, 48.8518268 ], [ 17.97280972, 48.85187347 ], [ 17.97278523, 48.8518815 ], [ 17.97278176, 48.85187678 ], [ 17.97273745, 48.85188571 ], [ 17.97262817, 48.85190749 ], [ 17.97261878, 48.8519081 ], [ 17.97260056, 48.85190829 ], [ 17.9725825, 48.85190722 ], [ 17.9725646, 48.85190507 ], [ 17.97254714, 48.85190168 ], [ 17.9725291, 48.85189745 ], [ 17.9725119, 48.85189219 ], [ 17.9724955, 48.85188598 ], [ 17.9724857, 48.85188161 ], [ 17.97228003, 48.85195202 ] ] ], [ [ [ 17.96891981, 48.85281135 ], [ 17.96903694, 48.85277523 ], [ 17.96903345, 48.85277069 ], [ 17.96906525, 48.8527603 ], [ 17.96908132, 48.85275683 ], [ 17.9690979, 48.85275465 ], [ 17.96911471, 48.85275375 ], [ 17.96913164, 48.85275404 ], [ 17.96914825, 48.85275566 ], [ 17.96916455, 48.85275852 ], [ 17.96918171, 48.85274807 ], [ 17.96918947, 48.85274338 ], [ 17.96920805, 48.85275659 ], [ 17.96919164, 48.85276654 ], [ 17.96920561, 48.85277252 ], [ 17.96921847, 48.85277951 ], [ 17.96922937, 48.85278693 ], [ 17.96932489, 48.85275468 ], [ 17.96934315, 48.85275125 ], [ 17.96943916, 48.8527034 ], [ 17.96939421, 48.85255436 ], [ 17.96936736, 48.85234085 ], [ 17.96928491, 48.8520685 ], [ 17.96925546, 48.85173058 ], [ 17.9692594, 48.85134643 ], [ 17.96932033, 48.85097984 ], [ 17.96941383, 48.85063929 ], [ 17.96946685, 48.85048722 ], [ 17.96929914, 48.8504378 ], [ 17.96929221, 48.85045554 ], [ 17.9692324, 48.85076278 ], [ 17.96915992, 48.85076751 ], [ 17.96909053, 48.85077467 ], [ 17.96904457, 48.85051767 ], [ 17.9690329, 48.85035942 ], [ 17.96899278, 48.85034764 ], [ 17.96870287, 48.85026226 ], [ 17.96870352, 48.85026952 ], [ 17.96870972, 48.85036154 ], [ 17.96874742, 48.85055565 ], [ 17.96846678, 48.85057781 ], [ 17.96860764, 48.85129473 ], [ 17.96875058, 48.85202449 ], [ 17.96878125, 48.852206 ], [ 17.96891981, 48.85281135 ] ] ], [ [ [ 17.97270455, 48.85158497 ], [ 17.97269119, 48.85158057 ], [ 17.97227233, 48.85144131 ], [ 17.97229213, 48.85131914 ], [ 17.97042053, 48.85076804 ], [ 17.97040438, 48.85082026 ], [ 17.970375, 48.85106692 ], [ 17.97034394, 48.8510649 ], [ 17.97033853, 48.85111063 ], [ 17.97092694, 48.85116732 ], [ 17.97105483, 48.85117563 ], [ 17.97126646, 48.85124011 ], [ 17.9715889, 48.85136697 ], [ 17.97189927, 48.85150919 ], [ 17.97214656, 48.85183105 ], [ 17.97221807, 48.85181037 ], [ 17.97238903, 48.85175361 ], [ 17.97238791, 48.85175183 ], [ 17.97238269, 48.85172687 ], [ 17.97238566, 48.85170709 ], [ 17.97239453, 48.8516882 ], [ 17.97240895, 48.85167073 ], [ 17.97242838, 48.85165563 ], [ 17.97245222, 48.85164341 ], [ 17.97246246, 48.8516395 ], [ 17.97245539, 48.85163014 ], [ 17.97248691, 48.85161973 ], [ 17.97249908, 48.85163589 ], [ 17.97252538, 48.85163466 ], [ 17.97255237, 48.85163337 ], [ 17.97270455, 48.85158497 ] ] ], [ [ [ 17.9751311, 48.85737217 ], [ 17.97522256, 48.85735773 ], [ 17.97527318, 48.85734972 ], [ 17.9753114, 48.8573444 ], [ 17.97539176, 48.8573331 ], [ 17.97537248, 48.85714721 ], [ 17.97533805, 48.85706246 ], [ 17.97529985, 48.85695112 ], [ 17.975244, 48.85687494 ], [ 17.974832, 48.85642991 ], [ 17.97480119, 48.85639286 ], [ 17.97476332, 48.85634141 ], [ 17.97471128, 48.85626744 ], [ 17.97465448, 48.85618714 ], [ 17.97460026, 48.85610202 ], [ 17.974477, 48.85593408 ], [ 17.97449913, 48.85598659 ], [ 17.9747043, 48.8564924 ], [ 17.97471478, 48.85654602 ], [ 17.9747965, 48.85690537 ], [ 17.97495961, 48.85712128 ], [ 17.97507089, 48.85725366 ], [ 17.9751311, 48.85737217 ] ] ] ] } },
{ "type": "Feature", "properties": { "@featureType": "CadastralParcel", "areaValue": { "value": 2919, "@uom": "m2" }, "beginLifespanVersion": { "@nilReason": "http://inspire.ec.europa.eu/codelist/VoidReasonValue/Unpopulated", "@nil": "true" }, "endLifespanVersion": { "@nilReason": "http://inspire.ec.europa.eu/codelist/VoidReasonValue/Unpopulated", "@nil": "true" }, "inspireId": { "@dataType": "Identifier", "localId": "867942_815.E", "namespace": "SK.ESKN.CP", "versionId": "20260703T07:07:53" }, "label": "815", "nationalCadastralReference": "867942_815.E", "referencePoint": { "type": "Point", "coordinates": [ 17.9729605, 48.84483071 ] }, "validFrom": "2026-06-30T16:00:00Z", "validTo": { "@nilReason": "http://inspire.ec.europa.eu/codelist/VoidReasonValue/Unpopulated", "@nil": "true" }, "administrativeUnit": { "@href": "#auAdmUnitS.1700" } }, "geometry": { "type": "MultiPolygon", "coordinates": [ [ [ [ 17.97167048, 48.84544115 ], [ 17.9716258, 48.84543372 ], [ 17.9715773, 48.8454563 ], [ 17.97145047, 48.8455136 ], [ 17.97094251, 48.84574738 ], [ 17.9711407, 48.84629676 ], [ 17.97147678, 48.84721271 ], [ 17.97178833, 48.84790219 ], [ 17.97193322, 48.8481712 ], [ 17.97196903, 48.84827481 ], [ 17.9719953, 48.84822364 ], [ 17.97193075, 48.84807182 ], [ 17.97187589, 48.8479714 ], [ 17.97178521, 48.84777748 ], [ 17.97173885, 48.84767595 ], [ 17.97167746, 48.84755519 ], [ 17.97156743, 48.84732356 ], [ 17.97150988, 48.84720077 ], [ 17.97150365, 48.84716816 ], [ 17.97145074, 48.84703635 ], [ 17.97137861, 48.84683685 ], [ 17.97127986, 48.84657365 ], [ 17.97123128, 48.84643523 ], [ 17.97107307, 48.84601003 ], [ 17.97103686, 48.84591136 ], [ 17.97099514, 48.84580089 ], [ 17.97103235, 48.84573168 ], [ 17.97146148, 48.84553719 ], [ 17.97167048, 48.84544115 ] ] ], [ [ [ 17.97385331, 48.85157205 ], [ 17.97381872, 48.85151456 ], [ 17.97381156, 48.85151694 ], [ 17.97380692, 48.85151079 ], [ 17.97380318, 48.85151219 ], [ 17.97378724, 48.85151766 ], [ 17.97386608, 48.85164902 ], [ 17.97408711, 48.85178512 ], [ 17.97443939, 48.85200945 ], [ 17.97484452, 48.85221534 ], [ 17.97510958, 48.85246727 ], [ 17.97527288, 48.85263552 ], [ 17.97542565, 48.85277361 ], [ 17.97584725, 48.85300837 ], [ 17.97625213, 48.85323736 ], [ 17.97627042, 48.85325479 ], [ 17.97628627, 48.85328706 ], [ 17.97638183, 48.85330076 ], [ 17.97660013, 48.85333746 ], [ 17.9766141, 48.85331526 ], [ 17.97635231, 48.85326732 ], [ 17.9763234, 48.85325152 ], [ 17.97612766, 48.8531386 ], [ 17.97594114, 48.85303327 ], [ 17.97589949, 48.85300958 ], [ 17.97577996, 48.85294587 ], [ 17.97544884, 48.85275901 ], [ 17.97531516, 48.85262945 ], [ 17.97515382, 48.85247496 ], [ 17.97496208, 48.85229049 ], [ 17.97487419, 48.85220347 ], [ 17.97477339, 48.85215496 ], [ 17.97458594, 48.85205652 ], [ 17.97447548, 48.85200265 ], [ 17.97433535, 48.85191443 ], [ 17.97409775, 48.85176326 ], [ 17.97389325, 48.85163239 ], [ 17.97385331, 48.85157205 ] ] ], [ [ [ 17.97255069, 48.84938077 ], [ 17.97277411, 48.84970709 ], [ 17.97299465, 48.85013896 ], [ 17.97313142, 48.85046157 ], [ 17.97316306, 48.85050752 ], [ 17.97343797, 48.85093602 ], [ 17.97363958, 48.85127187 ], [ 17.97365451, 48.85126671 ], [ 17.97366762, 48.85126288 ], [ 17.9736016, 48.85115197 ], [ 17.97354245, 48.8510559 ], [ 17.97347608, 48.85093847 ], [ 17.97345117, 48.85089536 ], [ 17.97333655, 48.85072639 ], [ 17.97319118, 48.85050702 ], [ 17.97316645, 48.85046158 ], [ 17.97303659, 48.85013937 ], [ 17.97297826, 48.8500132 ], [ 17.97296706, 48.84998698 ], [ 17.97289215, 48.84984393 ], [ 17.97279842, 48.84967629 ], [ 17.97270884, 48.84955052 ], [ 17.97257133, 48.84934778 ], [ 17.97251271, 48.84925987 ], [ 17.97253664, 48.84933226 ], [ 17.97254349, 48.84935326 ], [ 17.97255069, 48.84938077 ] ] ], [ [ [ 17.97216229, 48.84518628 ], [ 17.97226929, 48.84520419 ], [ 17.97228505, 48.845197 ], [ 17.97232485, 48.8451348 ], [ 17.97376898, 48.84447413 ], [ 17.97373915, 48.84446414 ], [ 17.97306034, 48.84477122 ], [ 17.97280253, 48.84489019 ], [ 17.97269818, 48.84493718 ], [ 17.9726089, 48.84497594 ], [ 17.97240294, 48.84507478 ], [ 17.97230952, 48.84511782 ], [ 17.97223132, 48.84515254 ], [ 17.97216229, 48.84518628 ] ] ] ] } },
{ "type": "Feature", "properties": { "@featureType": "CadastralParcel", "areaValue": { "value": 7470, "@uom": "m2" }, "beginLifespanVersion": { "@nilReason": "http://inspire.ec.europa.eu/codelist/VoidReasonValue/Unpopulated", "@nil": "true" }, "endLifespanVersion": { "@nilReason": "http://inspire.ec.europa.eu/codelist/VoidReasonValue/Unpopulated", "@nil": "true" }, "inspireId": { "@dataType": "Identifier", "localId": "867942_10848.E", "namespace": "SK.ESKN.CP", "versionId": "20260703T07:07:53" }, "label": "10848", "nationalCadastralReference": "867942_10848.E", "referencePoint": { "type": "Point", "coordinates": [ 17.97270065, 48.85138391 ] }, "validFrom": "2026-06-30T16:00:00Z", "validTo": { "@nilReason": "http://inspire.ec.europa.eu/codelist/VoidReasonValue/Unpopulated", "@nil": "true" }, "administrativeUnit": { "@href": "#auAdmUnitS.1700" } }, "geometry": { "type": "MultiPolygon", "coordinates": [ [ [ [ 17.97385671, 48.85218066 ], [ 17.97385336, 48.85222037 ], [ 17.97386512, 48.85224446 ], [ 17.97390108, 48.8522688 ], [ 17.97393478, 48.85229157 ], [ 17.97397817, 48.85231455 ], [ 17.97400442, 48.85233877 ], [ 17.97401369, 48.85236117 ], [ 17.97424621, 48.85251438 ], [ 17.9745129, 48.85246808 ], [ 17.97461746, 48.85273 ], [ 17.9748435, 48.85284951 ], [ 17.974974, 48.85282565 ], [ 17.97498514, 48.8528524 ], [ 17.97503588, 48.85284349 ], [ 17.97507848, 48.85294562 ], [ 17.97505883, 48.85294924 ], [ 17.97503904, 48.85295285 ], [ 17.97507017, 48.85296941 ], [ 17.97513623, 48.85295762 ], [ 17.97516003, 48.85301691 ], [ 17.97526686, 48.85307336 ], [ 17.97604489, 48.8534248 ], [ 17.97616113, 48.85335395 ], [ 17.97588167, 48.85327101 ], [ 17.97562016, 48.85310443 ], [ 17.97518202, 48.85290571 ], [ 17.97500841, 48.85274787 ], [ 17.97500118, 48.85274067 ], [ 17.9749367, 48.8527168 ], [ 17.97490264, 48.85270268 ], [ 17.9748586, 48.85261419 ], [ 17.97471597, 48.85253521 ], [ 17.97464084, 48.85244497 ], [ 17.97462773, 48.85234532 ], [ 17.97463129, 48.85230418 ], [ 17.97458588, 48.85221264 ], [ 17.97438259, 48.85219931 ], [ 17.97430033, 48.85221764 ], [ 17.97426692, 48.85221981 ], [ 17.9739658, 48.85219147 ], [ 17.97385883, 48.85214602 ], [ 17.97385671, 48.85218066 ] ] ], [ [ [ 17.97368464, 48.85168828 ], [ 17.97363998, 48.8517399 ], [ 17.97348017, 48.85170874 ], [ 17.97351562, 48.85182814 ], [ 17.97353267, 48.85183556 ], [ 17.97359543, 48.85186195 ], [ 17.97368025, 48.85189019 ], [ 17.97370924, 48.85190337 ], [ 17.97374317, 48.85191342 ], [ 17.97377646, 48.85195531 ], [ 17.97381929, 48.85200047 ], [ 17.97386223, 48.8520488 ], [ 17.97386106, 48.85209758 ], [ 17.97397491, 48.8521437 ], [ 17.97425578, 48.85217201 ], [ 17.97427621, 48.85217575 ], [ 17.9743709, 48.85216864 ], [ 17.97441575, 48.85217184 ], [ 17.97443734, 48.85217908 ], [ 17.97445326, 48.85217678 ], [ 17.97459731, 48.85218496 ], [ 17.97392426, 48.85178737 ], [ 17.97368464, 48.85168828 ] ] ], [ [ [ 17.97462817, 48.85220955 ], [ 17.97468128, 48.85230778 ], [ 17.97467864, 48.85232821 ], [ 17.97467484, 48.85234406 ], [ 17.97470485, 48.85244715 ], [ 17.9747376, 48.85251609 ], [ 17.97490237, 48.85258519 ], [ 17.97494671, 48.85266746 ], [ 17.97497032, 48.85267897 ], [ 17.9750158, 48.85269864 ], [ 17.97503191, 48.85270691 ], [ 17.97525584, 48.85287307 ], [ 17.9755065, 48.85298961 ], [ 17.97569093, 48.85306809 ], [ 17.97589913, 48.85317696 ], [ 17.97608827, 48.85323288 ], [ 17.97628627, 48.85328706 ], [ 17.97612227, 48.85321232 ], [ 17.97568632, 48.85297942 ], [ 17.97529594, 48.8527605 ], [ 17.97462817, 48.85220955 ] ] ], [ [ [ 17.97229213, 48.85131914 ], [ 17.97288573, 48.85152755 ], [ 17.97308739, 48.8514634 ], [ 17.973118, 48.85145366 ], [ 17.97310418, 48.85144868 ], [ 17.97238783, 48.85119019 ], [ 17.97229213, 48.85131914 ] ] ], [ [ [ 17.97328599, 48.85173 ], [ 17.9733487, 48.85176279 ], [ 17.97336257, 48.85177048 ], [ 17.97337613, 48.85177941 ], [ 17.9733897, 48.85178726 ], [ 17.97345961, 48.85180639 ], [ 17.97343756, 48.85171515 ], [ 17.9734325, 48.85166998 ], [ 17.9734798, 48.85166727 ], [ 17.97362237, 48.8516984 ], [ 17.97364475, 48.85167173 ], [ 17.97350486, 48.85161386 ], [ 17.97323726, 48.85170101 ], [ 17.97328599, 48.85173 ] ] ] ] } },
{ "type": "Feature", "properties": { "@featureType": "CadastralParcel", "areaValue": { "value": 10105, "@uom": "m2" }, "beginLifespanVersion": { "@nilReason": "http://inspire.ec.europa.eu/codelist/VoidReasonValue/Unpopulated", "@nil": "true" }, "endLifespanVersion": { "@nilReason": "http://inspire.ec.europa.eu/codelist/VoidReasonValue/Unpopulated", "@nil": "true" }, "inspireId": { "@dataType": "Identifier", "localId": "867942_10849.E", "namespace": "SK.ESKN.CP", "versionId": "20260703T07:07:53" }, "label": "10849", "nationalCadastralReference": "867942_10849.E", "referencePoint": { "type": "Point", "coordinates": [ 17.97285819, 48.85073588 ] }, "validFrom": "2026-06-30T16:00:00Z", "validTo": { "@nilReason": "http://inspire.ec.europa.eu/codelist/VoidReasonValue/Unpopulated", "@nil": "true" }, "administrativeUnit": { "@href": "#auAdmUnitS.1700" } }, "geometry": { "type": "MultiPolygon", "coordinates": [ [ [ [ 17.973118, 48.85145366 ], [ 17.97324054, 48.85141488 ], [ 17.9732663, 48.85138751 ], [ 17.97333438, 48.85136085 ], [ 17.9733589, 48.85135861 ], [ 17.97338353, 48.85135962 ], [ 17.97340371, 48.85136316 ], [ 17.97343917, 48.8513519 ], [ 17.97343365, 48.8513402 ], [ 17.97345154, 48.85133548 ], [ 17.97346949, 48.85133023 ], [ 17.97349352, 48.85132262 ], [ 17.97352203, 48.8513142 ], [ 17.97352828, 48.85132252 ], [ 17.97361804, 48.85127935 ], [ 17.97363958, 48.85127187 ], [ 17.97343797, 48.85093602 ], [ 17.97316306, 48.85050752 ], [ 17.97313142, 48.85046157 ], [ 17.97299465, 48.85013896 ], [ 17.9727515, 48.85028264 ], [ 17.97241518, 48.85053573 ], [ 17.97238783, 48.85119019 ], [ 17.97310418, 48.85144868 ], [ 17.973118, 48.85145366 ] ] ], [ [ [ 17.97628627, 48.85328706 ], [ 17.97627042, 48.85325479 ], [ 17.97625213, 48.85323736 ], [ 17.97584725, 48.85300837 ], [ 17.97542565, 48.85277361 ], [ 17.97527288, 48.85263552 ], [ 17.97510958, 48.85246727 ], [ 17.97484452, 48.85221534 ], [ 17.97443939, 48.85200945 ], [ 17.97408711, 48.85178512 ], [ 17.97386608, 48.85164902 ], [ 17.97378724, 48.85151766 ], [ 17.9737245, 48.85153931 ], [ 17.97375065, 48.85155025 ], [ 17.97374365, 48.85155742 ], [ 17.97372211, 48.85155488 ], [ 17.973713, 48.85155741 ], [ 17.97375496, 48.85160694 ], [ 17.97368464, 48.85168828 ], [ 17.97392426, 48.85178737 ], [ 17.97459731, 48.85218496 ], [ 17.9746155, 48.85218604 ], [ 17.97462817, 48.85220955 ], [ 17.97529594, 48.8527605 ], [ 17.97568632, 48.85297942 ], [ 17.97612227, 48.85321232 ], [ 17.97628627, 48.85328706 ] ] ], [ [ [ 17.97364475, 48.85167173 ], [ 17.97369542, 48.85161117 ], [ 17.97366059, 48.85157452 ], [ 17.97364826, 48.85157867 ], [ 17.97364333, 48.8515968 ], [ 17.97363005, 48.85159583 ], [ 17.97363902, 48.85157017 ], [ 17.97350486, 48.85161386 ], [ 17.97364475, 48.85167173 ] ] ] ] } }
]
}
