{
"type": "FeatureCollection",
"name": "gis",
"crs": { "type": "name", "properties": { "name": "urn:ogc:def:crs:OGC:1.3:CRS84" } },
"features": [
{ "type": "Feature", "properties": { "@featureType": "CadastralParcel", "areaValue": { "value": 83054, "@uom": "m2" }, "beginLifespanVersion": { "@nilReason": "http://inspire.ec.europa.eu/codelist/VoidReasonValue/Unpopulated", "@nil": "true" }, "endLifespanVersion": { "@nilReason": "http://inspire.ec.europa.eu/codelist/VoidReasonValue/Unpopulated", "@nil": "true" }, "inspireId": { "@dataType": "Identifier", "localId": "864668_907/6.C", "namespace": "SK.ESKN.CP", "versionId": "20260703T07:07:14" }, "label": "907/6", "nationalCadastralReference": "864668_907/6.C", "referencePoint": { "type": "Point", "coordinates": [ 17.99344144, 48.87511631 ] }, "validFrom": "2026-06-30T16:00:00Z", "validTo": { "@nilReason": "http://inspire.ec.europa.eu/codelist/VoidReasonValue/Unpopulated", "@nil": "true" }, "administrativeUnit": { "@href": "#auAdmUnitS.672" } }, "geometry": { "type": "Polygon", "coordinates": [ [ [ 17.99056609, 48.87499967 ], [ 17.9915565, 48.87544336 ], [ 17.99327332, 48.87618859 ], [ 17.99398861, 48.87649942 ], [ 17.99443512, 48.87669494 ], [ 17.99454845, 48.87658426 ], [ 17.99469988, 48.87643601 ], [ 17.9949547, 48.87618869 ], [ 17.99516337, 48.87598785 ], [ 17.9953977, 48.87576035 ], [ 17.99554918, 48.87560967 ], [ 17.99573077, 48.87543585 ], [ 17.99594122, 48.87523294 ], [ 17.99623532, 48.87493521 ], [ 17.9963403, 48.87482042 ], [ 17.99668129, 48.87457052 ], [ 17.99716044, 48.87434737 ], [ 17.99729268, 48.87430399 ], [ 17.99662216, 48.87409696 ], [ 17.99648616, 48.87405723 ], [ 17.99466982, 48.87352683 ], [ 17.99056609, 48.87499967 ] ] ] } },
{ "type": "Feature", "properties": { "@featureType": "CadastralParcel", "areaValue": { "value": 29954, "@uom": "m2" }, "beginLifespanVersion": { "@nilReason": "http://inspire.ec.europa.eu/codelist/VoidReasonValue/Unpopulated", "@nil": "true" }, "endLifespanVersion": { "@nilReason": "http://inspire.ec.europa.eu/codelist/VoidReasonValue/Unpopulated", "@nil": "true" }, "inspireId": { "@dataType": "Identifier", "localId": "864668_907/8.C", "namespace": "SK.ESKN.CP", "versionId": "20260703T07:07:14" }, "label": "907/8", "nationalCadastralReference": "864668_907/8.C", "referencePoint": { "type": "Point", "coordinates": [ 17.9909218, 48.87419644 ] }, "validFrom": "2026-06-30T16:00:00Z", "validTo": { "@nilReason": "http://inspire.ec.europa.eu/codelist/VoidReasonValue/Unpopulated", "@nil": "true" }, "administrativeUnit": { "@href": "#auAdmUnitS.672" } }, "geometry": { "type": "Polygon", "coordinates": [ [ [ 17.98921549, 48.87415697 ], [ 17.9888635, 48.87423591 ], [ 17.99056609, 48.87499967 ], [ 17.99466982, 48.87352683 ], [ 17.99425105, 48.87340329 ], [ 17.99397061, 48.87332052 ], [ 17.99269685, 48.87351851 ], [ 17.99067628, 48.87384412 ], [ 17.98921549, 48.87415697 ] ], [ [ 17.99366804, 48.87380736 ], [ 17.99356997, 48.87383804 ], [ 17.99353843, 48.87379518 ], [ 17.9936365, 48.8737645 ], [ 17.99366804, 48.87380736 ] ], [ [ 17.9935261, 48.8736452 ], [ 17.99278839, 48.87389331 ], [ 17.99267306, 48.87374283 ], [ 17.99340973, 48.8734953 ], [ 17.9935261, 48.8736452 ] ], [ [ 17.99364034, 48.87358523 ], [ 17.99356646, 48.87360912 ], [ 17.99350982, 48.87353435 ], [ 17.99358412, 48.87351039 ], [ 17.99364034, 48.87358523 ] ], [ [ 17.9936882, 48.87356946 ], [ 17.99364674, 48.87351599 ], [ 17.99396215, 48.87340896 ], [ 17.99400382, 48.87346289 ], [ 17.9936882, 48.87356946 ] ], [ [ 17.99414196, 48.87344758 ], [ 17.99411931, 48.87341888 ], [ 17.99420494, 48.87339009 ], [ 17.99422814, 48.87341882 ], [ 17.99414196, 48.87344758 ] ] ] } },
{ "type": "Feature", "properties": { "@featureType": "CadastralParcel", "areaValue": { "value": 6832, "@uom": "m2" }, "beginLifespanVersion": { "@nilReason": "http://inspire.ec.europa.eu/codelist/VoidReasonValue/Unpopulated", "@nil": "true" }, "endLifespanVersion": { "@nilReason": "http://inspire.ec.europa.eu/codelist/VoidReasonValue/Unpopulated", "@nil": "true" }, "inspireId": { "@dataType": "Identifier", "localId": "864668_900/8.C", "namespace": "SK.ESKN.CP", "versionId": "20260703T07:07:14" }, "label": "900/8", "nationalCadastralReference": "864668_900/8.C", "referencePoint": { "type": "Point", "coordinates": [ 17.99632079, 48.87275072 ] }, "validFrom": "2026-06-30T16:00:00Z", "validTo": { "@nilReason": "http://inspire.ec.europa.eu/codelist/VoidReasonValue/Unpopulated", "@nil": "true" }, "administrativeUnit": { "@href": "#auAdmUnitS.672" } }, "geometry": { "type": "Polygon", "coordinates": [ [ [ 17.99546102, 48.87284965 ], [ 17.99557162, 48.87300481 ], [ 17.99584251, 48.87303698 ], [ 17.99617644, 48.87309076 ], [ 17.99645077, 48.87318833 ], [ 17.99655911, 48.87324422 ], [ 17.99718055, 48.8726518 ], [ 17.9967809, 48.87255179 ], [ 17.99618913, 48.87243925 ], [ 17.99597161, 48.87236291 ], [ 17.99546102, 48.87284965 ] ] ] } },
{ "type": "Feature", "properties": { "@featureType": "CadastralParcel", "areaValue": { "value": 6603, "@uom": "m2" }, "beginLifespanVersion": { "@nilReason": "http://inspire.ec.europa.eu/codelist/VoidReasonValue/Unpopulated", "@nil": "true" }, "endLifespanVersion": { "@nilReason": "http://inspire.ec.europa.eu/codelist/VoidReasonValue/Unpopulated", "@nil": "true" }, "inspireId": { "@dataType": "Identifier", "localId": "864668_1138/3.E", "namespace": "SK.ESKN.CP", "versionId": "20260703T07:07:14" }, "label": "1138/3", "nationalCadastralReference": "864668_1138/3.E", "referencePoint": { "type": "Point", "coordinates": [ 17.99278996, 48.87620579 ] }, "validFrom": "2026-06-30T16:00:00Z", "validTo": { "@nilReason": "http://inspire.ec.europa.eu/codelist/VoidReasonValue/Unpopulated", "@nil": "true" }, "administrativeUnit": { "@href": "#auAdmUnitS.672" } }, "geometry": { "type": "Polygon", "coordinates": [ [ [ 17.99337061, 48.87658558 ], [ 17.99404848, 48.87688778 ], [ 17.99429194, 48.87699708 ], [ 17.99435549, 48.87676012 ], [ 17.99407837, 48.87664269 ], [ 17.99381619, 48.87652615 ], [ 17.99356174, 48.87641314 ], [ 17.99342078, 48.87635045 ], [ 17.99333816, 48.87631378 ], [ 17.99320303, 48.87626155 ], [ 17.99202765, 48.87574851 ], [ 17.99123644, 48.87538009 ], [ 17.99119551, 48.87539618 ], [ 17.9911209, 48.87542544 ], [ 17.99102618, 48.87546264 ], [ 17.99099422, 48.8754752 ], [ 17.99091193, 48.87550753 ], [ 17.99175502, 48.87587297 ], [ 17.992462, 48.87618847 ], [ 17.99254722, 48.87622312 ], [ 17.99314085, 48.8764864 ], [ 17.99337061, 48.87658558 ] ] ] } },
{ "type": "Feature", "properties": { "@featureType": "CadastralParcel", "areaValue": { "value": 13354, "@uom": "m2" }, "beginLifespanVersion": { "@nilReason": "http://inspire.ec.europa.eu/codelist/VoidReasonValue/Unpopulated", "@nil": "true" }, "endLifespanVersion": { "@nilReason": "http://inspire.ec.europa.eu/codelist/VoidReasonValue/Unpopulated", "@nil": "true" }, "inspireId": { "@dataType": "Identifier", "localId": "864668_907.E", "namespace": "SK.ESKN.CP", "versionId": "20260703T07:07:14" }, "label": "907", "nationalCadastralReference": "864668_907.E", "referencePoint": { "type": "Point", "coordinates": [ 17.99379907, 48.873172 ] }, "validFrom": "2026-06-30T16:00:00Z", "validTo": { "@nilReason": "http://inspire.ec.europa.eu/codelist/VoidReasonValue/Unpopulated", "@nil": "true" }, "administrativeUnit": { "@href": "#auAdmUnitS.672" } }, "geometry": { "type": "MultiPolygon", "coordinates": [ [ [ [ 17.98811964, 48.87429455 ], [ 17.98795503, 48.87431524 ], [ 17.98822211, 48.87443479 ], [ 17.98843755, 48.87453151 ], [ 17.98857379, 48.87460468 ], [ 17.98871586, 48.87466825 ], [ 17.98982529, 48.87522293 ], [ 17.99094865, 48.87571566 ], [ 17.99155885, 48.87598074 ], [ 17.99175502, 48.87587297 ], [ 17.99091193, 48.87550753 ], [ 17.99089761, 48.87551318 ], [ 17.99029226, 48.87525074 ], [ 17.98970339, 48.87499197 ], [ 17.98922557, 48.87477932 ], [ 17.98873105, 48.87456459 ], [ 17.98811964, 48.87429455 ] ] ], [ [ [ 17.99414484, 48.87303259 ], [ 17.99258151, 48.87329264 ], [ 17.99269685, 48.87351851 ], [ 17.99397061, 48.87332052 ], [ 17.99403014, 48.87330652 ], [ 17.99412484, 48.8732593 ], [ 17.99445793, 48.87308469 ], [ 17.99444011, 48.87298712 ], [ 17.99414484, 48.87303259 ] ] ], [ [ [ 17.98858211, 48.87423659 ], [ 17.98909989, 48.87445838 ], [ 17.98963294, 48.87469372 ], [ 17.99014974, 48.87491572 ], [ 17.99066122, 48.87514868 ], [ 17.99119551, 48.87539618 ], [ 17.99123644, 48.87538009 ], [ 17.99202765, 48.87574851 ], [ 17.99210238, 48.87571537 ], [ 17.99214036, 48.87569676 ], [ 17.9915565, 48.87544336 ], [ 17.99056609, 48.87499967 ], [ 17.9888635, 48.87423591 ], [ 17.98921549, 48.87415697 ], [ 17.98882974, 48.87420538 ], [ 17.98863365, 48.87423007 ], [ 17.98858211, 48.87423659 ] ] ], [ [ [ 17.99627819, 48.87323348 ], [ 17.99636705, 48.87326555 ], [ 17.99650472, 48.87334032 ], [ 17.99670841, 48.87345105 ], [ 17.99684474, 48.87339166 ], [ 17.99655911, 48.87324422 ], [ 17.99645077, 48.87318833 ], [ 17.99617644, 48.87309076 ], [ 17.99584251, 48.87303698 ], [ 17.99557162, 48.87300481 ], [ 17.99546102, 48.87284965 ], [ 17.9954087, 48.8728489 ], [ 17.99532756, 48.87285774 ], [ 17.99518658, 48.87287785 ], [ 17.99502374, 48.87290172 ], [ 17.99535059, 48.87311535 ], [ 17.99540877, 48.87318687 ], [ 17.99552351, 48.87316142 ], [ 17.9956134, 48.87314253 ], [ 17.99576074, 48.8731331 ], [ 17.99591975, 48.87314042 ], [ 17.99613647, 48.87318547 ], [ 17.99615245, 48.87318876 ], [ 17.99627819, 48.87323348 ] ] ] ] } },
{ "type": "Feature", "properties": { "@featureType": "CadastralParcel", "areaValue": { "value": 1718, "@uom": "m2" }, "beginLifespanVersion": { "@nilReason": "http://inspire.ec.europa.eu/codelist/VoidReasonValue/Unpopulated", "@nil": "true" }, "endLifespanVersion": { "@nilReason": "http://inspire.ec.europa.eu/codelist/VoidReasonValue/Unpopulated", "@nil": "true" }, "inspireId": { "@dataType": "Identifier", "localId": "864668_1106.E", "namespace": "SK.ESKN.CP", "versionId": "20260703T07:07:14" }, "label": "1106", "nationalCadastralReference": "864668_1106.E", "referencePoint": { "type": "Point", "coordinates": [ 17.99271014, 48.87634919 ] }, "validFrom": "2026-06-30T16:00:00Z", "validTo": { "@nilReason": "http://inspire.ec.europa.eu/codelist/VoidReasonValue/Unpopulated", "@nil": "true" }, "administrativeUnit": { "@href": "#auAdmUnitS.672" } }, "geometry": { "type": "Polygon", "coordinates": [ [ [ 17.99155885, 48.87598074 ], [ 17.99171693, 48.87604941 ], [ 17.99174142, 48.87604851 ], [ 17.99254712, 48.87624605 ], [ 17.9926305, 48.87645233 ], [ 17.99273597, 48.87668746 ], [ 17.9929408, 48.87658644 ], [ 17.99314085, 48.8764864 ], [ 17.99254722, 48.87622312 ], [ 17.992462, 48.87618847 ], [ 17.99175502, 48.87587297 ], [ 17.99155885, 48.87598074 ] ] ] } },
{ "type": "Feature", "properties": { "@featureType": "CadastralParcel", "areaValue": { "value": 15366, "@uom": "m2" }, "beginLifespanVersion": { "@nilReason": "http://inspire.ec.europa.eu/codelist/VoidReasonValue/Unpopulated", "@nil": "true" }, "endLifespanVersion": { "@nilReason": "http://inspire.ec.europa.eu/codelist/VoidReasonValue/Unpopulated", "@nil": "true" }, "inspireId": { "@dataType": "Identifier", "localId": "864668_1105.E", "namespace": "SK.ESKN.CP", "versionId": "20260703T07:07:14" }, "label": "1105", "nationalCadastralReference": "864668_1105.E", "referencePoint": { "type": "Point", "coordinates": [ 18.00056365, 48.87445825 ] }, "validFrom": "2026-06-30T16:00:00Z", "validTo": { "@nilReason": "http://inspire.ec.europa.eu/codelist/VoidReasonValue/Unpopulated", "@nil": "true" }, "administrativeUnit": { "@href": "#auAdmUnitS.672" } }, "geometry": { "type": "MultiPolygon", "coordinates": [ [ [ [ 17.99623532, 48.87493521 ], [ 17.99806347, 48.87401475 ], [ 17.99810876, 48.87399169 ], [ 17.99817714, 48.8739569 ], [ 17.9982017, 48.87394436 ], [ 17.99822126, 48.87393441 ], [ 17.99879024, 48.87365048 ], [ 17.99884691, 48.87362222 ], [ 17.99890872, 48.87359139 ], [ 17.99930987, 48.87382159 ], [ 17.99937112, 48.87378376 ], [ 17.99941886, 48.87386667 ], [ 17.99943191, 48.87388947 ], [ 18.00019438, 48.8743216 ], [ 18.00062439, 48.87456912 ], [ 18.00066535, 48.87459213 ], [ 18.00078719, 48.87466054 ], [ 18.00082445, 48.87468153 ], [ 18.00112153, 48.87484354 ], [ 18.00185589, 48.87524998 ], [ 18.00221266, 48.87552486 ], [ 18.00220971, 48.87541047 ], [ 18.00153677, 48.87491358 ], [ 18.00030143, 48.87424495 ], [ 17.99954088, 48.87377149 ], [ 17.99949273, 48.87374102 ], [ 17.99959445, 48.8736784 ], [ 17.99957484, 48.87366153 ], [ 17.99944903, 48.87357293 ], [ 17.99939586, 48.87353611 ], [ 17.99918164, 48.87339099 ], [ 17.99905029, 48.87334928 ], [ 17.99903314, 48.87334249 ], [ 17.99893317, 48.87331266 ], [ 17.9988445, 48.8732862 ], [ 17.99870507, 48.87324554 ], [ 17.99823756, 48.87323597 ], [ 17.99801505, 48.87333226 ], [ 17.99784016, 48.87326341 ], [ 17.99743691, 48.87367253 ], [ 17.9974206, 48.87368881 ], [ 17.99684474, 48.87339166 ], [ 17.99670841, 48.87345105 ], [ 17.99689667, 48.87355347 ], [ 17.99691541, 48.8735636 ], [ 17.99704843, 48.87363133 ], [ 17.99745872, 48.8738284 ], [ 17.9976638, 48.87390273 ], [ 17.99729268, 48.87430399 ], [ 17.99716044, 48.87434737 ], [ 17.99668129, 48.87457052 ], [ 17.9963403, 48.87482042 ], [ 17.99623532, 48.87493521 ] ] ], [ [ [ 17.99210238, 48.87571537 ], [ 17.99202765, 48.87574851 ], [ 17.99320303, 48.87626155 ], [ 17.99333816, 48.87631378 ], [ 17.99342078, 48.87635045 ], [ 17.99347112, 48.87632859 ], [ 17.99352976, 48.87630001 ], [ 17.99327332, 48.87618859 ], [ 17.99214036, 48.87569676 ], [ 17.99210238, 48.87571537 ] ] ] ] } }
]
}
