{
"type": "FeatureCollection",
"name": "gis",
"crs": { "type": "name", "properties": { "name": "urn:ogc:def:crs:OGC:1.3:CRS84" } },
"features": [
{ "type": "Feature", "properties": { "@featureType": "CadastralParcel", "areaValue": { "value": 11, "@uom": "m2" }, "beginLifespanVersion": { "@nilReason": "http://inspire.ec.europa.eu/codelist/VoidReasonValue/Unpopulated", "@nil": "true" }, "endLifespanVersion": { "@nilReason": "http://inspire.ec.europa.eu/codelist/VoidReasonValue/Unpopulated", "@nil": "true" }, "inspireId": { "@dataType": "Identifier", "localId": "872270_1133/85.C", "namespace": "SK.ESKN.CP", "versionId": "20260703T05:07:45" }, "label": "1133/85", "nationalCadastralReference": "872270_1133/85.C", "referencePoint": { "type": "Point", "coordinates": [ 17.27376542, 48.1684216 ] }, "validFrom": "2026-06-30T16:00:00Z", "validTo": { "@nilReason": "http://inspire.ec.europa.eu/codelist/VoidReasonValue/Unpopulated", "@nil": "true" }, "administrativeUnit": { "@href": "#auAdmUnitS.1608" } }, "geometry": { "type": "Polygon", "coordinates": [ [ [ 17.27373117, 48.16842028 ], [ 17.27374486, 48.16843999 ], [ 17.27379968, 48.16842293 ], [ 17.2737861, 48.16840332 ], [ 17.27373117, 48.16842028 ] ] ] } },
{ "type": "Feature", "properties": { "@featureType": "CadastralParcel", "areaValue": { "value": 8, "@uom": "m2" }, "beginLifespanVersion": { "@nilReason": "http://inspire.ec.europa.eu/codelist/VoidReasonValue/Unpopulated", "@nil": "true" }, "endLifespanVersion": { "@nilReason": "http://inspire.ec.europa.eu/codelist/VoidReasonValue/Unpopulated", "@nil": "true" }, "inspireId": { "@dataType": "Identifier", "localId": "872270_1133/98.C", "namespace": "SK.ESKN.CP", "versionId": "20260703T05:07:45" }, "label": "1133/98", "nationalCadastralReference": "872270_1133/98.C", "referencePoint": { "type": "Point", "coordinates": [ 17.27348823, 48.1680837 ] }, "validFrom": "2026-06-30T16:00:00Z", "validTo": { "@nilReason": "http://inspire.ec.europa.eu/codelist/VoidReasonValue/Unpopulated", "@nil": "true" }, "administrativeUnit": { "@href": "#auAdmUnitS.1608" } }, "geometry": { "type": "Polygon", "coordinates": [ [ [ 17.27351676, 48.16810782 ], [ 17.27350935, 48.16809766 ], [ 17.27348489, 48.16806395 ], [ 17.27346715, 48.16806974 ], [ 17.27349888, 48.16811359 ], [ 17.27351676, 48.16810782 ] ] ] } },
{ "type": "Feature", "properties": { "@featureType": "CadastralParcel", "areaValue": { "value": 757, "@uom": "m2" }, "beginLifespanVersion": { "@nilReason": "http://inspire.ec.europa.eu/codelist/VoidReasonValue/Unpopulated", "@nil": "true" }, "endLifespanVersion": { "@nilReason": "http://inspire.ec.europa.eu/codelist/VoidReasonValue/Unpopulated", "@nil": "true" }, "inspireId": { "@dataType": "Identifier", "localId": "872270_1133/17.C", "namespace": "SK.ESKN.CP", "versionId": "20260703T05:07:45" }, "label": "1133/17", "nationalCadastralReference": "872270_1133/17.C", "referencePoint": { "type": "Point", "coordinates": [ 17.2737399, 48.16836162 ] }, "validFrom": "2026-06-30T16:00:00Z", "validTo": { "@nilReason": "http://inspire.ec.europa.eu/codelist/VoidReasonValue/Unpopulated", "@nil": "true" }, "administrativeUnit": { "@href": "#auAdmUnitS.1608" } }, "geometry": { "type": "Polygon", "coordinates": [ [ [ 17.27387109, 48.16859097 ], [ 17.2738491, 48.16859801 ], [ 17.27391356, 48.16868723 ], [ 17.27393512, 48.16868026 ], [ 17.27396716, 48.16872477 ], [ 17.27399919, 48.16876937 ], [ 17.27398396, 48.1687746 ], [ 17.27400613, 48.16878546 ], [ 17.27402826, 48.16879109 ], [ 17.27405123, 48.16879289 ], [ 17.27408031, 48.16878993 ], [ 17.27409056, 48.16878637 ], [ 17.27407889, 48.16877493 ], [ 17.27414048, 48.16874404 ], [ 17.2741996, 48.16871434 ], [ 17.27425872, 48.16868465 ], [ 17.27432018, 48.16865375 ], [ 17.27433437, 48.16866554 ], [ 17.27435586, 48.16865458 ], [ 17.27392373, 48.16826695 ], [ 17.27385875, 48.1682104 ], [ 17.2738566, 48.16820854 ], [ 17.27381568, 48.16817284 ], [ 17.27379929, 48.16815856 ], [ 17.27363214, 48.16801299 ], [ 17.27360264, 48.16802793 ], [ 17.27353618, 48.16806157 ], [ 17.27340322, 48.16794421 ], [ 17.27338364, 48.16795412 ], [ 17.27342286, 48.16800851 ], [ 17.27344033, 48.1680028 ], [ 17.27347208, 48.16804648 ], [ 17.27345473, 48.16805237 ], [ 17.27346715, 48.16806974 ], [ 17.27348489, 48.16806395 ], [ 17.27350935, 48.16809766 ], [ 17.27356484, 48.16806962 ], [ 17.27362444, 48.16803941 ], [ 17.2736666, 48.16807673 ], [ 17.27376227, 48.16816134 ], [ 17.27372049, 48.16818252 ], [ 17.2737028, 48.16819156 ], [ 17.27368514, 48.16820042 ], [ 17.27364322, 48.16822168 ], [ 17.27354755, 48.16813707 ], [ 17.27354054, 48.16814058 ], [ 17.27354908, 48.16815226 ], [ 17.27358152, 48.1681968 ], [ 17.27361384, 48.16824124 ], [ 17.2735954, 48.16824715 ], [ 17.27381681, 48.16855339 ], [ 17.27383909, 48.16854619 ], [ 17.27387109, 48.16859097 ] ], [ [ 17.27396163, 48.16865183 ], [ 17.27390706, 48.16866909 ], [ 17.27389318, 48.16864973 ], [ 17.27387931, 48.16863028 ], [ 17.27386509, 48.16861045 ], [ 17.27392004, 48.1685934 ], [ 17.27393391, 48.16861285 ], [ 17.27394778, 48.1686323 ], [ 17.27396163, 48.16865183 ] ], [ [ 17.27403881, 48.16876368 ], [ 17.27394302, 48.16867897 ], [ 17.27398187, 48.16865932 ], [ 17.27395012, 48.16861465 ], [ 17.27398519, 48.16859682 ], [ 17.27407297, 48.1685524 ], [ 17.27415684, 48.16850979 ], [ 17.27420068, 48.16854849 ], [ 17.27429647, 48.1686332 ], [ 17.27425558, 48.16865389 ], [ 17.27421175, 48.16867611 ], [ 17.274171, 48.16869672 ], [ 17.27412485, 48.16872005 ], [ 17.27407956, 48.16874307 ], [ 17.27403881, 48.16876368 ] ], [ [ 17.27374486, 48.16843999 ], [ 17.27373117, 48.16842028 ], [ 17.2737861, 48.16840332 ], [ 17.27379968, 48.16842293 ], [ 17.2738028, 48.16842738 ], [ 17.27383479, 48.16841116 ], [ 17.27388649, 48.16838504 ], [ 17.27396844, 48.16834348 ], [ 17.27401872, 48.16838802 ], [ 17.2741144, 48.16847254 ], [ 17.27407685, 48.16849165 ], [ 17.27403258, 48.16851411 ], [ 17.273981, 48.16854033 ], [ 17.27393674, 48.16856279 ], [ 17.27389894, 48.1685817 ], [ 17.27380327, 48.16849709 ], [ 17.27378454, 48.16847578 ], [ 17.2737725, 48.16847959 ], [ 17.27375857, 48.1684596 ], [ 17.27374486, 48.16843999 ] ], [ [ 17.27372444, 48.16831807 ], [ 17.27367007, 48.16833579 ], [ 17.27365598, 48.16831597 ], [ 17.27364236, 48.16829672 ], [ 17.27362838, 48.16827709 ], [ 17.27361442, 48.16825736 ], [ 17.27366946, 48.16824059 ], [ 17.2736831, 48.16825975 ], [ 17.27369695, 48.16827929 ], [ 17.27371072, 48.16829854 ], [ 17.27372444, 48.16831807 ] ], [ [ 17.27371787, 48.16828763 ], [ 17.27369036, 48.16824722 ], [ 17.27373856, 48.16822285 ], [ 17.27379798, 48.1681929 ], [ 17.27383706, 48.16822731 ], [ 17.27393273, 48.16831192 ], [ 17.27389095, 48.1683331 ], [ 17.27387341, 48.16834205 ], [ 17.2738556, 48.16835099 ], [ 17.27381368, 48.16837225 ], [ 17.27371787, 48.16828763 ] ] ] } },
{ "type": "Feature", "properties": { "@featureType": "CadastralParcel", "areaValue": { "value": 8, "@uom": "m2" }, "beginLifespanVersion": { "@nilReason": "http://inspire.ec.europa.eu/codelist/VoidReasonValue/Unpopulated", "@nil": "true" }, "endLifespanVersion": { "@nilReason": "http://inspire.ec.europa.eu/codelist/VoidReasonValue/Unpopulated", "@nil": "true" }, "inspireId": { "@dataType": "Identifier", "localId": "872270_1133/108.C", "namespace": "SK.ESKN.CP", "versionId": "20260703T05:07:45" }, "label": "1133/108", "nationalCadastralReference": "872270_1133/108.C", "referencePoint": { "type": "Point", "coordinates": [ 17.2740659, 48.16888906 ] }, "validFrom": "2026-06-30T16:00:00Z", "validTo": { "@nilReason": "http://inspire.ec.europa.eu/codelist/VoidReasonValue/Unpopulated", "@nil": "true" }, "administrativeUnit": { "@href": "#auAdmUnitS.1608" } }, "geometry": { "type": "Polygon", "coordinates": [ [ [ 17.27406465, 48.16890647 ], [ 17.27409224, 48.16889258 ], [ 17.27406814, 48.1688711 ], [ 17.27403925, 48.16888554 ], [ 17.27404827, 48.168893 ], [ 17.27406465, 48.16890647 ] ] ] } },
{ "type": "Feature", "properties": { "@featureType": "CadastralParcel", "areaValue": { "value": 452, "@uom": "m2" }, "beginLifespanVersion": { "@nilReason": "http://inspire.ec.europa.eu/codelist/VoidReasonValue/Unpopulated", "@nil": "true" }, "endLifespanVersion": { "@nilReason": "http://inspire.ec.europa.eu/codelist/VoidReasonValue/Unpopulated", "@nil": "true" }, "inspireId": { "@dataType": "Identifier", "localId": "872270_1133/70.C", "namespace": "SK.ESKN.CP", "versionId": "20260703T05:07:45" }, "label": "1133/70", "nationalCadastralReference": "872270_1133/70.C", "referencePoint": { "type": "Point", "coordinates": [ 17.27477421, 48.16906392 ] }, "validFrom": "2026-06-30T16:00:00Z", "validTo": { "@nilReason": "http://inspire.ec.europa.eu/codelist/VoidReasonValue/Unpopulated", "@nil": "true" }, "administrativeUnit": { "@href": "#auAdmUnitS.1608" } }, "geometry": { "type": "Polygon", "coordinates": [ [ [ 17.2746848, 48.16948127 ], [ 17.27473593, 48.1695218 ], [ 17.27476361, 48.16951008 ], [ 17.27479114, 48.16949844 ], [ 17.27481854, 48.16948679 ], [ 17.27484607, 48.16947516 ], [ 17.27487348, 48.16946342 ], [ 17.27490101, 48.16945178 ], [ 17.27492783, 48.16944036 ], [ 17.27496089, 48.16947437 ], [ 17.27493349, 48.16948602 ], [ 17.27492456, 48.16948976 ], [ 17.27492736, 48.16949275 ], [ 17.27492857, 48.16949373 ], [ 17.27497432, 48.16947309 ], [ 17.27492894, 48.16942652 ], [ 17.27492729, 48.16941665 ], [ 17.27492994, 48.16941249 ], [ 17.27492506, 48.1694062 ], [ 17.27492462, 48.16940554 ], [ 17.27492832, 48.16940063 ], [ 17.27504197, 48.16931201 ], [ 17.27504756, 48.1692953 ], [ 17.27503812, 48.16927516 ], [ 17.27469983, 48.16897075 ], [ 17.27442584, 48.16872294 ], [ 17.2743763, 48.16874812 ], [ 17.27439441, 48.16875808 ], [ 17.27441625, 48.16877029 ], [ 17.27452933, 48.16887142 ], [ 17.27484945, 48.16915708 ], [ 17.27492253, 48.16922736 ], [ 17.27496813, 48.16927241 ], [ 17.2749818, 48.16928687 ], [ 17.27498723, 48.16930947 ], [ 17.27497971, 48.16932099 ], [ 17.27494734, 48.16934794 ], [ 17.2746848, 48.16948127 ] ] ] } },
{ "type": "Feature", "properties": { "@featureType": "CadastralParcel", "areaValue": { "value": 739, "@uom": "m2" }, "beginLifespanVersion": { "@nilReason": "http://inspire.ec.europa.eu/codelist/VoidReasonValue/Unpopulated", "@nil": "true" }, "endLifespanVersion": { "@nilReason": "http://inspire.ec.europa.eu/codelist/VoidReasonValue/Unpopulated", "@nil": "true" }, "inspireId": { "@dataType": "Identifier", "localId": "872270_1133/15.C", "namespace": "SK.ESKN.CP", "versionId": "20260703T05:07:45" }, "label": "1133/15", "nationalCadastralReference": "872270_1133/15.C", "referencePoint": { "type": "Point", "coordinates": [ 17.27367623, 48.16840027 ] }, "validFrom": "2026-06-30T16:00:00Z", "validTo": { "@nilReason": "http://inspire.ec.europa.eu/codelist/VoidReasonValue/Unpopulated", "@nil": "true" }, "administrativeUnit": { "@href": "#auAdmUnitS.1608" } }, "geometry": { "type": "Polygon", "coordinates": [ [ [ 17.27442584, 48.16872294 ], [ 17.27442978, 48.16872094 ], [ 17.27441821, 48.16871059 ], [ 17.27436765, 48.16866521 ], [ 17.27435586, 48.16865458 ], [ 17.27433437, 48.16866554 ], [ 17.27427256, 48.16869695 ], [ 17.27421369, 48.16872685 ], [ 17.27415479, 48.16875683 ], [ 17.27410994, 48.16877961 ], [ 17.27409056, 48.16878637 ], [ 17.27408031, 48.16878993 ], [ 17.27405123, 48.16879289 ], [ 17.27402826, 48.16879109 ], [ 17.27400613, 48.16878546 ], [ 17.27398396, 48.1687746 ], [ 17.27398144, 48.16877334 ], [ 17.27396334, 48.16875606 ], [ 17.27394573, 48.16873175 ], [ 17.27391356, 48.16868723 ], [ 17.2738491, 48.16859801 ], [ 17.27381681, 48.16855339 ], [ 17.2735954, 48.16824715 ], [ 17.27356322, 48.16820263 ], [ 17.27353105, 48.16815811 ], [ 17.27349888, 48.16811359 ], [ 17.27346715, 48.16806974 ], [ 17.27345473, 48.16805237 ], [ 17.27342286, 48.16800851 ], [ 17.27338364, 48.16795412 ], [ 17.27336424, 48.16792735 ], [ 17.27335718, 48.16791757 ], [ 17.27335148, 48.16790318 ], [ 17.2733503, 48.16790021 ], [ 17.27329216, 48.16792058 ], [ 17.27331338, 48.16793961 ], [ 17.27402636, 48.16892598 ], [ 17.27405587, 48.16891104 ], [ 17.27406465, 48.16890647 ], [ 17.27404827, 48.168893 ], [ 17.27403925, 48.16888554 ], [ 17.27406814, 48.1688711 ], [ 17.27409385, 48.16885807 ], [ 17.27411968, 48.16884514 ], [ 17.27414551, 48.16883222 ], [ 17.27417134, 48.16881929 ], [ 17.27419718, 48.16880627 ], [ 17.27422301, 48.16879335 ], [ 17.27424871, 48.16878041 ], [ 17.27427454, 48.16876748 ], [ 17.27430038, 48.16875447 ], [ 17.27432518, 48.1687421 ], [ 17.27434883, 48.16876211 ], [ 17.2743763, 48.16874812 ], [ 17.27442584, 48.16872294 ] ] ] } },
{ "type": "Feature", "properties": { "@featureType": "CadastralParcel", "areaValue": { "value": 816, "@uom": "m2" }, "beginLifespanVersion": { "@nilReason": "http://inspire.ec.europa.eu/codelist/VoidReasonValue/Unpopulated", "@nil": "true" }, "endLifespanVersion": { "@nilReason": "http://inspire.ec.europa.eu/codelist/VoidReasonValue/Unpopulated", "@nil": "true" }, "inspireId": { "@dataType": "Identifier", "localId": "872270_1133/2.C", "namespace": "SK.ESKN.CP", "versionId": "20260703T05:07:45" }, "label": "1133/2", "nationalCadastralReference": "872270_1133/2.C", "referencePoint": { "type": "Point", "coordinates": [ 17.27444514, 48.16915875 ] }, "validFrom": "2026-06-30T16:00:00Z", "validTo": { "@nilReason": "http://inspire.ec.europa.eu/codelist/VoidReasonValue/Unpopulated", "@nil": "true" }, "administrativeUnit": { "@href": "#auAdmUnitS.1608" } }, "geometry": { "type": "Polygon", "coordinates": [ [ [ 17.27416606, 48.16905716 ], [ 17.2741841, 48.16905122 ], [ 17.27422986, 48.169036 ], [ 17.27431355, 48.16900821 ], [ 17.27435075, 48.16905622 ], [ 17.27474817, 48.16956961 ], [ 17.27492736, 48.16949275 ], [ 17.27492456, 48.16948976 ], [ 17.27490596, 48.16949765 ], [ 17.27487843, 48.16950929 ], [ 17.27485102, 48.16952103 ], [ 17.27482349, 48.16953267 ], [ 17.27479609, 48.16954432 ], [ 17.27476856, 48.16955596 ], [ 17.27473593, 48.1695218 ], [ 17.2746848, 48.16948127 ], [ 17.27494734, 48.16934794 ], [ 17.27497971, 48.16932099 ], [ 17.27498723, 48.16930947 ], [ 17.2749818, 48.16928687 ], [ 17.27496813, 48.16927241 ], [ 17.27495047, 48.16928037 ], [ 17.27490124, 48.16923698 ], [ 17.27492253, 48.16922736 ], [ 17.27484945, 48.16915708 ], [ 17.27452933, 48.16887142 ], [ 17.27441625, 48.16877029 ], [ 17.27439441, 48.16875808 ], [ 17.2743763, 48.16874812 ], [ 17.27434883, 48.16876211 ], [ 17.2743234, 48.16877506 ], [ 17.27429769, 48.16878809 ], [ 17.27427197, 48.1688012 ], [ 17.27424639, 48.16881424 ], [ 17.27422068, 48.16882726 ], [ 17.27419496, 48.16884038 ], [ 17.27418488, 48.16884549 ], [ 17.27416925, 48.1688534 ], [ 17.27414354, 48.16886643 ], [ 17.27411782, 48.16887954 ], [ 17.27409224, 48.16889258 ], [ 17.27406465, 48.16890647 ], [ 17.27405587, 48.16891104 ], [ 17.2740665, 48.16892313 ], [ 17.27408141, 48.1689365 ], [ 17.27408545, 48.16894021 ], [ 17.27415949, 48.16904769 ], [ 17.27416606, 48.16905716 ] ], [ [ 17.27476153, 48.16942481 ], [ 17.27472088, 48.16944561 ], [ 17.27462449, 48.16936132 ], [ 17.27457653, 48.16931937 ], [ 17.27466266, 48.16927519 ], [ 17.27474745, 48.16923183 ], [ 17.27478984, 48.16921016 ], [ 17.2748378, 48.16925211 ], [ 17.27488093, 48.16923003 ], [ 17.27497803, 48.1693141 ], [ 17.27493724, 48.16933498 ], [ 17.27489324, 48.16935746 ], [ 17.2748526, 48.16937826 ], [ 17.27480713, 48.16940154 ], [ 17.27476153, 48.16942481 ] ], [ [ 17.27489317, 48.16921764 ], [ 17.27484508, 48.1692422 ], [ 17.27482558, 48.16922518 ], [ 17.27480597, 48.16920797 ], [ 17.27478635, 48.16919086 ], [ 17.27483361, 48.16916552 ], [ 17.27485406, 48.16918342 ], [ 17.27487367, 48.16920062 ], [ 17.27489317, 48.16921764 ] ], [ [ 17.27462746, 48.1692593 ], [ 17.2745912, 48.16927786 ], [ 17.2744948, 48.16919357 ], [ 17.27445689, 48.16916041 ], [ 17.27453714, 48.16911947 ], [ 17.27454635, 48.16911475 ], [ 17.27450869, 48.1690817 ], [ 17.27441244, 48.16899732 ], [ 17.27445423, 48.16897606 ], [ 17.27447208, 48.16896685 ], [ 17.27448977, 48.16895781 ], [ 17.27453156, 48.16893654 ], [ 17.27462753, 48.16902099 ], [ 17.27463518, 48.16902773 ], [ 17.27466165, 48.16901413 ], [ 17.27468125, 48.16903133 ], [ 17.27470087, 48.16904845 ], [ 17.27472096, 48.16906605 ], [ 17.27472945, 48.16907348 ], [ 17.27473457, 48.16907084 ], [ 17.27483096, 48.16915514 ], [ 17.27479471, 48.1691737 ], [ 17.27475202, 48.16919554 ], [ 17.27471561, 48.16921418 ], [ 17.27467132, 48.16923682 ], [ 17.27462746, 48.1692593 ] ], [ [ 17.2741975, 48.16902554 ], [ 17.27409509, 48.16893533 ], [ 17.27417269, 48.16889584 ], [ 17.27424881, 48.16885714 ], [ 17.27432494, 48.16881845 ], [ 17.27440237, 48.16877913 ], [ 17.27450491, 48.16886934 ], [ 17.27446927, 48.1688874 ], [ 17.27442748, 48.16890867 ], [ 17.27438467, 48.16893041 ], [ 17.27435135, 48.16894736 ], [ 17.27431673, 48.16896495 ], [ 17.27427508, 48.16898613 ], [ 17.27423213, 48.16900796 ], [ 17.2741975, 48.16902554 ] ], [ [ 17.27454198, 48.16890181 ], [ 17.27449076, 48.16892742 ], [ 17.27446559, 48.16890406 ], [ 17.27451588, 48.1688783 ], [ 17.27454198, 48.16890181 ] ] ] } }
]
}
