{
"type": "FeatureCollection",
"name": "gis",
"crs": { "type": "name", "properties": { "name": "urn:ogc:def:crs:OGC:1.3:CRS84" } },
"features": [
{ "type": "Feature", "properties": { "@featureType": "CadastralParcel", "areaValue": { "value": 1770, "@uom": "m2" }, "beginLifespanVersion": { "@nilReason": "http://inspire.ec.europa.eu/codelist/VoidReasonValue/Unpopulated", "@nil": "true" }, "endLifespanVersion": { "@nilReason": "http://inspire.ec.europa.eu/codelist/VoidReasonValue/Unpopulated", "@nil": "true" }, "inspireId": { "@dataType": "Identifier", "localId": "804959_3042/458.C", "namespace": "SK.ESKN.CP", "versionId": "20260703T04:07:49" }, "label": "3042/458", "nationalCadastralReference": "804959_3042/458.C", "referencePoint": { "type": "Point", "coordinates": [ 17.11332266, 48.09165015 ] }, "validFrom": "2026-06-30T16:00:00Z", "validTo": { "@nilReason": "http://inspire.ec.europa.eu/codelist/VoidReasonValue/Unpopulated", "@nil": "true" }, "administrativeUnit": { "@href": "#auAdmUnitS.589" } }, "geometry": { "type": "Polygon", "coordinates": [ [ [ 17.11346207, 48.09130585 ], [ 17.11334287, 48.09143479 ], [ 17.11303492, 48.09175638 ], [ 17.112782, 48.09193626 ], [ 17.11337401, 48.09191589 ], [ 17.11352863, 48.09191057 ], [ 17.11350055, 48.09154393 ], [ 17.11349083, 48.09141636 ], [ 17.11348078, 48.0912856 ], [ 17.11346207, 48.09130585 ] ] ] } }
]
}
