{
"type": "FeatureCollection",
"name": "gis",
"crs": { "type": "name", "properties": { "name": "urn:ogc:def:crs:OGC:1.3:CRS84" } },
"features": [
{ "type": "Feature", "properties": { "@featureType": "CadastralParcel", "areaValue": { "value": 131, "@uom": "m2" }, "beginLifespanVersion": { "@nilReason": "http://inspire.ec.europa.eu/codelist/VoidReasonValue/Unpopulated", "@nil": "true" }, "endLifespanVersion": { "@nilReason": "http://inspire.ec.europa.eu/codelist/VoidReasonValue/Unpopulated", "@nil": "true" }, "inspireId": { "@dataType": "Identifier", "localId": "868035_1064/770.C", "namespace": "SK.ESKN.CP", "versionId": "20260703T04:07:58" }, "label": "1064/770", "nationalCadastralReference": "868035_1064/770.C", "referencePoint": { "type": "Point", "coordinates": [ 18.13372648, 48.29480636 ] }, "validFrom": "2026-06-30T16:00:00Z", "validTo": { "@nilReason": "http://inspire.ec.europa.eu/codelist/VoidReasonValue/Unpopulated", "@nil": "true" }, "administrativeUnit": { "@href": "#auAdmUnitS.1810" } }, "geometry": { "type": "Polygon", "coordinates": [ [ [ 18.13372377, 48.29487997 ], [ 18.13382428, 48.29478853 ], [ 18.13372154, 48.29474062 ], [ 18.13362842, 48.29482419 ], [ 18.13362043, 48.29483139 ], [ 18.13372377, 48.29487997 ] ] ] } },
{ "type": "Feature", "properties": { "@featureType": "CadastralParcel", "areaValue": { "value": 6237, "@uom": "m2" }, "beginLifespanVersion": { "@nilReason": "http://inspire.ec.europa.eu/codelist/VoidReasonValue/Unpopulated", "@nil": "true" }, "endLifespanVersion": { "@nilReason": "http://inspire.ec.europa.eu/codelist/VoidReasonValue/Unpopulated", "@nil": "true" }, "inspireId": { "@dataType": "Identifier", "localId": "868035_1064/311.C", "namespace": "SK.ESKN.CP", "versionId": "20260703T04:07:58" }, "label": "1064/311", "nationalCadastralReference": "868035_1064/311.C", "referencePoint": { "type": "Point", "coordinates": [ 18.13619542, 48.29551246 ] }, "validFrom": "2026-06-30T16:00:00Z", "validTo": { "@nilReason": "http://inspire.ec.europa.eu/codelist/VoidReasonValue/Unpopulated", "@nil": "true" }, "administrativeUnit": { "@href": "#auAdmUnitS.1810" } }, "geometry": { "type": "Polygon", "coordinates": [ [ [ 18.13423341, 48.29416635 ], [ 18.13416032, 48.29413164 ], [ 18.13407356, 48.29421107 ], [ 18.13405541, 48.29424007 ], [ 18.13403984, 48.29426895 ], [ 18.13402779, 48.29429984 ], [ 18.13401898, 48.29433083 ], [ 18.13401849, 48.29433658 ], [ 18.13411841, 48.29438333 ], [ 18.13402209, 48.29447483 ], [ 18.13392026, 48.29456908 ], [ 18.13382108, 48.29466583 ], [ 18.13372154, 48.29474062 ], [ 18.13382428, 48.29478853 ], [ 18.13385727, 48.29480419 ], [ 18.1340725, 48.29461718 ], [ 18.13416334, 48.29460544 ], [ 18.13432472, 48.29468179 ], [ 18.13454221, 48.29478517 ], [ 18.13476008, 48.29488974 ], [ 18.13497875, 48.29499346 ], [ 18.13519705, 48.29509788 ], [ 18.13541574, 48.29520241 ], [ 18.13563469, 48.29530705 ], [ 18.13585364, 48.29541178 ], [ 18.1360731, 48.29551663 ], [ 18.13628989, 48.29562023 ], [ 18.13651101, 48.2957259 ], [ 18.13672831, 48.2958298 ], [ 18.13694802, 48.29593484 ], [ 18.13716774, 48.29603988 ], [ 18.13738644, 48.29614441 ], [ 18.13760286, 48.29624781 ], [ 18.13782335, 48.29635317 ], [ 18.13803658, 48.29645503 ], [ 18.13827884, 48.29657077 ], [ 18.13828425, 48.29661099 ], [ 18.13808719, 48.29683681 ], [ 18.1381139, 48.29684975 ], [ 18.13820792, 48.29689516 ], [ 18.13834601, 48.29674841 ], [ 18.13848753, 48.29659816 ], [ 18.13861446, 48.29646321 ], [ 18.1387549, 48.29631398 ], [ 18.13865596, 48.29626693 ], [ 18.13863405, 48.29625653 ], [ 18.13841275, 48.2964682 ], [ 18.1383498, 48.29647878 ], [ 18.13817178, 48.29639406 ], [ 18.13793334, 48.29628016 ], [ 18.13769922, 48.29616832 ], [ 18.13747275, 48.29606009 ], [ 18.13724641, 48.29595195 ], [ 18.13701573, 48.29584175 ], [ 18.13678532, 48.29573166 ], [ 18.13655516, 48.29562168 ], [ 18.13631774, 48.29550829 ], [ 18.13609089, 48.29539985 ], [ 18.13586035, 48.29528975 ], [ 18.13562777, 48.29517863 ], [ 18.13539902, 48.29506926 ], [ 18.1351658, 48.29495792 ], [ 18.13493438, 48.29484732 ], [ 18.13470855, 48.29473948 ], [ 18.13447649, 48.29462856 ], [ 18.13424189, 48.29451642 ], [ 18.13420318, 48.29449799 ], [ 18.13413711, 48.2943893 ], [ 18.13416693, 48.29425517 ], [ 18.13425875, 48.2941784 ], [ 18.13423341, 48.29416635 ] ] ] } },
{ "type": "Feature", "properties": { "@featureType": "CadastralParcel", "areaValue": { "value": 178, "@uom": "m2" }, "beginLifespanVersion": { "@nilReason": "http://inspire.ec.europa.eu/codelist/VoidReasonValue/Unpopulated", "@nil": "true" }, "endLifespanVersion": { "@nilReason": "http://inspire.ec.europa.eu/codelist/VoidReasonValue/Unpopulated", "@nil": "true" }, "inspireId": { "@dataType": "Identifier", "localId": "868035_1064/344.C", "namespace": "SK.ESKN.CP", "versionId": "20260703T04:07:58" }, "label": "1064/344", "nationalCadastralReference": "868035_1064/344.C", "referencePoint": { "type": "Point", "coordinates": [ 18.13393541, 48.29439526 ] }, "validFrom": "2026-06-30T16:00:00Z", "validTo": { "@nilReason": "http://inspire.ec.europa.eu/codelist/VoidReasonValue/Unpopulated", "@nil": "true" }, "administrativeUnit": { "@href": "#auAdmUnitS.1810" } }, "geometry": { "type": "Polygon", "coordinates": [ [ [ 18.13380803, 48.2943721 ], [ 18.13391817, 48.29442351 ], [ 18.13400037, 48.29446408 ], [ 18.13400973, 48.29444639 ], [ 18.134013, 48.29441842 ], [ 18.13401344, 48.29436265 ], [ 18.13401849, 48.29433658 ], [ 18.13401262, 48.29433389 ], [ 18.13396444, 48.29431139 ], [ 18.13390249, 48.29428248 ], [ 18.13380803, 48.2943721 ] ] ] } },
{ "type": "Feature", "properties": { "@featureType": "CadastralParcel", "areaValue": { "value": 3604, "@uom": "m2" }, "beginLifespanVersion": { "@nilReason": "http://inspire.ec.europa.eu/codelist/VoidReasonValue/Unpopulated", "@nil": "true" }, "endLifespanVersion": { "@nilReason": "http://inspire.ec.europa.eu/codelist/VoidReasonValue/Unpopulated", "@nil": "true" }, "inspireId": { "@dataType": "Identifier", "localId": "868035_1064/5.C", "namespace": "SK.ESKN.CP", "versionId": "20260703T04:07:58" }, "label": "1064/5", "nationalCadastralReference": "868035_1064/5.C", "referencePoint": { "type": "Point", "coordinates": [ 18.13594555, 48.29608048 ] }, "validFrom": "2026-06-30T16:00:00Z", "validTo": { "@nilReason": "http://inspire.ec.europa.eu/codelist/VoidReasonValue/Unpopulated", "@nil": "true" }, "administrativeUnit": { "@href": "#auAdmUnitS.1810" } }, "geometry": { "type": "Polygon", "coordinates": [ [ [ 18.13612662, 48.29620644 ], [ 18.13683476, 48.29654303 ], [ 18.13766729, 48.29688148 ], [ 18.13775782, 48.29691846 ], [ 18.1379385, 48.29699937 ], [ 18.13796606, 48.29700586 ], [ 18.13799658, 48.29700728 ], [ 18.13802713, 48.29700546 ], [ 18.13805663, 48.29700033 ], [ 18.13808464, 48.29699203 ], [ 18.13811019, 48.29698089 ], [ 18.13813284, 48.29696714 ], [ 18.13815172, 48.29695109 ], [ 18.13820792, 48.29689516 ], [ 18.1381139, 48.29684975 ], [ 18.1380979, 48.29686443 ], [ 18.13809529, 48.29686681 ], [ 18.13809198, 48.29686932 ], [ 18.13806979, 48.29688581 ], [ 18.13803118, 48.29690368 ], [ 18.13798688, 48.2969103 ], [ 18.13793948, 48.29690544 ], [ 18.13789615, 48.29688928 ], [ 18.13766958, 48.29679305 ], [ 18.1373699, 48.29666021 ], [ 18.13716817, 48.29656959 ], [ 18.13704351, 48.29651444 ], [ 18.13691919, 48.29645968 ], [ 18.1369146, 48.2964576 ], [ 18.13672642, 48.29637608 ], [ 18.13639035, 48.29622676 ], [ 18.13621486, 48.29615274 ], [ 18.13616555, 48.29613054 ], [ 18.1359437, 48.29603042 ], [ 18.13576578, 48.29595536 ], [ 18.13564412, 48.29591231 ], [ 18.13561337, 48.29590022 ], [ 18.13538679, 48.29581761 ], [ 18.13532572, 48.29579427 ], [ 18.13503413, 48.29568537 ], [ 18.13477268, 48.29558601 ], [ 18.13476145, 48.29559736 ], [ 18.1344298, 48.29545868 ], [ 18.1341822, 48.29536509 ], [ 18.13416442, 48.29535836 ], [ 18.13410565, 48.29533614 ], [ 18.13393474, 48.29527151 ], [ 18.13371921, 48.29518305 ], [ 18.13362177, 48.29514312 ], [ 18.1335645, 48.29520513 ], [ 18.13384329, 48.29531978 ], [ 18.13390865, 48.29534645 ], [ 18.13472613, 48.2956807 ], [ 18.13517112, 48.29582376 ], [ 18.13545021, 48.29593003 ], [ 18.13571051, 48.2960258 ], [ 18.13612662, 48.29620644 ] ] ] } },
{ "type": "Feature", "properties": { "@featureType": "CadastralParcel", "areaValue": { "value": 467, "@uom": "m2" }, "beginLifespanVersion": { "@nilReason": "http://inspire.ec.europa.eu/codelist/VoidReasonValue/Unpopulated", "@nil": "true" }, "endLifespanVersion": { "@nilReason": "http://inspire.ec.europa.eu/codelist/VoidReasonValue/Unpopulated", "@nil": "true" }, "inspireId": { "@dataType": "Identifier", "localId": "868035_1064/840.C", "namespace": "SK.ESKN.CP", "versionId": "20260703T04:07:58" }, "label": "1064/840", "nationalCadastralReference": "868035_1064/840.C", "referencePoint": { "type": "Point", "coordinates": [ 18.13349936, 48.29501474 ] }, "validFrom": "2026-06-30T16:00:00Z", "validTo": { "@nilReason": "http://inspire.ec.europa.eu/codelist/VoidReasonValue/Unpopulated", "@nil": "true" }, "administrativeUnit": { "@href": "#auAdmUnitS.1810" } }, "geometry": { "type": "Polygon", "coordinates": [ [ [ 18.13333627, 48.2950939 ], [ 18.13332461, 48.29510649 ], [ 18.13346375, 48.29516366 ], [ 18.13348184, 48.29517113 ], [ 18.1335645, 48.29520513 ], [ 18.13362177, 48.29514312 ], [ 18.13359857, 48.29513129 ], [ 18.13357704, 48.29511396 ], [ 18.13356952, 48.29510422 ], [ 18.13356535, 48.29509892 ], [ 18.13355725, 48.2950803 ], [ 18.13355607, 48.29506967 ], [ 18.13355508, 48.29506076 ], [ 18.13355583, 48.2950571 ], [ 18.13355912, 48.29504141 ], [ 18.13356924, 48.29502304 ], [ 18.13358482, 48.29500644 ], [ 18.13372377, 48.29487997 ], [ 18.13362043, 48.29483139 ], [ 18.13358567, 48.29486529 ], [ 18.1335343, 48.29491537 ], [ 18.13345245, 48.29498623 ], [ 18.13333627, 48.2950939 ] ] ] } },
{ "type": "Feature", "properties": { "@featureType": "CadastralParcel", "areaValue": { "value": 57, "@uom": "m2" }, "beginLifespanVersion": { "@nilReason": "http://inspire.ec.europa.eu/codelist/VoidReasonValue/Unpopulated", "@nil": "true" }, "endLifespanVersion": { "@nilReason": "http://inspire.ec.europa.eu/codelist/VoidReasonValue/Unpopulated", "@nil": "true" }, "inspireId": { "@dataType": "Identifier", "localId": "868035_1064/345.C", "namespace": "SK.ESKN.CP", "versionId": "20260703T04:07:58" }, "label": "1064/345", "nationalCadastralReference": "868035_1064/345.C", "referencePoint": { "type": "Point", "coordinates": [ 18.13405654, 48.29440087 ] }, "validFrom": "2026-06-30T16:00:00Z", "validTo": { "@nilReason": "http://inspire.ec.europa.eu/codelist/VoidReasonValue/Unpopulated", "@nil": "true" }, "administrativeUnit": { "@href": "#auAdmUnitS.1810" } }, "geometry": { "type": "Polygon", "coordinates": [ [ [ 18.13402209, 48.29447483 ], [ 18.13411841, 48.29438333 ], [ 18.13401849, 48.29433658 ], [ 18.13401344, 48.29436265 ], [ 18.134013, 48.29441842 ], [ 18.13400973, 48.29444639 ], [ 18.13400037, 48.29446408 ], [ 18.13402209, 48.29447483 ] ] ] } }
]
}
