{
"type": "FeatureCollection",
"name": "gis",
"crs": { "type": "name", "properties": { "name": "urn:ogc:def:crs:OGC:1.3:CRS84" } },
"features": [
{ "type": "Feature", "properties": { "@featureType": "CadastralZoning", "beginLifespanVersion": { "@nilReason": "http://inspire.ec.europa.eu/codelist/VoidReasonValue/Unpopulated", "@nil": "true" }, "endLifespanVersion": { "@nilReason": "http://inspire.ec.europa.eu/codelist/VoidReasonValue/Unpopulated", "@nil": "true" }, "estimatedAccuracy": { "value": -1, "@uom": "m" }, "inspireId": { "@dataType": "Identifier", "localId": "872563", "namespace": "SK.ESKN.CP", "versionId": "20260703T04:07:40" }, "label": "Závadka nad Hronom", "level": { "@href": "http://inspire.ec.europa.eu/codelist/CadastralZoningLevelValue/3rdOrder" }, "levelName": { "value": "Katastrálne územie", "@locale": "sk" }, "name_1": { "@dataType": "name", "GeographicalName": { "@dataType": "GeographicalName", "language": "SLK", "nativeness": { "@href": "http://inspire.ec.europa.eu/codelist/NativenessValue/endonym", "@title": "endonym" }, "nameStatus": { "@href": "http://inspire.ec.europa.eu/codelist/NameStatusValue/official", "@title": "official" }, "sourceOfName": { "@nilReason": "http://inspire.ec.europa.eu/codelist/VoidReasonValue/Unpopulated", "@nil": "true" }, "pronunciation": { "@dataType": "pronunciation", "@nilReason": "http://inspire.ec.europa.eu/codelist/VoidReasonValue/Unpopulated", "@nil": "true" }, "spelling": { "@dataType": "SpellingOfName", "text": "Závadka nad Hronom", "script": "LATN" } } }, "nationalCadastalZoningReference": "872563", "validFrom": "2026-06-30T16:00:00Z", "validTo": { "@nilReason": "http://inspire.ec.europa.eu/codelist/VoidReasonValue/Unpopulated", "@nil": "true" }, "place_id": 189636148, "osm_type": "relation", "osm_id": 18391617, "place_rank": 22, "category": "natural", "type": "plateau", "importance": 0.4080375579827476, "addresstype": "plateau", "name_2": "Muránska planina", "display_name": "Muránska planina, okres Revúca, Banskobystrický kraj, 980 61, Slovensko" }, "geometry": { "type": "Polygon", "coordinates": [ [ [ 19.9734412, 48.80059231 ], [ 19.9759716, 48.80002885 ], [ 19.97597966, 48.79950932 ], [ 19.97586121, 48.79938639 ], [ 19.97570593, 48.79932302 ], [ 19.97571777, 48.79922394 ], [ 19.9757307, 48.79909941 ], [ 19.97554093, 48.79854905 ], [ 19.97537493, 48.79835745 ], [ 19.97558251, 48.79829956 ], [ 19.97542971, 48.79773364 ], [ 19.97517348, 48.79705894 ], [ 19.97472598, 48.79662167 ], [ 19.97510589, 48.79653894 ], [ 19.97523949, 48.79696537 ], [ 19.97694847, 48.79796144 ], [ 19.97698712, 48.79679411 ], [ 19.97698352, 48.79675918 ], [ 19.9766651, 48.7951346 ], [ 19.97666151, 48.79508687 ], [ 19.97658677, 48.79462686 ], [ 19.97662128, 48.7940605 ], [ 19.97679081, 48.79350846 ], [ 19.97667938, 48.79283848 ], [ 19.97652228, 48.79252452 ], [ 19.97647014, 48.79227091 ], [ 19.97644987, 48.79221924 ], [ 19.97697316, 48.79215279 ], [ 19.97724299, 48.79202731 ], [ 19.97677117, 48.79195273 ], [ 19.9767032, 48.79192771 ], [ 19.97698298, 48.7896403 ], [ 19.97714494, 48.78881751 ], [ 19.9770529, 48.78536366 ], [ 19.97588094, 48.78501468 ], [ 19.97431611, 48.78549871 ], [ 19.97309133, 48.78545388 ], [ 19.97129649, 48.78102268 ], [ 19.96665169, 48.78204766 ], [ 19.96570266, 48.78225692 ], [ 19.96564183, 48.78225418 ], [ 19.96427746, 48.78219699 ], [ 19.96434417, 48.78171813 ], [ 19.95835104, 48.78228784 ], [ 19.95011487, 48.78169407 ], [ 19.94860279, 48.78161324 ], [ 19.94271668, 48.78144194 ], [ 19.94187131, 48.78269119 ], [ 19.94062289, 48.78398026 ], [ 19.94084941, 48.78420133 ], [ 19.93911341, 48.78676628 ], [ 19.93891403, 48.78683535 ], [ 19.93879902, 48.78687519 ], [ 19.93871464, 48.78690442 ], [ 19.93860871, 48.78691391 ], [ 19.93853331, 48.78692073 ], [ 19.93747855, 48.78701536 ], [ 19.936908371593557, 48.787239889451932 ], [ 19.9371651, 48.7877577 ], [ 19.9372083, 48.7895448 ], [ 19.9369767, 48.7908205 ], [ 19.9375857, 48.7923459 ], [ 19.9387786, 48.7945387 ], [ 19.9397519, 48.795651 ], [ 19.9411764, 48.7965681 ], [ 19.9429928, 48.7967876 ], [ 19.9451986, 48.797452 ], [ 19.9511428, 48.7997021 ], [ 19.9554197, 48.8013105 ], [ 19.9584597, 48.8022954 ], [ 19.9615136, 48.8031379 ], [ 19.963344, 48.8032148 ], [ 19.9652752, 48.8033674 ], [ 19.9674373, 48.8022442 ], [ 19.9689926, 48.8018096 ], [ 19.9710929, 48.8013264 ], [ 19.972716072431503, 48.801043076285524 ], [ 19.9734412, 48.80059231 ] ] ] } }
]
}
