{
"type": "FeatureCollection",
"name": "gis",
"crs": { "type": "name", "properties": { "name": "urn:ogc:def:crs:OGC:1.3:CRS84" } },
"features": [
{ "type": "Feature", "properties": { "@featureType": "CadastralParcel", "areaValue": { "value": 272985, "@uom": "m2" }, "beginLifespanVersion": { "@nilReason": "http://inspire.ec.europa.eu/codelist/VoidReasonValue/Unpopulated", "@nil": "true" }, "endLifespanVersion": { "@nilReason": "http://inspire.ec.europa.eu/codelist/VoidReasonValue/Unpopulated", "@nil": "true" }, "inspireId": { "@dataType": "Identifier", "localId": "820491_943/1.E", "namespace": "SK.ESKN.CP", "versionId": "20260703T07:07:30" }, "label": "943/1", "nationalCadastralReference": "820491_943/1.E", "referencePoint": { "type": "Point", "coordinates": [ 19.85775645, 48.3457947 ] }, "validFrom": "2026-06-30T16:00:00Z", "validTo": { "@nilReason": "http://inspire.ec.europa.eu/codelist/VoidReasonValue/Unpopulated", "@nil": "true" }, "administrativeUnit": { "@href": "#auAdmUnitS.2984" } }, "geometry": { "type": "Polygon", "coordinates": [ [ [ 19.85743135, 48.34806323 ], [ 19.85876334, 48.34813486 ], [ 19.85917043, 48.34797855 ], [ 19.85938722, 48.3478907 ], [ 19.85952152, 48.34783623 ], [ 19.8595653, 48.34781848 ], [ 19.85974403, 48.34724886 ], [ 19.8611313, 48.34677974 ], [ 19.86125247, 48.34686818 ], [ 19.86147836, 48.34701983 ], [ 19.86177722, 48.34722034 ], [ 19.86139548, 48.34795727 ], [ 19.86092418, 48.3481163 ], [ 19.86078032, 48.34816486 ], [ 19.86059046, 48.34822892 ], [ 19.85963183, 48.34817331 ], [ 19.85876334, 48.34813486 ], [ 19.86349301, 48.34840649 ], [ 19.86379423, 48.34842485 ], [ 19.86579926, 48.34854699 ], [ 19.86579502, 48.34845028 ], [ 19.8658126, 48.34834343 ], [ 19.86580524, 48.3482565 ], [ 19.86579706, 48.34816142 ], [ 19.86575682, 48.34809289 ], [ 19.86569467, 48.3480327 ], [ 19.86561071, 48.34793001 ], [ 19.86549959, 48.34788672 ], [ 19.86528949, 48.34782688 ], [ 19.86507493, 48.34776567 ], [ 19.86499643, 48.34773875 ], [ 19.86487095, 48.34769574 ], [ 19.86479022, 48.34766809 ], [ 19.86475945, 48.34764954 ], [ 19.86469341, 48.34760982 ], [ 19.86467833, 48.34759393 ], [ 19.86463613, 48.34754965 ], [ 19.86447184, 48.34748044 ], [ 19.86446402, 48.34747884 ], [ 19.86423856, 48.34743375 ], [ 19.86407132, 48.34740028 ], [ 19.86402342, 48.34738964 ], [ 19.86384328, 48.34734976 ], [ 19.8637775, 48.34733113 ], [ 19.86361209, 48.3472844 ], [ 19.86358547, 48.34727595 ], [ 19.86349799, 48.34724819 ], [ 19.86344094, 48.34723012 ], [ 19.86340417, 48.34722312 ], [ 19.86332586, 48.34720811 ], [ 19.86330201, 48.34720176 ], [ 19.86323045, 48.3471827 ], [ 19.863118, 48.34716558 ], [ 19.86296016, 48.3471536 ], [ 19.86284662, 48.34714499 ], [ 19.86284003, 48.34714182 ], [ 19.86277781, 48.34711154 ], [ 19.86276039, 48.34710304 ], [ 19.8626369, 48.34710769 ], [ 19.86259197, 48.34710944 ], [ 19.86248006, 48.34709793 ], [ 19.86243, 48.34709278 ], [ 19.86235183, 48.34705136 ], [ 19.86230798, 48.34702819 ], [ 19.86226755, 48.34699084 ], [ 19.86217081, 48.3469013 ], [ 19.86215836, 48.34688345 ], [ 19.86207602, 48.34676551 ], [ 19.86196421, 48.34660592 ], [ 19.86191709, 48.34653871 ], [ 19.86178728, 48.34635301 ], [ 19.86175226, 48.34630309 ], [ 19.86170619, 48.34623747 ], [ 19.86166269, 48.34617475 ], [ 19.8616171, 48.34610986 ], [ 19.8615085, 48.34595482 ], [ 19.86141194, 48.34583581 ], [ 19.86134478, 48.34575359 ], [ 19.86128126, 48.34567567 ], [ 19.86122145, 48.34560134 ], [ 19.86112278, 48.34548034 ], [ 19.86109314, 48.34532818 ], [ 19.86107826, 48.34524922 ], [ 19.86106405, 48.34517578 ], [ 19.86104679, 48.34508796 ], [ 19.8610312, 48.34500662 ], [ 19.86101574, 48.34492664 ], [ 19.86100032, 48.34484765 ], [ 19.86097887, 48.34475425 ], [ 19.86096969, 48.34467093 ], [ 19.86095941, 48.34457252 ], [ 19.86094934, 48.34448033 ], [ 19.8608691, 48.34423828 ], [ 19.86080553, 48.34405689 ], [ 19.86077744, 48.34398726 ], [ 19.86075727, 48.34393763 ], [ 19.86073887, 48.34389195 ], [ 19.86069725, 48.3437892 ], [ 19.86066174, 48.34370132 ], [ 19.86064693, 48.34365219 ], [ 19.86062786, 48.34359954 ], [ 19.86060656, 48.34354066 ], [ 19.86059011, 48.34349029 ], [ 19.86057222, 48.34344219 ], [ 19.86056936, 48.34327885 ], [ 19.86099687, 48.34315659 ], [ 19.86015235, 48.34302022 ], [ 19.85947296, 48.34298302 ], [ 19.85885221, 48.34298648 ], [ 19.85835598, 48.34306474 ], [ 19.85799565, 48.34312744 ], [ 19.85754632, 48.34333184 ], [ 19.85734476, 48.34345775 ], [ 19.85653019, 48.34382214 ], [ 19.85638506, 48.34396132 ], [ 19.85618302, 48.34410595 ], [ 19.85571171, 48.34433318 ], [ 19.85547657, 48.34462429 ], [ 19.85525789, 48.34483967 ], [ 19.85510998, 48.34497395 ], [ 19.85473113, 48.34521375 ], [ 19.85428379, 48.34536694 ], [ 19.85408389, 48.34538287 ], [ 19.85407422, 48.34546816 ], [ 19.8541002, 48.34553851 ], [ 19.85403785, 48.34570903 ], [ 19.85424803, 48.34589525 ], [ 19.85430407, 48.34609958 ], [ 19.85443745, 48.34658638 ], [ 19.85429741, 48.34706241 ], [ 19.85424145, 48.34741951 ], [ 19.85416443, 48.34756028 ], [ 19.85451488, 48.34793294 ], [ 19.85509335, 48.34795876 ], [ 19.85683672, 48.34803663 ], [ 19.85743135, 48.34806323 ] ], [ [ 19.8565935, 48.34429419 ], [ 19.85648427, 48.34424142 ], [ 19.85668239, 48.34405939 ], [ 19.85679161, 48.34411225 ], [ 19.8565935, 48.34429419 ] ] ] } },
{ "type": "Feature", "properties": { "@featureType": "CadastralParcel", "areaValue": { "value": 144569, "@uom": "m2" }, "beginLifespanVersion": { "@nilReason": "http://inspire.ec.europa.eu/codelist/VoidReasonValue/Unpopulated", "@nil": "true" }, "endLifespanVersion": { "@nilReason": "http://inspire.ec.europa.eu/codelist/VoidReasonValue/Unpopulated", "@nil": "true" }, "inspireId": { "@dataType": "Identifier", "localId": "820491_411/1.C", "namespace": "SK.ESKN.CP", "versionId": "20260703T07:07:30" }, "label": "411/1", "nationalCadastralReference": "820491_411/1.C", "referencePoint": { "type": "Point", "coordinates": [ 19.85833641, 48.34566778 ] }, "validFrom": "2026-06-30T16:00:00Z", "validTo": { "@nilReason": "http://inspire.ec.europa.eu/codelist/VoidReasonValue/Unpopulated", "@nil": "true" }, "administrativeUnit": { "@href": "#auAdmUnitS.2984" } }, "geometry": { "type": "Polygon", "coordinates": [ [ [ 19.85683672, 48.34803663 ], [ 19.85743135, 48.34806323 ], [ 19.85757947, 48.34821773 ], [ 19.85876334, 48.34813486 ], [ 19.85917043, 48.34797855 ], [ 19.85938722, 48.3478907 ], [ 19.85952152, 48.34783623 ], [ 19.8595653, 48.34781848 ], [ 19.85974403, 48.34724886 ], [ 19.8611313, 48.34677974 ], [ 19.86056044, 48.34585642 ], [ 19.86022886, 48.34467992 ], [ 19.85935592, 48.34396549 ], [ 19.85931452, 48.34394224 ], [ 19.85780973, 48.34327043 ], [ 19.85675098, 48.34377494 ], [ 19.85454509, 48.34539378 ], [ 19.85474518, 48.34532468 ], [ 19.85516234, 48.34547914 ], [ 19.85538632, 48.34482037 ], [ 19.85637528, 48.34589588 ], [ 19.85683672, 48.34803663 ] ], [ [ 19.85668239, 48.34405939 ], [ 19.85679161, 48.34411225 ], [ 19.8565935, 48.34429419 ], [ 19.85648427, 48.34424142 ], [ 19.85668239, 48.34405939 ] ] ] } }
]
}
