{
"type": "FeatureCollection",
"name": "gis",
"crs": { "type": "name", "properties": { "name": "urn:ogc:def:crs:OGC:1.3:CRS84" } },
"features": [
{ "type": "Feature", "properties": { "@featureType": "CadastralZoning", "beginLifespanVersion": { "@nilReason": "http://inspire.ec.europa.eu/codelist/VoidReasonValue/Unpopulated", "@nil": "true" }, "endLifespanVersion": { "@nilReason": "http://inspire.ec.europa.eu/codelist/VoidReasonValue/Unpopulated", "@nil": "true" }, "estimatedAccuracy": { "value": -1, "@uom": "m" }, "inspireId": { "@dataType": "Identifier", "localId": "836044", "namespace": "SK.ESKN.CP", "versionId": "20260703T04:07:40" }, "label": "Margecany", "level": { "@href": "http://inspire.ec.europa.eu/codelist/CadastralZoningLevelValue/3rdOrder" }, "levelName": { "value": "Katastrálne územie", "@locale": "sk" }, "name": { "@dataType": "name", "GeographicalName": { "@dataType": "GeographicalName", "language": "SLK", "nativeness": { "@href": "http://inspire.ec.europa.eu/codelist/NativenessValue/endonym", "@title": "endonym" }, "nameStatus": { "@href": "http://inspire.ec.europa.eu/codelist/NameStatusValue/official", "@title": "official" }, "sourceOfName": { "@nilReason": "http://inspire.ec.europa.eu/codelist/VoidReasonValue/Unpopulated", "@nil": "true" }, "pronunciation": { "@dataType": "pronunciation", "@nilReason": "http://inspire.ec.europa.eu/codelist/VoidReasonValue/Unpopulated", "@nil": "true" }, "spelling": { "@dataType": "SpellingOfName", "text": "Margecany", "script": "LATN" } } }, "nationalCadastalZoningReference": "836044", "validFrom": "2026-06-30T16:00:00Z", "validTo": { "@nilReason": "http://inspire.ec.europa.eu/codelist/VoidReasonValue/Unpopulated", "@nil": "true" } }, "geometry": { "type": "MultiPolygon", "coordinates": [ [ [ [ 21.00191908, 48.92790821 ], [ 21.00363596, 48.92785369 ], [ 21.00459907, 48.92736544 ], [ 21.00644736, 48.92642832 ], [ 21.00774392, 48.92576924 ], [ 21.00844779, 48.92550924 ], [ 21.00904393, 48.92525352 ], [ 21.00987379, 48.92489762 ], [ 21.0101514, 48.9249379 ], [ 21.01119304, 48.92428427 ], [ 21.01159027, 48.92411797 ], [ 21.0118471, 48.92402648 ], [ 21.01270145, 48.92388079 ], [ 21.01291553, 48.92385407 ], [ 21.01351367, 48.92380242 ], [ 21.01311983, 48.92271476 ], [ 21.01310367, 48.92229465 ], [ 21.01321971, 48.92187546 ], [ 21.01335755, 48.92150741 ], [ 21.01340076, 48.92111707 ], [ 21.01346609, 48.92083883 ], [ 21.01358908, 48.92025717 ], [ 21.01360184, 48.92019681 ], [ 21.01360549, 48.92017928 ], [ 21.01362659, 48.92007931 ], [ 21.01367764, 48.91983797 ], [ 21.01372361, 48.91946159 ], [ 21.01377562, 48.91907946 ], [ 21.01390557, 48.91867838 ], [ 21.01431764, 48.91751348 ], [ 21.01457735, 48.91686887 ], [ 21.014824, 48.91563119 ], [ 21.01526711, 48.91500179 ], [ 21.01524774, 48.91410563 ], [ 21.01509001, 48.91374911 ], [ 21.0155958, 48.91296789 ], [ 21.01559673, 48.91296648 ], [ 21.0159733, 48.91253181 ], [ 21.01652922, 48.91198345 ], [ 21.01678347, 48.91176806 ], [ 21.01711791, 48.9114224 ], [ 21.01712087, 48.91141943 ], [ 21.01713984, 48.9113998 ], [ 21.01715614, 48.91138296 ], [ 21.01767446, 48.91084732 ], [ 21.01857209, 48.90997388 ], [ 21.01967305, 48.90897422 ], [ 21.0195117, 48.90886979 ], [ 21.01842566, 48.9078102 ], [ 21.01794886, 48.90699274 ], [ 21.01774774, 48.90664831 ], [ 21.01767954, 48.90653145 ], [ 21.01890357, 48.90658308 ], [ 21.01909889, 48.90657761 ], [ 21.0191661, 48.90657567 ], [ 21.01987622, 48.90655586 ], [ 21.02057945, 48.9063831 ], [ 21.02128286, 48.90617164 ], [ 21.02163694, 48.90583282 ], [ 21.02243808, 48.90547374 ], [ 21.02330723, 48.90509284 ], [ 21.02376475, 48.90489238 ], [ 21.02407721, 48.90469212 ], [ 21.02409094, 48.90467663 ], [ 21.02419349, 48.90456105 ], [ 21.02433738, 48.90439902 ], [ 21.02443138, 48.90434069 ], [ 21.02444184, 48.90433419 ], [ 21.02444557, 48.90433179 ], [ 21.02456164, 48.90425979 ], [ 21.02460864, 48.90423233 ], [ 21.02464236, 48.90421264 ], [ 21.02468052, 48.90419561 ], [ 21.02461319, 48.90411417 ], [ 21.02436721, 48.90399824 ], [ 21.02414984, 48.90393214 ], [ 21.02398443, 48.90366434 ], [ 21.02373966, 48.90357591 ], [ 21.02364416, 48.90348589 ], [ 21.02349541, 48.90345886 ], [ 21.02346692, 48.90330251 ], [ 21.02328977, 48.90322116 ], [ 21.02327286, 48.90317379 ], [ 21.02330923, 48.90317147 ], [ 21.02330412, 48.90312871 ], [ 21.02329767, 48.90307484 ], [ 21.02328675, 48.90298426 ], [ 21.02328254, 48.90294955 ], [ 21.02327432, 48.90288112 ], [ 21.02326524, 48.902806 ], [ 21.02325319, 48.90270512 ], [ 21.02325217, 48.9026968 ], [ 21.02321384, 48.90261838 ], [ 21.02315764, 48.90250345 ], [ 21.02313456, 48.90245632 ], [ 21.02294467, 48.90243893 ], [ 21.02289881, 48.9024222 ], [ 21.02282914, 48.90230485 ], [ 21.02239762, 48.90208324 ], [ 21.02234805, 48.90204335 ], [ 21.02232369, 48.90202958 ], [ 21.023115, 48.90204771 ], [ 21.02314621, 48.90203784 ], [ 21.02318193, 48.90200425 ], [ 21.02321927, 48.90199441 ], [ 21.02288381, 48.90164557 ], [ 21.02277816, 48.90153982 ], [ 21.02235734, 48.90111868 ], [ 21.02229571, 48.90103238 ], [ 21.02208105, 48.90073154 ], [ 21.02184088, 48.9003472 ], [ 21.02148873, 48.8998199 ], [ 21.02140428, 48.89973916 ], [ 21.02153927, 48.89969307 ], [ 21.02095863, 48.89890382 ], [ 21.02043082, 48.89757066 ], [ 21.02058324, 48.89739864 ], [ 21.02048339, 48.89715838 ], [ 21.02026667, 48.8966375 ], [ 21.02026337, 48.89663784 ], [ 21.02034777, 48.89633754 ], [ 21.02035223, 48.89633093 ], [ 21.02043004, 48.89621742 ], [ 21.02051982, 48.8960863 ], [ 21.02052816, 48.89602841 ], [ 21.02054118, 48.89593727 ], [ 21.02054987, 48.89587651 ], [ 21.02056735, 48.89575535 ], [ 21.02057969, 48.89566958 ], [ 21.02014679, 48.89557929 ], [ 21.02015114, 48.89548921 ], [ 21.02015466, 48.89541541 ], [ 21.02015617, 48.89538457 ], [ 21.02017726, 48.89494974 ], [ 21.02023917, 48.89490396 ], [ 21.02061682, 48.89462445 ], [ 21.02088555, 48.89442564 ], [ 21.0211062, 48.89403716 ], [ 21.02100086, 48.89378646 ], [ 21.02082368, 48.8936933 ], [ 21.02038252, 48.89346119 ], [ 21.02049153, 48.89320032 ], [ 21.02054395, 48.89319151 ], [ 21.02057617, 48.89318609 ], [ 21.02103948, 48.89285158 ], [ 21.02203589, 48.89315386 ], [ 21.02330549, 48.89325053 ], [ 21.02368491, 48.89357533 ], [ 21.02433343, 48.89299009 ], [ 21.02436742, 48.89295943 ], [ 21.02438354, 48.89294492 ], [ 21.02440845, 48.89292241 ], [ 21.0245032, 48.89279586 ], [ 21.02451496, 48.89278121 ], [ 21.02454132, 48.89274858 ], [ 21.0245871, 48.89269192 ], [ 21.02503518, 48.89203204 ], [ 21.02434809, 48.89187066 ], [ 21.0235471, 48.89162632 ], [ 21.02340635, 48.89160423 ], [ 21.02291241, 48.89147989 ], [ 21.02260904, 48.89134739 ], [ 21.02219697, 48.89119494 ], [ 21.02180181, 48.89093436 ], [ 21.02151334, 48.89058274 ], [ 21.02053452, 48.88998147 ], [ 21.01989625, 48.88965861 ], [ 21.01890709, 48.88958686 ], [ 21.01867975, 48.88906626 ], [ 21.01833462, 48.88896623 ], [ 21.01806535, 48.88881098 ], [ 21.01755923, 48.88875086 ], [ 21.01699363, 48.88864124 ], [ 21.01637443, 48.88847494 ], [ 21.01579465, 48.888302 ], [ 21.01547829, 48.88816654 ], [ 21.0150845, 48.88802582 ], [ 21.01431622, 48.88779266 ], [ 21.01421531, 48.88776205 ], [ 21.01382027, 48.88774267 ], [ 21.01339329, 48.88775203 ], [ 21.01305794, 48.88775937 ], [ 21.0130512, 48.88776005 ], [ 21.01116087, 48.88794897 ], [ 21.01098802, 48.88791825 ], [ 21.01090903, 48.88790646 ], [ 21.01082487, 48.8878946 ], [ 21.01075438, 48.88788427 ], [ 21.01067225, 48.88786896 ], [ 21.01053805, 48.88782897 ], [ 21.00967794, 48.88730498 ], [ 21.00936136, 48.88710412 ], [ 21.00732173, 48.88580347 ], [ 21.00632143, 48.88520604 ], [ 21.00625345, 48.88516257 ], [ 21.0061986, 48.88512969 ], [ 21.00613365, 48.88509316 ], [ 21.00605684, 48.88505281 ], [ 21.00594575, 48.88498369 ], [ 21.00580142, 48.88484702 ], [ 21.00535334, 48.88390474 ], [ 21.00495564, 48.88355884 ], [ 21.00444139, 48.88333308 ], [ 21.00335627, 48.88282358 ], [ 21.00332502, 48.88280184 ], [ 21.0031891, 48.882693 ], [ 21.00313977, 48.88265581 ], [ 21.00308613, 48.88260695 ], [ 21.00304272, 48.88256194 ], [ 21.00299629, 48.88250989 ], [ 21.0025193, 48.88197309 ], [ 21.00212829, 48.88154132 ], [ 21.00110662, 48.88099707 ], [ 20.99859654, 48.87958563 ], [ 20.99853497, 48.87955146 ], [ 20.99847175, 48.8795138 ], [ 20.99840996, 48.87948079 ], [ 20.99835197, 48.87944447 ], [ 20.99797184, 48.87917737 ], [ 20.99766418, 48.87898622 ], [ 20.99726101, 48.87881416 ], [ 20.99732279, 48.87915836 ], [ 20.99733299, 48.87915879 ], [ 20.99737123, 48.87916761 ], [ 20.9973983, 48.87918508 ], [ 20.99742048, 48.8792112 ], [ 20.99743418, 48.87928432 ], [ 20.99741934, 48.87928554 ], [ 20.99746351, 48.87939243 ], [ 20.99749427, 48.87944396 ], [ 20.99752848, 48.87949678 ], [ 20.99755429, 48.87954697 ], [ 20.99758014, 48.87959492 ], [ 20.99760285, 48.87963925 ], [ 20.99760724, 48.87964975 ], [ 20.99824256, 48.88006548 ], [ 20.99818622, 48.88009918 ], [ 20.99813879, 48.88012868 ], [ 20.99812452, 48.88013505 ], [ 20.99807524, 48.88016557 ], [ 20.99806105, 48.88017086 ], [ 20.99802967, 48.88019396 ], [ 20.99800801, 48.88020585 ], [ 20.99798782, 48.88022013 ], [ 20.99794134, 48.88023705 ], [ 20.99789657, 48.88025502 ], [ 20.99776849, 48.88030562 ], [ 20.99774203, 48.8803161 ], [ 20.99757989, 48.88038016 ], [ 20.99742659, 48.88059219 ], [ 20.99625505, 48.88139086 ], [ 20.99622719, 48.88139822 ], [ 20.99593619, 48.88147459 ], [ 20.99577933, 48.88164166 ], [ 20.99531053, 48.88171134 ], [ 20.99486789, 48.88182313 ], [ 20.99480259, 48.88183817 ], [ 20.99474745, 48.88185588 ], [ 20.99471819, 48.88187446 ], [ 20.99465488, 48.88190802 ], [ 20.99459184, 48.88193808 ], [ 20.99444062, 48.88211712 ], [ 20.99438982, 48.88232389 ], [ 20.99413808, 48.88258236 ], [ 20.99395568, 48.88282295 ], [ 20.99373761, 48.88315574 ], [ 20.99349207, 48.88384796 ], [ 20.99329576, 48.88416904 ], [ 20.9933582, 48.88449534 ], [ 20.99276597, 48.88444442 ], [ 20.99232642, 48.88474143 ], [ 20.99213234, 48.88501693 ], [ 20.99211286, 48.88524436 ], [ 20.99211391, 48.88525385 ], [ 20.99213802, 48.88545751 ], [ 20.99171469, 48.88575649 ], [ 20.99169911, 48.88576741 ], [ 20.99169636, 48.88576939 ], [ 20.99163764, 48.88581085 ], [ 20.99150014, 48.88590795 ], [ 20.99129179, 48.88605503 ], [ 20.99111605, 48.88617725 ], [ 20.99055221, 48.88656423 ], [ 20.99045768, 48.88665988 ], [ 20.99042411, 48.88669371 ], [ 20.98999025, 48.88713262 ], [ 20.98959919, 48.88735162 ], [ 20.98927755, 48.88753222 ], [ 20.98909488, 48.88761441 ], [ 20.98902532, 48.8876457 ], [ 20.9883727, 48.88793933 ], [ 20.98812317, 48.88804956 ], [ 20.98804848, 48.88808724 ], [ 20.98791044, 48.88815002 ], [ 20.98766749, 48.88827074 ], [ 20.9868112, 48.88846478 ], [ 20.98646595, 48.88849791 ], [ 20.98641327, 48.88850301 ], [ 20.98637544, 48.88850662 ], [ 20.9861738, 48.88852596 ], [ 20.98576365, 48.88869939 ], [ 20.98574358, 48.88878544 ], [ 20.98573752, 48.88881117 ], [ 20.98573164, 48.88883645 ], [ 20.98567018, 48.88910013 ], [ 20.98559555, 48.88927846 ], [ 20.98552438, 48.88941324 ], [ 20.98531736, 48.88978086 ], [ 20.98500899, 48.89002159 ], [ 20.98435056, 48.89018102 ], [ 20.98393164, 48.89026339 ], [ 20.98325691, 48.89034457 ], [ 20.98279552, 48.89040005 ], [ 20.9824716, 48.89044153 ], [ 20.9824283, 48.89044712 ], [ 20.98187301, 48.89050371 ], [ 20.98111959, 48.89061936 ], [ 20.98109293, 48.89062343 ], [ 20.98105023, 48.89063003 ], [ 20.98102909, 48.89063329 ], [ 20.98095351, 48.89064492 ], [ 20.9808684, 48.89065794 ], [ 20.98013441, 48.89056003 ], [ 20.97990593, 48.89057658 ], [ 20.97865171, 48.89066272 ], [ 20.9780665, 48.89067823 ], [ 20.97679933, 48.89083191 ], [ 20.9766053, 48.8908586 ], [ 20.97562848, 48.89086865 ], [ 20.97532344, 48.89092209 ], [ 20.97506995, 48.89101209 ], [ 20.97478586, 48.89111295 ], [ 20.97451131, 48.89121053 ], [ 20.97412449, 48.89128519 ], [ 20.9738139, 48.89136473 ], [ 20.97365457, 48.89140194 ], [ 20.97347132, 48.89144474 ], [ 20.97341474, 48.8914579 ], [ 20.97290143, 48.89157779 ], [ 20.97231973, 48.89176681 ], [ 20.97190027, 48.89187541 ], [ 20.97183298, 48.8918928 ], [ 20.97145866, 48.89198967 ], [ 20.97121504, 48.89203613 ], [ 20.9705946, 48.89216209 ], [ 20.96980042, 48.89218501 ], [ 20.9696548, 48.89218926 ], [ 20.96913048, 48.89219757 ], [ 20.96883967, 48.8922023 ], [ 20.96863389, 48.89220572 ], [ 20.96829671, 48.89217928 ], [ 20.967999, 48.89216001 ], [ 20.96756661, 48.89212688 ], [ 20.96753188, 48.89232896 ], [ 20.96760339, 48.89304483 ], [ 20.96774663, 48.89341959 ], [ 20.96786384, 48.89359025 ], [ 20.96802885, 48.89408909 ], [ 20.96842345, 48.89463221 ], [ 20.96867587, 48.89476532 ], [ 20.96878288, 48.89498012 ], [ 20.96887566, 48.89521849 ], [ 20.96913743, 48.89565778 ], [ 20.96967641, 48.89615798 ], [ 20.97002396, 48.89625436 ], [ 20.97023124, 48.8964761 ], [ 20.97022233, 48.89654964 ], [ 20.97021265, 48.89661379 ], [ 20.97028466, 48.89662753 ], [ 20.97039288, 48.89664814 ], [ 20.9705379, 48.89686079 ], [ 20.97066916, 48.89702119 ], [ 20.97098623, 48.89738408 ], [ 20.97127103, 48.89751366 ], [ 20.97134201, 48.89766765 ], [ 20.97171293, 48.89788384 ], [ 20.97198002, 48.8979933 ], [ 20.9720015, 48.89800887 ], [ 20.97256288, 48.89841147 ], [ 20.97303075, 48.89875829 ], [ 20.97319247, 48.89893123 ], [ 20.97351074, 48.89915386 ], [ 20.97416871, 48.89949384 ], [ 20.974709, 48.89977616 ], [ 20.97555182, 48.89993669 ], [ 20.97585236, 48.89996784 ], [ 20.97593346, 48.89997719 ], [ 20.97601796, 48.89998666 ], [ 20.97634852, 48.90002357 ], [ 20.97705622, 48.90000061 ], [ 20.97804216, 48.89993258 ], [ 20.97857908, 48.89986576 ], [ 20.97883476, 48.89992116 ], [ 20.97906413, 48.89993102 ], [ 20.97907147, 48.89992073 ], [ 20.97907698, 48.89991299 ], [ 20.97907999, 48.89990751 ], [ 20.97923961, 48.89999564 ], [ 20.97936752, 48.90022553 ], [ 20.97941004, 48.90053615 ], [ 20.97947534, 48.90063619 ], [ 20.97955425, 48.9010946 ], [ 20.97959706, 48.9012155 ], [ 20.97975795, 48.9017719 ], [ 20.97976111, 48.901829 ], [ 20.9798173, 48.90198565 ], [ 20.98000661, 48.90217174 ], [ 20.98008594, 48.90234554 ], [ 20.98019161, 48.90245529 ], [ 20.98019655, 48.90258557 ], [ 20.98025001, 48.90267973 ], [ 20.98048144, 48.90290269 ], [ 20.98053122, 48.90299132 ], [ 20.98064526, 48.90309874 ], [ 20.98065405, 48.90318584 ], [ 20.98069549, 48.9033229 ], [ 20.98065158, 48.90358689 ], [ 20.98057419, 48.90371677 ], [ 20.98035951, 48.90395799 ], [ 20.98040151, 48.90399477 ], [ 20.98036099, 48.90417486 ], [ 20.98024358, 48.90429234 ], [ 20.98030541, 48.90438416 ], [ 20.98034773, 48.90469756 ], [ 20.98054848, 48.90489493 ], [ 20.98064938, 48.90510474 ], [ 20.98072553, 48.90517543 ], [ 20.98081315, 48.90520859 ], [ 20.98088726, 48.90530604 ], [ 20.98089172, 48.90531195 ], [ 20.9809456, 48.90538271 ], [ 20.98095242, 48.90539176 ], [ 20.9809533, 48.90539287 ], [ 20.98111071, 48.90561572 ], [ 20.98132334, 48.90586507 ], [ 20.98146157, 48.90592062 ], [ 20.98152626, 48.90595356 ], [ 20.98153352, 48.90594786 ], [ 20.98159815, 48.90599241 ], [ 20.98173595, 48.90591027 ], [ 20.98187241, 48.90589408 ], [ 20.98192985, 48.90585016 ], [ 20.98324444, 48.9057403 ], [ 20.98347303, 48.90576255 ], [ 20.9837865, 48.90585038 ], [ 20.98390093, 48.90590631 ], [ 20.98392487, 48.90596139 ], [ 20.98400576, 48.90609004 ], [ 20.98407634, 48.90629822 ], [ 20.98426884, 48.90658075 ], [ 20.98448716, 48.90673961 ], [ 20.98472468, 48.90680961 ], [ 20.98494635, 48.90681164 ], [ 20.98494644, 48.90681597 ], [ 20.98494873, 48.9069023 ], [ 20.98493648, 48.90690172 ], [ 20.98492923, 48.90711515 ], [ 20.98491867, 48.90716405 ], [ 20.98496585, 48.90728339 ], [ 20.9851304, 48.90752763 ], [ 20.98534993, 48.90768869 ], [ 20.9855844, 48.9079637 ], [ 20.98583356, 48.90830222 ], [ 20.98589862, 48.90867274 ], [ 20.98596137, 48.90884949 ], [ 20.98596856, 48.90890024 ], [ 20.98613145, 48.90909482 ], [ 20.98620915, 48.90928152 ], [ 20.98644613, 48.90949331 ], [ 20.98652342, 48.90962265 ], [ 20.9865576, 48.90973165 ], [ 20.98663843, 48.9098702 ], [ 20.98668433, 48.90990603 ], [ 20.98677704, 48.91004992 ], [ 20.98680472, 48.91026387 ], [ 20.98684107, 48.91039105 ], [ 20.98693526, 48.91051374 ], [ 20.98698452, 48.91063278 ], [ 20.98700372, 48.91073219 ], [ 20.9872526, 48.91094213 ], [ 20.98736693, 48.91106233 ], [ 20.98744442, 48.91118907 ], [ 20.98757624, 48.91136667 ], [ 20.98766109, 48.91151525 ], [ 20.98786503, 48.91173774 ], [ 20.98796546, 48.91180554 ], [ 20.98822958, 48.91207558 ], [ 20.98836217, 48.91228076 ], [ 20.98838198, 48.91230041 ], [ 20.98852303, 48.91241241 ], [ 20.98854748, 48.91249678 ], [ 20.98866819, 48.91262305 ], [ 20.98881608, 48.91281568 ], [ 20.98906618, 48.91299179 ], [ 20.98939927, 48.91331957 ], [ 20.98948894, 48.91345877 ], [ 20.99003768, 48.9138198 ], [ 20.99023376, 48.91399142 ], [ 20.99053033, 48.91428585 ], [ 20.99083074, 48.91465199 ], [ 20.99138718, 48.91533372 ], [ 20.99139966, 48.91532603 ], [ 20.99141463, 48.91534822 ], [ 20.99174324, 48.91583585 ], [ 20.99177187, 48.91586534 ], [ 20.99197325, 48.91604299 ], [ 20.99214936, 48.91624744 ], [ 20.99262032, 48.91658617 ], [ 20.99281213, 48.91673711 ], [ 20.99316069, 48.91688189 ], [ 20.99354531, 48.9172011 ], [ 20.99356486, 48.91719013 ], [ 20.99391842, 48.91750273 ], [ 20.99456484, 48.91774613 ], [ 20.99479579, 48.91781544 ], [ 20.99499724, 48.91788278 ], [ 20.99479181, 48.91906597 ], [ 20.99432785, 48.91973927 ], [ 20.99396517, 48.92008331 ], [ 20.99398902, 48.92009661 ], [ 20.99355567, 48.92047325 ], [ 20.99287813, 48.92113048 ], [ 20.99252668, 48.92134271 ], [ 20.9923158, 48.92145657 ], [ 20.99176696, 48.92190709 ], [ 20.99161659, 48.92235673 ], [ 20.99141368, 48.92276241 ], [ 20.99133423, 48.92306124 ], [ 20.99126501, 48.92315926 ], [ 20.99109455, 48.92379552 ], [ 20.99095836, 48.92413425 ], [ 20.99096289, 48.92413575 ], [ 20.99098061, 48.92414165 ], [ 20.99098999, 48.92420337 ], [ 20.99107487, 48.92448467 ], [ 20.99122732, 48.92498953 ], [ 20.99129704, 48.92509862 ], [ 20.99149239, 48.92540428 ], [ 20.99206665, 48.92564008 ], [ 20.99331629, 48.92615319 ], [ 20.99463623, 48.92668716 ], [ 20.9951543, 48.92689678 ], [ 20.99521595, 48.92691619 ], [ 20.99702345, 48.92748487 ], [ 20.99842392, 48.92793303 ], [ 20.99879928, 48.92795478 ], [ 20.99944701, 48.92799226 ], [ 21.00191908, 48.92790821 ] ] ] ] } },
{ "type": "Feature", "properties": { "@featureType": "CadastralZoning", "beginLifespanVersion": { "@nilReason": "http://inspire.ec.europa.eu/codelist/VoidReasonValue/Unpopulated", "@nil": "true" }, "endLifespanVersion": { "@nilReason": "http://inspire.ec.europa.eu/codelist/VoidReasonValue/Unpopulated", "@nil": "true" }, "estimatedAccuracy": { "value": -1, "@uom": "m" }, "inspireId": { "@dataType": "Identifier", "localId": "836052", "namespace": "SK.ESKN.CP", "versionId": "20260703T04:07:40" }, "label": "Rolova Huta", "level": { "@href": "http://inspire.ec.europa.eu/codelist/CadastralZoningLevelValue/3rdOrder" }, "levelName": { "value": "Katastrálne územie", "@locale": "sk" }, "name": { "@dataType": "name", "GeographicalName": { "@dataType": "GeographicalName", "language": "SLK", "nativeness": { "@href": "http://inspire.ec.europa.eu/codelist/NativenessValue/endonym", "@title": "endonym" }, "nameStatus": { "@href": "http://inspire.ec.europa.eu/codelist/NameStatusValue/official", "@title": "official" }, "sourceOfName": { "@nilReason": "http://inspire.ec.europa.eu/codelist/VoidReasonValue/Unpopulated", "@nil": "true" }, "pronunciation": { "@dataType": "pronunciation", "@nilReason": "http://inspire.ec.europa.eu/codelist/VoidReasonValue/Unpopulated", "@nil": "true" }, "spelling": { "@dataType": "SpellingOfName", "text": "Rolova Huta", "script": "LATN" } } }, "nationalCadastalZoningReference": "836052", "validFrom": "2026-06-30T16:00:00Z", "validTo": { "@nilReason": "http://inspire.ec.europa.eu/codelist/VoidReasonValue/Unpopulated", "@nil": "true" } }, "geometry": { "type": "MultiPolygon", "coordinates": [ [ [ [ 21.05781982, 48.90572251 ], [ 21.05804618, 48.90570907 ], [ 21.05818595, 48.9056866 ], [ 21.05809606, 48.90564659 ], [ 21.05650572, 48.90493798 ], [ 21.05631935, 48.90485494 ], [ 21.05584357, 48.90404724 ], [ 21.05567184, 48.90375578 ], [ 21.05555768, 48.90345621 ], [ 21.05553489, 48.90315663 ], [ 21.05553158, 48.90295448 ], [ 21.05559709, 48.90254073 ], [ 21.05568789, 48.90241871 ], [ 21.05576043, 48.90242206 ], [ 21.05583977, 48.90218127 ], [ 21.0560982, 48.90191055 ], [ 21.05617759, 48.90174936 ], [ 21.05634996, 48.90153185 ], [ 21.05659648, 48.90141129 ], [ 21.05675247, 48.90126483 ], [ 21.05695303, 48.90095712 ], [ 21.0570169, 48.90085898 ], [ 21.05738901, 48.90056927 ], [ 21.05747961, 48.900426 ], [ 21.05744813, 48.9001147 ], [ 21.05755845, 48.89958176 ], [ 21.05753727, 48.89920561 ], [ 21.05750851, 48.8989858 ], [ 21.0575399, 48.89870293 ], [ 21.05762645, 48.89842582 ], [ 21.05779625, 48.89806344 ], [ 21.0579488, 48.89788247 ], [ 21.0581338, 48.8977076 ], [ 21.05856093, 48.89744687 ], [ 21.05872793, 48.89729356 ], [ 21.05901094, 48.89708081 ], [ 21.05924239, 48.89682704 ], [ 21.05926629, 48.89679595 ], [ 21.05940107, 48.89662061 ], [ 21.05988354, 48.89625858 ], [ 21.05996171, 48.89616451 ], [ 21.06004006, 48.89612113 ], [ 21.0600724, 48.8961013 ], [ 21.06035183, 48.89588699 ], [ 21.06036247, 48.8957684 ], [ 21.06030135, 48.8955849 ], [ 21.06033245, 48.8951504 ], [ 21.06027038, 48.89516234 ], [ 21.06026594, 48.89504811 ], [ 21.06034158, 48.89488193 ], [ 21.06080719, 48.89446379 ], [ 21.06093358, 48.89429827 ], [ 21.06108509, 48.89406135 ], [ 21.06115402, 48.89392466 ], [ 21.0614262, 48.89358596 ], [ 21.0616995, 48.89320839 ], [ 21.06190806, 48.89289148 ], [ 21.06195641, 48.89291133 ], [ 21.0620684, 48.89280134 ], [ 21.06231841, 48.89253997 ], [ 21.06263182, 48.89211158 ], [ 21.0628467, 48.8919238 ], [ 21.06306419, 48.89160772 ], [ 21.0630109, 48.89160455 ], [ 21.06317718, 48.89132138 ], [ 21.06325153, 48.8910553 ], [ 21.06335001, 48.89092128 ], [ 21.06367892, 48.89065446 ], [ 21.06395518, 48.89050028 ], [ 21.06439624, 48.89007899 ], [ 21.06448368, 48.88988249 ], [ 21.06482367, 48.88950177 ], [ 21.06494569, 48.8892773 ], [ 21.06494662, 48.88909105 ], [ 21.06481499, 48.88864649 ], [ 21.06471788, 48.88827185 ], [ 21.06454493, 48.88785414 ], [ 21.06448611, 48.88760859 ], [ 21.06439631, 48.88743244 ], [ 21.06424051, 48.88721859 ], [ 21.06413585, 48.887066 ], [ 21.06411433, 48.88688045 ], [ 21.06419291, 48.88667088 ], [ 21.06440841, 48.88629692 ], [ 21.06448122, 48.8860823 ], [ 21.06453247, 48.8859462 ], [ 21.06460177, 48.88578963 ], [ 21.06476601, 48.88559939 ], [ 21.06482926, 48.88546153 ], [ 21.06495915, 48.88526874 ], [ 21.0652007, 48.88498648 ], [ 21.06544758, 48.88450271 ], [ 21.06549915, 48.88438427 ], [ 21.06551829, 48.88397576 ], [ 21.06556611, 48.88345546 ], [ 21.06556479, 48.88327003 ], [ 21.06542844, 48.8828834 ], [ 21.0652944, 48.88276236 ], [ 21.0651477, 48.88262245 ], [ 21.06506523, 48.88247256 ], [ 21.06502853, 48.88232038 ], [ 21.06502634, 48.88170562 ], [ 21.06501473, 48.881552 ], [ 21.06498427, 48.88144792 ], [ 21.06500182, 48.88129687 ], [ 21.06519147, 48.88069437 ], [ 21.06529572, 48.88036011 ], [ 21.0653683, 48.88021796 ], [ 21.06541515, 48.88012242 ], [ 21.06543878, 48.88006187 ], [ 21.0654494, 48.87998352 ], [ 21.06534977, 48.87975988 ], [ 21.06537865, 48.8795558 ], [ 21.06557316, 48.87929614 ], [ 21.06559168, 48.87915025 ], [ 21.06553632, 48.87889329 ], [ 21.06565491, 48.87877108 ], [ 21.06567518, 48.87858897 ], [ 21.06569728, 48.87847209 ], [ 21.06580189, 48.87824445 ], [ 21.06575934, 48.87818356 ], [ 21.06558951, 48.87794035 ], [ 21.0653891, 48.87762214 ], [ 21.0649362, 48.87695025 ], [ 21.06395575, 48.87557201 ], [ 21.0637846, 48.8753247 ], [ 21.06361206, 48.8750706 ], [ 21.06349368, 48.87501066 ], [ 21.06336797, 48.87490447 ], [ 21.06331599, 48.87486029 ], [ 21.06308819, 48.87479608 ], [ 21.06289195, 48.87481185 ], [ 21.0626639, 48.87484983 ], [ 21.06230587, 48.87486071 ], [ 21.06198277, 48.87485904 ], [ 21.06171873, 48.87492915 ], [ 21.06159483, 48.87500724 ], [ 21.06146311, 48.8752358 ], [ 21.06127672, 48.87536093 ], [ 21.06114571, 48.87550677 ], [ 21.06092332, 48.87564801 ], [ 21.06084442, 48.87624753 ], [ 21.06059832, 48.87660563 ], [ 21.06053592, 48.87669004 ], [ 21.06049291, 48.87682901 ], [ 21.06022975, 48.87718331 ], [ 21.06006129, 48.87731686 ], [ 21.05995463, 48.87743269 ], [ 21.05992255, 48.87746739 ], [ 21.05979673, 48.87760394 ], [ 21.05975963, 48.87783755 ], [ 21.05908987, 48.87847414 ], [ 21.05898778, 48.87866756 ], [ 21.05859798, 48.87878895 ], [ 21.05852975, 48.87892386 ], [ 21.05831353, 48.87908259 ], [ 21.05814392, 48.87918575 ], [ 21.05782118, 48.87948211 ], [ 21.05735043, 48.87980786 ], [ 21.05715016, 48.88010937 ], [ 21.05692997, 48.88024798 ], [ 21.05660931, 48.88039035 ], [ 21.05633955, 48.88054742 ], [ 21.05557834, 48.88087975 ], [ 21.0553339, 48.88102135 ], [ 21.05509552, 48.88109463 ], [ 21.05488727, 48.88122687 ], [ 21.05470523, 48.8814139 ], [ 21.05436222, 48.88159749 ], [ 21.05397491, 48.88177459 ], [ 21.05363182, 48.88198654 ], [ 21.05350173, 48.88220524 ], [ 21.05324572, 48.88232431 ], [ 21.05309191, 48.88236928 ], [ 21.05290526, 48.88239165 ], [ 21.05259143, 48.88239854 ], [ 21.0522319, 48.88240313 ], [ 21.05171736, 48.8825308 ], [ 21.05164462, 48.88253041 ], [ 21.05138669, 48.88252921 ], [ 21.05133901, 48.88252595 ], [ 21.05115946, 48.88250993 ], [ 21.0510706, 48.88250244 ], [ 21.05098595, 48.88249527 ], [ 21.0507349, 48.88241317 ], [ 21.05049104, 48.88233338 ], [ 21.05019917, 48.88222933 ], [ 21.050176, 48.88193172 ], [ 21.05019102, 48.88176222 ], [ 21.05018648, 48.88168617 ], [ 21.0498267, 48.88169416 ], [ 21.04939663, 48.88170923 ], [ 21.04889861, 48.88172379 ], [ 21.04883925, 48.88171979 ], [ 21.04865937, 48.88170465 ], [ 21.04847353, 48.8816723 ], [ 21.04836022, 48.88165231 ], [ 21.04815534, 48.88160809 ], [ 21.04795072, 48.88156594 ], [ 21.04749788, 48.88146951 ], [ 21.04728324, 48.88141903 ], [ 21.04693364, 48.8813021 ], [ 21.04665993, 48.88125104 ], [ 21.04650183, 48.88124039 ], [ 21.04635011, 48.88123913 ], [ 21.04615531, 48.8812317 ], [ 21.04569993, 48.88124215 ], [ 21.0454682, 48.88123936 ], [ 21.04535413, 48.88123492 ], [ 21.04522729, 48.88126788 ], [ 21.04495606, 48.88136212 ], [ 21.04459857, 48.88145247 ], [ 21.04450034, 48.88148249 ], [ 21.04445092, 48.88148988 ], [ 21.04437024, 48.88151534 ], [ 21.04402939, 48.88164216 ], [ 21.04389441, 48.88167629 ], [ 21.04378225, 48.88174106 ], [ 21.0436444, 48.88182065 ], [ 21.04339439, 48.88196502 ], [ 21.04314548, 48.88217641 ], [ 21.04309164, 48.88222264 ], [ 21.04299819, 48.88238364 ], [ 21.04292284, 48.88262546 ], [ 21.04278648, 48.88297441 ], [ 21.04275794, 48.88312924 ], [ 21.04276551, 48.88321746 ], [ 21.04299465, 48.88359518 ], [ 21.04310783, 48.88370971 ], [ 21.04335292, 48.88401511 ], [ 21.04392053, 48.88451993 ], [ 21.04435253, 48.88509271 ], [ 21.04465872, 48.88556109 ], [ 21.04484197, 48.88588652 ], [ 21.0451291, 48.88635419 ], [ 21.04516259, 48.88645198 ], [ 21.04515207, 48.88652133 ], [ 21.04514272, 48.88658225 ], [ 21.04504548, 48.88667542 ], [ 21.04493542, 48.88673756 ], [ 21.04467283, 48.88693094 ], [ 21.04431568, 48.88712368 ], [ 21.04403455, 48.88730026 ], [ 21.04385772, 48.88739335 ], [ 21.0437846, 48.88743256 ], [ 21.04347532, 48.88749657 ], [ 21.04256526, 48.88779758 ], [ 21.04221717, 48.88788382 ], [ 21.04122648, 48.88809286 ], [ 21.04097696, 48.8881246 ], [ 21.04074878, 48.88815596 ], [ 21.04067009, 48.88817464 ], [ 21.04039333, 48.88818198 ], [ 21.04018259, 48.88816835 ], [ 21.04004033, 48.88816451 ], [ 21.03913428, 48.8882408 ], [ 21.03903513, 48.88826295 ], [ 21.03889699, 48.88830057 ], [ 21.03790167, 48.88892335 ], [ 21.03734167, 48.88926016 ], [ 21.036871, 48.88952552 ], [ 21.03615725, 48.88979859 ], [ 21.03584272, 48.88998486 ], [ 21.03555327, 48.89009353 ], [ 21.03521541, 48.89035935 ], [ 21.03495971, 48.89046407 ], [ 21.03464949, 48.89065633 ], [ 21.03436112, 48.89086867 ], [ 21.03395319, 48.89110005 ], [ 21.03373745, 48.89121805 ], [ 21.03342328, 48.89131933 ], [ 21.03290665, 48.89152725 ], [ 21.03240126, 48.89169466 ], [ 21.03134869, 48.89191502 ], [ 21.03111423, 48.89198397 ], [ 21.0303183, 48.89212529 ], [ 21.02985242, 48.89219026 ], [ 21.02850399, 48.89234274 ], [ 21.02741236, 48.89236703 ], [ 21.02708281, 48.89238414 ], [ 21.02666226, 48.89235676 ], [ 21.02640898, 48.89232388 ], [ 21.0260772, 48.89225637 ], [ 21.02538854, 48.89211034 ], [ 21.02503518, 48.89203204 ], [ 21.0245871, 48.89269192 ], [ 21.02454132, 48.89274858 ], [ 21.02451496, 48.89278121 ], [ 21.0245032, 48.89279586 ], [ 21.02440845, 48.89292241 ], [ 21.02438354, 48.89294492 ], [ 21.02436742, 48.89295943 ], [ 21.02433343, 48.89299009 ], [ 21.02368491, 48.89357533 ], [ 21.02330549, 48.89325053 ], [ 21.02203589, 48.89315386 ], [ 21.02103948, 48.89285158 ], [ 21.02057617, 48.89318609 ], [ 21.02054395, 48.89319151 ], [ 21.02049153, 48.89320032 ], [ 21.02038252, 48.89346119 ], [ 21.02082368, 48.8936933 ], [ 21.02100086, 48.89378646 ], [ 21.0211062, 48.89403716 ], [ 21.02088555, 48.89442564 ], [ 21.02061682, 48.89462445 ], [ 21.02023917, 48.89490396 ], [ 21.02017726, 48.89494974 ], [ 21.02015617, 48.89538457 ], [ 21.02015466, 48.89541541 ], [ 21.02015114, 48.89548921 ], [ 21.02014679, 48.89557929 ], [ 21.02057969, 48.89566958 ], [ 21.02056735, 48.89575535 ], [ 21.02054987, 48.89587651 ], [ 21.02054118, 48.89593727 ], [ 21.02052816, 48.89602841 ], [ 21.02051982, 48.8960863 ], [ 21.02043004, 48.89621742 ], [ 21.02035223, 48.89633093 ], [ 21.02034777, 48.89633754 ], [ 21.02026337, 48.89663784 ], [ 21.02026667, 48.8966375 ], [ 21.02048339, 48.89715838 ], [ 21.02058324, 48.89739864 ], [ 21.02043082, 48.89757066 ], [ 21.02095863, 48.89890382 ], [ 21.02153927, 48.89969307 ], [ 21.02140428, 48.89973916 ], [ 21.02148873, 48.8998199 ], [ 21.02184088, 48.9003472 ], [ 21.02208105, 48.90073154 ], [ 21.02229571, 48.90103238 ], [ 21.02235734, 48.90111868 ], [ 21.02277816, 48.90153982 ], [ 21.02288381, 48.90164557 ], [ 21.02321927, 48.90199441 ], [ 21.02318193, 48.90200425 ], [ 21.02314621, 48.90203784 ], [ 21.023115, 48.90204771 ], [ 21.02232369, 48.90202958 ], [ 21.02234805, 48.90204335 ], [ 21.02239762, 48.90208324 ], [ 21.02282914, 48.90230485 ], [ 21.02289881, 48.9024222 ], [ 21.02294467, 48.90243893 ], [ 21.02313456, 48.90245632 ], [ 21.02315764, 48.90250345 ], [ 21.02321384, 48.90261838 ], [ 21.02325217, 48.9026968 ], [ 21.02325319, 48.90270512 ], [ 21.02326524, 48.902806 ], [ 21.02327432, 48.90288112 ], [ 21.02328254, 48.90294955 ], [ 21.02328675, 48.90298426 ], [ 21.02329767, 48.90307484 ], [ 21.02330412, 48.90312871 ], [ 21.02330923, 48.90317147 ], [ 21.02327286, 48.90317379 ], [ 21.02328977, 48.90322116 ], [ 21.02346692, 48.90330251 ], [ 21.02349541, 48.90345886 ], [ 21.02364416, 48.90348589 ], [ 21.02373966, 48.90357591 ], [ 21.02398443, 48.90366434 ], [ 21.02414984, 48.90393214 ], [ 21.02436721, 48.90399824 ], [ 21.02461319, 48.90411417 ], [ 21.02468052, 48.90419561 ], [ 21.0247279, 48.90418312 ], [ 21.02477315, 48.90418262 ], [ 21.02487648, 48.9041454 ], [ 21.02495483, 48.904108 ], [ 21.02538074, 48.9039046 ], [ 21.02704568, 48.90381186 ], [ 21.02796782, 48.90449747 ], [ 21.02805053, 48.9045036 ], [ 21.02818144, 48.90450285 ], [ 21.02993681, 48.90390062 ], [ 21.03149583, 48.90379769 ], [ 21.03249098, 48.90378091 ], [ 21.03311321, 48.90374859 ], [ 21.03333073, 48.90348073 ], [ 21.03345537, 48.90344519 ], [ 21.0339669, 48.9032994 ], [ 21.03432255, 48.90340837 ], [ 21.03476842, 48.90319668 ], [ 21.03477061, 48.90318937 ], [ 21.03543447, 48.90312095 ], [ 21.03599882, 48.90308087 ], [ 21.0359993, 48.90309088 ], [ 21.03748374, 48.90357789 ], [ 21.03754187, 48.9035968 ], [ 21.03768778, 48.9037233 ], [ 21.03781019, 48.90379735 ], [ 21.03907738, 48.90413713 ], [ 21.03952615, 48.90430657 ], [ 21.03982892, 48.90444323 ], [ 21.04031283, 48.90459409 ], [ 21.0408373, 48.90465047 ], [ 21.04130799, 48.90472454 ], [ 21.0420685, 48.90485705 ], [ 21.04259526, 48.90479194 ], [ 21.04260202, 48.90480198 ], [ 21.04409345, 48.90497903 ], [ 21.04409295, 48.90496389 ], [ 21.04366997, 48.90485087 ], [ 21.04367489, 48.90483995 ], [ 21.04352438, 48.9045851 ], [ 21.04412427, 48.90445007 ], [ 21.04425727, 48.90445954 ], [ 21.04446072, 48.90444205 ], [ 21.04508898, 48.90440221 ], [ 21.04516019, 48.90439787 ], [ 21.04541875, 48.90438856 ], [ 21.04560632, 48.90439162 ], [ 21.04602023, 48.90427411 ], [ 21.04639962, 48.90425802 ], [ 21.04650268, 48.90426435 ], [ 21.04660577, 48.90425007 ], [ 21.04690965, 48.90413914 ], [ 21.04709771, 48.90409377 ], [ 21.04759445, 48.90401353 ], [ 21.04830763, 48.90395204 ], [ 21.04871275, 48.90392617 ], [ 21.04924951, 48.90392249 ], [ 21.04958111, 48.90395175 ], [ 21.05015177, 48.90406425 ], [ 21.05065258, 48.90419769 ], [ 21.05084665, 48.90425425 ], [ 21.05110702, 48.904301 ], [ 21.05129547, 48.90436881 ], [ 21.05188191, 48.90446596 ], [ 21.05245083, 48.90452337 ], [ 21.05344947, 48.90467157 ], [ 21.05389982, 48.90481497 ], [ 21.05429772, 48.90491669 ], [ 21.05434433, 48.90498556 ], [ 21.05437882, 48.90498083 ], [ 21.0544801, 48.9049671 ], [ 21.05547509, 48.90532486 ], [ 21.05593877, 48.90550209 ], [ 21.05646375, 48.90561406 ], [ 21.05698479, 48.90570375 ], [ 21.05781982, 48.90572251 ] ] ] ] } }
]
}
