{
"type": "FeatureCollection",
"name": "gis",
"crs": { "type": "name", "properties": { "name": "urn:ogc:def:crs:OGC:1.3:CRS84" } },
"features": [
{ "type": "Feature", "properties": { "@featureType": "CadastralZoning", "beginLifespanVersion": { "@nilReason": "http://inspire.ec.europa.eu/codelist/VoidReasonValue/Unpopulated", "@nil": "true" }, "endLifespanVersion": { "@nilReason": "http://inspire.ec.europa.eu/codelist/VoidReasonValue/Unpopulated", "@nil": "true" }, "estimatedAccuracy": { "value": -1, "@uom": "m" }, "inspireId": { "@dataType": "Identifier", "localId": "860522", "namespace": "SK.ESKN.CP", "versionId": "20260703T04:07:40" }, "label": "Šarišské Jastrabie", "level": { "@href": "http://inspire.ec.europa.eu/codelist/CadastralZoningLevelValue/3rdOrder" }, "levelName": { "value": "Katastrálne územie", "@locale": "sk" }, "name_1": { "@dataType": "name", "GeographicalName": { "@dataType": "GeographicalName", "language": "SLK", "nativeness": { "@href": "http://inspire.ec.europa.eu/codelist/NativenessValue/endonym", "@title": "endonym" }, "nameStatus": { "@href": "http://inspire.ec.europa.eu/codelist/NameStatusValue/official", "@title": "official" }, "sourceOfName": { "@nilReason": "http://inspire.ec.europa.eu/codelist/VoidReasonValue/Unpopulated", "@nil": "true" }, "pronunciation": { "@dataType": "pronunciation", "@nilReason": "http://inspire.ec.europa.eu/codelist/VoidReasonValue/Unpopulated", "@nil": "true" }, "spelling": { "@dataType": "SpellingOfName", "text": "Šarišské Jastrabie", "script": "LATN" } } }, "nationalCadastalZoningReference": "860522", "validFrom": "2026-06-30T16:00:00Z", "validTo": { "@nilReason": "http://inspire.ec.europa.eu/codelist/VoidReasonValue/Unpopulated", "@nil": "true" }, "place_id": 418690059, "osm_type": "relation", "osm_id": 2276200, "place_rank": 22, "category": "place", "type": "cadastral_community", "importance": 0.10672120469977872, "addresstype": "cadastral_community", "name_2": "Šarišské Jastrabie", "display_name": "Šarišské Jastrabie, okres Stará Ľubovňa, Prešovský kraj, 065 48, Slovensko" }, "geometry": { "type": "Polygon", "coordinates": [ [ [ 20.910814089332678, 49.264905769084571 ], [ 20.9108212, 49.2648955 ], [ 20.9120117, 49.2650625 ], [ 20.9123161, 49.2651843 ], [ 20.9128785, 49.265167 ], [ 20.9137545, 49.2653563 ], [ 20.9144051, 49.2654016 ], [ 20.914614638260801, 49.265451599111408 ], [ 20.91462294, 49.26538578 ], [ 20.91465168, 49.26515706 ], [ 20.91465969, 49.2650934 ], [ 20.91468129, 49.2649209 ], [ 20.91469357, 49.26482363 ], [ 20.91469793, 49.26478893 ], [ 20.91473857, 49.26446616 ], [ 20.91491784, 49.26409636 ], [ 20.9148482, 49.26356166 ], [ 20.914861662468812, 49.263565442648307 ], [ 20.9148599, 49.2635519 ], [ 20.915466019554994, 49.263722110985071 ], [ 20.91546076, 49.26365743 ], [ 20.91545917, 49.26363721 ], [ 20.91545717, 49.26361356 ], [ 20.91544415, 49.26345097 ], [ 20.91546563, 49.26342432 ], [ 20.91555126, 49.26331788 ], [ 20.91558219, 49.26327948 ], [ 20.91560017, 49.26325713 ], [ 20.91564315, 49.26320364 ], [ 20.91567514, 49.26316393 ], [ 20.9157076, 49.26312351 ], [ 20.9157946, 49.26301541 ], [ 20.91581258, 49.26299305 ], [ 20.91583254, 49.26296833 ], [ 20.91589349, 49.26289249 ], [ 20.91587594, 49.26283185 ], [ 20.91582949, 49.26267102 ], [ 20.91581261, 49.26261248 ], [ 20.91580371, 49.26258193 ], [ 20.91578532, 49.26251802 ], [ 20.91580105, 49.26250333 ], [ 20.91599216, 49.26232524 ], [ 20.91603711, 49.26228335 ], [ 20.9160978, 49.26222677 ], [ 20.91609868, 49.26197074 ], [ 20.91610012, 49.2615316 ], [ 20.916111785450394, 49.26152621574861 ], [ 20.9161118, 49.261522 ], [ 20.916542555979397, 49.261323137237298 ], [ 20.91652996, 49.26127345 ], [ 20.91650644, 49.26118002 ], [ 20.91649856, 49.26114879 ], [ 20.9164911, 49.26111928 ], [ 20.91638762, 49.26070949 ], [ 20.91655223, 49.26054285 ], [ 20.91661915, 49.26047513 ], [ 20.916621207749287, 49.260475198813111 ], [ 20.9166307, 49.2604656 ], [ 20.9168306, 49.2604723 ], [ 20.9190696, 49.2599237 ], [ 20.9199353, 49.2604986 ], [ 20.923161, 49.2613436 ], [ 20.9241009, 49.2618262 ], [ 20.9245878, 49.2622183 ], [ 20.9254765, 49.2621884 ], [ 20.9257548, 49.2622889 ], [ 20.9272722, 49.2626084 ], [ 20.9288295, 49.2627302 ], [ 20.929747805481703, 49.262499780510481 ], [ 20.93015183, 49.26175348 ], [ 20.93091894, 49.26099829 ], [ 20.93092414, 49.26099324 ], [ 20.930925885238725, 49.260992371610378 ], [ 20.9309355, 49.2609829 ], [ 20.931133994582115, 49.260888821310544 ], [ 20.93220736, 49.26035474 ], [ 20.93307601, 49.25995576 ], [ 20.93329499, 49.2598552 ], [ 20.933934384624816, 49.259561545662095 ], [ 20.9342632, 49.2594057 ], [ 20.9365496, 49.2589213 ], [ 20.9376144, 49.2592315 ], [ 20.94024, 49.2581371 ], [ 20.9424614, 49.2574761 ], [ 20.9450287, 49.257548 ], [ 20.9463559, 49.2571509 ], [ 20.9475174, 49.2571614 ], [ 20.9484933, 49.2574784 ], [ 20.9486335, 49.257464 ], [ 20.951025561666064, 49.256064884636586 ], [ 20.95191688, 49.25488606 ], [ 20.951923851977366, 49.254882913553054 ], [ 20.9519284, 49.2548769 ], [ 20.9531947, 49.2543055 ], [ 20.9539417, 49.2550528 ], [ 20.9546686, 49.2555495 ], [ 20.9551733, 49.2557124 ], [ 20.9570857, 49.2554011 ], [ 20.9584968, 49.2559982 ], [ 20.9591944, 49.2580638 ], [ 20.9598372, 49.2585251 ], [ 20.9601939, 49.2591819 ], [ 20.961867219736099, 49.260014118588948 ], [ 20.96285116, 49.26049453 ], [ 20.96328914, 49.26071572 ], [ 20.964019803895127, 49.261084697338937 ], [ 20.9660526, 49.2620957 ], [ 20.9671739, 49.2614101 ], [ 20.969903, 49.2599653 ], [ 20.9713137, 49.260067 ], [ 20.9735553, 49.260581 ], [ 20.974907, 49.2602464 ], [ 20.976623799695677, 49.259211721611983 ], [ 20.97747348, 49.25818739 ], [ 20.977481772422063, 49.258181074650388 ], [ 20.9774849, 49.2581773 ], [ 20.9787225, 49.2572357 ], [ 20.9792995, 49.2575945 ], [ 20.979881891489171, 49.257754944873781 ], [ 20.98027822, 49.25785535 ], [ 20.98050166, 49.25791195 ], [ 20.98062322, 49.25794999 ], [ 20.980870985618264, 49.258027433544456 ], [ 20.9812157, 49.2581224 ], [ 20.9839434, 49.2584663 ], [ 20.9852027, 49.2590468 ], [ 20.9869143, 49.2594778 ], [ 20.9877679, 49.2592696 ], [ 20.9888243, 49.2585751 ], [ 20.989701, 49.2586579 ], [ 20.9901933, 49.2590837 ], [ 20.9907945, 49.2592789 ], [ 20.9915195, 49.2592498 ], [ 20.9924343, 49.2596209 ], [ 20.9924994, 49.2597737 ], [ 20.9927289, 49.2599524 ], [ 20.9959739, 49.2601815 ], [ 20.99673, 49.2601039 ], [ 20.997185163534784, 49.260350917944479 ], [ 20.99718859, 49.26035266 ], [ 20.99721276, 49.26010497 ], [ 20.997232687160004, 49.260094923894485 ], [ 20.99734, 49.26004 ], [ 20.997612, 49.259598 ], [ 20.997789453371759, 49.259403530551495 ], [ 20.9978307, 49.25935826 ], [ 20.99786369, 49.25902768 ], [ 20.997869750884174, 49.258992971887309 ], [ 20.997875, 49.258961 ], [ 20.998229, 49.258367 ], [ 20.998402, 49.258182 ], [ 20.999178, 49.257546 ], [ 20.99951715858947, 49.257270389019922 ], [ 20.99965284, 49.25716012 ], [ 20.999652859131956, 49.25716011447382 ], [ 20.999653, 49.25716 ], [ 21.000141, 49.257018 ], [ 21.000413, 49.256912 ], [ 21.000647331288075, 49.256804789606761 ], [ 21.00071951, 49.25677155 ], [ 21.000907595638669, 49.256697422256948 ], [ 21.000982, 49.256668 ], [ 21.001425, 49.256569 ], [ 21.002228, 49.256338 ], [ 21.002335350325737, 49.256306784657056 ], [ 21.00236963, 49.25629656 ], [ 21.002613180745204, 49.25620981169449 ], [ 21.003282, 49.255971 ], [ 21.003818, 49.25559 ], [ 21.003998236508522, 49.255486542942762 ], [ 21.00409539, 49.25543033 ], [ 21.004257935171623, 49.255346207206607 ], [ 21.004290401241196, 49.25532931159897 ], [ 21.00426516, 49.2552605 ], [ 21.004244715346065, 49.25526150256696 ], [ 21.004238, 49.255262 ], [ 21.004166, 49.255102 ], [ 21.004311, 49.254857 ], [ 21.004264, 49.254414 ], [ 21.004172, 49.254182 ], [ 21.003952, 49.254006 ], [ 21.003974, 49.253772 ], [ 21.004134, 49.253345 ], [ 21.004105638391149, 49.253200613627662 ], [ 21.00407873, 49.25306571 ], [ 21.00410791, 49.25275382 ], [ 21.00406074, 49.25250703 ], [ 21.004078093572158, 49.252387783291624 ], [ 21.0041, 49.252235 ], [ 21.004096279770959, 49.252195007537793 ], [ 21.00409595, 49.25219182 ], [ 21.004092743482445, 49.252173791021555 ], [ 21.004025, 49.251795 ], [ 21.003887, 49.251366 ], [ 21.003674, 49.251018 ], [ 21.003513, 49.250901 ], [ 21.00329, 49.25049 ], [ 21.00329, 49.250356783588963 ], [ 21.00328989, 49.25030437 ], [ 21.00329, 49.250304313737345 ], [ 21.00329, 49.250304 ], [ 21.003318901331788, 49.250289051035281 ], [ 21.003316158235396, 49.250288289558853 ], [ 21.003295, 49.250283 ], [ 21.003093211757484, 49.250229399998084 ], [ 21.00211138, 49.24997347 ], [ 21.00203344, 49.24995318 ], [ 21.00049909, 49.24955318 ], [ 20.99895104, 49.24945493 ], [ 20.99325294, 49.24764439 ], [ 20.99323598, 49.24745279 ], [ 20.9932119, 49.24722846 ], [ 20.99320475, 49.24715665 ], [ 20.99321651864383, 49.247148305223547 ], [ 20.9932164, 49.2471471 ], [ 20.993557610348194, 49.246904405395846 ], [ 20.99366065, 49.24669472 ], [ 20.99303724, 49.2463037 ], [ 20.99163334, 49.24644353 ], [ 20.99087189, 49.24641682 ], [ 20.98852195, 49.24597951 ], [ 20.98817824, 49.24587071 ], [ 20.987900491094248, 49.245834966645099 ], [ 20.987243340751064, 49.245775378924726 ], [ 20.98696935, 49.24576111 ], [ 20.98630045, 49.24564126 ], [ 20.98496529, 49.24536904 ], [ 20.98423772, 49.24520916 ], [ 20.9837438, 49.24505291 ], [ 20.98308527, 49.24476763 ], [ 20.98278103, 49.24449266 ], [ 20.98272738, 49.24436575 ], [ 20.9827487, 49.24420629 ], [ 20.98236501, 49.24418691 ], [ 20.98126394, 49.24356573 ], [ 20.98088561028856, 49.243413271489132 ], [ 20.980747367041356, 49.243362628764906 ], [ 20.98045084, 49.24326851 ], [ 20.98001807, 49.24307195 ], [ 20.97968215, 49.2429036 ], [ 20.97954391, 49.24272519 ], [ 20.97942607, 49.24257303 ], [ 20.97918645, 49.24247025 ], [ 20.97889713, 49.24230208 ], [ 20.97835001, 49.24177574 ], [ 20.97818108, 49.24156211 ], [ 20.978118443609251, 49.241562244937697 ], [ 20.9781378, 49.2423286 ], [ 20.9787009, 49.2432452 ], [ 20.978684651789234, 49.243247299857046 ], [ 20.97868953, 49.24325524 ], [ 20.978626607725602, 49.243254801251382 ], [ 20.978459684608573, 49.24327637376107 ], [ 20.97727355, 49.24343267 ], [ 20.97517809, 49.24370877 ], [ 20.9748965, 49.243451 ], [ 20.97487453, 49.24343092 ], [ 20.97478576, 49.24334967 ], [ 20.974694907157911, 49.243266586710305 ], [ 20.974655797482647, 49.243232393851251 ], [ 20.97452527, 49.2431232 ], [ 20.97423395, 49.24287942 ], [ 20.9741346, 49.24279628 ], [ 20.97352585, 49.24251385 ], [ 20.97307399, 49.24247823 ], [ 20.97291251, 49.24249496 ], [ 20.97237775, 49.24255015 ], [ 20.97203124, 49.2425768 ], [ 20.97186178, 49.24260776 ], [ 20.97159288, 49.24265686 ], [ 20.97138563, 49.24269468 ], [ 20.97030096, 49.24261781 ], [ 20.96995322, 49.24264261 ], [ 20.96977486, 49.24265527 ], [ 20.96944329, 49.24267889 ], [ 20.96943922, 49.24267822 ], [ 20.96910959, 49.24262312 ], [ 20.96884238, 49.24258603 ], [ 20.96880014, 49.24257383 ], [ 20.96874782, 49.24255868 ], [ 20.96872001, 49.24256623 ], [ 20.96784184, 49.24280569 ], [ 20.96742925, 49.24290289 ], [ 20.96677346, 49.24290111 ], [ 20.96630667, 49.24279871 ], [ 20.96623716, 49.24278345 ], [ 20.96619593, 49.24277435 ], [ 20.96579085, 49.24265634 ], [ 20.96535376, 49.24254681 ], [ 20.96509084, 49.24248095 ], [ 20.96456666, 49.24228833 ], [ 20.96454334, 49.24213243 ], [ 20.96450493, 49.2421028 ], [ 20.96425721, 49.24191112 ], [ 20.96419836, 49.24189153 ], [ 20.96371626, 49.24173108 ], [ 20.9635685, 49.24160546 ], [ 20.96348068, 49.24149443 ], [ 20.96347868, 49.24149184 ], [ 20.96345573, 49.24148811 ], [ 20.96333175, 49.2414678 ], [ 20.9632147, 49.24144863 ], [ 20.96308339, 49.24142709 ], [ 20.96250825, 49.24122691 ], [ 20.962231902210103, 49.241304547098608 ], [ 20.9622444, 49.2415753 ], [ 20.962232031674965, 49.241572381895331 ], [ 20.96223227, 49.24157791 ], [ 20.96223266, 49.24158531 ], [ 20.96217527, 49.24157179 ], [ 20.96206642, 49.24154613 ], [ 20.96196621, 49.24152247 ], [ 20.9619307, 49.24151409 ], [ 20.96091758, 49.24127493 ], [ 20.9592901, 49.24080977 ], [ 20.9588391, 49.24027913 ], [ 20.95833026, 49.24013056 ], [ 20.95789794, 49.23989575 ], [ 20.9576967, 49.23966364 ], [ 20.95756162, 49.2394294 ], [ 20.95753653, 49.23938581 ], [ 20.95750815, 49.23933661 ], [ 20.957373922913821, 49.239230334194488 ], [ 20.957343433335591, 49.239210158172313 ], [ 20.95721052, 49.2391402 ], [ 20.95703494, 49.23918984 ], [ 20.95678215, 49.23913735 ], [ 20.95673215, 49.23912777 ], [ 20.95658338, 49.23909916 ], [ 20.95620685, 49.2390269 ], [ 20.95562194, 49.23903029 ], [ 20.95502224, 49.23901329 ], [ 20.95471772, 49.23905541 ], [ 20.95449965, 49.23908555 ], [ 20.95430075, 49.23911307 ], [ 20.95413397, 49.23913608 ], [ 20.95395966, 49.23919252 ], [ 20.95326153, 49.23941866 ], [ 20.95288843, 49.23940872 ], [ 20.95281269, 49.23940666 ], [ 20.95274746, 49.23940737 ], [ 20.95249796, 49.23940999 ], [ 20.95238665, 49.23932743 ], [ 20.95233932, 49.23929228 ], [ 20.95233126, 49.23928625 ], [ 20.95233402, 49.23927013 ], [ 20.95236052, 49.23911787 ], [ 20.95240587, 49.23885692 ], [ 20.95253742, 49.23810042 ], [ 20.9525739, 49.23806076 ], [ 20.95305602, 49.23753574 ], [ 20.95253006, 49.23774238 ], [ 20.95252467, 49.23774446 ], [ 20.95249153, 49.23774624 ], [ 20.95246227, 49.23774779 ], [ 20.95123174, 49.23774855 ], [ 20.95079707, 49.23774367 ], [ 20.94989978, 49.23760134 ], [ 20.94946303, 49.23745828 ], [ 20.94933778, 49.23741729 ], [ 20.94932435, 49.23741325 ], [ 20.94877618, 49.23724946 ], [ 20.94868332, 49.23723062 ], [ 20.94819625, 49.23713188 ], [ 20.94777205, 49.2370825 ], [ 20.94704205, 49.23708121 ], [ 20.94638737, 49.23698608 ], [ 20.94604786, 49.2369368 ], [ 20.94598518, 49.2369277 ], [ 20.94540401, 49.23694512 ], [ 20.94509253, 49.2366851 ], [ 20.94462573, 49.23662303 ], [ 20.94441383, 49.23659483 ], [ 20.94423289, 49.23643171 ], [ 20.94398832, 49.23621137 ], [ 20.94373167, 49.23598018 ], [ 20.943714988768328, 49.235965053541022 ], [ 20.943269778883671, 49.235576529334544 ], [ 20.94316043, 49.23550102 ], [ 20.9424875, 49.23533314 ], [ 20.94242667, 49.23531797 ], [ 20.94163786, 49.23520296 ], [ 20.94106536, 49.23527539 ], [ 20.94105394, 49.23527555 ], [ 20.93970902, 49.23529993 ], [ 20.93937764, 49.23527188 ], [ 20.93912449, 49.23523149 ], [ 20.93899629, 49.23521102 ], [ 20.93850896, 49.23514446 ], [ 20.93848991, 49.23513654 ], [ 20.9382591, 49.23504053 ], [ 20.93793784, 49.23490693 ], [ 20.93758715, 49.2347611 ], [ 20.93728122, 49.23463387 ], [ 20.93722808, 49.23461175 ], [ 20.9365868, 49.2338386 ], [ 20.9365027, 49.23373721 ], [ 20.93643896, 49.23366036 ], [ 20.93475731, 49.23463377 ], [ 20.93452797, 49.23476649 ], [ 20.93409332, 49.23483069 ], [ 20.93378245, 49.2348766 ], [ 20.93342569, 49.23492935 ], [ 20.93327421, 49.23495176 ], [ 20.93312025, 49.23497445 ], [ 20.93280228, 49.23502147 ], [ 20.93251715, 49.23506355 ], [ 20.93226192, 49.23510122 ], [ 20.93193186, 49.23515 ], [ 20.93187469, 49.23515845 ], [ 20.93159109, 49.23520031 ], [ 20.93156981, 49.23520347 ], [ 20.93126113, 49.2351947 ], [ 20.93106262, 49.23518898 ], [ 20.93076233, 49.23518031 ], [ 20.92937825, 49.23514061 ], [ 20.92908548, 49.2349929 ], [ 20.92906696, 49.23498355 ], [ 20.92861833, 49.23475726 ], [ 20.92837531, 49.23463462 ], [ 20.92827728, 49.23458516 ], [ 20.92817965, 49.2345359 ], [ 20.92802089, 49.23445578 ], [ 20.92785143, 49.23437026 ], [ 20.92777085, 49.23432966 ], [ 20.92767044, 49.23427904 ], [ 20.92756566, 49.2342262 ], [ 20.92746023, 49.23417298 ], [ 20.92742662, 49.23415611 ], [ 20.92722823, 49.23394762 ], [ 20.92717181, 49.2338883 ], [ 20.92687938, 49.23358087 ], [ 20.92679462, 49.23349179 ], [ 20.92669803, 49.23339034 ], [ 20.92656154, 49.23324685 ], [ 20.92652011, 49.23320324 ], [ 20.92644679, 49.23312616 ], [ 20.92642162, 49.23309974 ], [ 20.9263962, 49.23307306 ], [ 20.92628996, 49.23296137 ], [ 20.92622483, 49.2329221 ], [ 20.92619883, 49.23290638 ], [ 20.92611728, 49.2328572 ], [ 20.92603587, 49.23280802 ], [ 20.92594697, 49.23275445 ], [ 20.92588763, 49.23272015 ], [ 20.92585329, 49.23270036 ], [ 20.92577157, 49.23265685 ], [ 20.9256719, 49.23260382 ], [ 20.92558794, 49.23255914 ], [ 20.9254863, 49.23250497 ], [ 20.92537897, 49.23244781 ], [ 20.9252166, 49.23236136 ], [ 20.92507958, 49.23228835 ], [ 20.9250079, 49.23225012 ], [ 20.92492672, 49.23220689 ], [ 20.92483141, 49.23215617 ], [ 20.92477768, 49.23212754 ], [ 20.92472489, 49.23209751 ], [ 20.92463708, 49.23204758 ], [ 20.92452386, 49.23198311 ], [ 20.92412602, 49.23175679 ], [ 20.92409146, 49.23171863 ], [ 20.92401701, 49.23167553 ], [ 20.924002046966468, 49.231664602710367 ], [ 20.923720680313384, 49.231509348714766 ], [ 20.92256674, 49.23088831 ], [ 20.92237353, 49.23080604 ], [ 20.92094096, 49.23019631 ], [ 20.92082585, 49.23014735 ], [ 20.92066791, 49.23008012 ], [ 20.92019971, 49.22975861 ], [ 20.92001011, 49.22962846 ], [ 20.91990911, 49.22955909 ], [ 20.91981294, 49.22949312 ], [ 20.91972747, 49.22943443 ], [ 20.91962986, 49.22936742 ], [ 20.91954778, 49.2293111 ], [ 20.91943804, 49.22923576 ], [ 20.91909003, 49.22899687 ], [ 20.91899307, 49.22893033 ], [ 20.91892875, 49.22888613 ], [ 20.91890014, 49.22886869 ], [ 20.91880027, 49.22880782 ], [ 20.91876785, 49.22878809 ], [ 20.91833729, 49.228816 ], [ 20.9178436, 49.22884791 ], [ 20.91777962, 49.22885207 ], [ 20.91695515, 49.22919217 ], [ 20.91680999, 49.22929589 ], [ 20.91661867, 49.22943255 ], [ 20.91647391, 49.22949424 ], [ 20.91621253, 49.2296055 ], [ 20.91596726, 49.22958099 ], [ 20.91584408, 49.22956867 ], [ 20.91580495, 49.22955566 ], [ 20.91550291, 49.22945532 ], [ 20.915292418453177, 49.229385471085052 ], [ 20.914953216768769, 49.229281099032235 ], [ 20.91486818, 49.22925975 ], [ 20.91471111, 49.22922027 ], [ 20.9146999, 49.22921585 ], [ 20.91438024, 49.22909124 ], [ 20.91417238, 49.22901027 ], [ 20.91401615, 49.22894939 ], [ 20.91387726, 49.22889521 ], [ 20.91358228, 49.22878026 ], [ 20.91353652, 49.22876242 ], [ 20.91329256, 49.22884257 ], [ 20.91287376, 49.22898043 ], [ 20.91276201, 49.22901702 ], [ 20.91270265, 49.22900962 ], [ 20.91254811, 49.22899049 ], [ 20.91222569, 49.22895051 ], [ 20.91213433, 49.22893916 ], [ 20.91208563, 49.2289694 ], [ 20.91196181, 49.22904619 ], [ 20.911950904822319, 49.229052930357881 ], [ 20.9117634, 49.2293115 ], [ 20.911757903220156, 49.229313189227803 ], [ 20.91175195, 49.22932142 ], [ 20.91153815, 49.22938673 ], [ 20.91144801, 49.22941432 ], [ 20.91137583, 49.22941262 ], [ 20.91114791, 49.22940704 ], [ 20.910968600473403, 49.22940273402557 ], [ 20.9105558, 49.2297886 ], [ 20.91055491381227, 49.229788703950248 ], [ 20.91054413, 49.2297988 ], [ 20.91043286, 49.22981172 ], [ 20.9100602, 49.22985504 ], [ 20.909984489579905, 49.22986386642156 ], [ 20.909621871969488, 49.23017330646914 ], [ 20.90960393, 49.23018863 ], [ 20.90955063, 49.23020917 ], [ 20.90951802, 49.23022176 ], [ 20.90936222, 49.23028199 ], [ 20.90931629, 49.23029972 ], [ 20.90914336, 49.23018173 ], [ 20.90889884, 49.23019495 ], [ 20.908847466170087, 49.230197767090338 ], [ 20.9087533, 49.2302965 ], [ 20.908750897987101, 49.230296522316003 ], [ 20.9087505, 49.23029694 ], [ 20.90874196, 49.23030583 ], [ 20.9085649, 49.23030746 ], [ 20.90850505, 49.23030797 ], [ 20.90842164, 49.23027591 ], [ 20.90833876, 49.23024395 ], [ 20.9082081, 49.23019365 ], [ 20.90798014, 49.23010596 ], [ 20.9075211, 49.23004436 ], [ 20.90730342, 49.23001517 ], [ 20.90722598448216, 49.23000474579797 ], [ 20.9070735, 49.2301477 ], [ 20.907072849921711, 49.230147691616814 ], [ 20.90706182, 49.23015806 ], [ 20.90689141, 49.2301554 ], [ 20.90679627, 49.2300781 ], [ 20.90665585, 49.23003845 ], [ 20.90652483, 49.23000155 ], [ 20.9065002, 49.23000532 ], [ 20.90640308, 49.23002015 ], [ 20.90634339, 49.23002922 ], [ 20.90631458, 49.23003366 ], [ 20.90621537, 49.23004878 ], [ 20.90616272, 49.23004179 ], [ 20.90611142, 49.23003494 ], [ 20.90595631, 49.23001433 ], [ 20.90594583, 49.2300129 ], [ 20.90585426, 49.23004989 ], [ 20.90569511, 49.23011415 ], [ 20.90569184, 49.23011386 ], [ 20.90562118, 49.23010842 ], [ 20.90547632, 49.23009734 ], [ 20.90547058, 49.23009688 ], [ 20.905376416644042, 49.230089606538158 ], [ 20.9053045, 49.2302505 ], [ 20.905296479435776, 49.230252236937474 ], [ 20.90529296, 49.23026009 ], [ 20.90507282, 49.23030789 ], [ 20.90456475, 49.23026328 ], [ 20.90446271, 49.23014595 ], [ 20.90438187, 49.23005302 ], [ 20.90430544, 49.23005639 ], [ 20.904011286744808, 49.230069376898683 ], [ 20.9039806, 49.2302004 ], [ 20.903971457349037, 49.230200933736128 ], [ 20.90396936, 49.23020996 ], [ 20.9036387, 49.23022946 ], [ 20.90342135, 49.23012591 ], [ 20.90334792, 49.23009094 ], [ 20.90320636, 49.23006232 ], [ 20.90311392, 49.23004364 ], [ 20.90245905, 49.23015651 ], [ 20.90243856, 49.23016005 ], [ 20.90238235335185, 49.230119951699677 ], [ 20.902261088563428, 49.230066344998797 ], [ 20.90216342, 49.2300378 ], [ 20.90166066, 49.22966931 ], [ 20.90156146, 49.22959665 ], [ 20.9012207, 49.22934686 ], [ 20.90121057, 49.22933752 ], [ 20.90101881, 49.22910571 ], [ 20.90096292, 49.22903819 ], [ 20.9009363, 49.22900597 ], [ 20.90067996, 49.22902634 ], [ 20.90054178, 49.22895633 ], [ 20.90044367, 49.2288295 ], [ 20.900461358987354, 49.228827976009256 ], [ 20.9004553, 49.2288202 ], [ 20.900712371832455, 49.228797182990448 ], [ 20.90077635, 49.22864728 ], [ 20.90082216, 49.22853988 ], [ 20.90086572, 49.22829635 ], [ 20.90086724, 49.22828758 ], [ 20.90086274, 49.22824502 ], [ 20.90085585, 49.22817852 ], [ 20.90083933, 49.22802094 ], [ 20.90083542, 49.22798318 ], [ 20.90083205, 49.22795083 ], [ 20.90082496, 49.22788342 ], [ 20.90089244, 49.22776793 ], [ 20.90074182, 49.22771109 ], [ 20.90039919, 49.22783435 ], [ 20.90035265, 49.22785107 ], [ 20.90030215, 49.22786926 ], [ 20.90023481, 49.22789347 ], [ 20.90004585, 49.22785047 ], [ 20.90010161, 49.22777933 ], [ 20.90010771, 49.22777161 ], [ 20.90007984, 49.22773961 ], [ 20.90002648, 49.22767848 ], [ 20.89984873, 49.22747505 ], [ 20.89979398, 49.22741234 ], [ 20.89967982, 49.22728155 ], [ 20.8996667, 49.22726652 ], [ 20.89952935, 49.2270704 ], [ 20.899550773696834, 49.227072559969436 ], [ 20.899541, 49.2270607 ], [ 20.900009, 49.2271081 ], [ 20.9001972, 49.2272887 ], [ 20.9007441, 49.2273083 ], [ 20.9012036, 49.2272348 ], [ 20.901562168306246, 49.227265426089062 ], [ 20.901574103245636, 49.227173784682194 ], [ 20.901574752294959, 49.227138530222554 ], [ 20.90156475, 49.22705322 ], [ 20.90135836, 49.22698893 ], [ 20.90108029, 49.22668327 ], [ 20.90089118, 49.22659488 ], [ 20.90087288, 49.22658634 ], [ 20.90066508, 49.22648914 ], [ 20.90023192, 49.22640479 ], [ 20.9001063, 49.22646233 ], [ 20.9000504, 49.22648792 ], [ 20.8999841, 49.22651828 ], [ 20.89998937, 49.22647029 ], [ 20.90000706, 49.22630773 ], [ 20.90002799, 49.2261145 ], [ 20.90003581, 49.22604282 ], [ 20.900046277629574, 49.226042045860893 ], [ 20.9000472, 49.2260335 ], [ 20.9003409, 49.2260117 ], [ 20.9004137, 49.2261583 ], [ 20.90064484041282, 49.226125508453549 ], [ 20.90080239, 49.22599315 ], [ 20.90077943, 49.22587389 ], [ 20.90075198, 49.22573125 ], [ 20.90074431, 49.22553282 ], [ 20.90085931, 49.22540902 ], [ 20.9006816, 49.22533137 ], [ 20.9005097, 49.22539537 ], [ 20.90041879, 49.22542923 ], [ 20.90041237, 49.22540938 ], [ 20.90038939, 49.22533784 ], [ 20.90024721, 49.22530668 ], [ 20.90018829, 49.2252938 ], [ 20.90015379, 49.22530777 ], [ 20.8999986, 49.22537061 ], [ 20.89996545, 49.22526046 ], [ 20.899978917602454, 49.225256956844426 ], [ 20.8999771, 49.2252509 ], [ 20.9001896, 49.2251951 ], [ 20.9004897, 49.225033 ], [ 20.9008625, 49.2250041 ], [ 20.9011391, 49.2249794 ], [ 20.901347596846517, 49.224827388730624 ], [ 20.90107329, 49.22465387 ], [ 20.90103072, 49.22462696 ], [ 20.90099493, 49.2246136 ], [ 20.90075866, 49.22452552 ], [ 20.90065835, 49.22448811 ], [ 20.90061903, 49.22448121 ], [ 20.90046892, 49.22445482 ], [ 20.90032654, 49.22442977 ], [ 20.90026249, 49.22445778 ], [ 20.90015829, 49.22450335 ], [ 20.89998772, 49.22422768 ], [ 20.90001135, 49.22417355 ], [ 20.90003634, 49.22411605 ], [ 20.90007289, 49.2240321 ], [ 20.90012821, 49.22390512 ], [ 20.900134172815836, 49.22390803237078 ], [ 20.9001395, 49.2238958 ], [ 20.900349, 49.2239975 ], [ 20.900510258152789, 49.223914003067243 ], [ 20.90055264, 49.22375859 ], [ 20.90056633, 49.22370845 ], [ 20.90059564, 49.22360112 ], [ 20.90061262, 49.22353875 ], [ 20.90054671, 49.22339581 ], [ 20.90044741, 49.22318079 ], [ 20.90033614, 49.22293962 ], [ 20.90045117, 49.22277512 ], [ 20.90051171, 49.22268847 ], [ 20.90055351, 49.22262865 ], [ 20.90064733, 49.2224945 ], [ 20.90069084, 49.22243213 ], [ 20.900697637946003, 49.22242892512746 ], [ 20.9007022, 49.2224224 ], [ 20.901066879218959, 49.222250335775207 ], [ 20.90106701, 49.22224175 ], [ 20.90106901, 49.22209343 ], [ 20.90107022, 49.22200263 ], [ 20.90107036, 49.22198687 ], [ 20.90068414, 49.22188808 ], [ 20.9004948, 49.22183966 ], [ 20.90021688, 49.22162368 ], [ 20.900230126895949, 49.221615537412582 ], [ 20.9002284, 49.2216142 ], [ 20.900630640657283, 49.22136578004708 ], [ 20.90051976, 49.22113551 ], [ 20.90046776, 49.22102734 ], [ 20.90041941, 49.22092694 ], [ 20.90039613, 49.22087844 ], [ 20.900409314315873, 49.220872164763122 ], [ 20.9004075, 49.2208684 ], [ 20.900802924296791, 49.220680532639179 ], [ 20.9002447, 49.22043766 ], [ 20.90018756, 49.22031788 ], [ 20.9001217, 49.22017962 ], [ 20.90010369, 49.22014462 ], [ 20.90008209, 49.22010274 ], [ 20.899992, 49.21992819 ], [ 20.90005115, 49.21986094 ], [ 20.90021625, 49.2196731 ], [ 20.90033941, 49.21953282 ], [ 20.90037735, 49.21938904 ], [ 20.90040468, 49.21928588 ], [ 20.900413925087157, 49.219285054946596 ], [ 20.9004163, 49.2192761 ], [ 20.901102086298256, 49.219214953343247 ], [ 20.90108602, 49.21892641 ], [ 20.90108419, 49.21891644 ], [ 20.9010624, 49.21879632 ], [ 20.90096742, 49.21877188 ], [ 20.90089519, 49.21870957 ], [ 20.90089362, 49.21867171 ], [ 20.90086411, 49.21859751 ], [ 20.90088873, 49.21854648 ], [ 20.90079904, 49.21847729 ], [ 20.90078285, 49.2184681 ], [ 20.90057383, 49.21835014 ], [ 20.9006059, 49.21829693 ], [ 20.90060668, 49.21829569 ], [ 20.9005406, 49.21823387 ], [ 20.90053996, 49.2182333 ], [ 20.90050679, 49.21820239 ], [ 20.90048072, 49.21816486 ], [ 20.90046615, 49.21814394 ], [ 20.90041896, 49.2180813 ], [ 20.90041274, 49.21807299 ], [ 20.90025301, 49.21801702 ], [ 20.90026864, 49.21783351 ], [ 20.900265, 49.21775883 ], [ 20.90026844, 49.21768692 ], [ 20.90026711, 49.21753552 ], [ 20.90029718, 49.21730451 ], [ 20.90031352, 49.21720827 ], [ 20.90034443, 49.21707866 ], [ 20.900375916724748, 49.216960847740737 ], [ 20.900399276953653, 49.216825464952031 ], [ 20.90041071, 49.21672056 ], [ 20.90041601, 49.21667221 ], [ 20.90032166, 49.21657486 ], [ 20.9002517, 49.21655387 ], [ 20.900104330928794, 49.216509671057175 ], [ 20.9000599, 49.2165618 ], [ 20.900056909834092, 49.216561699278621 ], [ 20.90004839, 49.21657179 ], [ 20.899865141990038, 49.216565969849711 ], [ 20.8997945, 49.2167229 ], [ 20.899786488360782, 49.216724519120802 ], [ 20.89978305, 49.21673213 ], [ 20.89943421, 49.21679891 ], [ 20.89932724, 49.21682034 ], [ 20.89921078, 49.21684901 ], [ 20.899157, 49.21672322 ], [ 20.899170953410227, 49.216718950610144 ], [ 20.8991685, 49.2167132 ], [ 20.899254415413754, 49.216686804300593 ], [ 20.8992542, 49.21668616 ], [ 20.89923236, 49.21664905 ], [ 20.89916187, 49.21655772 ], [ 20.89905397, 49.21657876 ], [ 20.89897199, 49.21646912 ], [ 20.89895882, 49.21645139 ], [ 20.89889232, 49.21635633 ], [ 20.89885204, 49.2162987 ], [ 20.89884536, 49.2162892 ], [ 20.898859876732057, 49.216284072867737 ], [ 20.8988565, 49.2162794 ], [ 20.899148182394015, 49.216167934987517 ], [ 20.89907212, 49.21614404 ], [ 20.8988481, 49.21607374 ], [ 20.8987275, 49.21603592 ], [ 20.89864014, 49.21598796 ], [ 20.89848912, 49.21590509 ], [ 20.89847218, 49.21588453 ], [ 20.89836471, 49.21575468 ], [ 20.89825574, 49.21562298 ], [ 20.89814777, 49.21549257 ], [ 20.89809316, 49.21542654 ], [ 20.89803791, 49.21535985 ], [ 20.89798732, 49.21529872 ], [ 20.89792719, 49.21522602 ], [ 20.89769945, 49.21495085 ], [ 20.8976929, 49.21490813 ], [ 20.89760833, 49.21435147 ], [ 20.89733197, 49.21439673 ], [ 20.897233058109197, 49.214412948726334 ], [ 20.8972349, 49.2146649 ], [ 20.897223255282544, 49.214670310566618 ], [ 20.89722329, 49.2146748 ], [ 20.89679621, 49.21487345 ], [ 20.89633528, 49.21523905 ], [ 20.89628844, 49.21525972 ], [ 20.89569059, 49.21552392 ], [ 20.89542355, 49.21557111 ], [ 20.89515831, 49.215618 ], [ 20.89492897, 49.21569437 ], [ 20.89427907, 49.21591072 ], [ 20.89384384, 49.21589245 ], [ 20.89270013, 49.2163113 ], [ 20.89216081, 49.21650885 ], [ 20.891919372450708, 49.216622947820689 ], [ 20.890765299852273, 49.217188969174003 ], [ 20.89074358, 49.21720011 ], [ 20.89058963, 49.21727901 ], [ 20.890573163436592, 49.217291974616643 ], [ 20.8896672, 49.2180228 ], [ 20.889665082952977, 49.218023741654591 ], [ 20.88965573, 49.21803201 ], [ 20.88932938, 49.21817767 ], [ 20.88932497, 49.21817959 ], [ 20.88915816, 49.21825401 ], [ 20.88892926, 49.21835605 ], [ 20.88880363, 49.21825817 ], [ 20.88847776, 49.21799732 ], [ 20.88859785, 49.21780374 ], [ 20.88879416, 49.21748694 ], [ 20.88906001, 49.21705815 ], [ 20.88900595, 49.21705353 ], [ 20.88884567, 49.21703975 ], [ 20.88879529, 49.21703544 ], [ 20.88762703, 49.21693525 ], [ 20.88555279, 49.21716092 ], [ 20.885748656760548, 49.217213067218509 ], [ 20.886077, 49.2173 ], [ 20.886076824765816, 49.217300438085466 ], [ 20.88607717, 49.21730053 ], [ 20.88600951, 49.2174704 ], [ 20.88584952, 49.21787224 ], [ 20.88586617, 49.21797509 ], [ 20.885876292900612, 49.218037959589438 ], [ 20.886734838336714, 49.217919508818689 ], [ 20.88780441, 49.21777165 ], [ 20.88785291, 49.21776492 ], [ 20.88788998, 49.21776545 ], [ 20.887930508440135, 49.217766 ], [ 20.88797, 49.217766 ], [ 20.888257, 49.21777 ], [ 20.888256348368362, 49.217770525101223 ], [ 20.8882567, 49.21777053 ], [ 20.888154729773614, 49.217852411930004 ], [ 20.887948, 49.218019 ], [ 20.887484264619179, 49.218546698881624 ], [ 20.88753037, 49.21857698 ], [ 20.887529494974707, 49.218577659656866 ], [ 20.88753, 49.218578 ], [ 20.886497, 49.21938 ], [ 20.886462225616835, 49.219469145380046 ], [ 20.88631639, 49.21984381 ], [ 20.88710139, 49.22001698 ], [ 20.887292963403972, 49.220102071096655 ], [ 20.887708, 49.220286 ], [ 20.887707798770524, 49.220286328386756 ], [ 20.88770796, 49.2202864 ], [ 20.887545017300585, 49.22055219397626 ], [ 20.887555822279904, 49.220673340714072 ], [ 20.88757865, 49.22092221 ], [ 20.88758632, 49.22115846 ], [ 20.887664566132067, 49.221160510887152 ], [ 20.887742, 49.221162 ], [ 20.887769282275414, 49.221232557608829 ], [ 20.887771054682641, 49.221237041251818 ], [ 20.887789243511268, 49.22125076264885 ], [ 20.88782817, 49.22128007 ], [ 20.887838577348713, 49.22130138974962 ], [ 20.887873, 49.221371 ], [ 20.887873, 49.221373408730152 ], [ 20.88787331, 49.2213755 ], [ 20.88790679, 49.22162621 ], [ 20.88793147, 49.22181063 ], [ 20.887926442522893, 49.221995122075128 ], [ 20.887926, 49.222013 ], [ 20.887925948344968, 49.222013256799293 ], [ 20.88792593, 49.22201393 ], [ 20.88789142, 49.22218708 ], [ 20.88783670809666, 49.222461394214164 ], [ 20.887817, 49.222561 ], [ 20.887766091350272, 49.222718816814151 ], [ 20.88770707, 49.22290215 ], [ 20.8876754256166, 49.223000523770416 ], [ 20.887599, 49.223239 ], [ 20.887572826945195, 49.223319558623238 ], [ 20.88752237, 49.22347658 ], [ 20.88744704, 49.22371074 ], [ 20.887409033268469, 49.223828962425465 ], [ 20.887372, 49.223945 ], [ 20.887296, 49.224181 ], [ 20.887171429712328, 49.22429337010486 ], [ 20.88710254, 49.22435577 ], [ 20.887046721891025, 49.224638839657587 ], [ 20.887042, 49.224663 ], [ 20.886969, 49.225035 ], [ 20.886934, 49.225212 ], [ 20.886843, 49.225484 ], [ 20.886841677184233, 49.225487840432869 ], [ 20.886812764364333, 49.225574207605128 ], [ 20.886934855564657, 49.225607368178053 ], [ 20.88697384, 49.2256179 ], [ 20.886973807628795, 49.225617947751026 ], [ 20.886974, 49.225618 ], [ 20.886938964612057, 49.225669344965084 ], [ 20.88685814, 49.22578857 ], [ 20.88682081, 49.22584368 ], [ 20.88669546, 49.22602862 ], [ 20.886577720562606, 49.226202511802839 ], [ 20.88657, 49.226214 ], [ 20.886560611654239, 49.226227774142316 ], [ 20.88643322, 49.22641584 ], [ 20.88629899, 49.2266139 ], [ 20.88627085, 49.22665536 ], [ 20.886252161850507, 49.226682550069093 ], [ 20.885296, 49.2280809 ], [ 20.8846521, 49.2297419 ], [ 20.8845402, 49.2313093 ], [ 20.8837838, 49.2330867 ], [ 20.8830916, 49.2349619 ], [ 20.8834744, 49.2366856 ], [ 20.8851141, 49.2381063 ], [ 20.887663787549187, 49.239455757086276 ], [ 20.88775259, 49.2395022 ], [ 20.8879552, 49.23960816 ], [ 20.8879828325713, 49.239624616037673 ], [ 20.8882528, 49.2397675 ], [ 20.8910253, 49.2406364 ], [ 20.8911009, 49.240801 ], [ 20.8918112, 49.2412042 ], [ 20.891796661885092, 49.241212596529877 ], [ 20.89179956, 49.24121409 ], [ 20.89164806, 49.24130461 ], [ 20.89153018, 49.24137492 ], [ 20.89131708, 49.24150207 ], [ 20.89128275, 49.24152252 ], [ 20.89125245, 49.24154059 ], [ 20.89110917, 49.24162616 ], [ 20.89093675, 49.24172911 ], [ 20.89072378, 49.24185627 ], [ 20.89048744, 49.24199732 ], [ 20.89026971, 49.24212729 ], [ 20.8902169, 49.24215882 ], [ 20.89009787, 49.24222981 ], [ 20.89008263, 49.2422383 ], [ 20.88997293, 49.24229898 ], [ 20.88986697, 49.24235762 ], [ 20.88960645, 49.2425019 ], [ 20.88945549, 49.24258541 ], [ 20.88930797, 49.24266714 ], [ 20.88916419, 49.24274666 ], [ 20.88907348, 49.24279681 ], [ 20.88902287, 49.24282482 ], [ 20.888703049972534, 49.243001856746609 ], [ 20.8885741, 49.2431332 ], [ 20.88857032439871, 49.243135435428925 ], [ 20.88856256, 49.24314342 ], [ 20.88698118, 49.24407906 ], [ 20.88692969, 49.24410955 ], [ 20.8861251, 49.24459463 ], [ 20.88605335, 49.24463786 ], [ 20.88598116, 49.24468143 ], [ 20.88594492, 49.24470326 ], [ 20.88590883, 49.244725 ], [ 20.88583665, 49.24476848 ], [ 20.88576432, 49.24481205 ], [ 20.88572808, 49.24483388 ], [ 20.88569198, 49.24485571 ], [ 20.88565589, 49.24487745 ], [ 20.88561965, 49.24489928 ], [ 20.88558342, 49.24492111 ], [ 20.88554732, 49.24494285 ], [ 20.88547484, 49.24498659 ], [ 20.88543861, 49.24500842 ], [ 20.88540237, 49.24503024 ], [ 20.8853299, 49.2450739 ], [ 20.88525742, 49.24511755 ], [ 20.88522104, 49.24513946 ], [ 20.8851848, 49.24516129 ], [ 20.88517426, 49.24516769 ], [ 20.88511129, 49.24520419 ], [ 20.8850744, 49.24522554 ], [ 20.88503751, 49.2452469 ], [ 20.88500048, 49.24526834 ], [ 20.88496359, 49.24528969 ], [ 20.88489009, 49.24533241 ], [ 20.88448085, 49.24556953 ], [ 20.883839253363881, 49.245936571520168 ], [ 20.882936088448133, 49.246471310445713 ], [ 20.88288118, 49.24651008 ], [ 20.882789707042384, 49.246561291760393 ], [ 20.8843419, 49.2474112 ], [ 20.8858503, 49.2474645 ], [ 20.8880892, 49.2467466 ], [ 20.8895178, 49.2471099 ], [ 20.8906267, 49.2467836 ], [ 20.8915069, 49.2468359 ], [ 20.8926234, 49.2464457 ], [ 20.893311, 49.2470238 ], [ 20.894726, 49.2479098 ], [ 20.8945533, 49.2483835 ], [ 20.8950313, 49.2493203 ], [ 20.895509, 49.2497696 ], [ 20.8953911, 49.2508675 ], [ 20.8958687, 49.2517726 ], [ 20.8956292, 49.2527898 ], [ 20.896419, 49.2528626 ], [ 20.8965032, 49.2544049 ], [ 20.8978914, 49.2543774 ], [ 20.8983995, 49.255538 ], [ 20.9007824, 49.2550802 ], [ 20.9011559, 49.2556375 ], [ 20.901142910493416, 49.255644439874615 ], [ 20.90114453, 49.25564685 ], [ 20.90107792, 49.25568242 ], [ 20.900124811840509, 49.256192057856431 ], [ 20.9012251, 49.2567912 ], [ 20.9025008, 49.2565211 ], [ 20.9023892, 49.2571272 ], [ 20.9036784, 49.2570715 ], [ 20.9041168, 49.2575555 ], [ 20.9065951, 49.2598265 ], [ 20.9073775, 49.2597933 ], [ 20.907435723321623, 49.259854068012864 ], [ 20.90744809, 49.25986317 ], [ 20.907523384011274, 49.259945559974639 ], [ 20.9079701, 49.2604118 ], [ 20.9097399, 49.261726 ], [ 20.9096224, 49.2628588 ], [ 20.909024, 49.2639158 ], [ 20.9089324, 49.2653893 ], [ 20.9097716, 49.2656674 ], [ 20.910186419380107, 49.265804815107302 ], [ 20.91080935, 49.2649051 ], [ 20.910814089332678, 49.264905769084571 ] ] ] } }
]
}
