{
"type": "FeatureCollection",
"name": "gis",
"crs": { "type": "name", "properties": { "name": "urn:ogc:def:crs:OGC:1.3:CRS84" } },
"features": [
{ "type": "Feature", "properties": { "@featureType": "CadastralParcel", "areaValue": { "value": 4504, "@uom": "m2" }, "beginLifespanVersion": { "@nilReason": "http://inspire.ec.europa.eu/codelist/VoidReasonValue/Unpopulated", "@nil": "true" }, "endLifespanVersion": { "@nilReason": "http://inspire.ec.europa.eu/codelist/VoidReasonValue/Unpopulated", "@nil": "true" }, "inspireId": { "@dataType": "Identifier", "localId": "827207_824.C", "namespace": "SK.ESKN.CP", "versionId": "20260703T07:07:55" }, "label": "824", "nationalCadastralReference": "827207_824.C", "referencePoint": { "type": "Point", "coordinates": [ 21.23004597, 48.71159066 ] }, "validFrom": "2026-06-30T16:00:00Z", "validTo": { "@nilReason": "http://inspire.ec.europa.eu/codelist/VoidReasonValue/Unpopulated", "@nil": "true" }, "administrativeUnit": { "@href": "#auAdmUnitS.1503" } }, "geometry": { "type": "Polygon", "coordinates": [ [ [ 21.23020306, 48.71180295 ], [ 21.23019487, 48.71180143 ], [ 21.23025522, 48.7116643 ], [ 21.23026176, 48.71165082 ], [ 21.23037003, 48.71141191 ], [ 21.23037557, 48.71139327 ], [ 21.23037468, 48.71137325 ], [ 21.23036749, 48.71135196 ], [ 21.23035353, 48.71133208 ], [ 21.23033722, 48.71131653 ], [ 21.23031706, 48.71130339 ], [ 21.23029345, 48.71129302 ], [ 21.23025796, 48.71128319 ], [ 21.23023543, 48.7112787 ], [ 21.23021634, 48.71127919 ], [ 21.23019429, 48.71128129 ], [ 21.23018668, 48.71126782 ], [ 21.23016584, 48.71127195 ], [ 21.23014735, 48.7112756 ], [ 21.23014248, 48.71126375 ], [ 21.23007994, 48.71127467 ], [ 21.23007412, 48.7112609 ], [ 21.23000826, 48.71127262 ], [ 21.23000062, 48.71125573 ], [ 21.2299721, 48.71126078 ], [ 21.22996529, 48.71124752 ], [ 21.2299126, 48.71125767 ], [ 21.22990505, 48.71124132 ], [ 21.22985902, 48.71125159 ], [ 21.22985133, 48.71123541 ], [ 21.22980079, 48.71124582 ], [ 21.22979266, 48.71122819 ], [ 21.22973667, 48.71123878 ], [ 21.22972833, 48.71122222 ], [ 21.2296802, 48.71123135 ], [ 21.2296721, 48.71121714 ], [ 21.22962898, 48.71122462 ], [ 21.22962096, 48.71121303 ], [ 21.22961061, 48.71120946 ], [ 21.22957477, 48.71120835 ], [ 21.22953365, 48.71121076 ], [ 21.22949922, 48.71121671 ], [ 21.22945799, 48.71122641 ], [ 21.22941663, 48.71123593 ], [ 21.22935439, 48.71126379 ], [ 21.22932235, 48.71127999 ], [ 21.22930088, 48.71130075 ], [ 21.22928664, 48.7113211 ], [ 21.22919083, 48.71163737 ], [ 21.22918367, 48.71163661 ], [ 21.22918294, 48.71163929 ], [ 21.22923555, 48.7116493 ], [ 21.22923718, 48.71164557 ], [ 21.22926138, 48.71165722 ], [ 21.22927823, 48.71166521 ], [ 21.22954706, 48.71171104 ], [ 21.22955728, 48.71171271 ], [ 21.22957139, 48.71171513 ], [ 21.22962153, 48.71172371 ], [ 21.2296464, 48.7117279 ], [ 21.22968338, 48.7116248 ], [ 21.22968491, 48.71162061 ], [ 21.22969186, 48.71160129 ], [ 21.22955515, 48.71158002 ], [ 21.22954467, 48.71157816 ], [ 21.22958974, 48.71145901 ], [ 21.2295933, 48.71144904 ], [ 21.22959552, 48.71144461 ], [ 21.22962808, 48.71144967 ], [ 21.22962643, 48.71145385 ], [ 21.22973335, 48.71147114 ], [ 21.22974991, 48.71142961 ], [ 21.22985702, 48.71144816 ], [ 21.22983778, 48.7114987 ], [ 21.22979274, 48.71161749 ], [ 21.22979221, 48.71162684 ], [ 21.22979589, 48.71163442 ], [ 21.22986381, 48.71164536 ], [ 21.22994659, 48.71165784 ], [ 21.22991741, 48.71173346 ], [ 21.22985047, 48.71172201 ], [ 21.22983141, 48.71177193 ], [ 21.22983691, 48.71177309 ], [ 21.22982984, 48.71179025 ], [ 21.22982403, 48.71178962 ], [ 21.22981898, 48.71180521 ], [ 21.22980386, 48.71184562 ], [ 21.22987136, 48.71185681 ], [ 21.22984386, 48.71192987 ], [ 21.22976183, 48.71191634 ], [ 21.22958649, 48.71188738 ], [ 21.22960777, 48.71183114 ], [ 21.22958477, 48.71182736 ], [ 21.22952963, 48.71181835 ], [ 21.22951737, 48.71185119 ], [ 21.22951265, 48.71186392 ], [ 21.2295066, 48.71186292 ], [ 21.22948562, 48.71185948 ], [ 21.22932344, 48.71183291 ], [ 21.22923631, 48.71181858 ], [ 21.22922757, 48.71181714 ], [ 21.22917202, 48.71180812 ], [ 21.22916213, 48.71183815 ], [ 21.2291498, 48.71187378 ], [ 21.22947006, 48.71192337 ], [ 21.22949012, 48.71192642 ], [ 21.22949567, 48.71190958 ], [ 21.22955053, 48.71191867 ], [ 21.22957339, 48.71192244 ], [ 21.22988668, 48.71197235 ], [ 21.22990677, 48.71197307 ], [ 21.22993479, 48.71197124 ], [ 21.22995802, 48.71196782 ], [ 21.22998082, 48.71196295 ], [ 21.23000839, 48.7119521 ], [ 21.23002993, 48.71194188 ], [ 21.23012315, 48.71195865 ], [ 21.23013415, 48.71196079 ], [ 21.23020306, 48.71180295 ] ] ] } }
]
}
