{
"type": "FeatureCollection",
"name": "gis",
"crs": { "type": "name", "properties": { "name": "urn:ogc:def:crs:OGC:1.3:CRS84" } },
"features": [
{ "type": "Feature", "properties": { "place_id": 188322234, "osm_type": "way", "osm_id": 110347927, "place_rank": 20, "category": "water", "type": "lake", "importance": 0.35233235132891288, "addresstype": "lake", "name": "Morské oko", "display_name": "Morské oko, Vyšná Rybnica, okres Sobrance, Košický kraj, Slovensko" }, "geometry": { "type": "Polygon", "coordinates": [ [ [ 22.1961271, 48.9145621 ], [ 22.1962459, 48.9144292 ], [ 22.1964169, 48.9143791 ], [ 22.1967548, 48.9144038 ], [ 22.1969543, 48.9143697 ], [ 22.1972351, 48.9142816 ], [ 22.1975568, 48.9142399 ], [ 22.1978411, 48.9141464 ], [ 22.1981009, 48.9141065 ], [ 22.1982515, 48.9140283 ], [ 22.1983346, 48.9138838 ], [ 22.1985138, 48.9137146 ], [ 22.1985224, 48.9136529 ], [ 22.1984976, 48.9136185 ], [ 22.1982998, 48.9135612 ], [ 22.1981791, 48.9135224 ], [ 22.1979993, 48.9135172 ], [ 22.1978877, 48.9134331 ], [ 22.1978821, 48.9133319 ], [ 22.1980825, 48.9132175 ], [ 22.1980889, 48.9131032 ], [ 22.1979549, 48.9129939 ], [ 22.1979055, 48.9128843 ], [ 22.1979571, 48.9128219 ], [ 22.1981852, 48.9127629 ], [ 22.1985315, 48.9126415 ], [ 22.1986019, 48.9125869 ], [ 22.1987506, 48.9124507 ], [ 22.1989311, 48.9122775 ], [ 22.1991275, 48.9120422 ], [ 22.1991789, 48.9119564 ], [ 22.1992542, 48.911935 ], [ 22.1993029, 48.9119254 ], [ 22.1993811, 48.9118892 ], [ 22.1994557, 48.9117951 ], [ 22.1995801, 48.9117638 ], [ 22.1997539, 48.9117524 ], [ 22.1998567, 48.9117779 ], [ 22.1998549, 48.9119 ], [ 22.1998785, 48.9120093 ], [ 22.1998045, 48.9121466 ], [ 22.1997964, 48.9122233 ], [ 22.1998334, 48.9123254 ], [ 22.1999466, 48.9125582 ], [ 22.1999708, 48.9127045 ], [ 22.2000295, 48.9128018 ], [ 22.2006226, 48.9132316 ], [ 22.2007404, 48.913356 ], [ 22.2009538, 48.9137031 ], [ 22.2010866, 48.9138274 ], [ 22.2011612, 48.9139542 ], [ 22.2010397, 48.9140504 ], [ 22.2008732, 48.9141441 ], [ 22.2001331, 48.9140689 ], [ 22.199893, 48.914068 ], [ 22.1998246, 48.9141165 ], [ 22.1997911, 48.9142522 ], [ 22.1996906, 48.914442 ], [ 22.1992386, 48.9149943 ], [ 22.1991634, 48.9151829 ], [ 22.1992063, 48.9153151 ], [ 22.1993297, 48.9155108 ], [ 22.1993726, 48.915754 ], [ 22.1993753, 48.915932 ], [ 22.1994437, 48.916014 ], [ 22.1994585, 48.9160554 ], [ 22.1994504, 48.9161259 ], [ 22.1994665, 48.91617 ], [ 22.1997079, 48.9163551 ], [ 22.1998648, 48.9165163 ], [ 22.200526, 48.9169843 ], [ 22.2007942, 48.9172963 ], [ 22.2010678, 48.9175783 ], [ 22.2012073, 48.9177299 ], [ 22.2011655, 48.917807 ], [ 22.2010169, 48.9178604 ], [ 22.2009981, 48.9181071 ], [ 22.2009953, 48.9184226 ], [ 22.20088, 48.9184685 ], [ 22.2006172, 48.9184825 ], [ 22.2004912, 48.9184367 ], [ 22.2003919, 48.918227 ], [ 22.2001773, 48.9180366 ], [ 22.1998903, 48.9178551 ], [ 22.1996328, 48.9177017 ], [ 22.1994048, 48.9175995 ], [ 22.1991661, 48.9175484 ], [ 22.1988776, 48.9175361 ], [ 22.1987451, 48.9175744 ], [ 22.1985582, 48.9177785 ], [ 22.1983386, 48.9177815 ], [ 22.1983167, 48.9176643 ], [ 22.1982032, 48.9175924 ], [ 22.1979994, 48.9175413 ], [ 22.1977378, 48.9175158 ], [ 22.1975166, 48.9175554 ], [ 22.1972531, 48.9176952 ], [ 22.1970804, 48.9177939 ], [ 22.1969, 48.9178558 ], [ 22.1967248, 48.9178675 ], [ 22.1965387, 48.9178535 ], [ 22.1963766, 48.9177664 ], [ 22.1963337, 48.9177387 ], [ 22.1962063, 48.9176807 ], [ 22.1961502, 48.9175226 ], [ 22.1965523, 48.9173625 ], [ 22.1966556, 48.9172364 ], [ 22.1967258, 48.9169889 ], [ 22.1966904, 48.916697 ], [ 22.1966981, 48.9164291 ], [ 22.1966748, 48.9161918 ], [ 22.196787, 48.9157099 ], [ 22.1967816, 48.9155548 ], [ 22.1967048, 48.9153886 ], [ 22.196319, 48.9149695 ], [ 22.1961279, 48.9146762 ], [ 22.1961271, 48.9145621 ] ] ] } }
]
}
