{
"type": "FeatureCollection",
"name": "gis",
"crs": { "type": "name", "properties": { "name": "urn:ogc:def:crs:OGC:1.3:CRS84" } },
"features": [
{ "type": "Feature", "properties": { "@featureType": "CadastralParcel", "areaValue": { "value": 401, "@uom": "m2" }, "beginLifespanVersion": { "@nilReason": "http://inspire.ec.europa.eu/codelist/VoidReasonValue/Unpopulated", "@nil": "true" }, "endLifespanVersion": { "@nilReason": "http://inspire.ec.europa.eu/codelist/VoidReasonValue/Unpopulated", "@nil": "true" }, "inspireId": { "@dataType": "Identifier", "localId": "850462_2484/3.C", "namespace": "SK.ESKN.CP", "versionId": "20260703T06:07:27" }, "label": "2484/3", "nationalCadastralReference": "850462_2484/3.C", "referencePoint": { "type": "Point", "coordinates": [ 18.33853542, 49.13651907 ] }, "validFrom": "2026-06-30T16:00:00Z", "validTo": { "@nilReason": "http://inspire.ec.europa.eu/codelist/VoidReasonValue/Unpopulated", "@nil": "true" }, "administrativeUnit": { "@href": "#auAdmUnitS.1645" } }, "geometry": { "type": "Polygon", "coordinates": [ [ [ 18.33846485, 49.13691845 ], [ 18.33850643, 49.13677177 ], [ 18.33853628, 49.13660097 ], [ 18.33853713, 49.13659542 ], [ 18.33856753, 49.1365297 ], [ 18.33861829, 49.13650844 ], [ 18.33867363, 49.13645187 ], [ 18.33870714, 49.13642784 ], [ 18.33874771, 49.13637063 ], [ 18.3387464, 49.1362757 ], [ 18.3387255, 49.13623212 ], [ 18.33868293, 49.13614355 ], [ 18.33861975, 49.13611213 ], [ 18.3386687, 49.13620449 ], [ 18.3387064, 49.13627545 ], [ 18.33869486, 49.13636452 ], [ 18.33865181, 49.13642809 ], [ 18.33844671, 49.13653541 ], [ 18.33845807, 49.1365846 ], [ 18.33845528, 49.13670583 ], [ 18.33844614, 49.13676994 ], [ 18.33844483, 49.13677474 ], [ 18.33843367, 49.13681735 ], [ 18.33841613, 49.13688469 ], [ 18.33843872, 49.13690039 ], [ 18.33846485, 49.13691845 ] ] ] } },
{ "type": "Feature", "properties": { "@featureType": "CadastralParcel", "areaValue": { "value": 396, "@uom": "m2" }, "beginLifespanVersion": { "@nilReason": "http://inspire.ec.europa.eu/codelist/VoidReasonValue/Unpopulated", "@nil": "true" }, "endLifespanVersion": { "@nilReason": "http://inspire.ec.europa.eu/codelist/VoidReasonValue/Unpopulated", "@nil": "true" }, "inspireId": { "@dataType": "Identifier", "localId": "850462_2484/2.C", "namespace": "SK.ESKN.CP", "versionId": "20260703T06:07:27" }, "label": "2484/2", "nationalCadastralReference": "850462_2484/2.C", "referencePoint": { "type": "Point", "coordinates": [ 18.33820126, 49.13723428 ] }, "validFrom": "2026-06-30T16:00:00Z", "validTo": { "@nilReason": "http://inspire.ec.europa.eu/codelist/VoidReasonValue/Unpopulated", "@nil": "true" }, "administrativeUnit": { "@href": "#auAdmUnitS.1645" } }, "geometry": { "type": "Polygon", "coordinates": [ [ [ 18.33773764, 49.13759083 ], [ 18.33797311, 49.13746364 ], [ 18.33806371, 49.1373919 ], [ 18.33819842, 49.13726738 ], [ 18.33820899, 49.13725588 ], [ 18.33821954, 49.13724455 ], [ 18.33824463, 49.13721762 ], [ 18.33838149, 49.13707012 ], [ 18.33843755, 49.13700908 ], [ 18.33844066, 49.13699887 ], [ 18.33845518, 49.13695059 ], [ 18.33846485, 49.13691845 ], [ 18.33843872, 49.13690039 ], [ 18.33841613, 49.13688469 ], [ 18.33838918, 49.13698751 ], [ 18.33830052, 49.13710052 ], [ 18.33820003, 49.13720511 ], [ 18.33818603, 49.137224 ], [ 18.33800546, 49.13737114 ], [ 18.33795748, 49.1374134 ], [ 18.33790877, 49.13743794 ], [ 18.33790598, 49.13743932 ], [ 18.33784416, 49.13747052 ], [ 18.33781104, 49.13748726 ], [ 18.33772269, 49.13752475 ], [ 18.33772918, 49.13755318 ], [ 18.33773764, 49.13759083 ] ] ] } },
{ "type": "Feature", "properties": { "@featureType": "CadastralParcel", "areaValue": { "value": 301, "@uom": "m2" }, "beginLifespanVersion": { "@nilReason": "http://inspire.ec.europa.eu/codelist/VoidReasonValue/Unpopulated", "@nil": "true" }, "endLifespanVersion": { "@nilReason": "http://inspire.ec.europa.eu/codelist/VoidReasonValue/Unpopulated", "@nil": "true" }, "inspireId": { "@dataType": "Identifier", "localId": "850462_2443/11.C", "namespace": "SK.ESKN.CP", "versionId": "20260703T06:07:27" }, "label": "2443/11", "nationalCadastralReference": "850462_2443/11.C", "referencePoint": { "type": "Point", "coordinates": [ 18.33893419, 49.13726338 ] }, "validFrom": "2026-06-30T16:00:00Z", "validTo": { "@nilReason": "http://inspire.ec.europa.eu/codelist/VoidReasonValue/Unpopulated", "@nil": "true" }, "administrativeUnit": { "@href": "#auAdmUnitS.1645" } }, "geometry": { "type": "Polygon", "coordinates": [ [ [ 18.33846485, 49.13691845 ], [ 18.33845518, 49.13695059 ], [ 18.33857418, 49.13703313 ], [ 18.33869685, 49.13711814 ], [ 18.33871085, 49.13712794 ], [ 18.33873609, 49.13714542 ], [ 18.33876638, 49.13716642 ], [ 18.33887642, 49.13724278 ], [ 18.33889055, 49.1372526 ], [ 18.33907241, 49.13737872 ], [ 18.33909298, 49.13739296 ], [ 18.33913639, 49.13742309 ], [ 18.33917401, 49.1374491 ], [ 18.33920504, 49.13747069 ], [ 18.33939749, 49.13760427 ], [ 18.33942813, 49.13758648 ], [ 18.33905963, 49.1373309 ], [ 18.33897785, 49.13727417 ], [ 18.33892724, 49.13723912 ], [ 18.33867951, 49.13706735 ], [ 18.33854486, 49.13697391 ], [ 18.33846485, 49.13691845 ] ] ] } }
]
}
