{
"type": "FeatureCollection",
"name": "gis",
"crs": { "type": "name", "properties": { "name": "urn:ogc:def:crs:OGC:1.3:CRS84" } },
"features": [
{ "type": "Feature", "properties": { "@featureType": "CadastralParcel", "areaValue": { "value": 178, "@uom": "m2" }, "beginLifespanVersion": { "@nilReason": "http://inspire.ec.europa.eu/codelist/VoidReasonValue/Unpopulated", "@nil": "true" }, "endLifespanVersion": { "@nilReason": "http://inspire.ec.europa.eu/codelist/VoidReasonValue/Unpopulated", "@nil": "true" }, "inspireId": { "@dataType": "Identifier", "localId": "872881_584/5.C", "namespace": "SK.ESKN.CP", "versionId": "20260703T07:07:42" }, "label": "584/5", "nationalCadastralReference": "872881_584/5.C", "referencePoint": { "type": "Point", "coordinates": [ 21.29613474, 49.35732241 ] }, "validFrom": "2026-06-30T16:00:00Z", "validTo": { "@nilReason": "http://inspire.ec.europa.eu/codelist/VoidReasonValue/Unpopulated", "@nil": "true" }, "administrativeUnit": { "@href": "#auAdmUnitS.2055" } }, "geometry": { "type": "Polygon", "coordinates": [ [ [ 21.29598755, 49.35731491 ], [ 21.29621885, 49.35740163 ], [ 21.29628193, 49.35732991 ], [ 21.29605064, 49.35724319 ], [ 21.29598755, 49.35731491 ] ] ] } },
{ "type": "Feature", "properties": { "@featureType": "CadastralParcel", "areaValue": { "value": 1119, "@uom": "m2" }, "beginLifespanVersion": { "@nilReason": "http://inspire.ec.europa.eu/codelist/VoidReasonValue/Unpopulated", "@nil": "true" }, "endLifespanVersion": { "@nilReason": "http://inspire.ec.europa.eu/codelist/VoidReasonValue/Unpopulated", "@nil": "true" }, "inspireId": { "@dataType": "Identifier", "localId": "872881_584/1.C", "namespace": "SK.ESKN.CP", "versionId": "20260703T07:07:42" }, "label": "584/1", "nationalCadastralReference": "872881_584/1.C", "referencePoint": { "type": "Point", "coordinates": [ 21.29600894, 49.35735643 ] }, "validFrom": "2026-06-30T16:00:00Z", "validTo": { "@nilReason": "http://inspire.ec.europa.eu/codelist/VoidReasonValue/Unpopulated", "@nil": "true" }, "administrativeUnit": { "@href": "#auAdmUnitS.2055" } }, "geometry": { "type": "Polygon", "coordinates": [ [ [ 21.29665733, 49.35753987 ], [ 21.29672433, 49.35751993 ], [ 21.29675461, 49.35748529 ], [ 21.2967672, 49.35747091 ], [ 21.29680018, 49.3574332 ], [ 21.29604282, 49.35717824 ], [ 21.29603512, 49.35721122 ], [ 21.29597446, 49.35727987 ], [ 21.29583504, 49.3574744 ], [ 21.29594977, 49.35749865 ], [ 21.29600383, 49.35748426 ], [ 21.29627218, 49.35754194 ], [ 21.29629919, 49.35754771 ], [ 21.29638713, 49.35754541 ], [ 21.29639023, 49.35754064 ], [ 21.29639385, 49.3575322 ], [ 21.29640507, 49.35750608 ], [ 21.29640887, 49.35750106 ], [ 21.29652438, 49.35752191 ], [ 21.29660697, 49.35753682 ], [ 21.2966524, 49.35754134 ], [ 21.29665733, 49.35753987 ] ], [ [ 21.29598755, 49.35731491 ], [ 21.29605064, 49.35724319 ], [ 21.29628193, 49.35732991 ], [ 21.29621885, 49.35740163 ], [ 21.29598755, 49.35731491 ] ], [ [ 21.29657165, 49.35751218 ], [ 21.29656139, 49.35751493 ], [ 21.2965497, 49.35751467 ], [ 21.2965359, 49.35751101 ], [ 21.29652653, 49.35750515 ], [ 21.29652045, 49.3574938 ], [ 21.29652209, 49.35748224 ], [ 21.29649302, 49.35747047 ], [ 21.29648331, 49.3574655 ], [ 21.29647103, 49.35745604 ], [ 21.29646393, 49.35743953 ], [ 21.2964642, 49.35742586 ], [ 21.29646975, 49.35741568 ], [ 21.29647875, 49.35740524 ], [ 21.29648942, 49.35739854 ], [ 21.29650507, 49.35739541 ], [ 21.29652087, 49.35739616 ], [ 21.29653657, 49.35739825 ], [ 21.29655699, 49.35740373 ], [ 21.29665862, 49.35744351 ], [ 21.29664256, 49.3574622 ], [ 21.29665679, 49.35746749 ], [ 21.29664889, 49.35747598 ], [ 21.29664381, 49.35747376 ], [ 21.29660782, 49.35751309 ], [ 21.29659731, 49.35750971 ], [ 21.29658228, 49.35750404 ], [ 21.29657165, 49.35751218 ] ], [ [ 21.29646801, 49.35739933 ], [ 21.29640173, 49.35747339 ], [ 21.29621986, 49.35740481 ], [ 21.29628403, 49.35733132 ], [ 21.29646801, 49.35739933 ] ], [ [ 21.29649039, 49.35736923 ], [ 21.29647369, 49.35738915 ], [ 21.29641094, 49.35736647 ], [ 21.29642862, 49.35734639 ], [ 21.29649039, 49.35736923 ] ] ] } },
{ "type": "Feature", "properties": { "@featureType": "CadastralParcel", "areaValue": { "value": 145, "@uom": "m2" }, "beginLifespanVersion": { "@nilReason": "http://inspire.ec.europa.eu/codelist/VoidReasonValue/Unpopulated", "@nil": "true" }, "endLifespanVersion": { "@nilReason": "http://inspire.ec.europa.eu/codelist/VoidReasonValue/Unpopulated", "@nil": "true" }, "inspireId": { "@dataType": "Identifier", "localId": "872881_584/3.C", "namespace": "SK.ESKN.CP", "versionId": "20260703T07:07:42" }, "label": "584/3", "nationalCadastralReference": "872881_584/3.C", "referencePoint": { "type": "Point", "coordinates": [ 21.2963439, 49.35740207 ] }, "validFrom": "2026-06-30T16:00:00Z", "validTo": { "@nilReason": "http://inspire.ec.europa.eu/codelist/VoidReasonValue/Unpopulated", "@nil": "true" }, "administrativeUnit": { "@href": "#auAdmUnitS.2055" } }, "geometry": { "type": "Polygon", "coordinates": [ [ [ 21.29640173, 49.35747339 ], [ 21.29646801, 49.35739933 ], [ 21.29628403, 49.35733132 ], [ 21.29621986, 49.35740481 ], [ 21.29640173, 49.35747339 ] ] ] } },
{ "type": "Feature", "properties": { "@featureType": "CadastralParcel", "areaValue": { "value": 122, "@uom": "m2" }, "beginLifespanVersion": { "@nilReason": "http://inspire.ec.europa.eu/codelist/VoidReasonValue/Unpopulated", "@nil": "true" }, "endLifespanVersion": { "@nilReason": "http://inspire.ec.europa.eu/codelist/VoidReasonValue/Unpopulated", "@nil": "true" }, "inspireId": { "@dataType": "Identifier", "localId": "872881_584/2.C", "namespace": "SK.ESKN.CP", "versionId": "20260703T07:07:42" }, "label": "584/2", "nationalCadastralReference": "872881_584/2.C", "referencePoint": { "type": "Point", "coordinates": [ 21.29656079, 49.35744978 ] }, "validFrom": "2026-06-30T16:00:00Z", "validTo": { "@nilReason": "http://inspire.ec.europa.eu/codelist/VoidReasonValue/Unpopulated", "@nil": "true" }, "administrativeUnit": { "@href": "#auAdmUnitS.2055" } }, "geometry": { "type": "Polygon", "coordinates": [ [ [ 21.29656139, 49.35751493 ], [ 21.29657165, 49.35751218 ], [ 21.29658228, 49.35750404 ], [ 21.29659731, 49.35750971 ], [ 21.29660782, 49.35751309 ], [ 21.29664381, 49.35747376 ], [ 21.29664889, 49.35747598 ], [ 21.29665679, 49.35746749 ], [ 21.29664256, 49.3574622 ], [ 21.29665862, 49.35744351 ], [ 21.29655699, 49.35740373 ], [ 21.29653657, 49.35739825 ], [ 21.29652087, 49.35739616 ], [ 21.29650507, 49.35739541 ], [ 21.29648942, 49.35739854 ], [ 21.29647875, 49.35740524 ], [ 21.29646975, 49.35741568 ], [ 21.2964642, 49.35742586 ], [ 21.29646393, 49.35743953 ], [ 21.29647103, 49.35745604 ], [ 21.29648331, 49.3574655 ], [ 21.29649302, 49.35747047 ], [ 21.29652209, 49.35748224 ], [ 21.29652045, 49.3574938 ], [ 21.29652653, 49.35750515 ], [ 21.2965359, 49.35751101 ], [ 21.2965497, 49.35751467 ], [ 21.29656139, 49.35751493 ] ] ] } },
{ "type": "Feature", "properties": { "@featureType": "CadastralParcel", "areaValue": { "value": 13, "@uom": "m2" }, "beginLifespanVersion": { "@nilReason": "http://inspire.ec.europa.eu/codelist/VoidReasonValue/Unpopulated", "@nil": "true" }, "endLifespanVersion": { "@nilReason": "http://inspire.ec.europa.eu/codelist/VoidReasonValue/Unpopulated", "@nil": "true" }, "inspireId": { "@dataType": "Identifier", "localId": "872881_584/4.C", "namespace": "SK.ESKN.CP", "versionId": "20260703T07:07:42" }, "label": "584/4", "nationalCadastralReference": "872881_584/4.C", "referencePoint": { "type": "Point", "coordinates": [ 21.29645071, 49.35736785 ] }, "validFrom": "2026-06-30T16:00:00Z", "validTo": { "@nilReason": "http://inspire.ec.europa.eu/codelist/VoidReasonValue/Unpopulated", "@nil": "true" }, "administrativeUnit": { "@href": "#auAdmUnitS.2055" } }, "geometry": { "type": "Polygon", "coordinates": [ [ [ 21.29647369, 49.35738915 ], [ 21.29649039, 49.35736923 ], [ 21.29642862, 49.35734639 ], [ 21.29641094, 49.35736647 ], [ 21.29647369, 49.35738915 ] ] ] } }
]
}
