{
"type": "FeatureCollection",
"name": "gis",
"crs": { "type": "name", "properties": { "name": "urn:ogc:def:crs:OGC:1.3:CRS84" } },
"features": [
{ "type": "Feature", "properties": { "@featureType": "CadastralParcel", "areaValue": { "value": 27717, "@uom": "m2" }, "beginLifespanVersion": { "@nilReason": "http://inspire.ec.europa.eu/codelist/VoidReasonValue/Unpopulated", "@nil": "true" }, "endLifespanVersion": { "@nilReason": "http://inspire.ec.europa.eu/codelist/VoidReasonValue/Unpopulated", "@nil": "true" }, "inspireId": { "@dataType": "Identifier", "localId": "849839_2340/9.C", "namespace": "SK.ESKN.CP", "versionId": "20260703T04:07:08" }, "label": "2340/9", "nationalCadastralReference": "849839_2340/9.C", "referencePoint": { "type": "Point", "coordinates": [ 18.95051554, 49.08991537 ] }, "validFrom": "2026-06-30T16:00:00Z", "validTo": { "@nilReason": "http://inspire.ec.europa.eu/codelist/VoidReasonValue/Unpopulated", "@nil": "true" }, "administrativeUnit": { "@href": "#auAdmUnitS.2821" } }, "geometry": { "type": "Polygon", "coordinates": [ [ [ 18.9531367, 49.08986129 ], [ 18.95311145, 49.09000414 ], [ 18.9530193, 49.08999714 ], [ 18.9530537, 49.08980199 ], [ 18.95300937, 49.08979939 ], [ 18.95300014, 49.08985709 ], [ 18.95231734, 49.08981031 ], [ 18.95232733, 49.08974732 ], [ 18.95218142, 49.08973616 ], [ 18.95177773, 49.08970528 ], [ 18.95138288, 49.08967504 ], [ 18.94830947, 49.08943987 ], [ 18.94777948, 49.08944372 ], [ 18.94740999, 49.08948419 ], [ 18.94723196, 49.08951397 ], [ 18.94721361, 49.08985424 ], [ 18.95029373, 49.09009447 ], [ 18.95248695, 49.09026841 ], [ 18.95247974, 49.09031116 ], [ 18.95266124, 49.09032213 ], [ 18.95488466, 49.09045056 ], [ 18.95489917, 49.09033017 ], [ 18.95462509, 49.09031118 ], [ 18.95462555, 49.0903084 ], [ 18.95294209, 49.09018607 ], [ 18.95295239, 49.09012634 ], [ 18.95279831, 49.09011576 ], [ 18.95280783, 49.09005915 ], [ 18.95292376, 49.09006825 ], [ 18.95292211, 49.09007881 ], [ 18.95296009, 49.09008172 ], [ 18.95296722, 49.09004078 ], [ 18.9546473, 49.09016141 ], [ 18.95464778, 49.09015854 ], [ 18.95491589, 49.09017922 ], [ 18.95491627, 49.09017599 ], [ 18.95493242, 49.09003105 ], [ 18.95475027, 49.08996945 ], [ 18.9531367, 49.08986129 ] ], [ [ 18.95377571, 49.09029828 ], [ 18.95376544, 49.09036839 ], [ 18.9536746, 49.0903619 ], [ 18.95368479, 49.09029252 ], [ 18.95377571, 49.09029828 ] ], [ [ 18.95268786, 49.09011252 ], [ 18.95267618, 49.09017587 ], [ 18.95260841, 49.09017056 ], [ 18.95262024, 49.09010712 ], [ 18.95268786, 49.09011252 ] ], [ [ 18.95250692, 49.09000542 ], [ 18.95249218, 49.09009252 ], [ 18.95216021, 49.09006835 ], [ 18.95217631, 49.08998131 ], [ 18.95250692, 49.09000542 ] ] ] } },
{ "type": "Feature", "properties": { "@featureType": "CadastralParcel", "areaValue": { "value": 37484, "@uom": "m2" }, "beginLifespanVersion": { "@nilReason": "http://inspire.ec.europa.eu/codelist/VoidReasonValue/Unpopulated", "@nil": "true" }, "endLifespanVersion": { "@nilReason": "http://inspire.ec.europa.eu/codelist/VoidReasonValue/Unpopulated", "@nil": "true" }, "inspireId": { "@dataType": "Identifier", "localId": "849839_2340/7.C", "namespace": "SK.ESKN.CP", "versionId": "20260703T04:07:08" }, "label": "2340/7", "nationalCadastralReference": "849839_2340/7.C", "referencePoint": { "type": "Point", "coordinates": [ 18.95252227, 49.08936256 ] }, "validFrom": "2026-06-30T16:00:00Z", "validTo": { "@nilReason": "http://inspire.ec.europa.eu/codelist/VoidReasonValue/Unpopulated", "@nil": "true" }, "administrativeUnit": { "@href": "#auAdmUnitS.2821" } }, "geometry": { "type": "Polygon", "coordinates": [ [ [ 18.95652186, 49.08977422 ], [ 18.95651304, 49.08983547 ], [ 18.9565264, 49.08983632 ], [ 18.95653298, 49.08979066 ], [ 18.95686257, 49.08981055 ], [ 18.9568773, 49.08979028 ], [ 18.95699096, 49.08947286 ], [ 18.95711968, 49.08937636 ], [ 18.9570051, 49.08929464 ], [ 18.95157146, 49.08887924 ], [ 18.95139448, 49.0888813 ], [ 18.95102016, 49.08891387 ], [ 18.94965951, 49.08912962 ], [ 18.94851815, 49.0892998 ], [ 18.9482199, 49.08934875 ], [ 18.95140045, 49.08959079 ], [ 18.95179463, 49.08962082 ], [ 18.95219807, 49.0896515 ], [ 18.95306852, 49.08971769 ], [ 18.95307033, 49.08970226 ], [ 18.95220111, 49.08963614 ], [ 18.95179767, 49.08960546 ], [ 18.95140361, 49.08957552 ], [ 18.9513018, 49.08956776 ], [ 18.95131046, 49.08951029 ], [ 18.9514157, 49.08951805 ], [ 18.95180932, 49.08954706 ], [ 18.95221286, 49.08957684 ], [ 18.9554161, 49.08981288 ], [ 18.95581721, 49.08984243 ], [ 18.95592136, 49.08985013 ], [ 18.95594207, 49.08976477 ], [ 18.95595532, 49.08971024 ], [ 18.95608201, 49.08971664 ], [ 18.95607529, 49.08977403 ], [ 18.95607137, 49.08980756 ], [ 18.95645838, 49.08983198 ], [ 18.95646718, 49.08977209 ], [ 18.95621269, 49.0897558 ], [ 18.95623356, 49.08961517 ], [ 18.95681068, 49.08965208 ], [ 18.95678997, 49.08979137 ], [ 18.95652186, 49.08977422 ] ], [ [ 18.95130191, 49.08950941 ], [ 18.95128142, 49.08950846 ], [ 18.95128357, 49.08949134 ], [ 18.9513039, 49.08949246 ], [ 18.95130191, 49.08950941 ] ], [ [ 18.95663234, 49.08942417 ], [ 18.95665646, 49.0892874 ], [ 18.95694909, 49.08930858 ], [ 18.95692599, 49.08944487 ], [ 18.95663234, 49.08942417 ] ] ] } },
{ "type": "Feature", "properties": { "@featureType": "CadastralParcel", "areaValue": { "value": 1328, "@uom": "m2" }, "beginLifespanVersion": { "@nilReason": "http://inspire.ec.europa.eu/codelist/VoidReasonValue/Unpopulated", "@nil": "true" }, "endLifespanVersion": { "@nilReason": "http://inspire.ec.europa.eu/codelist/VoidReasonValue/Unpopulated", "@nil": "true" }, "inspireId": { "@dataType": "Identifier", "localId": "849839_2338/7.C", "namespace": "SK.ESKN.CP", "versionId": "20260703T04:07:08" }, "label": "2338/7", "nationalCadastralReference": "849839_2338/7.C", "referencePoint": { "type": "Point", "coordinates": [ 18.94678827, 49.08968704 ] }, "validFrom": "2026-06-30T16:00:00Z", "validTo": { "@nilReason": "http://inspire.ec.europa.eu/codelist/VoidReasonValue/Unpopulated", "@nil": "true" }, "administrativeUnit": { "@href": "#auAdmUnitS.2821" } }, "geometry": { "type": "Polygon", "coordinates": [ [ [ 18.94630181, 49.08970501 ], [ 18.94721361, 49.08985424 ], [ 18.94723196, 49.08951397 ], [ 18.94660008, 49.08961963 ], [ 18.946406, 49.08966907 ], [ 18.94630181, 49.08970501 ] ] ] } },
{ "type": "Feature", "properties": { "@featureType": "CadastralParcel", "areaValue": { "value": 1679, "@uom": "m2" }, "beginLifespanVersion": { "@nilReason": "http://inspire.ec.europa.eu/codelist/VoidReasonValue/Unpopulated", "@nil": "true" }, "endLifespanVersion": { "@nilReason": "http://inspire.ec.europa.eu/codelist/VoidReasonValue/Unpopulated", "@nil": "true" }, "inspireId": { "@dataType": "Identifier", "localId": "849839_3403/4.C", "namespace": "SK.ESKN.CP", "versionId": "20260703T04:07:08" }, "label": "3403/4", "nationalCadastralReference": "849839_3403/4.C", "referencePoint": { "type": "Point", "coordinates": [ 18.94828984, 49.08932428 ] }, "validFrom": "2026-06-30T16:00:00Z", "validTo": { "@nilReason": "http://inspire.ec.europa.eu/codelist/VoidReasonValue/Unpopulated", "@nil": "true" }, "administrativeUnit": { "@href": "#auAdmUnitS.2821" } }, "geometry": { "type": "Polygon", "coordinates": [ [ [ 18.94777948, 49.08944372 ], [ 18.9482199, 49.08934875 ], [ 18.94851815, 49.0892998 ], [ 18.94965951, 49.08912962 ], [ 18.95102016, 49.08891387 ], [ 18.95139448, 49.0888813 ], [ 18.95157146, 49.08887924 ], [ 18.95126938, 49.08885666 ], [ 18.94952496, 49.08912002 ], [ 18.94677499, 49.0895474 ], [ 18.94555998, 49.0897435 ], [ 18.94559193, 49.08982232 ], [ 18.94579179, 49.08980673 ], [ 18.94618116, 49.08974662 ], [ 18.94623841, 49.08972688 ], [ 18.94630181, 49.08970501 ], [ 18.946406, 49.08966907 ], [ 18.94660008, 49.08961963 ], [ 18.94723196, 49.08951397 ], [ 18.94740999, 49.08948419 ], [ 18.94777948, 49.08944372 ] ] ] } }
]
}
