{
"type": "FeatureCollection",
"name": "gis",
"crs": { "type": "name", "properties": { "name": "urn:ogc:def:crs:OGC:1.3:CRS84" } },
"features": [
{ "type": "Feature", "properties": { "@featureType": "CadastralParcel", "areaValue": { "value": 16113, "@uom": "m2" }, "beginLifespanVersion": { "@nilReason": "http://inspire.ec.europa.eu/codelist/VoidReasonValue/Unpopulated", "@nil": "true" }, "endLifespanVersion": { "@nilReason": "http://inspire.ec.europa.eu/codelist/VoidReasonValue/Unpopulated", "@nil": "true" }, "inspireId": { "@dataType": "Identifier", "localId": "831484_787.E", "namespace": "SK.ESKN.CP", "versionId": "20260703T07:07:00" }, "label": "787", "nationalCadastralReference": "831484_787.E", "referencePoint": { "type": "Point", "coordinates": [ 19.35471023, 49.19013683 ] }, "validFrom": "2026-06-30T16:00:00Z", "validTo": { "@nilReason": "http://inspire.ec.europa.eu/codelist/VoidReasonValue/Unpopulated", "@nil": "true" }, "administrativeUnit": { "@href": "#auAdmUnitS.1758" } }, "geometry": { "type": "Polygon", "coordinates": [ [ [ 19.35458141, 49.19078228 ], [ 19.35468082, 49.19092984 ], [ 19.35609994, 49.19113875 ], [ 19.35639248, 49.19112896 ], [ 19.35607331, 49.19077716 ], [ 19.35565431, 49.19077479 ], [ 19.35565842, 49.19078751 ], [ 19.35564076, 49.19078795 ], [ 19.35563858, 49.19077522 ], [ 19.35555809, 49.19077415 ], [ 19.355458, 49.19062529 ], [ 19.35540864, 49.19052191 ], [ 19.35538549, 49.190272 ], [ 19.35521945, 49.19000167 ], [ 19.35523169, 49.18989225 ], [ 19.35515632, 49.18978774 ], [ 19.35512893, 49.18978546 ], [ 19.35509762, 49.18975605 ], [ 19.35509328, 49.18969634 ], [ 19.35505509, 49.18960529 ], [ 19.3549684, 49.1895126 ], [ 19.35488346, 49.18945912 ], [ 19.35479143, 49.18940512 ], [ 19.35470474, 49.18932369 ], [ 19.35463554, 49.18931377 ], [ 19.35430388, 49.18926628 ], [ 19.35421169, 49.18904017 ], [ 19.35419755, 49.18900596 ], [ 19.35386086, 49.18902468 ], [ 19.35387728, 49.18906566 ], [ 19.35405011, 49.18984856 ], [ 19.35406834, 49.18992587 ], [ 19.35415295, 49.19028541 ], [ 19.35476703, 49.19055028 ], [ 19.35475743, 49.19066577 ], [ 19.3549431, 49.19073895 ], [ 19.35458141, 49.19078228 ] ] ] } },
{ "type": "Feature", "properties": { "@featureType": "CadastralParcel", "areaValue": { "value": 10640, "@uom": "m2" }, "beginLifespanVersion": { "@nilReason": "http://inspire.ec.europa.eu/codelist/VoidReasonValue/Unpopulated", "@nil": "true" }, "endLifespanVersion": { "@nilReason": "http://inspire.ec.europa.eu/codelist/VoidReasonValue/Unpopulated", "@nil": "true" }, "inspireId": { "@dataType": "Identifier", "localId": "831484_786/1.C", "namespace": "SK.ESKN.CP", "versionId": "20260703T07:07:00" }, "label": "786/1", "nationalCadastralReference": "831484_786/1.C", "referencePoint": { "type": "Point", "coordinates": [ 19.3545731, 49.18977075 ] }, "validFrom": "2026-06-30T16:00:00Z", "validTo": { "@nilReason": "http://inspire.ec.europa.eu/codelist/VoidReasonValue/Unpopulated", "@nil": "true" }, "administrativeUnit": { "@href": "#auAdmUnitS.1758" } }, "geometry": { "type": "Polygon", "coordinates": [ [ [ 19.35415295, 49.19028541 ], [ 19.35416402, 49.19033254 ], [ 19.35540864, 49.19052191 ], [ 19.35538549, 49.190272 ], [ 19.35521945, 49.19000167 ], [ 19.35523169, 49.18989225 ], [ 19.35515632, 49.18978774 ], [ 19.35512893, 49.18978546 ], [ 19.35509762, 49.18975605 ], [ 19.35509328, 49.18969634 ], [ 19.35505509, 49.18960529 ], [ 19.3549684, 49.1895126 ], [ 19.35488346, 49.18945912 ], [ 19.35476485, 49.18944444 ], [ 19.35463554, 49.18931377 ], [ 19.35430388, 49.18926628 ], [ 19.35421169, 49.18904017 ], [ 19.35387728, 49.18906566 ], [ 19.35389282, 49.18913608 ], [ 19.35405011, 49.18984856 ], [ 19.35406834, 49.18992587 ], [ 19.35415295, 49.19028541 ] ] ] } }
]
}
