{
"type": "FeatureCollection",
"name": "gis",
"crs": { "type": "name", "properties": { "name": "urn:ogc:def:crs:OGC:1.3:CRS84" } },
"features": [
{ "type": "Feature", "properties": { "@featureType": "CadastralParcel", "areaValue": { "value": 323034, "@uom": "m2" }, "beginLifespanVersion": { "@nilReason": "http://inspire.ec.europa.eu/codelist/VoidReasonValue/Unpopulated", "@nil": "true" }, "endLifespanVersion": { "@nilReason": "http://inspire.ec.europa.eu/codelist/VoidReasonValue/Unpopulated", "@nil": "true" }, "inspireId": { "@dataType": "Identifier", "localId": "861375_4332.C", "namespace": "SK.ESKN.CP", "versionId": "20260703T06:07:14" }, "label": "4332", "nationalCadastralReference": "861375_4332.C", "referencePoint": { "type": "Point", "coordinates": [ 20.02997392, 49.02413983 ] }, "validFrom": "2026-06-30T16:00:00Z", "validTo": { "@nilReason": "http://inspire.ec.europa.eu/codelist/VoidReasonValue/Unpopulated", "@nil": "true" }, "administrativeUnit": { "@href": "#auAdmUnitS.1169" } }, "geometry": { "type": "Polygon", "coordinates": [ [ [ 20.02601371, 49.02692286 ], [ 20.02621222, 49.02694187 ], [ 20.02649123, 49.02700016 ], [ 20.02676399, 49.02705657 ], [ 20.02718515, 49.02711722 ], [ 20.02759227, 49.02716134 ], [ 20.02785325, 49.02717031 ], [ 20.02809204, 49.02718072 ], [ 20.02840473, 49.02721354 ], [ 20.02893995, 49.02727358 ], [ 20.02916927, 49.02728989 ], [ 20.02972709, 49.02730977 ], [ 20.02989219, 49.0273156 ], [ 20.03026913, 49.02734719 ], [ 20.03049681, 49.02739507 ], [ 20.03065427, 49.02745221 ], [ 20.03076492, 49.0275275 ], [ 20.03082242, 49.02763854 ], [ 20.03085449, 49.02773754 ], [ 20.03086464, 49.02776895 ], [ 20.03127208, 49.02767341 ], [ 20.03159739, 49.02761133 ], [ 20.03189062, 49.02755531 ], [ 20.03198845, 49.02753664 ], [ 20.03212701, 49.02749316 ], [ 20.03226897, 49.02744856 ], [ 20.03238112, 49.02741336 ], [ 20.03245927, 49.02738271 ], [ 20.03259749, 49.02732849 ], [ 20.03266297, 49.02730281 ], [ 20.03282046, 49.02723615 ], [ 20.03294154, 49.02718483 ], [ 20.03296881, 49.02717334 ], [ 20.03305003, 49.02712911 ], [ 20.03317894, 49.02705901 ], [ 20.03319969, 49.02704113 ], [ 20.03330329, 49.02695197 ], [ 20.03340105, 49.02686797 ], [ 20.03346315, 49.02681448 ], [ 20.03348272, 49.02678304 ], [ 20.0335651, 49.02665056 ], [ 20.03360565, 49.02657447 ], [ 20.03361992, 49.02655127 ], [ 20.03365742, 49.02648857 ], [ 20.03377864, 49.02618155 ], [ 20.03385063, 49.02580167 ], [ 20.03388759, 49.02560667 ], [ 20.0338564, 49.025405 ], [ 20.03369801, 49.02490082 ], [ 20.03352525, 49.02452868 ], [ 20.03352283, 49.02450236 ], [ 20.0335011, 49.02426188 ], [ 20.03354877, 49.02401778 ], [ 20.03355475, 49.02398667 ], [ 20.0335168, 49.02385598 ], [ 20.03349615, 49.02378512 ], [ 20.03344063, 49.02372084 ], [ 20.03303385, 49.02350826 ], [ 20.03284404, 49.02340978 ], [ 20.03254286, 49.02331536 ], [ 20.03237687, 49.02325436 ], [ 20.0322559, 49.02320981 ], [ 20.03214431, 49.02316881 ], [ 20.0320539, 49.02313561 ], [ 20.03194418, 49.02309522 ], [ 20.03173505, 49.02301829 ], [ 20.03158395, 49.02297782 ], [ 20.03134402, 49.02291358 ], [ 20.0312966, 49.02287928 ], [ 20.03106385, 49.02271109 ], [ 20.0306928, 49.02251043 ], [ 20.03014573, 49.02196073 ], [ 20.03005194, 49.02179368 ], [ 20.03007662, 49.02150781 ], [ 20.03003174, 49.02121717 ], [ 20.03008429, 49.02098525 ], [ 20.03027361, 49.02069257 ], [ 20.02937681, 49.02072123 ], [ 20.02841482, 49.0202718 ], [ 20.02788576, 49.02049386 ], [ 20.02694756, 49.02057151 ], [ 20.02601371, 49.02692286 ] ] ] } }
]
}
