{
"type": "FeatureCollection",
"name": "gis",
"crs": { "type": "name", "properties": { "name": "urn:ogc:def:crs:OGC:1.3:CRS84" } },
"features": [
{ "type": "Feature", "properties": { "@featureType": "CadastralZoning", "beginLifespanVersion": { "@nilReason": "http://inspire.ec.europa.eu/codelist/VoidReasonValue/Unpopulated", "@nil": "true" }, "endLifespanVersion": { "@nilReason": "http://inspire.ec.europa.eu/codelist/VoidReasonValue/Unpopulated", "@nil": "true" }, "estimatedAccuracy": { "value": -1, "@uom": "m" }, "inspireId": { "@dataType": "Identifier", "localId": "868868", "namespace": "SK.ESKN.CP", "versionId": "20260703T04:07:40" }, "label": "Veľký Biel", "level": { "@href": "http://inspire.ec.europa.eu/codelist/CadastralZoningLevelValue/3rdOrder" }, "levelName": { "value": "Katastrálne územie", "@locale": "sk" }, "name_1": { "@dataType": "name", "GeographicalName": { "@dataType": "GeographicalName", "language": "SLK", "nativeness": { "@href": "http://inspire.ec.europa.eu/codelist/NativenessValue/endonym", "@title": "endonym" }, "nameStatus": { "@href": "http://inspire.ec.europa.eu/codelist/NameStatusValue/official", "@title": "official" }, "sourceOfName": { "@nilReason": "http://inspire.ec.europa.eu/codelist/VoidReasonValue/Unpopulated", "@nil": "true" }, "pronunciation": { "@dataType": "pronunciation", "@nilReason": "http://inspire.ec.europa.eu/codelist/VoidReasonValue/Unpopulated", "@nil": "true" }, "spelling": { "@dataType": "SpellingOfName", "text": "Veľký Biel", "script": "LATN" } } }, "nationalCadastalZoningReference": "868868", "validFrom": "2026-06-30T16:00:00Z", "validTo": { "@nilReason": "http://inspire.ec.europa.eu/codelist/VoidReasonValue/Unpopulated", "@nil": "true" }, "place_id": 187510062, "osm_type": "way", "osm_id": 313483817, "place_rank": 19, "category": "place", "type": "village", "importance": 0.43060522884509167, "addresstype": "village", "name_2": "Veľký Biel", "display_name": "Veľký Biel, okres Senec, Bratislavský kraj, Slovensko" }, "geometry": { "type": "Polygon", "coordinates": [ [ [ 17.35931239, 48.22087216 ], [ 17.35958781, 48.22064749 ], [ 17.35962697, 48.22061563 ], [ 17.35966432, 48.22057949 ], [ 17.35967536, 48.22058075 ], [ 17.35970862, 48.22058447 ], [ 17.35987077, 48.22060277 ], [ 17.35987995, 48.22060383 ], [ 17.35993435, 48.22061001 ], [ 17.36022378, 48.2206428 ], [ 17.36038047, 48.22066057 ], [ 17.36041533, 48.22066448 ], [ 17.36043249, 48.22066641 ], [ 17.36051069, 48.22067533 ], [ 17.36052798, 48.22067728 ], [ 17.36058013, 48.22068313 ], [ 17.36066926, 48.22069322 ], [ 17.36092171, 48.22072187 ], [ 17.36093741, 48.22072362 ], [ 17.36101855, 48.22073282 ], [ 17.36103997, 48.22073522 ], [ 17.36105327, 48.22073672 ], [ 17.36106989, 48.22073862 ], [ 17.36108173, 48.22073994 ], [ 17.3616009, 48.22079871 ], [ 17.36174215, 48.22081474 ], [ 17.36176118, 48.22081689 ], [ 17.36212285, 48.22085784 ], [ 17.36212644, 48.22085825 ], [ 17.36215094, 48.22086085 ], [ 17.36215679, 48.22086151 ], [ 17.36215999, 48.22086181 ], [ 17.36218783, 48.22086471 ], [ 17.3622074, 48.22086681 ], [ 17.36251871, 48.22089985 ], [ 17.36260606, 48.22090909 ], [ 17.36262669, 48.22091135 ], [ 17.36306143, 48.22095844 ], [ 17.36338716, 48.22099368 ], [ 17.3633973, 48.22099462 ], [ 17.36343439, 48.22099804 ], [ 17.36349444, 48.22100351 ], [ 17.36352391, 48.22098881 ], [ 17.36352741, 48.22098705 ], [ 17.36375642, 48.2208731 ], [ 17.36376561, 48.22086855 ], [ 17.36488269, 48.2203125 ], [ 17.36503353, 48.22023734 ], [ 17.36510529, 48.22020165 ], [ 17.36526006, 48.22012458 ], [ 17.36535474, 48.22007737 ], [ 17.36541483, 48.22004751 ], [ 17.3654408, 48.22003457 ], [ 17.36546225, 48.22002387 ], [ 17.36549887, 48.22000557 ], [ 17.36550966, 48.22000022 ], [ 17.3655187, 48.21999576 ], [ 17.3655826, 48.21995557 ], [ 17.36562032, 48.21993897 ], [ 17.36579277, 48.21986306 ], [ 17.36593457, 48.21979608 ], [ 17.36618383, 48.21967766 ], [ 17.36624181, 48.21965019 ], [ 17.36632045, 48.21961278 ], [ 17.36659203, 48.21947125 ], [ 17.36668265, 48.21942405 ], [ 17.36677518, 48.2193758 ], [ 17.36678878, 48.21936792 ], [ 17.36688016, 48.21931462 ], [ 17.36695023, 48.21927385 ], [ 17.3670469, 48.21921764 ], [ 17.36730503, 48.21906728 ], [ 17.36743546, 48.21914241 ], [ 17.36753211, 48.21919799 ], [ 17.36753922, 48.21920207 ], [ 17.36756964, 48.2192196 ], [ 17.36766496, 48.21927138 ], [ 17.36772163, 48.21930446 ], [ 17.36774032, 48.21931535 ], [ 17.36776164, 48.21932768 ], [ 17.36789841, 48.21940657 ], [ 17.36790866, 48.2194123 ], [ 17.36795908, 48.21943919 ], [ 17.3679934, 48.21945869 ], [ 17.36802423, 48.21947625 ], [ 17.36805431, 48.2194934 ], [ 17.368133831186071, 48.219427870848243 ], [ 17.3674351, 48.2190486 ], [ 17.3672955, 48.2190536 ], [ 17.3662059, 48.2196187 ], [ 17.3645445, 48.2182383 ], [ 17.3648389, 48.2180918 ], [ 17.3648907, 48.2180583 ], [ 17.3649013, 48.2180248 ], [ 17.3648995, 48.217995 ], [ 17.3648835, 48.2179676 ], [ 17.3646532, 48.2177873 ], [ 17.3644476, 48.217606 ], [ 17.3642167, 48.2174295 ], [ 17.363023, 48.2164873 ], [ 17.3628875, 48.2163906 ], [ 17.3627458, 48.2163248 ], [ 17.3625687, 48.2162765 ], [ 17.3629881, 48.2161196 ], [ 17.3635701, 48.2156633 ], [ 17.362819, 48.2153133 ], [ 17.361822, 48.2149024 ], [ 17.3614754, 48.2150288 ], [ 17.3610988, 48.2148723 ], [ 17.3617377, 48.2142616 ], [ 17.3623035, 48.2136394 ], [ 17.3624596, 48.2135212 ], [ 17.3627312, 48.2134156 ], [ 17.3630689, 48.2133402 ], [ 17.3635531, 48.213295 ], [ 17.36418, 48.2133539 ], [ 17.3647702, 48.2126635 ], [ 17.3666213, 48.2104945 ], [ 17.3672947, 48.2096929 ], [ 17.36746542058442, 48.209548316361172 ], [ 17.36740809, 48.20952173 ], [ 17.36742342, 48.20950755 ], [ 17.36744266, 48.20948974 ], [ 17.36747005, 48.20946886 ], [ 17.36740921, 48.20944029 ], [ 17.367605327294445, 48.209275685364794 ], [ 17.3675641, 48.2092557 ], [ 17.3677115, 48.2091307 ], [ 17.3677333, 48.2090687 ], [ 17.367914, 48.2088958 ], [ 17.3678876, 48.2088843 ], [ 17.3680568, 48.2086949 ], [ 17.3673336, 48.2085013 ], [ 17.3671563, 48.2087883 ], [ 17.3673497, 48.208855 ], [ 17.3672868, 48.2089463 ], [ 17.3657771, 48.2086545 ], [ 17.3660842, 48.2082949 ], [ 17.3652772, 48.2080587 ], [ 17.3649582, 48.2084335 ], [ 17.3647149, 48.2083366 ], [ 17.3646834, 48.2083047 ], [ 17.3646599, 48.2082532 ], [ 17.3646106, 48.2079438 ], [ 17.3645846, 48.2078987 ], [ 17.3641862, 48.2077481 ], [ 17.3638889, 48.2077122 ], [ 17.363806, 48.207737 ], [ 17.3637288, 48.2078034 ], [ 17.3635987, 48.20801 ], [ 17.3632655, 48.2079276 ], [ 17.3627366, 48.2077799 ], [ 17.3624674, 48.2076546 ], [ 17.3623227, 48.20761 ], [ 17.3623321, 48.2075968 ], [ 17.3622694, 48.2075793 ], [ 17.362256, 48.2075935 ], [ 17.3621289, 48.207559 ], [ 17.3617706, 48.2074874 ], [ 17.3617151, 48.2074712 ], [ 17.3616918, 48.2074571 ], [ 17.3616702, 48.2074323 ], [ 17.3616598, 48.2074153 ], [ 17.3618153, 48.2070748 ], [ 17.3621589, 48.206249 ], [ 17.3622058, 48.2061294 ], [ 17.3618105, 48.2060635 ], [ 17.3609293, 48.2059889 ], [ 17.3547778, 48.2050662 ], [ 17.3520658, 48.2046719 ], [ 17.3505061, 48.2044072 ], [ 17.3504244, 48.2048087 ], [ 17.350506, 48.2048589 ], [ 17.3514621, 48.2056366 ], [ 17.3499454, 48.2084167 ], [ 17.3497249, 48.2089309 ], [ 17.3497211, 48.2090285 ], [ 17.3500264, 48.2090314 ], [ 17.3503594, 48.2090581 ], [ 17.3505522, 48.2090761 ], [ 17.3503394, 48.2095687 ], [ 17.3508971, 48.2095803 ], [ 17.3511271, 48.2090868 ], [ 17.352276, 48.2091079 ], [ 17.3520544, 48.2095966 ], [ 17.35226, 48.2096442 ], [ 17.3525106, 48.2091158 ], [ 17.353719, 48.2091477 ], [ 17.3534968, 48.2096224 ], [ 17.353737, 48.2096758 ], [ 17.3534567, 48.2102841 ], [ 17.353739, 48.2103335 ], [ 17.3542835, 48.2091605 ], [ 17.3551134, 48.2091792 ], [ 17.3548933, 48.209664 ], [ 17.3551365, 48.209684 ], [ 17.3553854, 48.2091862 ], [ 17.3555456, 48.2091968 ], [ 17.3557358, 48.2092222 ], [ 17.3558464, 48.2092513 ], [ 17.3559451, 48.2092893 ], [ 17.3561083, 48.2093821 ], [ 17.355895, 48.2098841 ], [ 17.3560516, 48.2099206 ], [ 17.355967, 48.2101339 ], [ 17.3560704, 48.2103433 ], [ 17.3563255, 48.2106174 ], [ 17.3569389, 48.2109937 ], [ 17.357302, 48.2112792 ], [ 17.3580656, 48.2116091 ], [ 17.3575107, 48.2127829 ], [ 17.3565667, 48.2147073 ], [ 17.3558875, 48.2147201 ], [ 17.3556286, 48.2151121 ], [ 17.3541379, 48.2148902 ], [ 17.353779, 48.2148677 ], [ 17.3533261, 48.2147779 ], [ 17.3528111, 48.2157486 ], [ 17.3524768, 48.2156824 ], [ 17.3523154, 48.2160104 ], [ 17.352056, 48.2159706 ], [ 17.3520039, 48.2160852 ], [ 17.3515202, 48.2160413 ], [ 17.3509494, 48.216096 ], [ 17.3506731, 48.2163622 ], [ 17.3507917, 48.2165942 ], [ 17.3510736, 48.2175003 ], [ 17.3512871, 48.2178456 ], [ 17.3520161, 48.2176539 ], [ 17.3525975, 48.2179931 ], [ 17.3557001, 48.2199778 ], [ 17.3560616, 48.21981 ], [ 17.3569864, 48.2204945 ], [ 17.3579123, 48.2199163 ], [ 17.359277922482658, 48.220900269755226 ], [ 17.35931239, 48.22087216 ] ] ] } },
{ "type": "Feature", "properties": { "@featureType": "CadastralZoning", "beginLifespanVersion": { "@nilReason": "http://inspire.ec.europa.eu/codelist/VoidReasonValue/Unpopulated", "@nil": "true" }, "endLifespanVersion": { "@nilReason": "http://inspire.ec.europa.eu/codelist/VoidReasonValue/Unpopulated", "@nil": "true" }, "estimatedAccuracy": { "value": -1, "@uom": "m" }, "inspireId": { "@dataType": "Identifier", "localId": "868868", "namespace": "SK.ESKN.CP", "versionId": "20260703T04:07:40" }, "label": "Veľký Biel", "level": { "@href": "http://inspire.ec.europa.eu/codelist/CadastralZoningLevelValue/3rdOrder" }, "levelName": { "value": "Katastrálne územie", "@locale": "sk" }, "name_1": { "@dataType": "name", "GeographicalName": { "@dataType": "GeographicalName", "language": "SLK", "nativeness": { "@href": "http://inspire.ec.europa.eu/codelist/NativenessValue/endonym", "@title": "endonym" }, "nameStatus": { "@href": "http://inspire.ec.europa.eu/codelist/NameStatusValue/official", "@title": "official" }, "sourceOfName": { "@nilReason": "http://inspire.ec.europa.eu/codelist/VoidReasonValue/Unpopulated", "@nil": "true" }, "pronunciation": { "@dataType": "pronunciation", "@nilReason": "http://inspire.ec.europa.eu/codelist/VoidReasonValue/Unpopulated", "@nil": "true" }, "spelling": { "@dataType": "SpellingOfName", "text": "Veľký Biel", "script": "LATN" } } }, "nationalCadastalZoningReference": "868868", "validFrom": "2026-06-30T16:00:00Z", "validTo": { "@nilReason": "http://inspire.ec.europa.eu/codelist/VoidReasonValue/Unpopulated", "@nil": "true" }, "place_id": 419243793, "osm_type": "relation", "osm_id": 1993173, "place_rank": 22, "category": "place", "type": "cadastral_community", "importance": 0.10671649118791483, "addresstype": "cadastral_community", "name_2": "Veľký Biel", "display_name": "Veľký Biel, okres Senec, Bratislavský kraj, Slovensko" }, "geometry": { "type": "Polygon", "coordinates": [ [ [ 17.32335855, 48.24193085 ], [ 17.32337098, 48.24192733 ], [ 17.3241191, 48.24171377 ], [ 17.32452509, 48.24155875 ], [ 17.32503568, 48.24146141 ], [ 17.325302657933587, 48.241403398029554 ], [ 17.3255523, 48.241349 ], [ 17.326117108619371, 48.241064283346525 ], [ 17.32630993, 48.24096698 ], [ 17.32676168, 48.24072912 ], [ 17.32736132, 48.24056541 ], [ 17.327529560026008, 48.240544753225031 ], [ 17.3280021, 48.2404867 ], [ 17.3287321, 48.2403359 ], [ 17.3290026, 48.2402441 ], [ 17.329190908888837, 48.240195666722968 ], [ 17.32949256, 48.24011765 ], [ 17.330184940118684, 48.239920755390855 ], [ 17.3308708, 48.2397253 ], [ 17.3317389, 48.2394503 ], [ 17.3322725, 48.2390765 ], [ 17.333276205874355, 48.238691341414537 ], [ 17.33344822, 48.23862522 ], [ 17.33354155, 48.23858951 ], [ 17.333541919854319, 48.23858936858511 ], [ 17.333883834880208, 48.238448889861083 ], [ 17.33393585, 48.23842529 ], [ 17.334197844410749, 48.238311321217694 ], [ 17.3348422, 48.2380254 ], [ 17.335677834644301, 48.237755872168876 ], [ 17.335692, 48.23775117 ], [ 17.33597743, 48.23767766 ], [ 17.33646463, 48.23755216 ], [ 17.33681318, 48.23758012 ], [ 17.33683228, 48.23758174 ], [ 17.33684524, 48.23758286 ], [ 17.337687745142677, 48.23765428585039 ], [ 17.337936576361244, 48.237576291667345 ], [ 17.33887456, 48.23728186 ], [ 17.33897511, 48.23725033 ], [ 17.33923067, 48.23708467 ], [ 17.34019144, 48.23646198 ], [ 17.34044339, 48.23629869 ], [ 17.34046673, 48.23628351 ], [ 17.34084025, 48.23604146 ], [ 17.34085162, 48.23603407 ], [ 17.34119493, 48.23581163 ], [ 17.34157996, 48.23556211 ], [ 17.34165652, 48.23551246 ], [ 17.34167626, 48.23549966 ], [ 17.34192770255089, 48.235336645324288 ], [ 17.342384, 48.2350405 ], [ 17.3421751, 48.234915 ], [ 17.3429939, 48.234395 ], [ 17.3435152, 48.2339942 ], [ 17.3443307, 48.2334966 ], [ 17.344862477456029, 48.233107704828257 ], [ 17.34513372, 48.23290929 ], [ 17.34513886, 48.23290556 ], [ 17.3453104, 48.23278118 ], [ 17.34543851, 48.23268819 ], [ 17.34557781, 48.23258709 ], [ 17.34570696, 48.23249345 ], [ 17.3457751, 48.23244398 ], [ 17.34600478, 48.23227741 ], [ 17.3460128, 48.23227161 ], [ 17.34602294, 48.23226424 ], [ 17.34624535, 48.23210298 ], [ 17.34633466, 48.23203827 ], [ 17.3463734, 48.23200755 ], [ 17.34649863, 48.23190833 ], [ 17.346580356791609, 48.231843575132274 ], [ 17.346709, 48.2317413 ], [ 17.346763121163988, 48.231694813381559 ], [ 17.34677654, 48.23168321 ], [ 17.34684331, 48.2316256 ], [ 17.34687645, 48.23159705 ], [ 17.34691395, 48.23156273 ], [ 17.34693491, 48.2315435 ], [ 17.34693726, 48.23154131 ], [ 17.34698018, 48.23150237 ], [ 17.34700097, 48.23148332 ], [ 17.34704612, 48.23144209 ], [ 17.347075040814307, 48.231415706536723 ], [ 17.3476997, 48.230844 ], [ 17.3480565, 48.2305331 ], [ 17.348273421864597, 48.230318344805028 ], [ 17.34839078, 48.23020194 ], [ 17.34839711, 48.23019567 ], [ 17.34871173, 48.22986976 ], [ 17.3488727, 48.22970302 ], [ 17.34894257, 48.22963071 ], [ 17.34901979, 48.22955074 ], [ 17.34904037, 48.22952941 ], [ 17.349046278966519, 48.229523324017364 ], [ 17.3492684, 48.2292932 ], [ 17.3501972, 48.2283161 ], [ 17.350937451138016, 48.227696987937101 ], [ 17.35094595, 48.22768986 ], [ 17.350950249764907, 48.227686283753222 ], [ 17.3509586, 48.2276793 ], [ 17.350962911736751, 48.227675780818423 ], [ 17.3509632, 48.22767554 ], [ 17.35097956, 48.22766179 ], [ 17.35102141, 48.22762731 ], [ 17.35103156, 48.22761894 ], [ 17.35103326, 48.22761751 ], [ 17.35104048, 48.22761166 ], [ 17.35104263, 48.2276099 ], [ 17.351408689057514, 48.227312057725683 ], [ 17.3523209, 48.2265678 ], [ 17.3542823, 48.2249626 ], [ 17.3567143, 48.2229905 ], [ 17.359582595219699, 48.220651743883849 ], [ 17.35958781, 48.22064749 ], [ 17.359587820934586, 48.220647481103782 ], [ 17.3596638, 48.2205789 ], [ 17.36022778094604, 48.220643253741855 ], [ 17.36038047, 48.22066057 ], [ 17.36041533, 48.22066448 ], [ 17.36043249, 48.22066641 ], [ 17.36051069, 48.22067533 ], [ 17.36052798, 48.22067728 ], [ 17.36058013, 48.22068313 ], [ 17.36066926, 48.22069322 ], [ 17.36092171, 48.22072187 ], [ 17.36093741, 48.22072362 ], [ 17.36101855, 48.22073282 ], [ 17.36103997, 48.22073522 ], [ 17.36105327, 48.22073672 ], [ 17.36106989, 48.22073862 ], [ 17.36108173, 48.22073994 ], [ 17.3616009, 48.22079871 ], [ 17.361640138334824, 48.220803163030141 ], [ 17.3621504, 48.2208605 ], [ 17.362330415631718, 48.220879865913631 ], [ 17.36251871, 48.22089985 ], [ 17.36260606, 48.22090909 ], [ 17.36262669, 48.22091135 ], [ 17.36306143, 48.22095844 ], [ 17.363172744982375, 48.220970482918915 ], [ 17.3633867, 48.2209935 ], [ 17.363427246838487, 48.220997381342343 ], [ 17.36343439, 48.22099804 ], [ 17.36349444, 48.22100351 ], [ 17.36352391, 48.22098881 ], [ 17.36352741, 48.22098705 ], [ 17.36375642, 48.2208731 ], [ 17.36376561, 48.22086855 ], [ 17.364869485177561, 48.220319072977333 ], [ 17.36488801679717, 48.220309845783113 ], [ 17.36503353, 48.22023734 ], [ 17.36510529, 48.22020165 ], [ 17.36526006, 48.22012458 ], [ 17.36535474, 48.22007737 ], [ 17.365414445039708, 48.220047701294966 ], [ 17.3655825, 48.2199556 ], [ 17.3657921, 48.2198632 ], [ 17.366313700674343, 48.219615990735917 ], [ 17.366320041126212, 48.219612974506212 ], [ 17.366347074175057, 48.21959890519517 ], [ 17.36659203, 48.21947125 ], [ 17.36668265, 48.21942405 ], [ 17.36677518, 48.2193758 ], [ 17.36678878, 48.21936792 ], [ 17.36688016, 48.21931462 ], [ 17.36695023, 48.21927385 ], [ 17.3670469, 48.21921764 ], [ 17.36730503, 48.21906728 ], [ 17.367364973287142, 48.219101808399628 ], [ 17.367617130504662, 48.219245397926265 ], [ 17.36766496, 48.21927138 ], [ 17.36772163, 48.21930446 ], [ 17.36774032, 48.21931535 ], [ 17.36776164, 48.21932768 ], [ 17.367762734009162, 48.219328311032996 ], [ 17.367933358648898, 48.219425472286176 ], [ 17.36795908, 48.21943919 ], [ 17.3679934, 48.21945869 ], [ 17.36802423, 48.21947625 ], [ 17.36805431, 48.2194934 ], [ 17.368211033655292, 48.219364252426899 ], [ 17.3688151, 48.2188661 ], [ 17.3722647, 48.2160453 ], [ 17.3733395, 48.2151635 ], [ 17.3762521, 48.2127752 ], [ 17.376724927137452, 48.212394261533113 ], [ 17.376695879416861, 48.212386364127468 ], [ 17.3766773, 48.2123817 ], [ 17.376677638828216, 48.21238140493189 ], [ 17.3766774, 48.21238134 ], [ 17.37670401, 48.21235841 ], [ 17.37670733720028, 48.21235554214293 ], [ 17.376731174629406, 48.21233478334856 ], [ 17.376585333493189, 48.212316735961181 ], [ 17.376340505291594, 48.212286981280918 ], [ 17.37598508, 48.21224436 ], [ 17.375624832270653, 48.212203587885732 ], [ 17.3754738, 48.2121867 ], [ 17.375286077123853, 48.212170761871519 ], [ 17.37518188, 48.21216202 ], [ 17.3751069364145, 48.212153110667018 ], [ 17.374975, 48.2121376 ], [ 17.3747856, 48.2121175 ], [ 17.374614263802471, 48.212095147519058 ], [ 17.37429801, 48.21205813 ], [ 17.374192081800349, 48.212043496795644 ], [ 17.3738935, 48.2120031 ], [ 17.3736164, 48.2119568 ], [ 17.373528737143452, 48.211929205106735 ], [ 17.37344632, 48.21190348 ], [ 17.37331277, 48.21186176 ], [ 17.37321421, 48.21182577 ], [ 17.372827718308596, 48.211684553321064 ], [ 17.3727496, 48.2116561 ], [ 17.3720693, 48.2113958 ], [ 17.371864827720437, 48.21131571987835 ], [ 17.37154266, 48.21119023 ], [ 17.371033349822277, 48.210986560308498 ], [ 17.370226393070809, 48.210664950351273 ], [ 17.36991915, 48.21054273 ], [ 17.36934852, 48.21032195 ], [ 17.36882534, 48.21011873 ], [ 17.3682684, 48.20990606 ], [ 17.36806731, 48.20982061 ], [ 17.36786401, 48.20973086 ], [ 17.36775749, 48.20968376 ], [ 17.36740809, 48.20952173 ], [ 17.367417548756649, 48.209512980804355 ], [ 17.3674144, 48.2095114 ], [ 17.367469815480355, 48.209468749871363 ], [ 17.367424309354938, 48.209447380541924 ], [ 17.3674093, 48.2094406 ], [ 17.367409503094592, 48.209440427634988 ], [ 17.36740921, 48.20944029 ], [ 17.367450419837809, 48.2094057018708 ], [ 17.3678455, 48.2090704 ], [ 17.367905158850562, 48.209004010642126 ], [ 17.36797561, 48.20892489 ], [ 17.368315779571805, 48.2085390349894 ], [ 17.3684786, 48.208354 ], [ 17.3693031, 48.2073574 ], [ 17.3695767, 48.2070003 ], [ 17.3695362, 48.2069829 ], [ 17.369277940637694, 48.206960746220545 ], [ 17.36915186, 48.20695046 ], [ 17.36897642, 48.20692994 ], [ 17.368207465277816, 48.206812578557155 ], [ 17.3673588, 48.2066835 ], [ 17.3664836, 48.2065494 ], [ 17.365944470152016, 48.206468766465846 ], [ 17.36569147, 48.20643114 ], [ 17.365308280234338, 48.206373616398288 ], [ 17.3646556, 48.206276 ], [ 17.364574704896494, 48.206252745142237 ], [ 17.36445196, 48.20621804 ], [ 17.36386652, 48.20612638 ], [ 17.36282236, 48.205964 ], [ 17.362822413729486, 48.205963902136467 ], [ 17.3628224, 48.2059639 ], [ 17.362908763839183, 48.205806048867345 ], [ 17.362635396934536, 48.205735635861984 ], [ 17.362312700243216, 48.205652851652054 ], [ 17.36229374, 48.20564807 ], [ 17.36227066, 48.20564231 ], [ 17.362270751673794, 48.205642090217957 ], [ 17.3622704, 48.205642 ], [ 17.362275623318396, 48.205630410762311 ], [ 17.362276688096454, 48.205627858025167 ], [ 17.362081382033594, 48.205729129763974 ], [ 17.36190223, 48.20582239 ], [ 17.361825637920905, 48.205812895894859 ], [ 17.361067, 48.2057191 ], [ 17.3600635, 48.20559 ], [ 17.359774160962864, 48.205548815252371 ], [ 17.35890126, 48.20542512 ], [ 17.35788381, 48.20527439 ], [ 17.357755113850011, 48.2052555558789 ], [ 17.3570672, 48.2051552 ], [ 17.3567995, 48.2050101 ], [ 17.356776779116867, 48.20506227387979 ], [ 17.35675401, 48.20511538 ], [ 17.356753671319353, 48.205115336229632 ], [ 17.3567536, 48.2051155 ], [ 17.356271407719671, 48.205053009505221 ], [ 17.35614374, 48.20503651 ], [ 17.35551887, 48.20495577 ], [ 17.35469138, 48.20484638 ], [ 17.3535703, 48.20468339 ], [ 17.35198533, 48.20445742 ], [ 17.35149998, 48.20438401 ], [ 17.35088968, 48.20428704 ], [ 17.350821383663845, 48.204250970997464 ], [ 17.3506687, 48.2041708 ], [ 17.3505843, 48.204102 ], [ 17.350562545639342, 48.204098633253707 ], [ 17.350534, 48.20409471 ], [ 17.35042731, 48.20434254 ], [ 17.350403289405403, 48.204491937319908 ], [ 17.3503961, 48.2045369 ], [ 17.3502936, 48.2045223 ], [ 17.350134832839441, 48.204496103482029 ], [ 17.34978658, 48.20443893 ], [ 17.34974763, 48.20443258 ], [ 17.349313368322278, 48.204360562165363 ], [ 17.349044191027605, 48.204316148019437 ], [ 17.34898719, 48.20456991 ], [ 17.348985374451942, 48.204577994619981 ], [ 17.348979435362242, 48.204604571314967 ], [ 17.3489789, 48.20460705 ], [ 17.348977327905061, 48.204614001926323 ], [ 17.3489424, 48.2047703 ], [ 17.348939629557858, 48.204774502661785 ], [ 17.34889999, 48.20483781 ], [ 17.34888121, 48.20487363 ], [ 17.34887715, 48.20487915 ], [ 17.34886034, 48.20490154 ], [ 17.34883078, 48.2049408 ], [ 17.348727251504346, 48.20514218630791 ], [ 17.3486964, 48.2052026 ], [ 17.348684868542016, 48.205226122004056 ], [ 17.34862252, 48.20535546 ], [ 17.34855146, 48.20549963 ], [ 17.34852582, 48.20555181 ], [ 17.34842027, 48.205766 ], [ 17.34828594, 48.20604545 ], [ 17.34827265, 48.20607241 ], [ 17.34824724, 48.20612388 ], [ 17.34820043, 48.20621894 ], [ 17.348173069748142, 48.206274371070009 ], [ 17.348161, 48.2062992 ], [ 17.3479781, 48.2066871 ], [ 17.3478476, 48.2069779 ], [ 17.347315901491964, 48.208123474499367 ], [ 17.34728201, 48.20819684 ], [ 17.34727372, 48.20821464 ], [ 17.34721671, 48.20834039 ], [ 17.34719786, 48.20838217 ], [ 17.34717163, 48.20844018 ], [ 17.34711936, 48.20856959 ], [ 17.34707369, 48.20868253 ], [ 17.34700337, 48.20885656 ], [ 17.34695901, 48.20896616 ], [ 17.34695516, 48.20897584 ], [ 17.34695283, 48.20898156 ], [ 17.34692851, 48.20904675 ], [ 17.34692476, 48.20905662 ], [ 17.34692385, 48.20905918 ], [ 17.34692225, 48.20906269 ], [ 17.34687033, 48.20917495 ], [ 17.34653419, 48.20979719 ], [ 17.34623765, 48.21036148 ], [ 17.3459765489483, 48.210857461179792 ], [ 17.3459526, 48.210903 ], [ 17.3458336, 48.2111437 ], [ 17.3455478, 48.2117078 ], [ 17.345320496536957, 48.212122323516446 ], [ 17.34531724, 48.21212834 ], [ 17.34523015, 48.21230696 ], [ 17.345196766298471, 48.212386291604645 ], [ 17.3451494, 48.2124995 ], [ 17.345020101835352, 48.212823296518557 ], [ 17.34499694, 48.21288174 ], [ 17.34497716, 48.2129418 ], [ 17.344957474602772, 48.21300173572736 ], [ 17.3449433, 48.213045 ], [ 17.344943215919805, 48.213045148848515 ], [ 17.34494314, 48.21304538 ], [ 17.34487808, 48.21316048 ], [ 17.344832733995279, 48.21324073677021 ], [ 17.3447661, 48.2133587 ], [ 17.344765952550294, 48.213358931595032 ], [ 17.34476588, 48.21335906 ], [ 17.34465333, 48.21353602 ], [ 17.34456664, 48.21366587 ], [ 17.34444658, 48.21383872 ], [ 17.34425914, 48.21410203 ], [ 17.344088254453773, 48.214340302153488 ], [ 17.3440569, 48.2143842 ], [ 17.344034070898978, 48.214411699795619 ], [ 17.34387416, 48.21460539 ], [ 17.34363442, 48.21489327 ], [ 17.34362252, 48.21490803 ], [ 17.343531358822464, 48.21502080058081 ], [ 17.3433453, 48.2152513 ], [ 17.343314205537865, 48.215287369576075 ], [ 17.34324066, 48.21537346 ], [ 17.343071128587273, 48.215583552095332 ], [ 17.3430272, 48.2156382 ], [ 17.342970173092532, 48.215702128504155 ], [ 17.34288317, 48.21580001 ], [ 17.34276403838205, 48.215952506092115 ], [ 17.3425369, 48.2162441 ], [ 17.342330834317348, 48.216502882392703 ], [ 17.34232262, 48.21651323 ], [ 17.34222557, 48.21663066 ], [ 17.34213465, 48.21673403 ], [ 17.342072227711444, 48.216800019276469 ], [ 17.3419841, 48.2168936 ], [ 17.3418629, 48.2170109 ], [ 17.341816974443127, 48.217050901106902 ], [ 17.34170748, 48.21714696 ], [ 17.3413446, 48.2174629 ], [ 17.3410072, 48.21774346 ], [ 17.340785125758025, 48.217942700535765 ], [ 17.3406908, 48.2180274 ], [ 17.34062294560384, 48.218077609813811 ], [ 17.34058701, 48.21810425 ], [ 17.34052403, 48.2181509 ], [ 17.34051254, 48.21816009 ], [ 17.340508995861196, 48.218162935988381 ], [ 17.3403493, 48.2182919 ], [ 17.3399466, 48.2185997 ], [ 17.339889428313111, 48.218639880101627 ], [ 17.33984883, 48.21866862 ], [ 17.339805488274362, 48.218698872926062 ], [ 17.3396892, 48.2187806 ], [ 17.3395448, 48.2188885 ], [ 17.339198, 48.2191379 ], [ 17.339088757614142, 48.219194795702471 ], [ 17.33903285, 48.21922408 ], [ 17.33893519, 48.21926284 ], [ 17.33892415, 48.21926709 ], [ 17.33888889, 48.21928068 ], [ 17.338882, 48.21928339 ], [ 17.338749047636433, 48.219334727486142 ], [ 17.3386208, 48.2193848 ], [ 17.3384447, 48.2194613 ], [ 17.3383673, 48.2195104 ], [ 17.338301053420491, 48.219542552248683 ], [ 17.33824498, 48.21956992 ], [ 17.33815448, 48.2196106 ], [ 17.33805456, 48.21965555 ], [ 17.33802923, 48.21966689 ], [ 17.337894129562962, 48.219726255750182 ], [ 17.3378447, 48.2197483 ], [ 17.3372677, 48.2200108 ], [ 17.33714682041213, 48.220069530699504 ], [ 17.33711189, 48.22008654 ], [ 17.337111683374832, 48.220086671104767 ], [ 17.336784, 48.2202999 ], [ 17.3366649, 48.2204027 ], [ 17.336490895740045, 48.220543313864326 ], [ 17.33642364, 48.22059788 ], [ 17.33630413, 48.22068401 ], [ 17.336276747313015, 48.220695442560007 ], [ 17.3359527, 48.2208315 ], [ 17.335711914878367, 48.220927549864349 ], [ 17.33569811, 48.22093334 ], [ 17.335563274141609, 48.221033041953817 ], [ 17.335538617998509, 48.221051363698344 ], [ 17.33551662, 48.22107495 ], [ 17.33546136, 48.2211343 ], [ 17.33545543, 48.22113969 ], [ 17.33531988501198, 48.22123353393998 ], [ 17.335312, 48.221239 ], [ 17.3350955, 48.2213715 ], [ 17.33477845164197, 48.221617573841627 ], [ 17.3347297, 48.22165551 ], [ 17.33459502, 48.2217804 ], [ 17.33437764, 48.22201227 ], [ 17.33429894, 48.22208753 ], [ 17.33407421, 48.22224535 ], [ 17.33386644, 48.22238893 ], [ 17.33367585, 48.22248936 ], [ 17.333556438658558, 48.222550276767329 ], [ 17.333547, 48.2225552 ], [ 17.333514970031157, 48.222570366052587 ], [ 17.33327082, 48.22268684 ], [ 17.33312849, 48.22275339 ], [ 17.33284861, 48.22292747 ], [ 17.332809201098225, 48.222950701067553 ], [ 17.3327961, 48.2229588 ], [ 17.332698289507615, 48.223016084282101 ], [ 17.33254176, 48.22310836 ], [ 17.33252725, 48.22311689 ], [ 17.33238184, 48.22320158 ], [ 17.332330508079529, 48.223240948438175 ], [ 17.332173128178511, 48.223362225218523 ], [ 17.33210666, 48.22341356 ], [ 17.332045956418998, 48.223460975717458 ], [ 17.3316936, 48.2237369 ], [ 17.3315776, 48.223823 ], [ 17.331569082833745, 48.223828671543295 ], [ 17.33148047, 48.22388847 ], [ 17.33127562, 48.22402411 ], [ 17.331249773818769, 48.224043347854106 ], [ 17.331029, 48.2242083 ], [ 17.33089157268908, 48.224318453004656 ], [ 17.33087257, 48.22433377 ], [ 17.330868564063255, 48.224336586203655 ], [ 17.330588591739886, 48.224540567438197 ], [ 17.33058716, 48.22454163 ], [ 17.330585554490092, 48.224542720061763 ], [ 17.3304196, 48.2246562 ], [ 17.330357776907526, 48.224696760071474 ], [ 17.33026943, 48.22475587 ], [ 17.33013965, 48.22483996 ], [ 17.330127340610538, 48.224847941649465 ], [ 17.3300957, 48.2248687 ], [ 17.3299676, 48.2249292 ], [ 17.32976123552206, 48.22503807762596 ], [ 17.32966299, 48.2250901 ], [ 17.32953811743203, 48.22515579443553 ], [ 17.3293317, 48.2252647 ], [ 17.329219947668612, 48.225356016317015 ], [ 17.32903785, 48.22550534 ], [ 17.32879092, 48.22581351 ], [ 17.328763404192923, 48.225847055811435 ], [ 17.3287382, 48.2258785 ], [ 17.328591091029068, 48.226013427479138 ], [ 17.3285488, 48.22605242 ], [ 17.32845937, 48.22612697 ], [ 17.32830026, 48.22624301 ], [ 17.32828765, 48.22626523 ], [ 17.328287602820499, 48.226265312933606 ], [ 17.3282712, 48.2262951 ], [ 17.328259881094805, 48.226306491462282 ], [ 17.32825979, 48.22630659 ], [ 17.32822923, 48.22633955 ], [ 17.32811525, 48.22645224 ], [ 17.328114484119737, 48.226453293749266 ], [ 17.327736817507645, 48.227083062809669 ], [ 17.32772792, 48.22709819 ], [ 17.32755528, 48.22733354 ], [ 17.327437023169008, 48.22745850051205 ], [ 17.3272396, 48.2276675 ], [ 17.327221457865615, 48.227696683935392 ], [ 17.32718631, 48.22775387 ], [ 17.327150529680335, 48.227810780961285 ], [ 17.3271121, 48.2278726 ], [ 17.327096459001716, 48.227893111549918 ], [ 17.32703774, 48.22797273 ], [ 17.32698779, 48.22803631 ], [ 17.326875370919623, 48.228161557125844 ], [ 17.3268731, 48.2281641 ], [ 17.32687304325184, 48.22816415040181 ], [ 17.3268729, 48.22816431 ], [ 17.32679658, 48.22823248 ], [ 17.32667461, 48.22837176 ], [ 17.32667313, 48.22837356 ], [ 17.32655295, 48.22852732 ], [ 17.32644306, 48.22867642 ], [ 17.326294886856292, 48.228871363951413 ], [ 17.3262882, 48.2288803 ], [ 17.326187968975749, 48.229006192964789 ], [ 17.32597322, 48.22927628 ], [ 17.325882312161898, 48.229353978972064 ], [ 17.3257503, 48.2294672 ], [ 17.325640007059263, 48.229536660562566 ], [ 17.32556687, 48.22958299 ], [ 17.325380957677961, 48.229699805326298 ], [ 17.3248538, 48.2300318 ], [ 17.3245904, 48.2301963 ], [ 17.324447596314485, 48.230384054738558 ], [ 17.32425487, 48.230638 ], [ 17.324091203756137, 48.230852630821694 ], [ 17.3239833, 48.2309945 ], [ 17.323863327845981, 48.231127895345892 ], [ 17.32378574, 48.23121439 ], [ 17.323746576954587, 48.23125770901531 ], [ 17.3236678, 48.2313453 ], [ 17.323134284196875, 48.231952904110862 ], [ 17.32301183, 48.23226143 ], [ 17.32289697, 48.23259998 ], [ 17.322896903927461, 48.232600093725502 ], [ 17.3228968, 48.2326004 ], [ 17.322535573928523, 48.233225765166246 ], [ 17.32250451, 48.23327992 ], [ 17.32228662, 48.23354663 ], [ 17.322112947954771, 48.233679997368171 ], [ 17.3220392, 48.2337368 ], [ 17.3218613, 48.2338426 ], [ 17.321828478142226, 48.233860472131497 ], [ 17.32169515, 48.23393423 ], [ 17.321502595761331, 48.234037921342463 ], [ 17.3213559, 48.2341178 ], [ 17.32111742522547, 48.234244699767281 ], [ 17.32108986, 48.23425947 ], [ 17.320954765759954, 48.234338702497837 ], [ 17.3205742, 48.2345622 ], [ 17.32055497413144, 48.234571047573269 ], [ 17.32049304, 48.23460062 ], [ 17.32032336, 48.23467801 ], [ 17.3201586, 48.23474036 ], [ 17.31998326, 48.23480472 ], [ 17.31969125, 48.23491174 ], [ 17.31959658, 48.23494644 ], [ 17.31956244674663, 48.234964035451739 ], [ 17.3191555, 48.2351747 ], [ 17.318884172714309, 48.235339913481845 ], [ 17.31874699, 48.23542367 ], [ 17.3187361, 48.23543054 ], [ 17.31851877, 48.23556768 ], [ 17.318448250530327, 48.235607338512672 ], [ 17.3182298, 48.2357306 ], [ 17.318075781504263, 48.235811491750333 ], [ 17.31802719, 48.23583714 ], [ 17.31802544, 48.23583802 ], [ 17.31774281, 48.23596752 ], [ 17.317523653657997, 48.236070386170439 ], [ 17.3171992, 48.236223 ], [ 17.3168369, 48.2364318 ], [ 17.316640514190059, 48.236575309224875 ], [ 17.31662009, 48.23659031 ], [ 17.31655359, 48.23664855 ], [ 17.316530688804207, 48.23666859867123 ], [ 17.316384, 48.2367972 ], [ 17.316336321565903, 48.236855886101374 ], [ 17.3162908, 48.23691211 ], [ 17.31616228, 48.23707073 ], [ 17.31607917, 48.23721581 ], [ 17.31604561, 48.23727451 ], [ 17.31601578315523, 48.237325990263336 ], [ 17.31600921261823, 48.237337477938773 ], [ 17.31593821, 48.23757957 ], [ 17.31591126, 48.23767142 ], [ 17.315884892734122, 48.237842589250199 ], [ 17.3158787, 48.2378835 ], [ 17.3158296, 48.2380259 ], [ 17.315809107332502, 48.238053354291381 ], [ 17.31631235, 48.23827169 ], [ 17.3171679, 48.23864344 ], [ 17.317635883082684, 48.238849987212049 ], [ 17.317695, 48.238876 ], [ 17.318474, 48.239165 ], [ 17.318710961552913, 48.239255542078077 ], [ 17.318932, 48.2393398 ], [ 17.31893428, 48.23934086 ], [ 17.31897324, 48.23935924 ], [ 17.3189955, 48.23936974 ], [ 17.31901332, 48.23937823 ], [ 17.31903823, 48.23939 ], [ 17.319061, 48.23940071 ], [ 17.31906688, 48.23940399 ], [ 17.31928981, 48.23952784 ], [ 17.319968608440728, 48.239913014223937 ], [ 17.319988, 48.239924 ], [ 17.320145800241686, 48.239981045157798 ], [ 17.32062728, 48.24015451 ], [ 17.3210766, 48.24041001 ], [ 17.321341697473496, 48.240608816617197 ], [ 17.321358, 48.240621 ], [ 17.321364571943793, 48.24062626995493 ], [ 17.32146452, 48.24070575 ], [ 17.32180011, 48.24108119 ], [ 17.322040902902476, 48.241349024903947 ], [ 17.322049, 48.241358 ], [ 17.322051322390262, 48.241360775539583 ], [ 17.32209031, 48.24140664 ], [ 17.32247742, 48.24150623 ], [ 17.3229764, 48.24172794 ], [ 17.323041974934831, 48.241763820104495 ], [ 17.323048, 48.241767 ], [ 17.323284071392639, 48.241911410279968 ], [ 17.32332946, 48.24193915 ], [ 17.32334486, 48.24193474 ], [ 17.32335855, 48.24193085 ] ] ] } }
]
}
