{
"type": "FeatureCollection",
"name": "gis",
"crs": { "type": "name", "properties": { "name": "urn:ogc:def:crs:OGC:1.3:CRS84" } },
"features": [
{ "type": "Feature", "properties": { "@featureType": "CadastralZoning", "beginLifespanVersion": { "@nilReason": "http://inspire.ec.europa.eu/codelist/VoidReasonValue/Unpopulated", "@nil": "true" }, "endLifespanVersion": { "@nilReason": "http://inspire.ec.europa.eu/codelist/VoidReasonValue/Unpopulated", "@nil": "true" }, "estimatedAccuracy": { "value": -1, "@uom": "m" }, "inspireId": { "@dataType": "Identifier", "localId": "837814", "namespace": "SK.ESKN.CP", "versionId": "20260703T04:07:40" }, "label": "Mlynky", "level": { "@href": "http://inspire.ec.europa.eu/codelist/CadastralZoningLevelValue/3rdOrder" }, "levelName": { "value": "Katastrálne územie", "@locale": "sk" }, "name_1": { "@dataType": "name", "GeographicalName": { "@dataType": "GeographicalName", "language": "SLK", "nativeness": { "@href": "http://inspire.ec.europa.eu/codelist/NativenessValue/endonym", "@title": "endonym" }, "nameStatus": { "@href": "http://inspire.ec.europa.eu/codelist/NameStatusValue/official", "@title": "official" }, "sourceOfName": { "@nilReason": "http://inspire.ec.europa.eu/codelist/VoidReasonValue/Unpopulated", "@nil": "true" }, "pronunciation": { "@dataType": "pronunciation", "@nilReason": "http://inspire.ec.europa.eu/codelist/VoidReasonValue/Unpopulated", "@nil": "true" }, "spelling": { "@dataType": "SpellingOfName", "text": "Mlynky", "script": "LATN" } } }, "nationalCadastalZoningReference": "837814", "validFrom": "2026-06-30T16:00:00Z", "validTo": { "@nilReason": "http://inspire.ec.europa.eu/codelist/VoidReasonValue/Unpopulated", "@nil": "true" }, "place_id": 189408612, "osm_type": "way", "osm_id": 73336217, "place_rank": 30, "category": "building", "type": "yes", "importance": 5.3605706874143853e-05, "addresstype": "building", "name_2": "", "display_name": "266, Biele Vody, Biele vody, Mlynky, okres Spišská Nová Ves, Košický kraj, 053 76, Slovensko" }, "geometry": { "type": "Polygon", "coordinates": [ [ [ 20.3993003, 48.8696738 ], [ 20.3992772, 48.8696853 ], [ 20.3993149, 48.8697194 ], [ 20.3994448, 48.8698371 ], [ 20.3995461, 48.869788 ], [ 20.3995884, 48.8698268 ], [ 20.3998418, 48.8697069 ], [ 20.3997381, 48.8696129 ], [ 20.3995567, 48.8696994 ], [ 20.3994902, 48.8696384 ], [ 20.3994998, 48.8696342 ], [ 20.3992393, 48.8693957 ], [ 20.3990777, 48.8694717 ], [ 20.3993003, 48.8696738 ] ] ] } }
]
}
