{
"type": "FeatureCollection",
"name": "gis",
"crs": { "type": "name", "properties": { "name": "urn:ogc:def:crs:OGC:1.3:CRS84" } },
"features": [
{ "type": "Feature", "properties": { "@featureType": "CadastralParcel", "areaValue": { "value": 1994, "@uom": "m2" }, "beginLifespanVersion": { "@nilReason": "http://inspire.ec.europa.eu/codelist/VoidReasonValue/Unpopulated", "@nil": "true" }, "endLifespanVersion": { "@nilReason": "http://inspire.ec.europa.eu/codelist/VoidReasonValue/Unpopulated", "@nil": "true" }, "inspireId": { "@dataType": "Identifier", "localId": "810649_3995/1.C", "namespace": "SK.ESKN.CP", "versionId": "20260703T04:07:10" }, "label": "3995/1", "nationalCadastralReference": "810649_3995/1.C", "referencePoint": { "type": "Point", "coordinates": [ 16.99115594, 48.20964323 ] }, "validFrom": "2026-06-30T16:00:00Z", "validTo": { "@nilReason": "http://inspire.ec.europa.eu/codelist/VoidReasonValue/Unpopulated", "@nil": "true" }, "administrativeUnit": { "@href": "#auAdmUnitS.1398" } }, "geometry": { "type": "Polygon", "coordinates": [ [ [ 16.99085669, 48.20949508 ], [ 16.99073758, 48.20955622 ], [ 16.99089792, 48.20969808 ], [ 16.99078269, 48.20975506 ], [ 16.99087203, 48.20978182 ], [ 16.99106145, 48.2098368 ], [ 16.99131742, 48.20991192 ], [ 16.99150832, 48.20958838 ], [ 16.99133352, 48.20952726 ], [ 16.99123609, 48.20936334 ], [ 16.99101649, 48.20942968 ], [ 16.99085669, 48.20949508 ] ] ] } },
{ "type": "Feature", "properties": { "@featureType": "CadastralParcel", "areaValue": { "value": 12179, "@uom": "m2" }, "beginLifespanVersion": { "@nilReason": "http://inspire.ec.europa.eu/codelist/VoidReasonValue/Unpopulated", "@nil": "true" }, "endLifespanVersion": { "@nilReason": "http://inspire.ec.europa.eu/codelist/VoidReasonValue/Unpopulated", "@nil": "true" }, "inspireId": { "@dataType": "Identifier", "localId": "810649_3981.C", "namespace": "SK.ESKN.CP", "versionId": "20260703T04:07:10" }, "label": "3981", "nationalCadastralReference": "810649_3981.C", "referencePoint": { "type": "Point", "coordinates": [ 16.99044067, 48.2078761 ] }, "validFrom": "2026-06-30T16:00:00Z", "validTo": { "@nilReason": "http://inspire.ec.europa.eu/codelist/VoidReasonValue/Unpopulated", "@nil": "true" }, "administrativeUnit": { "@href": "#auAdmUnitS.1398" } }, "geometry": { "type": "Polygon", "coordinates": [ [ [ 16.98998797, 48.20823224 ], [ 16.99017689, 48.20832815 ], [ 16.99032542, 48.20841404 ], [ 16.99051835, 48.20854187 ], [ 16.99080461, 48.20840977 ], [ 16.99161849, 48.20803436 ], [ 16.99142179, 48.20798285 ], [ 16.99104059, 48.2078805 ], [ 16.990818, 48.20781527 ], [ 16.99071112, 48.20778387 ], [ 16.99058731, 48.2077456 ], [ 16.9905541, 48.20773726 ], [ 16.99051806, 48.20772719 ], [ 16.9904694, 48.2077129 ], [ 16.99040962, 48.20769531 ], [ 16.99050825, 48.20759678 ], [ 16.99048423, 48.20758943 ], [ 16.98979421, 48.20737848 ], [ 16.98948265, 48.20728326 ], [ 16.98923917, 48.20720882 ], [ 16.98884117, 48.20732355 ], [ 16.9887074, 48.20752291 ], [ 16.98905384, 48.20762695 ], [ 16.98936594, 48.2077213 ], [ 16.98961307, 48.20779662 ], [ 16.98985943, 48.20787171 ], [ 16.98966754, 48.2080998 ], [ 16.98981794, 48.20815771 ], [ 16.98998797, 48.20823224 ] ] ] } },
{ "type": "Feature", "properties": { "@featureType": "CadastralParcel", "areaValue": { "value": 1027, "@uom": "m2" }, "beginLifespanVersion": { "@nilReason": "http://inspire.ec.europa.eu/codelist/VoidReasonValue/Unpopulated", "@nil": "true" }, "endLifespanVersion": { "@nilReason": "http://inspire.ec.europa.eu/codelist/VoidReasonValue/Unpopulated", "@nil": "true" }, "inspireId": { "@dataType": "Identifier", "localId": "810649_3980/2.C", "namespace": "SK.ESKN.CP", "versionId": "20260703T04:07:10" }, "label": "3980/2", "nationalCadastralReference": "810649_3980/2.C", "referencePoint": { "type": "Point", "coordinates": [ 16.99080163, 48.20858494 ] }, "validFrom": "2026-06-30T16:00:00Z", "validTo": { "@nilReason": "http://inspire.ec.europa.eu/codelist/VoidReasonValue/Unpopulated", "@nil": "true" }, "administrativeUnit": { "@href": "#auAdmUnitS.1398" } }, "geometry": { "type": "Polygon", "coordinates": [ [ [ 16.99063263, 48.20862802 ], [ 16.99074076, 48.20871276 ], [ 16.9907742, 48.20873893 ], [ 16.99081258, 48.20876897 ], [ 16.99085692, 48.20878666 ], [ 16.99090839, 48.2087827 ], [ 16.99118157, 48.20870567 ], [ 16.99080461, 48.20840977 ], [ 16.99051835, 48.20854187 ], [ 16.99063263, 48.20862802 ] ] ] } },
{ "type": "Feature", "properties": { "@featureType": "CadastralParcel", "areaValue": { "value": 4891, "@uom": "m2" }, "beginLifespanVersion": { "@nilReason": "http://inspire.ec.europa.eu/codelist/VoidReasonValue/Unpopulated", "@nil": "true" }, "endLifespanVersion": { "@nilReason": "http://inspire.ec.europa.eu/codelist/VoidReasonValue/Unpopulated", "@nil": "true" }, "inspireId": { "@dataType": "Identifier", "localId": "810649_3980/1.C", "namespace": "SK.ESKN.CP", "versionId": "20260703T04:07:10" }, "label": "3980/1", "nationalCadastralReference": "810649_3980/1.C", "referencePoint": { "type": "Point", "coordinates": [ 16.99154103, 48.2083832 ] }, "validFrom": "2026-06-30T16:00:00Z", "validTo": { "@nilReason": "http://inspire.ec.europa.eu/codelist/VoidReasonValue/Unpopulated", "@nil": "true" }, "administrativeUnit": { "@href": "#auAdmUnitS.1398" } }, "geometry": { "type": "Polygon", "coordinates": [ [ [ 16.99118157, 48.20870567 ], [ 16.99122173, 48.20869433 ], [ 16.99148036, 48.20863619 ], [ 16.99175117, 48.20858855 ], [ 16.99187182, 48.20857362 ], [ 16.99190022, 48.20857015 ], [ 16.99207863, 48.20854807 ], [ 16.99211727, 48.20853699 ], [ 16.99214224, 48.20851448 ], [ 16.9921521, 48.20849789 ], [ 16.99223553, 48.20835662 ], [ 16.99231754, 48.20821753 ], [ 16.99229713, 48.20821214 ], [ 16.99161849, 48.20803436 ], [ 16.99080461, 48.20840977 ], [ 16.99118157, 48.20870567 ] ] ] } },
{ "type": "Feature", "properties": { "@featureType": "CadastralParcel", "areaValue": { "value": 3488, "@uom": "m2" }, "beginLifespanVersion": { "@nilReason": "http://inspire.ec.europa.eu/codelist/VoidReasonValue/Unpopulated", "@nil": "true" }, "endLifespanVersion": { "@nilReason": "http://inspire.ec.europa.eu/codelist/VoidReasonValue/Unpopulated", "@nil": "true" }, "inspireId": { "@dataType": "Identifier", "localId": "810649_3978.C", "namespace": "SK.ESKN.CP", "versionId": "20260703T04:07:10" }, "label": "3978", "nationalCadastralReference": "810649_3978.C", "referencePoint": { "type": "Point", "coordinates": [ 16.99094008, 48.20910535 ] }, "validFrom": "2026-06-30T16:00:00Z", "validTo": { "@nilReason": "http://inspire.ec.europa.eu/codelist/VoidReasonValue/Unpopulated", "@nil": "true" }, "administrativeUnit": { "@href": "#auAdmUnitS.1398" } }, "geometry": { "type": "Polygon", "coordinates": [ [ [ 16.99127374, 48.20878606 ], [ 16.99096535, 48.20887305 ], [ 16.9907202, 48.2089578 ], [ 16.99061531, 48.20899859 ], [ 16.99045581, 48.20906644 ], [ 16.9902723, 48.20915579 ], [ 16.99063865, 48.20944509 ], [ 16.9909193, 48.20931604 ], [ 16.99124008, 48.20920657 ], [ 16.99144931, 48.2091557 ], [ 16.99152343, 48.20914425 ], [ 16.99133959, 48.20877124 ], [ 16.99127374, 48.20878606 ] ] ] } },
{ "type": "Feature", "properties": { "@featureType": "CadastralParcel", "areaValue": { "value": 1220, "@uom": "m2" }, "beginLifespanVersion": { "@nilReason": "http://inspire.ec.europa.eu/codelist/VoidReasonValue/Unpopulated", "@nil": "true" }, "endLifespanVersion": { "@nilReason": "http://inspire.ec.europa.eu/codelist/VoidReasonValue/Unpopulated", "@nil": "true" }, "inspireId": { "@dataType": "Identifier", "localId": "810649_3976.C", "namespace": "SK.ESKN.CP", "versionId": "20260703T04:07:10" }, "label": "3976", "nationalCadastralReference": "810649_3976.C", "referencePoint": { "type": "Point", "coordinates": [ 16.98984529, 48.20869368 ] }, "validFrom": "2026-06-30T16:00:00Z", "validTo": { "@nilReason": "http://inspire.ec.europa.eu/codelist/VoidReasonValue/Unpopulated", "@nil": "true" }, "administrativeUnit": { "@href": "#auAdmUnitS.1398" } }, "geometry": { "type": "Polygon", "coordinates": [ [ [ 16.98982505, 48.20857958 ], [ 16.98958079, 48.20880778 ], [ 16.98973622, 48.20888664 ], [ 16.99025114, 48.20849147 ], [ 16.99025435, 48.20848907 ], [ 16.99023716, 48.20847776 ], [ 16.99009509, 48.20839557 ], [ 16.98998345, 48.20833888 ], [ 16.98974044, 48.2085432 ], [ 16.98982505, 48.20857958 ] ] ] } },
{ "type": "Feature", "properties": { "@featureType": "CadastralParcel", "areaValue": { "value": 680, "@uom": "m2" }, "beginLifespanVersion": { "@nilReason": "http://inspire.ec.europa.eu/codelist/VoidReasonValue/Unpopulated", "@nil": "true" }, "endLifespanVersion": { "@nilReason": "http://inspire.ec.europa.eu/codelist/VoidReasonValue/Unpopulated", "@nil": "true" }, "inspireId": { "@dataType": "Identifier", "localId": "810649_3975.C", "namespace": "SK.ESKN.CP", "versionId": "20260703T04:07:10" }, "label": "3975", "nationalCadastralReference": "810649_3975.C", "referencePoint": { "type": "Point", "coordinates": [ 16.98973306, 48.20838764 ] }, "validFrom": "2026-06-30T16:00:00Z", "validTo": { "@nilReason": "http://inspire.ec.europa.eu/codelist/VoidReasonValue/Unpopulated", "@nil": "true" }, "administrativeUnit": { "@href": "#auAdmUnitS.1398" } }, "geometry": { "type": "Polygon", "coordinates": [ [ [ 16.98975161, 48.2082327 ], [ 16.98971177, 48.20821739 ], [ 16.98949166, 48.2084364 ], [ 16.98974044, 48.2085432 ], [ 16.98998345, 48.20833888 ], [ 16.98991307, 48.20830321 ], [ 16.98975161, 48.2082327 ] ] ] } },
{ "type": "Feature", "properties": { "@featureType": "CadastralParcel", "areaValue": { "value": 897, "@uom": "m2" }, "beginLifespanVersion": { "@nilReason": "http://inspire.ec.europa.eu/codelist/VoidReasonValue/Unpopulated", "@nil": "true" }, "endLifespanVersion": { "@nilReason": "http://inspire.ec.europa.eu/codelist/VoidReasonValue/Unpopulated", "@nil": "true" }, "inspireId": { "@dataType": "Identifier", "localId": "810649_3974.C", "namespace": "SK.ESKN.CP", "versionId": "20260703T04:07:10" }, "label": "3974", "nationalCadastralReference": "810649_3974.C", "referencePoint": { "type": "Point", "coordinates": [ 16.98953957, 48.20862468 ] }, "validFrom": "2026-06-30T16:00:00Z", "validTo": { "@nilReason": "http://inspire.ec.europa.eu/codelist/VoidReasonValue/Unpopulated", "@nil": "true" }, "administrativeUnit": { "@href": "#auAdmUnitS.1398" } }, "geometry": { "type": "Polygon", "coordinates": [ [ [ 16.98925701, 48.20866977 ], [ 16.98936646, 48.20871175 ], [ 16.9895473, 48.20879074 ], [ 16.98958079, 48.20880778 ], [ 16.98982505, 48.20857958 ], [ 16.98974044, 48.2085432 ], [ 16.98949166, 48.2084364 ], [ 16.98925701, 48.20866977 ] ] ] } },
{ "type": "Feature", "properties": { "@featureType": "CadastralParcel", "areaValue": { "value": 1695, "@uom": "m2" }, "beginLifespanVersion": { "@nilReason": "http://inspire.ec.europa.eu/codelist/VoidReasonValue/Unpopulated", "@nil": "true" }, "endLifespanVersion": { "@nilReason": "http://inspire.ec.europa.eu/codelist/VoidReasonValue/Unpopulated", "@nil": "true" }, "inspireId": { "@dataType": "Identifier", "localId": "810649_3979.C", "namespace": "SK.ESKN.CP", "versionId": "20260703T04:07:10" }, "label": "3979", "nationalCadastralReference": "810649_3979.C", "referencePoint": { "type": "Point", "coordinates": [ 16.99166185, 48.20883855 ] }, "validFrom": "2026-06-30T16:00:00Z", "validTo": { "@nilReason": "http://inspire.ec.europa.eu/codelist/VoidReasonValue/Unpopulated", "@nil": "true" }, "administrativeUnit": { "@href": "#auAdmUnitS.1398" } }, "geometry": { "type": "Polygon", "coordinates": [ [ [ 16.99152243, 48.20873012 ], [ 16.99133959, 48.20877124 ], [ 16.99152343, 48.20914425 ], [ 16.99179675, 48.20909969 ], [ 16.99191127, 48.20890587 ], [ 16.9920193, 48.20872254 ], [ 16.99202167, 48.20870191 ], [ 16.99200995, 48.20868049 ], [ 16.99197661, 48.20866427 ], [ 16.99193941, 48.20866343 ], [ 16.99189979, 48.20866866 ], [ 16.99178851, 48.20868334 ], [ 16.99152243, 48.20873012 ] ] ] } },
{ "type": "Feature", "properties": { "@featureType": "CadastralParcel", "areaValue": { "value": 272, "@uom": "m2" }, "beginLifespanVersion": { "@nilReason": "http://inspire.ec.europa.eu/codelist/VoidReasonValue/Unpopulated", "@nil": "true" }, "endLifespanVersion": { "@nilReason": "http://inspire.ec.europa.eu/codelist/VoidReasonValue/Unpopulated", "@nil": "true" }, "inspireId": { "@dataType": "Identifier", "localId": "810649_3997/12.C", "namespace": "SK.ESKN.CP", "versionId": "20260703T04:07:10" }, "label": "3997/12", "nationalCadastralReference": "810649_3997/12.C", "referencePoint": { "type": "Point", "coordinates": [ 16.99331633, 48.20933852 ] }, "validFrom": "2026-06-30T16:00:00Z", "validTo": { "@nilReason": "http://inspire.ec.europa.eu/codelist/VoidReasonValue/Unpopulated", "@nil": "true" }, "administrativeUnit": { "@href": "#auAdmUnitS.1398" } }, "geometry": { "type": "Polygon", "coordinates": [ [ [ 16.99292327, 48.20925793 ], [ 16.99290067, 48.20929136 ], [ 16.99304126, 48.20931034 ], [ 16.99341381, 48.20938552 ], [ 16.99357392, 48.20942347 ], [ 16.99361215, 48.20936671 ], [ 16.99320364, 48.20929494 ], [ 16.99292327, 48.20925793 ] ] ] } },
{ "type": "Feature", "properties": { "@featureType": "CadastralParcel", "areaValue": { "value": 554, "@uom": "m2" }, "beginLifespanVersion": { "@nilReason": "http://inspire.ec.europa.eu/codelist/VoidReasonValue/Unpopulated", "@nil": "true" }, "endLifespanVersion": { "@nilReason": "http://inspire.ec.europa.eu/codelist/VoidReasonValue/Unpopulated", "@nil": "true" }, "inspireId": { "@dataType": "Identifier", "localId": "810649_3997/3.C", "namespace": "SK.ESKN.CP", "versionId": "20260703T04:07:10" }, "label": "3997/3", "nationalCadastralReference": "810649_3997/3.C", "referencePoint": { "type": "Point", "coordinates": [ 16.99188475, 48.20932818 ] }, "validFrom": "2026-06-30T16:00:00Z", "validTo": { "@nilReason": "http://inspire.ec.europa.eu/codelist/VoidReasonValue/Unpopulated", "@nil": "true" }, "administrativeUnit": { "@href": "#auAdmUnitS.1398" } }, "geometry": { "type": "Polygon", "coordinates": [ [ [ 16.99292327, 48.20925793 ], [ 16.99279455, 48.20924094 ], [ 16.99244185, 48.20920727 ], [ 16.99223613, 48.20919673 ], [ 16.99204974, 48.20919765 ], [ 16.99188289, 48.20922097 ], [ 16.99177745, 48.20939977 ], [ 16.99183447, 48.209365 ], [ 16.99207587, 48.20928795 ], [ 16.99227881, 48.20924894 ], [ 16.99265344, 48.2092579 ], [ 16.99290067, 48.20929136 ], [ 16.99292327, 48.20925793 ] ] ] } },
{ "type": "Feature", "properties": { "@featureType": "CadastralParcel", "areaValue": { "value": 3600, "@uom": "m2" }, "beginLifespanVersion": { "@nilReason": "http://inspire.ec.europa.eu/codelist/VoidReasonValue/Unpopulated", "@nil": "true" }, "endLifespanVersion": { "@nilReason": "http://inspire.ec.europa.eu/codelist/VoidReasonValue/Unpopulated", "@nil": "true" }, "inspireId": { "@dataType": "Identifier", "localId": "810649_3997/7.C", "namespace": "SK.ESKN.CP", "versionId": "20260703T04:07:10" }, "label": "3997/7", "nationalCadastralReference": "810649_3997/7.C", "referencePoint": { "type": "Point", "coordinates": [ 16.99225004, 48.20948265 ] }, "validFrom": "2026-06-30T16:00:00Z", "validTo": { "@nilReason": "http://inspire.ec.europa.eu/codelist/VoidReasonValue/Unpopulated", "@nil": "true" }, "administrativeUnit": { "@href": "#auAdmUnitS.1398" } }, "geometry": { "type": "Polygon", "coordinates": [ [ [ 16.99253914, 48.2098271 ], [ 16.99290067, 48.20929136 ], [ 16.99265344, 48.2092579 ], [ 16.99227881, 48.20924894 ], [ 16.99207587, 48.20928795 ], [ 16.99183447, 48.209365 ], [ 16.99177745, 48.20939977 ], [ 16.99167956, 48.20956553 ], [ 16.99251304, 48.20981916 ], [ 16.99253914, 48.2098271 ] ] ] } },
{ "type": "Feature", "properties": { "@featureType": "CadastralParcel", "areaValue": { "value": 3600, "@uom": "m2" }, "beginLifespanVersion": { "@nilReason": "http://inspire.ec.europa.eu/codelist/VoidReasonValue/Unpopulated", "@nil": "true" }, "endLifespanVersion": { "@nilReason": "http://inspire.ec.europa.eu/codelist/VoidReasonValue/Unpopulated", "@nil": "true" }, "inspireId": { "@dataType": "Identifier", "localId": "810649_3997/8.C", "namespace": "SK.ESKN.CP", "versionId": "20260703T04:07:10" }, "label": "3997/8", "nationalCadastralReference": "810649_3997/8.C", "referencePoint": { "type": "Point", "coordinates": [ 16.99305664, 48.20962529 ] }, "validFrom": "2026-06-30T16:00:00Z", "validTo": { "@nilReason": "http://inspire.ec.europa.eu/codelist/VoidReasonValue/Unpopulated", "@nil": "true" }, "administrativeUnit": { "@href": "#auAdmUnitS.1398" } }, "geometry": { "type": "Polygon", "coordinates": [ [ [ 16.99290067, 48.20929136 ], [ 16.99253914, 48.2098271 ], [ 16.99317171, 48.21001961 ], [ 16.99322731, 48.20993791 ], [ 16.99357392, 48.20942347 ], [ 16.99341381, 48.20938552 ], [ 16.99304126, 48.20931034 ], [ 16.99290067, 48.20929136 ] ] ] } },
{ "type": "Feature", "properties": { "@featureType": "CadastralParcel", "areaValue": { "value": 13408, "@uom": "m2" }, "beginLifespanVersion": { "@nilReason": "http://inspire.ec.europa.eu/codelist/VoidReasonValue/Unpopulated", "@nil": "true" }, "endLifespanVersion": { "@nilReason": "http://inspire.ec.europa.eu/codelist/VoidReasonValue/Unpopulated", "@nil": "true" }, "inspireId": { "@dataType": "Identifier", "localId": "810649_4103.C", "namespace": "SK.ESKN.CP", "versionId": "20260703T04:07:10" }, "label": "4103", "nationalCadastralReference": "810649_4103.C", "referencePoint": { "type": "Point", "coordinates": [ 16.99616968, 48.2100889 ] }, "validFrom": "2026-06-30T16:00:00Z", "validTo": { "@nilReason": "http://inspire.ec.europa.eu/codelist/VoidReasonValue/Unpopulated", "@nil": "true" }, "administrativeUnit": { "@href": "#auAdmUnitS.1398" } }, "geometry": { "type": "Polygon", "coordinates": [ [ [ 16.98946943, 48.21005298 ], [ 16.98863612, 48.21050588 ], [ 16.98819813, 48.21075265 ], [ 16.98787468, 48.21093199 ], [ 16.9876622, 48.21106093 ], [ 16.98771699, 48.21107844 ], [ 16.98772374, 48.21108026 ], [ 16.98772997, 48.21108196 ], [ 16.987761, 48.21109042 ], [ 16.98776528, 48.21109162 ], [ 16.98777815, 48.21109585 ], [ 16.98780466, 48.21110464 ], [ 16.98784263, 48.2111172 ], [ 16.9878748, 48.21112782 ], [ 16.98810221, 48.2110056 ], [ 16.98826505, 48.21091438 ], [ 16.98867822, 48.21068471 ], [ 16.98892113, 48.21054963 ], [ 16.98900119, 48.21050587 ], [ 16.98961951, 48.21016836 ], [ 16.98990376, 48.21001515 ], [ 16.99002455, 48.20995015 ], [ 16.99019234, 48.20985836 ], [ 16.99051278, 48.20967564 ], [ 16.99058471, 48.20963457 ], [ 16.99073758, 48.20955622 ], [ 16.99085669, 48.20949508 ], [ 16.99101649, 48.20942968 ], [ 16.99123609, 48.20936334 ], [ 16.99163835, 48.20925523 ], [ 16.99171093, 48.20924503 ], [ 16.99188289, 48.20922097 ], [ 16.99204974, 48.20919765 ], [ 16.99223613, 48.20919673 ], [ 16.99244185, 48.20920727 ], [ 16.99279455, 48.20924094 ], [ 16.99292327, 48.20925793 ], [ 16.99320364, 48.20929494 ], [ 16.99361215, 48.20936671 ], [ 16.99402293, 48.20943953 ], [ 16.99423718, 48.20948167 ], [ 16.99432332, 48.20950287 ], [ 16.99461078, 48.20957381 ], [ 16.99466693, 48.20958771 ], [ 16.99486044, 48.20965563 ], [ 16.9951209, 48.20974731 ], [ 16.99525139, 48.20979317 ], [ 16.99542934, 48.20986644 ], [ 16.9957702, 48.21000605 ], [ 16.99606179, 48.21012483 ], [ 16.99646704, 48.21028903 ], [ 16.99656507, 48.21032877 ], [ 16.99667248, 48.21036997 ], [ 16.99691399, 48.21046269 ], [ 16.99716202, 48.2105613 ], [ 16.99739927, 48.21065708 ], [ 16.99752585, 48.21070818 ], [ 16.9976188, 48.21074576 ], [ 16.99786048, 48.21083913 ], [ 16.99788325, 48.21080634 ], [ 16.99788481, 48.2108041 ], [ 16.997899, 48.2107813 ], [ 16.99790568, 48.21077046 ], [ 16.99791417, 48.21075829 ], [ 16.99792321, 48.21074526 ], [ 16.99793522, 48.21072792 ], [ 16.99794338, 48.21071618 ], [ 16.99787113, 48.21068907 ], [ 16.99760942, 48.21058266 ], [ 16.99748285, 48.21053146 ], [ 16.99733927, 48.21047304 ], [ 16.99724588, 48.21043561 ], [ 16.9970141, 48.21034301 ], [ 16.99670769, 48.21022123 ], [ 16.99661973, 48.21018634 ], [ 16.99609431, 48.20998476 ], [ 16.99559311, 48.20979281 ], [ 16.99518622, 48.20962614 ], [ 16.99475065, 48.20947178 ], [ 16.99432509, 48.20936404 ], [ 16.99395825, 48.20929215 ], [ 16.99383232, 48.20926939 ], [ 16.99325125, 48.20916577 ], [ 16.99282947, 48.20910294 ], [ 16.99227625, 48.2090618 ], [ 16.99208168, 48.20906667 ], [ 16.99196693, 48.20907225 ], [ 16.99179675, 48.20909969 ], [ 16.99152343, 48.20914425 ], [ 16.99144931, 48.2091557 ], [ 16.99124008, 48.20920657 ], [ 16.9909193, 48.20931604 ], [ 16.99063865, 48.20944509 ], [ 16.99057138, 48.20947608 ], [ 16.9904328, 48.20954773 ], [ 16.99039414, 48.20954669 ], [ 16.99032587, 48.2095825 ], [ 16.99031453, 48.2095885 ], [ 16.99028996, 48.20960136 ], [ 16.99027475, 48.20960963 ], [ 16.99026352, 48.20961581 ], [ 16.98987272, 48.20983031 ], [ 16.98975343, 48.20989614 ], [ 16.98946943, 48.21005298 ] ] ] } },
{ "type": "Feature", "properties": { "@featureType": "CadastralParcel", "areaValue": { "value": 1403, "@uom": "m2" }, "beginLifespanVersion": { "@nilReason": "http://inspire.ec.europa.eu/codelist/VoidReasonValue/Unpopulated", "@nil": "true" }, "endLifespanVersion": { "@nilReason": "http://inspire.ec.europa.eu/codelist/VoidReasonValue/Unpopulated", "@nil": "true" }, "inspireId": { "@dataType": "Identifier", "localId": "810649_4093.C", "namespace": "SK.ESKN.CP", "versionId": "20260703T04:07:10" }, "label": "4093", "nationalCadastralReference": "810649_4093.C", "referencePoint": { "type": "Point", "coordinates": [ 16.99149161, 48.20975028 ] }, "validFrom": "2026-06-30T16:00:00Z", "validTo": { "@nilReason": "http://inspire.ec.europa.eu/codelist/VoidReasonValue/Unpopulated", "@nil": "true" }, "administrativeUnit": { "@href": "#auAdmUnitS.1398" } }, "geometry": { "type": "Polygon", "coordinates": [ [ [ 16.99112861, 48.21030964 ], [ 16.99117075, 48.21027665 ], [ 16.99128316, 48.21017472 ], [ 16.99136182, 48.21008557 ], [ 16.9914375, 48.20997533 ], [ 16.99148893, 48.20988819 ], [ 16.99165192, 48.20961236 ], [ 16.99167956, 48.20956553 ], [ 16.99177745, 48.20939977 ], [ 16.99188289, 48.20922097 ], [ 16.99171093, 48.20924503 ], [ 16.99159087, 48.2094485 ], [ 16.99152992, 48.2095518 ], [ 16.99150832, 48.20958838 ], [ 16.99131742, 48.20991192 ], [ 16.99130262, 48.20993685 ], [ 16.99126391, 48.20999322 ], [ 16.99123167, 48.21004009 ], [ 16.9911607, 48.21012064 ], [ 16.99105271, 48.21021844 ], [ 16.99101634, 48.2102456 ], [ 16.99112861, 48.21030964 ] ] ] } },
{ "type": "Feature", "properties": { "@featureType": "CadastralParcel", "areaValue": { "value": 1304, "@uom": "m2" }, "beginLifespanVersion": { "@nilReason": "http://inspire.ec.europa.eu/codelist/VoidReasonValue/Unpopulated", "@nil": "true" }, "endLifespanVersion": { "@nilReason": "http://inspire.ec.europa.eu/codelist/VoidReasonValue/Unpopulated", "@nil": "true" }, "inspireId": { "@dataType": "Identifier", "localId": "810649_4087.C", "namespace": "SK.ESKN.CP", "versionId": "20260703T04:07:10" }, "label": "4087", "nationalCadastralReference": "810649_4087.C", "referencePoint": { "type": "Point", "coordinates": [ 16.99206252, 48.20861853 ] }, "validFrom": "2026-06-30T16:00:00Z", "validTo": { "@nilReason": "http://inspire.ec.europa.eu/codelist/VoidReasonValue/Unpopulated", "@nil": "true" }, "administrativeUnit": { "@href": "#auAdmUnitS.1398" } }, "geometry": { "type": "Polygon", "coordinates": [ [ [ 16.99191127, 48.20890587 ], [ 16.99179675, 48.20909969 ], [ 16.99196693, 48.20907225 ], [ 16.99200203, 48.20901563 ], [ 16.99204775, 48.20894184 ], [ 16.99204864, 48.20894045 ], [ 16.99214623, 48.20877485 ], [ 16.99221231, 48.20866548 ], [ 16.9923386, 48.20845141 ], [ 16.99245518, 48.20825385 ], [ 16.99231754, 48.20821753 ], [ 16.99223553, 48.20835662 ], [ 16.9921521, 48.20849789 ], [ 16.99214224, 48.20851448 ], [ 16.99211727, 48.20853699 ], [ 16.99207863, 48.20854807 ], [ 16.99190022, 48.20857015 ], [ 16.99187182, 48.20857362 ], [ 16.99189979, 48.20866866 ], [ 16.99193941, 48.20866343 ], [ 16.99197661, 48.20866427 ], [ 16.99200995, 48.20868049 ], [ 16.99202167, 48.20870191 ], [ 16.9920193, 48.20872254 ], [ 16.99191127, 48.20890587 ] ] ] } },
{ "type": "Feature", "properties": { "@featureType": "CadastralParcel", "areaValue": { "value": 936, "@uom": "m2" }, "beginLifespanVersion": { "@nilReason": "http://inspire.ec.europa.eu/codelist/VoidReasonValue/Unpopulated", "@nil": "true" }, "endLifespanVersion": { "@nilReason": "http://inspire.ec.europa.eu/codelist/VoidReasonValue/Unpopulated", "@nil": "true" }, "inspireId": { "@dataType": "Identifier", "localId": "810649_4086/4.C", "namespace": "SK.ESKN.CP", "versionId": "20260703T04:07:10" }, "label": "4086/4", "nationalCadastralReference": "810649_4086/4.C", "referencePoint": { "type": "Point", "coordinates": [ 16.98952231, 48.20883474 ] }, "validFrom": "2026-06-30T16:00:00Z", "validTo": { "@nilReason": "http://inspire.ec.europa.eu/codelist/VoidReasonValue/Unpopulated", "@nil": "true" }, "administrativeUnit": { "@href": "#auAdmUnitS.1398" } }, "geometry": { "type": "Polygon", "coordinates": [ [ [ 16.98947239, 48.2088617 ], [ 16.98965442, 48.20895406 ], [ 16.98979649, 48.20903626 ], [ 16.98993174, 48.20912585 ], [ 16.99002319, 48.20906424 ], [ 16.9900016, 48.20904992 ], [ 16.98988475, 48.20897254 ], [ 16.98973622, 48.20888664 ], [ 16.98958079, 48.20880778 ], [ 16.9895473, 48.20879074 ], [ 16.98936646, 48.20871175 ], [ 16.98925701, 48.20866977 ], [ 16.98914833, 48.20862811 ], [ 16.98893685, 48.20856275 ], [ 16.98888076, 48.2086389 ], [ 16.98908767, 48.20870494 ], [ 16.98927145, 48.20877536 ], [ 16.98929853, 48.20878573 ], [ 16.98947239, 48.2088617 ] ] ] } },
{ "type": "Feature", "properties": { "@featureType": "CadastralParcel", "areaValue": { "value": 1006, "@uom": "m2" }, "beginLifespanVersion": { "@nilReason": "http://inspire.ec.europa.eu/codelist/VoidReasonValue/Unpopulated", "@nil": "true" }, "endLifespanVersion": { "@nilReason": "http://inspire.ec.europa.eu/codelist/VoidReasonValue/Unpopulated", "@nil": "true" }, "inspireId": { "@dataType": "Identifier", "localId": "810649_4086/3.C", "namespace": "SK.ESKN.CP", "versionId": "20260703T04:07:10" }, "label": "4086/3", "nationalCadastralReference": "810649_4086/3.C", "referencePoint": { "type": "Point", "coordinates": [ 16.9902778, 48.2084459 ] }, "validFrom": "2026-06-30T16:00:00Z", "validTo": { "@nilReason": "http://inspire.ec.europa.eu/codelist/VoidReasonValue/Unpopulated", "@nil": "true" }, "administrativeUnit": { "@href": "#auAdmUnitS.1398" } }, "geometry": { "type": "Polygon", "coordinates": [ [ [ 16.99009509, 48.20839557 ], [ 16.99023716, 48.20847776 ], [ 16.99025435, 48.20848907 ], [ 16.99042395, 48.20860155 ], [ 16.99053471, 48.20868502 ], [ 16.99064201, 48.20876907 ], [ 16.99074076, 48.20871276 ], [ 16.99063263, 48.20862802 ], [ 16.99051835, 48.20854187 ], [ 16.99032542, 48.20841404 ], [ 16.99017689, 48.20832815 ], [ 16.98998797, 48.20823224 ], [ 16.98981794, 48.20815771 ], [ 16.98966754, 48.2080998 ], [ 16.98959676, 48.20817295 ], [ 16.98971177, 48.20821739 ], [ 16.98975161, 48.2082327 ], [ 16.98991307, 48.20830321 ], [ 16.98998345, 48.20833888 ], [ 16.99009509, 48.20839557 ] ] ] } },
{ "type": "Feature", "properties": { "@featureType": "CadastralParcel", "areaValue": { "value": 2259, "@uom": "m2" }, "beginLifespanVersion": { "@nilReason": "http://inspire.ec.europa.eu/codelist/VoidReasonValue/Unpopulated", "@nil": "true" }, "endLifespanVersion": { "@nilReason": "http://inspire.ec.europa.eu/codelist/VoidReasonValue/Unpopulated", "@nil": "true" }, "inspireId": { "@dataType": "Identifier", "localId": "810649_4085/1.C", "namespace": "SK.ESKN.CP", "versionId": "20260703T04:07:10" }, "label": "4085/1", "nationalCadastralReference": "810649_4085/1.C", "referencePoint": { "type": "Point", "coordinates": [ 16.99040839, 48.20903142 ] }, "validFrom": "2026-06-30T16:00:00Z", "validTo": { "@nilReason": "http://inspire.ec.europa.eu/codelist/VoidReasonValue/Unpopulated", "@nil": "true" }, "administrativeUnit": { "@href": "#auAdmUnitS.1398" } }, "geometry": { "type": "Polygon", "coordinates": [ [ [ 16.99178851, 48.20868334 ], [ 16.99189979, 48.20866866 ], [ 16.99187182, 48.20857362 ], [ 16.99175117, 48.20858855 ], [ 16.99148036, 48.20863619 ], [ 16.99122173, 48.20869433 ], [ 16.99118157, 48.20870567 ], [ 16.99090839, 48.2087827 ], [ 16.99085692, 48.20878666 ], [ 16.99081258, 48.20876897 ], [ 16.9907742, 48.20873893 ], [ 16.99074076, 48.20871276 ], [ 16.99064201, 48.20876907 ], [ 16.9906682, 48.20878959 ], [ 16.99067819, 48.20880989 ], [ 16.99068334, 48.20882037 ], [ 16.99067499, 48.2088509 ], [ 16.99064641, 48.20887307 ], [ 16.99063837, 48.20887613 ], [ 16.99053908, 48.20891487 ], [ 16.99039203, 48.20897734 ], [ 16.99037496, 48.20898458 ], [ 16.99037321, 48.20898536 ], [ 16.99015052, 48.2090938 ], [ 16.99013878, 48.20909625 ], [ 16.9901209, 48.2090999 ], [ 16.99008859, 48.20909804 ], [ 16.9900806, 48.2090955 ], [ 16.9900605, 48.20908896 ], [ 16.99002319, 48.20906424 ], [ 16.98993174, 48.20912585 ], [ 16.98996045, 48.20914491 ], [ 16.98997099, 48.20916344 ], [ 16.98996755, 48.20918925 ], [ 16.98994688, 48.20920491 ], [ 16.98963035, 48.20938509 ], [ 16.98978094, 48.20942782 ], [ 16.98998633, 48.2093106 ], [ 16.99005366, 48.20927301 ], [ 16.99020431, 48.2091889 ], [ 16.9902723, 48.20915579 ], [ 16.99045581, 48.20906644 ], [ 16.99061531, 48.20899859 ], [ 16.9907202, 48.2089578 ], [ 16.99096535, 48.20887305 ], [ 16.99127374, 48.20878606 ], [ 16.99133959, 48.20877124 ], [ 16.99152243, 48.20873012 ], [ 16.99178851, 48.20868334 ] ] ] } },
{ "type": "Feature", "properties": { "@featureType": "CadastralParcel", "areaValue": { "value": 22996, "@uom": "m2" }, "beginLifespanVersion": { "@nilReason": "http://inspire.ec.europa.eu/codelist/VoidReasonValue/Unpopulated", "@nil": "true" }, "endLifespanVersion": { "@nilReason": "http://inspire.ec.europa.eu/codelist/VoidReasonValue/Unpopulated", "@nil": "true" }, "inspireId": { "@dataType": "Identifier", "localId": "810649_4065/1.C", "namespace": "SK.ESKN.CP", "versionId": "20260703T04:07:10" }, "label": "4065/1", "nationalCadastralReference": "810649_4065/1.C", "referencePoint": { "type": "Point", "coordinates": [ 16.995289, 48.20912446 ] }, "validFrom": "2026-06-30T16:00:00Z", "validTo": { "@nilReason": "http://inspire.ec.europa.eu/codelist/VoidReasonValue/Unpopulated", "@nil": "true" }, "administrativeUnit": { "@href": "#auAdmUnitS.1398" } }, "geometry": { "type": "Polygon", "coordinates": [ [ [ 16.99279428, 48.20857163 ], [ 16.99404806, 48.20889331 ], [ 16.99383232, 48.20926939 ], [ 16.99395825, 48.20929215 ], [ 16.99432509, 48.20936404 ], [ 16.99475065, 48.20947178 ], [ 16.99518622, 48.20962614 ], [ 16.99559311, 48.20979281 ], [ 16.99609431, 48.20998476 ], [ 16.99675827, 48.20897954 ], [ 16.99471991, 48.20843442 ], [ 16.99449397, 48.2087749 ], [ 16.99371009, 48.20859884 ], [ 16.99350922, 48.20854189 ], [ 16.9929904, 48.20839509 ], [ 16.99245518, 48.20825385 ], [ 16.9923386, 48.20845141 ], [ 16.99279428, 48.20857163 ] ] ] } },
{ "type": "Feature", "properties": { "@featureType": "CadastralParcel", "areaValue": { "value": 928, "@uom": "m2" }, "beginLifespanVersion": { "@nilReason": "http://inspire.ec.europa.eu/codelist/VoidReasonValue/Unpopulated", "@nil": "true" }, "endLifespanVersion": { "@nilReason": "http://inspire.ec.europa.eu/codelist/VoidReasonValue/Unpopulated", "@nil": "true" }, "inspireId": { "@dataType": "Identifier", "localId": "810649_4063.C", "namespace": "SK.ESKN.CP", "versionId": "20260703T04:07:10" }, "label": "4063", "nationalCadastralReference": "810649_4063.C", "referencePoint": { "type": "Point", "coordinates": [ 16.99250284, 48.20861856 ] }, "validFrom": "2026-06-30T16:00:00Z", "validTo": { "@nilReason": "http://inspire.ec.europa.eu/codelist/VoidReasonValue/Unpopulated", "@nil": "true" }, "administrativeUnit": { "@href": "#auAdmUnitS.1398" } }, "geometry": { "type": "Polygon", "coordinates": [ [ [ 16.9923386, 48.20845141 ], [ 16.99221231, 48.20866548 ], [ 16.9926645, 48.20878465 ], [ 16.99279428, 48.20857163 ], [ 16.9923386, 48.20845141 ] ] ] } },
{ "type": "Feature", "properties": { "@featureType": "CadastralParcel", "areaValue": { "value": 52, "@uom": "m2" }, "beginLifespanVersion": { "@nilReason": "http://inspire.ec.europa.eu/codelist/VoidReasonValue/Unpopulated", "@nil": "true" }, "endLifespanVersion": { "@nilReason": "http://inspire.ec.europa.eu/codelist/VoidReasonValue/Unpopulated", "@nil": "true" }, "inspireId": { "@dataType": "Identifier", "localId": "810649_4064/4.C", "namespace": "SK.ESKN.CP", "versionId": "20260703T04:07:10" }, "label": "4064/4", "nationalCadastralReference": "810649_4064/4.C", "referencePoint": { "type": "Point", "coordinates": [ 16.99206097, 48.20898772 ] }, "validFrom": "2026-06-30T16:00:00Z", "validTo": { "@nilReason": "http://inspire.ec.europa.eu/codelist/VoidReasonValue/Unpopulated", "@nil": "true" }, "administrativeUnit": { "@href": "#auAdmUnitS.1398" } }, "geometry": { "type": "Polygon", "coordinates": [ [ [ 16.99200203, 48.20901563 ], [ 16.99207404, 48.2090346 ], [ 16.99211964, 48.2089598 ], [ 16.99204864, 48.20894045 ], [ 16.99204775, 48.20894184 ], [ 16.99200203, 48.20901563 ] ] ] } },
{ "type": "Feature", "properties": { "@featureType": "CadastralParcel", "areaValue": { "value": 6560, "@uom": "m2" }, "beginLifespanVersion": { "@nilReason": "http://inspire.ec.europa.eu/codelist/VoidReasonValue/Unpopulated", "@nil": "true" }, "endLifespanVersion": { "@nilReason": "http://inspire.ec.europa.eu/codelist/VoidReasonValue/Unpopulated", "@nil": "true" }, "inspireId": { "@dataType": "Identifier", "localId": "810649_4064/3.C", "namespace": "SK.ESKN.CP", "versionId": "20260703T04:07:10" }, "label": "4064/3", "nationalCadastralReference": "810649_4064/3.C", "referencePoint": { "type": "Point", "coordinates": [ 16.99304853, 48.20891688 ] }, "validFrom": "2026-06-30T16:00:00Z", "validTo": { "@nilReason": "http://inspire.ec.europa.eu/codelist/VoidReasonValue/Unpopulated", "@nil": "true" }, "administrativeUnit": { "@href": "#auAdmUnitS.1398" } }, "geometry": { "type": "Polygon", "coordinates": [ [ [ 16.99221231, 48.20866548 ], [ 16.99214623, 48.20877485 ], [ 16.99204864, 48.20894045 ], [ 16.99211964, 48.2089598 ], [ 16.99207404, 48.2090346 ], [ 16.99200203, 48.20901563 ], [ 16.99196693, 48.20907225 ], [ 16.99208168, 48.20906667 ], [ 16.99227625, 48.2090618 ], [ 16.99282947, 48.20910294 ], [ 16.99325125, 48.20916577 ], [ 16.99383232, 48.20926939 ], [ 16.99404806, 48.20889331 ], [ 16.99279428, 48.20857163 ], [ 16.9926645, 48.20878465 ], [ 16.99221231, 48.20866548 ] ] ] } },
{ "type": "Feature", "properties": { "@featureType": "CadastralParcel", "areaValue": { "value": 32, "@uom": "m2" }, "beginLifespanVersion": { "@nilReason": "http://inspire.ec.europa.eu/codelist/VoidReasonValue/Unpopulated", "@nil": "true" }, "endLifespanVersion": { "@nilReason": "http://inspire.ec.europa.eu/codelist/VoidReasonValue/Unpopulated", "@nil": "true" }, "inspireId": { "@dataType": "Identifier", "localId": "810649_2806/202.C", "namespace": "SK.ESKN.CP", "versionId": "20260703T04:07:10" }, "label": "2806/202", "nationalCadastralReference": "810649_2806/202.C", "referencePoint": { "type": "Point", "coordinates": [ 16.98946248, 48.20691524 ] }, "validFrom": "2026-06-30T16:00:00Z", "validTo": { "@nilReason": "http://inspire.ec.europa.eu/codelist/VoidReasonValue/Unpopulated", "@nil": "true" }, "administrativeUnit": { "@href": "#auAdmUnitS.1398" } }, "geometry": { "type": "Polygon", "coordinates": [ [ [ 16.9891612, 48.20683441 ], [ 16.98974167, 48.20699606 ], [ 16.98916871, 48.20682336 ], [ 16.9891612, 48.20683441 ] ] ] } },
{ "type": "Feature", "properties": { "@featureType": "CadastralParcel", "areaValue": { "value": 253, "@uom": "m2" }, "beginLifespanVersion": { "@nilReason": "http://inspire.ec.europa.eu/codelist/VoidReasonValue/Unpopulated", "@nil": "true" }, "endLifespanVersion": { "@nilReason": "http://inspire.ec.europa.eu/codelist/VoidReasonValue/Unpopulated", "@nil": "true" }, "inspireId": { "@dataType": "Identifier", "localId": "810649_2332/77.C", "namespace": "SK.ESKN.CP", "versionId": "20260703T04:07:10" }, "label": "2332/77", "nationalCadastralReference": "810649_2332/77.C", "referencePoint": { "type": "Point", "coordinates": [ 16.98990191, 48.20705706 ] }, "validFrom": "2026-06-30T16:00:00Z", "validTo": { "@nilReason": "http://inspire.ec.europa.eu/codelist/VoidReasonValue/Unpopulated", "@nil": "true" }, "administrativeUnit": { "@href": "#auAdmUnitS.1398" } }, "geometry": { "type": "Polygon", "coordinates": [ [ [ 16.98914528, 48.20685782 ], [ 16.99007845, 48.20711805 ], [ 16.99062866, 48.2072673 ], [ 16.99025997, 48.20715224 ], [ 16.98974167, 48.20699606 ], [ 16.9891612, 48.20683441 ], [ 16.98914528, 48.20685782 ] ] ] } },
{ "type": "Feature", "properties": { "@featureType": "CadastralParcel", "areaValue": { "value": 4227, "@uom": "m2" }, "beginLifespanVersion": { "@nilReason": "http://inspire.ec.europa.eu/codelist/VoidReasonValue/Unpopulated", "@nil": "true" }, "endLifespanVersion": { "@nilReason": "http://inspire.ec.europa.eu/codelist/VoidReasonValue/Unpopulated", "@nil": "true" }, "inspireId": { "@dataType": "Identifier", "localId": "810649_2331/99.C", "namespace": "SK.ESKN.CP", "versionId": "20260703T04:07:10" }, "label": "2331/99", "nationalCadastralReference": "810649_2331/99.C", "referencePoint": { "type": "Point", "coordinates": [ 16.98992784, 48.20723806 ] }, "validFrom": "2026-06-30T16:00:00Z", "validTo": { "@nilReason": "http://inspire.ec.europa.eu/codelist/VoidReasonValue/Unpopulated", "@nil": "true" }, "administrativeUnit": { "@href": "#auAdmUnitS.1398" } }, "geometry": { "type": "Polygon", "coordinates": [ [ [ 16.98908766, 48.2071625 ], [ 16.98923917, 48.20720882 ], [ 16.98948265, 48.20728326 ], [ 16.98979421, 48.20737848 ], [ 16.99048423, 48.20758943 ], [ 16.9907669, 48.20730846 ], [ 16.99069847, 48.2072891 ], [ 16.99062866, 48.2072673 ], [ 16.99007845, 48.20711805 ], [ 16.98914528, 48.20685782 ], [ 16.98910808, 48.20691231 ], [ 16.9891747, 48.20701363 ], [ 16.98908766, 48.2071625 ] ] ] } },
{ "type": "Feature", "properties": { "@featureType": "CadastralParcel", "areaValue": { "value": 6, "@uom": "m2" }, "beginLifespanVersion": { "@nilReason": "http://inspire.ec.europa.eu/codelist/VoidReasonValue/Unpopulated", "@nil": "true" }, "endLifespanVersion": { "@nilReason": "http://inspire.ec.europa.eu/codelist/VoidReasonValue/Unpopulated", "@nil": "true" }, "inspireId": { "@dataType": "Identifier", "localId": "810649_2806/201.C", "namespace": "SK.ESKN.CP", "versionId": "20260703T04:07:10" }, "label": "2806/201", "nationalCadastralReference": "810649_2806/201.C", "referencePoint": { "type": "Point", "coordinates": [ 16.98913457, 48.20681929 ] }, "validFrom": "2026-06-30T16:00:00Z", "validTo": { "@nilReason": "http://inspire.ec.europa.eu/codelist/VoidReasonValue/Unpopulated", "@nil": "true" }, "administrativeUnit": { "@href": "#auAdmUnitS.1398" } }, "geometry": { "type": "Polygon", "coordinates": [ [ [ 16.9891018, 48.20681523 ], [ 16.98914784, 48.20683069 ], [ 16.9891612, 48.20683441 ], [ 16.98916871, 48.20682336 ], [ 16.98911624, 48.20680754 ], [ 16.9891018, 48.20681523 ] ] ] } },
{ "type": "Feature", "properties": { "@featureType": "CadastralParcel", "areaValue": { "value": 17, "@uom": "m2" }, "beginLifespanVersion": { "@nilReason": "http://inspire.ec.europa.eu/codelist/VoidReasonValue/Unpopulated", "@nil": "true" }, "endLifespanVersion": { "@nilReason": "http://inspire.ec.europa.eu/codelist/VoidReasonValue/Unpopulated", "@nil": "true" }, "inspireId": { "@dataType": "Identifier", "localId": "810649_2332/76.C", "namespace": "SK.ESKN.CP", "versionId": "20260703T04:07:10" }, "label": "2332/76", "nationalCadastralReference": "810649_2332/76.C", "referencePoint": { "type": "Point", "coordinates": [ 16.98912592, 48.20684426 ] }, "validFrom": "2026-06-30T16:00:00Z", "validTo": { "@nilReason": "http://inspire.ec.europa.eu/codelist/VoidReasonValue/Unpopulated", "@nil": "true" }, "administrativeUnit": { "@href": "#auAdmUnitS.1398" } }, "geometry": { "type": "Polygon", "coordinates": [ [ [ 16.98906494, 48.20683502 ], [ 16.98912972, 48.20685349 ], [ 16.98914528, 48.20685782 ], [ 16.9891612, 48.20683441 ], [ 16.98914784, 48.20683069 ], [ 16.9891018, 48.20681523 ], [ 16.98906494, 48.20683502 ] ] ] } },
{ "type": "Feature", "properties": { "@featureType": "CadastralParcel", "areaValue": { "value": 463, "@uom": "m2" }, "beginLifespanVersion": { "@nilReason": "http://inspire.ec.europa.eu/codelist/VoidReasonValue/Unpopulated", "@nil": "true" }, "endLifespanVersion": { "@nilReason": "http://inspire.ec.europa.eu/codelist/VoidReasonValue/Unpopulated", "@nil": "true" }, "inspireId": { "@dataType": "Identifier", "localId": "810649_2331/98.C", "namespace": "SK.ESKN.CP", "versionId": "20260703T04:07:10" }, "label": "2331/98", "nationalCadastralReference": "810649_2331/98.C", "referencePoint": { "type": "Point", "coordinates": [ 16.98902532, 48.20700421 ] }, "validFrom": "2026-06-30T16:00:00Z", "validTo": { "@nilReason": "http://inspire.ec.europa.eu/codelist/VoidReasonValue/Unpopulated", "@nil": "true" }, "administrativeUnit": { "@href": "#auAdmUnitS.1398" } }, "geometry": { "type": "Polygon", "coordinates": [ [ [ 16.98880633, 48.20707651 ], [ 16.98908766, 48.2071625 ], [ 16.9891747, 48.20701363 ], [ 16.98910808, 48.20691231 ], [ 16.98914528, 48.20685782 ], [ 16.98912972, 48.20685349 ], [ 16.98906494, 48.20683502 ], [ 16.98905268, 48.20683824 ], [ 16.98909617, 48.20691149 ], [ 16.98888714, 48.20697864 ], [ 16.98888533, 48.20699479 ], [ 16.98887841, 48.20701511 ], [ 16.98887161, 48.20703553 ], [ 16.98880633, 48.20707651 ] ] ] } },
{ "type": "Feature", "properties": { "@featureType": "CadastralParcel", "areaValue": { "value": 707, "@uom": "m2" }, "beginLifespanVersion": { "@nilReason": "http://inspire.ec.europa.eu/codelist/VoidReasonValue/Unpopulated", "@nil": "true" }, "endLifespanVersion": { "@nilReason": "http://inspire.ec.europa.eu/codelist/VoidReasonValue/Unpopulated", "@nil": "true" }, "inspireId": { "@dataType": "Identifier", "localId": "810649_3987/11.C", "namespace": "SK.ESKN.CP", "versionId": "20260703T04:07:10" }, "label": "3987/11", "nationalCadastralReference": "810649_3987/11.C", "referencePoint": { "type": "Point", "coordinates": [ 16.98889795, 48.20718566 ] }, "validFrom": "2026-06-30T16:00:00Z", "validTo": { "@nilReason": "http://inspire.ec.europa.eu/codelist/VoidReasonValue/Unpopulated", "@nil": "true" }, "administrativeUnit": { "@href": "#auAdmUnitS.1398" } }, "geometry": { "type": "Polygon", "coordinates": [ [ [ 16.98855343, 48.2072353 ], [ 16.98855504, 48.20723803 ], [ 16.98884117, 48.20732355 ], [ 16.98923917, 48.20720882 ], [ 16.98908766, 48.2071625 ], [ 16.98880633, 48.20707651 ], [ 16.98855343, 48.2072353 ] ] ] } },
{ "type": "Feature", "properties": { "@featureType": "CadastralParcel", "areaValue": { "value": 234, "@uom": "m2" }, "beginLifespanVersion": { "@nilReason": "http://inspire.ec.europa.eu/codelist/VoidReasonValue/Unpopulated", "@nil": "true" }, "endLifespanVersion": { "@nilReason": "http://inspire.ec.europa.eu/codelist/VoidReasonValue/Unpopulated", "@nil": "true" }, "inspireId": { "@dataType": "Identifier", "localId": "810649_3708.E", "namespace": "SK.ESKN.CP", "versionId": "20260703T04:07:10" }, "label": "3708", "nationalCadastralReference": "810649_3708.E", "referencePoint": { "type": "Point", "coordinates": [ 16.99260124, 48.20804462 ] }, "validFrom": "2026-06-30T16:00:00Z", "validTo": { "@nilReason": "http://inspire.ec.europa.eu/codelist/VoidReasonValue/Unpopulated", "@nil": "true" }, "administrativeUnit": { "@href": "#auAdmUnitS.1398" } }, "geometry": { "type": "Polygon", "coordinates": [ [ [ 16.99250002, 48.2082657 ], [ 16.99275537, 48.20783711 ], [ 16.99270133, 48.20782264 ], [ 16.99244868, 48.20825213 ], [ 16.99250002, 48.2082657 ] ] ] } },
{ "type": "Feature", "properties": { "@featureType": "CadastralParcel", "areaValue": { "value": 201, "@uom": "m2" }, "beginLifespanVersion": { "@nilReason": "http://inspire.ec.europa.eu/codelist/VoidReasonValue/Unpopulated", "@nil": "true" }, "endLifespanVersion": { "@nilReason": "http://inspire.ec.europa.eu/codelist/VoidReasonValue/Unpopulated", "@nil": "true" }, "inspireId": { "@dataType": "Identifier", "localId": "810649_3709.E", "namespace": "SK.ESKN.CP", "versionId": "20260703T04:07:10" }, "label": "3709", "nationalCadastralReference": "810649_3709.E", "referencePoint": { "type": "Point", "coordinates": [ 16.99255249, 48.20803157 ] }, "validFrom": "2026-06-30T16:00:00Z", "validTo": { "@nilReason": "http://inspire.ec.europa.eu/codelist/VoidReasonValue/Unpopulated", "@nil": "true" }, "administrativeUnit": { "@href": "#auAdmUnitS.1398" } }, "geometry": { "type": "Polygon", "coordinates": [ [ [ 16.99244868, 48.20825213 ], [ 16.99270133, 48.20782264 ], [ 16.99265573, 48.20781046 ], [ 16.99240449, 48.20824051 ], [ 16.99244868, 48.20825213 ] ] ] } },
{ "type": "Feature", "properties": { "@featureType": "CadastralParcel", "areaValue": { "value": 180, "@uom": "m2" }, "beginLifespanVersion": { "@nilReason": "http://inspire.ec.europa.eu/codelist/VoidReasonValue/Unpopulated", "@nil": "true" }, "endLifespanVersion": { "@nilReason": "http://inspire.ec.europa.eu/codelist/VoidReasonValue/Unpopulated", "@nil": "true" }, "inspireId": { "@dataType": "Identifier", "localId": "810649_3710.E", "namespace": "SK.ESKN.CP", "versionId": "20260703T04:07:10" }, "label": "3710", "nationalCadastralReference": "810649_3710.E", "referencePoint": { "type": "Point", "coordinates": [ 16.9925078, 48.20801992 ] }, "validFrom": "2026-06-30T16:00:00Z", "validTo": { "@nilReason": "http://inspire.ec.europa.eu/codelist/VoidReasonValue/Unpopulated", "@nil": "true" }, "administrativeUnit": { "@href": "#auAdmUnitS.1398" } }, "geometry": { "type": "Polygon", "coordinates": [ [ [ 16.99260936, 48.20779805 ], [ 16.99236224, 48.20822937 ], [ 16.99240449, 48.20824051 ], [ 16.99265573, 48.20781046 ], [ 16.99260936, 48.20779805 ] ] ] } },
{ "type": "Feature", "properties": { "@featureType": "CadastralParcel", "areaValue": { "value": 237, "@uom": "m2" }, "beginLifespanVersion": { "@nilReason": "http://inspire.ec.europa.eu/codelist/VoidReasonValue/Unpopulated", "@nil": "true" }, "endLifespanVersion": { "@nilReason": "http://inspire.ec.europa.eu/codelist/VoidReasonValue/Unpopulated", "@nil": "true" }, "inspireId": { "@dataType": "Identifier", "localId": "810649_3711.E", "namespace": "SK.ESKN.CP", "versionId": "20260703T04:07:10" }, "label": "3711", "nationalCadastralReference": "810649_3711.E", "referencePoint": { "type": "Point", "coordinates": [ 16.99245539, 48.2080051 ] }, "validFrom": "2026-06-30T16:00:00Z", "validTo": { "@nilReason": "http://inspire.ec.europa.eu/codelist/VoidReasonValue/Unpopulated", "@nil": "true" }, "administrativeUnit": { "@href": "#auAdmUnitS.1398" } }, "geometry": { "type": "Polygon", "coordinates": [ [ [ 16.99255209, 48.20778262 ], [ 16.99229713, 48.20821214 ], [ 16.99236224, 48.20822937 ], [ 16.99260936, 48.20779805 ], [ 16.99255209, 48.20778262 ] ] ] } },
{ "type": "Feature", "properties": { "@featureType": "CadastralParcel", "areaValue": { "value": 324, "@uom": "m2" }, "beginLifespanVersion": { "@nilReason": "http://inspire.ec.europa.eu/codelist/VoidReasonValue/Unpopulated", "@nil": "true" }, "endLifespanVersion": { "@nilReason": "http://inspire.ec.europa.eu/codelist/VoidReasonValue/Unpopulated", "@nil": "true" }, "inspireId": { "@dataType": "Identifier", "localId": "810649_3712.E", "namespace": "SK.ESKN.CP", "versionId": "20260703T04:07:10" }, "label": "3712", "nationalCadastralReference": "810649_3712.E", "referencePoint": { "type": "Point", "coordinates": [ 16.9923823, 48.20798686 ] }, "validFrom": "2026-06-30T16:00:00Z", "validTo": { "@nilReason": "http://inspire.ec.europa.eu/codelist/VoidReasonValue/Unpopulated", "@nil": "true" }, "administrativeUnit": { "@href": "#auAdmUnitS.1398" } }, "geometry": { "type": "Polygon", "coordinates": [ [ [ 16.9924632, 48.20775996 ], [ 16.9922172, 48.20819109 ], [ 16.99229713, 48.20821214 ], [ 16.99255209, 48.20778262 ], [ 16.9924632, 48.20775996 ] ] ] } },
{ "type": "Feature", "properties": { "@featureType": "CadastralParcel", "areaValue": { "value": 9002, "@uom": "m2" }, "beginLifespanVersion": { "@nilReason": "http://inspire.ec.europa.eu/codelist/VoidReasonValue/Unpopulated", "@nil": "true" }, "endLifespanVersion": { "@nilReason": "http://inspire.ec.europa.eu/codelist/VoidReasonValue/Unpopulated", "@nil": "true" }, "inspireId": { "@dataType": "Identifier", "localId": "810649_4087.E", "namespace": "SK.ESKN.CP", "versionId": "20260703T04:07:10" }, "label": "4087", "nationalCadastralReference": "810649_4087.E", "referencePoint": { "type": "Point", "coordinates": [ 16.98258206, 48.19832575 ] }, "validFrom": "2026-06-30T16:00:00Z", "validTo": { "@nilReason": "http://inspire.ec.europa.eu/codelist/VoidReasonValue/Unpopulated", "@nil": "true" }, "administrativeUnit": { "@href": "#auAdmUnitS.1398" } }, "geometry": { "type": "Polygon", "coordinates": [ [ [ 16.9829781, 48.19750596 ], [ 16.98294805, 48.19752984 ], [ 16.98276468, 48.19768952 ], [ 16.98253808, 48.1977691 ], [ 16.98227977, 48.19781134 ], [ 16.98204593, 48.19781068 ], [ 16.98220687, 48.19896399 ], [ 16.98308913, 48.19884017 ], [ 16.9829781, 48.19750596 ] ] ] } }
]
}
