{
"type": "FeatureCollection",
"name": "gis",
"crs": { "type": "name", "properties": { "name": "urn:ogc:def:crs:OGC:1.3:CRS84" } },
"features": [
{ "type": "Feature", "properties": { "@featureType": "CadastralParcel", "areaValue": { "value": 584, "@uom": "m2" }, "beginLifespanVersion": { "@nilReason": "http://inspire.ec.europa.eu/codelist/VoidReasonValue/Unpopulated", "@nil": "true" }, "endLifespanVersion": { "@nilReason": "http://inspire.ec.europa.eu/codelist/VoidReasonValue/Unpopulated", "@nil": "true" }, "inspireId": { "@dataType": "Identifier", "localId": "803685_274/1.C", "namespace": "SK.ESKN.CP", "versionId": "20260703T06:07:41" }, "label": "274/1", "nationalCadastralReference": "803685_274/1.C", "referencePoint": { "type": "Point", "coordinates": [ 18.13400919, 48.98070029 ] }, "validFrom": "2026-06-30T16:00:00Z", "validTo": { "@nilReason": "http://inspire.ec.europa.eu/codelist/VoidReasonValue/Unpopulated", "@nil": "true" }, "administrativeUnit": { "@href": "#auAdmUnitS.2954" } }, "geometry": { "type": "Polygon", "coordinates": [ [ [ 18.13346917, 48.98037409 ], [ 18.1335373, 48.98041964 ], [ 18.13354876, 48.98042725 ], [ 18.1336607, 48.98050215 ], [ 18.1336894, 48.98052141 ], [ 18.13373725, 48.98055343 ], [ 18.13385484, 48.98063217 ], [ 18.13388368, 48.98065144 ], [ 18.13403084, 48.98074914 ], [ 18.13417463, 48.98084646 ], [ 18.13424657, 48.98089422 ], [ 18.13441668, 48.98100706 ], [ 18.13449126, 48.98105659 ], [ 18.13450236, 48.98105362 ], [ 18.13457433, 48.98103431 ], [ 18.13453872, 48.98101131 ], [ 18.13437882, 48.98090836 ], [ 18.13378649, 48.98052044 ], [ 18.13351556, 48.980343 ], [ 18.13346917, 48.98037409 ] ] ] } },
{ "type": "Feature", "properties": { "@featureType": "CadastralParcel", "areaValue": { "value": 810, "@uom": "m2" }, "beginLifespanVersion": { "@nilReason": "http://inspire.ec.europa.eu/codelist/VoidReasonValue/Unpopulated", "@nil": "true" }, "endLifespanVersion": { "@nilReason": "http://inspire.ec.europa.eu/codelist/VoidReasonValue/Unpopulated", "@nil": "true" }, "inspireId": { "@dataType": "Identifier", "localId": "803685_372/67.C", "namespace": "SK.ESKN.CP", "versionId": "20260703T06:07:41" }, "label": "372/67", "nationalCadastralReference": "803685_372/67.C", "referencePoint": { "type": "Point", "coordinates": [ 18.13305835, 48.98055464 ] }, "validFrom": "2026-06-30T16:00:00Z", "validTo": { "@nilReason": "http://inspire.ec.europa.eu/codelist/VoidReasonValue/Unpopulated", "@nil": "true" }, "administrativeUnit": { "@href": "#auAdmUnitS.2954" } }, "geometry": { "type": "Polygon", "coordinates": [ [ [ 18.1329777, 48.98081042 ], [ 18.13354876, 48.98042725 ], [ 18.1335373, 48.98041964 ], [ 18.13349347, 48.98044798 ], [ 18.13349132, 48.98044659 ], [ 18.13319368, 48.98064623 ], [ 18.13309621, 48.98058318 ], [ 18.13318145, 48.98052609 ], [ 18.13312401, 48.98048892 ], [ 18.13323606, 48.98041388 ], [ 18.13329225, 48.98045016 ], [ 18.13331136, 48.98043746 ], [ 18.13333119, 48.98045025 ], [ 18.13336616, 48.98047285 ], [ 18.13337121, 48.98047612 ], [ 18.1334523, 48.98042141 ], [ 18.13344751, 48.98041824 ], [ 18.13331192, 48.98033042 ], [ 18.13275094, 48.98070695 ], [ 18.13282415, 48.98074007 ], [ 18.1329777, 48.98081042 ] ] ] } },
{ "type": "Feature", "properties": { "@featureType": "CadastralParcel", "areaValue": { "value": 2058, "@uom": "m2" }, "beginLifespanVersion": { "@nilReason": "http://inspire.ec.europa.eu/codelist/VoidReasonValue/Unpopulated", "@nil": "true" }, "endLifespanVersion": { "@nilReason": "http://inspire.ec.europa.eu/codelist/VoidReasonValue/Unpopulated", "@nil": "true" }, "inspireId": { "@dataType": "Identifier", "localId": "803685_372/3.C", "namespace": "SK.ESKN.CP", "versionId": "20260703T06:07:41" }, "label": "372/3", "nationalCadastralReference": "803685_372/3.C", "referencePoint": { "type": "Point", "coordinates": [ 18.13184075, 48.97983341 ] }, "validFrom": "2026-06-30T16:00:00Z", "validTo": { "@nilReason": "http://inspire.ec.europa.eu/codelist/VoidReasonValue/Unpopulated", "@nil": "true" }, "administrativeUnit": { "@href": "#auAdmUnitS.2954" } }, "geometry": { "type": "Polygon", "coordinates": [ [ [ 18.13127494, 48.97962236 ], [ 18.13137372, 48.97966635 ], [ 18.13142227, 48.97968793 ], [ 18.13145632, 48.97970308 ], [ 18.13147871, 48.97971304 ], [ 18.13161893, 48.97977541 ], [ 18.13162682, 48.97977893 ], [ 18.13165699, 48.97979232 ], [ 18.13165971, 48.97979356 ], [ 18.13168236, 48.97980363 ], [ 18.13182931, 48.979869 ], [ 18.13186336, 48.97988415 ], [ 18.13188614, 48.97989431 ], [ 18.13199138, 48.97994228 ], [ 18.13203226, 48.97996071 ], [ 18.132066, 48.97997611 ], [ 18.1320885, 48.97998635 ], [ 18.13223256, 48.9800548 ], [ 18.13226571, 48.98007053 ], [ 18.13228803, 48.98008112 ], [ 18.13231858, 48.98009264 ], [ 18.13237105, 48.9801075 ], [ 18.13241634, 48.98011652 ], [ 18.13245673, 48.98012111 ], [ 18.13249515, 48.98012306 ], [ 18.13252972, 48.98012299 ], [ 18.13257602, 48.98012034 ], [ 18.13273878, 48.98010934 ], [ 18.1327803, 48.98010651 ], [ 18.13282874, 48.98010732 ], [ 18.13287879, 48.98011256 ], [ 18.13292104, 48.9801197 ], [ 18.13295314, 48.98009808 ], [ 18.13308645, 48.98018442 ], [ 18.13311852, 48.98020514 ], [ 18.13312824, 48.98021148 ], [ 18.13326812, 48.98030207 ], [ 18.13329727, 48.980321 ], [ 18.13331192, 48.98033042 ], [ 18.13344751, 48.98041824 ], [ 18.1334523, 48.98042141 ], [ 18.13349132, 48.98044659 ], [ 18.13349347, 48.98044798 ], [ 18.1335373, 48.98041964 ], [ 18.13346917, 48.98037409 ], [ 18.13344072, 48.98035502 ], [ 18.13341194, 48.98033638 ], [ 18.13304735, 48.98010019 ], [ 18.13301794, 48.98008115 ], [ 18.13295866, 48.98005462 ], [ 18.13290189, 48.98003707 ], [ 18.13284041, 48.98002503 ], [ 18.13281219, 48.98002169 ], [ 18.13278181, 48.98002011 ], [ 18.13275499, 48.98001865 ], [ 18.13271324, 48.98002111 ], [ 18.13254501, 48.98003098 ], [ 18.13248586, 48.98003027 ], [ 18.13243234, 48.98002537 ], [ 18.13236628, 48.9800127 ], [ 18.132356, 48.98000958 ], [ 18.13231671, 48.97999774 ], [ 18.13226826, 48.97997743 ], [ 18.13224501, 48.97996769 ], [ 18.13220955, 48.97995282 ], [ 18.1320564, 48.97988872 ], [ 18.132034, 48.97987875 ], [ 18.13199905, 48.97986319 ], [ 18.13184953, 48.97979659 ], [ 18.13182713, 48.97978663 ], [ 18.13182066, 48.97978373 ], [ 18.13179244, 48.97977117 ], [ 18.13164264, 48.97970456 ], [ 18.13159708, 48.97968423 ], [ 18.13155229, 48.97966422 ], [ 18.13136306, 48.9795797 ], [ 18.1313512, 48.97957197 ], [ 18.13134039, 48.97955636 ], [ 18.13133975, 48.97954062 ], [ 18.13134823, 48.97952432 ], [ 18.1313662, 48.97951091 ], [ 18.13138021, 48.97950152 ], [ 18.13141083, 48.97948072 ], [ 18.13153538, 48.97939629 ], [ 18.13154503, 48.97938972 ], [ 18.13155438, 48.9793834 ], [ 18.13158318, 48.97936385 ], [ 18.13168151, 48.97929713 ], [ 18.13160811, 48.97925001 ], [ 18.13150888, 48.9793174 ], [ 18.13148007, 48.97933695 ], [ 18.13143227, 48.97936939 ], [ 18.13141402, 48.97938178 ], [ 18.13131164, 48.97945116 ], [ 18.13128886, 48.97946663 ], [ 18.13126052, 48.97948584 ], [ 18.13125071, 48.9794925 ], [ 18.13123073, 48.97949839 ], [ 18.13120831, 48.97949781 ], [ 18.13119377, 48.97949372 ], [ 18.13116876, 48.9794828 ], [ 18.13116105, 48.9794902 ], [ 18.13083767, 48.97934621 ], [ 18.13078041, 48.97940221 ], [ 18.13080462, 48.97941299 ], [ 18.13081057, 48.97941568 ], [ 18.13084475, 48.97943084 ], [ 18.13086753, 48.97944101 ], [ 18.13101136, 48.97950502 ], [ 18.13104891, 48.97952173 ], [ 18.1310713, 48.97953169 ], [ 18.13121345, 48.97959497 ], [ 18.13125216, 48.9796122 ], [ 18.13127494, 48.97962236 ] ] ] } },
{ "type": "Feature", "properties": { "@featureType": "CadastralParcel", "areaValue": { "value": 57, "@uom": "m2" }, "beginLifespanVersion": { "@nilReason": "http://inspire.ec.europa.eu/codelist/VoidReasonValue/Unpopulated", "@nil": "true" }, "endLifespanVersion": { "@nilReason": "http://inspire.ec.europa.eu/codelist/VoidReasonValue/Unpopulated", "@nil": "true" }, "inspireId": { "@dataType": "Identifier", "localId": "803685_372/23.C", "namespace": "SK.ESKN.CP", "versionId": "20260703T06:07:41" }, "label": "372/23", "nationalCadastralReference": "803685_372/23.C", "referencePoint": { "type": "Point", "coordinates": [ 18.13076681, 48.97938 ] }, "validFrom": "2026-06-30T16:00:00Z", "validTo": { "@nilReason": "http://inspire.ec.europa.eu/codelist/VoidReasonValue/Unpopulated", "@nil": "true" }, "administrativeUnit": { "@href": "#auAdmUnitS.2954" } }, "geometry": { "type": "Polygon", "coordinates": [ [ [ 18.13078041, 48.97940221 ], [ 18.13083767, 48.97934621 ], [ 18.13076426, 48.97931352 ], [ 18.13068059, 48.9793578 ], [ 18.13078041, 48.97940221 ] ] ] } },
{ "type": "Feature", "properties": { "@featureType": "CadastralParcel", "areaValue": { "value": 49, "@uom": "m2" }, "beginLifespanVersion": { "@nilReason": "http://inspire.ec.europa.eu/codelist/VoidReasonValue/Unpopulated", "@nil": "true" }, "endLifespanVersion": { "@nilReason": "http://inspire.ec.europa.eu/codelist/VoidReasonValue/Unpopulated", "@nil": "true" }, "inspireId": { "@dataType": "Identifier", "localId": "803685_372/24.C", "namespace": "SK.ESKN.CP", "versionId": "20260703T06:07:41" }, "label": "372/24", "nationalCadastralReference": "803685_372/24.C", "referencePoint": { "type": "Point", "coordinates": [ 18.13167566, 48.97925265 ] }, "validFrom": "2026-06-30T16:00:00Z", "validTo": { "@nilReason": "http://inspire.ec.europa.eu/codelist/VoidReasonValue/Unpopulated", "@nil": "true" }, "administrativeUnit": { "@href": "#auAdmUnitS.2954" } }, "geometry": { "type": "Polygon", "coordinates": [ [ [ 18.13174318, 48.97925529 ], [ 18.13172614, 48.97924428 ], [ 18.13168727, 48.97921902 ], [ 18.1316701, 48.97920791 ], [ 18.13160811, 48.97925001 ], [ 18.13168151, 48.97929713 ], [ 18.13168634, 48.9792938 ], [ 18.13172464, 48.97926785 ], [ 18.13174318, 48.97925529 ] ] ] } },
{ "type": "Feature", "properties": { "@featureType": "CadastralParcel", "areaValue": { "value": 605, "@uom": "m2" }, "beginLifespanVersion": { "@nilReason": "http://inspire.ec.europa.eu/codelist/VoidReasonValue/Unpopulated", "@nil": "true" }, "endLifespanVersion": { "@nilReason": "http://inspire.ec.europa.eu/codelist/VoidReasonValue/Unpopulated", "@nil": "true" }, "inspireId": { "@dataType": "Identifier", "localId": "803685_53/2.C", "namespace": "SK.ESKN.CP", "versionId": "20260703T06:07:41" }, "label": "53/2", "nationalCadastralReference": "803685_53/2.C", "referencePoint": { "type": "Point", "coordinates": [ 18.13234906, 48.97449003 ] }, "validFrom": "2026-06-30T16:00:00Z", "validTo": { "@nilReason": "http://inspire.ec.europa.eu/codelist/VoidReasonValue/Unpopulated", "@nil": "true" }, "administrativeUnit": { "@href": "#auAdmUnitS.2954" } }, "geometry": { "type": "Polygon", "coordinates": [ [ [ 18.13258683, 48.97445817 ], [ 18.13260199, 48.97446888 ], [ 18.13263027, 48.9744512 ], [ 18.13247953, 48.97431059 ], [ 18.13212474, 48.97451117 ], [ 18.1323031, 48.97463595 ], [ 18.13258683, 48.97445817 ] ] ] } },
{ "type": "Feature", "properties": { "@featureType": "CadastralParcel", "areaValue": { "value": 11, "@uom": "m2" }, "beginLifespanVersion": { "@nilReason": "http://inspire.ec.europa.eu/codelist/VoidReasonValue/Unpopulated", "@nil": "true" }, "endLifespanVersion": { "@nilReason": "http://inspire.ec.europa.eu/codelist/VoidReasonValue/Unpopulated", "@nil": "true" }, "inspireId": { "@dataType": "Identifier", "localId": "803685_374/50.C", "namespace": "SK.ESKN.CP", "versionId": "20260703T06:07:41" }, "label": "374/50", "nationalCadastralReference": "803685_374/50.C", "referencePoint": { "type": "Point", "coordinates": [ 18.13218372, 48.97696957 ] }, "validFrom": "2026-06-30T16:00:00Z", "validTo": { "@nilReason": "http://inspire.ec.europa.eu/codelist/VoidReasonValue/Unpopulated", "@nil": "true" }, "administrativeUnit": { "@href": "#auAdmUnitS.2954" } }, "geometry": { "type": "Polygon", "coordinates": [ [ [ 18.1321819, 48.97694866 ], [ 18.13215204, 48.97696797 ], [ 18.13218566, 48.9769904 ], [ 18.13221538, 48.97697118 ], [ 18.1321819, 48.97694866 ] ] ] } },
{ "type": "Feature", "properties": { "@featureType": "CadastralParcel", "areaValue": { "value": 39, "@uom": "m2" }, "beginLifespanVersion": { "@nilReason": "http://inspire.ec.europa.eu/codelist/VoidReasonValue/Unpopulated", "@nil": "true" }, "endLifespanVersion": { "@nilReason": "http://inspire.ec.europa.eu/codelist/VoidReasonValue/Unpopulated", "@nil": "true" }, "inspireId": { "@dataType": "Identifier", "localId": "803685_374/37.C", "namespace": "SK.ESKN.CP", "versionId": "20260703T06:07:41" }, "label": "374/37", "nationalCadastralReference": "803685_374/37.C", "referencePoint": { "type": "Point", "coordinates": [ 18.13226294, 48.97702271 ] }, "validFrom": "2026-06-30T16:00:00Z", "validTo": { "@nilReason": "http://inspire.ec.europa.eu/codelist/VoidReasonValue/Unpopulated", "@nil": "true" }, "administrativeUnit": { "@href": "#auAdmUnitS.2954" } }, "geometry": { "type": "Polygon", "coordinates": [ [ [ 18.13233969, 48.97705501 ], [ 18.13221538, 48.97697118 ], [ 18.13218566, 48.9769904 ], [ 18.13231059, 48.97707373 ], [ 18.13233969, 48.97705501 ] ] ] } },
{ "type": "Feature", "properties": { "@featureType": "CadastralParcel", "areaValue": { "value": 48, "@uom": "m2" }, "beginLifespanVersion": { "@nilReason": "http://inspire.ec.europa.eu/codelist/VoidReasonValue/Unpopulated", "@nil": "true" }, "endLifespanVersion": { "@nilReason": "http://inspire.ec.europa.eu/codelist/VoidReasonValue/Unpopulated", "@nil": "true" }, "inspireId": { "@dataType": "Identifier", "localId": "803685_35/4.C", "namespace": "SK.ESKN.CP", "versionId": "20260703T06:07:41" }, "label": "35/4", "nationalCadastralReference": "803685_35/4.C", "referencePoint": { "type": "Point", "coordinates": [ 18.13152622, 48.97645287 ] }, "validFrom": "2026-06-30T16:00:00Z", "validTo": { "@nilReason": "http://inspire.ec.europa.eu/codelist/VoidReasonValue/Unpopulated", "@nil": "true" }, "administrativeUnit": { "@href": "#auAdmUnitS.2954" } }, "geometry": { "type": "Polygon", "coordinates": [ [ [ 18.1316207, 48.97652938 ], [ 18.13164046, 48.97651698 ], [ 18.13158736, 48.97648123 ], [ 18.13157592, 48.97647344 ], [ 18.13140228, 48.97635643 ], [ 18.13140151, 48.97638274 ], [ 18.13147649, 48.97643231 ], [ 18.1316207, 48.97652938 ] ] ] } },
{ "type": "Feature", "properties": { "@featureType": "CadastralParcel", "areaValue": { "value": 639, "@uom": "m2" }, "beginLifespanVersion": { "@nilReason": "http://inspire.ec.europa.eu/codelist/VoidReasonValue/Unpopulated", "@nil": "true" }, "endLifespanVersion": { "@nilReason": "http://inspire.ec.europa.eu/codelist/VoidReasonValue/Unpopulated", "@nil": "true" }, "inspireId": { "@dataType": "Identifier", "localId": "803685_322/3.C", "namespace": "SK.ESKN.CP", "versionId": "20260703T06:07:41" }, "label": "322/3", "nationalCadastralReference": "803685_322/3.C", "referencePoint": { "type": "Point", "coordinates": [ 18.13530679, 48.97861885 ] }, "validFrom": "2026-06-30T16:00:00Z", "validTo": { "@nilReason": "http://inspire.ec.europa.eu/codelist/VoidReasonValue/Unpopulated", "@nil": "true" }, "administrativeUnit": { "@href": "#auAdmUnitS.2954" } }, "geometry": { "type": "Polygon", "coordinates": [ [ [ 18.13560958, 48.9789278 ], [ 18.13564071, 48.9789556 ], [ 18.1357592, 48.97884761 ], [ 18.13581273, 48.97884421 ], [ 18.1361113, 48.97898613 ], [ 18.13616288, 48.97895516 ], [ 18.13597368, 48.97886524 ], [ 18.13575908, 48.9787632 ], [ 18.13564604, 48.97886626 ], [ 18.13561214, 48.97886846 ], [ 18.13541201, 48.97868465 ], [ 18.13526882, 48.97855306 ], [ 18.13525281, 48.97853841 ], [ 18.13512549, 48.97842155 ], [ 18.13500563, 48.97831144 ], [ 18.13501258, 48.97829433 ], [ 18.13504325, 48.97827615 ], [ 18.13500318, 48.97823935 ], [ 18.13491619, 48.97829102 ], [ 18.13560958, 48.9789278 ] ] ] } },
{ "type": "Feature", "properties": { "@featureType": "CadastralParcel", "areaValue": { "value": 336, "@uom": "m2" }, "beginLifespanVersion": { "@nilReason": "http://inspire.ec.europa.eu/codelist/VoidReasonValue/Unpopulated", "@nil": "true" }, "endLifespanVersion": { "@nilReason": "http://inspire.ec.europa.eu/codelist/VoidReasonValue/Unpopulated", "@nil": "true" }, "inspireId": { "@dataType": "Identifier", "localId": "803685_272/2.C", "namespace": "SK.ESKN.CP", "versionId": "20260703T06:07:41" }, "label": "272/2", "nationalCadastralReference": "803685_272/2.C", "referencePoint": { "type": "Point", "coordinates": [ 18.1339147, 48.98079675 ] }, "validFrom": "2026-06-30T16:00:00Z", "validTo": { "@nilReason": "http://inspire.ec.europa.eu/codelist/VoidReasonValue/Unpopulated", "@nil": "true" }, "administrativeUnit": { "@href": "#auAdmUnitS.2954" } }, "geometry": { "type": "Polygon", "coordinates": [ [ [ 18.13403084, 48.98074914 ], [ 18.13388368, 48.98065144 ], [ 18.13367195, 48.98079204 ], [ 18.13360439, 48.98083689 ], [ 18.1337497, 48.98093303 ], [ 18.13403084, 48.98074914 ] ], [ [ 18.13375254, 48.98088499 ], [ 18.13367017, 48.98083112 ], [ 18.13378195, 48.98075706 ], [ 18.13382319, 48.98078408 ], [ 18.13383764, 48.98077454 ], [ 18.13387848, 48.98080145 ], [ 18.13375254, 48.98088499 ] ] ] } },
{ "type": "Feature", "properties": { "@featureType": "CadastralParcel", "areaValue": { "value": 71, "@uom": "m2" }, "beginLifespanVersion": { "@nilReason": "http://inspire.ec.europa.eu/codelist/VoidReasonValue/Unpopulated", "@nil": "true" }, "endLifespanVersion": { "@nilReason": "http://inspire.ec.europa.eu/codelist/VoidReasonValue/Unpopulated", "@nil": "true" }, "inspireId": { "@dataType": "Identifier", "localId": "803685_372/169.C", "namespace": "SK.ESKN.CP", "versionId": "20260703T06:07:41" }, "label": "372/169", "nationalCadastralReference": "803685_372/169.C", "referencePoint": { "type": "Point", "coordinates": [ 18.13358515, 48.98024129 ] }, "validFrom": "2026-06-30T16:00:00Z", "validTo": { "@nilReason": "http://inspire.ec.europa.eu/codelist/VoidReasonValue/Unpopulated", "@nil": "true" }, "administrativeUnit": { "@href": "#auAdmUnitS.2954" } }, "geometry": { "type": "Polygon", "coordinates": [ [ [ 18.13364419, 48.98018379 ], [ 18.1336057, 48.9802091 ], [ 18.13350769, 48.98027349 ], [ 18.13343132, 48.98032369 ], [ 18.13341194, 48.98033638 ], [ 18.13344072, 48.98035502 ], [ 18.13367285, 48.98020233 ], [ 18.13364419, 48.98018379 ] ] ] } },
{ "type": "Feature", "properties": { "@featureType": "CadastralParcel", "areaValue": { "value": 479, "@uom": "m2" }, "beginLifespanVersion": { "@nilReason": "http://inspire.ec.europa.eu/codelist/VoidReasonValue/Unpopulated", "@nil": "true" }, "endLifespanVersion": { "@nilReason": "http://inspire.ec.europa.eu/codelist/VoidReasonValue/Unpopulated", "@nil": "true" }, "inspireId": { "@dataType": "Identifier", "localId": "803685_372/168.C", "namespace": "SK.ESKN.CP", "versionId": "20260703T06:07:41" }, "label": "372/168", "nationalCadastralReference": "803685_372/168.C", "referencePoint": { "type": "Point", "coordinates": [ 18.1330631, 48.97983282 ] }, "validFrom": "2026-06-30T16:00:00Z", "validTo": { "@nilReason": "http://inspire.ec.europa.eu/codelist/VoidReasonValue/Unpopulated", "@nil": "true" }, "administrativeUnit": { "@href": "#auAdmUnitS.2954" } }, "geometry": { "type": "Polygon", "coordinates": [ [ [ 18.13287598, 48.97973676 ], [ 18.13317279, 48.97992887 ], [ 18.13323126, 48.97996665 ], [ 18.13324097, 48.97997298 ], [ 18.1336057, 48.9802091 ], [ 18.13364419, 48.98018379 ], [ 18.13248407, 48.97943308 ], [ 18.13242494, 48.9794702 ], [ 18.13245602, 48.97949014 ], [ 18.13247527, 48.97947744 ], [ 18.1326303, 48.97957776 ], [ 18.13287598, 48.97973676 ] ] ] } },
{ "type": "Feature", "properties": { "@featureType": "CadastralParcel", "areaValue": { "value": 982, "@uom": "m2" }, "beginLifespanVersion": { "@nilReason": "http://inspire.ec.europa.eu/codelist/VoidReasonValue/Unpopulated", "@nil": "true" }, "endLifespanVersion": { "@nilReason": "http://inspire.ec.europa.eu/codelist/VoidReasonValue/Unpopulated", "@nil": "true" }, "inspireId": { "@dataType": "Identifier", "localId": "803685_35/2.C", "namespace": "SK.ESKN.CP", "versionId": "20260703T06:07:41" }, "label": "35/2", "nationalCadastralReference": "803685_35/2.C", "referencePoint": { "type": "Point", "coordinates": [ 18.13205984, 48.97588123 ] }, "validFrom": "2026-06-30T16:00:00Z", "validTo": { "@nilReason": "http://inspire.ec.europa.eu/codelist/VoidReasonValue/Unpopulated", "@nil": "true" }, "administrativeUnit": { "@href": "#auAdmUnitS.2954" } }, "geometry": { "type": "Polygon", "coordinates": [ [ [ 18.13163406, 48.97610649 ], [ 18.131341, 48.97628942 ], [ 18.13130211, 48.97628898 ], [ 18.13126131, 48.97628851 ], [ 18.13132804, 48.97633417 ], [ 18.13140151, 48.97638274 ], [ 18.13140228, 48.97635643 ], [ 18.13140303, 48.97633128 ], [ 18.13169636, 48.97614837 ], [ 18.13176203, 48.97610739 ], [ 18.13187063, 48.97603965 ], [ 18.13195904, 48.97598454 ], [ 18.13196861, 48.9759786 ], [ 18.13206928, 48.97591581 ], [ 18.13218042, 48.97584649 ], [ 18.13225386, 48.97580072 ], [ 18.13227362, 48.97578832 ], [ 18.13246418, 48.97566953 ], [ 18.13249343, 48.97566616 ], [ 18.13252238, 48.97567018 ], [ 18.13258426, 48.97571204 ], [ 18.1326142, 48.97569327 ], [ 18.13263395, 48.97568087 ], [ 18.13252663, 48.9756085 ], [ 18.1325075, 48.97559566 ], [ 18.13244283, 48.97555202 ], [ 18.1324198, 48.97553651 ], [ 18.13226528, 48.97543243 ], [ 18.13222715, 48.97540675 ], [ 18.13217751, 48.97543756 ], [ 18.13240272, 48.97558951 ], [ 18.13240813, 48.9756086 ], [ 18.13240163, 48.97562745 ], [ 18.13236708, 48.97564902 ], [ 18.13219728, 48.97575502 ], [ 18.13209557, 48.97581847 ], [ 18.13209153, 48.97582095 ], [ 18.13205039, 48.97584665 ], [ 18.13189676, 48.97594248 ], [ 18.13188944, 48.97594703 ], [ 18.13184754, 48.97597322 ], [ 18.13172577, 48.97604923 ], [ 18.13166144, 48.97608939 ], [ 18.13163406, 48.97610649 ] ] ] } },
{ "type": "Feature", "properties": { "@featureType": "CadastralParcel", "areaValue": { "value": 607, "@uom": "m2" }, "beginLifespanVersion": { "@nilReason": "http://inspire.ec.europa.eu/codelist/VoidReasonValue/Unpopulated", "@nil": "true" }, "endLifespanVersion": { "@nilReason": "http://inspire.ec.europa.eu/codelist/VoidReasonValue/Unpopulated", "@nil": "true" }, "inspireId": { "@dataType": "Identifier", "localId": "803685_372/4.C", "namespace": "SK.ESKN.CP", "versionId": "20260703T06:07:41" }, "label": "372/4", "nationalCadastralReference": "803685_372/4.C", "referencePoint": { "type": "Point", "coordinates": [ 18.13248828, 48.9803159 ] }, "validFrom": "2026-06-30T16:00:00Z", "validTo": { "@nilReason": "http://inspire.ec.europa.eu/codelist/VoidReasonValue/Unpopulated", "@nil": "true" }, "administrativeUnit": { "@href": "#auAdmUnitS.2954" } }, "geometry": { "type": "Polygon", "coordinates": [ [ [ 18.13292104, 48.9801197 ], [ 18.13287879, 48.98011256 ], [ 18.13282874, 48.98010732 ], [ 18.1327803, 48.98010651 ], [ 18.13277458, 48.98019257 ], [ 18.1327567, 48.9802197 ], [ 18.13268383, 48.98026731 ], [ 18.132674, 48.98026078 ], [ 18.13257305, 48.98032662 ], [ 18.13249514, 48.98027428 ], [ 18.13240085, 48.98032615 ], [ 18.13236825, 48.98035875 ], [ 18.13234097, 48.98038534 ], [ 18.13230432, 48.98036914 ], [ 18.13233135, 48.98034235 ], [ 18.13236418, 48.98031013 ], [ 18.13239061, 48.98032168 ], [ 18.13248712, 48.98026858 ], [ 18.13245614, 48.98024683 ], [ 18.13249598, 48.9802207 ], [ 18.1326026, 48.98015139 ], [ 18.13260687, 48.98015435 ], [ 18.13262445, 48.98014282 ], [ 18.13270008, 48.98019278 ], [ 18.13270819, 48.98018747 ], [ 18.13271147, 48.98018964 ], [ 18.13273452, 48.98017418 ], [ 18.13273878, 48.98010934 ], [ 18.13257602, 48.98012034 ], [ 18.13252972, 48.98012299 ], [ 18.13249515, 48.98012306 ], [ 18.13249229, 48.9801712 ], [ 18.1322018, 48.98045394 ], [ 18.13233301, 48.98051497 ], [ 18.13292104, 48.9801197 ] ] ] } },
{ "type": "Feature", "properties": { "@featureType": "CadastralParcel", "areaValue": { "value": 685, "@uom": "m2" }, "beginLifespanVersion": { "@nilReason": "http://inspire.ec.europa.eu/codelist/VoidReasonValue/Unpopulated", "@nil": "true" }, "endLifespanVersion": { "@nilReason": "http://inspire.ec.europa.eu/codelist/VoidReasonValue/Unpopulated", "@nil": "true" }, "inspireId": { "@dataType": "Identifier", "localId": "803685_372/126.C", "namespace": "SK.ESKN.CP", "versionId": "20260703T06:07:41" }, "label": "372/126", "nationalCadastralReference": "803685_372/126.C", "referencePoint": { "type": "Point", "coordinates": [ 18.13390882, 48.9787717 ] }, "validFrom": "2026-06-30T16:00:00Z", "validTo": { "@nilReason": "http://inspire.ec.europa.eu/codelist/VoidReasonValue/Unpopulated", "@nil": "true" }, "administrativeUnit": { "@href": "#auAdmUnitS.2954" } }, "geometry": { "type": "Polygon", "coordinates": [ [ [ 18.13485532, 48.97939229 ], [ 18.13488914, 48.97937005 ], [ 18.13463923, 48.97921189 ], [ 18.13439209, 48.9790556 ], [ 18.13414849, 48.97890151 ], [ 18.13413369, 48.97889217 ], [ 18.13397889, 48.97879421 ], [ 18.13390768, 48.9787492 ], [ 18.13343504, 48.97845024 ], [ 18.13332033, 48.97837771 ], [ 18.13318525, 48.97829227 ], [ 18.13296076, 48.97815029 ], [ 18.13295959, 48.97815085 ], [ 18.13292253, 48.97816957 ], [ 18.13485532, 48.97939229 ] ] ] } },
{ "type": "Feature", "properties": { "@featureType": "CadastralParcel", "areaValue": { "value": 62, "@uom": "m2" }, "beginLifespanVersion": { "@nilReason": "http://inspire.ec.europa.eu/codelist/VoidReasonValue/Unpopulated", "@nil": "true" }, "endLifespanVersion": { "@nilReason": "http://inspire.ec.europa.eu/codelist/VoidReasonValue/Unpopulated", "@nil": "true" }, "inspireId": { "@dataType": "Identifier", "localId": "803685_372/125.C", "namespace": "SK.ESKN.CP", "versionId": "20260703T06:07:41" }, "label": "372/125", "nationalCadastralReference": "803685_372/125.C", "referencePoint": { "type": "Point", "coordinates": [ 18.13500386, 48.97931046 ] }, "validFrom": "2026-06-30T16:00:00Z", "validTo": { "@nilReason": "http://inspire.ec.europa.eu/codelist/VoidReasonValue/Unpopulated", "@nil": "true" }, "administrativeUnit": { "@href": "#auAdmUnitS.2954" } }, "geometry": { "type": "Polygon", "coordinates": [ [ [ 18.13511857, 48.97925087 ], [ 18.13509421, 48.97923511 ], [ 18.13488914, 48.97937005 ], [ 18.13485532, 48.97939229 ], [ 18.13487998, 48.97940788 ], [ 18.13511857, 48.97925087 ] ] ] } },
{ "type": "Feature", "properties": { "@featureType": "CadastralParcel", "areaValue": { "value": 889, "@uom": "m2" }, "beginLifespanVersion": { "@nilReason": "http://inspire.ec.europa.eu/codelist/VoidReasonValue/Unpopulated", "@nil": "true" }, "endLifespanVersion": { "@nilReason": "http://inspire.ec.europa.eu/codelist/VoidReasonValue/Unpopulated", "@nil": "true" }, "inspireId": { "@dataType": "Identifier", "localId": "803685_372/68.C", "namespace": "SK.ESKN.CP", "versionId": "20260703T06:07:41" }, "label": "372/68", "nationalCadastralReference": "803685_372/68.C", "referencePoint": { "type": "Point", "coordinates": [ 18.13289176, 48.98044147 ] }, "validFrom": "2026-06-30T16:00:00Z", "validTo": { "@nilReason": "http://inspire.ec.europa.eu/codelist/VoidReasonValue/Unpopulated", "@nil": "true" }, "administrativeUnit": { "@href": "#auAdmUnitS.2954" } }, "geometry": { "type": "Polygon", "coordinates": [ [ [ 18.13331192, 48.98033042 ], [ 18.13329727, 48.980321 ], [ 18.13305898, 48.98048083 ], [ 18.13293713, 48.98040211 ], [ 18.13311291, 48.98028425 ], [ 18.13320546, 48.98034404 ], [ 18.13326812, 48.98030207 ], [ 18.13312824, 48.98021148 ], [ 18.13253549, 48.98060918 ], [ 18.13256312, 48.98062206 ], [ 18.13275094, 48.98070695 ], [ 18.13331192, 48.98033042 ] ] ] } },
{ "type": "Feature", "properties": { "@featureType": "CadastralParcel", "areaValue": { "value": 1112, "@uom": "m2" }, "beginLifespanVersion": { "@nilReason": "http://inspire.ec.europa.eu/codelist/VoidReasonValue/Unpopulated", "@nil": "true" }, "endLifespanVersion": { "@nilReason": "http://inspire.ec.europa.eu/codelist/VoidReasonValue/Unpopulated", "@nil": "true" }, "inspireId": { "@dataType": "Identifier", "localId": "803685_374/23.C", "namespace": "SK.ESKN.CP", "versionId": "20260703T06:07:41" }, "label": "374/23", "nationalCadastralReference": "803685_374/23.C", "referencePoint": { "type": "Point", "coordinates": [ 18.13162498, 48.9765528 ] }, "validFrom": "2026-06-30T16:00:00Z", "validTo": { "@nilReason": "http://inspire.ec.europa.eu/codelist/VoidReasonValue/Unpopulated", "@nil": "true" }, "administrativeUnit": { "@href": "#auAdmUnitS.2954" } }, "geometry": { "type": "Polygon", "coordinates": [ [ [ 18.1305148, 48.97582539 ], [ 18.13082824, 48.97603652 ], [ 18.13128297, 48.97634303 ], [ 18.13146353, 48.97646469 ], [ 18.13153035, 48.97650972 ], [ 18.13173445, 48.97664718 ], [ 18.1317727, 48.97667295 ], [ 18.13202412, 48.97684231 ], [ 18.13214529, 48.97692397 ], [ 18.1321819, 48.97694866 ], [ 18.13221538, 48.97697118 ], [ 18.13233969, 48.97705501 ], [ 18.13265364, 48.97726653 ], [ 18.13297692, 48.97748427 ], [ 18.13313973, 48.97759407 ], [ 18.13318085, 48.97757063 ], [ 18.13312147, 48.97753054 ], [ 18.1329355, 48.97740514 ], [ 18.13288568, 48.97737148 ], [ 18.13273292, 48.97726849 ], [ 18.13266633, 48.97722492 ], [ 18.13265497, 48.97721749 ], [ 18.13258749, 48.97717333 ], [ 18.13255861, 48.97715442 ], [ 18.1324287, 48.97706936 ], [ 18.13231284, 48.97699207 ], [ 18.13226423, 48.97695965 ], [ 18.13223538, 48.97694047 ], [ 18.13216525, 48.97689362 ], [ 18.13216399, 48.97689274 ], [ 18.1321534, 48.9768858 ], [ 18.13201968, 48.97679637 ], [ 18.13201012, 48.97678995 ], [ 18.13189931, 48.97671593 ], [ 18.13188974, 48.97670951 ], [ 18.13188596, 48.97670703 ], [ 18.13183536, 48.97667305 ], [ 18.13177681, 48.97663392 ], [ 18.13176422, 48.97662552 ], [ 18.13169057, 48.97657621 ], [ 18.1316207, 48.97652938 ], [ 18.13147649, 48.97643231 ], [ 18.13140151, 48.97638274 ], [ 18.13132804, 48.97633417 ], [ 18.13126131, 48.97628851 ], [ 18.13118917, 48.9762392 ], [ 18.13104404, 48.97614081 ], [ 18.13101752, 48.97612266 ], [ 18.13090974, 48.97604854 ], [ 18.13084319, 48.97600263 ], [ 18.13078756, 48.9759642 ], [ 18.13077777, 48.97595741 ], [ 18.1307304, 48.97592497 ], [ 18.13051417, 48.97577669 ], [ 18.13048577, 48.97575726 ], [ 18.13023006, 48.97558215 ], [ 18.13018167, 48.97554911 ], [ 18.1301764, 48.97554546 ], [ 18.1301352, 48.97556953 ], [ 18.1301913, 48.97560744 ], [ 18.1305148, 48.97582539 ] ] ] } },
{ "type": "Feature", "properties": { "@featureType": "CadastralParcel", "areaValue": { "value": 517, "@uom": "m2" }, "beginLifespanVersion": { "@nilReason": "http://inspire.ec.europa.eu/codelist/VoidReasonValue/Unpopulated", "@nil": "true" }, "endLifespanVersion": { "@nilReason": "http://inspire.ec.europa.eu/codelist/VoidReasonValue/Unpopulated", "@nil": "true" }, "inspireId": { "@dataType": "Identifier", "localId": "803685_3/19.C", "namespace": "SK.ESKN.CP", "versionId": "20260703T06:07:41" }, "label": "3/19", "nationalCadastralReference": "803685_3/19.C", "referencePoint": { "type": "Point", "coordinates": [ 18.13327844, 48.97793928 ] }, "validFrom": "2026-06-30T16:00:00Z", "validTo": { "@nilReason": "http://inspire.ec.europa.eu/codelist/VoidReasonValue/Unpopulated", "@nil": "true" }, "administrativeUnit": { "@href": "#auAdmUnitS.2954" } }, "geometry": { "type": "Polygon", "coordinates": [ [ [ 18.1336151, 48.97777691 ], [ 18.13366984, 48.97774486 ], [ 18.13351566, 48.97776258 ], [ 18.13346014, 48.97775928 ], [ 18.13330741, 48.97765612 ], [ 18.13318085, 48.97757063 ], [ 18.13313973, 48.97759407 ], [ 18.13344892, 48.97780233 ], [ 18.13287195, 48.9781457 ], [ 18.13292253, 48.97816957 ], [ 18.13295959, 48.97815085 ], [ 18.13296076, 48.97815029 ], [ 18.13308516, 48.97808752 ], [ 18.13320864, 48.97801512 ], [ 18.13346751, 48.97786344 ], [ 18.13352374, 48.97783049 ], [ 18.1336151, 48.97777691 ] ] ] } },
{ "type": "Feature", "properties": { "@featureType": "CadastralParcel", "areaValue": { "value": 396, "@uom": "m2" }, "beginLifespanVersion": { "@nilReason": "http://inspire.ec.europa.eu/codelist/VoidReasonValue/Unpopulated", "@nil": "true" }, "endLifespanVersion": { "@nilReason": "http://inspire.ec.europa.eu/codelist/VoidReasonValue/Unpopulated", "@nil": "true" }, "inspireId": { "@dataType": "Identifier", "localId": "803685_3/15.C", "namespace": "SK.ESKN.CP", "versionId": "20260703T06:07:41" }, "label": "3/15", "nationalCadastralReference": "803685_3/15.C", "referencePoint": { "type": "Point", "coordinates": [ 18.1337646, 48.97802609 ] }, "validFrom": "2026-06-30T16:00:00Z", "validTo": { "@nilReason": "http://inspire.ec.europa.eu/codelist/VoidReasonValue/Unpopulated", "@nil": "true" }, "administrativeUnit": { "@href": "#auAdmUnitS.2954" } }, "geometry": { "type": "Polygon", "coordinates": [ [ [ 18.13352374, 48.97783049 ], [ 18.13346751, 48.97786344 ], [ 18.13426693, 48.97837753 ], [ 18.13434825, 48.97832924 ], [ 18.13427966, 48.9782852 ], [ 18.13423463, 48.97829993 ], [ 18.13406171, 48.97818874 ], [ 18.13352337, 48.97784256 ], [ 18.13352374, 48.97783049 ] ] ] } },
{ "type": "Feature", "properties": { "@featureType": "CadastralParcel", "areaValue": { "value": 644, "@uom": "m2" }, "beginLifespanVersion": { "@nilReason": "http://inspire.ec.europa.eu/codelist/VoidReasonValue/Unpopulated", "@nil": "true" }, "endLifespanVersion": { "@nilReason": "http://inspire.ec.europa.eu/codelist/VoidReasonValue/Unpopulated", "@nil": "true" }, "inspireId": { "@dataType": "Identifier", "localId": "803685_21/16.C", "namespace": "SK.ESKN.CP", "versionId": "20260703T06:07:41" }, "label": "21/16", "nationalCadastralReference": "803685_21/16.C", "referencePoint": { "type": "Point", "coordinates": [ 18.13285812, 48.97662556 ] }, "validFrom": "2026-06-30T16:00:00Z", "validTo": { "@nilReason": "http://inspire.ec.europa.eu/codelist/VoidReasonValue/Unpopulated", "@nil": "true" }, "administrativeUnit": { "@href": "#auAdmUnitS.2954" } }, "geometry": { "type": "Polygon", "coordinates": [ [ [ 18.13322102, 48.97643358 ], [ 18.13324111, 48.97643411 ], [ 18.13339028, 48.97653933 ], [ 18.13343507, 48.97651195 ], [ 18.13306925, 48.97625338 ], [ 18.13302399, 48.97628118 ], [ 18.13317418, 48.97638691 ], [ 18.13317362, 48.97640033 ], [ 18.13305515, 48.97647319 ], [ 18.13302512, 48.97649168 ], [ 18.1329543, 48.97653525 ], [ 18.13291456, 48.97655968 ], [ 18.1328466, 48.97660143 ], [ 18.13278953, 48.9766365 ], [ 18.13276473, 48.97665176 ], [ 18.13272468, 48.97667644 ], [ 18.1326969, 48.97669352 ], [ 18.13263983, 48.97672859 ], [ 18.13262011, 48.97674072 ], [ 18.13255214, 48.97678247 ], [ 18.13249506, 48.97681763 ], [ 18.13226423, 48.97695965 ], [ 18.13231284, 48.97699207 ], [ 18.13233764, 48.9769768 ], [ 18.1323735, 48.97695477 ], [ 18.13246463, 48.97689874 ], [ 18.13252453, 48.97686194 ], [ 18.13254232, 48.97685096 ], [ 18.13259715, 48.97681721 ], [ 18.1326191, 48.97680376 ], [ 18.13269604, 48.97675648 ], [ 18.13277194, 48.97670977 ], [ 18.13292671, 48.97661463 ], [ 18.13295166, 48.97659928 ], [ 18.13300156, 48.97656859 ], [ 18.13322102, 48.97643358 ] ] ] } },
{ "type": "Feature", "properties": { "@featureType": "CadastralParcel", "areaValue": { "value": 766, "@uom": "m2" }, "beginLifespanVersion": { "@nilReason": "http://inspire.ec.europa.eu/codelist/VoidReasonValue/Unpopulated", "@nil": "true" }, "endLifespanVersion": { "@nilReason": "http://inspire.ec.europa.eu/codelist/VoidReasonValue/Unpopulated", "@nil": "true" }, "inspireId": { "@dataType": "Identifier", "localId": "803685_372/60.C", "namespace": "SK.ESKN.CP", "versionId": "20260703T06:07:41" }, "label": "372/60", "nationalCadastralReference": "803685_372/60.C", "referencePoint": { "type": "Point", "coordinates": [ 18.13290179, 48.97937156 ] }, "validFrom": "2026-06-30T16:00:00Z", "validTo": { "@nilReason": "http://inspire.ec.europa.eu/codelist/VoidReasonValue/Unpopulated", "@nil": "true" }, "administrativeUnit": { "@href": "#auAdmUnitS.2954" } }, "geometry": { "type": "Polygon", "coordinates": [ [ [ 18.13273609, 48.97928958 ], [ 18.13332915, 48.97967385 ], [ 18.13390695, 48.98004822 ], [ 18.13394574, 48.98002265 ], [ 18.13391645, 48.98000372 ], [ 18.13389701, 48.97999113 ], [ 18.13385814, 48.97996586 ], [ 18.13365426, 48.97983374 ], [ 18.13336152, 48.97964404 ], [ 18.13318756, 48.97953134 ], [ 18.13306751, 48.97945354 ], [ 18.13277236, 48.97926233 ], [ 18.13275785, 48.97925292 ], [ 18.13261469, 48.97916024 ], [ 18.13247608, 48.97907044 ], [ 18.13238974, 48.97901444 ], [ 18.13237875, 48.97900739 ], [ 18.13231059, 48.97896319 ], [ 18.13221389, 48.97890055 ], [ 18.13221471, 48.97888823 ], [ 18.13225646, 48.97886618 ], [ 18.13220762, 48.97883446 ], [ 18.13211198, 48.97888518 ], [ 18.13273609, 48.97928958 ] ] ] } },
{ "type": "Feature", "properties": { "@featureType": "CadastralParcel", "areaValue": { "value": 380, "@uom": "m2" }, "beginLifespanVersion": { "@nilReason": "http://inspire.ec.europa.eu/codelist/VoidReasonValue/Unpopulated", "@nil": "true" }, "endLifespanVersion": { "@nilReason": "http://inspire.ec.europa.eu/codelist/VoidReasonValue/Unpopulated", "@nil": "true" }, "inspireId": { "@dataType": "Identifier", "localId": "803685_372/94.C", "namespace": "SK.ESKN.CP", "versionId": "20260703T06:07:41" }, "label": "372/94", "nationalCadastralReference": "803685_372/94.C", "referencePoint": { "type": "Point", "coordinates": [ 18.13528652, 48.97865831 ] }, "validFrom": "2026-06-30T16:00:00Z", "validTo": { "@nilReason": "http://inspire.ec.europa.eu/codelist/VoidReasonValue/Unpopulated", "@nil": "true" }, "administrativeUnit": { "@href": "#auAdmUnitS.2954" } }, "geometry": { "type": "Polygon", "coordinates": [ [ [ 18.13560958, 48.9789278 ], [ 18.13491619, 48.97829102 ], [ 18.13482921, 48.97834268 ], [ 18.13486929, 48.97837948 ], [ 18.13489996, 48.97836131 ], [ 18.13493638, 48.97836386 ], [ 18.13510253, 48.97851655 ], [ 18.13517071, 48.97857917 ], [ 18.13518672, 48.97859381 ], [ 18.13520272, 48.97860855 ], [ 18.1353111, 48.97870807 ], [ 18.13538429, 48.97877531 ], [ 18.13539724, 48.97878716 ], [ 18.13546541, 48.97884987 ], [ 18.13549669, 48.97887858 ], [ 18.13554275, 48.97892087 ], [ 18.13553933, 48.97894857 ], [ 18.13547725, 48.97898939 ], [ 18.13542313, 48.979025 ], [ 18.1353493, 48.97907363 ], [ 18.13536888, 48.97908623 ], [ 18.13560958, 48.9789278 ] ] ] } },
{ "type": "Feature", "properties": { "@featureType": "CadastralParcel", "areaValue": { "value": 490, "@uom": "m2" }, "beginLifespanVersion": { "@nilReason": "http://inspire.ec.europa.eu/codelist/VoidReasonValue/Unpopulated", "@nil": "true" }, "endLifespanVersion": { "@nilReason": "http://inspire.ec.europa.eu/codelist/VoidReasonValue/Unpopulated", "@nil": "true" }, "inspireId": { "@dataType": "Identifier", "localId": "803685_30/1.C", "namespace": "SK.ESKN.CP", "versionId": "20260703T06:07:41" }, "label": "30/1", "nationalCadastralReference": "803685_30/1.C", "referencePoint": { "type": "Point", "coordinates": [ 18.13225487, 48.97644734 ] }, "validFrom": "2026-06-30T16:00:00Z", "validTo": { "@nilReason": "http://inspire.ec.europa.eu/codelist/VoidReasonValue/Unpopulated", "@nil": "true" }, "administrativeUnit": { "@href": "#auAdmUnitS.2954" } }, "geometry": { "type": "Polygon", "coordinates": [ [ [ 18.13274314, 48.97617928 ], [ 18.13268981, 48.97614216 ], [ 18.13266917, 48.97615496 ], [ 18.13252517, 48.97624449 ], [ 18.13240598, 48.97631858 ], [ 18.13226621, 48.97640511 ], [ 18.13212987, 48.97648958 ], [ 18.13212, 48.97649569 ], [ 18.13183536, 48.97667305 ], [ 18.13188596, 48.97670703 ], [ 18.13188974, 48.97670951 ], [ 18.13259959, 48.97626848 ], [ 18.13274314, 48.97617928 ] ] ] } },
{ "type": "Feature", "properties": { "@featureType": "CadastralParcel", "areaValue": { "value": 285, "@uom": "m2" }, "beginLifespanVersion": { "@nilReason": "http://inspire.ec.europa.eu/codelist/VoidReasonValue/Unpopulated", "@nil": "true" }, "endLifespanVersion": { "@nilReason": "http://inspire.ec.europa.eu/codelist/VoidReasonValue/Unpopulated", "@nil": "true" }, "inspireId": { "@dataType": "Identifier", "localId": "803685_21/7.C", "namespace": "SK.ESKN.CP", "versionId": "20260703T06:07:41" }, "label": "21/7", "nationalCadastralReference": "803685_21/7.C", "referencePoint": { "type": "Point", "coordinates": [ 18.1326357, 48.97699992 ] }, "validFrom": "2026-06-30T16:00:00Z", "validTo": { "@nilReason": "http://inspire.ec.europa.eu/codelist/VoidReasonValue/Unpopulated", "@nil": "true" }, "administrativeUnit": { "@href": "#auAdmUnitS.2954" } }, "geometry": { "type": "Polygon", "coordinates": [ [ [ 18.13278085, 48.97701921 ], [ 18.13254232, 48.97685096 ], [ 18.13252453, 48.97686194 ], [ 18.13258359, 48.97690138 ], [ 18.13252937, 48.9769367 ], [ 18.1325661, 48.97696365 ], [ 18.13258908, 48.9769805 ], [ 18.132538, 48.97701384 ], [ 18.13258928, 48.97704786 ], [ 18.13250923, 48.97710002 ], [ 18.13237684, 48.97701193 ], [ 18.13238375, 48.97700745 ], [ 18.13233764, 48.9769768 ], [ 18.13231284, 48.97699207 ], [ 18.1324287, 48.97706936 ], [ 18.13255861, 48.97715442 ], [ 18.13278085, 48.97701921 ] ], [ [ 18.13266906, 48.97707486 ], [ 18.132632, 48.97704843 ], [ 18.1327245, 48.97699239 ], [ 18.13276157, 48.97701882 ], [ 18.13266906, 48.97707486 ] ] ] } },
{ "type": "Feature", "properties": { "@featureType": "CadastralParcel", "areaValue": { "value": 84, "@uom": "m2" }, "beginLifespanVersion": { "@nilReason": "http://inspire.ec.europa.eu/codelist/VoidReasonValue/Unpopulated", "@nil": "true" }, "endLifespanVersion": { "@nilReason": "http://inspire.ec.europa.eu/codelist/VoidReasonValue/Unpopulated", "@nil": "true" }, "inspireId": { "@dataType": "Identifier", "localId": "803685_374/36.C", "namespace": "SK.ESKN.CP", "versionId": "20260703T06:07:41" }, "label": "374/36", "nationalCadastralReference": "803685_374/36.C", "referencePoint": { "type": "Point", "coordinates": [ 18.13192369, 48.97679518 ] }, "validFrom": "2026-06-30T16:00:00Z", "validTo": { "@nilReason": "http://inspire.ec.europa.eu/codelist/VoidReasonValue/Unpopulated", "@nil": "true" }, "administrativeUnit": { "@href": "#auAdmUnitS.2954" } }, "geometry": { "type": "Polygon", "coordinates": [ [ [ 18.13202412, 48.97684231 ], [ 18.1317727, 48.97667295 ], [ 18.13174107, 48.97669315 ], [ 18.13175541, 48.97670283 ], [ 18.13182261, 48.97674806 ], [ 18.13197914, 48.97685253 ], [ 18.1319935, 48.97686212 ], [ 18.13202412, 48.97684231 ] ] ] } },
{ "type": "Feature", "properties": { "@featureType": "CadastralParcel", "areaValue": { "value": 13, "@uom": "m2" }, "beginLifespanVersion": { "@nilReason": "http://inspire.ec.europa.eu/codelist/VoidReasonValue/Unpopulated", "@nil": "true" }, "endLifespanVersion": { "@nilReason": "http://inspire.ec.europa.eu/codelist/VoidReasonValue/Unpopulated", "@nil": "true" }, "inspireId": { "@dataType": "Identifier", "localId": "803685_374/29.C", "namespace": "SK.ESKN.CP", "versionId": "20260703T06:07:41" }, "label": "374/29", "nationalCadastralReference": "803685_374/29.C", "referencePoint": { "type": "Point", "coordinates": [ 18.13173776, 48.97667017 ] }, "validFrom": "2026-06-30T16:00:00Z", "validTo": { "@nilReason": "http://inspire.ec.europa.eu/codelist/VoidReasonValue/Unpopulated", "@nil": "true" }, "administrativeUnit": { "@href": "#auAdmUnitS.2954" } }, "geometry": { "type": "Polygon", "coordinates": [ [ [ 18.1317727, 48.97667295 ], [ 18.13173445, 48.97664718 ], [ 18.13170282, 48.97666738 ], [ 18.13174107, 48.97669315 ], [ 18.1317727, 48.97667295 ] ] ] } },
{ "type": "Feature", "properties": { "@featureType": "CadastralParcel", "areaValue": { "value": 823, "@uom": "m2" }, "beginLifespanVersion": { "@nilReason": "http://inspire.ec.europa.eu/codelist/VoidReasonValue/Unpopulated", "@nil": "true" }, "endLifespanVersion": { "@nilReason": "http://inspire.ec.europa.eu/codelist/VoidReasonValue/Unpopulated", "@nil": "true" }, "inspireId": { "@dataType": "Identifier", "localId": "803685_372/69.C", "namespace": "SK.ESKN.CP", "versionId": "20260703T06:07:41" }, "label": "372/69", "nationalCadastralReference": "803685_372/69.C", "referencePoint": { "type": "Point", "coordinates": [ 18.13270315, 48.98033536 ] }, "validFrom": "2026-06-30T16:00:00Z", "validTo": { "@nilReason": "http://inspire.ec.europa.eu/codelist/VoidReasonValue/Unpopulated", "@nil": "true" }, "administrativeUnit": { "@href": "#auAdmUnitS.2954" } }, "geometry": { "type": "Polygon", "coordinates": [ [ [ 18.13253549, 48.98060918 ], [ 18.13312824, 48.98021148 ], [ 18.13311852, 48.98020514 ], [ 18.13295839, 48.98031261 ], [ 18.13293327, 48.98029635 ], [ 18.13284137, 48.98035811 ], [ 18.13274224, 48.98029416 ], [ 18.1329152, 48.98017786 ], [ 18.13300752, 48.98023736 ], [ 18.13308645, 48.98018442 ], [ 18.13295314, 48.98009808 ], [ 18.13292104, 48.9801197 ], [ 18.13233301, 48.98051497 ], [ 18.13253549, 48.98060918 ] ], [ [ 18.13243471, 48.98047228 ], [ 18.13247297, 48.98044659 ], [ 18.13251199, 48.98047178 ], [ 18.13247373, 48.98049746 ], [ 18.13243471, 48.98047228 ] ], [ [ 18.13260645, 48.98048338 ], [ 18.13271555, 48.98041096 ], [ 18.13277271, 48.98044821 ], [ 18.13266343, 48.98051989 ], [ 18.13260645, 48.98048338 ] ] ] } },
{ "type": "Feature", "properties": { "@featureType": "CadastralParcel", "areaValue": { "value": 92, "@uom": "m2" }, "beginLifespanVersion": { "@nilReason": "http://inspire.ec.europa.eu/codelist/VoidReasonValue/Unpopulated", "@nil": "true" }, "endLifespanVersion": { "@nilReason": "http://inspire.ec.europa.eu/codelist/VoidReasonValue/Unpopulated", "@nil": "true" }, "inspireId": { "@dataType": "Identifier", "localId": "803685_374/31.C", "namespace": "SK.ESKN.CP", "versionId": "20260703T06:07:41" }, "label": "374/31", "nationalCadastralReference": "803685_374/31.C", "referencePoint": { "type": "Point", "coordinates": [ 18.13251117, 48.97718846 ] }, "validFrom": "2026-06-30T16:00:00Z", "validTo": { "@nilReason": "http://inspire.ec.europa.eu/codelist/VoidReasonValue/Unpopulated", "@nil": "true" }, "administrativeUnit": { "@href": "#auAdmUnitS.2954" } }, "geometry": { "type": "Polygon", "coordinates": [ [ [ 18.13233969, 48.97705501 ], [ 18.13231059, 48.97707373 ], [ 18.13236549, 48.97711039 ], [ 18.13262856, 48.97728286 ], [ 18.13265364, 48.97726653 ], [ 18.13233969, 48.97705501 ] ] ] } },
{ "type": "Feature", "properties": { "@featureType": "CadastralParcel", "areaValue": { "value": 48, "@uom": "m2" }, "beginLifespanVersion": { "@nilReason": "http://inspire.ec.europa.eu/codelist/VoidReasonValue/Unpopulated", "@nil": "true" }, "endLifespanVersion": { "@nilReason": "http://inspire.ec.europa.eu/codelist/VoidReasonValue/Unpopulated", "@nil": "true" }, "inspireId": { "@dataType": "Identifier", "localId": "803685_374/60.C", "namespace": "SK.ESKN.CP", "versionId": "20260703T06:07:41" }, "label": "374/60", "nationalCadastralReference": "803685_374/60.C", "referencePoint": { "type": "Point", "coordinates": [ 18.13240764, 48.97714731 ] }, "validFrom": "2026-06-30T16:00:00Z", "validTo": { "@nilReason": "http://inspire.ec.europa.eu/codelist/VoidReasonValue/Unpopulated", "@nil": "true" }, "administrativeUnit": { "@href": "#auAdmUnitS.2954" } }, "geometry": { "type": "Polygon", "coordinates": [ [ [ 18.13245817, 48.97718978 ], [ 18.13255325, 48.97725215 ], [ 18.13257431, 48.977266 ], [ 18.13261416, 48.97729214 ], [ 18.13262856, 48.97728286 ], [ 18.13236549, 48.97711039 ], [ 18.13231059, 48.97707373 ], [ 18.13229588, 48.97708326 ], [ 18.13244972, 48.97718423 ], [ 18.13245817, 48.97718978 ] ] ] } },
{ "type": "Feature", "properties": { "@featureType": "CadastralParcel", "areaValue": { "value": 23, "@uom": "m2" }, "beginLifespanVersion": { "@nilReason": "http://inspire.ec.europa.eu/codelist/VoidReasonValue/Unpopulated", "@nil": "true" }, "endLifespanVersion": { "@nilReason": "http://inspire.ec.europa.eu/codelist/VoidReasonValue/Unpopulated", "@nil": "true" }, "inspireId": { "@dataType": "Identifier", "localId": "803685_374/64.C", "namespace": "SK.ESKN.CP", "versionId": "20260703T06:07:41" }, "label": "374/64", "nationalCadastralReference": "803685_374/64.C", "referencePoint": { "type": "Point", "coordinates": [ 18.13148112, 48.97649721 ] }, "validFrom": "2026-06-30T16:00:00Z", "validTo": { "@nilReason": "http://inspire.ec.europa.eu/codelist/VoidReasonValue/Unpopulated", "@nil": "true" }, "administrativeUnit": { "@href": "#auAdmUnitS.2954" } }, "geometry": { "type": "Polygon", "coordinates": [ [ [ 18.13143206, 48.97648471 ], [ 18.13146978, 48.97651037 ], [ 18.13147569, 48.97651441 ], [ 18.13149859, 48.97652982 ], [ 18.13153035, 48.97650972 ], [ 18.13146353, 48.97646469 ], [ 18.13143206, 48.97648471 ] ] ] } },
{ "type": "Feature", "properties": { "@featureType": "CadastralParcel", "areaValue": { "value": 62, "@uom": "m2" }, "beginLifespanVersion": { "@nilReason": "http://inspire.ec.europa.eu/codelist/VoidReasonValue/Unpopulated", "@nil": "true" }, "endLifespanVersion": { "@nilReason": "http://inspire.ec.europa.eu/codelist/VoidReasonValue/Unpopulated", "@nil": "true" }, "inspireId": { "@dataType": "Identifier", "localId": "803685_372/180.C", "namespace": "SK.ESKN.CP", "versionId": "20260703T06:07:41" }, "label": "372/180", "nationalCadastralReference": "803685_372/180.C", "referencePoint": { "type": "Point", "coordinates": [ 18.13403058, 48.97994775 ] }, "validFrom": "2026-06-30T16:00:00Z", "validTo": { "@nilReason": "http://inspire.ec.europa.eu/codelist/VoidReasonValue/Unpopulated", "@nil": "true" }, "administrativeUnit": { "@href": "#auAdmUnitS.2954" } }, "geometry": { "type": "Polygon", "coordinates": [ [ [ 18.13414465, 48.97989178 ], [ 18.13411534, 48.97987294 ], [ 18.13391645, 48.98000372 ], [ 18.13394574, 48.98002265 ], [ 18.13414465, 48.97989178 ] ] ] } },
{ "type": "Feature", "properties": { "@featureType": "CadastralParcel", "areaValue": { "value": 141, "@uom": "m2" }, "beginLifespanVersion": { "@nilReason": "http://inspire.ec.europa.eu/codelist/VoidReasonValue/Unpopulated", "@nil": "true" }, "endLifespanVersion": { "@nilReason": "http://inspire.ec.europa.eu/codelist/VoidReasonValue/Unpopulated", "@nil": "true" }, "inspireId": { "@dataType": "Identifier", "localId": "803685_374/65.C", "namespace": "SK.ESKN.CP", "versionId": "20260703T06:07:41" }, "label": "374/65", "nationalCadastralReference": "803685_374/65.C", "referencePoint": { "type": "Point", "coordinates": [ 18.13130681, 48.97663337 ] }, "validFrom": "2026-06-30T16:00:00Z", "validTo": { "@nilReason": "http://inspire.ec.europa.eu/codelist/VoidReasonValue/Unpopulated", "@nil": "true" }, "administrativeUnit": { "@href": "#auAdmUnitS.2954" } }, "geometry": { "type": "Polygon", "coordinates": [ [ [ 18.13147701, 48.97654355 ], [ 18.13149859, 48.97652982 ], [ 18.13147569, 48.97651441 ], [ 18.13146978, 48.97651037 ], [ 18.13101117, 48.97680334 ], [ 18.13103987, 48.9768226 ], [ 18.13117405, 48.97673692 ], [ 18.13124765, 48.97668999 ], [ 18.13126923, 48.97667625 ], [ 18.13140355, 48.97659049 ], [ 18.13147701, 48.97654355 ] ] ] } },
{ "type": "Feature", "properties": { "@featureType": "CadastralParcel", "areaValue": { "value": 4714, "@uom": "m2" }, "beginLifespanVersion": { "@nilReason": "http://inspire.ec.europa.eu/codelist/VoidReasonValue/Unpopulated", "@nil": "true" }, "endLifespanVersion": { "@nilReason": "http://inspire.ec.europa.eu/codelist/VoidReasonValue/Unpopulated", "@nil": "true" }, "inspireId": { "@dataType": "Identifier", "localId": "803685_266/1.C", "namespace": "SK.ESKN.CP", "versionId": "20260703T06:07:41" }, "label": "266/1", "nationalCadastralReference": "803685_266/1.C", "referencePoint": { "type": "Point", "coordinates": [ 18.13656677, 48.9798712 ] }, "validFrom": "2026-06-30T16:00:00Z", "validTo": { "@nilReason": "http://inspire.ec.europa.eu/codelist/VoidReasonValue/Unpopulated", "@nil": "true" }, "administrativeUnit": { "@href": "#auAdmUnitS.2954" } }, "geometry": { "type": "Polygon", "coordinates": [ [ [ 18.13815069, 48.97852717 ], [ 18.13813893, 48.9786071 ], [ 18.1381285, 48.9787049 ], [ 18.13812125, 48.97877372 ], [ 18.13811189, 48.97882852 ], [ 18.13810993, 48.97884014 ], [ 18.13810956, 48.97885727 ], [ 18.13800926, 48.97892144 ], [ 18.13795793, 48.97895666 ], [ 18.13791493, 48.97898605 ], [ 18.13781594, 48.97905273 ], [ 18.13777813, 48.97907916 ], [ 18.1376795, 48.97914514 ], [ 18.13764351, 48.97916925 ], [ 18.13754685, 48.97923381 ], [ 18.13750523, 48.97926002 ], [ 18.13740214, 48.97932349 ], [ 18.13734515, 48.97935802 ], [ 18.13726272, 48.97940842 ], [ 18.13711166, 48.97949628 ], [ 18.13710349, 48.97950105 ], [ 18.13710021, 48.97950302 ], [ 18.13706231, 48.97952494 ], [ 18.13695659, 48.97958654 ], [ 18.136886, 48.97962633 ], [ 18.1367954, 48.97968041 ], [ 18.13673407, 48.97971352 ], [ 18.13663044, 48.97977379 ], [ 18.13662628, 48.97977617 ], [ 18.13649352, 48.97984921 ], [ 18.13648802, 48.97985241 ], [ 18.13643756, 48.97988218 ], [ 18.13634893, 48.97993384 ], [ 18.13625175, 48.97998997 ], [ 18.13615199, 48.98004487 ], [ 18.13608963, 48.98008054 ], [ 18.13603929, 48.9801104 ], [ 18.13603468, 48.98011312 ], [ 18.13600818, 48.98012567 ], [ 18.13592391, 48.98017343 ], [ 18.13580209, 48.98024159 ], [ 18.13576663, 48.98026166 ], [ 18.13574884, 48.98027164 ], [ 18.1357355, 48.98027909 ], [ 18.13564911, 48.98032835 ], [ 18.13563272, 48.98033815 ], [ 18.13557743, 48.98037531 ], [ 18.13553168, 48.9804057 ], [ 18.1355226, 48.98041213 ], [ 18.13550419, 48.98042569 ], [ 18.1353725, 48.98052262 ], [ 18.1353195, 48.98056009 ], [ 18.13522494, 48.98062947 ], [ 18.13521274, 48.98063761 ], [ 18.13520053, 48.98064584 ], [ 18.13516274, 48.9806711 ], [ 18.13507422, 48.98073017 ], [ 18.13492737, 48.9808255 ], [ 18.13489816, 48.98084602 ], [ 18.13481774, 48.9808978 ], [ 18.13477503, 48.98092295 ], [ 18.1346964, 48.98096743 ], [ 18.13457433, 48.98103431 ], [ 18.1345187, 48.98106378 ], [ 18.13451781, 48.98106427 ], [ 18.1345094, 48.98106866 ], [ 18.13436495, 48.98114499 ], [ 18.13438096, 48.98115656 ], [ 18.13444544, 48.98120371 ], [ 18.13446045, 48.9812146 ], [ 18.13457077, 48.98115869 ], [ 18.13471991, 48.9810791 ], [ 18.13477563, 48.98104694 ], [ 18.13479226, 48.98103743 ], [ 18.13484019, 48.98100815 ], [ 18.13497323, 48.98093206 ], [ 18.13510865, 48.98084528 ], [ 18.13516322, 48.98080735 ], [ 18.13526126, 48.98074278 ], [ 18.13535655, 48.98067408 ], [ 18.13541188, 48.98063458 ], [ 18.13550387, 48.98056903 ], [ 18.13556822, 48.98052355 ], [ 18.13565073, 48.98046332 ], [ 18.13570844, 48.98042242 ], [ 18.13576056, 48.98039049 ], [ 18.13580083, 48.98036826 ], [ 18.13585665, 48.98033637 ], [ 18.13590737, 48.9803078 ], [ 18.1359659, 48.98027615 ], [ 18.13602064, 48.98024618 ], [ 18.13607014, 48.98021537 ], [ 18.13610824, 48.98019302 ], [ 18.13619607, 48.98014528 ], [ 18.13637402, 48.98004705 ], [ 18.13653493, 48.97995217 ], [ 18.13669668, 48.97986022 ], [ 18.13683826, 48.97977966 ], [ 18.13689114, 48.9797513 ], [ 18.13693826, 48.97972396 ], [ 18.13704105, 48.9796649 ], [ 18.13709462, 48.97963441 ], [ 18.1371378, 48.97960991 ], [ 18.13726451, 48.97953391 ], [ 18.13733167, 48.97949717 ], [ 18.13739026, 48.97946092 ], [ 18.13767279, 48.97928604 ], [ 18.13775369, 48.97923158 ], [ 18.13791073, 48.97912456 ], [ 18.13794318, 48.97910233 ], [ 18.13798044, 48.97907695 ], [ 18.13803233, 48.97904158 ], [ 18.13806219, 48.97902127 ], [ 18.1380717, 48.97901478 ], [ 18.13827128, 48.97887871 ], [ 18.13836849, 48.9788131 ], [ 18.13843405, 48.97876777 ], [ 18.1384442, 48.97876258 ], [ 18.13854091, 48.97869658 ], [ 18.13858876, 48.97866991 ], [ 18.13859535, 48.97866677 ], [ 18.1386473, 48.97864025 ], [ 18.13869599, 48.97861553 ], [ 18.13875417, 48.97858856 ], [ 18.13879737, 48.97856903 ], [ 18.13875222, 48.97856615 ], [ 18.13815069, 48.97852717 ] ], [ [ 18.13820873, 48.97855056 ], [ 18.13852488, 48.9785699 ], [ 18.13824835, 48.9787863 ], [ 18.13818714, 48.97876606 ], [ 18.13820873, 48.97855056 ] ] ] } },
{ "type": "Feature", "properties": { "@featureType": "CadastralParcel", "areaValue": { "value": 12, "@uom": "m2" }, "beginLifespanVersion": { "@nilReason": "http://inspire.ec.europa.eu/codelist/VoidReasonValue/Unpopulated", "@nil": "true" }, "endLifespanVersion": { "@nilReason": "http://inspire.ec.europa.eu/codelist/VoidReasonValue/Unpopulated", "@nil": "true" }, "inspireId": { "@dataType": "Identifier", "localId": "803685_374/76.C", "namespace": "SK.ESKN.CP", "versionId": "20260703T06:07:41" }, "label": "374/76", "nationalCadastralReference": "803685_374/76.C", "referencePoint": { "type": "Point", "coordinates": [ 18.13214854, 48.97694601 ] }, "validFrom": "2026-06-30T16:00:00Z", "validTo": { "@nilReason": "http://inspire.ec.europa.eu/codelist/VoidReasonValue/Unpopulated", "@nil": "true" }, "administrativeUnit": { "@href": "#auAdmUnitS.2954" } }, "geometry": { "type": "Polygon", "coordinates": [ [ [ 18.1321819, 48.97694866 ], [ 18.13214529, 48.97692397 ], [ 18.13211514, 48.97694335 ], [ 18.13215204, 48.97696797 ], [ 18.1321819, 48.97694866 ] ] ] } },
{ "type": "Feature", "properties": { "@featureType": "CadastralParcel", "areaValue": { "value": 39, "@uom": "m2" }, "beginLifespanVersion": { "@nilReason": "http://inspire.ec.europa.eu/codelist/VoidReasonValue/Unpopulated", "@nil": "true" }, "endLifespanVersion": { "@nilReason": "http://inspire.ec.europa.eu/codelist/VoidReasonValue/Unpopulated", "@nil": "true" }, "inspireId": { "@dataType": "Identifier", "localId": "803685_374/30.C", "namespace": "SK.ESKN.CP", "versionId": "20260703T06:07:41" }, "label": "374/30", "nationalCadastralReference": "803685_374/30.C", "referencePoint": { "type": "Point", "coordinates": [ 18.13204933, 48.97687946 ] }, "validFrom": "2026-06-30T16:00:00Z", "validTo": { "@nilReason": "http://inspire.ec.europa.eu/codelist/VoidReasonValue/Unpopulated", "@nil": "true" }, "administrativeUnit": { "@href": "#auAdmUnitS.2954" } }, "geometry": { "type": "Polygon", "coordinates": [ [ [ 18.13202412, 48.97684231 ], [ 18.1319935, 48.97686212 ], [ 18.13204537, 48.9768968 ], [ 18.13211514, 48.97694335 ], [ 18.13214529, 48.97692397 ], [ 18.13202412, 48.97684231 ] ] ] } },
{ "type": "Feature", "properties": { "@featureType": "CadastralParcel", "areaValue": { "value": 69, "@uom": "m2" }, "beginLifespanVersion": { "@nilReason": "http://inspire.ec.europa.eu/codelist/VoidReasonValue/Unpopulated", "@nil": "true" }, "endLifespanVersion": { "@nilReason": "http://inspire.ec.europa.eu/codelist/VoidReasonValue/Unpopulated", "@nil": "true" }, "inspireId": { "@dataType": "Identifier", "localId": "803685_374/63.C", "namespace": "SK.ESKN.CP", "versionId": "20260703T06:07:41" }, "label": "374/63", "nationalCadastralReference": "803685_374/63.C", "referencePoint": { "type": "Point", "coordinates": [ 18.13161652, 48.9765885 ] }, "validFrom": "2026-06-30T16:00:00Z", "validTo": { "@nilReason": "http://inspire.ec.europa.eu/codelist/VoidReasonValue/Unpopulated", "@nil": "true" }, "administrativeUnit": { "@href": "#auAdmUnitS.2954" } }, "geometry": { "type": "Polygon", "coordinates": [ [ [ 18.13149859, 48.97652982 ], [ 18.13170282, 48.97666738 ], [ 18.13173445, 48.97664718 ], [ 18.13153035, 48.97650972 ], [ 18.13149859, 48.97652982 ] ] ] } },
{ "type": "Feature", "properties": { "@featureType": "CadastralParcel", "areaValue": { "value": 59, "@uom": "m2" }, "beginLifespanVersion": { "@nilReason": "http://inspire.ec.europa.eu/codelist/VoidReasonValue/Unpopulated", "@nil": "true" }, "endLifespanVersion": { "@nilReason": "http://inspire.ec.europa.eu/codelist/VoidReasonValue/Unpopulated", "@nil": "true" }, "inspireId": { "@dataType": "Identifier", "localId": "803685_374/28.C", "namespace": "SK.ESKN.CP", "versionId": "20260703T06:07:41" }, "label": "374/28", "nationalCadastralReference": "803685_374/28.C", "referencePoint": { "type": "Point", "coordinates": [ 18.13135771, 48.97641363 ] }, "validFrom": "2026-06-30T16:00:00Z", "validTo": { "@nilReason": "http://inspire.ec.europa.eu/codelist/VoidReasonValue/Unpopulated", "@nil": "true" }, "administrativeUnit": { "@href": "#auAdmUnitS.2954" } }, "geometry": { "type": "Polygon", "coordinates": [ [ [ 18.13125266, 48.97636258 ], [ 18.13143206, 48.97648471 ], [ 18.13146353, 48.97646469 ], [ 18.13128297, 48.97634303 ], [ 18.13125266, 48.97636258 ] ] ] } },
{ "type": "Feature", "properties": { "@featureType": "CadastralParcel", "areaValue": { "value": 10512, "@uom": "m2" }, "beginLifespanVersion": { "@nilReason": "http://inspire.ec.europa.eu/codelist/VoidReasonValue/Unpopulated", "@nil": "true" }, "endLifespanVersion": { "@nilReason": "http://inspire.ec.europa.eu/codelist/VoidReasonValue/Unpopulated", "@nil": "true" }, "inspireId": { "@dataType": "Identifier", "localId": "803685_83/13.E", "namespace": "SK.ESKN.CP", "versionId": "20260703T06:07:41" }, "label": "83/13", "nationalCadastralReference": "803685_83/13.E", "referencePoint": { "type": "Point", "coordinates": [ 18.13169539, 48.9781 ] }, "validFrom": "2026-06-30T16:00:00Z", "validTo": { "@nilReason": "http://inspire.ec.europa.eu/codelist/VoidReasonValue/Unpopulated", "@nil": "true" }, "administrativeUnit": { "@href": "#auAdmUnitS.2954" } }, "geometry": { "type": "Polygon", "coordinates": [ [ [ 18.12994527, 48.97944049 ], [ 18.13057481, 48.97903436 ], [ 18.13095645, 48.97878804 ], [ 18.13109765, 48.97869699 ], [ 18.13121443, 48.9786215 ], [ 18.13295217, 48.97750017 ], [ 18.13297692, 48.97748427 ], [ 18.13265364, 48.97726653 ], [ 18.13262856, 48.97728286 ], [ 18.13261416, 48.97729214 ], [ 18.13217248, 48.97757851 ], [ 18.12956551, 48.97926885 ], [ 18.12994527, 48.97944049 ] ] ] } },
{ "type": "Feature", "properties": { "@featureType": "CadastralParcel", "areaValue": { "value": 10008, "@uom": "m2" }, "beginLifespanVersion": { "@nilReason": "http://inspire.ec.europa.eu/codelist/VoidReasonValue/Unpopulated", "@nil": "true" }, "endLifespanVersion": { "@nilReason": "http://inspire.ec.europa.eu/codelist/VoidReasonValue/Unpopulated", "@nil": "true" }, "inspireId": { "@dataType": "Identifier", "localId": "803685_83/16.E", "namespace": "SK.ESKN.CP", "versionId": "20260703T06:07:41" }, "label": "83/16", "nationalCadastralReference": "803685_83/16.E", "referencePoint": { "type": "Point", "coordinates": [ 18.13016121, 48.97784779 ] }, "validFrom": "2026-06-30T16:00:00Z", "validTo": { "@nilReason": "http://inspire.ec.europa.eu/codelist/VoidReasonValue/Unpopulated", "@nil": "true" }, "administrativeUnit": { "@href": "#auAdmUnitS.2954" } }, "geometry": { "type": "Polygon", "coordinates": [ [ [ 18.1288004, 48.97892642 ], [ 18.12884947, 48.97889477 ], [ 18.13032014, 48.97794391 ], [ 18.13154128, 48.97715446 ], [ 18.13185046, 48.97695459 ], [ 18.13159717, 48.97678495 ], [ 18.13174107, 48.97669315 ], [ 18.1317727, 48.97667295 ], [ 18.13173445, 48.97664718 ], [ 18.13170282, 48.97666738 ], [ 18.13147346, 48.97681372 ], [ 18.1312441, 48.97696016 ], [ 18.13000416, 48.97775168 ], [ 18.12843014, 48.97875659 ], [ 18.1288004, 48.97892642 ] ] ] } },
{ "type": "Feature", "properties": { "@featureType": "CadastralParcel", "areaValue": { "value": 15907, "@uom": "m2" }, "beginLifespanVersion": { "@nilReason": "http://inspire.ec.europa.eu/codelist/VoidReasonValue/Unpopulated", "@nil": "true" }, "endLifespanVersion": { "@nilReason": "http://inspire.ec.europa.eu/codelist/VoidReasonValue/Unpopulated", "@nil": "true" }, "inspireId": { "@dataType": "Identifier", "localId": "803685_83/18.E", "namespace": "SK.ESKN.CP", "versionId": "20260703T06:07:41" }, "label": "83/18", "nationalCadastralReference": "803685_83/18.E", "referencePoint": { "type": "Point", "coordinates": [ 18.12943771, 48.97723298 ] }, "validFrom": "2026-06-30T16:00:00Z", "validTo": { "@nilReason": "http://inspire.ec.europa.eu/codelist/VoidReasonValue/Unpopulated", "@nil": "true" }, "administrativeUnit": { "@href": "#auAdmUnitS.2954" } }, "geometry": { "type": "Polygon", "coordinates": [ [ [ 18.12793331, 48.97800619 ], [ 18.12760171, 48.97837591 ], [ 18.12791032, 48.97852051 ], [ 18.12955491, 48.97745857 ], [ 18.13079525, 48.97665787 ], [ 18.13115976, 48.97642257 ], [ 18.13125266, 48.97636258 ], [ 18.13128297, 48.97634303 ], [ 18.13082824, 48.97603652 ], [ 18.13080032, 48.97605459 ], [ 18.12932109, 48.97700739 ], [ 18.12815534, 48.97775868 ], [ 18.12793331, 48.97800619 ] ] ] } },
{ "type": "Feature", "properties": { "@featureType": "CadastralParcel", "areaValue": { "value": 5100, "@uom": "m2" }, "beginLifespanVersion": { "@nilReason": "http://inspire.ec.europa.eu/codelist/VoidReasonValue/Unpopulated", "@nil": "true" }, "endLifespanVersion": { "@nilReason": "http://inspire.ec.europa.eu/codelist/VoidReasonValue/Unpopulated", "@nil": "true" }, "inspireId": { "@dataType": "Identifier", "localId": "803685_86/14.E", "namespace": "SK.ESKN.CP", "versionId": "20260703T06:07:41" }, "label": "86/14", "nationalCadastralReference": "803685_86/14.E", "referencePoint": { "type": "Point", "coordinates": [ 18.13374993, 48.97885129 ] }, "validFrom": "2026-06-30T16:00:00Z", "validTo": { "@nilReason": "http://inspire.ec.europa.eu/codelist/VoidReasonValue/Unpopulated", "@nil": "true" }, "administrativeUnit": { "@href": "#auAdmUnitS.2954" } }, "geometry": { "type": "Polygon", "coordinates": [ [ [ 18.13487998, 48.97940788 ], [ 18.13485532, 48.97939229 ], [ 18.13292253, 48.97816957 ], [ 18.13265703, 48.9783103 ], [ 18.1346265, 48.97957469 ], [ 18.13466213, 48.97955129 ], [ 18.13487998, 48.97940788 ] ] ] } },
{ "type": "Feature", "properties": { "@featureType": "CadastralParcel", "areaValue": { "value": 5117, "@uom": "m2" }, "beginLifespanVersion": { "@nilReason": "http://inspire.ec.europa.eu/codelist/VoidReasonValue/Unpopulated", "@nil": "true" }, "endLifespanVersion": { "@nilReason": "http://inspire.ec.europa.eu/codelist/VoidReasonValue/Unpopulated", "@nil": "true" }, "inspireId": { "@dataType": "Identifier", "localId": "803685_86/18.E", "namespace": "SK.ESKN.CP", "versionId": "20260703T06:07:41" }, "label": "86/18", "nationalCadastralReference": "803685_86/18.E", "referencePoint": { "type": "Point", "coordinates": [ 18.13290673, 48.97955347 ] }, "validFrom": "2026-06-30T16:00:00Z", "validTo": { "@nilReason": "http://inspire.ec.europa.eu/codelist/VoidReasonValue/Unpopulated", "@nil": "true" }, "administrativeUnit": { "@href": "#auAdmUnitS.2954" } }, "geometry": { "type": "Polygon", "coordinates": [ [ [ 18.13390695, 48.98004822 ], [ 18.13332915, 48.97967385 ], [ 18.13273609, 48.97928958 ], [ 18.13211198, 48.97888518 ], [ 18.13186923, 48.97872788 ], [ 18.13160817, 48.97886616 ], [ 18.1321153, 48.97919438 ], [ 18.13248407, 48.97943308 ], [ 18.13364419, 48.98018379 ], [ 18.13367285, 48.98020233 ], [ 18.13390695, 48.98004822 ] ] ] } },
{ "type": "Feature", "properties": { "@featureType": "CadastralParcel", "areaValue": { "value": 245, "@uom": "m2" }, "beginLifespanVersion": { "@nilReason": "http://inspire.ec.europa.eu/codelist/VoidReasonValue/Unpopulated", "@nil": "true" }, "endLifespanVersion": { "@nilReason": "http://inspire.ec.europa.eu/codelist/VoidReasonValue/Unpopulated", "@nil": "true" }, "inspireId": { "@dataType": "Identifier", "localId": "803685_210/13.E", "namespace": "SK.ESKN.CP", "versionId": "20260703T06:07:41" }, "label": "210/13", "nationalCadastralReference": "803685_210/13.E", "referencePoint": { "type": "Point", "coordinates": [ 18.13500439, 48.98116044 ] }, "validFrom": "2026-06-30T16:00:00Z", "validTo": { "@nilReason": "http://inspire.ec.europa.eu/codelist/VoidReasonValue/Unpopulated", "@nil": "true" }, "administrativeUnit": { "@href": "#auAdmUnitS.2954" } }, "geometry": { "type": "Polygon", "coordinates": [ [ [ 18.13479226, 48.98103743 ], [ 18.13477563, 48.98104694 ], [ 18.13486905, 48.98110749 ], [ 18.13494417, 48.98115616 ], [ 18.13501902, 48.98120472 ], [ 18.135094, 48.98125338 ], [ 18.13514839, 48.98128884 ], [ 18.13516897, 48.98130212 ], [ 18.13519799, 48.98132104 ], [ 18.13521737, 48.98130844 ], [ 18.13524817, 48.98128828 ], [ 18.13506413, 48.98116471 ], [ 18.13484019, 48.98100815 ], [ 18.13479226, 48.98103743 ] ] ] } },
{ "type": "Feature", "properties": { "@featureType": "CadastralParcel", "areaValue": { "value": 1216, "@uom": "m2" }, "beginLifespanVersion": { "@nilReason": "http://inspire.ec.europa.eu/codelist/VoidReasonValue/Unpopulated", "@nil": "true" }, "endLifespanVersion": { "@nilReason": "http://inspire.ec.europa.eu/codelist/VoidReasonValue/Unpopulated", "@nil": "true" }, "inspireId": { "@dataType": "Identifier", "localId": "803685_210/36.E", "namespace": "SK.ESKN.CP", "versionId": "20260703T06:07:41" }, "label": "210/36", "nationalCadastralReference": "803685_210/36.E", "referencePoint": { "type": "Point", "coordinates": [ 18.1367218, 48.98076712 ] }, "validFrom": "2026-06-30T16:00:00Z", "validTo": { "@nilReason": "http://inspire.ec.europa.eu/codelist/VoidReasonValue/Unpopulated", "@nil": "true" }, "administrativeUnit": { "@href": "#auAdmUnitS.2954" } }, "geometry": { "type": "Polygon", "coordinates": [ [ [ 18.13767073, 48.98017494 ], [ 18.13757481, 48.98023187 ], [ 18.13746851, 48.98029064 ], [ 18.13730603, 48.98038291 ], [ 18.13729879, 48.98038673 ], [ 18.13716398, 48.98046795 ], [ 18.13699968, 48.98056562 ], [ 18.1369327, 48.98060716 ], [ 18.13677067, 48.98070739 ], [ 18.13669048, 48.98075747 ], [ 18.13659662, 48.98081542 ], [ 18.13650181, 48.98087331 ], [ 18.13639674, 48.98093712 ], [ 18.13626191, 48.98101744 ], [ 18.13610518, 48.98111391 ], [ 18.13594456, 48.98121269 ], [ 18.13574258, 48.98133887 ], [ 18.13564938, 48.98139704 ], [ 18.13552524, 48.98147428 ], [ 18.13524817, 48.98128828 ], [ 18.13521737, 48.98130844 ], [ 18.13519799, 48.98132104 ], [ 18.13524384, 48.98135059 ], [ 18.13531869, 48.98139915 ], [ 18.13539367, 48.98144781 ], [ 18.13549073, 48.98151092 ], [ 18.13550667, 48.98149939 ], [ 18.13553018, 48.98151537 ], [ 18.13570725, 48.98140842 ], [ 18.13592459, 48.98127708 ], [ 18.13613297, 48.98115127 ], [ 18.13634018, 48.98102602 ], [ 18.13643744, 48.98096727 ], [ 18.13654692, 48.9809012 ], [ 18.13675277, 48.98077677 ], [ 18.13696415, 48.98064906 ], [ 18.13717985, 48.9805187 ], [ 18.13738733, 48.98039338 ], [ 18.13759363, 48.98026871 ], [ 18.13780634, 48.98014017 ], [ 18.13799622, 48.98002547 ], [ 18.13797939, 48.98001385 ], [ 18.13788955, 48.9800417 ], [ 18.13767073, 48.98017494 ] ] ] } },
{ "type": "Feature", "properties": { "@featureType": "CadastralParcel", "areaValue": { "value": 1470, "@uom": "m2" }, "beginLifespanVersion": { "@nilReason": "http://inspire.ec.europa.eu/codelist/VoidReasonValue/Unpopulated", "@nil": "true" }, "endLifespanVersion": { "@nilReason": "http://inspire.ec.europa.eu/codelist/VoidReasonValue/Unpopulated", "@nil": "true" }, "inspireId": { "@dataType": "Identifier", "localId": "803685_34/3.E", "namespace": "SK.ESKN.CP", "versionId": "20260703T06:07:41" }, "label": "34/3", "nationalCadastralReference": "803685_34/3.E", "referencePoint": { "type": "Point", "coordinates": [ 18.13476723, 48.97708578 ] }, "validFrom": "2026-06-30T16:00:00Z", "validTo": { "@nilReason": "http://inspire.ec.europa.eu/codelist/VoidReasonValue/Unpopulated", "@nil": "true" }, "administrativeUnit": { "@href": "#auAdmUnitS.2954" } }, "geometry": { "type": "Polygon", "coordinates": [ [ [ 18.13474539, 48.97690111 ], [ 18.13486351, 48.97682985 ], [ 18.13490046, 48.9768068 ], [ 18.13492395, 48.97679308 ], [ 18.13491589, 48.97676715 ], [ 18.13497007, 48.97673724 ], [ 18.13503036, 48.97693617 ], [ 18.13498363, 48.97696778 ], [ 18.13497236, 48.9769052 ], [ 18.1349417, 48.97692121 ], [ 18.13484953, 48.97697375 ], [ 18.13483233, 48.97698449 ], [ 18.13480826, 48.97699935 ], [ 18.13461955, 48.97711664 ], [ 18.13448301, 48.97720155 ], [ 18.13441017, 48.97724699 ], [ 18.13432014, 48.97718573 ], [ 18.13439444, 48.97713974 ], [ 18.1345311, 48.97705492 ], [ 18.134468, 48.97701074 ], [ 18.13442872, 48.97703691 ], [ 18.13417411, 48.97719688 ], [ 18.13402926, 48.97749734 ], [ 18.1344647, 48.97729257 ], [ 18.13517505, 48.97692585 ], [ 18.13515778, 48.97689903 ], [ 18.13504886, 48.97672952 ], [ 18.13502324, 48.97668922 ], [ 18.13498506, 48.97671229 ], [ 18.1348871, 48.97676504 ], [ 18.13470197, 48.97687089 ], [ 18.13474539, 48.97690111 ] ] ] } },
{ "type": "Feature", "properties": { "@featureType": "CadastralParcel", "areaValue": { "value": 455, "@uom": "m2" }, "beginLifespanVersion": { "@nilReason": "http://inspire.ec.europa.eu/codelist/VoidReasonValue/Unpopulated", "@nil": "true" }, "endLifespanVersion": { "@nilReason": "http://inspire.ec.europa.eu/codelist/VoidReasonValue/Unpopulated", "@nil": "true" }, "inspireId": { "@dataType": "Identifier", "localId": "803685_21/7.E", "namespace": "SK.ESKN.CP", "versionId": "20260703T06:07:41" }, "label": "21/7", "nationalCadastralReference": "803685_21/7.E", "referencePoint": { "type": "Point", "coordinates": [ 18.13764568, 48.97979428 ] }, "validFrom": "2026-06-30T16:00:00Z", "validTo": { "@nilReason": "http://inspire.ec.europa.eu/codelist/VoidReasonValue/Unpopulated", "@nil": "true" }, "administrativeUnit": { "@href": "#auAdmUnitS.2954" } }, "geometry": { "type": "Polygon", "coordinates": [ [ [ 18.13788955, 48.9800417 ], [ 18.13797939, 48.98001385 ], [ 18.13796, 48.97999882 ], [ 18.13765232, 48.97975952 ], [ 18.13736061, 48.97952077 ], [ 18.13733167, 48.97949717 ], [ 18.13726451, 48.97953391 ], [ 18.13763839, 48.97982904 ], [ 18.13788955, 48.9800417 ] ] ] } },
{ "type": "Feature", "properties": { "@featureType": "CadastralParcel", "areaValue": { "value": 840, "@uom": "m2" }, "beginLifespanVersion": { "@nilReason": "http://inspire.ec.europa.eu/codelist/VoidReasonValue/Unpopulated", "@nil": "true" }, "endLifespanVersion": { "@nilReason": "http://inspire.ec.europa.eu/codelist/VoidReasonValue/Unpopulated", "@nil": "true" }, "inspireId": { "@dataType": "Identifier", "localId": "803685_34/16.E", "namespace": "SK.ESKN.CP", "versionId": "20260703T06:07:41" }, "label": "34/16", "nationalCadastralReference": "803685_34/16.E", "referencePoint": { "type": "Point", "coordinates": [ 18.1340957, 48.97727424 ] }, "validFrom": "2026-06-30T16:00:00Z", "validTo": { "@nilReason": "http://inspire.ec.europa.eu/codelist/VoidReasonValue/Unpopulated", "@nil": "true" }, "administrativeUnit": { "@href": "#auAdmUnitS.2954" } }, "geometry": { "type": "Polygon", "coordinates": [ [ [ 18.1339004, 48.97752058 ], [ 18.13351566, 48.97776258 ], [ 18.13366984, 48.97774486 ], [ 18.13381457, 48.97763867 ], [ 18.13402926, 48.97749734 ], [ 18.13417411, 48.97719688 ], [ 18.13442872, 48.97703691 ], [ 18.134468, 48.97701074 ], [ 18.13465671, 48.97689355 ], [ 18.13469782, 48.97686803 ], [ 18.13470197, 48.97687089 ], [ 18.1348871, 48.97676504 ], [ 18.13498506, 48.97671229 ], [ 18.13502324, 48.97668922 ], [ 18.13498818, 48.97663438 ], [ 18.13467735, 48.97683128 ], [ 18.13408596, 48.97718014 ], [ 18.13402881, 48.97735161 ], [ 18.13398804, 48.97747221 ], [ 18.1339004, 48.97752058 ] ] ] } },
{ "type": "Feature", "properties": { "@featureType": "CadastralParcel", "areaValue": { "value": 1352, "@uom": "m2" }, "beginLifespanVersion": { "@nilReason": "http://inspire.ec.europa.eu/codelist/VoidReasonValue/Unpopulated", "@nil": "true" }, "endLifespanVersion": { "@nilReason": "http://inspire.ec.europa.eu/codelist/VoidReasonValue/Unpopulated", "@nil": "true" }, "inspireId": { "@dataType": "Identifier", "localId": "803685_83/112.E", "namespace": "SK.ESKN.CP", "versionId": "20260703T06:07:41" }, "label": "83/112", "nationalCadastralReference": "803685_83/112.E", "referencePoint": { "type": "Point", "coordinates": [ 18.13126436, 48.97495891 ] }, "validFrom": "2026-06-30T16:00:00Z", "validTo": { "@nilReason": "http://inspire.ec.europa.eu/codelist/VoidReasonValue/Unpopulated", "@nil": "true" }, "administrativeUnit": { "@href": "#auAdmUnitS.2954" } }, "geometry": { "type": "Polygon", "coordinates": [ [ [ 18.13023006, 48.97558215 ], [ 18.13030467, 48.97553997 ], [ 18.1308075, 48.9752557 ], [ 18.13096309, 48.97516774 ], [ 18.13097614, 48.97516037 ], [ 18.13111363, 48.97508274 ], [ 18.13120367, 48.97503179 ], [ 18.1314616, 48.97488602 ], [ 18.13149275, 48.97486841 ], [ 18.13163305, 48.97478913 ], [ 18.13173376, 48.97473222 ], [ 18.13176476, 48.97471469 ], [ 18.13180866, 48.97468987 ], [ 18.13182943, 48.97467817 ], [ 18.13212474, 48.97451117 ], [ 18.13247953, 48.97431059 ], [ 18.13245375, 48.97428175 ], [ 18.13245363, 48.974258 ], [ 18.13243496, 48.97426839 ], [ 18.1308761, 48.97513725 ], [ 18.1301764, 48.97554546 ], [ 18.13018167, 48.97554911 ], [ 18.13023006, 48.97558215 ] ] ] } },
{ "type": "Feature", "properties": { "@featureType": "CadastralParcel", "areaValue": { "value": 2733, "@uom": "m2" }, "beginLifespanVersion": { "@nilReason": "http://inspire.ec.europa.eu/codelist/VoidReasonValue/Unpopulated", "@nil": "true" }, "endLifespanVersion": { "@nilReason": "http://inspire.ec.europa.eu/codelist/VoidReasonValue/Unpopulated", "@nil": "true" }, "inspireId": { "@dataType": "Identifier", "localId": "803685_83/121.E", "namespace": "SK.ESKN.CP", "versionId": "20260703T06:07:41" }, "label": "83/121", "nationalCadastralReference": "803685_83/121.E", "referencePoint": { "type": "Point", "coordinates": [ 18.13287219, 48.97794194 ] }, "validFrom": "2026-06-30T16:00:00Z", "validTo": { "@nilReason": "http://inspire.ec.europa.eu/codelist/VoidReasonValue/Unpopulated", "@nil": "true" }, "administrativeUnit": { "@href": "#auAdmUnitS.2954" } }, "geometry": { "type": "Polygon", "coordinates": [ [ [ 18.13311345, 48.97760916 ], [ 18.1322853, 48.97808154 ], [ 18.13257631, 48.97827801 ], [ 18.13259985, 48.97829382 ], [ 18.13287195, 48.9781457 ], [ 18.13344892, 48.97780233 ], [ 18.13313973, 48.97759407 ], [ 18.13311345, 48.97760916 ] ] ] } },
{ "type": "Feature", "properties": { "@featureType": "CadastralParcel", "areaValue": { "value": 5056, "@uom": "m2" }, "beginLifespanVersion": { "@nilReason": "http://inspire.ec.europa.eu/codelist/VoidReasonValue/Unpopulated", "@nil": "true" }, "endLifespanVersion": { "@nilReason": "http://inspire.ec.europa.eu/codelist/VoidReasonValue/Unpopulated", "@nil": "true" }, "inspireId": { "@dataType": "Identifier", "localId": "803685_86/15.E", "namespace": "SK.ESKN.CP", "versionId": "20260703T06:07:41" }, "label": "86/15", "nationalCadastralReference": "803685_86/15.E", "referencePoint": { "type": "Point", "coordinates": [ 18.13350761, 48.97901291 ] }, "validFrom": "2026-06-30T16:00:00Z", "validTo": { "@nilReason": "http://inspire.ec.europa.eu/codelist/VoidReasonValue/Unpopulated", "@nil": "true" }, "administrativeUnit": { "@href": "#auAdmUnitS.2954" } }, "geometry": { "type": "Polygon", "coordinates": [ [ [ 18.1346265, 48.97957469 ], [ 18.13265703, 48.9783103 ], [ 18.13239138, 48.97845113 ], [ 18.134384, 48.97973427 ], [ 18.1346265, 48.97957469 ] ] ] } },
{ "type": "Feature", "properties": { "@featureType": "CadastralParcel", "areaValue": { "value": 4215, "@uom": "m2" }, "beginLifespanVersion": { "@nilReason": "http://inspire.ec.europa.eu/codelist/VoidReasonValue/Unpopulated", "@nil": "true" }, "endLifespanVersion": { "@nilReason": "http://inspire.ec.europa.eu/codelist/VoidReasonValue/Unpopulated", "@nil": "true" }, "inspireId": { "@dataType": "Identifier", "localId": "803685_83/20.E", "namespace": "SK.ESKN.CP", "versionId": "20260703T06:07:41" }, "label": "83/20", "nationalCadastralReference": "803685_83/20.E", "referencePoint": { "type": "Point", "coordinates": [ 18.12970886, 48.97625638 ] }, "validFrom": "2026-06-30T16:00:00Z", "validTo": { "@nilReason": "http://inspire.ec.europa.eu/codelist/VoidReasonValue/Unpopulated", "@nil": "true" }, "administrativeUnit": { "@href": "#auAdmUnitS.2954" } }, "geometry": { "type": "Polygon", "coordinates": [ [ [ 18.13010976, 48.9755844 ], [ 18.12967284, 48.97583926 ], [ 18.12970276, 48.97592639 ], [ 18.12972921, 48.97600465 ], [ 18.12875886, 48.97708609 ], [ 18.12956368, 48.97650812 ], [ 18.13048992, 48.97584327 ], [ 18.1305148, 48.97582539 ], [ 18.1301913, 48.97560744 ], [ 18.1301352, 48.97556953 ], [ 18.13010976, 48.9755844 ] ] ] } },
{ "type": "Feature", "properties": { "@featureType": "CadastralParcel", "areaValue": { "value": 5081, "@uom": "m2" }, "beginLifespanVersion": { "@nilReason": "http://inspire.ec.europa.eu/codelist/VoidReasonValue/Unpopulated", "@nil": "true" }, "endLifespanVersion": { "@nilReason": "http://inspire.ec.europa.eu/codelist/VoidReasonValue/Unpopulated", "@nil": "true" }, "inspireId": { "@dataType": "Identifier", "localId": "803685_86/16.E", "namespace": "SK.ESKN.CP", "versionId": "20260703T06:07:41" }, "label": "86/16", "nationalCadastralReference": "803685_86/16.E", "referencePoint": { "type": "Point", "coordinates": [ 18.13335775, 48.97922907 ] }, "validFrom": "2026-06-30T16:00:00Z", "validTo": { "@nilReason": "http://inspire.ec.europa.eu/codelist/VoidReasonValue/Unpopulated", "@nil": "true" }, "administrativeUnit": { "@href": "#auAdmUnitS.2954" } }, "geometry": { "type": "Polygon", "coordinates": [ [ [ 18.134384, 48.97973427 ], [ 18.13239138, 48.97845113 ], [ 18.13212662, 48.97859145 ], [ 18.13237011, 48.97874835 ], [ 18.13267105, 48.97894232 ], [ 18.13296809, 48.97913372 ], [ 18.13326399, 48.97932442 ], [ 18.13355876, 48.97951434 ], [ 18.13385227, 48.97970346 ], [ 18.13414465, 48.97989178 ], [ 18.134384, 48.97973427 ] ] ] } },
{ "type": "Feature", "properties": { "@featureType": "CadastralParcel", "areaValue": { "value": 2339, "@uom": "m2" }, "beginLifespanVersion": { "@nilReason": "http://inspire.ec.europa.eu/codelist/VoidReasonValue/Unpopulated", "@nil": "true" }, "endLifespanVersion": { "@nilReason": "http://inspire.ec.europa.eu/codelist/VoidReasonValue/Unpopulated", "@nil": "true" }, "inspireId": { "@dataType": "Identifier", "localId": "803685_86/121.E", "namespace": "SK.ESKN.CP", "versionId": "20260703T06:07:41" }, "label": "86/121", "nationalCadastralReference": "803685_86/121.E", "referencePoint": { "type": "Point", "coordinates": [ 18.13373692, 48.97819633 ] }, "validFrom": "2026-06-30T16:00:00Z", "validTo": { "@nilReason": "http://inspire.ec.europa.eu/codelist/VoidReasonValue/Unpopulated", "@nil": "true" }, "administrativeUnit": { "@href": "#auAdmUnitS.2954" } }, "geometry": { "type": "Polygon", "coordinates": [ [ [ 18.13436482, 48.97844052 ], [ 18.13426693, 48.97837753 ], [ 18.13346751, 48.97786344 ], [ 18.13320864, 48.97801512 ], [ 18.13410501, 48.97859513 ], [ 18.13436482, 48.97844052 ] ] ] } },
{ "type": "Feature", "properties": { "@featureType": "CadastralParcel", "areaValue": { "value": 2662, "@uom": "m2" }, "beginLifespanVersion": { "@nilReason": "http://inspire.ec.europa.eu/codelist/VoidReasonValue/Unpopulated", "@nil": "true" }, "endLifespanVersion": { "@nilReason": "http://inspire.ec.europa.eu/codelist/VoidReasonValue/Unpopulated", "@nil": "true" }, "inspireId": { "@dataType": "Identifier", "localId": "803685_86/122.E", "namespace": "SK.ESKN.CP", "versionId": "20260703T06:07:41" }, "label": "86/122", "nationalCadastralReference": "803685_86/122.E", "referencePoint": { "type": "Point", "coordinates": [ 18.13471822, 48.97882933 ] }, "validFrom": "2026-06-30T16:00:00Z", "validTo": { "@nilReason": "http://inspire.ec.europa.eu/codelist/VoidReasonValue/Unpopulated", "@nil": "true" }, "administrativeUnit": { "@href": "#auAdmUnitS.2954" } }, "geometry": { "type": "Polygon", "coordinates": [ [ [ 18.13536888, 48.97908623 ], [ 18.1353493, 48.97907363 ], [ 18.13503553, 48.97887188 ], [ 18.13490329, 48.97878678 ], [ 18.13478077, 48.97870794 ], [ 18.13455795, 48.9785647 ], [ 18.13436482, 48.97844052 ], [ 18.13410501, 48.97859513 ], [ 18.13412357, 48.97860713 ], [ 18.13436181, 48.97876127 ], [ 18.1346027, 48.9789171 ], [ 18.134847, 48.97907521 ], [ 18.13509421, 48.97923511 ], [ 18.13511857, 48.97925087 ], [ 18.13536888, 48.97908623 ] ] ] } },
{ "type": "Feature", "properties": { "@featureType": "CadastralParcel", "areaValue": { "value": 14240, "@uom": "m2" }, "beginLifespanVersion": { "@nilReason": "http://inspire.ec.europa.eu/codelist/VoidReasonValue/Unpopulated", "@nil": "true" }, "endLifespanVersion": { "@nilReason": "http://inspire.ec.europa.eu/codelist/VoidReasonValue/Unpopulated", "@nil": "true" }, "inspireId": { "@dataType": "Identifier", "localId": "803685_225.E", "namespace": "SK.ESKN.CP", "versionId": "20260703T06:07:41" }, "label": "225", "nationalCadastralReference": "803685_225.E", "referencePoint": { "type": "Point", "coordinates": [ 18.13522331, 48.97686232 ] }, "validFrom": "2026-06-30T16:00:00Z", "validTo": { "@nilReason": "http://inspire.ec.europa.eu/codelist/VoidReasonValue/Unpopulated", "@nil": "true" }, "administrativeUnit": { "@href": "#auAdmUnitS.2954" } }, "geometry": { "type": "Polygon", "coordinates": [ [ [ 18.14234834, 48.97881602 ], [ 18.14253824, 48.97881534 ], [ 18.14256362, 48.9788112 ], [ 18.14261862, 48.97881835 ], [ 18.14266963, 48.97882563 ], [ 18.14273083, 48.97882329 ], [ 18.14279169, 48.97883899 ], [ 18.14285117, 48.97886915 ], [ 18.142956, 48.97892647 ], [ 18.14298977, 48.97895298 ], [ 18.14303518, 48.97897862 ], [ 18.14311451, 48.97902346 ], [ 18.14319402, 48.97906082 ], [ 18.1432738, 48.9791064 ], [ 18.14332272, 48.9791355 ], [ 18.14339191, 48.97917515 ], [ 18.14350305, 48.97923762 ], [ 18.14350657, 48.97923999 ], [ 18.14355651, 48.97926662 ], [ 18.1436607, 48.97932562 ], [ 18.14366652, 48.9793283 ], [ 18.1437322, 48.97936441 ], [ 18.14379936, 48.97940178 ], [ 18.14385142, 48.97943313 ], [ 18.14395715, 48.97949186 ], [ 18.14396227, 48.97949459 ], [ 18.14401667, 48.97952481 ], [ 18.1440515, 48.97954858 ], [ 18.14412163, 48.9794174 ], [ 18.14407411, 48.97939218 ], [ 18.14400443, 48.9793552 ], [ 18.14300103, 48.97877678 ], [ 18.14291786, 48.97872883 ], [ 18.14285913, 48.97872806 ], [ 18.1427034, 48.97870282 ], [ 18.14257936, 48.9786971 ], [ 18.14243609, 48.9786947 ], [ 18.14238366, 48.97869917 ], [ 18.1422908, 48.97870744 ], [ 18.14215813, 48.97871919 ], [ 18.1419816, 48.97873482 ], [ 18.14186584, 48.97873798 ], [ 18.14161389, 48.97875043 ], [ 18.14139661, 48.97875585 ], [ 18.14129267, 48.97874958 ], [ 18.14103796, 48.97873334 ], [ 18.1409239, 48.9787217 ], [ 18.14079188, 48.97870893 ], [ 18.14055512, 48.97868975 ], [ 18.14052785, 48.97868755 ], [ 18.14037785, 48.97865533 ], [ 18.14025637, 48.97863658 ], [ 18.14019887, 48.97863172 ], [ 18.14006613, 48.9786172 ], [ 18.13997532, 48.97860807 ], [ 18.13985736, 48.97859377 ], [ 18.13979349, 48.97858728 ], [ 18.13965451, 48.97857122 ], [ 18.13964578, 48.97856981 ], [ 18.13950879, 48.97854908 ], [ 18.13942422, 48.97853535 ], [ 18.13939064, 48.97853107 ], [ 18.13926929, 48.97851548 ], [ 18.13914963, 48.97849955 ], [ 18.13911185, 48.97849592 ], [ 18.13892623, 48.97847681 ], [ 18.13884559, 48.97846863 ], [ 18.13870374, 48.97845556 ], [ 18.13851352, 48.978436 ], [ 18.13845019, 48.9784244 ], [ 18.13827711, 48.97840185 ], [ 18.13822835, 48.97839516 ], [ 18.1380809, 48.97837472 ], [ 18.1379689, 48.97835173 ], [ 18.13776625, 48.9782948 ], [ 18.13759427, 48.97823206 ], [ 18.13757048, 48.9782407 ], [ 18.13724071, 48.97816 ], [ 18.13712131, 48.9781308 ], [ 18.13698365, 48.97809351 ], [ 18.13694197, 48.97808217 ], [ 18.13681531, 48.97803847 ], [ 18.1367276, 48.97800505 ], [ 18.13664445, 48.97797353 ], [ 18.13647858, 48.97790608 ], [ 18.13639802, 48.97787155 ], [ 18.13627895, 48.97781727 ], [ 18.13616464, 48.97775912 ], [ 18.13610525, 48.97772012 ], [ 18.13597131, 48.97762301 ], [ 18.1359114, 48.9775745 ], [ 18.13580417, 48.9774932 ], [ 18.13576109, 48.97745315 ], [ 18.13568314, 48.97736822 ], [ 18.13557313, 48.97722744 ], [ 18.13548246, 48.97710421 ], [ 18.13541256, 48.9770062 ], [ 18.13528688, 48.97682561 ], [ 18.13524054, 48.97675658 ], [ 18.13520353, 48.97669783 ], [ 18.13513495, 48.97657552 ], [ 18.13510233, 48.97651676 ], [ 18.13499435, 48.97630018 ], [ 18.13496498, 48.97623448 ], [ 18.13495498, 48.97620456 ], [ 18.13490487, 48.97609803 ], [ 18.13484918, 48.97598603 ], [ 18.13478518, 48.97588285 ], [ 18.13450639, 48.97560106 ], [ 18.13443208, 48.97552481 ], [ 18.13439929, 48.97549304 ], [ 18.13431139, 48.97540355 ], [ 18.13423361, 48.9753327 ], [ 18.13418962, 48.97529649 ], [ 18.13410799, 48.97523092 ], [ 18.1340125, 48.97516447 ], [ 18.13395903, 48.97513348 ], [ 18.13387516, 48.97508991 ], [ 18.13383762, 48.97506698 ], [ 18.13374986, 48.9750155 ], [ 18.13366454, 48.97496218 ], [ 18.13362623, 48.97493893 ], [ 18.13351617, 48.97487064 ], [ 18.13346912, 48.974844 ], [ 18.13339931, 48.97480187 ], [ 18.13329544, 48.97473962 ], [ 18.13317385, 48.97466624 ], [ 18.13307297, 48.97460417 ], [ 18.13301389, 48.97456699 ], [ 18.13295827, 48.97452541 ], [ 18.13287313, 48.97444917 ], [ 18.13283899, 48.97441723 ], [ 18.13278537, 48.9743679 ], [ 18.13270972, 48.97429456 ], [ 18.13266835, 48.97425516 ], [ 18.13260211, 48.97419039 ], [ 18.13259839, 48.97419261 ], [ 18.13245363, 48.974258 ], [ 18.13245375, 48.97428175 ], [ 18.13247953, 48.97431059 ], [ 18.13263027, 48.9744512 ], [ 18.13270514, 48.97451087 ], [ 18.13268224, 48.97452525 ], [ 18.13273397, 48.97456101 ], [ 18.13285336, 48.97464365 ], [ 18.13290117, 48.97467386 ], [ 18.13300633, 48.97473979 ], [ 18.13305871, 48.97477171 ], [ 18.13315725, 48.97483184 ], [ 18.13330256, 48.97492682 ], [ 18.13335259, 48.97495787 ], [ 18.13345245, 48.97501321 ], [ 18.13350272, 48.97504139 ], [ 18.1336081, 48.97510056 ], [ 18.13366012, 48.97512695 ], [ 18.13375888, 48.97518746 ], [ 18.13391708, 48.97528453 ], [ 18.13395756, 48.97531314 ], [ 18.13403725, 48.97537886 ], [ 18.13415195, 48.97548542 ], [ 18.13419197, 48.97552258 ], [ 18.13426715, 48.97559129 ], [ 18.13439543, 48.97571218 ], [ 18.13442959, 48.97574395 ], [ 18.13450229, 48.9758117 ], [ 18.13459782, 48.97591292 ], [ 18.13462779, 48.97595554 ], [ 18.13469162, 48.97604662 ], [ 18.13469589, 48.97605264 ], [ 18.13477325, 48.97621401 ], [ 18.13485251, 48.97637964 ], [ 18.13491619, 48.97653661 ], [ 18.13496095, 48.97659282 ], [ 18.13498175, 48.97662399 ], [ 18.13498818, 48.97663438 ], [ 18.13502324, 48.97668922 ], [ 18.13504886, 48.97672952 ], [ 18.13515778, 48.97689903 ], [ 18.13517505, 48.97692585 ], [ 18.13520617, 48.97696186 ], [ 18.13542198, 48.97719063 ], [ 18.13554197, 48.9773532 ], [ 18.1356341, 48.977484 ], [ 18.13576537, 48.97761138 ], [ 18.13585103, 48.97768169 ], [ 18.13593817, 48.97774405 ], [ 18.13596655, 48.97776266 ], [ 18.13604499, 48.97781414 ], [ 18.13606085, 48.97782273 ], [ 18.13618327, 48.97788893 ], [ 18.13635414, 48.97796407 ], [ 18.13646359, 48.97801237 ], [ 18.13653309, 48.97803932 ], [ 18.13665579, 48.97809723 ], [ 18.13670767, 48.9781237 ], [ 18.1368529, 48.97817109 ], [ 18.1371612, 48.97825444 ], [ 18.13724234, 48.97827637 ], [ 18.13743018, 48.97832919 ], [ 18.13764963, 48.97837644 ], [ 18.137856, 48.97844253 ], [ 18.13794301, 48.97846985 ], [ 18.13815069, 48.97852717 ], [ 18.13875222, 48.97856615 ], [ 18.13879737, 48.97856903 ], [ 18.13893078, 48.97858161 ], [ 18.13903443, 48.97859725 ], [ 18.13911112, 48.97860737 ], [ 18.13925706, 48.97863403 ], [ 18.1394003, 48.9786572 ], [ 18.13949416, 48.97867228 ], [ 18.13962236, 48.97868997 ], [ 18.13976433, 48.97870837 ], [ 18.13983819, 48.97872013 ], [ 18.13989678, 48.97872812 ], [ 18.14002684, 48.97874014 ], [ 18.14018189, 48.97875505 ], [ 18.14027061, 48.97876026 ], [ 18.1404295, 48.97876691 ], [ 18.14049079, 48.97876909 ], [ 18.14066395, 48.97879317 ], [ 18.14081368, 48.97880985 ], [ 18.14095325, 48.97882567 ], [ 18.14096195, 48.97882518 ], [ 18.14109784, 48.97883664 ], [ 18.14121137, 48.97884617 ], [ 18.14132093, 48.97885557 ], [ 18.14139945, 48.97885604 ], [ 18.14141575, 48.97885616 ], [ 18.14156896, 48.97885706 ], [ 18.14163756, 48.97885787 ], [ 18.14180902, 48.97885873 ], [ 18.1419015, 48.97885225 ], [ 18.14220346, 48.97882779 ], [ 18.14234834, 48.97881602 ] ] ] } },
{ "type": "Feature", "properties": { "@featureType": "CadastralParcel", "areaValue": { "value": 731, "@uom": "m2" }, "beginLifespanVersion": { "@nilReason": "http://inspire.ec.europa.eu/codelist/VoidReasonValue/Unpopulated", "@nil": "true" }, "endLifespanVersion": { "@nilReason": "http://inspire.ec.europa.eu/codelist/VoidReasonValue/Unpopulated", "@nil": "true" }, "inspireId": { "@dataType": "Identifier", "localId": "803685_86/19.E", "namespace": "SK.ESKN.CP", "versionId": "20260703T06:07:41" }, "label": "86/19", "nationalCadastralReference": "803685_86/19.E", "referencePoint": { "type": "Point", "coordinates": [ 18.13448734, 48.97968715 ] }, "validFrom": "2026-06-30T16:00:00Z", "validTo": { "@nilReason": "http://inspire.ec.europa.eu/codelist/VoidReasonValue/Unpopulated", "@nil": "true" }, "administrativeUnit": { "@href": "#auAdmUnitS.2954" } }, "geometry": { "type": "Polygon", "coordinates": [ [ [ 18.13511857, 48.97925087 ], [ 18.13487998, 48.97940788 ], [ 18.13466213, 48.97955129 ], [ 18.1346265, 48.97957469 ], [ 18.134384, 48.97973427 ], [ 18.13414465, 48.97989178 ], [ 18.13394574, 48.98002265 ], [ 18.13390695, 48.98004822 ], [ 18.13367285, 48.98020233 ], [ 18.13344072, 48.98035502 ], [ 18.13346917, 48.98037409 ], [ 18.13351556, 48.980343 ], [ 18.1336273, 48.98026822 ], [ 18.13376462, 48.98017856 ], [ 18.13377213, 48.98017367 ], [ 18.13385017, 48.98012329 ], [ 18.13390405, 48.98008849 ], [ 18.13407835, 48.97997344 ], [ 18.13426918, 48.9798496 ], [ 18.13428389, 48.97984007 ], [ 18.13437175, 48.97978295 ], [ 18.13445163, 48.97973105 ], [ 18.13445494, 48.97972889 ], [ 18.134459, 48.97972615 ], [ 18.13457913, 48.97964814 ], [ 18.13463022, 48.97961472 ], [ 18.13469075, 48.97957524 ], [ 18.13482497, 48.97948613 ], [ 18.13497406, 48.9793894 ], [ 18.13507444, 48.97932469 ], [ 18.13518879, 48.97924888 ], [ 18.13537361, 48.97912893 ], [ 18.13564071, 48.9789556 ], [ 18.13560958, 48.9789278 ], [ 18.13536888, 48.97908623 ], [ 18.13511857, 48.97925087 ] ] ] } }
]
}
