{
"type": "FeatureCollection",
"name": "gis",
"crs": { "type": "name", "properties": { "name": "urn:ogc:def:crs:OGC:1.3:CRS84" } },
"features": [
{ "type": "Feature", "properties": { "@featureType": "CadastralParcel", "areaValue": { "value": 840, "@uom": "m2" }, "beginLifespanVersion": { "@nilReason": "http://inspire.ec.europa.eu/codelist/VoidReasonValue/Unpopulated", "@nil": "true" }, "endLifespanVersion": { "@nilReason": "http://inspire.ec.europa.eu/codelist/VoidReasonValue/Unpopulated", "@nil": "true" }, "inspireId": { "@dataType": "Identifier", "localId": "803235_2689.C", "namespace": "SK.ESKN.CP", "versionId": "20260703T07:07:39" }, "label": "2689", "nationalCadastralReference": "803235_2689.C", "referencePoint": { "type": "Point", "coordinates": [ 19.6182974, 49.12730342 ] }, "validFrom": "2026-06-30T16:00:00Z", "validTo": { "@nilReason": "http://inspire.ec.europa.eu/codelist/VoidReasonValue/Unpopulated", "@nil": "true" }, "administrativeUnit": { "@href": "#auAdmUnitS.2270" } }, "geometry": { "type": "Polygon", "coordinates": [ [ [ 19.61822324, 49.12680738 ], [ 19.61794389, 49.12685356 ], [ 19.61798055, 49.12685231 ], [ 19.61801452, 49.12685987 ], [ 19.61804203, 49.12687525 ], [ 19.61805907, 49.12689639 ], [ 19.61811311, 49.12701336 ], [ 19.61812926, 49.12704825 ], [ 19.61819061, 49.12718088 ], [ 19.61819789, 49.1271967 ], [ 19.61827146, 49.12735575 ], [ 19.61834569, 49.12751635 ], [ 19.61837518, 49.12758013 ], [ 19.61837772, 49.12759936 ], [ 19.6183698, 49.12761613 ], [ 19.61835126, 49.12763062 ], [ 19.61832718, 49.12763901 ], [ 19.6182879, 49.12764689 ], [ 19.61831571, 49.12770708 ], [ 19.61847278, 49.12767581 ], [ 19.61862383, 49.1276457 ], [ 19.61859603, 49.12758551 ], [ 19.61855676, 49.12759331 ], [ 19.61852774, 49.12759498 ], [ 19.61850191, 49.12758977 ], [ 19.61848121, 49.12757884 ], [ 19.6184669, 49.12756189 ], [ 19.61840502, 49.12742788 ], [ 19.6183234, 49.12725108 ], [ 19.61823527, 49.12706038 ], [ 19.61815498, 49.12688671 ], [ 19.6181512, 49.12686229 ], [ 19.61816326, 49.12683741 ], [ 19.6181867, 49.12681936 ], [ 19.61822324, 49.12680738 ] ] ] } },
{ "type": "Feature", "properties": { "@featureType": "CadastralParcel", "areaValue": { "value": 888, "@uom": "m2" }, "beginLifespanVersion": { "@nilReason": "http://inspire.ec.europa.eu/codelist/VoidReasonValue/Unpopulated", "@nil": "true" }, "endLifespanVersion": { "@nilReason": "http://inspire.ec.europa.eu/codelist/VoidReasonValue/Unpopulated", "@nil": "true" }, "inspireId": { "@dataType": "Identifier", "localId": "803235_2688.C", "namespace": "SK.ESKN.CP", "versionId": "20260703T07:07:39" }, "label": "2688", "nationalCadastralReference": "803235_2688.C", "referencePoint": { "type": "Point", "coordinates": [ 19.6172596, 49.12743664 ] }, "validFrom": "2026-06-30T16:00:00Z", "validTo": { "@nilReason": "http://inspire.ec.europa.eu/codelist/VoidReasonValue/Unpopulated", "@nil": "true" }, "administrativeUnit": { "@href": "#auAdmUnitS.2270" } }, "geometry": { "type": "Polygon", "coordinates": [ [ [ 19.61720157, 49.12697635 ], [ 19.61692222, 49.12702252 ], [ 19.61695617, 49.12702098 ], [ 19.61699299, 49.12702875 ], [ 19.61702203, 49.12704538 ], [ 19.61703754, 49.12706527 ], [ 19.61709563, 49.12719081 ], [ 19.61718011, 49.12737306 ], [ 19.61725582, 49.12753661 ], [ 19.61733153, 49.12770017 ], [ 19.61738234, 49.12780988 ], [ 19.61738459, 49.12783053 ], [ 19.61737695, 49.12784587 ], [ 19.61736073, 49.12785921 ], [ 19.61733433, 49.12786875 ], [ 19.61729506, 49.12787664 ], [ 19.61732286, 49.12793683 ], [ 19.61734993, 49.12793146 ], [ 19.61737503, 49.12792646 ], [ 19.61747699, 49.12790615 ], [ 19.6174934, 49.12790291 ], [ 19.61750617, 49.12790033 ], [ 19.61763099, 49.12787545 ], [ 19.61760318, 49.12781526 ], [ 19.61756392, 49.12782306 ], [ 19.61753598, 49.12782487 ], [ 19.61750907, 49.12781952 ], [ 19.61748799, 49.1278083 ], [ 19.61747406, 49.12779163 ], [ 19.61743514, 49.1277076 ], [ 19.61733912, 49.12750023 ], [ 19.61726026, 49.12733005 ], [ 19.61718266, 49.12716217 ], [ 19.6171333, 49.12705567 ], [ 19.61712951, 49.12703135 ], [ 19.61714097, 49.12700699 ], [ 19.6171659, 49.12698782 ], [ 19.61720157, 49.12697635 ] ] ] } },
{ "type": "Feature", "properties": { "@featureType": "CadastralParcel", "areaValue": { "value": 1948, "@uom": "m2" }, "beginLifespanVersion": { "@nilReason": "http://inspire.ec.europa.eu/codelist/VoidReasonValue/Unpopulated", "@nil": "true" }, "endLifespanVersion": { "@nilReason": "http://inspire.ec.europa.eu/codelist/VoidReasonValue/Unpopulated", "@nil": "true" }, "inspireId": { "@dataType": "Identifier", "localId": "803235_2687.C", "namespace": "SK.ESKN.CP", "versionId": "20260703T07:07:39" }, "label": "2687", "nationalCadastralReference": "803235_2687.C", "referencePoint": { "type": "Point", "coordinates": [ 19.61809256, 49.1267896 ] }, "validFrom": "2026-06-30T16:00:00Z", "validTo": { "@nilReason": "http://inspire.ec.europa.eu/codelist/VoidReasonValue/Unpopulated", "@nil": "true" }, "administrativeUnit": { "@href": "#auAdmUnitS.2270" } }, "geometry": { "type": "Polygon", "coordinates": [ [ [ 19.61959269, 49.12658249 ], [ 19.61949476, 49.12649528 ], [ 19.61947819, 49.12651202 ], [ 19.61943447, 49.12652836 ], [ 19.61934811, 49.12654261 ], [ 19.61893685, 49.12661065 ], [ 19.61859588, 49.12666696 ], [ 19.61828621, 49.12671817 ], [ 19.61805186, 49.1267569 ], [ 19.61787522, 49.12678613 ], [ 19.6178333, 49.12679308 ], [ 19.61760901, 49.12683018 ], [ 19.61732953, 49.12687635 ], [ 19.61705004, 49.12692252 ], [ 19.61677069, 49.12696869 ], [ 19.61674792, 49.12697244 ], [ 19.6166297, 49.12699194 ], [ 19.61650407, 49.12701272 ], [ 19.61650845, 49.12702338 ], [ 19.61652943, 49.12707524 ], [ 19.61653414, 49.12708672 ], [ 19.61692222, 49.12702252 ], [ 19.61720157, 49.12697635 ], [ 19.61756826, 49.1269157 ], [ 19.61794389, 49.12685356 ], [ 19.61822324, 49.12680738 ], [ 19.61846583, 49.12676731 ], [ 19.61896443, 49.12668489 ], [ 19.61924377, 49.12663871 ], [ 19.61943983, 49.1266063 ], [ 19.61957734, 49.12658352 ], [ 19.61959269, 49.12658249 ] ] ] } },
{ "type": "Feature", "properties": { "@featureType": "CadastralParcel", "areaValue": { "value": 1102, "@uom": "m2" }, "beginLifespanVersion": { "@nilReason": "http://inspire.ec.europa.eu/codelist/VoidReasonValue/Unpopulated", "@nil": "true" }, "endLifespanVersion": { "@nilReason": "http://inspire.ec.europa.eu/codelist/VoidReasonValue/Unpopulated", "@nil": "true" }, "inspireId": { "@dataType": "Identifier", "localId": "803235_2690.C", "namespace": "SK.ESKN.CP", "versionId": "20260703T07:07:39" }, "label": "2690", "nationalCadastralReference": "803235_2690.C", "referencePoint": { "type": "Point", "coordinates": [ 19.61941282, 49.12733953 ] }, "validFrom": "2026-06-30T16:00:00Z", "validTo": { "@nilReason": "http://inspire.ec.europa.eu/codelist/VoidReasonValue/Unpopulated", "@nil": "true" }, "administrativeUnit": { "@href": "#auAdmUnitS.2270" } }, "geometry": { "type": "Polygon", "coordinates": [ [ [ 19.61929515, 49.1271938 ], [ 19.61930558, 49.12721635 ], [ 19.61934281, 49.12729688 ], [ 19.6194376, 49.12749897 ], [ 19.61951678, 49.12767277 ], [ 19.61962332, 49.12790323 ], [ 19.61962581, 49.12792281 ], [ 19.61961793, 49.12793922 ], [ 19.61957851, 49.12797622 ], [ 19.6198123, 49.12793764 ], [ 19.61975005, 49.12791287 ], [ 19.61973023, 49.12790261 ], [ 19.61971517, 49.12788499 ], [ 19.61966738, 49.12778181 ], [ 19.61957038, 49.12757197 ], [ 19.61948256, 49.12738218 ], [ 19.61939844, 49.12720032 ], [ 19.61934911, 49.12709346 ], [ 19.61932174, 49.12703437 ], [ 19.6192429, 49.12686392 ], [ 19.61917538, 49.12671804 ], [ 19.61917233, 49.1266905 ], [ 19.61918366, 49.12666874 ], [ 19.61920811, 49.12665019 ], [ 19.61924377, 49.12663871 ], [ 19.61896443, 49.12668489 ], [ 19.61899946, 49.12668348 ], [ 19.61903506, 49.12669112 ], [ 19.61906232, 49.1267064 ], [ 19.61907961, 49.12672763 ], [ 19.6191626, 49.1269071 ], [ 19.61925087, 49.12709781 ], [ 19.61929515, 49.1271938 ] ] ] } }
]
}
