{
"type": "FeatureCollection",
"name": "gis",
"crs": { "type": "name", "properties": { "name": "urn:ogc:def:crs:OGC:1.3:CRS84" } },
"features": [
{ "type": "Feature", "properties": { "@featureType": "CadastralZoning", "beginLifespanVersion": { "@nilReason": "http://inspire.ec.europa.eu/codelist/VoidReasonValue/Unpopulated", "@nil": "true" }, "endLifespanVersion": { "@nilReason": "http://inspire.ec.europa.eu/codelist/VoidReasonValue/Unpopulated", "@nil": "true" }, "estimatedAccuracy": { "value": -1, "@uom": "m" }, "inspireId": { "@dataType": "Identifier", "localId": "863041", "namespace": "SK.ESKN.CP", "versionId": "20260703T04:07:40" }, "label": "Terchová", "level": { "@href": "http://inspire.ec.europa.eu/codelist/CadastralZoningLevelValue/3rdOrder" }, "levelName": { "value": "Katastrálne územie", "@locale": "sk" }, "name": { "@dataType": "name", "GeographicalName": { "@dataType": "GeographicalName", "language": "SLK", "nativeness": { "@href": "http://inspire.ec.europa.eu/codelist/NativenessValue/endonym", "@title": "endonym" }, "nameStatus": { "@href": "http://inspire.ec.europa.eu/codelist/NameStatusValue/official", "@title": "official" }, "sourceOfName": { "@nilReason": "http://inspire.ec.europa.eu/codelist/VoidReasonValue/Unpopulated", "@nil": "true" }, "pronunciation": { "@dataType": "pronunciation", "@nilReason": "http://inspire.ec.europa.eu/codelist/VoidReasonValue/Unpopulated", "@nil": "true" }, "spelling": { "@dataType": "SpellingOfName", "text": "Terchová", "script": "LATN" } } }, "nationalCadastalZoningReference": "863041", "validFrom": "2026-06-30T16:00:00Z", "validTo": { "@nilReason": "http://inspire.ec.europa.eu/codelist/VoidReasonValue/Unpopulated", "@nil": "true" } }, "geometry": { "type": "MultiPolygon", "coordinates": [ [ [ [ 19.09808563, 49.31174309 ], [ 19.09836192, 49.31171985 ], [ 19.09870541, 49.31173364 ], [ 19.09927051, 49.31184143 ], [ 19.09964901, 49.31189498 ], [ 19.10053245, 49.31186428 ], [ 19.10144896, 49.3118663 ], [ 19.10178483, 49.31179025 ], [ 19.10348767, 49.31104712 ], [ 19.10353792, 49.31105634 ], [ 19.10392955, 49.31119024 ], [ 19.10422358, 49.31118553 ], [ 19.10465359, 49.31111463 ], [ 19.10475449, 49.31102724 ], [ 19.10475672, 49.31091517 ], [ 19.10473601, 49.31077466 ], [ 19.10478722, 49.31070567 ], [ 19.10516054, 49.31060349 ], [ 19.10533963, 49.3105908 ], [ 19.10535505, 49.31059589 ], [ 19.105463, 49.31063111 ], [ 19.10572961, 49.31079936 ], [ 19.10609438, 49.31089695 ], [ 19.1063799, 49.31097 ], [ 19.10662543, 49.31101539 ], [ 19.10725178, 49.31097854 ], [ 19.1072668, 49.3109799 ], [ 19.10765116, 49.31101604 ], [ 19.1078976, 49.31109322 ], [ 19.10826588, 49.3111686 ], [ 19.10870578, 49.31115101 ], [ 19.10891291, 49.31117405 ], [ 19.10890135, 49.31115338 ], [ 19.10801541, 49.30973513 ], [ 19.10988687, 49.30940874 ], [ 19.1118372, 49.30964832 ], [ 19.11195391, 49.30930353 ], [ 19.11324815, 49.3093556 ], [ 19.11367502, 49.30876846 ], [ 19.11338355, 49.30766059 ], [ 19.11361753, 49.30758872 ], [ 19.11363253, 49.30758414 ], [ 19.1139649, 49.30767074 ], [ 19.11415736, 49.30764715 ], [ 19.11451581, 49.30758534 ], [ 19.11470186, 49.30760327 ], [ 19.11509578, 49.30771957 ], [ 19.11547601, 49.30786883 ], [ 19.11592436, 49.307906 ], [ 19.1163821, 49.30801414 ], [ 19.11670435, 49.30811935 ], [ 19.11691932, 49.30822806 ], [ 19.11711016, 49.30832955 ], [ 19.11743908, 49.30845122 ], [ 19.11795859, 49.30862225 ], [ 19.11835093, 49.30875135 ], [ 19.11851555, 49.30883974 ], [ 19.11943725, 49.30986433 ], [ 19.11957333, 49.3100203 ], [ 19.11984144, 49.31020356 ], [ 19.12006824, 49.31035847 ], [ 19.12016118, 49.31047077 ], [ 19.12027483, 49.31060815 ], [ 19.12046129, 49.31081925 ], [ 19.12097261, 49.31116605 ], [ 19.12114436, 49.31134902 ], [ 19.12144515, 49.3116712 ], [ 19.12147435, 49.31165946 ], [ 19.12148056, 49.31165697 ], [ 19.12160982, 49.31160476 ], [ 19.12211945, 49.31021677 ], [ 19.12242272, 49.30940094 ], [ 19.12255788, 49.30905813 ], [ 19.12295263, 49.30779392 ], [ 19.12149872, 49.30702045 ], [ 19.12058374, 49.30648367 ], [ 19.11911144, 49.3061008 ], [ 19.11729301, 49.30591585 ], [ 19.1165349, 49.30553802 ], [ 19.11557192, 49.30519597 ], [ 19.1148313, 49.30497759 ], [ 19.11466366, 49.30428552 ], [ 19.11463069, 49.303806 ], [ 19.11461427, 49.30356868 ], [ 19.11477602, 49.30305522 ], [ 19.11467497, 49.30289833 ], [ 19.11435324, 49.30180684 ], [ 19.11430891, 49.30104705 ], [ 19.11430532, 49.30082776 ], [ 19.11430243, 49.30064691 ], [ 19.11426352, 49.30064113 ], [ 19.11256046, 49.30026923 ], [ 19.11200897, 49.29991112 ], [ 19.11163035, 49.29976409 ], [ 19.11147418, 49.29963471 ], [ 19.11101529, 49.29933496 ], [ 19.1106276, 49.29903482 ], [ 19.11061947, 49.29903001 ], [ 19.11022111, 49.29879418 ], [ 19.10988182, 49.29833509 ], [ 19.10981725, 49.29811389 ], [ 19.10954644, 49.29714958 ], [ 19.1094728, 49.29688961 ], [ 19.1089061, 49.29569799 ], [ 19.10818412, 49.29522438 ], [ 19.10798118, 49.29502932 ], [ 19.10772894, 49.29478684 ], [ 19.10731505, 49.29427421 ], [ 19.10709441, 49.29399415 ], [ 19.10696949, 49.29383545 ], [ 19.10673112, 49.29313016 ], [ 19.10645946, 49.29265174 ], [ 19.1064277, 49.29259562 ], [ 19.10629324, 49.29235891 ], [ 19.1061002, 49.29217875 ], [ 19.10578311, 49.29170108 ], [ 19.10551859, 49.29096438 ], [ 19.10548064, 49.2908829 ], [ 19.10502077, 49.2903617 ], [ 19.10463303, 49.2901242 ], [ 19.10419521, 49.28978848 ], [ 19.1040001, 49.28967692 ], [ 19.10297587, 49.2889586 ], [ 19.102105, 49.28843707 ], [ 19.10195565, 49.28833533 ], [ 19.10188533, 49.28792664 ], [ 19.10197241, 49.28768889 ], [ 19.10216525, 49.28750501 ], [ 19.10308682, 49.28639095 ], [ 19.10367352, 49.28544657 ], [ 19.10365886, 49.28431147 ], [ 19.10337353, 49.28339853 ], [ 19.10317596, 49.28276755 ], [ 19.10311542, 49.28257413 ], [ 19.102195, 49.28121118 ], [ 19.10156522, 49.28061616 ], [ 19.10068361, 49.27909811 ], [ 19.1004758, 49.27838734 ], [ 19.1003791, 49.27761387 ], [ 19.10034255, 49.27732198 ], [ 19.10034104, 49.27730991 ], [ 19.10022255, 49.27641516 ], [ 19.10031064, 49.27594129 ], [ 19.1017541, 49.2752865 ], [ 19.10259819, 49.27453276 ], [ 19.1027422, 49.27440412 ], [ 19.10312154, 49.27360241 ], [ 19.10358259, 49.27258307 ], [ 19.1040206, 49.27175855 ], [ 19.104132, 49.27154886 ], [ 19.10440312, 49.27043796 ], [ 19.10451711, 49.26997095 ], [ 19.10459529, 49.26965052 ], [ 19.10461947, 49.26952248 ], [ 19.10465508, 49.26933423 ], [ 19.10467623, 49.26922301 ], [ 19.10462104, 49.26869071 ], [ 19.10462081, 49.2686686 ], [ 19.10461835, 49.26839778 ], [ 19.10464935, 49.26828712 ], [ 19.10473544, 49.2682248 ], [ 19.10479267, 49.26813662 ], [ 19.10476014, 49.26789489 ], [ 19.1047219, 49.26761041 ], [ 19.1047188, 49.2675869 ], [ 19.10470799, 49.26731558 ], [ 19.10468454, 49.2670403 ], [ 19.10433133, 49.26678681 ], [ 19.10430414, 49.26657916 ], [ 19.10427367, 49.26634592 ], [ 19.10424302, 49.26612628 ], [ 19.10421542, 49.26592817 ], [ 19.10420159, 49.26582875 ], [ 19.10418742, 49.26572273 ], [ 19.10418481, 49.2657034 ], [ 19.10417289, 49.26561381 ], [ 19.10416616, 49.26556424 ], [ 19.10415214, 49.26545931 ], [ 19.10414979, 49.26544134 ], [ 19.10413414, 49.26533138 ], [ 19.10412062, 49.26523648 ], [ 19.10409692, 49.26507048 ], [ 19.10408826, 49.26501009 ], [ 19.10411996, 49.2648092 ], [ 19.10413168, 49.26473448 ], [ 19.1041584, 49.264565 ], [ 19.10417874, 49.26443552 ], [ 19.10426067, 49.26436623 ], [ 19.10454126, 49.26428757 ], [ 19.10461529, 49.26426676 ], [ 19.10463124, 49.26422976 ], [ 19.10464376, 49.26420098 ], [ 19.10467203, 49.26413582 ], [ 19.10467539, 49.26412813 ], [ 19.10468328, 49.26410977 ], [ 19.10465308, 49.26403903 ], [ 19.10457303, 49.26384655 ], [ 19.10453414, 49.26375302 ], [ 19.10450238, 49.26367662 ], [ 19.10446717, 49.26359184 ], [ 19.10446123, 49.26357758 ], [ 19.10443532, 49.26351625 ], [ 19.10441245, 49.2634621 ], [ 19.10438546, 49.2633982 ], [ 19.10437265, 49.26336808 ], [ 19.10436238, 49.2633435 ], [ 19.10433048, 49.26326827 ], [ 19.10429733, 49.26318963 ], [ 19.10427392, 49.2631342 ], [ 19.10418698, 49.26292848 ], [ 19.10411261, 49.26275251 ], [ 19.10404821, 49.2626003 ], [ 19.10392411, 49.26230637 ], [ 19.10390806, 49.26226852 ], [ 19.1039184, 49.26220347 ], [ 19.10394658, 49.26202604 ], [ 19.1039719, 49.26186749 ], [ 19.10402513, 49.26153267 ], [ 19.10423639, 49.26113888 ], [ 19.10433065, 49.26096306 ], [ 19.10454758, 49.26076035 ], [ 19.10559669, 49.25978023 ], [ 19.10702386, 49.25896931 ], [ 19.10846765, 49.25826912 ], [ 19.10864665, 49.25741521 ], [ 19.10859798, 49.25650062 ], [ 19.10853211, 49.25622263 ], [ 19.10836421, 49.25551447 ], [ 19.10851851, 49.25498956 ], [ 19.10871323, 49.25431964 ], [ 19.1080465, 49.25406061 ], [ 19.10787467, 49.25279588 ], [ 19.10711686, 49.2514144 ], [ 19.10715564, 49.25095281 ], [ 19.10739464, 49.24811096 ], [ 19.10755369, 49.24762272 ], [ 19.10682856, 49.24744034 ], [ 19.10631382, 49.2472755 ], [ 19.10627605, 49.24687147 ], [ 19.10619822, 49.2460412 ], [ 19.10649936, 49.24533792 ], [ 19.1071053, 49.24352854 ], [ 19.10732418, 49.24269055 ], [ 19.10737991, 49.24249003 ], [ 19.10727883, 49.24222997 ], [ 19.10701256, 49.24166711 ], [ 19.10641458, 49.24060068 ], [ 19.10582434, 49.23935499 ], [ 19.10527819, 49.23814545 ], [ 19.10461989, 49.23781611 ], [ 19.10416199, 49.23687421 ], [ 19.10410257, 49.23616748 ], [ 19.10257833, 49.23358253 ], [ 19.1000184, 49.23173173 ], [ 19.09872176, 49.23157974 ], [ 19.10224259, 49.22867755 ], [ 19.10352612, 49.22761789 ], [ 19.10381808, 49.22658043 ], [ 19.10399053, 49.22532031 ], [ 19.10408983, 49.22480884 ], [ 19.10412151, 49.22357211 ], [ 19.10412009, 49.22312856 ], [ 19.10370768, 49.22201186 ], [ 19.10323396, 49.22071523 ], [ 19.10303522, 49.22011707 ], [ 19.10233152, 49.21935308 ], [ 19.10154597, 49.21830253 ], [ 19.10124747, 49.21772833 ], [ 19.10102701, 49.2172071 ], [ 19.10106008, 49.21674152 ], [ 19.10073644, 49.21640018 ], [ 19.09983112, 49.21572914 ], [ 19.09908601, 49.21512567 ], [ 19.09756246, 49.21389183 ], [ 19.09661279, 49.21311245 ], [ 19.09498145, 49.21229655 ], [ 19.09396556, 49.21179758 ], [ 19.0940984, 49.21271373 ], [ 19.09381619, 49.21342612 ], [ 19.09344317, 49.21378985 ], [ 19.09190631, 49.21444771 ], [ 19.09047227, 49.21477643 ], [ 19.08926219, 49.21510263 ], [ 19.08765993, 49.21580285 ], [ 19.08619945, 49.21650039 ], [ 19.08327231, 49.21809197 ], [ 19.08181641, 49.21777068 ], [ 19.0798018, 49.21721666 ], [ 19.07802554, 49.21642539 ], [ 19.0765435, 49.21544254 ], [ 19.07586079, 49.21470708 ], [ 19.07517167, 49.21417348 ], [ 19.07404761, 49.2137102 ], [ 19.07316888, 49.21328752 ], [ 19.07281207, 49.21311065 ], [ 19.07214651, 49.21291825 ], [ 19.07068337, 49.21281829 ], [ 19.07020545, 49.2126485 ], [ 19.0693328, 49.21253567 ], [ 19.06747412, 49.21258828 ], [ 19.06573751, 49.21237464 ], [ 19.0642681, 49.21145961 ], [ 19.06334734, 49.21102394 ], [ 19.06343651, 49.21063481 ], [ 19.06316138, 49.20978416 ], [ 19.0633509, 49.20909509 ], [ 19.06355156, 49.2086295 ], [ 19.06391489, 49.20842554 ], [ 19.06439191, 49.20794558 ], [ 19.06514259, 49.20728598 ], [ 19.06564162, 49.206751 ], [ 19.06595193, 49.20606079 ], [ 19.06608582, 49.20573356 ], [ 19.06603912, 49.20548777 ], [ 19.06601961, 49.20538472 ], [ 19.06583706, 49.2051295 ], [ 19.06553231, 49.20488844 ], [ 19.06524873, 49.20367864 ], [ 19.06524236, 49.20285579 ], [ 19.06545359, 49.20151057 ], [ 19.065174, 49.20078604 ], [ 19.0650148, 49.199989 ], [ 19.06422212, 49.19839437 ], [ 19.06383596, 49.19745327 ], [ 19.06330843, 49.19657965 ], [ 19.06313066, 49.19607424 ], [ 19.06196198, 49.19457324 ], [ 19.06159403, 49.19388671 ], [ 19.0614006, 49.19221123 ], [ 19.06070385, 49.1917096 ], [ 19.06074368, 49.19138666 ], [ 19.06046312, 49.19116229 ], [ 19.05938282, 49.19093853 ], [ 19.05826314, 49.19055996 ], [ 19.05612527, 49.19007077 ], [ 19.05539245, 49.19000767 ], [ 19.0549744, 49.18981137 ], [ 19.05397221, 49.18909228 ], [ 19.05318792, 49.18904619 ], [ 19.05259408, 49.18909403 ], [ 19.05210326, 49.18818123 ], [ 19.05161531, 49.18789704 ], [ 19.05132596, 49.18816053 ], [ 19.05019018, 49.18862788 ], [ 19.04917488, 49.18904772 ], [ 19.04766371, 49.18896831 ], [ 19.04513907, 49.18919975 ], [ 19.04427294, 49.18953073 ], [ 19.04198796, 49.1900487 ], [ 19.04089075, 49.19067507 ], [ 19.0399871, 49.19104564 ], [ 19.03949671, 49.19124672 ], [ 19.03794054, 49.19162579 ], [ 19.03649985, 49.19197703 ], [ 19.03519992, 49.19095889 ], [ 19.03392144, 49.18993765 ], [ 19.03222953, 49.18859948 ], [ 19.03137126, 49.18790339 ], [ 19.03083713, 49.18749019 ], [ 19.03085285, 49.18774881 ], [ 19.03059176, 49.18795505 ], [ 19.03043626, 49.18838398 ], [ 19.02947554, 49.18892974 ], [ 19.02876288, 49.18993371 ], [ 19.02832856, 49.19029527 ], [ 19.02806862, 49.19034888 ], [ 19.02631585, 49.19082569 ], [ 19.02543013, 49.19114979 ], [ 19.02465104, 49.19098147 ], [ 19.02453157, 49.19095567 ], [ 19.02357396, 49.19074878 ], [ 19.02104837, 49.1911971 ], [ 19.02044565, 49.19118445 ], [ 19.02016371, 49.19107182 ], [ 19.01998014, 49.19099846 ], [ 19.01912648, 49.190886 ], [ 19.01836224, 49.19061953 ], [ 19.01831556, 49.19060323 ], [ 19.01813561, 49.19075352 ], [ 19.01780146, 49.19103256 ], [ 19.01775469, 49.19107162 ], [ 19.01757732, 49.19121979 ], [ 19.01703164, 49.19167207 ], [ 19.01698018, 49.19171478 ], [ 19.01686431, 49.19181082 ], [ 19.01590336, 49.19275463 ], [ 19.01526131, 49.19300685 ], [ 19.01369217, 49.19318493 ], [ 19.01213296, 49.19400316 ], [ 19.01042649, 49.19373587 ], [ 19.00934411, 49.19353796 ], [ 19.00812315, 49.19376979 ], [ 19.00766868, 49.19471224 ], [ 19.0074647, 49.19510653 ], [ 19.00738628, 49.19563038 ], [ 19.00730298, 49.19630504 ], [ 19.0071439, 49.19736244 ], [ 19.00715398, 49.19762358 ], [ 19.0071542, 49.19762639 ], [ 19.00718736, 49.19801088 ], [ 19.00726773, 49.19826994 ], [ 19.00743309, 49.19851178 ], [ 19.00785976, 49.19899638 ], [ 19.00798832, 49.19938185 ], [ 19.00841045, 49.20011143 ], [ 19.00843705, 49.20028501 ], [ 19.00858746, 49.20068032 ], [ 19.00865951, 49.20080035 ], [ 19.00878468, 49.2010979 ], [ 19.00872058, 49.20116269 ], [ 19.00872385, 49.20120443 ], [ 19.00878099, 49.20128701 ], [ 19.00885945, 49.20139338 ], [ 19.00895317, 49.20157563 ], [ 19.00894609, 49.20163183 ], [ 19.00903727, 49.20174361 ], [ 19.00908366, 49.20190564 ], [ 19.00914203, 49.20209362 ], [ 19.00917943, 49.20211289 ], [ 19.00920467, 49.20216682 ], [ 19.00935625, 49.20238885 ], [ 19.00940573, 49.20265214 ], [ 19.00939086, 49.20280128 ], [ 19.00938968, 49.2029108 ], [ 19.0093215, 49.20323666 ], [ 19.00930296, 49.20331329 ], [ 19.00926782, 49.20350173 ], [ 19.00925077, 49.20360342 ], [ 19.00941508, 49.20388281 ], [ 19.00945953, 49.20407108 ], [ 19.00937504, 49.20423181 ], [ 19.00932833, 49.20436358 ], [ 19.00926696, 49.20448064 ], [ 19.00921011, 49.20459667 ], [ 19.00923027, 49.20466117 ], [ 19.0091736, 49.20474374 ], [ 19.00912124, 49.20487433 ], [ 19.00909089, 49.2049152 ], [ 19.0090654, 49.20501367 ], [ 19.00902834, 49.2050956 ], [ 19.0089653, 49.20516776 ], [ 19.00878214, 49.20530471 ], [ 19.00876223, 49.20539543 ], [ 19.00865869, 49.20560039 ], [ 19.00859433, 49.20572181 ], [ 19.00858928, 49.20577702 ], [ 19.00856961, 49.20586685 ], [ 19.00843225, 49.20616852 ], [ 19.00813466, 49.20651286 ], [ 19.0080039, 49.20676371 ], [ 19.00771821, 49.20723409 ], [ 19.00754732, 49.20750793 ], [ 19.00710678, 49.20791673 ], [ 19.0068815, 49.20824637 ], [ 19.00685332, 49.20828744 ], [ 19.00655789, 49.20856687 ], [ 19.00586936, 49.20889582 ], [ 19.00558602, 49.20904534 ], [ 19.0054716, 49.20909175 ], [ 19.00532802, 49.20939454 ], [ 19.0053262, 49.20963489 ], [ 19.00545842, 49.20978795 ], [ 19.00557374, 49.20996083 ], [ 19.00579579, 49.21019486 ], [ 19.00573069, 49.21044548 ], [ 19.00561105, 49.21060292 ], [ 19.0054841, 49.21069072 ], [ 19.00534996, 49.2107835 ], [ 19.00530175, 49.21081689 ], [ 19.00505608, 49.21098679 ], [ 19.00482607, 49.21126695 ], [ 19.00478211, 49.21132058 ], [ 19.00467849, 49.2114468 ], [ 19.004699, 49.2115225 ], [ 19.00487306, 49.21216519 ], [ 19.00276313, 49.21389247 ], [ 19.00232069, 49.21428007 ], [ 19.00194969, 49.21460503 ], [ 19.00154832, 49.21495671 ], [ 19.00151375, 49.21501468 ], [ 19.00149936, 49.21503894 ], [ 19.00143983, 49.21513878 ], [ 19.00129645, 49.21537926 ], [ 19.00126495, 49.21543215 ], [ 19.0012364, 49.21547988 ], [ 19.00122697, 49.21549582 ], [ 19.00119735, 49.21554565 ], [ 19.00109318, 49.21568709 ], [ 19.00092919, 49.21590949 ], [ 19.00089452, 49.21595655 ], [ 19.00078662, 49.21610275 ], [ 19.00073592, 49.21617164 ], [ 19.00043606, 49.21680391 ], [ 19.00041837, 49.21684108 ], [ 19.00029461, 49.21710211 ], [ 19.00028003, 49.21713276 ], [ 19.00010481, 49.21750224 ], [ 19.00009858, 49.21751554 ], [ 19.00001847, 49.21768433 ], [ 18.99984346, 49.21792206 ], [ 18.99980503, 49.21797416 ], [ 18.99972569, 49.21808202 ], [ 18.99971065, 49.21810237 ], [ 18.99968071, 49.21814308 ], [ 18.99964491, 49.21819161 ], [ 18.99921929, 49.21876978 ], [ 18.99818944, 49.21970544 ], [ 18.99767381, 49.22029254 ], [ 18.99765188, 49.22031769 ], [ 18.99718037, 49.22085451 ], [ 18.99716656, 49.22087024 ], [ 18.99604838, 49.22214344 ], [ 18.99578445, 49.22287525 ], [ 18.99557327, 49.2237072 ], [ 18.99559787, 49.22384461 ], [ 18.99490628, 49.22525486 ], [ 18.99479759, 49.22561052 ], [ 18.99479174, 49.22562998 ], [ 18.99467637, 49.22600758 ], [ 18.9942068, 49.22660374 ], [ 18.99409769, 49.22674231 ], [ 18.9940883, 49.22675429 ], [ 18.99397192, 49.22690205 ], [ 18.99403634, 49.22691645 ], [ 18.99399702, 49.22692765 ], [ 18.99404685, 49.2269609 ], [ 18.9941394, 49.22699971 ], [ 18.99414903, 49.22710012 ], [ 18.99435054, 49.22721527 ], [ 18.99446122, 49.22723794 ], [ 18.9945403, 49.22724704 ], [ 18.99472795, 49.22725806 ], [ 18.99486402, 49.22724016 ], [ 18.99525313, 49.22746354 ], [ 18.99535257, 49.22753534 ], [ 18.99580325, 49.2275201 ], [ 18.99605867, 49.22760882 ], [ 18.99688644, 49.22770407 ], [ 18.99713236, 49.22789314 ], [ 18.99738058, 49.22793847 ], [ 18.99793158, 49.22821909 ], [ 18.99817823, 49.22837473 ], [ 18.99828733, 49.22845477 ], [ 18.99868028, 49.22854026 ], [ 18.99922059, 49.22855708 ], [ 18.99934819, 49.22858475 ], [ 18.99953719, 49.22860773 ], [ 18.99977039, 49.22860009 ], [ 19.00007994, 49.22861078 ], [ 19.00032309, 49.22867958 ], [ 19.00051038, 49.22876929 ], [ 19.00055429, 49.22880486 ], [ 19.00065512, 49.2289606 ], [ 19.00076308, 49.22924412 ], [ 19.00091772, 49.22947696 ], [ 19.00092306, 49.22955045 ], [ 19.00097022, 49.22970946 ], [ 19.00118919, 49.22983458 ], [ 19.00153472, 49.22995132 ], [ 19.00199966, 49.23002777 ], [ 19.00254966, 49.23010937 ], [ 19.00278527, 49.23016263 ], [ 19.00348008, 49.23034877 ], [ 19.0038614, 49.23031082 ], [ 19.00416921, 49.23015918 ], [ 19.00466678, 49.23009034 ], [ 19.00562127, 49.23030873 ], [ 19.00665237, 49.23049019 ], [ 19.0074808, 49.2306772 ], [ 19.0082367, 49.23094202 ], [ 19.00856351, 49.23094418 ], [ 19.00858086, 49.23094424 ], [ 19.00878932, 49.23094562 ], [ 19.00966305, 49.23078028 ], [ 19.00977133, 49.2307598 ], [ 19.01032446, 49.23064654 ], [ 19.0105202, 49.23130762 ], [ 19.010564, 49.23145554 ], [ 19.01058, 49.23150973 ], [ 19.01114098, 49.23294359 ], [ 19.01148681, 49.23374716 ], [ 19.01158189, 49.23396798 ], [ 19.01163407, 49.2340853 ], [ 19.01180707, 49.23444853 ], [ 19.01301044, 49.23478137 ], [ 19.01344648, 49.2349943 ], [ 19.01447396, 49.23533575 ], [ 19.01485137, 49.23591209 ], [ 19.01481342, 49.23594825 ], [ 19.01458655, 49.23703239 ], [ 19.01367771, 49.23820707 ], [ 19.01341874, 49.23878765 ], [ 19.01300403, 49.23988299 ], [ 19.01245951, 49.24007651 ], [ 19.01226582, 49.24110206 ], [ 19.01210977, 49.24172357 ], [ 19.01206555, 49.2420196 ], [ 19.01191574, 49.24232462 ], [ 19.01163056, 49.24272758 ], [ 19.011493, 49.24293436 ], [ 19.01154059, 49.24324273 ], [ 19.01149067, 49.24359249 ], [ 19.01176397, 49.24437124 ], [ 19.01161993, 49.24464795 ], [ 19.01102959, 49.24503578 ], [ 19.01090796, 49.24558624 ], [ 19.01115922, 49.2461212 ], [ 19.01247966, 49.24705444 ], [ 19.01229348, 49.24737947 ], [ 19.01226181, 49.24746347 ], [ 19.01192369, 49.24836025 ], [ 19.01182664, 49.24861775 ], [ 19.01188017, 49.24876859 ], [ 19.0119062, 49.24884204 ], [ 19.01192105, 49.24888372 ], [ 19.01192228, 49.2488873 ], [ 19.01195568, 49.24898149 ], [ 19.01195672, 49.24898443 ], [ 19.01196855, 49.24901767 ], [ 19.01195175, 49.24906851 ], [ 19.01192641, 49.24914543 ], [ 19.01190187, 49.24922014 ], [ 19.01190009, 49.24922366 ], [ 19.01187186, 49.24928033 ], [ 19.01180525, 49.24941354 ], [ 19.01176737, 49.24946802 ], [ 19.01175479, 49.24948615 ], [ 19.01168908, 49.24958081 ], [ 19.01167965, 49.24959441 ], [ 19.01165696, 49.24962719 ], [ 19.01171499, 49.24974055 ], [ 19.01183441, 49.24997395 ], [ 19.01181416, 49.24999756 ], [ 19.01179522, 49.25001943 ], [ 19.01172083, 49.25010591 ], [ 19.01167606, 49.25015796 ], [ 19.0115961, 49.25025083 ], [ 19.01154048, 49.2503322 ], [ 19.01145794, 49.25045308 ], [ 19.01134935, 49.25061197 ], [ 19.01132177, 49.25065244 ], [ 19.01141567, 49.25067543 ], [ 19.01145304, 49.2506846 ], [ 19.01146067, 49.25068652 ], [ 19.01142908, 49.25077684 ], [ 19.01152943, 49.25079528 ], [ 19.01151994, 49.2508224 ], [ 19.0115117, 49.2508458 ], [ 19.01147224, 49.25095881 ], [ 19.01146049, 49.25099232 ], [ 19.01145571, 49.25100615 ], [ 19.0114784, 49.25101828 ], [ 19.01138528, 49.25121709 ], [ 19.01135246, 49.25134171 ], [ 19.01136588, 49.25153294 ], [ 19.01117228, 49.25240806 ], [ 19.01113916, 49.2524571 ], [ 19.01108691, 49.2525343 ], [ 19.01101823, 49.25256451 ], [ 19.0107997, 49.25266066 ], [ 19.01056722, 49.25276297 ], [ 19.01058854, 49.25278576 ], [ 19.01083495, 49.25284432 ], [ 19.01102846, 49.2529548 ], [ 19.01102356, 49.25298512 ], [ 19.01102299, 49.25298879 ], [ 19.01102221, 49.25299317 ], [ 19.01101317, 49.25304836 ], [ 19.0109902, 49.25319007 ], [ 19.01097899, 49.25325913 ], [ 19.0109763, 49.25327514 ], [ 19.01097534, 49.25328104 ], [ 19.01096847, 49.25332345 ], [ 19.01093442, 49.25353314 ], [ 19.01091533, 49.25364978 ], [ 19.01090116, 49.25373728 ], [ 19.01088463, 49.25383899 ], [ 19.01087971, 49.25386941 ], [ 19.01084598, 49.25407641 ], [ 19.01079966, 49.25417014 ], [ 19.0107515, 49.25426784 ], [ 19.0107124, 49.25434688 ], [ 19.01069544, 49.25438138 ], [ 19.01063343, 49.25450689 ], [ 19.0105862, 49.25460256 ], [ 19.01055879, 49.2546581 ], [ 19.01050001, 49.25477728 ], [ 19.01033578, 49.25492763 ], [ 19.01014997, 49.25509764 ], [ 19.01014506, 49.25514574 ], [ 19.0101402, 49.25519221 ], [ 19.01007171, 49.25524317 ], [ 19.00987487, 49.25538955 ], [ 19.00979839, 49.25544652 ], [ 19.0098022, 49.25546114 ], [ 19.00982039, 49.25553095 ], [ 19.00984396, 49.25562194 ], [ 19.00959116, 49.25586202 ], [ 19.00936535, 49.25597079 ], [ 19.00911008, 49.25615872 ], [ 19.00899102, 49.25624639 ], [ 19.00890621, 49.25636065 ], [ 19.00848225, 49.25661871 ], [ 19.00819211, 49.25672381 ], [ 19.00807354, 49.25683685 ], [ 19.00860206, 49.25768289 ], [ 19.00884025, 49.25780156 ], [ 19.00930587, 49.25780107 ], [ 19.00945921, 49.25786625 ], [ 19.00991196, 49.25790651 ], [ 19.01053429, 49.25786189 ], [ 19.01078632, 49.2578392 ], [ 19.01128738, 49.25790477 ], [ 19.01167343, 49.25802088 ], [ 19.01162136, 49.25811667 ], [ 19.01188916, 49.25829353 ], [ 19.01238927, 49.25847746 ], [ 19.01282486, 49.25866637 ], [ 19.01286838, 49.25868433 ], [ 19.0134179, 49.25891139 ], [ 19.01364548, 49.25900534 ], [ 19.01429768, 49.25931624 ], [ 19.01480837, 49.25959889 ], [ 19.0153249, 49.25990474 ], [ 19.01616978, 49.26030072 ], [ 19.01707304, 49.26064152 ], [ 19.01707779, 49.26064211 ], [ 19.01734015, 49.26067529 ], [ 19.01780722, 49.26089958 ], [ 19.0178113, 49.26090122 ], [ 19.01824308, 49.26107586 ], [ 19.01882657, 49.26143904 ], [ 19.0189107, 49.26150239 ], [ 19.01897329, 49.26154952 ], [ 19.01904563, 49.26160398 ], [ 19.01905037, 49.26160593 ], [ 19.01925744, 49.26169155 ], [ 19.01947342, 49.26197429 ], [ 19.01967307, 49.26214872 ], [ 19.01990127, 49.26224224 ], [ 19.01964871, 49.26261195 ], [ 19.01968334, 49.26263649 ], [ 19.01989672, 49.26278753 ], [ 19.01973355, 49.26288257 ], [ 19.02069912, 49.263743 ], [ 19.02136581, 49.26427282 ], [ 19.02179165, 49.26454995 ], [ 19.02185046, 49.26458823 ], [ 19.0224777, 49.26481848 ], [ 19.02255721, 49.26480665 ], [ 19.02279294, 49.26477149 ], [ 19.02323273, 49.2646866 ], [ 19.02406424, 49.26436138 ], [ 19.02440431, 49.26426422 ], [ 19.02595025, 49.2641255 ], [ 19.026215, 49.26412514 ], [ 19.026336, 49.26412503 ], [ 19.02640417, 49.2641029 ], [ 19.02670542, 49.26400533 ], [ 19.02696435, 49.2639696 ], [ 19.02732291, 49.26393152 ], [ 19.02743741, 49.2639364 ], [ 19.02818523, 49.26396844 ], [ 19.02829829, 49.26399048 ], [ 19.02860424, 49.26398891 ], [ 19.02925716, 49.26392091 ], [ 19.03015991, 49.26390031 ], [ 19.03075253, 49.26402662 ], [ 19.03146942, 49.26427426 ], [ 19.0326903, 49.26470673 ], [ 19.03269176, 49.26475478 ], [ 19.03269863, 49.26499022 ], [ 19.03265376, 49.26504201 ], [ 19.03250036, 49.26505414 ], [ 19.03241304, 49.26505611 ], [ 19.03222855, 49.26506309 ], [ 19.03213572, 49.26507453 ], [ 19.03213984, 49.26516491 ], [ 19.03214354, 49.26519242 ], [ 19.03177132, 49.26521875 ], [ 19.03164201, 49.2652667 ], [ 19.03155838, 49.26525596 ], [ 19.03139828, 49.26558123 ], [ 19.03189348, 49.26576698 ], [ 19.03234618, 49.26578226 ], [ 19.03265771, 49.26576356 ], [ 19.03292428, 49.26574758 ], [ 19.03311983, 49.26576893 ], [ 19.03310194, 49.26582332 ], [ 19.03331661, 49.26619904 ], [ 19.0334553, 49.26661562 ], [ 19.03351517, 49.2667957 ], [ 19.0337909, 49.26729727 ], [ 19.03395863, 49.26760248 ], [ 19.03398163, 49.26767396 ], [ 19.03401726, 49.26778503 ], [ 19.03391754, 49.26821358 ], [ 19.03398083, 49.26842359 ], [ 19.03407387, 49.26873239 ], [ 19.03410611, 49.26883941 ], [ 19.03415865, 49.26901382 ], [ 19.03417391, 49.26904028 ], [ 19.03427593, 49.26921822 ], [ 19.03437786, 49.2693957 ], [ 19.03446912, 49.26955472 ], [ 19.03449456, 49.26958132 ], [ 19.03464902, 49.2697432 ], [ 19.03480104, 49.26990234 ], [ 19.03493461, 49.27004235 ], [ 19.03511753, 49.27029393 ], [ 19.03512364, 49.27030189 ], [ 19.03521416, 49.2704578 ], [ 19.03524638, 49.27051387 ], [ 19.03525062, 49.27052129 ], [ 19.03527395, 49.27056141 ], [ 19.03569749, 49.27051706 ], [ 19.03570043, 49.27053452 ], [ 19.03570206, 49.27054425 ], [ 19.03571969, 49.27064892 ], [ 19.0357216, 49.27065984 ], [ 19.03572369, 49.27067266 ], [ 19.03548877, 49.27070789 ], [ 19.03554634, 49.2707938 ], [ 19.03567355, 49.2709839 ], [ 19.03573535, 49.27107616 ], [ 19.03579914, 49.2712724 ], [ 19.03581346, 49.27131649 ], [ 19.03593489, 49.27137942 ], [ 19.03611676, 49.27147376 ], [ 19.03624598, 49.27154078 ], [ 19.0368331, 49.27173441 ], [ 19.03722379, 49.27188799 ], [ 19.0374397, 49.27197283 ], [ 19.03766083, 49.27210303 ], [ 19.03786081, 49.27222071 ], [ 19.03800899, 49.27257959 ], [ 19.03802105, 49.27260878 ], [ 19.03809133, 49.27277892 ], [ 19.03814603, 49.27276711 ], [ 19.03856284, 49.27336494 ], [ 19.03917937, 49.27405204 ], [ 19.03921462, 49.27403323 ], [ 19.03941886, 49.27411073 ], [ 19.03989122, 49.27428999 ], [ 19.03994342, 49.27433551 ], [ 19.04009813, 49.27447051 ], [ 19.04010639, 49.27447769 ], [ 19.04058996, 49.27489937 ], [ 19.04085646, 49.27513181 ], [ 19.04099466, 49.27525238 ], [ 19.04101458, 49.27526004 ], [ 19.04104032, 49.27526989 ], [ 19.04107463, 49.27528304 ], [ 19.04111699, 49.2752993 ], [ 19.04117386, 49.27532115 ], [ 19.04116563, 49.27538621 ], [ 19.04104799, 49.27568437 ], [ 19.0406411, 49.27608668 ], [ 19.04060618, 49.27609902 ], [ 19.04054827, 49.27611941 ], [ 19.04042097, 49.27621293 ], [ 19.04025489, 49.27631164 ], [ 19.04018373, 49.27632029 ], [ 19.03990821, 49.27640834 ], [ 19.03969911, 49.27654758 ], [ 19.03929695, 49.27677698 ], [ 19.03932748, 49.27680374 ], [ 19.0393306, 49.27680651 ], [ 19.0393466, 49.27682065 ], [ 19.0394085, 49.27686692 ], [ 19.03942271, 49.27687754 ], [ 19.03957391, 49.27699055 ], [ 19.03960296, 49.27701228 ], [ 19.03988037, 49.27721966 ], [ 19.04017235, 49.27715614 ], [ 19.04018643, 49.27734035 ], [ 19.04019105, 49.27740154 ], [ 19.04012971, 49.27748489 ], [ 19.04021359, 49.27763532 ], [ 19.04025799, 49.2777149 ], [ 19.03995418, 49.27785305 ], [ 19.03972818, 49.27799307 ], [ 19.03973548, 49.27802878 ], [ 19.03974918, 49.2780961 ], [ 19.03977054, 49.27820087 ], [ 19.03979368, 49.27831402 ], [ 19.03980191, 49.27854511 ], [ 19.03980852, 49.27873075 ], [ 19.0398096, 49.27876183 ], [ 19.03975322, 49.27887131 ], [ 19.03963173, 49.27910732 ], [ 19.03954121, 49.2792831 ], [ 19.03947469, 49.27931353 ], [ 19.03944529, 49.27932695 ], [ 19.03934775, 49.27945855 ], [ 19.03921576, 49.27952343 ], [ 19.03912828, 49.27960746 ], [ 19.03897473, 49.27975495 ], [ 19.03861529, 49.28007449 ], [ 19.03845885, 49.28021363 ], [ 19.03865685, 49.28032012 ], [ 19.03852458, 49.28084409 ], [ 19.03831477, 49.2808371 ], [ 19.03798852, 49.28082615 ], [ 19.03785853, 49.28107004 ], [ 19.03806565, 49.28139161 ], [ 19.03813818, 49.28157449 ], [ 19.03848742, 49.28179264 ], [ 19.03856866, 49.28184339 ], [ 19.03859912, 49.28187673 ], [ 19.03892258, 49.28223167 ], [ 19.03916049, 49.28245657 ], [ 19.03919503, 49.28248921 ], [ 19.03935884, 49.28273262 ], [ 19.03961166, 49.28302282 ], [ 19.0397875, 49.28327313 ], [ 19.0400038, 49.28358109 ], [ 19.04014354, 49.28375395 ], [ 19.0404694, 49.28392892 ], [ 19.04058297, 49.28402076 ], [ 19.04059305, 49.28402893 ], [ 19.04067016, 49.28415098 ], [ 19.04069335, 49.28418766 ], [ 19.04074436, 49.28426846 ], [ 19.04078111, 49.28438202 ], [ 19.04078943, 49.28440777 ], [ 19.04079105, 49.28441281 ], [ 19.0408065, 49.28446029 ], [ 19.04080141, 49.28450657 ], [ 19.04079528, 49.2845619 ], [ 19.04079111, 49.28460029 ], [ 19.04078251, 49.28467805 ], [ 19.04077699, 49.28472927 ], [ 19.04075868, 49.28489565 ], [ 19.04076732, 49.28492096 ], [ 19.04077968, 49.28495711 ], [ 19.04079305, 49.28499637 ], [ 19.04079696, 49.28500783 ], [ 19.04078226, 49.28512163 ], [ 19.04077759, 49.28515837 ], [ 19.04077284, 49.28519574 ], [ 19.04077156, 49.2852056 ], [ 19.04076723, 49.28523947 ], [ 19.04076374, 49.28526599 ], [ 19.04076126, 49.28528499 ], [ 19.04076104, 49.28528696 ], [ 19.04075755, 49.28531465 ], [ 19.0407526, 49.28535264 ], [ 19.04074502, 49.28541206 ], [ 19.04074102, 49.28544306 ], [ 19.04074519, 49.28548204 ], [ 19.04074637, 49.28549328 ], [ 19.04074965, 49.28552321 ], [ 19.04075576, 49.28557879 ], [ 19.04076254, 49.28564162 ], [ 19.0407893, 49.28568903 ], [ 19.0408139, 49.28573254 ], [ 19.0408265, 49.28575472 ], [ 19.04086539, 49.28582356 ], [ 19.04136782, 49.2863321 ], [ 19.04167106, 49.28660974 ], [ 19.04237579, 49.28736431 ], [ 19.04242042, 49.28741215 ], [ 19.04284666, 49.287973 ], [ 19.04306462, 49.28821818 ], [ 19.04328218, 49.28838587 ], [ 19.04329788, 49.28840739 ], [ 19.04337959, 49.28851966 ], [ 19.04326153, 49.28853797 ], [ 19.04310921, 49.28856162 ], [ 19.04298018, 49.2885472 ], [ 19.0428958, 49.28853779 ], [ 19.04256031, 49.28850033 ], [ 19.04219218, 49.28852798 ], [ 19.04187547, 49.28849145 ], [ 19.04158548, 49.28843487 ], [ 19.04132094, 49.28843348 ], [ 19.04117217, 49.28843124 ], [ 19.04117064, 49.2884492 ], [ 19.04114377, 49.28847294 ], [ 19.04111474, 49.28849855 ], [ 19.04108469, 49.28847948 ], [ 19.04100858, 49.28874615 ], [ 19.04103351, 49.28890223 ], [ 19.04107028, 49.289056 ], [ 19.04090249, 49.28920955 ], [ 19.04086831, 49.28938912 ], [ 19.0409813, 49.28952765 ], [ 19.04105207, 49.28972477 ], [ 19.04095839, 49.28986576 ], [ 19.04161439, 49.29043079 ], [ 19.04180109, 49.29054592 ], [ 19.04190805, 49.29075566 ], [ 19.04191259, 49.29104373 ], [ 19.04194453, 49.29128213 ], [ 19.0420559, 49.29142274 ], [ 19.04222381, 49.29141816 ], [ 19.04231873, 49.29145452 ], [ 19.04247611, 49.291536 ], [ 19.042486, 49.29154109 ], [ 19.04253417, 49.29151209 ], [ 19.04261281, 49.29150805 ], [ 19.04285907, 49.29153757 ], [ 19.04358529, 49.29168115 ], [ 19.04366414, 49.2916837 ], [ 19.04390437, 49.29174151 ], [ 19.04436002, 49.2918833 ], [ 19.04454878, 49.29194036 ], [ 19.04478023, 49.29197401 ], [ 19.04481145, 49.29199134 ], [ 19.04498923, 49.29204082 ], [ 19.04522469, 49.2921267 ], [ 19.04529176, 49.29213453 ], [ 19.04572832, 49.29207094 ], [ 19.04582274, 49.29205804 ], [ 19.04596074, 49.29203908 ], [ 19.04617607, 49.29200953 ], [ 19.04621375, 49.29200436 ], [ 19.04630986, 49.29199117 ], [ 19.04631402, 49.29199093 ], [ 19.04641353, 49.29198414 ], [ 19.046468, 49.29198043 ], [ 19.04655791, 49.29197433 ], [ 19.04662462, 49.29196979 ], [ 19.04664712, 49.29196829 ], [ 19.04672605, 49.291963 ], [ 19.04681499, 49.29195695 ], [ 19.04684639, 49.2919548 ], [ 19.04690156, 49.29195104 ], [ 19.04693019, 49.29194913 ], [ 19.04703566, 49.29194199 ], [ 19.04707012, 49.29193964 ], [ 19.04713307, 49.29193537 ], [ 19.047578, 49.29128007 ], [ 19.04773107, 49.29105463 ], [ 19.0478897, 49.29066678 ], [ 19.04795392, 49.29050981 ], [ 19.04801314, 49.29036503 ], [ 19.04807101, 49.29022352 ], [ 19.048151, 49.29002791 ], [ 19.04824425, 49.28979996 ], [ 19.04817434, 49.28955816 ], [ 19.04840022, 49.28915263 ], [ 19.04842493, 49.28910831 ], [ 19.0484826, 49.28912938 ], [ 19.04849053, 49.2891323 ], [ 19.04857241, 49.28916224 ], [ 19.04864449, 49.28918862 ], [ 19.04871287, 49.28921365 ], [ 19.04880373, 49.28924692 ], [ 19.0488372, 49.28925912 ], [ 19.04888481, 49.28927654 ], [ 19.04892674, 49.28929187 ], [ 19.04899195, 49.28931575 ], [ 19.04905794, 49.28933994 ], [ 19.04909206, 49.28935245 ], [ 19.04915423, 49.28937519 ], [ 19.04921071, 49.28939584 ], [ 19.04923517, 49.28940481 ], [ 19.04928001, 49.28942119 ], [ 19.04935223, 49.28944523 ], [ 19.04945789, 49.28948049 ], [ 19.04946705, 49.28948356 ], [ 19.04956488, 49.28951618 ], [ 19.04960564, 49.28952974 ], [ 19.04970095, 49.28956151 ], [ 19.04989157, 49.28962505 ], [ 19.05007705, 49.28965317 ], [ 19.0503825, 49.28980266 ], [ 19.05049984, 49.28984427 ], [ 19.05058341, 49.28986906 ], [ 19.05086423, 49.28989062 ], [ 19.05100451, 49.28989477 ], [ 19.05109176, 49.28988186 ], [ 19.05114675, 49.2898927 ], [ 19.05153016, 49.29008455 ], [ 19.05184614, 49.2902396 ], [ 19.05215604, 49.29037568 ], [ 19.05232293, 49.29044896 ], [ 19.05254808, 49.29054784 ], [ 19.05271307, 49.29061255 ], [ 19.05282623, 49.29065693 ], [ 19.05338964, 49.29087796 ], [ 19.05389085, 49.29046359 ], [ 19.05410968, 49.29023914 ], [ 19.05416286, 49.2901846 ], [ 19.05419905, 49.29013391 ], [ 19.05426305, 49.29004419 ], [ 19.05432377, 49.289959 ], [ 19.05436266, 49.28989807 ], [ 19.0544039, 49.28983347 ], [ 19.05442663, 49.28979789 ], [ 19.05444836, 49.28976379 ], [ 19.05445947, 49.2897464 ], [ 19.054545, 49.2896123 ], [ 19.05456099, 49.2895873 ], [ 19.05459903, 49.28952777 ], [ 19.05468219, 49.28939751 ], [ 19.05497146, 49.28939361 ], [ 19.05579524, 49.2893825 ], [ 19.05643993, 49.28911255 ], [ 19.05653838, 49.28898946 ], [ 19.05654097, 49.28898616 ], [ 19.05696179, 49.28872192 ], [ 19.05701034, 49.28864541 ], [ 19.05709527, 49.28851164 ], [ 19.05711685, 49.28847763 ], [ 19.05713876, 49.28844309 ], [ 19.05743964, 49.28796884 ], [ 19.05748127, 49.28790318 ], [ 19.05749932, 49.2878735 ], [ 19.05749695, 49.28787013 ], [ 19.05737786, 49.28770409 ], [ 19.05731695, 49.2876192 ], [ 19.05724333, 49.28751654 ], [ 19.05709528, 49.28731011 ], [ 19.05706823, 49.28728533 ], [ 19.05694207, 49.2871697 ], [ 19.05684247, 49.28707848 ], [ 19.05679883, 49.28703854 ], [ 19.05671319, 49.28696009 ], [ 19.05665696, 49.28690861 ], [ 19.05658562, 49.28688064 ], [ 19.05652021, 49.28685495 ], [ 19.05640165, 49.28680842 ], [ 19.05621716, 49.28673599 ], [ 19.05621351, 49.28673419 ], [ 19.05606932, 49.28666375 ], [ 19.05594327, 49.28660215 ], [ 19.05588586, 49.28657406 ], [ 19.05566618, 49.2865962 ], [ 19.0554589, 49.28661715 ], [ 19.05524034, 49.28663917 ], [ 19.05521635, 49.28664159 ], [ 19.05503684, 49.28666445 ], [ 19.05483746, 49.28668985 ], [ 19.05480556, 49.28669386 ], [ 19.05476905, 49.28666266 ], [ 19.05469804, 49.28660197 ], [ 19.0546939, 49.28659843 ], [ 19.05463381, 49.28654703 ], [ 19.05456556, 49.28648865 ], [ 19.05402112, 49.28650464 ], [ 19.05386274, 49.28650925 ], [ 19.05375083, 49.28651255 ], [ 19.05369231, 49.28638557 ], [ 19.05363953, 49.28627096 ], [ 19.05362059, 49.28624396 ], [ 19.05361634, 49.2862378 ], [ 19.05381289, 49.28611649 ], [ 19.05385587, 49.28604278 ], [ 19.05394705, 49.28598263 ], [ 19.0540122, 49.28588891 ], [ 19.05408882, 49.28578539 ], [ 19.05423573, 49.28564504 ], [ 19.05424137, 49.28564757 ], [ 19.05427247, 49.28566354 ], [ 19.0545322, 49.28579218 ], [ 19.05461572, 49.2856743 ], [ 19.05492224, 49.28573329 ], [ 19.05500356, 49.28574894 ], [ 19.05510413, 49.28578404 ], [ 19.05524724, 49.28583395 ], [ 19.05539645, 49.28588597 ], [ 19.05554526, 49.28593788 ], [ 19.05572191, 49.28599946 ], [ 19.05590576, 49.28608574 ], [ 19.0562545, 49.28624944 ], [ 19.05645849, 49.28634519 ], [ 19.05652335, 49.28637563 ], [ 19.05682715, 49.28637352 ], [ 19.05705879, 49.2863719 ], [ 19.05714772, 49.28640164 ], [ 19.05741397, 49.28649064 ], [ 19.05751379, 49.28652398 ], [ 19.05756728, 49.28654187 ], [ 19.05776398, 49.28660759 ], [ 19.0580475, 49.28670232 ], [ 19.05817386, 49.28674455 ], [ 19.05834333, 49.2867871 ], [ 19.05842961, 49.28680877 ], [ 19.05857376, 49.28684493 ], [ 19.05869139, 49.28687447 ], [ 19.05886589, 49.28688661 ], [ 19.05908183, 49.28690161 ], [ 19.05922653, 49.28691165 ], [ 19.05928561, 49.28691574 ], [ 19.0593079, 49.28691729 ], [ 19.05934319, 49.2868946 ], [ 19.05964183, 49.28700404 ], [ 19.05959192, 49.28704586 ], [ 19.05964695, 49.28709457 ], [ 19.05971811, 49.2871576 ], [ 19.05981542, 49.28724375 ], [ 19.05985244, 49.28727651 ], [ 19.0598878, 49.28730459 ], [ 19.0599277, 49.28733623 ], [ 19.06004679, 49.28743076 ], [ 19.0600962, 49.28743978 ], [ 19.06012266, 49.28744461 ], [ 19.06016927, 49.28727855 ], [ 19.06034092, 49.2871423 ], [ 19.0605042, 49.28705108 ], [ 19.06056907, 49.28684264 ], [ 19.06059333, 49.28680091 ], [ 19.06066655, 49.28668496 ], [ 19.06082931, 49.28657667 ], [ 19.0608588, 49.28648371 ], [ 19.06086618, 49.28646036 ], [ 19.06083433, 49.28635418 ], [ 19.06094798, 49.2861578 ], [ 19.06101506, 49.28617022 ], [ 19.06105258, 49.28617722 ], [ 19.0612712, 49.28621796 ], [ 19.06135428, 49.28637473 ], [ 19.06148147, 49.28649455 ], [ 19.06158965, 49.28659638 ], [ 19.06156199, 49.28663659 ], [ 19.06162781, 49.28666112 ], [ 19.06168939, 49.28668409 ], [ 19.06175892, 49.28670998 ], [ 19.06186016, 49.28674772 ], [ 19.06220765, 49.28665135 ], [ 19.06261413, 49.28691933 ], [ 19.0625502, 49.28695008 ], [ 19.06252575, 49.28697439 ], [ 19.06244617, 49.28705351 ], [ 19.06228159, 49.28721699 ], [ 19.06224017, 49.28725814 ], [ 19.06236926, 49.28727795 ], [ 19.06262121, 49.28731664 ], [ 19.06261496, 49.2874782 ], [ 19.06261136, 49.28757154 ], [ 19.06258075, 49.28774118 ], [ 19.06253542, 49.28799171 ], [ 19.0625293, 49.28802567 ], [ 19.06216462, 49.28801767 ], [ 19.06205446, 49.28800582 ], [ 19.06184818, 49.28798355 ], [ 19.06156046, 49.28795256 ], [ 19.06147282, 49.28829253 ], [ 19.06143963, 49.28842119 ], [ 19.06143408, 49.28855997 ], [ 19.06144219, 49.28861277 ], [ 19.06144935, 49.28865938 ], [ 19.06146202, 49.28874189 ], [ 19.06147855, 49.28884948 ], [ 19.0614939, 49.28894934 ], [ 19.06150467, 49.28901967 ], [ 19.06151599, 49.28909354 ], [ 19.06153211, 49.28919876 ], [ 19.06154767, 49.28930044 ], [ 19.06155602, 49.28935469 ], [ 19.06156995, 49.28944537 ], [ 19.06116867, 49.28957515 ], [ 19.06098336, 49.28966492 ], [ 19.060872, 49.28978756 ], [ 19.06078968, 49.29006349 ], [ 19.06075589, 49.29008157 ], [ 19.06073584, 49.29006417 ], [ 19.06070789, 49.29003997 ], [ 19.06063696, 49.28997849 ], [ 19.06058921, 49.28993708 ], [ 19.06052217, 49.28987894 ], [ 19.06039811, 49.28977136 ], [ 19.06017017, 49.28969418 ], [ 19.05997872, 49.28962935 ], [ 19.05955366, 49.28972386 ], [ 19.059548, 49.28972511 ], [ 19.05945126, 49.28978093 ], [ 19.05875645, 49.2901817 ], [ 19.05866233, 49.29024937 ], [ 19.05834284, 49.29047904 ], [ 19.05825232, 49.29054409 ], [ 19.05811581, 49.29064222 ], [ 19.0576597, 49.29089679 ], [ 19.05742504, 49.29104002 ], [ 19.05720557, 49.29114487 ], [ 19.05694603, 49.29121112 ], [ 19.05701386, 49.29127318 ], [ 19.05706462, 49.29131952 ], [ 19.05710851, 49.29135965 ], [ 19.05716151, 49.29140808 ], [ 19.0571761, 49.29142143 ], [ 19.05727499, 49.2915118 ], [ 19.05764307, 49.29164687 ], [ 19.0578043, 49.29170597 ], [ 19.05797241, 49.29176767 ], [ 19.05797916, 49.29177368 ], [ 19.05805593, 49.29184186 ], [ 19.05811181, 49.29189161 ], [ 19.05813907, 49.29191586 ], [ 19.05820421, 49.29197373 ], [ 19.05823185, 49.29199827 ], [ 19.05825188, 49.29200269 ], [ 19.05854507, 49.29206768 ], [ 19.05881648, 49.29212781 ], [ 19.05888679, 49.29214336 ], [ 19.05843623, 49.29219946 ], [ 19.05846295, 49.2922116 ], [ 19.05853696, 49.29224529 ], [ 19.05859931, 49.29227362 ], [ 19.05873593, 49.29233574 ], [ 19.0588364, 49.29238147 ], [ 19.05890386, 49.29241213 ], [ 19.05889081, 49.29246063 ], [ 19.05888671, 49.29247584 ], [ 19.0588213, 49.29271862 ], [ 19.05878487, 49.29285379 ], [ 19.05876394, 49.29293112 ], [ 19.05873491, 49.29303917 ], [ 19.05865126, 49.29334921 ], [ 19.05860123, 49.29337171 ], [ 19.05852765, 49.29340469 ], [ 19.05844054, 49.29344385 ], [ 19.05835141, 49.29348381 ], [ 19.05831229, 49.29350136 ], [ 19.0582377, 49.29353482 ], [ 19.05814507, 49.29357642 ], [ 19.05808225, 49.2936046 ], [ 19.05828294, 49.29376142 ], [ 19.05831886, 49.29378944 ], [ 19.05833491, 49.29380204 ], [ 19.05826222, 49.29393119 ], [ 19.05822702, 49.29399366 ], [ 19.0581729, 49.29408973 ], [ 19.05781075, 49.29473247 ], [ 19.05708988, 49.29601189 ], [ 19.05718502, 49.29605961 ], [ 19.05731314, 49.29612383 ], [ 19.05738912, 49.29616195 ], [ 19.05746393, 49.29619946 ], [ 19.05754278, 49.29623898 ], [ 19.05711894, 49.29660399 ], [ 19.05689951, 49.29684428 ], [ 19.05661304, 49.29743801 ], [ 19.05660999, 49.29744886 ], [ 19.05657567, 49.29757161 ], [ 19.05644998, 49.29802088 ], [ 19.05640413, 49.29802627 ], [ 19.05627077, 49.29804196 ], [ 19.05616229, 49.29805472 ], [ 19.05627063, 49.29832114 ], [ 19.05624503, 49.29834693 ], [ 19.05612347, 49.29846933 ], [ 19.05611765, 49.29856382 ], [ 19.05611369, 49.29862792 ], [ 19.05604128, 49.29869729 ], [ 19.0559242, 49.29880945 ], [ 19.05587443, 49.29885713 ], [ 19.05586309, 49.29900536 ], [ 19.05584311, 49.29926643 ], [ 19.05593558, 49.29936948 ], [ 19.05612627, 49.29958198 ], [ 19.0562121, 49.29964223 ], [ 19.05628799, 49.29969549 ], [ 19.05639325, 49.29986328 ], [ 19.05646336, 49.29997496 ], [ 19.0565423, 49.30004712 ], [ 19.05668685, 49.30017926 ], [ 19.05706264, 49.3003579 ], [ 19.05719375, 49.3004202 ], [ 19.05721059, 49.30049759 ], [ 19.05724708, 49.30066505 ], [ 19.05751029, 49.3008383 ], [ 19.05756181, 49.30087223 ], [ 19.05779068, 49.30102287 ], [ 19.05784417, 49.3010779 ], [ 19.05794263, 49.30117926 ], [ 19.05801946, 49.30121128 ], [ 19.05832085, 49.301337 ], [ 19.05843578, 49.30141888 ], [ 19.0585372, 49.30206632 ], [ 19.05853573, 49.30210285 ], [ 19.05853487, 49.30212346 ], [ 19.05852819, 49.30229104 ], [ 19.05852487, 49.30237348 ], [ 19.0585191, 49.30251892 ], [ 19.05859896, 49.30254505 ], [ 19.05847616, 49.3028344 ], [ 19.05824509, 49.30333997 ], [ 19.05814896, 49.30358591 ], [ 19.05922814, 49.30386675 ], [ 19.05955399, 49.30395157 ], [ 19.06050299, 49.30429342 ], [ 19.06120454, 49.30430507 ], [ 19.06121253, 49.3043052 ], [ 19.06126593, 49.30430612 ], [ 19.06130901, 49.30430681 ], [ 19.06128307, 49.30400848 ], [ 19.06145657, 49.30370856 ], [ 19.06231516, 49.30369298 ], [ 19.06255464, 49.30368866 ], [ 19.06282466, 49.30368378 ], [ 19.06287223, 49.30364447 ], [ 19.0630127, 49.30367115 ], [ 19.06304104, 49.30367652 ], [ 19.06345157, 49.30368254 ], [ 19.06362985, 49.30368512 ], [ 19.06365078, 49.30364485 ], [ 19.06437419, 49.30360915 ], [ 19.06449396, 49.30353922 ], [ 19.06479881, 49.30336165 ], [ 19.0650573, 49.3032882 ], [ 19.06511803, 49.303271 ], [ 19.06518047, 49.30325334 ], [ 19.06630383, 49.30306432 ], [ 19.06626712, 49.30291164 ], [ 19.06616512, 49.30248702 ], [ 19.06615666, 49.30245161 ], [ 19.06613989, 49.3023818 ], [ 19.06613645, 49.30207223 ], [ 19.06613368, 49.30183214 ], [ 19.06613037, 49.30154657 ], [ 19.06611124, 49.30149963 ], [ 19.06597807, 49.30117429 ], [ 19.06594788, 49.3011443 ], [ 19.06580755, 49.30100536 ], [ 19.06506, 49.30026481 ], [ 19.06444715, 49.30015656 ], [ 19.06429862, 49.29963955 ], [ 19.06434274, 49.29900048 ], [ 19.06458114, 49.29870421 ], [ 19.06460063, 49.29867992 ], [ 19.06466533, 49.29859961 ], [ 19.06468996, 49.29859533 ], [ 19.06474794, 49.2985852 ], [ 19.06537524, 49.29847604 ], [ 19.06603927, 49.29836038 ], [ 19.0665991, 49.29842002 ], [ 19.06756126, 49.29867473 ], [ 19.06815502, 49.29899376 ], [ 19.06883449, 49.29935877 ], [ 19.06907246, 49.29936023 ], [ 19.06912992, 49.29936054 ], [ 19.06946844, 49.29954226 ], [ 19.06982034, 49.29976224 ], [ 19.07023469, 49.29978141 ], [ 19.07027517, 49.2997963 ], [ 19.07053459, 49.29989152 ], [ 19.07077007, 49.29997798 ], [ 19.07090923, 49.30002911 ], [ 19.07112985, 49.30015839 ], [ 19.07119469, 49.3001964 ], [ 19.07134103, 49.30028216 ], [ 19.07144011, 49.30034016 ], [ 19.07150366, 49.30037738 ], [ 19.07155739, 49.30040888 ], [ 19.07164406, 49.30045969 ], [ 19.07164768, 49.30046293 ], [ 19.07175025, 49.30055402 ], [ 19.07180304, 49.3006009 ], [ 19.07185394, 49.30064615 ], [ 19.07188835, 49.30067661 ], [ 19.07191637, 49.30070153 ], [ 19.07193192, 49.30072926 ], [ 19.07200226, 49.30085473 ], [ 19.07206448, 49.30096574 ], [ 19.07213686, 49.30118717 ], [ 19.07230271, 49.30160258 ], [ 19.07236413, 49.30175638 ], [ 19.07238071, 49.30179796 ], [ 19.0724607, 49.3017955 ], [ 19.07255409, 49.30179524 ], [ 19.07264651, 49.30179492 ], [ 19.07278611, 49.3017945 ], [ 19.07306711, 49.30179356 ], [ 19.07369892, 49.30169088 ], [ 19.07434298, 49.30168773 ], [ 19.07493717, 49.30165416 ], [ 19.0754444, 49.30165489 ], [ 19.07571756, 49.30167529 ], [ 19.07599729, 49.30171162 ], [ 19.07635931, 49.30180583 ], [ 19.07655216, 49.3018734 ], [ 19.07682752, 49.30191059 ], [ 19.07686703, 49.30191596 ], [ 19.07739719, 49.30197138 ], [ 19.07789665, 49.30203241 ], [ 19.07801846, 49.30206672 ], [ 19.07825928, 49.30215244 ], [ 19.07836318, 49.30224051 ], [ 19.07847024, 49.30229511 ], [ 19.07857768, 49.30235 ], [ 19.07869057, 49.30243302 ], [ 19.07877678, 49.30239686 ], [ 19.0788, 49.30239882 ], [ 19.07880546, 49.30239927 ], [ 19.07907019, 49.30242114 ], [ 19.07940436, 49.30248052 ], [ 19.08004607, 49.3028967 ], [ 19.08042884, 49.30307425 ], [ 19.08086692, 49.30317382 ], [ 19.0809103, 49.30318632 ], [ 19.08130731, 49.30333598 ], [ 19.08239928, 49.30360118 ], [ 19.08293771, 49.30368322 ], [ 19.08309175, 49.3037119 ], [ 19.08387934, 49.30397987 ], [ 19.0843206, 49.30419942 ], [ 19.08453742, 49.30420503 ], [ 19.08502119, 49.30430557 ], [ 19.08536273, 49.30434067 ], [ 19.08568915, 49.30435257 ], [ 19.08612914, 49.3044321 ], [ 19.08623138, 49.30445318 ], [ 19.08656519, 49.30457113 ], [ 19.08732516, 49.30485648 ], [ 19.08796906, 49.30510924 ], [ 19.08809813, 49.3051741 ], [ 19.08814846, 49.30518009 ], [ 19.0887745, 49.30530636 ], [ 19.08927507, 49.30533646 ], [ 19.08995011, 49.30537712 ], [ 19.09116354, 49.30563368 ], [ 19.09122566, 49.30565955 ], [ 19.09128224, 49.30568316 ], [ 19.09455659, 49.30621152 ], [ 19.09439022, 49.30648469 ], [ 19.09434891, 49.30658861 ], [ 19.09423484, 49.30677851 ], [ 19.09385057, 49.30718382 ], [ 19.0938298, 49.30718451 ], [ 19.09356967, 49.30730853 ], [ 19.09344374, 49.30754645 ], [ 19.0937394, 49.30767386 ], [ 19.09401978, 49.30770855 ], [ 19.09422762, 49.30777205 ], [ 19.09402215, 49.30791724 ], [ 19.09459593, 49.30831764 ], [ 19.09465348, 49.30839171 ], [ 19.09447659, 49.30848735 ], [ 19.09493505, 49.3086251 ], [ 19.09542771, 49.30880601 ], [ 19.09615891, 49.30860907 ], [ 19.09690911, 49.30872218 ], [ 19.09677859, 49.30877195 ], [ 19.09709637, 49.30897709 ], [ 19.09737364, 49.30899088 ], [ 19.09765046, 49.30914441 ], [ 19.0980152, 49.30934662 ], [ 19.09827903, 49.30958446 ], [ 19.0983254, 49.30962632 ], [ 19.09844126, 49.30973074 ], [ 19.09837648, 49.30981332 ], [ 19.09812841, 49.31013145 ], [ 19.09721254, 49.30998714 ], [ 19.09717853, 49.31018367 ], [ 19.09724809, 49.31064102 ], [ 19.09730124, 49.31106464 ], [ 19.0975453, 49.31150611 ], [ 19.09768849, 49.31178339 ], [ 19.09770198, 49.31180758 ], [ 19.09808563, 49.31174309 ] ] ] ] } }
]
}
