{
"type": "FeatureCollection",
"name": "gis",
"crs": { "type": "name", "properties": { "name": "urn:ogc:def:crs:OGC:1.3:CRS84" } },
"features": [
{ "type": "Feature", "properties": { "@featureType": "CadastralZoning", "beginLifespanVersion": { "@nilReason": "http://inspire.ec.europa.eu/codelist/VoidReasonValue/Unpopulated", "@nil": "true" }, "endLifespanVersion": { "@nilReason": "http://inspire.ec.europa.eu/codelist/VoidReasonValue/Unpopulated", "@nil": "true" }, "estimatedAccuracy": { "value": -1, "@uom": "m" }, "inspireId": { "@dataType": "Identifier", "localId": "872253", "namespace": "SK.ESKN.CP", "versionId": "20260703T04:07:40" }, "label": "Zákopčie", "level": { "@href": "http://inspire.ec.europa.eu/codelist/CadastralZoningLevelValue/3rdOrder" }, "levelName": { "value": "Katastrálne územie", "@locale": "sk" }, "name_1": { "@dataType": "name", "GeographicalName": { "@dataType": "GeographicalName", "language": "SLK", "nativeness": { "@href": "http://inspire.ec.europa.eu/codelist/NativenessValue/endonym", "@title": "endonym" }, "nameStatus": { "@href": "http://inspire.ec.europa.eu/codelist/NameStatusValue/official", "@title": "official" }, "sourceOfName": { "@nilReason": "http://inspire.ec.europa.eu/codelist/VoidReasonValue/Unpopulated", "@nil": "true" }, "pronunciation": { "@dataType": "pronunciation", "@nilReason": "http://inspire.ec.europa.eu/codelist/VoidReasonValue/Unpopulated", "@nil": "true" }, "spelling": { "@dataType": "SpellingOfName", "text": "Zákopčie", "script": "LATN" } } }, "nationalCadastalZoningReference": "872253", "validFrom": "2026-06-30T16:00:00Z", "validTo": { "@nilReason": "http://inspire.ec.europa.eu/codelist/VoidReasonValue/Unpopulated", "@nil": "true" }, "place_id": 419462941, "osm_type": "relation", "osm_id": 2226184, "place_rank": 22, "category": "place", "type": "cadastral_community", "importance": 0.10671723430228119, "addresstype": "cadastral_community", "name_2": "Zákopčie", "display_name": "Zákopčie, okres Čadca, Žilinský kraj, 023 11, Slovensko" }, "geometry": { "type": "Polygon", "coordinates": [ [ [ 18.71916144, 49.4150638 ], [ 18.71918436, 49.41503135 ], [ 18.71947658, 49.41477942 ], [ 18.719477417190554, 49.414779001672883 ], [ 18.7194883, 49.4147696 ], [ 18.7195206, 49.4147543 ], [ 18.7195865, 49.4147218 ], [ 18.7196139, 49.4147086 ], [ 18.720426813309505, 49.415116106155523 ], [ 18.72122534, 49.41448582 ], [ 18.7219133, 49.41392781 ], [ 18.721915803804947, 49.413926229422607 ], [ 18.7219257, 49.4139182 ], [ 18.722919857531302, 49.413291100731627 ], [ 18.72344389, 49.41284656 ], [ 18.72351995, 49.41278206 ], [ 18.72362055, 49.41269674 ], [ 18.72395612, 49.41207496 ], [ 18.72397176, 49.41109793 ], [ 18.72462247, 49.4099362 ], [ 18.72579261, 49.40899497 ], [ 18.725793283189514, 49.408994923498838 ], [ 18.725805, 49.4089855 ], [ 18.7261487, 49.4089618 ], [ 18.727012, 49.4089019 ], [ 18.7288867, 49.4092625 ], [ 18.7295285, 49.4093174 ], [ 18.7296209, 49.4093256 ], [ 18.730795, 49.4094284 ], [ 18.7318092, 49.4097542 ], [ 18.7330354, 49.4101824 ], [ 18.7348006, 49.4105653 ], [ 18.7368068, 49.4109089 ], [ 18.7383683, 49.4108605 ], [ 18.7402407, 49.4108058 ], [ 18.742012, 49.4110535 ], [ 18.7437546, 49.4112129 ], [ 18.74527, 49.4112962 ], [ 18.7471158, 49.4115659 ], [ 18.7482152, 49.4115476 ], [ 18.7498144, 49.4113127 ], [ 18.750754745562695, 49.411284151167578 ], [ 18.74994566, 49.41003934 ], [ 18.74989288, 49.4098239 ], [ 18.749907545863881, 49.409823514019493 ], [ 18.7499053, 49.4098143 ], [ 18.7504305, 49.4098012 ], [ 18.7505872, 49.4097968 ], [ 18.7508032, 49.4097506 ], [ 18.7508344, 49.4097442 ], [ 18.7508686, 49.409737 ], [ 18.7510436, 49.4097 ], [ 18.7513695, 49.4096323 ], [ 18.7516757, 49.4095681 ], [ 18.7530108, 49.409387 ], [ 18.753314820358902, 49.409262888608978 ], [ 18.75329937, 49.4092273 ], [ 18.753314473733987, 49.409223604139548 ], [ 18.753312, 49.4092179 ], [ 18.753619032514681, 49.409142941452338 ], [ 18.75361493, 49.40909621 ], [ 18.753628071399962, 49.409097366349577 ], [ 18.7536271, 49.4090866 ], [ 18.7545933, 49.4091718 ], [ 18.75504, 49.4093098 ], [ 18.7560972, 49.4094448 ], [ 18.756317, 49.4094595 ], [ 18.7571172, 49.4095159 ], [ 18.7570924, 49.4096274 ], [ 18.7574832, 49.4097039 ], [ 18.757684, 49.4095983 ], [ 18.7581689, 49.4095152 ], [ 18.7584475, 49.4096086 ], [ 18.7585893, 49.4097592 ], [ 18.7589028, 49.4097145 ], [ 18.7591092, 49.4098516 ], [ 18.7594347, 49.4097985 ], [ 18.7596587, 49.4099656 ], [ 18.7604828, 49.4102723 ], [ 18.7614337, 49.410457 ], [ 18.7616709, 49.4105515 ], [ 18.7633901, 49.4104333 ], [ 18.7639388, 49.4104414 ], [ 18.7643435, 49.4104848 ], [ 18.7652534, 49.4107531 ], [ 18.7654539, 49.410751 ], [ 18.7659454, 49.4108273 ], [ 18.7662823, 49.4108436 ], [ 18.7678354, 49.4109184 ], [ 18.7692118, 49.4104056 ], [ 18.7701491, 49.410134 ], [ 18.7704104, 49.4100337 ], [ 18.7704571, 49.4100158 ], [ 18.7708462, 49.4098679 ], [ 18.7711659, 49.4097052 ], [ 18.772406, 49.4092023 ], [ 18.7725101, 49.4091593 ], [ 18.7726738, 49.4090933 ], [ 18.773435926171633, 49.408675893034818 ], [ 18.773758259356899, 49.408422225427685 ], [ 18.7737892, 49.4083978 ], [ 18.7752051, 49.4079142 ], [ 18.7769977, 49.4077306 ], [ 18.7783375, 49.4075565 ], [ 18.7804646, 49.4067498 ], [ 18.7806883, 49.4066813 ], [ 18.7818031, 49.4063509 ], [ 18.7823713, 49.4061977 ], [ 18.7831064, 49.4060384 ], [ 18.7834627, 49.4060209 ], [ 18.7834955, 49.406019 ], [ 18.78357286633846, 49.406015721765321 ], [ 18.78378168, 49.40574198 ], [ 18.783787193834787, 49.405741481610306 ], [ 18.7837942, 49.4057323 ], [ 18.784105, 49.4057044 ], [ 18.7842116, 49.4057123 ], [ 18.7843353, 49.405722 ], [ 18.7845177, 49.4057111 ], [ 18.7845377, 49.40571 ], [ 18.7845581, 49.405712 ], [ 18.7846486, 49.4057212 ], [ 18.785918521058516, 49.405812642293732 ], [ 18.78606538, 49.40565144 ], [ 18.78621208, 49.4055064 ], [ 18.78640094, 49.40531456 ], [ 18.78669013, 49.40505339 ], [ 18.78674113, 49.40486201 ], [ 18.78676166, 49.40481355 ], [ 18.78684349, 49.40461978 ], [ 18.78684795, 49.40456364 ], [ 18.78685003, 49.40453732 ], [ 18.78690049, 49.40445748 ], [ 18.78693567, 49.40442042 ], [ 18.78694488, 49.40435361 ], [ 18.78694785, 49.40433256 ], [ 18.78703041, 49.40413162 ], [ 18.78710472, 49.40395082 ], [ 18.78706799, 49.40393918 ], [ 18.78720581, 49.40368941 ], [ 18.78720883, 49.40368388 ], [ 18.78725991, 49.40359776 ], [ 18.78671773, 49.40270843 ], [ 18.78633313, 49.40251195 ], [ 18.78580469, 49.40230822 ], [ 18.78576594, 49.4022824 ], [ 18.7855109, 49.40203885 ], [ 18.78533909, 49.40192498 ], [ 18.78480667, 49.4015594 ], [ 18.78433806, 49.4012534 ], [ 18.7841408, 49.40107714 ], [ 18.78410599, 49.40104621 ], [ 18.78368687, 49.40070154 ], [ 18.78348723, 49.40059948 ], [ 18.783418, 49.40054242 ], [ 18.78341848, 49.40047921 ], [ 18.78307859, 49.40029721 ], [ 18.78288722, 49.3999358 ], [ 18.78261587, 49.39975734 ], [ 18.78227392, 49.3995138 ], [ 18.78121408, 49.39868525 ], [ 18.7804225, 49.39813477 ], [ 18.78043939, 49.39798771 ], [ 18.78047628, 49.39767924 ], [ 18.77990125, 49.39741714 ], [ 18.77979694, 49.39730639 ], [ 18.77978863, 49.39724508 ], [ 18.77977358, 49.39713344 ], [ 18.77976994, 49.39710646 ], [ 18.77969447, 49.39698142 ], [ 18.7796097, 49.39687484 ], [ 18.77938417, 49.39671307 ], [ 18.77916392, 49.39661365 ], [ 18.77911033, 49.3965895 ], [ 18.77902958, 49.39653517 ], [ 18.77882488, 49.39639766 ], [ 18.77840068, 49.39611251 ], [ 18.7783337, 49.39608821 ], [ 18.77822062, 49.39602589 ], [ 18.77777273, 49.39577884 ], [ 18.77755747, 49.39565892 ], [ 18.77747307, 49.39561189 ], [ 18.777444, 49.39559983 ], [ 18.77703132, 49.39542811 ], [ 18.77563435, 49.39450268 ], [ 18.77479596, 49.39442491 ], [ 18.77494869, 49.39343636 ], [ 18.77509392, 49.39215003 ], [ 18.77458897, 49.39128338 ], [ 18.77437857, 49.39088029 ], [ 18.77436838, 49.39086073 ], [ 18.77372267, 49.38962319 ], [ 18.7723761, 49.38878727 ], [ 18.7702456, 49.38848854 ], [ 18.769903534782888, 49.388504425777242 ], [ 18.7693137, 49.3893488 ], [ 18.769306469965695, 49.389350884634496 ], [ 18.76930152, 49.38935797 ], [ 18.76854222, 49.38957713 ], [ 18.76841719, 49.38961323 ], [ 18.76778054, 49.38902278 ], [ 18.76673931, 49.38815183 ], [ 18.766092904450691, 49.387492342457293 ], [ 18.7656856, 49.3881639 ], [ 18.765416, 49.3891038 ], [ 18.765473, 49.3901463 ], [ 18.765460367271753, 49.390147167924404 ], [ 18.76546086, 49.39015614 ], [ 18.76510398, 49.39018066 ], [ 18.76422416, 49.39037009 ], [ 18.76400639938705, 49.390288251241003 ], [ 18.7636344, 49.3905911 ], [ 18.76363387849754, 49.390591498342438 ], [ 18.76362201, 49.39060117 ], [ 18.763262120628426, 49.390875460447056 ], [ 18.7631339, 49.3909734 ], [ 18.763133577183503, 49.390973430105959 ], [ 18.76312148, 49.39098265 ], [ 18.76233673, 49.39105622 ], [ 18.762033282774766, 49.391280227054509 ], [ 18.7620285, 49.3915654 ], [ 18.7620267, 49.3916747 ], [ 18.762014778290773, 49.391671911858332 ], [ 18.76201462, 49.39168374 ], [ 18.76196466, 49.39167303 ], [ 18.76184096, 49.39164135 ], [ 18.76178133, 49.39162608 ], [ 18.76115523, 49.39146568 ], [ 18.76041782, 49.39120154 ], [ 18.75913105, 49.3911398 ], [ 18.7585929, 49.39111403 ], [ 18.75799144, 49.39105213 ], [ 18.75668839, 49.39090852 ], [ 18.7555407, 49.39081914 ], [ 18.75448264, 49.39073251 ], [ 18.75348396, 49.39091371 ], [ 18.75300717, 49.39052758 ], [ 18.75228725, 49.39060761 ], [ 18.75004663, 49.39108117 ], [ 18.74973055, 49.39075524 ], [ 18.74871954, 49.39023776 ], [ 18.74856232, 49.39000641 ], [ 18.74815886, 49.38956896 ], [ 18.74825762, 49.38940054 ], [ 18.74845414, 49.38913429 ], [ 18.748879600591554, 49.388663825789934 ], [ 18.748504, 49.3885 ], [ 18.747968, 49.38841 ], [ 18.747680883310071, 49.388283011821024 ], [ 18.74742933, 49.38817208 ], [ 18.74718509, 49.38803796 ], [ 18.747002006669042, 49.387927036961749 ], [ 18.746203245998753, 49.387469864322654 ], [ 18.74619213, 49.38746384 ], [ 18.74538828, 49.38693563 ], [ 18.745379238613982, 49.386928237965172 ], [ 18.7446342, 49.3863358 ], [ 18.7443086, 49.3861002 ], [ 18.7442669, 49.3860475 ], [ 18.744225647320906, 49.385829472165888 ], [ 18.74417067, 49.3856498 ], [ 18.74405229, 49.38491731 ], [ 18.744044327406403, 49.384904756072196 ], [ 18.7438614, 49.3846465 ], [ 18.743556655769229, 49.38421616241083 ], [ 18.74355279, 49.38421126 ], [ 18.74333976, 49.38348124 ], [ 18.74342996, 49.38292359 ], [ 18.74343938, 49.38287817 ], [ 18.743514404553753, 49.382515850981065 ], [ 18.743627, 49.381892 ], [ 18.743512011744066, 49.381617511905191 ], [ 18.74334744, 49.38122561 ], [ 18.74291219, 49.38089093 ], [ 18.74235132, 49.38051814 ], [ 18.742263870007879, 49.380523066706864 ], [ 18.741778, 49.380551 ], [ 18.741735, 49.3805359 ], [ 18.741643329098881, 49.380503689263044 ], [ 18.74136999, 49.38040813 ], [ 18.74020705, 49.38013459 ], [ 18.739663272486428, 49.379989517297318 ], [ 18.739653, 49.379987 ], [ 18.7396485167164, 49.379984889069739 ], [ 18.73895279, 49.37967695 ], [ 18.73856043, 49.37949702 ], [ 18.73852503, 49.37947921 ], [ 18.7381261, 49.37927847 ], [ 18.73800012, 49.37921498 ], [ 18.737817, 49.37912281 ], [ 18.737815265470449, 49.379121954836592 ], [ 18.737789193462895, 49.379111989865386 ], [ 18.73715577, 49.37887755 ], [ 18.73701804, 49.37882653 ], [ 18.7369514, 49.37880204 ], [ 18.73675573, 49.37873005 ], [ 18.73650593, 49.37864081 ], [ 18.73535528, 49.37818266 ], [ 18.735347996213449, 49.378178547887593 ], [ 18.733486897949685, 49.377375837773826 ], [ 18.73347767, 49.37737205 ], [ 18.73347358277929, 49.377369191978936 ], [ 18.732125119680319, 49.376511975861149 ], [ 18.73210989, 49.37650285 ], [ 18.73277938, 49.37507996 ], [ 18.7328581, 49.37415522 ], [ 18.732844931437143, 49.374114300745561 ], [ 18.732308125692452, 49.372561363618452 ], [ 18.73230796, 49.3725611 ], [ 18.732199388994221, 49.370860710863333 ], [ 18.732086846916555, 49.370807454344444 ], [ 18.73197527, 49.37075479 ], [ 18.73204167, 49.37009569 ], [ 18.73204404, 49.370073 ], [ 18.73205663, 49.36994746 ], [ 18.73204826, 49.36991878 ], [ 18.73201334, 49.36979888 ], [ 18.73192061, 49.36923576 ], [ 18.7319045, 49.36902078 ], [ 18.73203149, 49.36861507 ], [ 18.73209889, 49.36839948 ], [ 18.73207631, 49.36827012 ], [ 18.7321021, 49.36783009 ], [ 18.732094144191219, 49.3677997158929 ], [ 18.732091005036548, 49.367788626487808 ], [ 18.73201024, 49.36750606 ], [ 18.73201013116152, 49.3674939542517 ], [ 18.731930108098858, 49.366384498703958 ], [ 18.731929933342755, 49.366382988880105 ], [ 18.730857, 49.366204 ], [ 18.730306253870296, 49.36613814991928 ], [ 18.72947671, 49.36603971 ], [ 18.72893694, 49.36602606 ], [ 18.72803088, 49.36600321 ], [ 18.726210831696434, 49.365920302181578 ], [ 18.726175, 49.365919 ], [ 18.725447568353236, 49.365854682103624 ], [ 18.72424045, 49.36574853 ], [ 18.72348856, 49.36594424 ], [ 18.72278726345381, 49.366222684435662 ], [ 18.722721, 49.366249 ], [ 18.721653, 49.366807 ], [ 18.721258, 49.367434 ], [ 18.720817, 49.367923 ], [ 18.720518, 49.368253 ], [ 18.719906, 49.368743 ], [ 18.719905781989343, 49.368743081922297 ], [ 18.71990551, 49.3687433 ], [ 18.71787304, 49.369507 ], [ 18.71780021, 49.36953432 ], [ 18.71721203, 49.3697179 ], [ 18.71674723, 49.36984054 ], [ 18.716577181419471, 49.369889507477701 ], [ 18.716455, 49.369925 ], [ 18.71583, 49.370174 ], [ 18.714640354918931, 49.370246978227662 ], [ 18.71463983, 49.37024702 ], [ 18.714638980852904, 49.370246892557923 ], [ 18.713913199282135, 49.370170378108355 ], [ 18.71383817, 49.37016972 ], [ 18.7129989, 49.37007475 ], [ 18.71211913, 49.3700712 ], [ 18.712036474888507, 49.370088404585125 ], [ 18.711697, 49.37016 ], [ 18.71086959518118, 49.370174739990837 ], [ 18.71085499, 49.37017508 ], [ 18.710589045261049, 49.370169566191485 ], [ 18.709974, 49.370157 ], [ 18.708821, 49.370066 ], [ 18.70849319448417, 49.369934781663019 ], [ 18.70813819, 49.36979307 ], [ 18.70670896, 49.36935955 ], [ 18.70637874, 49.36910383 ], [ 18.70598949, 49.36877087 ], [ 18.70535548, 49.36820289 ], [ 18.705354959994427, 49.368202583389582 ], [ 18.705015331182686, 49.368066533251543 ], [ 18.7050141, 49.3680662 ], [ 18.70473034, 49.36783709 ], [ 18.70446586, 49.36772211 ], [ 18.70424578, 49.36755154 ], [ 18.704200142792544, 49.367500412536181 ], [ 18.70320229649958, 49.366399636539654 ], [ 18.70319851, 49.36639583 ], [ 18.70300259, 49.36606478 ], [ 18.702916941927416, 49.365153450070736 ], [ 18.702879, 49.364752 ], [ 18.702075811223114, 49.363826934319164 ], [ 18.70207509, 49.36382616 ], [ 18.70164324, 49.36346614 ], [ 18.701496967937967, 49.363311667281778 ], [ 18.700979899862517, 49.362851580296606 ], [ 18.70097657, 49.36284907 ], [ 18.700972011998221, 49.362847555752836 ], [ 18.69990793332466, 49.362539457906337 ], [ 18.69985733, 49.36252606 ], [ 18.699120674309423, 49.362247244917292 ], [ 18.698759, 49.362111 ], [ 18.698752973598189, 49.362109384675804 ], [ 18.69857579, 49.36207978 ], [ 18.69848249, 49.36204665 ], [ 18.6983704, 49.36200685 ], [ 18.69725474, 49.36139109 ], [ 18.6969156, 49.36119071 ], [ 18.696874520889384, 49.361164361032003 ], [ 18.696865, 49.361159 ], [ 18.6966616, 49.3610737 ], [ 18.696373095128234, 49.36095261265725 ], [ 18.6962116, 49.36088558 ], [ 18.695708703622511, 49.360743797405206 ], [ 18.695492, 49.360683 ], [ 18.695175150006776, 49.360640772228095 ], [ 18.69495, 49.36062794 ], [ 18.69474011, 49.36059725 ], [ 18.69437345, 49.36053416 ], [ 18.69411698, 49.36045331 ], [ 18.693765960900823, 49.360241603812916 ], [ 18.693481, 49.36007 ], [ 18.692913, 49.359846 ], [ 18.692912720362408, 49.359846224925889 ], [ 18.69287661, 49.35988202 ], [ 18.692187379445006, 49.360429651315975 ], [ 18.692085, 49.360512 ], [ 18.691255, 49.36104 ], [ 18.690650247208946, 49.361212786511736 ], [ 18.69021211, 49.36133807 ], [ 18.68999338, 49.36147894 ], [ 18.68975708, 49.36153825 ], [ 18.68867904, 49.36173591 ], [ 18.68809467, 49.36185242 ], [ 18.68752255, 49.36198049 ], [ 18.68683451, 49.36214695 ], [ 18.68648357, 49.36225552 ], [ 18.68606841631356, 49.362462348463708 ], [ 18.6858435, 49.3627165 ], [ 18.685624, 49.3629654 ], [ 18.6854854, 49.3632097 ], [ 18.6853683, 49.3635193 ], [ 18.6852749, 49.3637927 ], [ 18.6852123, 49.3640196 ], [ 18.6850967, 49.3643585 ], [ 18.6849913, 49.364723 ], [ 18.6848954, 49.3649963 ], [ 18.6846926, 49.365315 ], [ 18.6845192, 49.3656916 ], [ 18.6842372, 49.3660917 ], [ 18.6839597, 49.3665201 ], [ 18.6836516, 49.3668208 ], [ 18.6834942, 49.3670911 ], [ 18.6830911, 49.3674343 ], [ 18.683082631011072, 49.367440532760192 ], [ 18.68307903, 49.3674436 ], [ 18.68290568, 49.36757125 ], [ 18.6828794, 49.36759061 ], [ 18.682681306622367, 49.367736453322706 ], [ 18.6821912, 49.368218 ], [ 18.6821234, 49.3682898 ], [ 18.6821103, 49.3683636 ], [ 18.6820921, 49.368605 ], [ 18.6820614, 49.3689012 ], [ 18.6819905, 49.369194 ], [ 18.6820135, 49.3694511 ], [ 18.6820164, 49.3697998 ], [ 18.6820087, 49.3700768 ], [ 18.6820108, 49.3703442 ], [ 18.682036, 49.370633 ], [ 18.6821294, 49.3709695 ], [ 18.6821958, 49.3713 ], [ 18.6821832, 49.3716219 ], [ 18.682163, 49.3718588 ], [ 18.6820438, 49.3721242 ], [ 18.6819446, 49.3723331 ], [ 18.6817802, 49.3725953 ], [ 18.6816713, 49.3727531 ], [ 18.6814837, 49.3729686 ], [ 18.6813317, 49.3731478 ], [ 18.681206, 49.3733453 ], [ 18.6811581, 49.3735458 ], [ 18.6810768, 49.3738234 ], [ 18.6809694, 49.3740106 ], [ 18.6807503, 49.3742878 ], [ 18.6805552, 49.3745289 ], [ 18.680546907648871, 49.37453365784792 ], [ 18.68054289, 49.37453863 ], [ 18.68031032, 49.37467128 ], [ 18.68011138, 49.37476979 ], [ 18.679998730133875, 49.374846460511321 ], [ 18.6798493, 49.3749857 ], [ 18.6796822, 49.3752871 ], [ 18.6796618, 49.3754078 ], [ 18.679619, 49.3757167 ], [ 18.6795345, 49.3760764 ], [ 18.6794815, 49.3767166 ], [ 18.6795604, 49.3768693 ], [ 18.6794969, 49.3771084 ], [ 18.6796234, 49.3775674 ], [ 18.6796886, 49.3777716 ], [ 18.6798007, 49.3780424 ], [ 18.6798613, 49.3783637 ], [ 18.6799888, 49.3785677 ], [ 18.6800814, 49.3789289 ], [ 18.680057, 49.3792116 ], [ 18.679976, 49.3795254 ], [ 18.68, 49.3798121 ], [ 18.6798904, 49.3800928 ], [ 18.6797935, 49.3803062 ], [ 18.6796187, 49.3805903 ], [ 18.6794748, 49.3807101 ], [ 18.679471341205744, 49.380712126646763 ], [ 18.67946214, 49.38071977 ], [ 18.67917771, 49.38088613 ], [ 18.67906756, 49.3809535 ], [ 18.67862888, 49.38103398 ], [ 18.678289419820825, 49.381203463575197 ], [ 18.6782525, 49.3812379 ], [ 18.6781854, 49.381319 ], [ 18.6780281, 49.381552 ], [ 18.678018125074605, 49.381557929869025 ], [ 18.67801596, 49.38156114 ], [ 18.67783116, 49.38167131 ], [ 18.67757678, 49.38174524 ], [ 18.67715405, 49.38180383 ], [ 18.67685366, 49.38189565 ], [ 18.67650866, 49.38204763 ], [ 18.67585003, 49.38240981 ], [ 18.67536936, 49.38267679 ], [ 18.674848991415324, 49.382999777058657 ], [ 18.6745915, 49.3833253 ], [ 18.674580338286336, 49.383333523241298 ], [ 18.67457906, 49.38333514 ], [ 18.674241910823476, 49.383583213381236 ], [ 18.6739951, 49.3838645 ], [ 18.673985104041762, 49.383871343497269 ], [ 18.67398287, 49.38387389 ], [ 18.6738436, 49.38396886 ], [ 18.67359091, 49.38401212 ], [ 18.67330412, 49.38405403 ], [ 18.67326599, 49.3840596 ], [ 18.67284165, 49.38400911 ], [ 18.67239578, 49.38399646 ], [ 18.67182124, 49.38376476 ], [ 18.6715492, 49.38361349 ], [ 18.67083448, 49.38341824 ], [ 18.67038565, 49.38333785 ], [ 18.66969946, 49.38322935 ], [ 18.66898977, 49.38310635 ], [ 18.66837518, 49.38295849 ], [ 18.66833522, 49.38294421 ], [ 18.66815847, 49.38283485 ], [ 18.66785736, 49.38267067 ], [ 18.66719478, 49.38243611 ], [ 18.66643255, 49.3821225 ], [ 18.66644702, 49.38210152 ], [ 18.66633627, 49.38203506 ], [ 18.66632946, 49.38203091 ], [ 18.66611233, 49.38190065 ], [ 18.66598296, 49.38180822 ], [ 18.665945, 49.38178105 ], [ 18.665680101924462, 49.381591624674329 ], [ 18.665473827821351, 49.381754654553944 ], [ 18.66543515, 49.38178538 ], [ 18.66396786, 49.38126146 ], [ 18.66402458, 49.38115033 ], [ 18.66320421, 49.38116949 ], [ 18.66241125, 49.38178 ], [ 18.66238881346494, 49.381797278120942 ], [ 18.6624066, 49.3818252 ], [ 18.662391825150113, 49.381831277089773 ], [ 18.6623941, 49.38183484 ], [ 18.66214663, 49.38193645 ], [ 18.66165852, 49.38215463 ], [ 18.66129998, 49.3824179 ], [ 18.660929448800349, 49.382616377235124 ], [ 18.6607277, 49.3829002 ], [ 18.660510928477375, 49.383075948094685 ], [ 18.66048293, 49.38309875 ], [ 18.66003384, 49.38328958 ], [ 18.65939476, 49.38349817 ], [ 18.6588167, 49.3835733 ], [ 18.65829042, 49.38368661 ], [ 18.65768901, 49.38386768 ], [ 18.65756366, 49.38390464 ], [ 18.657098960553579, 49.384041846789849 ], [ 18.6571641, 49.3844071 ], [ 18.6571925, 49.3844322 ], [ 18.65717818315424, 49.384439755587692 ], [ 18.65718017, 49.38444146 ], [ 18.65702889, 49.38452152 ], [ 18.65672773, 49.38468821 ], [ 18.65648627, 49.38483469 ], [ 18.656293911206031, 49.384956874193314 ], [ 18.6561805, 49.3850543 ], [ 18.6560504, 49.3852075 ], [ 18.6559638, 49.3853102 ], [ 18.6558821, 49.385476 ], [ 18.6558151, 49.3855989 ], [ 18.6557559, 49.3857907 ], [ 18.6557058, 49.3859405 ], [ 18.6555761, 49.3860846 ], [ 18.655569098554068, 49.386088001762595 ], [ 18.65556373, 49.38609398 ], [ 18.6553937, 49.38617693 ], [ 18.655291916101145, 49.386245683315202 ], [ 18.6549916, 49.3865252 ], [ 18.654755, 49.3868047 ], [ 18.6545773, 49.3870118 ], [ 18.6542967, 49.3873013 ], [ 18.654291938716771, 49.387303021480044 ], [ 18.65428432, 49.38731087 ], [ 18.65392997, 49.38743929 ], [ 18.65347804, 49.38755552 ], [ 18.6532549956571, 49.387720788026932 ], [ 18.6530196, 49.3879208 ], [ 18.653015850149291, 49.387923249921329 ], [ 18.65300745, 49.3879304 ], [ 18.65274256, 49.38810297 ], [ 18.65267764, 49.38813725 ], [ 18.65258477, 49.38818629 ], [ 18.65248052, 49.38824131 ], [ 18.652376718697933, 49.388281277885817 ], [ 18.6526562, 49.3884902 ], [ 18.6529527, 49.3886706 ], [ 18.6534731, 49.3888321 ], [ 18.6535871, 49.3889352 ], [ 18.6535543, 49.3891613 ], [ 18.6528122, 49.389801 ], [ 18.6527539, 49.3898655 ], [ 18.6526452, 49.3899859 ], [ 18.6526856, 49.3901246 ], [ 18.6526994, 49.3902967 ], [ 18.6529337, 49.3909001 ], [ 18.653002, 49.3910355 ], [ 18.6530103, 49.3911499 ], [ 18.6531409, 49.3917286 ], [ 18.653337, 49.3924977 ], [ 18.6533552, 49.3926487 ], [ 18.653341808851287, 49.392649385470136 ], [ 18.6533429, 49.39265843 ], [ 18.653298250131538, 49.392660616567376 ], [ 18.6532736, 49.3927605 ], [ 18.6532242, 49.3929925 ], [ 18.6531705, 49.3931251 ], [ 18.65316199013413, 49.393124908832149 ], [ 18.65315791, 49.393135 ], [ 18.653027770271656, 49.393131563821051 ], [ 18.6532079, 49.3935533 ], [ 18.6531828, 49.3936624 ], [ 18.6536561, 49.3936524 ], [ 18.654026806696436, 49.393504017936252 ], [ 18.65432031, 49.39327063 ], [ 18.654320628288566, 49.393270606909809 ], [ 18.6543328, 49.3932609 ], [ 18.6551638, 49.393201 ], [ 18.6556177, 49.3932453 ], [ 18.6560817, 49.3931909 ], [ 18.6565377, 49.3930344 ], [ 18.6568963, 49.3929012 ], [ 18.6575437, 49.3928125 ], [ 18.6586347, 49.3926208 ], [ 18.6587399, 49.3925868 ], [ 18.6592982, 49.393019 ], [ 18.6598783, 49.3936899 ], [ 18.6603048, 49.3941319 ], [ 18.6605649, 49.3944693 ], [ 18.6610206, 49.3948915 ], [ 18.6610911, 49.3948953 ], [ 18.6614347, 49.3954354 ], [ 18.6615674, 49.3955099 ], [ 18.6616743, 49.3956465 ], [ 18.6618766, 49.3960192 ], [ 18.6620404, 49.3964033 ], [ 18.6621215, 49.3966174 ], [ 18.6622944, 49.3965306 ], [ 18.6623392, 49.3965081 ], [ 18.662362978238246, 49.39649143651021 ], [ 18.66245146, 49.39641837 ], [ 18.66256647, 49.39631447 ], [ 18.66266774, 49.39604015 ], [ 18.66265176, 49.39560196 ], [ 18.66265098, 49.39537151 ], [ 18.662663215034769, 49.395364560035119 ], [ 18.6626632, 49.3953614 ], [ 18.663032488713796, 49.395152675809619 ], [ 18.66305979, 49.3950435 ], [ 18.66315549, 49.39492243 ], [ 18.66300665, 49.39479388 ], [ 18.66309286, 49.39472382 ], [ 18.663092977345027, 49.394723774756059 ], [ 18.663105, 49.3947139 ], [ 18.663301666455922, 49.394638819358704 ], [ 18.66326256, 49.3945241 ], [ 18.66361504, 49.39416533 ], [ 18.66371706, 49.39403007 ], [ 18.6637182, 49.39387902 ], [ 18.66380705, 49.39379647 ], [ 18.663808433716749, 49.393797189460102 ], [ 18.6638192, 49.3937872 ], [ 18.6642614, 49.394017 ], [ 18.6645814, 49.394132 ], [ 18.6653976, 49.394361 ], [ 18.6655326, 49.3943998 ], [ 18.6655753, 49.3949174 ], [ 18.665437, 49.3953364 ], [ 18.6656882, 49.395398 ], [ 18.6655861, 49.3957906 ], [ 18.6653637, 49.3962356 ], [ 18.6652646, 49.3966444 ], [ 18.664779, 49.3971836 ], [ 18.6646983, 49.3977838 ], [ 18.6647289, 49.3979049 ], [ 18.6647616, 49.3980645 ], [ 18.6648274, 49.398077 ], [ 18.6651775, 49.3979602 ], [ 18.6655168, 49.3978631 ], [ 18.6656846, 49.397935 ], [ 18.6658368, 49.3980016 ], [ 18.6666673, 49.3993568 ], [ 18.6667521, 49.3994967 ], [ 18.6671015, 49.4 ], [ 18.667122, 49.4000304 ], [ 18.6676964, 49.4002457 ], [ 18.6678462, 49.4003256 ], [ 18.6682716, 49.400551 ], [ 18.6686987, 49.400772 ], [ 18.6687428, 49.4008138 ], [ 18.6688735, 49.4009369 ], [ 18.669001, 49.4010564 ], [ 18.6690873, 49.4011375 ], [ 18.6693929, 49.4015439 ], [ 18.6696009, 49.4016778 ], [ 18.669704, 49.401743 ], [ 18.6699874, 49.4018931 ], [ 18.6700485, 49.4019256 ], [ 18.67048, 49.4020556 ], [ 18.6705005, 49.4020623 ], [ 18.6710915, 49.4020797 ], [ 18.6715981, 49.4020963 ], [ 18.6718866, 49.4020269 ], [ 18.6722306, 49.4019448 ], [ 18.6726987, 49.4018723 ], [ 18.6728577, 49.401857 ], [ 18.6732634, 49.4018174 ], [ 18.6742049, 49.401849 ], [ 18.6748271, 49.4018683 ], [ 18.6750463, 49.4018763 ], [ 18.6755705, 49.4018826 ], [ 18.6758765, 49.4018557 ], [ 18.6761238, 49.4018349 ], [ 18.6762987, 49.4018611 ], [ 18.6764362, 49.401883 ], [ 18.6768207, 49.4019415 ], [ 18.6771902, 49.401943 ], [ 18.6774547, 49.4019444 ], [ 18.6779674, 49.401968 ], [ 18.6781039, 49.401974 ], [ 18.6783846, 49.401964 ], [ 18.6788019, 49.401951 ], [ 18.67918, 49.4019382 ], [ 18.679379, 49.4019577 ], [ 18.6795576, 49.4019919 ], [ 18.6797449, 49.4020143 ], [ 18.6799274, 49.402017 ], [ 18.6801001, 49.4019911 ], [ 18.6801756, 49.4019601 ], [ 18.680283, 49.4019173 ], [ 18.6805855, 49.4018982 ], [ 18.6809398, 49.4018436 ], [ 18.6815744, 49.4017449 ], [ 18.6818492, 49.4017539 ], [ 18.6819657, 49.4017577 ], [ 18.6824719, 49.4017753 ], [ 18.6830485, 49.4017942 ], [ 18.683734, 49.4018168 ], [ 18.684012, 49.4018257 ], [ 18.6842792, 49.4018353 ], [ 18.6845658, 49.4018447 ], [ 18.6862975, 49.4019018 ], [ 18.6866635, 49.4018783 ], [ 18.6888033, 49.4019285 ], [ 18.6891184, 49.4019722 ], [ 18.6893605, 49.4020322 ], [ 18.6898164, 49.4021135 ], [ 18.6900763, 49.4021465 ], [ 18.6904588, 49.4021924 ], [ 18.6907614, 49.4022253 ], [ 18.6910999, 49.4022553 ], [ 18.6915466, 49.4023466 ], [ 18.6918486, 49.4023849 ], [ 18.6921633, 49.4024522 ], [ 18.6922188, 49.4024572 ], [ 18.6923553, 49.4024691 ], [ 18.692582, 49.4024595 ], [ 18.6931781, 49.4024851 ], [ 18.6935243, 49.4025021 ], [ 18.6940373, 49.4025583 ], [ 18.6944265, 49.4026409 ], [ 18.6945113, 49.4027467 ], [ 18.6946153, 49.4027781 ], [ 18.694717340931966, 49.40278457878933 ], [ 18.69477299, 49.40270315 ], [ 18.694777901684823, 49.402703863993722 ], [ 18.694785, 49.4026935 ], [ 18.6956018, 49.4028119 ], [ 18.6962716, 49.4029033 ], [ 18.6965625, 49.4029164 ], [ 18.6968359, 49.4029577 ], [ 18.6970421, 49.4030474 ], [ 18.6975554, 49.4032751 ], [ 18.6977805, 49.403376 ], [ 18.6984028, 49.4039533 ], [ 18.6988144, 49.4042308 ], [ 18.699082, 49.4045189 ], [ 18.6993668, 49.4048878 ], [ 18.7002544, 49.4055962 ], [ 18.7010019, 49.4061136 ], [ 18.701039, 49.4062124 ], [ 18.701046, 49.4063819 ], [ 18.7020866, 49.4073013 ], [ 18.7024571, 49.407315 ], [ 18.7027413, 49.4072623 ], [ 18.7034268, 49.4076094 ], [ 18.7036606, 49.4077287 ], [ 18.7037628, 49.4076981 ], [ 18.7039244, 49.4078417 ], [ 18.7041282, 49.4080251 ], [ 18.7041589, 49.4080312 ], [ 18.7046874, 49.4081423 ], [ 18.7059966, 49.4083472 ], [ 18.7060776, 49.4087687 ], [ 18.7062472, 49.4092658 ], [ 18.7062082, 49.4093178 ], [ 18.7061719, 49.409625 ], [ 18.7060551, 49.410151 ], [ 18.7060066, 49.4107021 ], [ 18.7059912, 49.4113542 ], [ 18.7059921, 49.4113769 ], [ 18.7060061, 49.4117429 ], [ 18.7060395, 49.41173 ], [ 18.7061176, 49.4117015 ], [ 18.7061756, 49.4116807 ], [ 18.7069543, 49.4115175 ], [ 18.7073844, 49.4114746 ], [ 18.7076949, 49.4115031 ], [ 18.7089454, 49.4116588 ], [ 18.7096362, 49.4116363 ], [ 18.7100196, 49.4115808 ], [ 18.7109019, 49.4113767 ], [ 18.7116036, 49.4111473 ], [ 18.7120039, 49.411043 ], [ 18.7123372, 49.410995 ], [ 18.7128339, 49.4109579 ], [ 18.7130436, 49.4109575 ], [ 18.7139031, 49.4116341 ], [ 18.7142777, 49.4119547 ], [ 18.7147153, 49.4120744 ], [ 18.7152042, 49.4122545 ], [ 18.7157255, 49.4121995 ], [ 18.7160352, 49.4121727 ], [ 18.7160876, 49.4123593 ], [ 18.7163917, 49.4124992 ], [ 18.7165844, 49.4125104 ], [ 18.7167856, 49.4125649 ], [ 18.7168151, 49.4128675 ], [ 18.717502, 49.4133871 ], [ 18.7176767, 49.4134954 ], [ 18.7177475, 49.4136118 ], [ 18.7177536, 49.413813 ], [ 18.7178255, 49.4140299 ], [ 18.7178478, 49.4140726 ], [ 18.7178561, 49.4142028 ], [ 18.7179563, 49.4143897 ], [ 18.7179125, 49.4146523 ], [ 18.7179146, 49.4149062 ], [ 18.7181012, 49.4151154 ], [ 18.7183345, 49.4151469 ], [ 18.718569, 49.4151105 ], [ 18.718826, 49.4150734 ], [ 18.719055, 49.4151078 ], [ 18.7190898, 49.4151254 ], [ 18.719140771427867, 49.415093251354314 ], [ 18.71916144, 49.4150638 ] ] ] } }
]
}
