{
"type": "FeatureCollection",
"name": "gis",
"crs": { "type": "name", "properties": { "name": "urn:ogc:def:crs:OGC:1.3:CRS84" } },
"features": [
{ "type": "Feature", "properties": { "@featureType": "CadastralParcel", "areaValue": { "value": 2729, "@uom": "m2" }, "beginLifespanVersion": { "@nilReason": "http://inspire.ec.europa.eu/codelist/VoidReasonValue/Unpopulated", "@nil": "true" }, "endLifespanVersion": { "@nilReason": "http://inspire.ec.europa.eu/codelist/VoidReasonValue/Unpopulated", "@nil": "true" }, "inspireId": { "@dataType": "Identifier", "localId": "871133_4684/42.C", "namespace": "SK.ESKN.CP", "versionId": "20260703T06:07:21" }, "label": "4684/42", "nationalCadastralReference": "871133_4684/42.C", "referencePoint": { "type": "Point", "coordinates": [ 16.91136841, 48.32271077 ] }, "validFrom": "2026-06-30T16:00:00Z", "validTo": { "@nilReason": "http://inspire.ec.europa.eu/codelist/VoidReasonValue/Unpopulated", "@nil": "true" }, "administrativeUnit": { "@href": "#auAdmUnitS.981" } }, "geometry": { "type": "Polygon", "coordinates": [ [ [ 16.91299397, 48.32304968 ], [ 16.91308215, 48.32296231 ], [ 16.91284703, 48.32289826 ], [ 16.91266384, 48.32286285 ], [ 16.91266829, 48.32289861 ], [ 16.9124664, 48.32286227 ], [ 16.91225925, 48.32282665 ], [ 16.91193729, 48.32275694 ], [ 16.91190997, 48.32275215 ], [ 16.9117807, 48.32273089 ], [ 16.91169236, 48.32271581 ], [ 16.91161137, 48.32270223 ], [ 16.91149801, 48.32268324 ], [ 16.91145341, 48.32267545 ], [ 16.91141151, 48.32267028 ], [ 16.911295, 48.32264972 ], [ 16.91129168, 48.32265627 ], [ 16.91113039, 48.32262817 ], [ 16.91097163, 48.32259871 ], [ 16.91097387, 48.3225939 ], [ 16.91089917, 48.32258256 ], [ 16.91076419, 48.32256054 ], [ 16.91049649, 48.32251068 ], [ 16.9098657, 48.32239322 ], [ 16.90975662, 48.3223729 ], [ 16.90975721, 48.32247078 ], [ 16.90993679, 48.32251109 ], [ 16.91008929, 48.32253903 ], [ 16.91015526, 48.32255066 ], [ 16.9104233, 48.32259747 ], [ 16.91047741, 48.32260692 ], [ 16.91061841, 48.32263298 ], [ 16.91072106, 48.32265194 ], [ 16.91084993, 48.32267318 ], [ 16.91085694, 48.3226743 ], [ 16.91092318, 48.32268505 ], [ 16.91104672, 48.32270573 ], [ 16.91124567, 48.32274178 ], [ 16.91141518, 48.32277189 ], [ 16.9116093, 48.32280589 ], [ 16.91181563, 48.32284163 ], [ 16.9119379, 48.32286168 ], [ 16.91209456, 48.32288901 ], [ 16.91225343, 48.3229126 ], [ 16.91236687, 48.32293195 ], [ 16.91242467, 48.32294211 ], [ 16.9124702, 48.32295006 ], [ 16.91297234, 48.32304492 ], [ 16.91299397, 48.32304968 ] ] ] } },
{ "type": "Feature", "properties": { "@featureType": "CadastralParcel", "areaValue": { "value": 108, "@uom": "m2" }, "beginLifespanVersion": { "@nilReason": "http://inspire.ec.europa.eu/codelist/VoidReasonValue/Unpopulated", "@nil": "true" }, "endLifespanVersion": { "@nilReason": "http://inspire.ec.europa.eu/codelist/VoidReasonValue/Unpopulated", "@nil": "true" }, "inspireId": { "@dataType": "Identifier", "localId": "871133_2644/2.C", "namespace": "SK.ESKN.CP", "versionId": "20260703T06:07:21" }, "label": "2644/2", "nationalCadastralReference": "871133_2644/2.C", "referencePoint": { "type": "Point", "coordinates": [ 16.91614757, 48.32732934 ] }, "validFrom": "2026-06-30T16:00:00Z", "validTo": { "@nilReason": "http://inspire.ec.europa.eu/codelist/VoidReasonValue/Unpopulated", "@nil": "true" }, "administrativeUnit": { "@href": "#auAdmUnitS.981" } }, "geometry": { "type": "Polygon", "coordinates": [ [ [ 16.91620128, 48.32724971 ], [ 16.91605268, 48.32723063 ], [ 16.91611955, 48.32726782 ], [ 16.91610254, 48.32739087 ], [ 16.91616957, 48.3273966 ], [ 16.91620128, 48.32724971 ] ] ] } },
{ "type": "Feature", "properties": { "@featureType": "CadastralParcel", "areaValue": { "value": 40, "@uom": "m2" }, "beginLifespanVersion": { "@nilReason": "http://inspire.ec.europa.eu/codelist/VoidReasonValue/Unpopulated", "@nil": "true" }, "endLifespanVersion": { "@nilReason": "http://inspire.ec.europa.eu/codelist/VoidReasonValue/Unpopulated", "@nil": "true" }, "inspireId": { "@dataType": "Identifier", "localId": "871133_2567/1.C", "namespace": "SK.ESKN.CP", "versionId": "20260703T06:07:21" }, "label": "2567/1", "nationalCadastralReference": "871133_2567/1.C", "referencePoint": { "type": "Point", "coordinates": [ 16.91019454, 48.33431564 ] }, "validFrom": "2026-06-30T16:00:00Z", "validTo": { "@nilReason": "http://inspire.ec.europa.eu/codelist/VoidReasonValue/Unpopulated", "@nil": "true" }, "administrativeUnit": { "@href": "#auAdmUnitS.981" } }, "geometry": { "type": "Polygon", "coordinates": [ [ [ 16.91022973, 48.33426043 ], [ 16.91018005, 48.33425816 ], [ 16.91016114, 48.33437764 ], [ 16.91020654, 48.33437085 ], [ 16.91022973, 48.33426043 ] ] ] } },
{ "type": "Feature", "properties": { "@featureType": "CadastralParcel", "areaValue": { "value": 53469, "@uom": "m2" }, "beginLifespanVersion": { "@nilReason": "http://inspire.ec.europa.eu/codelist/VoidReasonValue/Unpopulated", "@nil": "true" }, "endLifespanVersion": { "@nilReason": "http://inspire.ec.europa.eu/codelist/VoidReasonValue/Unpopulated", "@nil": "true" }, "inspireId": { "@dataType": "Identifier", "localId": "871133_775/6.E", "namespace": "SK.ESKN.CP", "versionId": "20260703T06:07:21" }, "label": "775/6", "nationalCadastralReference": "871133_775/6.E", "referencePoint": { "type": "Point", "coordinates": [ 16.91084868, 48.32960748 ] }, "validFrom": "2026-06-30T16:00:00Z", "validTo": { "@nilReason": "http://inspire.ec.europa.eu/codelist/VoidReasonValue/Unpopulated", "@nil": "true" }, "administrativeUnit": { "@href": "#auAdmUnitS.981" } }, "geometry": { "type": "Polygon", "coordinates": [ [ [ 16.9071976, 48.33062701 ], [ 16.90738192, 48.33044423 ], [ 16.90685194, 48.33086351 ], [ 16.90692064, 48.33089423 ], [ 16.90700042, 48.33082355 ], [ 16.90715986, 48.33088705 ], [ 16.90721539, 48.33090917 ], [ 16.90731688, 48.33094958 ], [ 16.90734309, 48.33091894 ], [ 16.90739317, 48.33093336 ], [ 16.90750281, 48.33096411 ], [ 16.90753503, 48.33097313 ], [ 16.90767494, 48.33101241 ], [ 16.90782264, 48.33105385 ], [ 16.9078504, 48.33106192 ], [ 16.90795651, 48.33109271 ], [ 16.90810459, 48.33113517 ], [ 16.9081741, 48.33115546 ], [ 16.90824659, 48.33117667 ], [ 16.90842416, 48.33123004 ], [ 16.90855446, 48.33126919 ], [ 16.90875708, 48.33133407 ], [ 16.90888054, 48.33138224 ], [ 16.90888856, 48.3313856 ], [ 16.90892279, 48.3314 ], [ 16.90905598, 48.3314493 ], [ 16.90910442, 48.3314673 ], [ 16.90919321, 48.3315005 ], [ 16.90918642, 48.33150925 ], [ 16.90926281, 48.33153589 ], [ 16.90936069, 48.3315699 ], [ 16.90940775, 48.33158636 ], [ 16.90952581, 48.33162747 ], [ 16.90958501, 48.33164694 ], [ 16.90970575, 48.33168652 ], [ 16.90971515, 48.33167144 ], [ 16.90987512, 48.33171861 ], [ 16.90988745, 48.33173692 ], [ 16.90989829, 48.331743 ], [ 16.91000278, 48.33180505 ], [ 16.91002632, 48.33181409 ], [ 16.91004974, 48.33182304 ], [ 16.91016729, 48.33186827 ], [ 16.91023136, 48.33189306 ], [ 16.91036545, 48.33194006 ], [ 16.91040714, 48.33195444 ], [ 16.91043042, 48.33196256 ], [ 16.9105404, 48.33200591 ], [ 16.91059764, 48.33202841 ], [ 16.91078205, 48.33209528 ], [ 16.91084758, 48.33211854 ], [ 16.91089074, 48.33213392 ], [ 16.91100509, 48.33217449 ], [ 16.911055, 48.33219179 ], [ 16.91113205, 48.33221856 ], [ 16.91120119, 48.33224298 ], [ 16.91119309, 48.33225489 ], [ 16.91127329, 48.33229446 ], [ 16.91135549, 48.33232385 ], [ 16.91139622, 48.33234349 ], [ 16.91149637, 48.33240469 ], [ 16.91162088, 48.33246097 ], [ 16.91163125, 48.3324371 ], [ 16.91178191, 48.33252395 ], [ 16.91176929, 48.33280481 ], [ 16.91175789, 48.33284571 ], [ 16.91177777, 48.33285215 ], [ 16.91169876, 48.33298049 ], [ 16.91167692, 48.33297273 ], [ 16.91162484, 48.33304145 ], [ 16.91158485, 48.33309184 ], [ 16.91154207, 48.33314873 ], [ 16.91152978, 48.33316497 ], [ 16.91149523, 48.33321086 ], [ 16.91147841, 48.33320481 ], [ 16.91145633, 48.33323592 ], [ 16.91148906, 48.33325039 ], [ 16.91143752, 48.33332087 ], [ 16.91142909, 48.33333231 ], [ 16.91139171, 48.33338767 ], [ 16.91138189, 48.33340191 ], [ 16.9113618, 48.33343072 ], [ 16.91135063, 48.33344848 ], [ 16.91133412, 48.33347346 ], [ 16.91125962, 48.33356767 ], [ 16.9112255, 48.33361602 ], [ 16.91115863, 48.33369177 ], [ 16.9112311, 48.33372527 ], [ 16.91125646, 48.33369222 ], [ 16.91132828, 48.33370995 ], [ 16.91141264, 48.33359772 ], [ 16.91143221, 48.3335696 ], [ 16.91146176, 48.33353232 ], [ 16.91149706, 48.33348422 ], [ 16.91160077, 48.33333834 ], [ 16.9116097, 48.33331934 ], [ 16.91164517, 48.33324404 ], [ 16.91170471, 48.33311797 ], [ 16.91171585, 48.33309433 ], [ 16.91176274, 48.33309975 ], [ 16.91176292, 48.33312987 ], [ 16.91176313, 48.33315548 ], [ 16.91176365, 48.3332321 ], [ 16.91176393, 48.33328854 ], [ 16.9117644, 48.33334987 ], [ 16.9117646, 48.33337294 ], [ 16.9117775, 48.33351272 ], [ 16.91178715, 48.33364648 ], [ 16.91178684, 48.33368841 ], [ 16.91178621, 48.33377417 ], [ 16.91178282, 48.33380984 ], [ 16.9118726, 48.33381236 ], [ 16.91192501, 48.33381364 ], [ 16.91194171, 48.33380395 ], [ 16.91194127, 48.33378592 ], [ 16.9119421, 48.33341807 ], [ 16.91233889, 48.33342489 ], [ 16.91239339, 48.33354314 ], [ 16.91249041, 48.33344887 ], [ 16.91249125, 48.33333564 ], [ 16.91249177, 48.33330629 ], [ 16.9130587, 48.33330718 ], [ 16.91319151, 48.3333068 ], [ 16.91349489, 48.33333082 ], [ 16.91335415, 48.33314819 ], [ 16.91344273, 48.33306446 ], [ 16.91347235, 48.33306235 ], [ 16.9132881, 48.33278574 ], [ 16.91321125, 48.33267769 ], [ 16.91316232, 48.33256282 ], [ 16.91315987, 48.3324716 ], [ 16.91315346, 48.33243788 ], [ 16.91315389, 48.33240907 ], [ 16.91313748, 48.33235259 ], [ 16.91313563, 48.33234532 ], [ 16.91313363, 48.33233813 ], [ 16.91310924, 48.33225371 ], [ 16.91310545, 48.33223021 ], [ 16.91310088, 48.33220647 ], [ 16.91307755, 48.33207176 ], [ 16.91354997, 48.33210733 ], [ 16.91374884, 48.33212157 ], [ 16.91396282, 48.33214319 ], [ 16.91419296, 48.33216647 ], [ 16.91423858, 48.33210001 ], [ 16.91413303, 48.33207253 ], [ 16.91343442, 48.33199967 ], [ 16.91303206, 48.33196436 ], [ 16.91301204, 48.33194841 ], [ 16.9130122, 48.33177961 ], [ 16.91306077, 48.33168985 ], [ 16.9130537, 48.33158999 ], [ 16.91304626, 48.33147772 ], [ 16.91309628, 48.33137875 ], [ 16.91304034, 48.33136619 ], [ 16.91305676, 48.3313374 ], [ 16.91312357, 48.33122458 ], [ 16.91316489, 48.33116488 ], [ 16.91308994, 48.33114639 ], [ 16.91313685, 48.33106121 ], [ 16.91316278, 48.3310141 ], [ 16.91319807, 48.33101817 ], [ 16.91320682, 48.33100205 ], [ 16.91322123, 48.33097575 ], [ 16.91324563, 48.33093494 ], [ 16.91299442, 48.33090857 ], [ 16.91297982, 48.33096307 ], [ 16.91285573, 48.33095799 ], [ 16.91281338, 48.33091654 ], [ 16.91275114, 48.33086005 ], [ 16.91268174, 48.33079041 ], [ 16.91265736, 48.33077199 ], [ 16.91274091, 48.330704 ], [ 16.91296489, 48.33064757 ], [ 16.91306148, 48.33065598 ], [ 16.91332563, 48.33056716 ], [ 16.91342743, 48.33043 ], [ 16.91346379, 48.33038289 ], [ 16.91350268, 48.33032998 ], [ 16.91352842, 48.33029451 ], [ 16.91358342, 48.33025311 ], [ 16.91360059, 48.33023776 ], [ 16.91365246, 48.33019118 ], [ 16.9137257, 48.33013106 ], [ 16.91376135, 48.33009285 ], [ 16.91378042, 48.33005403 ], [ 16.91381408, 48.32997734 ], [ 16.91382332, 48.32996505 ], [ 16.91389228, 48.32986802 ], [ 16.91390175, 48.32978811 ], [ 16.91391826, 48.32964486 ], [ 16.91393741, 48.32949167 ], [ 16.91394354, 48.32944191 ], [ 16.91393568, 48.32933061 ], [ 16.91393502, 48.32932613 ], [ 16.91391422, 48.32920823 ], [ 16.91388748, 48.32909191 ], [ 16.91386456, 48.32897197 ], [ 16.9138465, 48.32887216 ], [ 16.91384039, 48.32877653 ], [ 16.91385666, 48.3287357 ], [ 16.91386113, 48.32871485 ], [ 16.91386949, 48.32868994 ], [ 16.91386563, 48.32868596 ], [ 16.91385012, 48.32866979 ], [ 16.91396431, 48.32845663 ], [ 16.9140468, 48.32829979 ], [ 16.91413312, 48.32812792 ], [ 16.91427389, 48.32811029 ], [ 16.9140459, 48.32809601 ], [ 16.91402222, 48.32815396 ], [ 16.91399504, 48.32822739 ], [ 16.91395774, 48.32832227 ], [ 16.91391097, 48.32840655 ], [ 16.91387585, 48.32848829 ], [ 16.91383019, 48.32857762 ], [ 16.91378629, 48.32867133 ], [ 16.9137966, 48.32875477 ], [ 16.91375896, 48.32888661 ], [ 16.91373775, 48.32888261 ], [ 16.913609, 48.32886401 ], [ 16.9135211, 48.32885122 ], [ 16.91342573, 48.32883855 ], [ 16.91346138, 48.32870901 ], [ 16.91341771, 48.328703 ], [ 16.91341741, 48.32870497 ], [ 16.91340971, 48.32875172 ], [ 16.91340891, 48.32875601 ], [ 16.91339817, 48.32879532 ], [ 16.9133867, 48.32883756 ], [ 16.91327448, 48.32882417 ], [ 16.91326797, 48.32882336 ], [ 16.91323228, 48.32881916 ], [ 16.91318157, 48.32881312 ], [ 16.91313724, 48.32880787 ], [ 16.91309566, 48.32880146 ], [ 16.91300711, 48.32879288 ], [ 16.9129974, 48.32878642 ], [ 16.9128628, 48.32877057 ], [ 16.9127766, 48.32876251 ], [ 16.91269325, 48.32875013 ], [ 16.91270912, 48.32870141 ], [ 16.91273014, 48.32863614 ], [ 16.91274302, 48.32858225 ], [ 16.91283509, 48.32859442 ], [ 16.91286023, 48.32854363 ], [ 16.91288577, 48.32845724 ], [ 16.91289025, 48.32844327 ], [ 16.91291322, 48.32837596 ], [ 16.91292714, 48.32833543 ], [ 16.91298555, 48.32819734 ], [ 16.91302911, 48.32807016 ], [ 16.91304434, 48.32802294 ], [ 16.91307485, 48.32796818 ], [ 16.91312438, 48.32789051 ], [ 16.91302656, 48.32787613 ], [ 16.91306274, 48.32777891 ], [ 16.91315979, 48.32779125 ], [ 16.91317839, 48.3277476 ], [ 16.91319898, 48.32769903 ], [ 16.91324505, 48.32759056 ], [ 16.91321661, 48.32758777 ], [ 16.91323346, 48.32752836 ], [ 16.91324332, 48.32749297 ], [ 16.91327345, 48.32738674 ], [ 16.91328453, 48.32734872 ], [ 16.9132924, 48.32732169 ], [ 16.91330499, 48.32727835 ], [ 16.913338, 48.32716581 ], [ 16.91331452, 48.32716246 ], [ 16.91336104, 48.32702762 ], [ 16.9133929, 48.3270311 ], [ 16.91366261, 48.32705957 ], [ 16.91366118, 48.32706788 ], [ 16.91381785, 48.32708127 ], [ 16.91394383, 48.32709245 ], [ 16.91403306, 48.32709756 ], [ 16.91406519, 48.32709933 ], [ 16.91425472, 48.32710985 ], [ 16.91436267, 48.32711571 ], [ 16.91460447, 48.32712841 ], [ 16.91483274, 48.32714523 ], [ 16.91490139, 48.32714927 ], [ 16.9149095, 48.32710336 ], [ 16.91420875, 48.32705594 ], [ 16.91388355, 48.32703909 ], [ 16.91376502, 48.32702797 ], [ 16.91375765, 48.32702737 ], [ 16.91369933, 48.32702233 ], [ 16.91342881, 48.32699905 ], [ 16.91339202, 48.32699587 ], [ 16.91342993, 48.32690925 ], [ 16.91348374, 48.32683459 ], [ 16.91348633, 48.32683016 ], [ 16.91352371, 48.32676612 ], [ 16.91354123, 48.32673984 ], [ 16.91355893, 48.32674198 ], [ 16.91356773, 48.32668816 ], [ 16.91362365, 48.32663643 ], [ 16.91365792, 48.32658012 ], [ 16.9136816, 48.32658041 ], [ 16.91369518, 48.3265064 ], [ 16.9137457, 48.32639453 ], [ 16.91378051, 48.32639649 ], [ 16.91379885, 48.3263493 ], [ 16.91380821, 48.32628928 ], [ 16.91383029, 48.32629117 ], [ 16.91387006, 48.32617349 ], [ 16.91393573, 48.32600273 ], [ 16.91398957, 48.32584615 ], [ 16.91406096, 48.32568393 ], [ 16.91410521, 48.32560625 ], [ 16.91412501, 48.32552706 ], [ 16.91412934, 48.32550973 ], [ 16.91415776, 48.32541179 ], [ 16.91405102, 48.32539291 ], [ 16.91401598, 48.32547854 ], [ 16.91398855, 48.32554228 ], [ 16.91395884, 48.32561111 ], [ 16.91389872, 48.32576191 ], [ 16.9138605, 48.32585746 ], [ 16.91383875, 48.32591174 ], [ 16.91380402, 48.32599884 ], [ 16.91374325, 48.32615114 ], [ 16.91372842, 48.32618799 ], [ 16.91371998, 48.32620911 ], [ 16.91367417, 48.32625946 ], [ 16.91362885, 48.32630921 ], [ 16.91356294, 48.32638149 ], [ 16.91351919, 48.32648732 ], [ 16.91344887, 48.32660875 ], [ 16.9134327, 48.32663675 ], [ 16.91335974, 48.32674299 ], [ 16.91329045, 48.32685518 ], [ 16.91311778, 48.32680523 ], [ 16.91296431, 48.32676258 ], [ 16.91273969, 48.3266989 ], [ 16.91272317, 48.32673003 ], [ 16.91283962, 48.32676578 ], [ 16.91296315, 48.32679785 ], [ 16.91326893, 48.32687232 ], [ 16.91321624, 48.32696414 ], [ 16.91316373, 48.32706177 ], [ 16.91314101, 48.32710314 ], [ 16.9131097, 48.32715956 ], [ 16.91306548, 48.32725016 ], [ 16.91304338, 48.32730315 ], [ 16.91301151, 48.32739362 ], [ 16.91299931, 48.32742315 ], [ 16.91298647, 48.32745599 ], [ 16.91297038, 48.32754086 ], [ 16.91268926, 48.32748646 ], [ 16.91269808, 48.32746646 ], [ 16.91270042, 48.32746101 ], [ 16.91260862, 48.32744452 ], [ 16.91250167, 48.32742526 ], [ 16.91237568, 48.32740115 ], [ 16.91229545, 48.32738699 ], [ 16.91223416, 48.32737397 ], [ 16.91209783, 48.32735448 ], [ 16.91186666, 48.32732922 ], [ 16.91157179, 48.32770552 ], [ 16.91138467, 48.32789335 ], [ 16.91118007, 48.32808893 ], [ 16.91105942, 48.3281905 ], [ 16.91089423, 48.32833854 ], [ 16.91072659, 48.32846669 ], [ 16.91050926, 48.32855433 ], [ 16.91033799, 48.32864145 ], [ 16.91024514, 48.3286899 ], [ 16.91017526, 48.32869807 ], [ 16.90998095, 48.32877292 ], [ 16.91011156, 48.32882828 ], [ 16.91028771, 48.32890985 ], [ 16.91038533, 48.32895333 ], [ 16.91054432, 48.32902576 ], [ 16.91068957, 48.32904379 ], [ 16.91079618, 48.32906095 ], [ 16.91093985, 48.32909605 ], [ 16.91106007, 48.32913197 ], [ 16.91135737, 48.32919048 ], [ 16.91147561, 48.32921306 ], [ 16.91151936, 48.32922116 ], [ 16.91154043, 48.32918256 ], [ 16.91145391, 48.3291583 ], [ 16.91134862, 48.32913879 ], [ 16.91129532, 48.32913021 ], [ 16.91128376, 48.32914604 ], [ 16.91113031, 48.32910845 ], [ 16.91096301, 48.32906493 ], [ 16.91082823, 48.32902674 ], [ 16.91081635, 48.32903767 ], [ 16.91071664, 48.32900064 ], [ 16.91062197, 48.32896523 ], [ 16.91059206, 48.32899788 ], [ 16.91057177, 48.32898978 ], [ 16.91045409, 48.32894102 ], [ 16.91035617, 48.32890384 ], [ 16.91025892, 48.32885713 ], [ 16.91011028, 48.32878434 ], [ 16.91015105, 48.32874377 ], [ 16.91022401, 48.32872369 ], [ 16.91034542, 48.32878067 ], [ 16.91043745, 48.32882431 ], [ 16.91053536, 48.32886157 ], [ 16.91064715, 48.32890287 ], [ 16.91076348, 48.32894286 ], [ 16.91086517, 48.32897939 ], [ 16.91098952, 48.32901315 ], [ 16.91115942, 48.32905134 ], [ 16.91117699, 48.32900391 ], [ 16.91101257, 48.32897406 ], [ 16.91093558, 48.32894612 ], [ 16.91089968, 48.32893377 ], [ 16.91077564, 48.32889099 ], [ 16.91069194, 48.32886086 ], [ 16.9106213, 48.32883308 ], [ 16.91033737, 48.32871058 ], [ 16.91044123, 48.32865323 ], [ 16.9104365, 48.32865227 ], [ 16.91057787, 48.32857256 ], [ 16.91060196, 48.32855895 ], [ 16.91066815, 48.32852141 ], [ 16.91076022, 48.32846577 ], [ 16.91083167, 48.32841277 ], [ 16.91089123, 48.32836735 ], [ 16.91093239, 48.32833639 ], [ 16.91103935, 48.32825566 ], [ 16.91108798, 48.32820993 ], [ 16.91113085, 48.32815676 ], [ 16.91121107, 48.3280927 ], [ 16.91129287, 48.32801682 ], [ 16.91135634, 48.32796887 ], [ 16.91145226, 48.32787987 ], [ 16.91158634, 48.32773302 ], [ 16.91167434, 48.3276365 ], [ 16.91179614, 48.32749015 ], [ 16.91186888, 48.32737675 ], [ 16.91204697, 48.32741451 ], [ 16.91210892, 48.32742767 ], [ 16.91222741, 48.32745289 ], [ 16.91229776, 48.3274678 ], [ 16.91254947, 48.32752125 ], [ 16.91266715, 48.3275465 ], [ 16.91275874, 48.32756605 ], [ 16.91278323, 48.32757074 ], [ 16.91292994, 48.32760198 ], [ 16.91288773, 48.32772048 ], [ 16.91288574, 48.32772631 ], [ 16.91283201, 48.32787693 ], [ 16.91281994, 48.32790909 ], [ 16.91278983, 48.32799001 ], [ 16.91276675, 48.32803108 ], [ 16.91278284, 48.32803401 ], [ 16.91274695, 48.32812501 ], [ 16.91273271, 48.32812239 ], [ 16.91271816, 48.32815574 ], [ 16.91272831, 48.32815762 ], [ 16.91269394, 48.32824412 ], [ 16.91268604, 48.32824258 ], [ 16.91266587, 48.32831279 ], [ 16.91264674, 48.32837285 ], [ 16.9126227, 48.32846007 ], [ 16.91260913, 48.3284575 ], [ 16.91259659, 48.32848927 ], [ 16.91256496, 48.32856944 ], [ 16.91250411, 48.32872662 ], [ 16.91248789, 48.32876283 ], [ 16.91244058, 48.32886796 ], [ 16.91237608, 48.32902769 ], [ 16.91232514, 48.32915517 ], [ 16.91229658, 48.3292418 ], [ 16.91226264, 48.32934469 ], [ 16.91220487, 48.3294499 ], [ 16.91212181, 48.32951385 ], [ 16.91210931, 48.32956534 ], [ 16.91209967, 48.3296219 ], [ 16.91209229, 48.32967184 ], [ 16.91201559, 48.32983325 ], [ 16.91181609, 48.32979356 ], [ 16.91177368, 48.32978555 ], [ 16.91170242, 48.32977039 ], [ 16.91157227, 48.32974509 ], [ 16.91143941, 48.3297215 ], [ 16.91128396, 48.32968458 ], [ 16.91108843, 48.32962463 ], [ 16.91109696, 48.32961257 ], [ 16.91107021, 48.32960239 ], [ 16.91105891, 48.32959835 ], [ 16.91105694, 48.32960138 ], [ 16.91092914, 48.32956367 ], [ 16.9109353, 48.32955461 ], [ 16.91087439, 48.32953302 ], [ 16.91090474, 48.32949236 ], [ 16.91074184, 48.32943793 ], [ 16.91077924, 48.32938682 ], [ 16.91055891, 48.32932334 ], [ 16.91055564, 48.32932257 ], [ 16.91040371, 48.32928309 ], [ 16.91021651, 48.32924976 ], [ 16.91009754, 48.3292293 ], [ 16.91003926, 48.32920564 ], [ 16.9099726, 48.32917579 ], [ 16.90989418, 48.3291283 ], [ 16.90991839, 48.32910702 ], [ 16.90984534, 48.32906506 ], [ 16.90972925, 48.32898874 ], [ 16.90962879, 48.32891658 ], [ 16.90964996, 48.32888866 ], [ 16.90970747, 48.32885549 ], [ 16.90975755, 48.3288265 ], [ 16.90990282, 48.32879571 ], [ 16.90998095, 48.32877292 ], [ 16.90992545, 48.32874195 ], [ 16.90971166, 48.32880515 ], [ 16.90966277, 48.32881957 ], [ 16.90950882, 48.32886512 ], [ 16.90944991, 48.32882297 ], [ 16.90939253, 48.32878146 ], [ 16.90936133, 48.32875896 ], [ 16.9093419, 48.32874531 ], [ 16.90921632, 48.32865513 ], [ 16.9091898, 48.32863566 ], [ 16.90924728, 48.32848359 ], [ 16.90926712, 48.32843469 ], [ 16.90929817, 48.32837554 ], [ 16.90932254, 48.32834622 ], [ 16.909336, 48.32832862 ], [ 16.90931497, 48.32832002 ], [ 16.90934709, 48.32825932 ], [ 16.90935793, 48.3282324 ], [ 16.90933633, 48.32822313 ], [ 16.90939387, 48.32810723 ], [ 16.90944941, 48.32798757 ], [ 16.90946656, 48.32795069 ], [ 16.90944553, 48.32794209 ], [ 16.90950872, 48.32782993 ], [ 16.90951999, 48.32781073 ], [ 16.90950297, 48.32780593 ], [ 16.90955236, 48.32760149 ], [ 16.90957908, 48.32753453 ], [ 16.9096081, 48.32743456 ], [ 16.9096028, 48.32738943 ], [ 16.90955275, 48.32738171 ], [ 16.90958138, 48.32728776 ], [ 16.90956651, 48.32728574 ], [ 16.90959635, 48.32720399 ], [ 16.90955016, 48.32719934 ], [ 16.90956675, 48.3270183 ], [ 16.9095289, 48.32700799 ], [ 16.9095628, 48.32686368 ], [ 16.90953411, 48.32685817 ], [ 16.9095427, 48.32674484 ], [ 16.90954617, 48.32671217 ], [ 16.90953203, 48.32670983 ], [ 16.90953782, 48.3266614 ], [ 16.90955259, 48.32659805 ], [ 16.9095616, 48.32656115 ], [ 16.9095203, 48.3265582 ], [ 16.90953349, 48.32644238 ], [ 16.90953748, 48.32640378 ], [ 16.90955108, 48.32631919 ], [ 16.90955525, 48.32629335 ], [ 16.90956639, 48.32622369 ], [ 16.9095743, 48.32617387 ], [ 16.90959264, 48.32605977 ], [ 16.90959682, 48.32603384 ], [ 16.90956668, 48.32602976 ], [ 16.90946216, 48.32650154 ], [ 16.90947541, 48.32677471 ], [ 16.90950298, 48.32721234 ], [ 16.90948758, 48.32758913 ], [ 16.90926453, 48.32834437 ], [ 16.90898386, 48.32901875 ], [ 16.90840503, 48.32975211 ], [ 16.90804226, 48.33013228 ], [ 16.90738192, 48.33044423 ], [ 16.90754577, 48.33038218 ], [ 16.90762111, 48.33035124 ], [ 16.9077444, 48.33039009 ], [ 16.90789442, 48.33043576 ], [ 16.90790014, 48.33049385 ], [ 16.90792181, 48.33064689 ], [ 16.90782256, 48.33080239 ], [ 16.90764492, 48.33088591 ], [ 16.90727674, 48.33078802 ], [ 16.9071976, 48.33062701 ] ], [ [ 16.91198643, 48.33003847 ], [ 16.91196862, 48.3300196 ], [ 16.9119932, 48.3300081 ], [ 16.91201037, 48.33002837 ], [ 16.91198643, 48.33003847 ] ], [ [ 16.90718608, 48.33072603 ], [ 16.9071602, 48.33070941 ], [ 16.90717887, 48.33069316 ], [ 16.90720685, 48.33071111 ], [ 16.90718608, 48.33072603 ] ], [ [ 16.90905353, 48.32893462 ], [ 16.90911708, 48.32881407 ], [ 16.90927459, 48.32885086 ], [ 16.90922139, 48.32896932 ], [ 16.90905353, 48.32893462 ] ], [ [ 16.91176289, 48.33210174 ], [ 16.91176876, 48.33210151 ], [ 16.91177044, 48.33212288 ], [ 16.91173795, 48.33215209 ], [ 16.91163626, 48.33215381 ], [ 16.91163627, 48.33214938 ], [ 16.91140863, 48.33214399 ], [ 16.91128587, 48.33211476 ], [ 16.9110195, 48.33204475 ], [ 16.911011, 48.33202969 ], [ 16.91109434, 48.33193873 ], [ 16.91111945, 48.33191163 ], [ 16.91120862, 48.33182161 ], [ 16.91126115, 48.33182905 ], [ 16.91128827, 48.33183165 ], [ 16.91130056, 48.33175285 ], [ 16.9113257, 48.3317073 ], [ 16.91135312, 48.3316715 ], [ 16.91142713, 48.33159083 ], [ 16.91145254, 48.33155742 ], [ 16.91159986, 48.33147704 ], [ 16.9116721, 48.3314816 ], [ 16.91167545, 48.331501 ], [ 16.91169572, 48.33161877 ], [ 16.91170869, 48.3317147 ], [ 16.91171116, 48.33173278 ], [ 16.91172171, 48.33178333 ], [ 16.91172925, 48.33182363 ], [ 16.91173282, 48.3318964 ], [ 16.91173884, 48.33193253 ], [ 16.91175674, 48.33201686 ], [ 16.91176289, 48.33210174 ] ], [ [ 16.91210471, 48.33107869 ], [ 16.9120089, 48.33117657 ], [ 16.91191796, 48.33125977 ], [ 16.91194673, 48.33127352 ], [ 16.9119111, 48.33130197 ], [ 16.91179194, 48.33136351 ], [ 16.91178209, 48.33136237 ], [ 16.91169607, 48.33135225 ], [ 16.91168642, 48.33135158 ], [ 16.91167224, 48.33125032 ], [ 16.91167522, 48.33121563 ], [ 16.91170255, 48.3311621 ], [ 16.91174423, 48.33109392 ], [ 16.91170635, 48.33108732 ], [ 16.91171988, 48.331051 ], [ 16.91174017, 48.3310044 ], [ 16.9117634, 48.33095628 ], [ 16.91178365, 48.33090732 ], [ 16.91180099, 48.33085871 ], [ 16.91182034, 48.33086159 ], [ 16.91186934, 48.33086905 ], [ 16.91187023, 48.33086514 ], [ 16.91183205, 48.33086041 ], [ 16.91187011, 48.33071639 ], [ 16.91187325, 48.33061281 ], [ 16.91188922, 48.3305782 ], [ 16.91198346, 48.33044694 ], [ 16.91220616, 48.33057695 ], [ 16.91227322, 48.33061813 ], [ 16.9123269, 48.33065042 ], [ 16.91240287, 48.33073535 ], [ 16.91238952, 48.33074708 ], [ 16.91248419, 48.33080166 ], [ 16.91230791, 48.33093383 ], [ 16.91226172, 48.33097267 ], [ 16.91225414, 48.33096826 ], [ 16.91222987, 48.33098909 ], [ 16.91214688, 48.33106046 ], [ 16.91211861, 48.33108436 ], [ 16.91210471, 48.33107869 ] ], [ [ 16.91276428, 48.33058808 ], [ 16.91273171, 48.33057606 ], [ 16.91272447, 48.33059292 ], [ 16.91271181, 48.33061582 ], [ 16.91265572, 48.33067206 ], [ 16.91244843, 48.33059366 ], [ 16.91222731, 48.33046133 ], [ 16.91226782, 48.33039198 ], [ 16.91215555, 48.33037199 ], [ 16.91214942, 48.33037129 ], [ 16.91216484, 48.33032372 ], [ 16.91214351, 48.33032052 ], [ 16.91215217, 48.33029716 ], [ 16.91217824, 48.33030132 ], [ 16.91217122, 48.33025156 ], [ 16.91212219, 48.33024336 ], [ 16.91214372, 48.33013319 ], [ 16.91214102, 48.33006004 ], [ 16.91216153, 48.32999202 ], [ 16.91224074, 48.33000837 ], [ 16.91235875, 48.33003852 ], [ 16.91242904, 48.33005117 ], [ 16.91267049, 48.33009749 ], [ 16.91284151, 48.33013376 ], [ 16.91296634, 48.3301558 ], [ 16.91307092, 48.33016685 ], [ 16.91317426, 48.33017799 ], [ 16.91317316, 48.33018506 ], [ 16.9132617, 48.33019201 ], [ 16.91325954, 48.33020588 ], [ 16.91337413, 48.33021012 ], [ 16.91345691, 48.33021315 ], [ 16.91345196, 48.3302553 ], [ 16.91343503, 48.33027863 ], [ 16.91338963, 48.33034112 ], [ 16.91325792, 48.33043443 ], [ 16.91313648, 48.3304176 ], [ 16.91305146, 48.33040637 ], [ 16.91301387, 48.33039092 ], [ 16.9129538, 48.33034227 ], [ 16.91296676, 48.33026614 ], [ 16.91293742, 48.33026211 ], [ 16.91293476, 48.33027567 ], [ 16.91291132, 48.33039466 ], [ 16.91290422, 48.33042283 ], [ 16.91288849, 48.33045845 ], [ 16.91285138, 48.33049729 ], [ 16.91276428, 48.33058808 ] ], [ [ 16.91271047, 48.33143382 ], [ 16.91274078, 48.33154288 ], [ 16.91275518, 48.33164786 ], [ 16.91276346, 48.33167999 ], [ 16.91277409, 48.33167793 ], [ 16.91278843, 48.33175984 ], [ 16.91280909, 48.33187339 ], [ 16.91281383, 48.33190826 ], [ 16.91280008, 48.33192684 ], [ 16.91262969, 48.33196041 ], [ 16.91244308, 48.33199539 ], [ 16.91242444, 48.33195757 ], [ 16.91243867, 48.33195412 ], [ 16.91238535, 48.33184563 ], [ 16.91236306, 48.33179906 ], [ 16.91235145, 48.33180133 ], [ 16.91231999, 48.33172835 ], [ 16.91224662, 48.33174143 ], [ 16.91226273, 48.33177203 ], [ 16.91228228, 48.33180928 ], [ 16.912301, 48.33184485 ], [ 16.91234828, 48.33197118 ], [ 16.9123074, 48.33197422 ], [ 16.91231623, 48.33201498 ], [ 16.91214634, 48.33203403 ], [ 16.91199723, 48.33205109 ], [ 16.91198793, 48.33200035 ], [ 16.91196717, 48.33200216 ], [ 16.9119617, 48.33194509 ], [ 16.91195994, 48.3319277 ], [ 16.91190715, 48.33193055 ], [ 16.91182895, 48.33193471 ], [ 16.91181282, 48.33183639 ], [ 16.91179813, 48.33174631 ], [ 16.91179421, 48.3317219 ], [ 16.91178551, 48.33164987 ], [ 16.91176735, 48.33154553 ], [ 16.91176423, 48.33152642 ], [ 16.9118821, 48.33151832 ], [ 16.91191191, 48.33149932 ], [ 16.91187365, 48.33147949 ], [ 16.91182022, 48.33144649 ], [ 16.91189276, 48.33139437 ], [ 16.91200655, 48.33131248 ], [ 16.91203786, 48.33128997 ], [ 16.91205924, 48.33127454 ], [ 16.91204443, 48.3312652 ], [ 16.91216411, 48.33117947 ], [ 16.91220759, 48.33113628 ], [ 16.91224153, 48.33111431 ], [ 16.91229839, 48.33107748 ], [ 16.91237949, 48.33099476 ], [ 16.9124176, 48.33097996 ], [ 16.91250492, 48.33094605 ], [ 16.91255532, 48.33103761 ], [ 16.91265484, 48.33121323 ], [ 16.91266919, 48.33123773 ], [ 16.91270008, 48.33133093 ], [ 16.91271992, 48.33137408 ], [ 16.91272264, 48.33140618 ], [ 16.91271047, 48.33143382 ] ], [ [ 16.91195758, 48.33252004 ], [ 16.91191622, 48.33241401 ], [ 16.91192415, 48.33235099 ], [ 16.91204226, 48.3321684 ], [ 16.91214881, 48.33213556 ], [ 16.91282772, 48.33203219 ], [ 16.91287558, 48.33330063 ], [ 16.91227546, 48.33326036 ], [ 16.91209533, 48.33301559 ], [ 16.91195758, 48.33252004 ] ], [ [ 16.91244526, 48.32935518 ], [ 16.91247252, 48.32927082 ], [ 16.912497, 48.32922251 ], [ 16.91252531, 48.32918795 ], [ 16.91257664, 48.32904747 ], [ 16.91259295, 48.32899417 ], [ 16.91259744, 48.32899494 ], [ 16.91261257, 48.32895096 ], [ 16.91264275, 48.32887222 ], [ 16.91265676, 48.32884932 ], [ 16.91267538, 48.32880296 ], [ 16.91269192, 48.32876216 ], [ 16.91309958, 48.32881376 ], [ 16.91312993, 48.32881821 ], [ 16.913258, 48.3288412 ], [ 16.91342803, 48.32887243 ], [ 16.91358979, 48.32889938 ], [ 16.9137205, 48.32892282 ], [ 16.91379074, 48.32894713 ], [ 16.91380954, 48.32906218 ], [ 16.91381263, 48.32917108 ], [ 16.91385023, 48.32932296 ], [ 16.91385786, 48.32941572 ], [ 16.91385838, 48.32950283 ], [ 16.91384411, 48.3296022 ], [ 16.91382688, 48.32971005 ], [ 16.91382618, 48.32985973 ], [ 16.91376399, 48.3299603 ], [ 16.91363963, 48.33004652 ], [ 16.91361161, 48.33006447 ], [ 16.9135771, 48.33007627 ], [ 16.91354608, 48.33008389 ], [ 16.91334683, 48.33010606 ], [ 16.91328178, 48.33010326 ], [ 16.91323608, 48.33010154 ], [ 16.91321445, 48.33009941 ], [ 16.91283416, 48.33004003 ], [ 16.91276286, 48.33002776 ], [ 16.91251394, 48.32997804 ], [ 16.91253369, 48.32994098 ], [ 16.91245967, 48.32992608 ], [ 16.91220596, 48.32987494 ], [ 16.91223016, 48.32982237 ], [ 16.91226763, 48.329736 ], [ 16.91230124, 48.32965876 ], [ 16.91231688, 48.32962277 ], [ 16.91235474, 48.32962784 ], [ 16.91235081, 48.32955912 ], [ 16.91235847, 48.32953262 ], [ 16.91237342, 48.32948112 ], [ 16.91240358, 48.32948593 ], [ 16.91241689, 48.32944318 ], [ 16.91243533, 48.32938668 ], [ 16.91244526, 48.32935518 ] ], [ [ 16.91171336, 48.33083201 ], [ 16.91168803, 48.33088921 ], [ 16.91166461, 48.33093677 ], [ 16.91164671, 48.33097332 ], [ 16.91163552, 48.33097029 ], [ 16.91158026, 48.33105334 ], [ 16.91156742, 48.33112868 ], [ 16.91155777, 48.33114799 ], [ 16.91152225, 48.33123576 ], [ 16.91151362, 48.33128236 ], [ 16.91147405, 48.33138911 ], [ 16.91144631, 48.33142959 ], [ 16.91142693, 48.33145474 ], [ 16.91139838, 48.33149173 ], [ 16.91138351, 48.33151059 ], [ 16.91133067, 48.33157727 ], [ 16.91124527, 48.33165534 ], [ 16.91119494, 48.33169896 ], [ 16.91111769, 48.3316596 ], [ 16.91103189, 48.33161504 ], [ 16.91098855, 48.33159214 ], [ 16.91096841, 48.33162303 ], [ 16.91095459, 48.33164467 ], [ 16.91101403, 48.33165829 ], [ 16.91107778, 48.33168857 ], [ 16.91113092, 48.33172517 ], [ 16.91100187, 48.33181007 ], [ 16.91087318, 48.33191009 ], [ 16.91086013, 48.33191904 ], [ 16.91084483, 48.3319093 ], [ 16.9107746, 48.33194837 ], [ 16.91073288, 48.33193156 ], [ 16.91069258, 48.33189612 ], [ 16.91057513, 48.33184765 ], [ 16.91051028, 48.33182353 ], [ 16.91050011, 48.33183566 ], [ 16.91039658, 48.33179792 ], [ 16.91034846, 48.33178129 ], [ 16.91038628, 48.33173183 ], [ 16.9103905, 48.33172561 ], [ 16.91055924, 48.33175739 ], [ 16.91057889, 48.3317253 ], [ 16.91051129, 48.3317084 ], [ 16.90993304, 48.33157769 ], [ 16.90988667, 48.33156724 ], [ 16.90982857, 48.33155109 ], [ 16.90966946, 48.33150199 ], [ 16.90952225, 48.33145651 ], [ 16.90943531, 48.33142968 ], [ 16.90932148, 48.33139448 ], [ 16.90873251, 48.33119954 ], [ 16.9084477, 48.33110527 ], [ 16.90830186, 48.33104669 ], [ 16.90826691, 48.33103341 ], [ 16.90797306, 48.33088671 ], [ 16.9079687, 48.33087384 ], [ 16.90797668, 48.33078361 ], [ 16.90803899, 48.33071795 ], [ 16.90802641, 48.33065523 ], [ 16.90806736, 48.33055699 ], [ 16.90806949, 48.3305547 ], [ 16.90810927, 48.33051351 ], [ 16.9081421, 48.33047863 ], [ 16.90807351, 48.33045769 ], [ 16.90799879, 48.33043686 ], [ 16.9080714, 48.33030347 ], [ 16.90814609, 48.33022194 ], [ 16.90819551, 48.33018333 ], [ 16.90822658, 48.33014669 ], [ 16.90828525, 48.33007572 ], [ 16.90824068, 48.33005807 ], [ 16.90835612, 48.32993434 ], [ 16.90848018, 48.32981013 ], [ 16.90846574, 48.32980189 ], [ 16.90855535, 48.32966905 ], [ 16.90860702, 48.32959252 ], [ 16.90863154, 48.32955616 ], [ 16.90867151, 48.32950504 ], [ 16.90869737, 48.3294723 ], [ 16.90868621, 48.32946908 ], [ 16.90875404, 48.32936891 ], [ 16.90875492, 48.32936761 ], [ 16.90879578, 48.32930734 ], [ 16.90882207, 48.32931612 ], [ 16.90887748, 48.32924863 ], [ 16.90889952, 48.32922122 ], [ 16.909004, 48.32908607 ], [ 16.90908503, 48.32908201 ], [ 16.90936796, 48.32917181 ], [ 16.90959642, 48.32924399 ], [ 16.90998121, 48.32936572 ], [ 16.91011959, 48.3294095 ], [ 16.91030451, 48.32948354 ], [ 16.91071516, 48.32964811 ], [ 16.91072589, 48.32963583 ], [ 16.91082195, 48.32967016 ], [ 16.91080941, 48.3296871 ], [ 16.91092746, 48.32972477 ], [ 16.91106126, 48.32976751 ], [ 16.91106799, 48.3297696 ], [ 16.9111986, 48.32981365 ], [ 16.91139761, 48.3298808 ], [ 16.91152759, 48.32992463 ], [ 16.91162085, 48.32995343 ], [ 16.9117073, 48.32999035 ], [ 16.91173475, 48.33002038 ], [ 16.91174823, 48.33006173 ], [ 16.91175795, 48.33013672 ], [ 16.91176132, 48.33018732 ], [ 16.91178446, 48.33018585 ], [ 16.91179251, 48.33029247 ], [ 16.91176835, 48.3302926 ], [ 16.91177942, 48.33034852 ], [ 16.91180127, 48.33041794 ], [ 16.91180326, 48.3305217 ], [ 16.91178425, 48.33064009 ], [ 16.91177454, 48.33066754 ], [ 16.91171336, 48.33083201 ] ] ] } },
{ "type": "Feature", "properties": { "@featureType": "CadastralParcel", "areaValue": { "value": 913, "@uom": "m2" }, "beginLifespanVersion": { "@nilReason": "http://inspire.ec.europa.eu/codelist/VoidReasonValue/Unpopulated", "@nil": "true" }, "endLifespanVersion": { "@nilReason": "http://inspire.ec.europa.eu/codelist/VoidReasonValue/Unpopulated", "@nil": "true" }, "inspireId": { "@dataType": "Identifier", "localId": "871133_793/3.E", "namespace": "SK.ESKN.CP", "versionId": "20260703T06:07:21" }, "label": "793/3", "nationalCadastralReference": "871133_793/3.E", "referencePoint": { "type": "Point", "coordinates": [ 16.90775627, 48.32798395 ] }, "validFrom": "2026-06-30T16:00:00Z", "validTo": { "@nilReason": "http://inspire.ec.europa.eu/codelist/VoidReasonValue/Unpopulated", "@nil": "true" }, "administrativeUnit": { "@href": "#auAdmUnitS.981" } }, "geometry": { "type": "Polygon", "coordinates": [ [ [ 16.9080377, 48.32760533 ], [ 16.90771533, 48.32790041 ], [ 16.90720501, 48.32836763 ], [ 16.90723765, 48.32838526 ], [ 16.90727387, 48.32836083 ], [ 16.90734614, 48.32830952 ], [ 16.90737317, 48.32827884 ], [ 16.90739354, 48.32827167 ], [ 16.90748931, 48.32818537 ], [ 16.90757855, 48.32814608 ], [ 16.90765644, 48.32809615 ], [ 16.90766996, 48.32808515 ], [ 16.90772002, 48.32805282 ], [ 16.90779876, 48.32802782 ], [ 16.9078603, 48.3280027 ], [ 16.90791659, 48.3279652 ], [ 16.90800158, 48.32789062 ], [ 16.9079886, 48.32788348 ], [ 16.90792245, 48.32784598 ], [ 16.90787432, 48.32781904 ], [ 16.9079602, 48.32774571 ], [ 16.90801366, 48.32769942 ], [ 16.90805149, 48.32771678 ], [ 16.90816943, 48.32776556 ], [ 16.90825514, 48.32779493 ], [ 16.90828518, 48.32775452 ], [ 16.90815049, 48.32769924 ], [ 16.9080377, 48.32760533 ] ] ] } }
]
}
