{
"type": "FeatureCollection",
"name": "gis",
"crs": { "type": "name", "properties": { "name": "urn:ogc:def:crs:OGC:1.3:CRS84" } },
"features": [
{ "type": "Feature", "properties": { "@featureType": "CadastralParcel", "areaValue": { "value": 389, "@uom": "m2" }, "beginLifespanVersion": { "@nilReason": "http://inspire.ec.europa.eu/codelist/VoidReasonValue/Unpopulated", "@nil": "true" }, "endLifespanVersion": { "@nilReason": "http://inspire.ec.europa.eu/codelist/VoidReasonValue/Unpopulated", "@nil": "true" }, "inspireId": { "@dataType": "Identifier", "localId": "829773_11745/67.C", "namespace": "SK.ESKN.CP", "versionId": "20260703T04:07:34" }, "label": "11745/67", "nationalCadastralReference": "829773_11745/67.C", "referencePoint": { "type": "Point", "coordinates": [ 17.17641535, 48.40103348 ] }, "validFrom": "2026-06-30T16:00:00Z", "validTo": { "@nilReason": "http://inspire.ec.europa.eu/codelist/VoidReasonValue/Unpopulated", "@nil": "true" }, "administrativeUnit": { "@href": "#auAdmUnitS.2787" } }, "geometry": { "type": "Polygon", "coordinates": [ [ [ 17.17639171, 48.40117179 ], [ 17.17652697, 48.40115246 ], [ 17.17640818, 48.40079915 ], [ 17.17626856, 48.40081674 ], [ 17.17639171, 48.40117179 ] ], [ [ 17.17635724, 48.40091451 ], [ 17.17634064, 48.40086802 ], [ 17.17640529, 48.40085698 ], [ 17.17642216, 48.40090348 ], [ 17.17635724, 48.40091451 ] ] ] } }
]
}
