{
"type": "FeatureCollection",
"name": "gis",
"crs": { "type": "name", "properties": { "name": "urn:ogc:def:crs:OGC:1.3:CRS84" } },
"features": [
{ "type": "Feature", "properties": { "@featureType": "CadastralParcel", "areaValue": { "value": 1872, "@uom": "m2" }, "beginLifespanVersion": { "@nilReason": "http://inspire.ec.europa.eu/codelist/VoidReasonValue/Unpopulated", "@nil": "true" }, "endLifespanVersion": { "@nilReason": "http://inspire.ec.europa.eu/codelist/VoidReasonValue/Unpopulated", "@nil": "true" }, "inspireId": { "@dataType": "Identifier", "localId": "835803_1423/2.C", "namespace": "SK.ESKN.CP", "versionId": "20260703T05:07:45" }, "label": "1423/2", "nationalCadastralReference": "835803_1423/2.C", "referencePoint": { "type": "Point", "coordinates": [ 17.28748027, 48.15412386 ] }, "validFrom": "2026-06-30T16:00:00Z", "validTo": { "@nilReason": "http://inspire.ec.europa.eu/codelist/VoidReasonValue/Unpopulated", "@nil": "true" }, "administrativeUnit": { "@href": "#auAdmUnitS.2419" } }, "geometry": { "type": "Polygon", "coordinates": [ [ [ 17.2861054, 48.15457661 ], [ 17.2861153, 48.15462109 ], [ 17.28700149, 48.1543232 ], [ 17.2880382, 48.15397182 ], [ 17.28859299, 48.15379863 ], [ 17.28859638, 48.15379759 ], [ 17.28862824, 48.15378768 ], [ 17.28885182, 48.1537179 ], [ 17.28881977, 48.15364059 ], [ 17.28837623, 48.15378301 ], [ 17.28834865, 48.15379239 ], [ 17.28829467, 48.15381303 ], [ 17.28805204, 48.15389474 ], [ 17.28777929, 48.15398648 ], [ 17.28750696, 48.15407806 ], [ 17.2872349, 48.15416966 ], [ 17.28696285, 48.15426117 ], [ 17.28672393, 48.1543415 ], [ 17.2864061, 48.1544485 ], [ 17.28631215, 48.15448005 ], [ 17.28597698, 48.15459286 ], [ 17.28599865, 48.15460523 ], [ 17.2861054, 48.15457661 ] ] ] } },
{ "type": "Feature", "properties": { "@featureType": "CadastralParcel", "areaValue": { "value": 1855, "@uom": "m2" }, "beginLifespanVersion": { "@nilReason": "http://inspire.ec.europa.eu/codelist/VoidReasonValue/Unpopulated", "@nil": "true" }, "endLifespanVersion": { "@nilReason": "http://inspire.ec.europa.eu/codelist/VoidReasonValue/Unpopulated", "@nil": "true" }, "inspireId": { "@dataType": "Identifier", "localId": "835803_1423/101.E", "namespace": "SK.ESKN.CP", "versionId": "20260703T05:07:45" }, "label": "1423/101", "nationalCadastralReference": "835803_1423/101.E", "referencePoint": { "type": "Point", "coordinates": [ 17.28748027, 48.15412386 ] }, "validFrom": "2026-06-30T16:00:00Z", "validTo": { "@nilReason": "http://inspire.ec.europa.eu/codelist/VoidReasonValue/Unpopulated", "@nil": "true" }, "administrativeUnit": { "@href": "#auAdmUnitS.2419" } }, "geometry": { "type": "Polygon", "coordinates": [ [ [ 17.28885182, 48.1537179 ], [ 17.28881977, 48.15364059 ], [ 17.28837623, 48.15378301 ], [ 17.28834865, 48.15379239 ], [ 17.28829467, 48.15381303 ], [ 17.28805204, 48.15389474 ], [ 17.28777929, 48.15398648 ], [ 17.28750696, 48.15407806 ], [ 17.2872349, 48.15416966 ], [ 17.28696285, 48.15426117 ], [ 17.28672393, 48.1543415 ], [ 17.2864061, 48.1544485 ], [ 17.28631215, 48.15448005 ], [ 17.28597698, 48.15459286 ], [ 17.28599865, 48.15460523 ], [ 17.2861054, 48.15457661 ], [ 17.2861153, 48.15462109 ], [ 17.28684073, 48.15437725 ], [ 17.28700149, 48.1543232 ], [ 17.2880382, 48.15397182 ], [ 17.28859638, 48.15379759 ], [ 17.28862824, 48.15378768 ], [ 17.28865964, 48.15383467 ], [ 17.28871251, 48.15381603 ], [ 17.28886968, 48.15376056 ], [ 17.28885182, 48.1537179 ] ] ] } }
]
}
