{
"type": "FeatureCollection",
"name": "gis",
"crs": { "type": "name", "properties": { "name": "urn:ogc:def:crs:OGC:1.3:CRS84" } },
"features": [
{ "type": "Feature", "properties": { "@featureType": "CadastralZoning", "beginLifespanVersion": { "@nilReason": "http://inspire.ec.europa.eu/codelist/VoidReasonValue/Unpopulated", "@nil": "true" }, "endLifespanVersion": { "@nilReason": "http://inspire.ec.europa.eu/codelist/VoidReasonValue/Unpopulated", "@nil": "true" }, "estimatedAccuracy": { "value": -1, "@uom": "m" }, "inspireId": { "@dataType": "Identifier", "localId": "829498", "namespace": "SK.ESKN.CP", "versionId": "20260703T04:07:40" }, "label": "Krupina", "level": { "@href": "http://inspire.ec.europa.eu/codelist/CadastralZoningLevelValue/3rdOrder" }, "levelName": { "value": "Katastrálne územie", "@locale": "sk" }, "name": { "@dataType": "name", "GeographicalName": { "@dataType": "GeographicalName", "language": "SLK", "nativeness": { "@href": "http://inspire.ec.europa.eu/codelist/NativenessValue/endonym", "@title": "endonym" }, "nameStatus": { "@href": "http://inspire.ec.europa.eu/codelist/NameStatusValue/official", "@title": "official" }, "sourceOfName": { "@nilReason": "http://inspire.ec.europa.eu/codelist/VoidReasonValue/Unpopulated", "@nil": "true" }, "pronunciation": { "@dataType": "pronunciation", "@nilReason": "http://inspire.ec.europa.eu/codelist/VoidReasonValue/Unpopulated", "@nil": "true" }, "spelling": { "@dataType": "SpellingOfName", "text": "Krupina", "script": "LATN" } } }, "nationalCadastalZoningReference": "829498", "validFrom": "2026-06-30T16:00:00Z", "validTo": { "@nilReason": "http://inspire.ec.europa.eu/codelist/VoidReasonValue/Unpopulated", "@nil": "true" } }, "geometry": { "type": "MultiPolygon", "coordinates": [ [ [ [ 19.03726299, 48.44050842 ], [ 19.03730529, 48.44047276 ], [ 19.03734789, 48.44043676 ], [ 19.03739063, 48.44040076 ], [ 19.0374138, 48.44037352 ], [ 19.0374565, 48.44032354 ], [ 19.03753004, 48.44023733 ], [ 19.03793738, 48.43975586 ], [ 19.03817441, 48.43947568 ], [ 19.03857935, 48.43910674 ], [ 19.03922503, 48.43851409 ], [ 19.0402902, 48.43753636 ], [ 19.04057508, 48.43705015 ], [ 19.04061342, 48.43690876 ], [ 19.04091295, 48.43629747 ], [ 19.04098201, 48.43615646 ], [ 19.04109597, 48.43598543 ], [ 19.04112115, 48.43594764 ], [ 19.04148264, 48.43540513 ], [ 19.04215615, 48.43453887 ], [ 19.04278856, 48.43369894 ], [ 19.04343504, 48.43310414 ], [ 19.04366001, 48.43229129 ], [ 19.04375192, 48.43197808 ], [ 19.04376363, 48.43193835 ], [ 19.043809, 48.43178388 ], [ 19.04447865, 48.43027929 ], [ 19.04483802, 48.42947727 ], [ 19.04552276, 48.42813009 ], [ 19.04559483, 48.4279886 ], [ 19.04570853, 48.42767189 ], [ 19.04583568, 48.42720604 ], [ 19.0458346, 48.42712499 ], [ 19.04589768, 48.4267232 ], [ 19.04593769, 48.42552726 ], [ 19.04619929, 48.42517543 ], [ 19.04624761, 48.42509028 ], [ 19.04680646, 48.42447464 ], [ 19.04683995, 48.42443764 ], [ 19.04747097, 48.42374256 ], [ 19.04759337, 48.4233599 ], [ 19.04808362, 48.42299686 ], [ 19.04882632, 48.422473 ], [ 19.04898167, 48.42237594 ], [ 19.05014053, 48.421797 ], [ 19.05020879, 48.42177465 ], [ 19.05026692, 48.42175557 ], [ 19.05034449, 48.42173007 ], [ 19.05141531, 48.42146868 ], [ 19.05204069, 48.42131122 ], [ 19.05277095, 48.42062202 ], [ 19.05297703, 48.42053273 ], [ 19.05401124, 48.42010307 ], [ 19.05463745, 48.41979619 ], [ 19.05549118, 48.41915864 ], [ 19.055631, 48.41915278 ], [ 19.05602676, 48.41904462 ], [ 19.05660465, 48.41891235 ], [ 19.05745207, 48.41867006 ], [ 19.05831703, 48.41842838 ], [ 19.05836811, 48.41841408 ], [ 19.05902218, 48.41823133 ], [ 19.05944716, 48.41810551 ], [ 19.05987528, 48.417983 ], [ 19.06097185, 48.41769892 ], [ 19.06148365, 48.41743947 ], [ 19.06152879, 48.41741666 ], [ 19.06180823, 48.41727531 ], [ 19.06202552, 48.41714192 ], [ 19.06244139, 48.4169469 ], [ 19.06293905, 48.41679893 ], [ 19.06334717, 48.41671401 ], [ 19.06386307, 48.41657831 ], [ 19.06413002, 48.41642514 ], [ 19.06475907, 48.41620565 ], [ 19.06505432, 48.41612551 ], [ 19.06535085, 48.41600656 ], [ 19.06576024, 48.415792 ], [ 19.06620251, 48.41572249 ], [ 19.06651711, 48.41567949 ], [ 19.06657408, 48.4156718 ], [ 19.06667331, 48.4156582 ], [ 19.06710886, 48.41558096 ], [ 19.06748494, 48.41560165 ], [ 19.06815324, 48.41490763 ], [ 19.06870827, 48.4144647 ], [ 19.06888651, 48.41442332 ], [ 19.06913031, 48.41436665 ], [ 19.0691352, 48.41431035 ], [ 19.06934012, 48.41435635 ], [ 19.06960431, 48.41443176 ], [ 19.06980122, 48.4144577 ], [ 19.07019411, 48.41464563 ], [ 19.07079605, 48.41473078 ], [ 19.07098764, 48.41483113 ], [ 19.07111271, 48.41494104 ], [ 19.07135836, 48.41501398 ], [ 19.07167835, 48.41502138 ], [ 19.07191754, 48.41523749 ], [ 19.07214301, 48.41534856 ], [ 19.07229406, 48.41535108 ], [ 19.07274119, 48.41540843 ], [ 19.07288919, 48.41545942 ], [ 19.07302723, 48.41556375 ], [ 19.07324349, 48.41550975 ], [ 19.07334621, 48.41556343 ], [ 19.07355895, 48.41556436 ], [ 19.07402962, 48.41561242 ], [ 19.07413838, 48.41561634 ], [ 19.07421092, 48.41572361 ], [ 19.07425987, 48.41583096 ], [ 19.07429201, 48.41581156 ], [ 19.07435458, 48.41577826 ], [ 19.07456421, 48.41566674 ], [ 19.07465981, 48.41560976 ], [ 19.07475018, 48.41555594 ], [ 19.07482866, 48.41552334 ], [ 19.07487628, 48.41550364 ], [ 19.07494367, 48.41547563 ], [ 19.07515753, 48.41530272 ], [ 19.07540651, 48.41512004 ], [ 19.07548878, 48.41507068 ], [ 19.07556887, 48.41502265 ], [ 19.07616783, 48.41462311 ], [ 19.07650484, 48.41434724 ], [ 19.07684883, 48.41414253 ], [ 19.07772039, 48.41353919 ], [ 19.07786054, 48.41333264 ], [ 19.07788607, 48.41329496 ], [ 19.07821693, 48.41280747 ], [ 19.07882601, 48.41261982 ], [ 19.07958978, 48.41238447 ], [ 19.07963273, 48.41237129 ], [ 19.07968172, 48.41235615 ], [ 19.08034262, 48.41208398 ], [ 19.08079165, 48.41195766 ], [ 19.08127012, 48.41185257 ], [ 19.08157129, 48.41190049 ], [ 19.08206616, 48.41190923 ], [ 19.08233167, 48.41190341 ], [ 19.08267268, 48.4119333 ], [ 19.08308975, 48.4119495 ], [ 19.08334923, 48.41196593 ], [ 19.08362923, 48.41195785 ], [ 19.08395485, 48.41189732 ], [ 19.08486047, 48.41175273 ], [ 19.08532199, 48.41178792 ], [ 19.08534894, 48.41178079 ], [ 19.08540579, 48.41176569 ], [ 19.08547338, 48.41174779 ], [ 19.08557812, 48.41172372 ], [ 19.08570019, 48.41168528 ], [ 19.08570904, 48.41168248 ], [ 19.08577274, 48.41164625 ], [ 19.0859569, 48.41154156 ], [ 19.08631553, 48.41133747 ], [ 19.08650134, 48.41131764 ], [ 19.08757723, 48.41126182 ], [ 19.08793843, 48.41139236 ], [ 19.08819627, 48.41151332 ], [ 19.08860411, 48.41189196 ], [ 19.08886444, 48.412292 ], [ 19.08907101, 48.41254188 ], [ 19.08913607, 48.41263876 ], [ 19.08930531, 48.41289047 ], [ 19.08949949, 48.41317933 ], [ 19.08951401, 48.4132008 ], [ 19.08975493, 48.41340803 ], [ 19.09047847, 48.41403028 ], [ 19.09055806, 48.41403219 ], [ 19.09078275, 48.41403766 ], [ 19.09094606, 48.41416199 ], [ 19.09122228, 48.41437233 ], [ 19.0916133, 48.41506119 ], [ 19.09161616, 48.41526391 ], [ 19.09143789, 48.41539812 ], [ 19.09143507, 48.4154291 ], [ 19.09106517, 48.4156441 ], [ 19.09097262, 48.4159491 ], [ 19.09113985, 48.41635322 ], [ 19.09116593, 48.4164163 ], [ 19.09113779, 48.41647235 ], [ 19.09117449, 48.41650846 ], [ 19.09122863, 48.41656176 ], [ 19.09168533, 48.41701102 ], [ 19.09309795, 48.41742898 ], [ 19.09317531, 48.4174434 ], [ 19.09336254, 48.41747838 ], [ 19.09353639, 48.4175815 ], [ 19.09386823, 48.41777829 ], [ 19.09430632, 48.41787523 ], [ 19.09487575, 48.41783596 ], [ 19.09493959, 48.41786097 ], [ 19.09504328, 48.41790151 ], [ 19.09550899, 48.41800217 ], [ 19.0957535, 48.41811802 ], [ 19.09611055, 48.41828711 ], [ 19.09625184, 48.41836073 ], [ 19.09709151, 48.4187979 ], [ 19.09725724, 48.41888419 ], [ 19.09731282, 48.41890564 ], [ 19.09798451, 48.41926216 ], [ 19.09839972, 48.41938428 ], [ 19.09861747, 48.41944674 ], [ 19.09877603, 48.41952699 ], [ 19.09891881, 48.41949363 ], [ 19.09907967, 48.41945612 ], [ 19.09914396, 48.41944111 ], [ 19.09971072, 48.41945697 ], [ 19.10005001, 48.41953497 ], [ 19.10042918, 48.41964635 ], [ 19.1006428, 48.41968173 ], [ 19.10084033, 48.41971441 ], [ 19.10212175, 48.41937622 ], [ 19.10222239, 48.41934526 ], [ 19.1028661, 48.41914704 ], [ 19.10355624, 48.41897928 ], [ 19.10352723, 48.41898784 ], [ 19.10379566, 48.41902378 ], [ 19.10406394, 48.41913322 ], [ 19.10431694, 48.4192364 ], [ 19.10478641, 48.41920408 ], [ 19.10530362, 48.41927967 ], [ 19.10602556, 48.41932633 ], [ 19.10638216, 48.41930488 ], [ 19.10666313, 48.41917649 ], [ 19.10674848, 48.41908397 ], [ 19.10699553, 48.41881634 ], [ 19.1074488, 48.41861853 ], [ 19.1075227, 48.41853013 ], [ 19.1075775, 48.41846459 ], [ 19.10785369, 48.41837744 ], [ 19.1086659, 48.41823954 ], [ 19.1088231, 48.41821284 ], [ 19.10922003, 48.41803755 ], [ 19.10977603, 48.41764543 ], [ 19.11009653, 48.4172258 ], [ 19.11020218, 48.41708757 ], [ 19.11016253, 48.41703536 ], [ 19.10987961, 48.41666221 ], [ 19.10988363, 48.41662408 ], [ 19.10995803, 48.41606763 ], [ 19.11047573, 48.41580618 ], [ 19.11055696, 48.41572004 ], [ 19.11071739, 48.41555 ], [ 19.11071722, 48.41532154 ], [ 19.11051257, 48.41491749 ], [ 19.11055103, 48.41466597 ], [ 19.11070871, 48.41460826 ], [ 19.11083999, 48.41456015 ], [ 19.11116441, 48.4144414 ], [ 19.11195302, 48.41463321 ], [ 19.11223855, 48.41480004 ], [ 19.11229779, 48.41483465 ], [ 19.11234459, 48.41488108 ], [ 19.11255145, 48.41508611 ], [ 19.11299095, 48.41512226 ], [ 19.11405885, 48.41503531 ], [ 19.11408602, 48.41502133 ], [ 19.11412009, 48.41500391 ], [ 19.11538866, 48.41564836 ], [ 19.11558616, 48.41574874 ], [ 19.11562823, 48.41571792 ], [ 19.1156703, 48.41568719 ], [ 19.11685941, 48.41584903 ], [ 19.1174615, 48.4159756 ], [ 19.11733995, 48.41537052 ], [ 19.1172571, 48.41513966 ], [ 19.11724464, 48.41510467 ], [ 19.11658932, 48.41486705 ], [ 19.11699023, 48.41438457 ], [ 19.11692339, 48.41437781 ], [ 19.1170532, 48.41380373 ], [ 19.1171394, 48.41350797 ], [ 19.1170706, 48.41330883 ], [ 19.11716424, 48.41317361 ], [ 19.11719473, 48.41281419 ], [ 19.11717788, 48.4123239 ], [ 19.11728167, 48.41216943 ], [ 19.11744795, 48.41201582 ], [ 19.1175549, 48.41187423 ], [ 19.11742851, 48.41159196 ], [ 19.11734728, 48.41123816 ], [ 19.11713913, 48.41083611 ], [ 19.11667397, 48.41038473 ], [ 19.11653351, 48.40984202 ], [ 19.11665039, 48.40961199 ], [ 19.11665461, 48.40909461 ], [ 19.11667254, 48.40870715 ], [ 19.11675583, 48.40857592 ], [ 19.1166765, 48.40849225 ], [ 19.11666529, 48.40832926 ], [ 19.11658395, 48.40814528 ], [ 19.1165981, 48.40795911 ], [ 19.11648774, 48.40778027 ], [ 19.11654748, 48.40762352 ], [ 19.11670526, 48.40720912 ], [ 19.11684706, 48.40694651 ], [ 19.11701776, 48.40674984 ], [ 19.1172073, 48.4064686 ], [ 19.11732171, 48.40619777 ], [ 19.11762412, 48.40582818 ], [ 19.11769364, 48.40547584 ], [ 19.11779685, 48.40532153 ], [ 19.11792386, 48.4051206 ], [ 19.11789008, 48.4049269 ], [ 19.11821093, 48.40452567 ], [ 19.11842663, 48.40365806 ], [ 19.11841036, 48.40352918 ], [ 19.11852308, 48.40330102 ], [ 19.11853228, 48.40309612 ], [ 19.11833912, 48.40270419 ], [ 19.11831805, 48.40266148 ], [ 19.117962, 48.40193874 ], [ 19.11791142, 48.4018114 ], [ 19.11780188, 48.40144934 ], [ 19.11774166, 48.40138258 ], [ 19.11774384, 48.40121241 ], [ 19.11785285, 48.40098109 ], [ 19.11828105, 48.40044153 ], [ 19.11835484, 48.40035971 ], [ 19.1184549, 48.40030453 ], [ 19.11852182, 48.4002441 ], [ 19.11863457, 48.40017242 ], [ 19.1187008, 48.40013261 ], [ 19.11874368, 48.39997637 ], [ 19.11879747, 48.39978082 ], [ 19.11885095, 48.3997327 ], [ 19.11919415, 48.39942403 ], [ 19.11931543, 48.3993149 ], [ 19.11984335, 48.39950207 ], [ 19.11992207, 48.39938721 ], [ 19.12007937, 48.39911654 ], [ 19.12003328, 48.39900836 ], [ 19.12019291, 48.39890628 ], [ 19.12035773, 48.39856609 ], [ 19.12037996, 48.39849477 ], [ 19.12070696, 48.398142 ], [ 19.12039794, 48.39776757 ], [ 19.12048294, 48.39774754 ], [ 19.12100492, 48.39759306 ], [ 19.12107546, 48.39755706 ], [ 19.12112143, 48.39735742 ], [ 19.12137366, 48.39717237 ], [ 19.12171319, 48.39686829 ], [ 19.12155899, 48.39672055 ], [ 19.12139073, 48.3965594 ], [ 19.12157248, 48.39647131 ], [ 19.12185771, 48.39632758 ], [ 19.12207495, 48.39622007 ], [ 19.1224359, 48.39608588 ], [ 19.12248153, 48.39593393 ], [ 19.12265124, 48.395795 ], [ 19.12277022, 48.39570262 ], [ 19.12304671, 48.39537483 ], [ 19.12305185, 48.39534235 ], [ 19.12317867, 48.39521139 ], [ 19.12332112, 48.39515129 ], [ 19.12342284, 48.39484457 ], [ 19.12346805, 48.39464678 ], [ 19.12356944, 48.39434185 ], [ 19.12355808, 48.39423306 ], [ 19.12416189, 48.39397278 ], [ 19.12478861, 48.39377136 ], [ 19.12495756, 48.39370545 ], [ 19.12513792, 48.39362477 ], [ 19.12558761, 48.39352141 ], [ 19.12577083, 48.39342726 ], [ 19.12644023, 48.39320739 ], [ 19.12695459, 48.39301634 ], [ 19.12701762, 48.39295426 ], [ 19.12760487, 48.39292349 ], [ 19.12759539, 48.39248019 ], [ 19.12770648, 48.39201349 ], [ 19.12748733, 48.39147878 ], [ 19.12728392, 48.3912083 ], [ 19.12723464, 48.39091706 ], [ 19.12731454, 48.39063559 ], [ 19.12743977, 48.3901962 ], [ 19.12751804, 48.38963569 ], [ 19.12758282, 48.38939974 ], [ 19.1274915, 48.38893632 ], [ 19.127387, 48.38882732 ], [ 19.12727523, 48.38868404 ], [ 19.12732114, 48.38858134 ], [ 19.12721245, 48.38841189 ], [ 19.12704517, 48.38821661 ], [ 19.12688653, 48.38800481 ], [ 19.12668316, 48.38776796 ], [ 19.12652161, 48.38757838 ], [ 19.12618948, 48.38735235 ], [ 19.12616974, 48.38736418 ], [ 19.12604317, 48.38717065 ], [ 19.12594948, 48.38711981 ], [ 19.12592716, 48.38711239 ], [ 19.12584121, 48.38708918 ], [ 19.12573472, 48.38690016 ], [ 19.125669, 48.38687886 ], [ 19.12549143, 48.38683467 ], [ 19.1253621, 48.38661747 ], [ 19.12527376, 48.38655517 ], [ 19.12518152, 48.38653976 ], [ 19.12499224, 48.3866108 ], [ 19.12488983, 48.38658947 ], [ 19.12482176, 48.38650464 ], [ 19.12483111, 48.38643458 ], [ 19.12484012, 48.38635539 ], [ 19.12474669, 48.38625397 ], [ 19.12465217, 48.38619858 ], [ 19.12456592, 48.3861418 ], [ 19.12434414, 48.38609099 ], [ 19.12414098, 48.3859732 ], [ 19.1241585, 48.38590264 ], [ 19.124179, 48.38581771 ], [ 19.1241227, 48.3857498 ], [ 19.12401215, 48.38571535 ], [ 19.12393032, 48.38571578 ], [ 19.12378608, 48.38571492 ], [ 19.12365583, 48.38560256 ], [ 19.12364134, 48.38554944 ], [ 19.12359955, 48.38536554 ], [ 19.12355359, 48.38524294 ], [ 19.12349965, 48.3850937 ], [ 19.12339734, 48.38505587 ], [ 19.1233545, 48.38502858 ], [ 19.12333824, 48.38500333 ], [ 19.12332491, 48.38497732 ], [ 19.1232805, 48.38486382 ], [ 19.12335872, 48.384752 ], [ 19.12332195, 48.38466692 ], [ 19.12320093, 48.38462925 ], [ 19.12308901, 48.38461917 ], [ 19.12302812, 48.38461514 ], [ 19.12281715, 48.38452961 ], [ 19.12274986, 48.38449821 ], [ 19.12274605, 48.38438853 ], [ 19.12276153, 48.38432419 ], [ 19.12285613, 48.38418694 ], [ 19.12282368, 48.38407674 ], [ 19.12277789, 48.38390436 ], [ 19.12264593, 48.38381825 ], [ 19.12261216, 48.38379213 ], [ 19.12263465, 48.38371361 ], [ 19.12277046, 48.38362179 ], [ 19.12279698, 48.38353265 ], [ 19.12273174, 48.38349504 ], [ 19.12267721, 48.38347059 ], [ 19.1226459, 48.38343467 ], [ 19.12256622, 48.38334476 ], [ 19.1225743, 48.38326192 ], [ 19.12259158, 48.38309818 ], [ 19.12249171, 48.38298192 ], [ 19.12243495, 48.38285788 ], [ 19.12235251, 48.38279137 ], [ 19.12232551, 48.3827774 ], [ 19.122122, 48.38275816 ], [ 19.12202869, 48.382692 ], [ 19.12194315, 48.3825457 ], [ 19.12194126, 48.38250223 ], [ 19.1219469, 48.38236867 ], [ 19.12187161, 48.38232415 ], [ 19.12178005, 48.38229064 ], [ 19.12156079, 48.38220551 ], [ 19.12139195, 48.38219349 ], [ 19.12126622, 48.3821122 ], [ 19.12126073, 48.38202958 ], [ 19.12126251, 48.38200162 ], [ 19.12151006, 48.38175258 ], [ 19.12146318, 48.38169866 ], [ 19.12137724, 48.38160302 ], [ 19.12134997, 48.3815673 ], [ 19.1213292, 48.38151107 ], [ 19.12132479, 48.38141768 ], [ 19.12132852, 48.38138441 ], [ 19.12134626, 48.38131197 ], [ 19.12134764, 48.38127677 ], [ 19.12134719, 48.3811963 ], [ 19.12133366, 48.38117209 ], [ 19.12127082, 48.38113731 ], [ 19.12122935, 48.38114246 ], [ 19.12114797, 48.38115103 ], [ 19.12100138, 48.38116998 ], [ 19.12096344, 48.38116899 ], [ 19.12088148, 48.3811586 ], [ 19.12086843, 48.38111808 ], [ 19.12083236, 48.38094358 ], [ 19.12080506, 48.38082371 ], [ 19.12080173, 48.38078097 ], [ 19.12092475, 48.38071747 ], [ 19.12106941, 48.38064333 ], [ 19.12110617, 48.38061981 ], [ 19.12108274, 48.38053901 ], [ 19.12106928, 48.380513 ], [ 19.12084406, 48.38044478 ], [ 19.12078388, 48.38043457 ], [ 19.12067079, 48.38041081 ], [ 19.12056664, 48.380393 ], [ 19.12047532, 48.38033326 ], [ 19.12045173, 48.38031306 ], [ 19.12048599, 48.38021528 ], [ 19.12055125, 48.38003671 ], [ 19.12062011, 48.3798502 ], [ 19.1205815, 48.37979489 ], [ 19.12044481, 48.37960626 ], [ 19.12043034, 48.37957839 ], [ 19.12046763, 48.37948979 ], [ 19.12065403, 48.37946832 ], [ 19.12076742, 48.37945322 ], [ 19.12073982, 48.37940838 ], [ 19.12066765, 48.37929989 ], [ 19.12064436, 48.379277 ], [ 19.1205758, 48.379222 ], [ 19.12045378, 48.37912095 ], [ 19.12033779, 48.37902652 ], [ 19.12033504, 48.37900284 ], [ 19.12035022, 48.37897735 ], [ 19.12057932, 48.3788432 ], [ 19.12066565, 48.3787905 ], [ 19.12063054, 48.37872814 ], [ 19.12050516, 48.37869205 ], [ 19.12028259, 48.37863659 ], [ 19.1202394, 48.37862091 ], [ 19.12016862, 48.37859655 ], [ 19.12015543, 48.37854521 ], [ 19.12011412, 48.37838127 ], [ 19.12006101, 48.37817777 ], [ 19.12004613, 48.37811254 ], [ 19.1199228, 48.37791105 ], [ 19.11965488, 48.37771562 ], [ 19.11955548, 48.37755428 ], [ 19.11939929, 48.37743692 ], [ 19.11939203, 48.37727846 ], [ 19.11945287, 48.37708371 ], [ 19.11939415, 48.37684223 ], [ 19.11941129, 48.37670753 ], [ 19.1194256, 48.37656196 ], [ 19.11942574, 48.37632793 ], [ 19.1194398, 48.37625458 ], [ 19.11956571, 48.37606144 ], [ 19.11966132, 48.37583685 ], [ 19.11972641, 48.3757454 ], [ 19.1199815, 48.37567991 ], [ 19.12005218, 48.37543604 ], [ 19.12004892, 48.37540603 ], [ 19.12003497, 48.37531677 ], [ 19.12001508, 48.3752769 ], [ 19.11997388, 48.37519891 ], [ 19.11976045, 48.37505967 ], [ 19.11970119, 48.37499783 ], [ 19.119696, 48.37494878 ], [ 19.11953975, 48.37464626 ], [ 19.11925971, 48.37456503 ], [ 19.11911793, 48.37444117 ], [ 19.11904632, 48.37439053 ], [ 19.11894267, 48.37432377 ], [ 19.11872901, 48.37411669 ], [ 19.11862182, 48.37413823 ], [ 19.11858332, 48.37416517 ], [ 19.11853565, 48.3742124 ], [ 19.11849762, 48.37421231 ], [ 19.1184418, 48.37417778 ], [ 19.11821348, 48.37403861 ], [ 19.1180502, 48.37394714 ], [ 19.11794594, 48.37378096 ], [ 19.11757837, 48.37355332 ], [ 19.11745076, 48.37347093 ], [ 19.11741715, 48.37345564 ], [ 19.11720933, 48.37336177 ], [ 19.11712577, 48.373297 ], [ 19.11696308, 48.37323532 ], [ 19.11678615, 48.37308707 ], [ 19.11659004, 48.3730083 ], [ 19.11643602, 48.37282602 ], [ 19.11643016, 48.37273716 ], [ 19.11638792, 48.37265641 ], [ 19.1163338, 48.372538 ], [ 19.11634142, 48.37229893 ], [ 19.11630337, 48.3722762 ], [ 19.11627059, 48.37226546 ], [ 19.11599121, 48.37219057 ], [ 19.11576352, 48.37210382 ], [ 19.1156877, 48.37196169 ], [ 19.11561491, 48.37182882 ], [ 19.11551436, 48.37158508 ], [ 19.11551351, 48.37147573 ], [ 19.11551228, 48.37131305 ], [ 19.11544885, 48.3712041 ], [ 19.11514339, 48.37102762 ], [ 19.11510274, 48.37096769 ], [ 19.114981, 48.37081145 ], [ 19.11477663, 48.37060754 ], [ 19.11478191, 48.37056172 ], [ 19.11481763, 48.37050036 ], [ 19.11485094, 48.37047136 ], [ 19.11481089, 48.3703844 ], [ 19.11471543, 48.37030632 ], [ 19.11442326, 48.37024783 ], [ 19.11415657, 48.37014561 ], [ 19.11408157, 48.37004329 ], [ 19.11416262, 48.36983873 ], [ 19.11410437, 48.36977882 ], [ 19.11377026, 48.36963698 ], [ 19.11375802, 48.36962546 ], [ 19.11361475, 48.36946815 ], [ 19.11368388, 48.36926118 ], [ 19.11359341, 48.36915079 ], [ 19.11333612, 48.36907339 ], [ 19.11325474, 48.3690484 ], [ 19.11308913, 48.36902364 ], [ 19.11292063, 48.36900054 ], [ 19.11287134, 48.3687947 ], [ 19.11285198, 48.36858035 ], [ 19.11291418, 48.36844356 ], [ 19.11298557, 48.36841294 ], [ 19.11301422, 48.36840003 ], [ 19.11306055, 48.36836356 ], [ 19.11312198, 48.36832523 ], [ 19.11285278, 48.36821295 ], [ 19.11263893, 48.36812608 ], [ 19.11260328, 48.3680241 ], [ 19.11273328, 48.36788628 ], [ 19.11264141, 48.36773171 ], [ 19.11253522, 48.36756011 ], [ 19.11243669, 48.3674034 ], [ 19.11239503, 48.36729472 ], [ 19.11218091, 48.36716454 ], [ 19.11205315, 48.36704877 ], [ 19.11198693, 48.36702373 ], [ 19.11172387, 48.36692799 ], [ 19.11169298, 48.36691374 ], [ 19.1117686, 48.36676599 ], [ 19.1117219, 48.36672389 ], [ 19.11153437, 48.36669072 ], [ 19.11133398, 48.36665159 ], [ 19.11116217, 48.36669416 ], [ 19.11107809, 48.36671603 ], [ 19.11093002, 48.36672921 ], [ 19.11085513, 48.36667298 ], [ 19.1107544, 48.36659373 ], [ 19.11061488, 48.36653329 ], [ 19.11051525, 48.36653815 ], [ 19.11047953, 48.36654168 ], [ 19.11039353, 48.36656977 ], [ 19.11028204, 48.36664168 ], [ 19.11024023, 48.36666205 ], [ 19.11019608, 48.36664542 ], [ 19.11005168, 48.36659105 ], [ 19.11001605, 48.36658286 ], [ 19.10982822, 48.36655239 ], [ 19.10967709, 48.36653384 ], [ 19.10946493, 48.36646689 ], [ 19.10942556, 48.36636202 ], [ 19.10948083, 48.36628451 ], [ 19.10947589, 48.36625621 ], [ 19.10946647, 48.36624492 ], [ 19.10932843, 48.36620619 ], [ 19.10914365, 48.3661498 ], [ 19.10897039, 48.36609931 ], [ 19.10879252, 48.36602964 ], [ 19.10874101, 48.36600624 ], [ 19.10863136, 48.36592212 ], [ 19.10858305, 48.36584737 ], [ 19.10857598, 48.36582718 ], [ 19.10861248, 48.36550134 ], [ 19.10864875, 48.36540024 ], [ 19.10860209, 48.36526515 ], [ 19.10836773, 48.36506352 ], [ 19.10812332, 48.3650175 ], [ 19.1079555, 48.3648392 ], [ 19.10797619, 48.3646732 ], [ 19.10798366, 48.36452738 ], [ 19.10800922, 48.36447093 ], [ 19.10806679, 48.36436098 ], [ 19.10823695, 48.3642524 ], [ 19.10825196, 48.36425135 ], [ 19.10840816, 48.36421513 ], [ 19.10848543, 48.36416948 ], [ 19.10858818, 48.36411517 ], [ 19.10855728, 48.36380851 ], [ 19.1085372, 48.3635971 ], [ 19.1085589, 48.36357383 ], [ 19.108702, 48.36340609 ], [ 19.10872306, 48.3633873 ], [ 19.10907606, 48.36315356 ], [ 19.10930098, 48.36299361 ], [ 19.10933873, 48.36291432 ], [ 19.10940655, 48.36276249 ], [ 19.10944419, 48.3626841 ], [ 19.10957582, 48.36257982 ], [ 19.1096149, 48.36254759 ], [ 19.10961756, 48.362536 ], [ 19.1096029, 48.36250992 ], [ 19.10959754, 48.36247448 ], [ 19.10955811, 48.36243996 ], [ 19.1094546, 48.36235064 ], [ 19.10934312, 48.36228402 ], [ 19.10928424, 48.36225159 ], [ 19.10913091, 48.3621588 ], [ 19.10914598, 48.36214512 ], [ 19.10912899, 48.36213976 ], [ 19.10904845, 48.36209768 ], [ 19.10885451, 48.36200376 ], [ 19.10878907, 48.36197065 ], [ 19.10875574, 48.36196619 ], [ 19.10863298, 48.36194815 ], [ 19.10838902, 48.36191027 ], [ 19.10834206, 48.36188258 ], [ 19.10830119, 48.36184889 ], [ 19.10828456, 48.36182822 ], [ 19.10824699, 48.36162675 ], [ 19.10817722, 48.36158521 ], [ 19.10813867, 48.36156696 ], [ 19.10769475, 48.36159106 ], [ 19.1074442, 48.36151678 ], [ 19.10725769, 48.3614639 ], [ 19.10722509, 48.36142881 ], [ 19.10712579, 48.36131536 ], [ 19.10705363, 48.36123491 ], [ 19.10699406, 48.36115329 ], [ 19.10676416, 48.3610638 ], [ 19.10661561, 48.361002 ], [ 19.10640738, 48.36092206 ], [ 19.10637646, 48.36090455 ], [ 19.10624257, 48.36076899 ], [ 19.10613739, 48.36066083 ], [ 19.10608691, 48.36060545 ], [ 19.10596699, 48.36048041 ], [ 19.1058566, 48.36041267 ], [ 19.10569316, 48.36039053 ], [ 19.10562055, 48.36038393 ], [ 19.10550476, 48.36041711 ], [ 19.10529343, 48.36048511 ], [ 19.10524298, 48.36050288 ], [ 19.1051144, 48.36049934 ], [ 19.10494679, 48.36041927 ], [ 19.104915, 48.36038188 ], [ 19.10478922, 48.36029091 ], [ 19.10465118, 48.36019941 ], [ 19.10452725, 48.36011845 ], [ 19.10446057, 48.36007598 ], [ 19.10438487, 48.3599573 ], [ 19.10441243, 48.35988075 ], [ 19.10445905, 48.35973102 ], [ 19.10438652, 48.35960699 ], [ 19.10424272, 48.35960648 ], [ 19.10414671, 48.3596034 ], [ 19.10397006, 48.35963498 ], [ 19.10382673, 48.35965794 ], [ 19.10368746, 48.35950767 ], [ 19.10357883, 48.35939302 ], [ 19.10352353, 48.35931675 ], [ 19.10344586, 48.35923242 ], [ 19.1033107, 48.35918039 ], [ 19.1032872, 48.35917273 ], [ 19.10300211, 48.35914216 ], [ 19.10270256, 48.35917147 ], [ 19.10251347, 48.3591898 ], [ 19.1023598, 48.35909058 ], [ 19.10217573, 48.35893076 ], [ 19.10201605, 48.35894262 ], [ 19.10173837, 48.35896049 ], [ 19.10154331, 48.35874926 ], [ 19.10134369, 48.35869996 ], [ 19.10125834, 48.35866349 ], [ 19.10102464, 48.35855152 ], [ 19.10087923, 48.35848355 ], [ 19.10077805, 48.35843259 ], [ 19.10061928, 48.3583847 ], [ 19.10043419, 48.358329 ], [ 19.10033515, 48.35833604 ], [ 19.10015113, 48.3583465 ], [ 19.10006761, 48.35834909 ], [ 19.09988755, 48.35833892 ], [ 19.09979797, 48.35830395 ], [ 19.09969047, 48.35825989 ], [ 19.09963698, 48.35819886 ], [ 19.09959723, 48.35814682 ], [ 19.09960962, 48.35799709 ], [ 19.09963247, 48.35795765 ], [ 19.09974747, 48.35774035 ], [ 19.09967483, 48.35764752 ], [ 19.09946865, 48.35756524 ], [ 19.09925286, 48.35752496 ], [ 19.09911348, 48.35755975 ], [ 19.09898789, 48.35759343 ], [ 19.09886779, 48.35759392 ], [ 19.09882679, 48.35757347 ], [ 19.09880743, 48.35755428 ], [ 19.0987965, 48.35751197 ], [ 19.09879089, 48.35745 ], [ 19.09893895, 48.35721921 ], [ 19.09888566, 48.35714557 ], [ 19.09875601, 48.3570939 ], [ 19.09870724, 48.35708118 ], [ 19.09854731, 48.35714822 ], [ 19.09830986, 48.3571285 ], [ 19.09815782, 48.35707012 ], [ 19.0981418, 48.35705741 ], [ 19.09812601, 48.35697771 ], [ 19.09812561, 48.35695956 ], [ 19.09829705, 48.35687686 ], [ 19.09835087, 48.35685087 ], [ 19.09837367, 48.35683226 ], [ 19.09838241, 48.35672221 ], [ 19.09824572, 48.35665017 ], [ 19.09811159, 48.3564941 ], [ 19.09809994, 48.35646899 ], [ 19.09808038, 48.35634463 ], [ 19.09800057, 48.35626497 ], [ 19.09788955, 48.35623786 ], [ 19.09780305, 48.35622118 ], [ 19.09767182, 48.35619207 ], [ 19.09762233, 48.35607875 ], [ 19.09762388, 48.3560662 ], [ 19.09766498, 48.35582023 ], [ 19.09765355, 48.35573903 ], [ 19.09761422, 48.35551393 ], [ 19.09761866, 48.35549972 ], [ 19.09751668, 48.3553707 ], [ 19.09750052, 48.35534716 ], [ 19.09746785, 48.3551986 ], [ 19.09769272, 48.35505003 ], [ 19.09769786, 48.35488181 ], [ 19.09758798, 48.35473878 ], [ 19.09751493, 48.35467127 ], [ 19.09746906, 48.35463515 ], [ 19.09726094, 48.35462068 ], [ 19.09709001, 48.3545187 ], [ 19.09714191, 48.35442199 ], [ 19.09715781, 48.3543721 ], [ 19.0971223, 48.35426687 ], [ 19.09702472, 48.35425135 ], [ 19.09698047, 48.35425617 ], [ 19.09681776, 48.35431306 ], [ 19.09676285, 48.35432718 ], [ 19.09657756, 48.35428418 ], [ 19.09648517, 48.3542599 ], [ 19.09640447, 48.35416657 ], [ 19.09639124, 48.35414228 ], [ 19.0963927, 48.35410889 ], [ 19.09639096, 48.35400544 ], [ 19.09635267, 48.35387925 ], [ 19.09631501, 48.35384354 ], [ 19.09618729, 48.35373397 ], [ 19.09608308, 48.35372813 ], [ 19.09595746, 48.3537609 ], [ 19.09588329, 48.35377667 ], [ 19.09576595, 48.35374554 ], [ 19.09571565, 48.3535842 ], [ 19.09569935, 48.35353071 ], [ 19.09583151, 48.35336064 ], [ 19.09597301, 48.35318201 ], [ 19.09598207, 48.35315442 ], [ 19.09595263, 48.3529906 ], [ 19.09594175, 48.35296823 ], [ 19.09585394, 48.35285642 ], [ 19.0957662, 48.35274272 ], [ 19.09563274, 48.35257126 ], [ 19.09551844, 48.35251684 ], [ 19.09532295, 48.35242516 ], [ 19.09512769, 48.3523326 ], [ 19.09510896, 48.35229712 ], [ 19.09506411, 48.35220035 ], [ 19.0951415, 48.35202267 ], [ 19.09496802, 48.35189782 ], [ 19.09480432, 48.35181342 ], [ 19.09468583, 48.35180217 ], [ 19.09448807, 48.35178109 ], [ 19.09425896, 48.35176088 ], [ 19.09419297, 48.35175451 ], [ 19.09398722, 48.35178633 ], [ 19.09389354, 48.35180464 ], [ 19.09379491, 48.35179727 ], [ 19.0936179, 48.35178543 ], [ 19.0935545, 48.35178009 ], [ 19.09351961, 48.35176545 ], [ 19.09346548, 48.35173063 ], [ 19.09337785, 48.35161612 ], [ 19.09334258, 48.35157242 ], [ 19.09335907, 48.35153897 ], [ 19.09345002, 48.35137198 ], [ 19.09334249, 48.35129706 ], [ 19.09312554, 48.35113892 ], [ 19.09297297, 48.35102071 ], [ 19.09287775, 48.35095551 ], [ 19.09278787, 48.35093415 ], [ 19.09267144, 48.35090586 ], [ 19.09249996, 48.35086174 ], [ 19.09237278, 48.35083282 ], [ 19.09233406, 48.35082701 ], [ 19.0922237, 48.35076286 ], [ 19.0920744, 48.35068287 ], [ 19.09203371, 48.35065973 ], [ 19.09190708, 48.35052026 ], [ 19.09179515, 48.35039444 ], [ 19.091689, 48.35028693 ], [ 19.09162142, 48.35021789 ], [ 19.09158891, 48.35020616 ], [ 19.09135924, 48.35012612 ], [ 19.09111333, 48.35004616 ], [ 19.09103604, 48.34995751 ], [ 19.09101659, 48.34975802 ], [ 19.09099389, 48.34966047 ], [ 19.09081258, 48.34942636 ], [ 19.09069416, 48.34933421 ], [ 19.09042893, 48.34921558 ], [ 19.09028598, 48.34915133 ], [ 19.09019021, 48.34911623 ], [ 19.08990778, 48.34901938 ], [ 19.08971726, 48.34876857 ], [ 19.08960283, 48.34862422 ], [ 19.08943257, 48.34854777 ], [ 19.08915985, 48.34842246 ], [ 19.08905325, 48.34837427 ], [ 19.08893172, 48.34828566 ], [ 19.08878649, 48.34817692 ], [ 19.0887363, 48.34804363 ], [ 19.08870396, 48.34795966 ], [ 19.08864814, 48.3478536 ], [ 19.08858135, 48.34778955 ], [ 19.08845341, 48.34777701 ], [ 19.08840108, 48.34779946 ], [ 19.08833128, 48.34783285 ], [ 19.08823956, 48.34788192 ], [ 19.08816163, 48.3479094 ], [ 19.08803228, 48.34789742 ], [ 19.08763371, 48.34762347 ], [ 19.08746795, 48.34747122 ], [ 19.08734746, 48.34730274 ], [ 19.08725972, 48.34721807 ], [ 19.08708709, 48.34708839 ], [ 19.08704544, 48.34679552 ], [ 19.08706595, 48.34668209 ], [ 19.08677098, 48.34617369 ], [ 19.08668186, 48.34607975 ], [ 19.08665071, 48.34606322 ], [ 19.08645875, 48.34599813 ], [ 19.08619062, 48.34572557 ], [ 19.08615715, 48.34569359 ], [ 19.08603346, 48.3456027 ], [ 19.08596741, 48.34555249 ], [ 19.08592795, 48.34546699 ], [ 19.08594758, 48.34540691 ], [ 19.0860768, 48.34532888 ], [ 19.08616377, 48.3451469 ], [ 19.08612591, 48.34509035 ], [ 19.08596834, 48.34504547 ], [ 19.08585172, 48.34511016 ], [ 19.0857718, 48.34510498 ], [ 19.08566171, 48.34499186 ], [ 19.08548462, 48.34490776 ], [ 19.08519262, 48.34480483 ], [ 19.08516323, 48.34475474 ], [ 19.08516469, 48.34467103 ], [ 19.08512121, 48.34457919 ], [ 19.08505212, 48.34451521 ], [ 19.08497159, 48.34449747 ], [ 19.08487605, 48.34453236 ], [ 19.08483866, 48.34454717 ], [ 19.08469009, 48.34454008 ], [ 19.08467565, 48.34450139 ], [ 19.08476705, 48.34436527 ], [ 19.08473677, 48.34430152 ], [ 19.08462154, 48.34424 ], [ 19.08439771, 48.34418883 ], [ 19.08431316, 48.34411802 ], [ 19.08428623, 48.34406653 ], [ 19.08422954, 48.34392389 ], [ 19.08426024, 48.34384606 ], [ 19.08449858, 48.34373029 ], [ 19.08454724, 48.34367916 ], [ 19.0845979, 48.34358393 ], [ 19.08460568, 48.34350658 ], [ 19.08458227, 48.34342026 ], [ 19.08454907, 48.34338838 ], [ 19.0844811, 48.34334448 ], [ 19.08429089, 48.3433611 ], [ 19.08417482, 48.34335023 ], [ 19.08411513, 48.34328211 ], [ 19.08408309, 48.34316795 ], [ 19.08378986, 48.34273448 ], [ 19.08376845, 48.34274315 ], [ 19.08370239, 48.34276987 ], [ 19.0836848, 48.34277701 ], [ 19.08324169, 48.3429019 ], [ 19.08296706, 48.34296884 ], [ 19.08276715, 48.34256801 ], [ 19.08297377, 48.34248034 ], [ 19.08318799, 48.34243192 ], [ 19.08323642, 48.34242956 ], [ 19.08326278, 48.34230272 ], [ 19.08321506, 48.3422077 ], [ 19.08309947, 48.34217214 ], [ 19.08300575, 48.34207959 ], [ 19.08291631, 48.34192025 ], [ 19.08275177, 48.34168913 ], [ 19.08266518, 48.34152379 ], [ 19.08267033, 48.34108391 ], [ 19.08270394, 48.34081737 ], [ 19.08266837, 48.34076092 ], [ 19.08255227, 48.34072994 ], [ 19.08252373, 48.34069513 ], [ 19.08242125, 48.34052918 ], [ 19.08229229, 48.34035441 ], [ 19.08219898, 48.34020786 ], [ 19.08219862, 48.34017636 ], [ 19.08217495, 48.34013071 ], [ 19.08218693, 48.34000423 ], [ 19.0822042, 48.33993394 ], [ 19.08222058, 48.33973137 ], [ 19.08232567, 48.33960821 ], [ 19.08233635, 48.3395807 ], [ 19.0823591, 48.33949543 ], [ 19.08234187, 48.3393904 ], [ 19.08216147, 48.33929386 ], [ 19.08214995, 48.33924251 ], [ 19.08224447, 48.33911115 ], [ 19.08226055, 48.33901662 ], [ 19.082127, 48.33877118 ], [ 19.08206113, 48.33867399 ], [ 19.08212341, 48.3385944 ], [ 19.08233922, 48.33854137 ], [ 19.08239818, 48.33845657 ], [ 19.08235241, 48.33835146 ], [ 19.08231118, 48.33816901 ], [ 19.08234649, 48.33805632 ], [ 19.0824659, 48.33792495 ], [ 19.08255778, 48.33778327 ], [ 19.08254747, 48.33775479 ], [ 19.08248286, 48.33773514 ], [ 19.08230738, 48.33773292 ], [ 19.08224333, 48.33768912 ], [ 19.08222256, 48.33754837 ], [ 19.08218052, 48.33740781 ], [ 19.08212766, 48.33729847 ], [ 19.08202441, 48.33717649 ], [ 19.08189847, 48.33698356 ], [ 19.08152007, 48.3366195 ], [ 19.08153718, 48.33653386 ], [ 19.08162655, 48.33636166 ], [ 19.08167949, 48.33601735 ], [ 19.08179808, 48.33561518 ], [ 19.08192139, 48.33537721 ], [ 19.08209044, 48.33514154 ], [ 19.08212292, 48.33496649 ], [ 19.0821905, 48.33483756 ], [ 19.08240306, 48.33465738 ], [ 19.08252693, 48.33450197 ], [ 19.08253411, 48.33447185 ], [ 19.08252813, 48.33443854 ], [ 19.08243872, 48.33438336 ], [ 19.08207163, 48.33433627 ], [ 19.08193385, 48.3342507 ], [ 19.08172512, 48.3341872 ], [ 19.08152096, 48.33406286 ], [ 19.08131731, 48.33390049 ], [ 19.08130161, 48.33385145 ], [ 19.08130062, 48.33377392 ], [ 19.08131595, 48.33375557 ], [ 19.08138873, 48.33371846 ], [ 19.0813931, 48.33364373 ], [ 19.08134771, 48.33363 ], [ 19.0812997, 48.33362515 ], [ 19.08115826, 48.3336259 ], [ 19.08083769, 48.33371191 ], [ 19.08067695, 48.33367994 ], [ 19.08052508, 48.33358493 ], [ 19.08064188, 48.33346217 ], [ 19.08064925, 48.33335981 ], [ 19.08065634, 48.33332698 ], [ 19.08030499, 48.33323999 ], [ 19.0799304, 48.3329994 ], [ 19.07987881, 48.33296516 ], [ 19.07976821, 48.33285931 ], [ 19.07966946, 48.3327491 ], [ 19.07963072, 48.33268492 ], [ 19.07946771, 48.33248256 ], [ 19.07938887, 48.33231355 ], [ 19.0793792, 48.33212249 ], [ 19.07934926, 48.33194195 ], [ 19.079307, 48.33184071 ], [ 19.07933135, 48.33175805 ], [ 19.07936713, 48.3316747 ], [ 19.07953669, 48.33159023 ], [ 19.0795721, 48.33154619 ], [ 19.07960027, 48.33149799 ], [ 19.07960222, 48.33134053 ], [ 19.07954863, 48.33121977 ], [ 19.07947827, 48.33111342 ], [ 19.0794238, 48.33104954 ], [ 19.07934899, 48.33096695 ], [ 19.07920523, 48.33090562 ], [ 19.07899354, 48.33087569 ], [ 19.07867266, 48.3306305 ], [ 19.07796799, 48.33060856 ], [ 19.07768846, 48.33049549 ], [ 19.0774947, 48.32993206 ], [ 19.07747028, 48.32990631 ], [ 19.07719576, 48.32998127 ], [ 19.07679117, 48.33016822 ], [ 19.07671474, 48.33019459 ], [ 19.07662551, 48.33019426 ], [ 19.07653658, 48.33011457 ], [ 19.07652579, 48.32999335 ], [ 19.07646045, 48.32987498 ], [ 19.07644013, 48.32979982 ], [ 19.07640389, 48.32979855 ], [ 19.07616457, 48.32982639 ], [ 19.07594469, 48.3297505 ], [ 19.07591423, 48.32968015 ], [ 19.07588376, 48.3296098 ], [ 19.07579977, 48.32960378 ], [ 19.07554175, 48.32957937 ], [ 19.07522063, 48.32922158 ], [ 19.07489156, 48.32935071 ], [ 19.07469826, 48.32920598 ], [ 19.07464222, 48.32893827 ], [ 19.07469813, 48.32873679 ], [ 19.07442856, 48.32891509 ], [ 19.07424285, 48.32891748 ], [ 19.07385007, 48.32876543 ], [ 19.07374768, 48.32859785 ], [ 19.07376935, 48.32837265 ], [ 19.07378058, 48.32833794 ], [ 19.07380748, 48.32825911 ], [ 19.07345741, 48.32817316 ], [ 19.0733679, 48.32815612 ], [ 19.07325321, 48.32810463 ], [ 19.07322887, 48.32809376 ], [ 19.07316461, 48.32801855 ], [ 19.07315125, 48.32792011 ], [ 19.07313025, 48.32790372 ], [ 19.07302334, 48.32785993 ], [ 19.0728235, 48.32784619 ], [ 19.07269571, 48.32791886 ], [ 19.07237761, 48.32784091 ], [ 19.07228709, 48.32779334 ], [ 19.07225742, 48.32777345 ], [ 19.07219184, 48.32777692 ], [ 19.07204466, 48.32781895 ], [ 19.07186271, 48.32789702 ], [ 19.07178647, 48.32793008 ], [ 19.0716934, 48.32801748 ], [ 19.07169904, 48.32823198 ], [ 19.07148221, 48.32843781 ], [ 19.0713357, 48.32862229 ], [ 19.071202, 48.32887884 ], [ 19.07104434, 48.32904102 ], [ 19.07095291, 48.32919047 ], [ 19.07096449, 48.32925194 ], [ 19.07097194, 48.32927937 ], [ 19.07104623, 48.32939512 ], [ 19.07093217, 48.32957357 ], [ 19.07061726, 48.32962646 ], [ 19.07056382, 48.32971261 ], [ 19.0703733, 48.32971684 ], [ 19.06986527, 48.32972277 ], [ 19.0697408, 48.32972418 ], [ 19.06972017, 48.3296554 ], [ 19.06961424, 48.32966045 ], [ 19.06959169, 48.32965769 ], [ 19.06940515, 48.32962793 ], [ 19.06907075, 48.32953373 ], [ 19.06879109, 48.32936462 ], [ 19.06836876, 48.32935429 ], [ 19.06818534, 48.3293567 ], [ 19.0679497, 48.32933655 ], [ 19.06779018, 48.32921506 ], [ 19.06765904, 48.32914398 ], [ 19.06764165, 48.32911713 ], [ 19.06767427, 48.32901658 ], [ 19.06766248, 48.32894266 ], [ 19.06760739, 48.32886647 ], [ 19.06747141, 48.32877837 ], [ 19.06738714, 48.32867924 ], [ 19.06738831, 48.32855411 ], [ 19.06731828, 48.32837336 ], [ 19.06728049, 48.32830571 ], [ 19.06721751, 48.32823832 ], [ 19.06713964, 48.32793198 ], [ 19.0671014, 48.32781091 ], [ 19.06703241, 48.32750502 ], [ 19.06696924, 48.32736286 ], [ 19.06703579, 48.32729946 ], [ 19.06701162, 48.32711741 ], [ 19.06690373, 48.32681109 ], [ 19.06711309, 48.32647411 ], [ 19.06713147, 48.32641334 ], [ 19.06715636, 48.32638934 ], [ 19.067376, 48.32623046 ], [ 19.06748456, 48.32616999 ], [ 19.06749576, 48.32603635 ], [ 19.067597, 48.32592329 ], [ 19.06754958, 48.3257866 ], [ 19.06743665, 48.32573754 ], [ 19.06732154, 48.32554874 ], [ 19.06702297, 48.32555302 ], [ 19.06684615, 48.32554268 ], [ 19.06667892, 48.32545355 ], [ 19.06656967, 48.32542099 ], [ 19.06628008, 48.32533508 ], [ 19.06624147, 48.32533088 ], [ 19.06616929, 48.32518231 ], [ 19.06602472, 48.32488461 ], [ 19.06584768, 48.32449264 ], [ 19.06555046, 48.32397837 ], [ 19.06540463, 48.32377198 ], [ 19.06500751, 48.32346526 ], [ 19.06454594, 48.32313294 ], [ 19.06377618, 48.32259253 ], [ 19.06380041, 48.32258157 ], [ 19.06353139, 48.32239657 ], [ 19.06348113, 48.32236752 ], [ 19.0634329, 48.32233957 ], [ 19.0634197, 48.3223343 ], [ 19.06334758, 48.3223442 ], [ 19.06332088, 48.32231841 ], [ 19.06322234, 48.3223323 ], [ 19.06302965, 48.32235949 ], [ 19.06290129, 48.32237873 ], [ 19.06282383, 48.32241425 ], [ 19.06271221, 48.32244804 ], [ 19.06261428, 48.32242309 ], [ 19.06241886, 48.32237167 ], [ 19.06234845, 48.32232826 ], [ 19.06215796, 48.32231217 ], [ 19.06204901, 48.3223415 ], [ 19.06204612, 48.3223336 ], [ 19.06177994, 48.32227888 ], [ 19.06171049, 48.32218393 ], [ 19.06171575, 48.32211961 ], [ 19.06169509, 48.32204164 ], [ 19.06164748, 48.32202264 ], [ 19.06149619, 48.32201268 ], [ 19.06129131, 48.32196123 ], [ 19.06115676, 48.32195391 ], [ 19.06103888, 48.32177201 ], [ 19.06082661, 48.3217237 ], [ 19.06074922, 48.32172874 ], [ 19.06069731, 48.32161753 ], [ 19.06081708, 48.32154275 ], [ 19.06074441, 48.32145241 ], [ 19.06078126, 48.32139456 ], [ 19.06091601, 48.32132008 ], [ 19.06087023, 48.32121802 ], [ 19.0609054, 48.32118209 ], [ 19.06114645, 48.32115184 ], [ 19.06118534, 48.3211225 ], [ 19.06122264, 48.32104744 ], [ 19.06132572, 48.32096127 ], [ 19.06139017, 48.32092356 ], [ 19.06145412, 48.32085328 ], [ 19.0615766, 48.32078684 ], [ 19.06165287, 48.32079402 ], [ 19.06176529, 48.32081997 ], [ 19.06188618, 48.32074723 ], [ 19.06205189, 48.32057375 ], [ 19.06214037, 48.32052445 ], [ 19.06216509, 48.32042801 ], [ 19.06213612, 48.32038641 ], [ 19.06197633, 48.32030351 ], [ 19.06161825, 48.3202447 ], [ 19.0615467, 48.32023046 ], [ 19.06129364, 48.32024504 ], [ 19.06109944, 48.32035251 ], [ 19.06098192, 48.32038953 ], [ 19.06090507, 48.32036716 ], [ 19.06091729, 48.32026523 ], [ 19.06088425, 48.32020593 ], [ 19.06083002, 48.32017127 ], [ 19.06070101, 48.32013663 ], [ 19.06049183, 48.32007901 ], [ 19.06036821, 48.31999197 ], [ 19.06028252, 48.31997963 ], [ 19.06013597, 48.31995889 ], [ 19.0596798, 48.32009871 ], [ 19.05955272, 48.32018431 ], [ 19.05951177, 48.32026874 ], [ 19.05954342, 48.32036423 ], [ 19.05951699, 48.32041251 ], [ 19.05937001, 48.32042539 ], [ 19.059289, 48.32044575 ], [ 19.05922416, 48.32043194 ], [ 19.05896763, 48.3202158 ], [ 19.05886593, 48.32009884 ], [ 19.05882631, 48.31998058 ], [ 19.05887789, 48.3198763 ], [ 19.05879245, 48.31981517 ], [ 19.05872329, 48.31980014 ], [ 19.05865289, 48.31981391 ], [ 19.05855916, 48.31984265 ], [ 19.0585154, 48.31986606 ], [ 19.05849492, 48.31999184 ], [ 19.0584857, 48.3201043 ], [ 19.05856376, 48.32027951 ], [ 19.05857347, 48.32033457 ], [ 19.05850652, 48.32040867 ], [ 19.05841101, 48.32055331 ], [ 19.05818221, 48.32064983 ], [ 19.05816255, 48.32065859 ], [ 19.05811123, 48.32068306 ], [ 19.05791965, 48.32063363 ], [ 19.05780785, 48.32055097 ], [ 19.05780562, 48.32046201 ], [ 19.05774906, 48.32034416 ], [ 19.05761668, 48.32020202 ], [ 19.0575096, 48.32005619 ], [ 19.05752595, 48.32002644 ], [ 19.0575562, 48.32001128 ], [ 19.05761467, 48.31998103 ], [ 19.05765186, 48.31993573 ], [ 19.05770304, 48.31980988 ], [ 19.05772981, 48.31977298 ], [ 19.05772038, 48.31975357 ], [ 19.05770171, 48.31974884 ], [ 19.05741231, 48.31979648 ], [ 19.05724465, 48.31979263 ], [ 19.05704526, 48.3197263 ], [ 19.05686733, 48.31972951 ], [ 19.0568414, 48.31972198 ], [ 19.05680606, 48.31969377 ], [ 19.05678186, 48.3196507 ], [ 19.05695755, 48.31954077 ], [ 19.05695421, 48.31949866 ], [ 19.05691525, 48.31946901 ], [ 19.05677074, 48.31944459 ], [ 19.05655021, 48.31939892 ], [ 19.05651241, 48.31937682 ], [ 19.05648835, 48.31931355 ], [ 19.05641156, 48.31922625 ], [ 19.05640661, 48.3191625 ], [ 19.05642033, 48.31910348 ], [ 19.05654653, 48.31901027 ], [ 19.05664185, 48.31886364 ], [ 19.05668223, 48.31882482 ], [ 19.05674651, 48.31883031 ], [ 19.05678515, 48.318808 ], [ 19.05679208, 48.31877786 ], [ 19.05678903, 48.31875227 ], [ 19.05672936, 48.31871914 ], [ 19.05661644, 48.31872156 ], [ 19.05652582, 48.3187491 ], [ 19.05647065, 48.31872883 ], [ 19.05643396, 48.31864084 ], [ 19.05640191, 48.31852513 ], [ 19.05638632, 48.31834413 ], [ 19.05649802, 48.31822484 ], [ 19.05664623, 48.31813896 ], [ 19.05672482, 48.31809945 ], [ 19.05675735, 48.31802479 ], [ 19.05682362, 48.31793766 ], [ 19.05688469, 48.31790114 ], [ 19.05691009, 48.3177665 ], [ 19.0568885, 48.31771725 ], [ 19.05684172, 48.31768846 ], [ 19.0567751, 48.31758544 ], [ 19.05680903, 48.31747576 ], [ 19.05694021, 48.31743159 ], [ 19.05700813, 48.3173597 ], [ 19.05717276, 48.31730198 ], [ 19.05720742, 48.31724429 ], [ 19.05718998, 48.31720012 ], [ 19.05711727, 48.31716867 ], [ 19.05692197, 48.31698764 ], [ 19.05688343, 48.31693509 ], [ 19.05678325, 48.31687286 ], [ 19.05671381, 48.31678512 ], [ 19.05659901, 48.31673974 ], [ 19.0565298, 48.31677169 ], [ 19.0563704, 48.31678332 ], [ 19.056308, 48.31681607 ], [ 19.0562934, 48.31690788 ], [ 19.05631345, 48.31694578 ], [ 19.05637572, 48.31699528 ], [ 19.05635754, 48.31710674 ], [ 19.05633121, 48.31712787 ], [ 19.05623354, 48.31713531 ], [ 19.05611457, 48.31713743 ], [ 19.05602359, 48.31718254 ], [ 19.05588432, 48.31720023 ], [ 19.05577493, 48.31716675 ], [ 19.05568378, 48.31706186 ], [ 19.05560467, 48.316995 ], [ 19.0554292, 48.31690264 ], [ 19.05542893, 48.31682271 ], [ 19.05538589, 48.31674081 ], [ 19.05537298, 48.31669957 ], [ 19.05543018, 48.31662687 ], [ 19.05556736, 48.31662991 ], [ 19.05563109, 48.31665937 ], [ 19.05567496, 48.3166577 ], [ 19.05570004, 48.31663921 ], [ 19.05571863, 48.31658026 ], [ 19.05583934, 48.31646855 ], [ 19.05589374, 48.31642764 ], [ 19.05594866, 48.31640362 ], [ 19.05599802, 48.31635587 ], [ 19.0559859, 48.31633037 ], [ 19.05592797, 48.31629741 ], [ 19.05552462, 48.31618625 ], [ 19.05535963, 48.31617676 ], [ 19.05520883, 48.31619603 ], [ 19.0551423, 48.31617698 ], [ 19.05506917, 48.31605866 ], [ 19.05485318, 48.31594801 ], [ 19.05477827, 48.31580479 ], [ 19.05473646, 48.31562373 ], [ 19.0547133, 48.3154953 ], [ 19.05472361, 48.31540671 ], [ 19.0547847, 48.31537119 ], [ 19.05489066, 48.31538483 ], [ 19.05504549, 48.31538127 ], [ 19.05519035, 48.31535232 ], [ 19.05521352, 48.31530189 ], [ 19.05516468, 48.3152997 ], [ 19.05508334, 48.31527765 ], [ 19.05495356, 48.31518425 ], [ 19.05469111, 48.31515667 ], [ 19.05435555, 48.3150583 ], [ 19.05425121, 48.31477993 ], [ 19.05425599, 48.31476403 ], [ 19.05429104, 48.31461472 ], [ 19.05429018, 48.31456146 ], [ 19.05424202, 48.31455804 ], [ 19.05418784, 48.31458751 ], [ 19.05249956, 48.31550567 ], [ 19.05235357, 48.31558508 ], [ 19.05201945, 48.3155896 ], [ 19.05189529, 48.31560651 ], [ 19.05185012, 48.31569713 ], [ 19.05174777, 48.31576016 ], [ 19.05164789, 48.31583359 ], [ 19.05161266, 48.31590694 ], [ 19.0515879, 48.31595828 ], [ 19.05154681, 48.31604396 ], [ 19.05083316, 48.316439 ], [ 19.04960133, 48.31655487 ], [ 19.04924758, 48.31658816 ], [ 19.04875235, 48.31663477 ], [ 19.04867673, 48.31669346 ], [ 19.04862484, 48.31673359 ], [ 19.04847018, 48.31685359 ], [ 19.04829076, 48.31699272 ], [ 19.04762541, 48.31676656 ], [ 19.04725967, 48.31664221 ], [ 19.04722257, 48.31666162 ], [ 19.04712812, 48.31671097 ], [ 19.04703195, 48.31676122 ], [ 19.0469853, 48.31679097 ], [ 19.04532515, 48.31784901 ], [ 19.04492306, 48.3180458 ], [ 19.04381259, 48.31858932 ], [ 19.04380294, 48.31860164 ], [ 19.04374306, 48.31867753 ], [ 19.04318274, 48.31938856 ], [ 19.04275891, 48.31992645 ], [ 19.04254844, 48.32019344 ], [ 19.0419643, 48.3207115 ], [ 19.04206855, 48.32076637 ], [ 19.04153482, 48.32116684 ], [ 19.04106633, 48.32181305 ], [ 19.04100999, 48.32214338 ], [ 19.04059304, 48.3226965 ], [ 19.0404407, 48.32301937 ], [ 19.04024441, 48.32368844 ], [ 19.04013855, 48.32382722 ], [ 19.04002008, 48.32391756 ], [ 19.03951032, 48.32403304 ], [ 19.03948111, 48.32404248 ], [ 19.03931127, 48.32416233 ], [ 19.03865942, 48.32425817 ], [ 19.03796907, 48.32438931 ], [ 19.03713608, 48.32461624 ], [ 19.03701368, 48.32464956 ], [ 19.03652411, 48.32504628 ], [ 19.03598987, 48.32545518 ], [ 19.03515331, 48.32599255 ], [ 19.03448854, 48.32624439 ], [ 19.03390361, 48.32634377 ], [ 19.03337154, 48.32645169 ], [ 19.03233743, 48.32681579 ], [ 19.0318392, 48.32704456 ], [ 19.03145726, 48.32720941 ], [ 19.03118609, 48.32733395 ], [ 19.0304323, 48.32775543 ], [ 19.03024635, 48.32790242 ], [ 19.02983261, 48.32824542 ], [ 19.02892159, 48.32846058 ], [ 19.02816017, 48.32872445 ], [ 19.02763029, 48.3288044 ], [ 19.02699282, 48.32891931 ], [ 19.02642489, 48.32911594 ], [ 19.02637602, 48.32913285 ], [ 19.02632449, 48.32912212 ], [ 19.02612242, 48.32955169 ], [ 19.02593536, 48.32983634 ], [ 19.02577309, 48.33016582 ], [ 19.02567757, 48.33030602 ], [ 19.02551568, 48.3305004 ], [ 19.02542237, 48.3306426 ], [ 19.02526119, 48.33095536 ], [ 19.02508885, 48.33119746 ], [ 19.02495893, 48.33132735 ], [ 19.02493266, 48.33135371 ], [ 19.02486152, 48.3315019 ], [ 19.02483879, 48.33154937 ], [ 19.02445385, 48.33196786 ], [ 19.0241974, 48.33220967 ], [ 19.02400814, 48.33233916 ], [ 19.02384169, 48.33240378 ], [ 19.02378841, 48.3324451 ], [ 19.02365843, 48.33253277 ], [ 19.02355566, 48.33255137 ], [ 19.02346874, 48.33276199 ], [ 19.02328586, 48.33296712 ], [ 19.02304736, 48.33312623 ], [ 19.02269269, 48.33332292 ], [ 19.02248717, 48.33359716 ], [ 19.02239616, 48.33367048 ], [ 19.02194418, 48.33390309 ], [ 19.02186714, 48.33398551 ], [ 19.02129639, 48.33442677 ], [ 19.02062649, 48.33487617 ], [ 19.02029718, 48.33510291 ], [ 19.02014887, 48.33516493 ], [ 19.01993717, 48.33526442 ], [ 19.0198382, 48.33535645 ], [ 19.01935052, 48.33566103 ], [ 19.01855154, 48.33573333 ], [ 19.01805369, 48.33587684 ], [ 19.0167991, 48.33620013 ], [ 19.01530021, 48.33647565 ], [ 19.01529096, 48.33654237 ], [ 19.01522057, 48.33692422 ], [ 19.01519365, 48.33729492 ], [ 19.01503888, 48.33792991 ], [ 19.01503511, 48.33855163 ], [ 19.01502541, 48.33862592 ], [ 19.0147133, 48.33900839 ], [ 19.01442614, 48.339259 ], [ 19.01370662, 48.33973182 ], [ 19.0128271, 48.34037456 ], [ 19.01273807, 48.34043968 ], [ 19.0125562, 48.34057259 ], [ 19.01123247, 48.34138228 ], [ 19.0107951, 48.34172032 ], [ 19.01032918, 48.34195777 ], [ 19.00993614, 48.34222166 ], [ 19.00969354, 48.34238144 ], [ 19.00926277, 48.34286521 ], [ 19.00902495, 48.34307194 ], [ 19.00885723, 48.34325843 ], [ 19.00828154, 48.34390062 ], [ 19.00811339, 48.34418071 ], [ 19.00784646, 48.34451532 ], [ 19.00766733, 48.34463583 ], [ 19.00756112, 48.34468428 ], [ 19.00750532, 48.34470959 ], [ 19.00734388, 48.3447831 ], [ 19.00717354, 48.34486338 ], [ 19.00707801, 48.34490841 ], [ 19.00674304, 48.34505221 ], [ 19.00593016, 48.34562063 ], [ 19.00567657, 48.34598026 ], [ 19.00527972, 48.34637627 ], [ 19.0047325, 48.34674658 ], [ 19.00450218, 48.34675499 ], [ 19.00426412, 48.34676363 ], [ 19.00375514, 48.34658802 ], [ 19.00353878, 48.34660453 ], [ 19.00299867, 48.34674708 ], [ 19.00203469, 48.3471974 ], [ 19.00154075, 48.34741996 ], [ 19.0014314, 48.34749332 ], [ 19.00117107, 48.34766805 ], [ 19.0009502, 48.3477334 ], [ 19.0005001, 48.34797947 ], [ 19.00009745, 48.34808887 ], [ 18.99953208, 48.34816582 ], [ 18.99936126, 48.3481343 ], [ 18.99895214, 48.34820449 ], [ 18.99855394, 48.34872507 ], [ 18.99781137, 48.34932336 ], [ 18.99776426, 48.34936128 ], [ 18.99773598, 48.34944039 ], [ 18.99772881, 48.3494605 ], [ 18.99733575, 48.34993713 ], [ 18.99657437, 48.35087163 ], [ 18.99565739, 48.35182805 ], [ 18.99535617, 48.35215728 ], [ 18.99507682, 48.35247869 ], [ 18.99489728, 48.35278524 ], [ 18.99471129, 48.35283521 ], [ 18.99457045, 48.35333298 ], [ 18.99456354, 48.3535372 ], [ 18.99456176, 48.35359168 ], [ 18.99455722, 48.35372459 ], [ 18.99469652, 48.35406533 ], [ 18.99468825, 48.35407961 ], [ 18.99456609, 48.35428933 ], [ 18.99455497, 48.35430843 ], [ 18.99450271, 48.35439831 ], [ 18.99448057, 48.35452653 ], [ 18.99445079, 48.35469892 ], [ 18.99443916, 48.35476607 ], [ 18.99442734, 48.35518904 ], [ 18.99441624, 48.35558446 ], [ 18.99448348, 48.35565553 ], [ 18.99486106, 48.35605459 ], [ 18.99498368, 48.35614788 ], [ 18.99470838, 48.35658828 ], [ 18.99437495, 48.35697387 ], [ 18.99428399, 48.35733391 ], [ 18.9943744, 48.35748969 ], [ 18.99450838, 48.35784865 ], [ 18.99474956, 48.35850613 ], [ 18.99491211, 48.35880602 ], [ 18.99494317, 48.35886326 ], [ 18.99495826, 48.35889099 ], [ 18.99497966, 48.35900889 ], [ 18.99500542, 48.35915019 ], [ 18.99501113, 48.35918187 ], [ 18.99503393, 48.35930877 ], [ 18.99503565, 48.3593186 ], [ 18.99508986, 48.35942654 ], [ 18.99515639, 48.35955927 ], [ 18.99543476, 48.35974852 ], [ 18.99548889, 48.35978528 ], [ 18.99559595, 48.36006737 ], [ 18.99574969, 48.36017857 ], [ 18.99575195, 48.36019068 ], [ 18.99576158, 48.36024249 ], [ 18.99577018, 48.36028902 ], [ 18.99578551, 48.36037143 ], [ 18.99582102, 48.36056338 ], [ 18.99583692, 48.36064907 ], [ 18.99584489, 48.36069169 ], [ 18.99579836, 48.36090986 ], [ 18.99573964, 48.36118586 ], [ 18.99573203, 48.36122155 ], [ 18.99572888, 48.36123609 ], [ 18.99571679, 48.36129311 ], [ 18.99552226, 48.36220595 ], [ 18.99519186, 48.36281385 ], [ 18.99490667, 48.36280907 ], [ 18.99474644, 48.3627946 ], [ 18.99454042, 48.36280296 ], [ 18.99439174, 48.36284951 ], [ 18.99437233, 48.36286413 ], [ 18.99416323, 48.36302207 ], [ 18.99392358, 48.3632221 ], [ 18.9939173, 48.36322728 ], [ 18.99386864, 48.36327153 ], [ 18.99358705, 48.36352797 ], [ 18.99341992, 48.36364565 ], [ 18.99268139, 48.36396784 ], [ 18.99251226, 48.36404158 ], [ 18.99218245, 48.36444457 ], [ 18.99200962, 48.36477113 ], [ 18.99179086, 48.36494706 ], [ 18.9916349, 48.36510888 ], [ 18.99143616, 48.36520817 ], [ 18.99117572, 48.36538044 ], [ 18.99089765, 48.3656072 ], [ 18.99059238, 48.3660403 ], [ 18.99049758, 48.36612206 ], [ 18.99037551, 48.36626332 ], [ 18.99034006, 48.36638346 ], [ 18.99000193, 48.36684799 ], [ 18.98909797, 48.36746454 ], [ 18.98871797, 48.367941 ], [ 18.98858393, 48.36807326 ], [ 18.98844491, 48.3682583 ], [ 18.9882585, 48.36836922 ], [ 18.988192, 48.36843429 ], [ 18.98802517, 48.36856912 ], [ 18.98770208, 48.36872556 ], [ 18.98727732, 48.36894682 ], [ 18.98581903, 48.36964369 ], [ 18.98554911, 48.36974484 ], [ 18.98439083, 48.36978599 ], [ 18.98331306, 48.37004194 ], [ 18.98378378, 48.37040475 ], [ 18.98392855, 48.37077663 ], [ 18.98399788, 48.37148932 ], [ 18.98430093, 48.37192583 ], [ 18.9844408, 48.37262444 ], [ 18.9838717, 48.37367016 ], [ 18.98408572, 48.37384361 ], [ 18.98434486, 48.37428185 ], [ 18.98463787, 48.37472822 ], [ 18.98483917, 48.37502893 ], [ 18.98507783, 48.37527435 ], [ 18.98512167, 48.37531934 ], [ 18.9853257, 48.37552918 ], [ 18.98571635, 48.37597782 ], [ 18.9858366, 48.37616976 ], [ 18.98585375, 48.37627978 ], [ 18.9858605, 48.3763236 ], [ 18.985863, 48.37633951 ], [ 18.9858694, 48.3763816 ], [ 18.98587098, 48.37639142 ], [ 18.98600468, 48.37648167 ], [ 18.98613535, 48.37656518 ], [ 18.98642392, 48.37666621 ], [ 18.98665008, 48.37677534 ], [ 18.98669195, 48.3767763 ], [ 18.98769462, 48.37679926 ], [ 18.98865095, 48.37689805 ], [ 18.98905085, 48.37686909 ], [ 18.98924102, 48.37684604 ], [ 18.98966965, 48.37678733 ], [ 18.99012199, 48.37682634 ], [ 18.99066241, 48.3769226 ], [ 18.99243778, 48.37744471 ], [ 18.99274054, 48.37754608 ], [ 18.99279127, 48.37756301 ], [ 18.99356995, 48.37782373 ], [ 18.99363384, 48.37784512 ], [ 18.99365679, 48.37785278 ], [ 18.9937454, 48.37786992 ], [ 18.99379601, 48.37784778 ], [ 18.99396775, 48.37777291 ], [ 18.99419654, 48.37770707 ], [ 18.99420719, 48.37770157 ], [ 18.99455239, 48.37752395 ], [ 18.99457447, 48.37750135 ], [ 18.99482013, 48.37724948 ], [ 18.99495133, 48.37719167 ], [ 18.99497495, 48.37718286 ], [ 18.99516606, 48.3771115 ], [ 18.99517129, 48.37711429 ], [ 18.99519044, 48.37712437 ], [ 18.99521522, 48.37713736 ], [ 18.99522913, 48.37714474 ], [ 18.9952313, 48.37714585 ], [ 18.99535598, 48.37718259 ], [ 18.99573572, 48.37724909 ], [ 18.99674766, 48.37742632 ], [ 18.9968107, 48.37743738 ], [ 18.99724474, 48.3775051 ], [ 18.99749639, 48.37761532 ], [ 18.99785937, 48.37791665 ], [ 18.99792276, 48.37796723 ], [ 18.9984988, 48.37842615 ], [ 18.99855948, 48.37847443 ], [ 18.99886621, 48.3785933 ], [ 18.99902092, 48.37876732 ], [ 18.9990502, 48.37878595 ], [ 18.99919657, 48.37893356 ], [ 18.99926829, 48.37900603 ], [ 18.99933152, 48.37906986 ], [ 18.99979361, 48.3795899 ], [ 19.0005921, 48.37990634 ], [ 19.00125435, 48.38016875 ], [ 19.00195129, 48.3805077 ], [ 19.00203479, 48.38055533 ], [ 19.00224921, 48.38067763 ], [ 19.00276707, 48.38093819 ], [ 19.00328827, 48.38120037 ], [ 19.0032975, 48.38122384 ], [ 19.0030628, 48.38132232 ], [ 19.00293155, 48.38146574 ], [ 19.00301775, 48.38167775 ], [ 19.00288864, 48.38181199 ], [ 19.00171957, 48.38212716 ], [ 19.00184242, 48.38235376 ], [ 19.00149512, 48.3827034 ], [ 19.00142588, 48.38289877 ], [ 19.00129944, 48.38294104 ], [ 19.00131636, 48.38301199 ], [ 19.0012508, 48.38307486 ], [ 19.00105803, 48.38309447 ], [ 19.00093007, 48.38321379 ], [ 19.00095777, 48.38330287 ], [ 19.00087958, 48.38337547 ], [ 19.00079135, 48.38330884 ], [ 19.00067185, 48.38334958 ], [ 19.000684, 48.38347873 ], [ 19.00059231, 48.38359701 ], [ 19.00040943, 48.38370398 ], [ 19.00021893, 48.38373091 ], [ 18.99970483, 48.38389103 ], [ 18.99934825, 48.38390555 ], [ 18.99922854, 48.38397884 ], [ 18.99867489, 48.38408941 ], [ 18.99860474, 48.38419579 ], [ 18.99835235, 48.38430662 ], [ 18.99752405, 48.38452128 ], [ 18.99720945, 48.38450032 ], [ 18.99670742, 48.38477469 ], [ 18.99660946, 48.38482824 ], [ 18.9966595, 48.38483007 ], [ 18.99670156, 48.38483167 ], [ 18.99665885, 48.38497742 ], [ 18.99666525, 48.38503024 ], [ 18.99674401, 48.38568603 ], [ 18.99674741, 48.38571425 ], [ 18.99676277, 48.38613762 ], [ 18.99661113, 48.38627792 ], [ 18.99654024, 48.38635756 ], [ 18.99650899, 48.38639269 ], [ 18.99650732, 48.38639549 ], [ 18.99637704, 48.38661517 ], [ 18.99625296, 48.38682443 ], [ 18.99633217, 48.38699452 ], [ 18.99617339, 48.38729032 ], [ 18.99616289, 48.38730981 ], [ 18.99618818, 48.38737505 ], [ 18.99619325, 48.38738992 ], [ 18.99624011, 48.38752679 ], [ 18.99693834, 48.38861683 ], [ 18.99818136, 48.39002753 ], [ 18.9982091, 48.39005844 ], [ 18.99823816, 48.39009086 ], [ 18.99886131, 48.39050273 ], [ 18.99956816, 48.39079421 ], [ 18.9996178, 48.39082668 ], [ 18.99964728, 48.39084595 ], [ 19.00040777, 48.391343 ], [ 19.00109843, 48.39178301 ], [ 19.00156783, 48.39193675 ], [ 19.00189947, 48.39206122 ], [ 19.00226528, 48.39240281 ], [ 19.00247902, 48.39296758 ], [ 19.0025356, 48.39348206 ], [ 19.00248526, 48.39378067 ], [ 19.00207564, 48.39470423 ], [ 19.00147063, 48.39499838 ], [ 19.00122621, 48.39513388 ], [ 19.00100163, 48.39534318 ], [ 19.00080791, 48.39556208 ], [ 19.00051392, 48.39605071 ], [ 19.00047067, 48.396298 ], [ 19.00030566, 48.39669894 ], [ 19.00029788, 48.39712834 ], [ 19.00030083, 48.39736724 ], [ 19.00019749, 48.39761887 ], [ 19.00007662, 48.39777283 ], [ 18.99994128, 48.39791839 ], [ 18.99916185, 48.39826968 ], [ 18.99835536, 48.39853671 ], [ 18.99764474, 48.39906025 ], [ 18.99708393, 48.399436 ], [ 18.99681509, 48.39955141 ], [ 18.9965754, 48.39959216 ], [ 18.99654542, 48.39959731 ], [ 18.99577118, 48.39956406 ], [ 18.99572659, 48.39957487 ], [ 18.99543691, 48.39986835 ], [ 18.9949281, 48.40029598 ], [ 18.99457091, 48.40047056 ], [ 18.99400079, 48.40073587 ], [ 18.99366935, 48.40091627 ], [ 18.99341904, 48.40114383 ], [ 18.99322223, 48.40134785 ], [ 18.99290781, 48.40166072 ], [ 18.99260789, 48.40192273 ], [ 18.99187415, 48.40234702 ], [ 18.99133553, 48.40265036 ], [ 18.99055216, 48.4030677 ], [ 18.99045612, 48.40312072 ], [ 18.98932235, 48.40374634 ], [ 18.9880165, 48.40452753 ], [ 18.98738269, 48.40481473 ], [ 18.98699816, 48.40540472 ], [ 18.98631143, 48.40600248 ], [ 18.98580788, 48.40644081 ], [ 18.98522213, 48.40693782 ], [ 18.98519089, 48.40696437 ], [ 18.98515262, 48.40699679 ], [ 18.98511663, 48.40702941 ], [ 18.9848836, 48.40724042 ], [ 18.98479408, 48.40739452 ], [ 18.98465406, 48.40792064 ], [ 18.98436546, 48.4086656 ], [ 18.98429669, 48.40904454 ], [ 18.98430868, 48.40938214 ], [ 18.98436781, 48.40974216 ], [ 18.98440863, 48.409809 ], [ 18.98445597, 48.40988628 ], [ 18.98482114, 48.41048343 ], [ 18.98525237, 48.41129438 ], [ 18.98548175, 48.41160318 ], [ 18.98595179, 48.41223588 ], [ 18.98635982, 48.41254522 ], [ 18.98666285, 48.41307037 ], [ 18.98773427, 48.41438187 ], [ 18.98833005, 48.4147261 ], [ 18.98971437, 48.41526201 ], [ 18.99037431, 48.4155174 ], [ 18.99110928, 48.41623681 ], [ 18.99158015, 48.41738113 ], [ 18.99153686, 48.4175209 ], [ 18.99157261, 48.41764972 ], [ 18.99235286, 48.41843302 ], [ 18.9933209, 48.41958847 ], [ 18.99364738, 48.41988316 ], [ 18.99365982, 48.41989408 ], [ 18.99415208, 48.42032763 ], [ 18.99431044, 48.42051338 ], [ 18.99458885, 48.42080201 ], [ 18.99474483, 48.42098493 ], [ 18.99531354, 48.42149641 ], [ 18.99581501, 48.42232342 ], [ 18.99553356, 48.42281323 ], [ 18.99551799, 48.42284022 ], [ 18.99594197, 48.42287143 ], [ 18.99599706, 48.42287549 ], [ 18.9964537, 48.42290908 ], [ 18.99718352, 48.42337147 ], [ 18.99769079, 48.42348583 ], [ 18.99826136, 48.42399928 ], [ 18.99862184, 48.42418005 ], [ 18.99987749, 48.42466517 ], [ 19.00007034, 48.42473964 ], [ 19.00058227, 48.42481707 ], [ 19.00105443, 48.42496246 ], [ 19.00110587, 48.42497833 ], [ 19.00151977, 48.42510579 ], [ 19.0030368, 48.42573124 ], [ 19.00313888, 48.42578306 ], [ 19.00318395, 48.425806 ], [ 19.00518803, 48.42682353 ], [ 19.00624589, 48.42731135 ], [ 19.00629365, 48.42733334 ], [ 19.00680122, 48.42756746 ], [ 19.00863583, 48.42871198 ], [ 19.00864411, 48.42871663 ], [ 19.0086871, 48.42874127 ], [ 19.00914702, 48.42900345 ], [ 19.01029288, 48.42963486 ], [ 19.01129305, 48.43017409 ], [ 19.011351, 48.43020535 ], [ 19.01201265, 48.43056207 ], [ 19.01280248, 48.43175627 ], [ 19.01318403, 48.43290479 ], [ 19.01407828, 48.43404826 ], [ 19.01468342, 48.4345143 ], [ 19.01473163, 48.43455147 ], [ 19.01495087, 48.43472033 ], [ 19.0157191, 48.43531189 ], [ 19.01599807, 48.43555819 ], [ 19.01634245, 48.43576009 ], [ 19.0166432, 48.43592749 ], [ 19.01740145, 48.43618949 ], [ 19.01869173, 48.43675154 ], [ 19.01909317, 48.43692637 ], [ 19.02062234, 48.43736746 ], [ 19.02193111, 48.43780972 ], [ 19.02219416, 48.43787787 ], [ 19.02258679, 48.43797693 ], [ 19.0226424, 48.43799093 ], [ 19.02341963, 48.43818702 ], [ 19.02411137, 48.43839934 ], [ 19.02533343, 48.43853682 ], [ 19.02578115, 48.43859392 ], [ 19.02641059, 48.43867419 ], [ 19.02681305, 48.4386921 ], [ 19.02778679, 48.43868938 ], [ 19.02823875, 48.43868805 ], [ 19.02882801, 48.43870827 ], [ 19.02933937, 48.43875189 ], [ 19.02986347, 48.43879551 ], [ 19.02995545, 48.43880314 ], [ 19.03004489, 48.43881054 ], [ 19.030466, 48.43884553 ], [ 19.03104242, 48.43897703 ], [ 19.03150853, 48.43896342 ], [ 19.03266837, 48.43893596 ], [ 19.0328577, 48.43901353 ], [ 19.03342953, 48.43932797 ], [ 19.03374337, 48.43943708 ], [ 19.03490448, 48.43979912 ], [ 19.03524653, 48.4399129 ], [ 19.03526722, 48.43997402 ], [ 19.03527553, 48.43999861 ], [ 19.0352803, 48.44001265 ], [ 19.03528739, 48.44003366 ], [ 19.0353436, 48.4400531 ], [ 19.03555437, 48.44012579 ], [ 19.03700549, 48.44072551 ], [ 19.03726299, 48.44050842 ] ] ] ] } }
]
}
