{
"type": "FeatureCollection",
"name": "gis",
"crs": { "type": "name", "properties": { "name": "urn:ogc:def:crs:OGC:1.3:CRS84" } },
"features": [
{ "type": "Feature", "properties": { "@featureType": "CadastralZoning", "beginLifespanVersion": { "@nilReason": "http://inspire.ec.europa.eu/codelist/VoidReasonValue/Unpopulated", "@nil": "true" }, "endLifespanVersion": { "@nilReason": "http://inspire.ec.europa.eu/codelist/VoidReasonValue/Unpopulated", "@nil": "true" }, "estimatedAccuracy": { "value": -1, "@uom": "m" }, "inspireId": { "@dataType": "Identifier", "localId": "861324", "namespace": "SK.ESKN.CP", "versionId": "20260703T04:07:40" }, "label": "Štiavnik", "level": { "@href": "http://inspire.ec.europa.eu/codelist/CadastralZoningLevelValue/3rdOrder" }, "levelName": { "value": "Katastrálne územie", "@locale": "sk" }, "name": { "@dataType": "name", "GeographicalName": { "@dataType": "GeographicalName", "language": "SLK", "nativeness": { "@href": "http://inspire.ec.europa.eu/codelist/NativenessValue/endonym", "@title": "endonym" }, "nameStatus": { "@href": "http://inspire.ec.europa.eu/codelist/NameStatusValue/official", "@title": "official" }, "sourceOfName": { "@nilReason": "http://inspire.ec.europa.eu/codelist/VoidReasonValue/Unpopulated", "@nil": "true" }, "pronunciation": { "@dataType": "pronunciation", "@nilReason": "http://inspire.ec.europa.eu/codelist/VoidReasonValue/Unpopulated", "@nil": "true" }, "spelling": { "@dataType": "SpellingOfName", "text": "Štiavnik", "script": "LATN" } } }, "nationalCadastalZoningReference": "861324", "validFrom": "2026-06-30T16:00:00Z", "validTo": { "@nilReason": "http://inspire.ec.europa.eu/codelist/VoidReasonValue/Unpopulated", "@nil": "true" } }, "geometry": { "type": "MultiPolygon", "coordinates": [ [ [ [ 18.41142331, 49.33681988 ], [ 18.41164231, 49.33669448 ], [ 18.4124667, 49.33628679 ], [ 18.41295978, 49.3360928 ], [ 18.41318179, 49.33591279 ], [ 18.41346842, 49.33568129 ], [ 18.41375156, 49.33570226 ], [ 18.41399032, 49.33535984 ], [ 18.41406493, 49.33516632 ], [ 18.41413882, 49.33469933 ], [ 18.41433421, 49.33440415 ], [ 18.41458232, 49.33407488 ], [ 18.41499222, 49.33333578 ], [ 18.41540267, 49.33273622 ], [ 18.41542376, 49.33270535 ], [ 18.4155108, 49.33257829 ], [ 18.41599449, 49.33226376 ], [ 18.4163964, 49.33200519 ], [ 18.41645847, 49.33198207 ], [ 18.41700692, 49.33177794 ], [ 18.41703232, 49.33175118 ], [ 18.41705133, 49.33173111 ], [ 18.41772724, 49.33101889 ], [ 18.41857274, 49.33028475 ], [ 18.41860887, 49.33027753 ], [ 18.41862843, 49.33027364 ], [ 18.41934083, 49.33013111 ], [ 18.41951511, 49.33009646 ], [ 18.41963252, 49.33003162 ], [ 18.42013732, 49.32990683 ], [ 18.42030448, 49.32990608 ], [ 18.42059054, 49.32994705 ], [ 18.42099029, 49.32998434 ], [ 18.42201667, 49.32999104 ], [ 18.42244424, 49.329973 ], [ 18.42370263, 49.33025862 ], [ 18.4240568, 49.3302961 ], [ 18.42436016, 49.33028838 ], [ 18.42485268, 49.33022697 ], [ 18.42815287, 49.33063093 ], [ 18.42831219, 49.33065041 ], [ 18.42849103, 49.33050166 ], [ 18.42852086, 49.33047686 ], [ 18.42883712, 49.33048698 ], [ 18.42885089, 49.33056263 ], [ 18.42951034, 49.33069579 ], [ 18.42999752, 49.33079423 ], [ 18.43011381, 49.33069502 ], [ 18.42986318, 49.33061451 ], [ 18.42966337, 49.33045016 ], [ 18.43056826, 49.33006932 ], [ 18.43112797, 49.32999099 ], [ 18.43091572, 49.329648 ], [ 18.43118195, 49.32819172 ], [ 18.43487042, 49.32448798 ], [ 18.43489517, 49.32446182 ], [ 18.43492072, 49.32442081 ], [ 18.43582111, 49.32297444 ], [ 18.43585531, 49.32291225 ], [ 18.43598852, 49.32269043 ], [ 18.43602114, 49.32263627 ], [ 18.43611838, 49.3224743 ], [ 18.43625321, 49.32192862 ], [ 18.43654316, 49.32150712 ], [ 18.43671547, 49.32135178 ], [ 18.43690403, 49.32123117 ], [ 18.43652814, 49.32119886 ], [ 18.43664145, 49.32095565 ], [ 18.43671074, 49.32080703 ], [ 18.43687605, 49.32034117 ], [ 18.43733493, 49.31991439 ], [ 18.43742854, 49.31973218 ], [ 18.43741852, 49.3192513 ], [ 18.43742278, 49.31874413 ], [ 18.43739663, 49.31845918 ], [ 18.43782187, 49.31767529 ], [ 18.43811055, 49.31706946 ], [ 18.4381047, 49.31680276 ], [ 18.43823018, 49.31636314 ], [ 18.43819766, 49.31612241 ], [ 18.4377604, 49.31563329 ], [ 18.4376022, 49.31552465 ], [ 18.43676121, 49.31507225 ], [ 18.43664024, 49.31459666 ], [ 18.43696795, 49.31385743 ], [ 18.43738879, 49.31328645 ], [ 18.43806442, 49.31241702 ], [ 18.43811467, 49.31237059 ], [ 18.43819777, 49.3122627 ], [ 18.4389165, 49.31150906 ], [ 18.43952562, 49.3111229 ], [ 18.44030653, 49.31114643 ], [ 18.44077342, 49.31101073 ], [ 18.44232755, 49.31064994 ], [ 18.44364905, 49.31027125 ], [ 18.44370305, 49.3102548 ], [ 18.44442568, 49.31004881 ], [ 18.4456492, 49.30990495 ], [ 18.44687858, 49.3095857 ], [ 18.44758159, 49.30916719 ], [ 18.44820729, 49.30885553 ], [ 18.44888448, 49.30857827 ], [ 18.44996865, 49.3077451 ], [ 18.45069029, 49.30725712 ], [ 18.45090523, 49.30643075 ], [ 18.4512444, 49.30577794 ], [ 18.45135961, 49.30567766 ], [ 18.45213842, 49.304837 ], [ 18.45238737, 49.30375189 ], [ 18.45262987, 49.30293741 ], [ 18.45258507, 49.30219097 ], [ 18.45255663, 49.30153132 ], [ 18.45311556, 49.30105555 ], [ 18.45533524, 49.30077852 ], [ 18.45679145, 49.30069266 ], [ 18.45815189, 49.3003571 ], [ 18.45868746, 49.30018043 ], [ 18.45914551, 49.29996144 ], [ 18.45963043, 49.29971991 ], [ 18.46077102, 49.29954115 ], [ 18.46179178, 49.29934339 ], [ 18.46204878, 49.29923894 ], [ 18.46275374, 49.29870441 ], [ 18.46284608, 49.29850841 ], [ 18.46301875, 49.29796722 ], [ 18.46346877, 49.29697365 ], [ 18.46388168, 49.29624172 ], [ 18.46425166, 49.29561366 ], [ 18.46441928, 49.29492141 ], [ 18.464419, 49.29405387 ], [ 18.4644572, 49.294014 ], [ 18.46473314, 49.29365043 ], [ 18.46507465, 49.29326381 ], [ 18.46540492, 49.29285168 ], [ 18.46615011, 49.29185562 ], [ 18.46639526, 49.29150074 ], [ 18.46736143, 49.29068095 ], [ 18.4679573, 49.29026281 ], [ 18.46864063, 49.28979151 ], [ 18.46956151, 49.28928226 ], [ 18.46982635, 49.28873896 ], [ 18.4698635, 49.28866284 ], [ 18.46997988, 49.28811108 ], [ 18.47016796, 49.28737004 ], [ 18.47045625, 49.28630682 ], [ 18.47079988, 49.28576854 ], [ 18.47105159, 49.2852219 ], [ 18.47074562, 49.2849005 ], [ 18.47068331, 49.28378063 ], [ 18.47094313, 49.28278263 ], [ 18.47095289, 49.28263888 ], [ 18.47095442, 49.28256407 ], [ 18.47102694, 49.28190263 ], [ 18.47121505, 49.28116755 ], [ 18.47122866, 49.28111487 ], [ 18.4712655, 49.2809707 ], [ 18.47154463, 49.28019997 ], [ 18.47173442, 49.27932051 ], [ 18.47261741, 49.27848858 ], [ 18.47334274, 49.27841911 ], [ 18.47496519, 49.27853097 ], [ 18.47499371, 49.27845203 ], [ 18.47505788, 49.2782784 ], [ 18.47515138, 49.27803788 ], [ 18.47527085, 49.27781772 ], [ 18.47543136, 49.27744405 ], [ 18.47565857, 49.27711841 ], [ 18.47577137, 49.27695383 ], [ 18.47580847, 49.27689964 ], [ 18.47613155, 49.27642429 ], [ 18.47648624, 49.27591511 ], [ 18.47650732, 49.27588486 ], [ 18.47667696, 49.2757222 ], [ 18.47711237, 49.27530476 ], [ 18.47807279, 49.27457502 ], [ 18.47868441, 49.27417818 ], [ 18.47923049, 49.27382379 ], [ 18.47991836, 49.27340629 ], [ 18.48074855, 49.27290088 ], [ 18.48117511, 49.2726848 ], [ 18.48158022, 49.27212765 ], [ 18.48167188, 49.27182097 ], [ 18.48153838, 49.27098481 ], [ 18.48147982, 49.27049527 ], [ 18.48112631, 49.27019332 ], [ 18.48105462, 49.27003376 ], [ 18.4808661, 49.2696142 ], [ 18.48085052, 49.26957951 ], [ 18.48049938, 49.2690161 ], [ 18.48047476, 49.26897659 ], [ 18.48040399, 49.26868832 ], [ 18.48039426, 49.26850895 ], [ 18.48038431, 49.26832694 ], [ 18.48041188, 49.26797347 ], [ 18.48058677, 49.26768025 ], [ 18.48067282, 49.26753596 ], [ 18.48103159, 49.26700354 ], [ 18.48108665, 49.2669218 ], [ 18.48117901, 49.26666064 ], [ 18.48111196, 49.26646461 ], [ 18.48100592, 49.26614474 ], [ 18.48146852, 49.26568591 ], [ 18.48190546, 49.26519239 ], [ 18.48207081, 49.26500558 ], [ 18.48225135, 49.26471881 ], [ 18.48278921, 49.26408307 ], [ 18.48360909, 49.26310715 ], [ 18.48368522, 49.26283572 ], [ 18.48378845, 49.26254303 ], [ 18.48416564, 49.26206358 ], [ 18.48439306, 49.26191759 ], [ 18.48471347, 49.26181024 ], [ 18.48488173, 49.26169036 ], [ 18.48521677, 49.26134622 ], [ 18.48559799, 49.26089784 ], [ 18.48582374, 49.26065206 ], [ 18.48586566, 49.26066932 ], [ 18.48620962, 49.2601202 ], [ 18.48622724, 49.26009219 ], [ 18.48647379, 49.25973033 ], [ 18.48680947, 49.2592376 ], [ 18.48687197, 49.25904619 ], [ 18.48695386, 49.25879646 ], [ 18.48695768, 49.25877835 ], [ 18.48696805, 49.25875202 ], [ 18.48705883, 49.25835524 ], [ 18.48711004, 49.25817341 ], [ 18.48718911, 49.25789276 ], [ 18.48729842, 49.25761817 ], [ 18.48741509, 49.25738008 ], [ 18.48743203, 49.25734545 ], [ 18.48749118, 49.25722378 ], [ 18.48750237, 49.25718992 ], [ 18.48751906, 49.25713994 ], [ 18.48771438, 49.256607 ], [ 18.48767356, 49.25659621 ], [ 18.48782453, 49.25620956 ], [ 18.48800897, 49.25599897 ], [ 18.48828473, 49.25559466 ], [ 18.4885377, 49.25531435 ], [ 18.48880689, 49.25513761 ], [ 18.48926476, 49.2545659 ], [ 18.48948048, 49.25426082 ], [ 18.48970925, 49.25399517 ], [ 18.48982149, 49.25387765 ], [ 18.49012292, 49.2535619 ], [ 18.49010573, 49.25355068 ], [ 18.4896697, 49.25331627 ], [ 18.48908173, 49.25302568 ], [ 18.48854098, 49.25277574 ], [ 18.48839633, 49.25269577 ], [ 18.48835228, 49.25267145 ], [ 18.48793753, 49.25244216 ], [ 18.48790597, 49.25242474 ], [ 18.48703589, 49.25194383 ], [ 18.48637719, 49.25139303 ], [ 18.48633019, 49.25134526 ], [ 18.48553775, 49.25053985 ], [ 18.48537699, 49.24986283 ], [ 18.48491051, 49.24966238 ], [ 18.485109, 49.24953423 ], [ 18.48518504, 49.24945427 ], [ 18.48533974, 49.24914029 ], [ 18.48547616, 49.24877369 ], [ 18.48545171, 49.24843985 ], [ 18.48537526, 49.24806718 ], [ 18.48496697, 49.24744229 ], [ 18.48543095, 49.24708053 ], [ 18.48546093, 49.24705717 ], [ 18.48588116, 49.24672948 ], [ 18.48656835, 49.24634531 ], [ 18.48684796, 49.24615462 ], [ 18.48720034, 49.24576296 ], [ 18.48739447, 49.24540628 ], [ 18.48739987, 49.24508688 ], [ 18.48745311, 49.24495849 ], [ 18.48746422, 49.24493175 ], [ 18.48765025, 49.2444825 ], [ 18.48770228, 49.24440376 ], [ 18.48813638, 49.24374711 ], [ 18.48817164, 49.24370166 ], [ 18.4883735, 49.2434414 ], [ 18.48864298, 49.24310659 ], [ 18.48871071, 49.24302248 ], [ 18.48898355, 49.24279252 ], [ 18.48942737, 49.24241856 ], [ 18.48993785, 49.24206113 ], [ 18.49001454, 49.24200737 ], [ 18.49005688, 49.24197782 ], [ 18.49020352, 49.24175615 ], [ 18.49052302, 49.24137885 ], [ 18.49062725, 49.24125576 ], [ 18.49080488, 49.24098317 ], [ 18.49081445, 49.24096863 ], [ 18.49098195, 49.24071173 ], [ 18.49099736, 49.24068802 ], [ 18.49102202, 49.24065011 ], [ 18.49098099, 49.24054005 ], [ 18.49085477, 49.24020104 ], [ 18.49083545, 49.2401491 ], [ 18.49073957, 49.23989132 ], [ 18.49073062, 49.23986738 ], [ 18.49070462, 49.23973991 ], [ 18.49063202, 49.23937259 ], [ 18.49059184, 49.23917108 ], [ 18.49005805, 49.23820272 ], [ 18.49008621, 49.2377798 ], [ 18.49008718, 49.23776451 ], [ 18.49005004, 49.23748268 ], [ 18.48983313, 49.23700699 ], [ 18.48971431, 49.23685633 ], [ 18.48966512, 49.23669665 ], [ 18.48951925, 49.2365919 ], [ 18.4894802, 49.23648799 ], [ 18.48913451, 49.2358371 ], [ 18.48888831, 49.23557827 ], [ 18.48883657, 49.23461763 ], [ 18.48868125, 49.23460376 ], [ 18.48864327, 49.23368132 ], [ 18.488588, 49.2334447 ], [ 18.48856526, 49.233347 ], [ 18.48855358, 49.23329683 ], [ 18.4882948, 49.23218704 ], [ 18.48736535, 49.2299889 ], [ 18.48732404, 49.22955444 ], [ 18.48735201, 49.22882372 ], [ 18.48761848, 49.22812448 ], [ 18.4889497, 49.22731309 ], [ 18.48976586, 49.22668978 ], [ 18.48802097, 49.22676356 ], [ 18.48740333, 49.22666037 ], [ 18.48673549, 49.226334 ], [ 18.48619659, 49.22595356 ], [ 18.48557945, 49.22536683 ], [ 18.48525544, 49.22496714 ], [ 18.48461334, 49.22435152 ], [ 18.48390595, 49.22401576 ], [ 18.48304744, 49.22371589 ], [ 18.48265591, 49.22349244 ], [ 18.48224416, 49.22321771 ], [ 18.48131595, 49.22286151 ], [ 18.48079867, 49.22259339 ], [ 18.48023285, 49.22253179 ], [ 18.47995847, 49.22251088 ], [ 18.47979664, 49.22251812 ], [ 18.47966342, 49.22254307 ], [ 18.47953974, 49.22256015 ], [ 18.47940649, 49.22257129 ], [ 18.47933289, 49.22257694 ], [ 18.47924708, 49.22258228 ], [ 18.47916135, 49.22259015 ], [ 18.47908156, 49.22260339 ], [ 18.47900113, 49.22260641 ], [ 18.47893306, 49.22260766 ], [ 18.4788601, 49.22262344 ], [ 18.47873089, 49.2224575 ], [ 18.47862819, 49.2223669 ], [ 18.47837735, 49.2221455 ], [ 18.47784623, 49.22199085 ], [ 18.47730565, 49.22199088 ], [ 18.47695739, 49.22195619 ], [ 18.47692944, 49.2219636 ], [ 18.4768456, 49.22196643 ], [ 18.47682402, 49.22196173 ], [ 18.47679539, 49.22195611 ], [ 18.47683033, 49.22167143 ], [ 18.47680145, 49.22166562 ], [ 18.47640211, 49.22144424 ], [ 18.47638149, 49.2214331 ], [ 18.47642544, 49.22138966 ], [ 18.47654168, 49.22136604 ], [ 18.47682121, 49.22119792 ], [ 18.47682898, 49.2211932 ], [ 18.47691122, 49.2211477 ], [ 18.47692558, 49.22105852 ], [ 18.47693119, 49.22105449 ], [ 18.47702653, 49.22098615 ], [ 18.47694759, 49.22094494 ], [ 18.47689549, 49.22088011 ], [ 18.47677322, 49.22089374 ], [ 18.47665305, 49.22090713 ], [ 18.47667735, 49.22082643 ], [ 18.47664083, 49.22072031 ], [ 18.47658214, 49.22063689 ], [ 18.47653202, 49.22058688 ], [ 18.4764413, 49.22049639 ], [ 18.47638274, 49.2204423 ], [ 18.47634639, 49.22042047 ], [ 18.47625502, 49.22036549 ], [ 18.47635574, 49.22023744 ], [ 18.4763612, 49.22023025 ], [ 18.47638901, 49.22019251 ], [ 18.47639447, 49.22018532 ], [ 18.47661274, 49.2198629 ], [ 18.47715543, 49.21914148 ], [ 18.47704965, 49.21910665 ], [ 18.47703841, 49.21910297 ], [ 18.47702082, 49.21909723 ], [ 18.47699305, 49.21908814 ], [ 18.47693824, 49.21906954 ], [ 18.47689516, 49.21905843 ], [ 18.47646447, 49.21895491 ], [ 18.47549695, 49.2187214 ], [ 18.47539893, 49.21860389 ], [ 18.47534066, 49.21853998 ], [ 18.47529162, 49.2185226 ], [ 18.47494221, 49.21839851 ], [ 18.47494021, 49.21839804 ], [ 18.47471201, 49.21833903 ], [ 18.47419778, 49.21819818 ], [ 18.47394948, 49.21809359 ], [ 18.47391509, 49.21807917 ], [ 18.47364668, 49.21794208 ], [ 18.47327114, 49.21784588 ], [ 18.4729622, 49.21779356 ], [ 18.47266652, 49.21777788 ], [ 18.47235336, 49.21776738 ], [ 18.47204766, 49.2178153 ], [ 18.4714914, 49.21784685 ], [ 18.47111233, 49.21784447 ], [ 18.47088095, 49.21783545 ], [ 18.47055292, 49.21782495 ], [ 18.47036449, 49.21781078 ], [ 18.46989984, 49.2177708 ], [ 18.46964309, 49.21767647 ], [ 18.46909273, 49.21729351 ], [ 18.4690728, 49.21727582 ], [ 18.46878126, 49.21701645 ], [ 18.46840976, 49.21690593 ], [ 18.46821986, 49.21671067 ], [ 18.46763876, 49.21648285 ], [ 18.46749889, 49.21631225 ], [ 18.46707387, 49.21616992 ], [ 18.4666236, 49.2161188 ], [ 18.46540104, 49.21575234 ], [ 18.46490588, 49.2156254 ], [ 18.4645969, 49.21551521 ], [ 18.46406107, 49.21545345 ], [ 18.46383343, 49.21548766 ], [ 18.46364476, 49.21549052 ], [ 18.46348771, 49.21538467 ], [ 18.46334067, 49.21522187 ], [ 18.46253082, 49.21511616 ], [ 18.46197273, 49.21494705 ], [ 18.46156586, 49.21487437 ], [ 18.461493, 49.21486127 ], [ 18.46127455, 49.21482226 ], [ 18.46058562, 49.2146995 ], [ 18.46049979, 49.21466936 ], [ 18.46033156, 49.21461026 ], [ 18.46015053, 49.21454667 ], [ 18.45889777, 49.21434651 ], [ 18.45829298, 49.2142499 ], [ 18.45726048, 49.21414271 ], [ 18.45697781, 49.2141277 ], [ 18.45622322, 49.21412684 ], [ 18.45573819, 49.21406123 ], [ 18.45534595, 49.21405105 ], [ 18.45498702, 49.2140767 ], [ 18.45417709, 49.21402046 ], [ 18.4534623, 49.21394732 ], [ 18.45267023, 49.21389151 ], [ 18.45225529, 49.21383143 ], [ 18.45150985, 49.2137815 ], [ 18.4508206, 49.2136075 ], [ 18.45039222, 49.21342613 ], [ 18.45032902, 49.21340868 ], [ 18.44995596, 49.2133055 ], [ 18.44985471, 49.21327749 ], [ 18.44974095, 49.21324608 ], [ 18.44947166, 49.21317159 ], [ 18.44950404, 49.21303449 ], [ 18.44937045, 49.21295552 ], [ 18.44904704, 49.21276437 ], [ 18.44859443, 49.2124492 ], [ 18.44810592, 49.21262249 ], [ 18.4470989, 49.21240344 ], [ 18.44702213, 49.21239193 ], [ 18.44664653, 49.2123357 ], [ 18.44650392, 49.2126467 ], [ 18.44648138, 49.212696 ], [ 18.44647184, 49.21271677 ], [ 18.44656562, 49.21278165 ], [ 18.44655435, 49.21315145 ], [ 18.44656922, 49.21333924 ], [ 18.44661998, 49.21351456 ], [ 18.4468361, 49.21379179 ], [ 18.44695595, 49.21389635 ], [ 18.44712898, 49.21403109 ], [ 18.44730614, 49.21414204 ], [ 18.44744069, 49.21427394 ], [ 18.44766179, 49.21458988 ], [ 18.44766434, 49.21459372 ], [ 18.4476865, 49.21462616 ], [ 18.44770679, 49.21465606 ], [ 18.44775143, 49.21472185 ], [ 18.44780734, 49.21480396 ], [ 18.44796616, 49.21499494 ], [ 18.44811631, 49.21511903 ], [ 18.4489251, 49.21555235 ], [ 18.44979553, 49.21605969 ], [ 18.45064961, 49.21666837 ], [ 18.45042843, 49.21709761 ], [ 18.45032077, 49.21730865 ], [ 18.45023444, 49.21756633 ], [ 18.45024814, 49.21762411 ], [ 18.45029592, 49.2177009 ], [ 18.45036225, 49.21774893 ], [ 18.45052314, 49.21786882 ], [ 18.45064324, 49.2179586 ], [ 18.45075361, 49.21803178 ], [ 18.45066219, 49.21807893 ], [ 18.45079173, 49.2182156 ], [ 18.4505355, 49.21839378 ], [ 18.45048742, 49.21842724 ], [ 18.45024568, 49.21859547 ], [ 18.44996177, 49.21879288 ], [ 18.44937362, 49.21940533 ], [ 18.44907389, 49.21970835 ], [ 18.44904606, 49.21973859 ], [ 18.44877978, 49.21992948 ], [ 18.4482364, 49.21996875 ], [ 18.44815603, 49.21997454 ], [ 18.44802438, 49.22000541 ], [ 18.44797205, 49.22001608 ], [ 18.44782793, 49.22005186 ], [ 18.44743335, 49.2200898 ], [ 18.44701785, 49.22015682 ], [ 18.4467609, 49.22032421 ], [ 18.44646843, 49.22070605 ], [ 18.44634787, 49.22090581 ], [ 18.44615384, 49.22106483 ], [ 18.44579317, 49.22119856 ], [ 18.44561121, 49.2212976 ], [ 18.44544113, 49.22141362 ], [ 18.44524176, 49.22157126 ], [ 18.44509474, 49.22168683 ], [ 18.44508755, 49.22169248 ], [ 18.44495901, 49.22184019 ], [ 18.44493307, 49.22188262 ], [ 18.44477229, 49.22213397 ], [ 18.44428487, 49.22268821 ], [ 18.44309516, 49.223685 ], [ 18.44306136, 49.22371338 ], [ 18.44270482, 49.22402275 ], [ 18.44266834, 49.22405486 ], [ 18.44260977, 49.22410345 ], [ 18.44175149, 49.22504847 ], [ 18.44163695, 49.22526445 ], [ 18.44140863, 49.22560629 ], [ 18.44117869, 49.22592748 ], [ 18.44118888, 49.22645674 ], [ 18.44118933, 49.22648338 ], [ 18.44119979, 49.22652339 ], [ 18.4412868, 49.22685482 ], [ 18.44121427, 49.22702988 ], [ 18.44096686, 49.22744991 ], [ 18.44116186, 49.22812331 ], [ 18.4416314, 49.22862912 ], [ 18.44214555, 49.22897683 ], [ 18.44217776, 49.22899863 ], [ 18.44221188, 49.22902171 ], [ 18.44240413, 49.22935241 ], [ 18.44227896, 49.23023791 ], [ 18.44209568, 49.23059062 ], [ 18.44223426, 49.23082056 ], [ 18.44212296, 49.23119003 ], [ 18.44210288, 49.23124145 ], [ 18.44209692, 49.23127298 ], [ 18.44216997, 49.23154129 ], [ 18.44212269, 49.23164166 ], [ 18.44195679, 49.23187991 ], [ 18.44181843, 49.23209774 ], [ 18.44167646, 49.2323816 ], [ 18.44164959, 49.23243545 ], [ 18.44161741, 49.23249964 ], [ 18.44123851, 49.23287763 ], [ 18.44115252, 49.23305556 ], [ 18.4408153, 49.23344269 ], [ 18.44059921, 49.2337511 ], [ 18.43988124, 49.23483005 ], [ 18.43970469, 49.23509641 ], [ 18.43963383, 49.23551692 ], [ 18.43959142, 49.23580976 ], [ 18.43942962, 49.23602648 ], [ 18.43939851, 49.23612638 ], [ 18.43935423, 49.23627222 ], [ 18.43923429, 49.23639224 ], [ 18.43920292, 49.23642418 ], [ 18.43906332, 49.23660088 ], [ 18.43896351, 49.23675631 ], [ 18.43891976, 49.23687753 ], [ 18.4387505, 49.23711045 ], [ 18.4385688, 49.23732536 ], [ 18.43819423, 49.23766586 ], [ 18.43803378, 49.23786325 ], [ 18.4379238, 49.23811864 ], [ 18.43775757, 49.23850459 ], [ 18.43773936, 49.23854672 ], [ 18.43737137, 49.23894551 ], [ 18.43733585, 49.23898399 ], [ 18.43685295, 49.23950742 ], [ 18.43664547, 49.23972551 ], [ 18.43656757, 49.23980227 ], [ 18.43603077, 49.24038491 ], [ 18.43575512, 49.24053574 ], [ 18.43568191, 49.24064262 ], [ 18.43555136, 49.24100688 ], [ 18.43537947, 49.2412494 ], [ 18.4353385, 49.24135733 ], [ 18.43532625, 49.24147135 ], [ 18.43553923, 49.24180817 ], [ 18.43525442, 49.24186248 ], [ 18.43504853, 49.24195928 ], [ 18.43475195, 49.24232418 ], [ 18.43466136, 49.24245258 ], [ 18.43450106, 49.24266045 ], [ 18.43412007, 49.24294825 ], [ 18.43344796, 49.24346336 ], [ 18.43322827, 49.24369693 ], [ 18.43264889, 49.24415612 ], [ 18.4324968, 49.24426102 ], [ 18.43234983, 49.24439156 ], [ 18.43198934, 49.244659 ], [ 18.43191117, 49.24474631 ], [ 18.4318783, 49.24487814 ], [ 18.43184584, 49.24491101 ], [ 18.43154274, 49.24515535 ], [ 18.43118016, 49.24544758 ], [ 18.43089816, 49.24565418 ], [ 18.43008874, 49.24581702 ], [ 18.42927903, 49.24606818 ], [ 18.42899976, 49.24624578 ], [ 18.42856805, 49.24619743 ], [ 18.42824244, 49.24650216 ], [ 18.42799842, 49.24679295 ], [ 18.42782657, 49.24707769 ], [ 18.42750672, 49.24750085 ], [ 18.42714222, 49.24801857 ], [ 18.42888908, 49.24987227 ], [ 18.42917706, 49.25006793 ], [ 18.42939286, 49.25028155 ], [ 18.42961969, 49.25071569 ], [ 18.4297519, 49.25111793 ], [ 18.42987255, 49.25142333 ], [ 18.42985044, 49.25164537 ], [ 18.42998639, 49.25230689 ], [ 18.43048294, 49.2530612 ], [ 18.43057744, 49.25325977 ], [ 18.430926, 49.2538447 ], [ 18.43081009, 49.25414578 ], [ 18.4303391, 49.25499317 ], [ 18.42986367, 49.25552853 ], [ 18.42955909, 49.25593666 ], [ 18.42919559, 49.25624932 ], [ 18.42900361, 49.25668023 ], [ 18.42871408, 49.2570687 ], [ 18.42821529, 49.25753004 ], [ 18.4276833, 49.2580632 ], [ 18.42719398, 49.25832789 ], [ 18.42662994, 49.2585624 ], [ 18.42612318, 49.25889101 ], [ 18.4260356, 49.25901173 ], [ 18.42592337, 49.25923107 ], [ 18.42580822, 49.2594119 ], [ 18.42556935, 49.25970496 ], [ 18.42533596, 49.26012511 ], [ 18.42507232, 49.26051661 ], [ 18.42490653, 49.26094932 ], [ 18.42439085, 49.2615246 ], [ 18.42417206, 49.26176416 ], [ 18.42397896, 49.26214303 ], [ 18.42251162, 49.26318994 ], [ 18.42212454, 49.26391342 ], [ 18.42208955, 49.26397872 ], [ 18.42196517, 49.26443761 ], [ 18.42195511, 49.26456547 ], [ 18.4216777, 49.26462224 ], [ 18.42131249, 49.26471208 ], [ 18.42076138, 49.26495359 ], [ 18.42051394, 49.26507336 ], [ 18.42008394, 49.26530158 ], [ 18.4197489, 49.26558059 ], [ 18.41946388, 49.26579332 ], [ 18.41862639, 49.2663416 ], [ 18.41815508, 49.26693436 ], [ 18.41725315, 49.26691148 ], [ 18.4160077, 49.26699287 ], [ 18.41532329, 49.26708228 ], [ 18.4149819, 49.26708191 ], [ 18.41486422, 49.2676545 ], [ 18.41461293, 49.26809278 ], [ 18.41456986, 49.26828091 ], [ 18.41433937, 49.26862062 ], [ 18.41421536, 49.26887738 ], [ 18.41395212, 49.26941283 ], [ 18.41328879, 49.26983366 ], [ 18.4128334, 49.27020629 ], [ 18.41236651, 49.27039898 ], [ 18.41187153, 49.27072323 ], [ 18.41115669, 49.27093944 ], [ 18.4102548, 49.27089422 ], [ 18.41012831, 49.27115617 ], [ 18.40987404, 49.27168254 ], [ 18.40963748, 49.27188663 ], [ 18.4096398, 49.27220865 ], [ 18.40964266, 49.2726175 ], [ 18.40948585, 49.27310555 ], [ 18.40938999, 49.27359362 ], [ 18.40914405, 49.27422133 ], [ 18.40897476, 49.27457036 ], [ 18.40876289, 49.27508317 ], [ 18.40870222, 49.27550558 ], [ 18.4085324, 49.27586306 ], [ 18.40834899, 49.27624885 ], [ 18.40809981, 49.27641146 ], [ 18.40727373, 49.2765996 ], [ 18.40655628, 49.27679336 ], [ 18.40616407, 49.27712857 ], [ 18.40584105, 49.27745767 ], [ 18.40566111, 49.27783453 ], [ 18.40551917, 49.27813154 ], [ 18.40507797, 49.2789287 ], [ 18.40477183, 49.2794651 ], [ 18.40437178, 49.28011599 ], [ 18.40435135, 49.28014934 ], [ 18.40420216, 49.28039966 ], [ 18.40404913, 49.28068623 ], [ 18.40366919, 49.28115395 ], [ 18.40333015, 49.28163494 ], [ 18.40309088, 49.28194743 ], [ 18.40288155, 49.28219976 ], [ 18.40269387, 49.28239643 ], [ 18.40130697, 49.28259389 ], [ 18.40060804, 49.28276626 ], [ 18.39976692, 49.28287077 ], [ 18.39902368, 49.28274885 ], [ 18.39832445, 49.28256148 ], [ 18.398252, 49.28271803 ], [ 18.39823972, 49.28327802 ], [ 18.39824005, 49.28331395 ], [ 18.3982426, 49.28358644 ], [ 18.39824266, 49.28359457 ], [ 18.39800245, 49.28451135 ], [ 18.39804778, 49.28471094 ], [ 18.39808007, 49.28519687 ], [ 18.39787346, 49.28543535 ], [ 18.39754516, 49.28587947 ], [ 18.39731684, 49.2862125 ], [ 18.39716099, 49.28655476 ], [ 18.39707804, 49.28703461 ], [ 18.39706618, 49.28710308 ], [ 18.39701952, 49.28726926 ], [ 18.39698011, 49.28740912 ], [ 18.39689649, 49.28774752 ], [ 18.39681906, 49.28821341 ], [ 18.39671731, 49.28849341 ], [ 18.39689481, 49.28900007 ], [ 18.39720433, 49.2895326 ], [ 18.39711831, 49.28987565 ], [ 18.39674019, 49.29021152 ], [ 18.39623715, 49.29065484 ], [ 18.39566024, 49.29102153 ], [ 18.39542539, 49.29111912 ], [ 18.39510216, 49.29145179 ], [ 18.39489389, 49.29173385 ], [ 18.39479576, 49.29186678 ], [ 18.39463184, 49.29226816 ], [ 18.39395982, 49.29319451 ], [ 18.39382861, 49.29337533 ], [ 18.39379405, 49.29342297 ], [ 18.39336237, 49.29419508 ], [ 18.39310295, 49.2945291 ], [ 18.39289728, 49.29493837 ], [ 18.39265349, 49.29537685 ], [ 18.39227174, 49.29581945 ], [ 18.39189188, 49.29617561 ], [ 18.39173917, 49.2963187 ], [ 18.39107838, 49.29648879 ], [ 18.39024438, 49.29643888 ], [ 18.38914737, 49.2965292 ], [ 18.38798173, 49.29667222 ], [ 18.38737804, 49.29673337 ], [ 18.38661609, 49.29684569 ], [ 18.3854008, 49.29696492 ], [ 18.38480395, 49.29718129 ], [ 18.38430082, 49.29739209 ], [ 18.38377872, 49.29754247 ], [ 18.38347014, 49.29763569 ], [ 18.38327293, 49.29786556 ], [ 18.38292897, 49.29828396 ], [ 18.38256081, 49.29864823 ], [ 18.38224528, 49.29905476 ], [ 18.38210555, 49.29932778 ], [ 18.38182588, 49.29973971 ], [ 18.38158988, 49.29984354 ], [ 18.3812226, 49.30009622 ], [ 18.38102446, 49.30027541 ], [ 18.38111118, 49.30039987 ], [ 18.38124868, 49.30058416 ], [ 18.38125479, 49.30107822 ], [ 18.38100192, 49.30140229 ], [ 18.38088897, 49.30157257 ], [ 18.38076881, 49.301741 ], [ 18.38050145, 49.30207672 ], [ 18.37999846, 49.30215992 ], [ 18.37972154, 49.30217881 ], [ 18.3791346, 49.30241393 ], [ 18.37858578, 49.3026359 ], [ 18.37809275, 49.30282875 ], [ 18.37752787, 49.30303187 ], [ 18.3772894, 49.30321009 ], [ 18.37710334, 49.30337577 ], [ 18.37700161, 49.30366082 ], [ 18.37658875, 49.30414705 ], [ 18.37646605, 49.30452064 ], [ 18.37662156, 49.30496358 ], [ 18.37672104, 49.30517827 ], [ 18.37665462, 49.30558619 ], [ 18.37639292, 49.30617436 ], [ 18.37612969, 49.30660037 ], [ 18.37581169, 49.30704546 ], [ 18.37536591, 49.30767814 ], [ 18.37525361, 49.30810979 ], [ 18.37505113, 49.30893668 ], [ 18.37489539, 49.30931042 ], [ 18.37471084, 49.30976822 ], [ 18.37449178, 49.31052145 ], [ 18.3746165, 49.31081307 ], [ 18.37462709, 49.31083784 ], [ 18.37498996, 49.311352 ], [ 18.37512469, 49.31192898 ], [ 18.37518369, 49.31241703 ], [ 18.37544051, 49.31289427 ], [ 18.37577221, 49.31338278 ], [ 18.37581139, 49.31344054 ], [ 18.37592779, 49.31379658 ], [ 18.37592262, 49.31410538 ], [ 18.37599792, 49.314762 ], [ 18.37593045, 49.31515651 ], [ 18.37595112, 49.31543416 ], [ 18.37576272, 49.31599309 ], [ 18.3753595, 49.31642841 ], [ 18.37523836, 49.31655599 ], [ 18.37490393, 49.31694079 ], [ 18.37449298, 49.31725981 ], [ 18.3741065, 49.31773098 ], [ 18.37383859, 49.31816269 ], [ 18.37367012, 49.31856415 ], [ 18.37340133, 49.31898344 ], [ 18.37388278, 49.31941148 ], [ 18.37478597, 49.32024809 ], [ 18.37535536, 49.32094729 ], [ 18.37600887, 49.32129955 ], [ 18.37647534, 49.32163036 ], [ 18.3767216, 49.3219453 ], [ 18.37745613, 49.32237684 ], [ 18.3778327, 49.32296303 ], [ 18.37795314, 49.32315044 ], [ 18.37808772, 49.32323279 ], [ 18.37844568, 49.32345174 ], [ 18.37845719, 49.32345878 ], [ 18.37848725, 49.32347723 ], [ 18.37851745, 49.32349568 ], [ 18.37889818, 49.32372861 ], [ 18.37934575, 49.32386317 ], [ 18.37944563, 49.32388187 ], [ 18.3794854, 49.3238893 ], [ 18.37952503, 49.32389673 ], [ 18.38001851, 49.32398915 ], [ 18.38047991, 49.32407556 ], [ 18.38178229, 49.32348865 ], [ 18.38271087, 49.32327075 ], [ 18.38331004, 49.32332298 ], [ 18.38430806, 49.3231968 ], [ 18.38699187, 49.32331212 ], [ 18.38723683, 49.32352869 ], [ 18.38728589, 49.3235721 ], [ 18.38735025, 49.32358792 ], [ 18.38834701, 49.32383271 ], [ 18.3887609, 49.32393433 ], [ 18.38916407, 49.32403338 ], [ 18.38956699, 49.32413231 ], [ 18.39000952, 49.3242227 ], [ 18.39035603, 49.32429343 ], [ 18.39063548, 49.32449962 ], [ 18.39091757, 49.32470784 ], [ 18.39101151, 49.32487636 ], [ 18.39139005, 49.32555556 ], [ 18.39150107, 49.3262698 ], [ 18.39164, 49.32691872 ], [ 18.39265247, 49.32731522 ], [ 18.39279789, 49.32752033 ], [ 18.39285908, 49.32760672 ], [ 18.39310002, 49.32812969 ], [ 18.39320173, 49.32825198 ], [ 18.39371616, 49.32887043 ], [ 18.39378287, 49.32895054 ], [ 18.39451291, 49.32886978 ], [ 18.39496391, 49.32900519 ], [ 18.39621866, 49.32938207 ], [ 18.39660683, 49.32953151 ], [ 18.39688687, 49.32963935 ], [ 18.39705999, 49.32968345 ], [ 18.39768655, 49.32984296 ], [ 18.39823289, 49.33000147 ], [ 18.39933842, 49.33028752 ], [ 18.39966444, 49.33049499 ], [ 18.39982616, 49.3311308 ], [ 18.39994567, 49.33148147 ], [ 18.40012711, 49.33186794 ], [ 18.40013199, 49.33187832 ], [ 18.40014813, 49.33191269 ], [ 18.40015508, 49.33268336 ], [ 18.40030555, 49.3329353 ], [ 18.40048337, 49.33321717 ], [ 18.40078946, 49.33348949 ], [ 18.40094296, 49.3337887 ], [ 18.40112002, 49.33402297 ], [ 18.40115045, 49.33406326 ], [ 18.40202882, 49.33432874 ], [ 18.40297285, 49.33460766 ], [ 18.40366905, 49.33488322 ], [ 18.40442327, 49.33508472 ], [ 18.40448694, 49.33510176 ], [ 18.40562536, 49.33540589 ], [ 18.40569037, 49.33542327 ], [ 18.40693799, 49.33566435 ], [ 18.40826735, 49.3358971 ], [ 18.40959168, 49.33642528 ], [ 18.41086243, 49.3369494 ], [ 18.41104299, 49.33703784 ], [ 18.41142331, 49.33681988 ] ] ] ] } }
]
}
