{
"type": "FeatureCollection",
"name": "gis",
"crs": { "type": "name", "properties": { "name": "urn:ogc:def:crs:OGC:1.3:CRS84" } },
"features": [
{ "type": "Feature", "properties": { "@featureType": "CadastralParcel", "areaValue": { "value": 4169, "@uom": "m2" }, "beginLifespanVersion": { "@nilReason": "http://inspire.ec.europa.eu/codelist/VoidReasonValue/Unpopulated", "@nil": "true" }, "endLifespanVersion": { "@nilReason": "http://inspire.ec.europa.eu/codelist/VoidReasonValue/Unpopulated", "@nil": "true" }, "inspireId": { "@dataType": "Identifier", "localId": "852635_7213.C", "namespace": "SK.ESKN.CP", "versionId": "20260703T07:07:50" }, "label": "7213", "nationalCadastralReference": "852635_7213.C", "referencePoint": { "type": "Point", "coordinates": [ 20.05225136, 48.33343086 ] }, "validFrom": "2026-06-30T16:00:00Z", "validTo": { "@nilReason": "http://inspire.ec.europa.eu/codelist/VoidReasonValue/Unpopulated", "@nil": "true" }, "administrativeUnit": { "@href": "#auAdmUnitS.418" } }, "geometry": { "type": "Polygon", "coordinates": [ [ [ 20.04761838, 48.33234937 ], [ 20.04723515, 48.3324108 ], [ 20.0472731, 48.33248312 ], [ 20.04764327, 48.33243125 ], [ 20.04827027, 48.3323443 ], [ 20.04845746, 48.33230966 ], [ 20.04888668, 48.33225501 ], [ 20.04918147, 48.33221431 ], [ 20.04935039, 48.33221009 ], [ 20.0497248, 48.33220533 ], [ 20.05020884, 48.33225497 ], [ 20.05058051, 48.33224901 ], [ 20.05063515, 48.33225724 ], [ 20.05072818, 48.33227121 ], [ 20.05079245, 48.33229344 ], [ 20.0508296, 48.3323095 ], [ 20.05097365, 48.33233704 ], [ 20.05101168, 48.33235088 ], [ 20.05118387, 48.3324041 ], [ 20.05125378, 48.33242684 ], [ 20.05138641, 48.33247382 ], [ 20.0514411, 48.33249737 ], [ 20.05159139, 48.33256085 ], [ 20.0516439, 48.33259034 ], [ 20.05170791, 48.33264564 ], [ 20.05186909, 48.33284952 ], [ 20.05210247, 48.3332334 ], [ 20.05235891, 48.33364104 ], [ 20.0525779, 48.33400972 ], [ 20.0528202, 48.33437072 ], [ 20.05300032, 48.33461631 ], [ 20.05304077, 48.33467071 ], [ 20.0531129, 48.33474626 ], [ 20.05317702, 48.33471531 ], [ 20.05316172, 48.33469972 ], [ 20.0531321, 48.33466965 ], [ 20.05310632, 48.33464334 ], [ 20.05304434, 48.33460093 ], [ 20.05285941, 48.33435325 ], [ 20.05263253, 48.33399361 ], [ 20.05261547, 48.3339665 ], [ 20.05240186, 48.33362832 ], [ 20.0521437, 48.33322323 ], [ 20.05203695, 48.33305144 ], [ 20.05190364, 48.33283709 ], [ 20.05175608, 48.33261908 ], [ 20.05165554, 48.33253243 ], [ 20.05163829, 48.33252036 ], [ 20.05148192, 48.33245987 ], [ 20.05141839, 48.33243397 ], [ 20.05138083, 48.33242096 ], [ 20.05136825, 48.33241665 ], [ 20.05118419, 48.33235311 ], [ 20.0508874, 48.33226955 ], [ 20.0507311, 48.33221978 ], [ 20.05069167, 48.33221373 ], [ 20.05064834, 48.3322103 ], [ 20.05056597, 48.33220371 ], [ 20.04962148, 48.33207486 ], [ 20.04934989, 48.33202668 ], [ 20.04915616, 48.33212963 ], [ 20.04886289, 48.33215273 ], [ 20.04842174, 48.33222643 ], [ 20.0482462, 48.33226372 ], [ 20.04761838, 48.33234937 ] ] ] } }
]
}
