{
"type": "FeatureCollection",
"name": "gis",
"crs": { "type": "name", "properties": { "name": "urn:ogc:def:crs:OGC:1.3:CRS84" } },
"features": [
{ "type": "Feature", "properties": { "@featureType": "CadastralParcel", "areaValue": { "value": 3351, "@uom": "m2" }, "beginLifespanVersion": { "@nilReason": "http://inspire.ec.europa.eu/codelist/VoidReasonValue/Unpopulated", "@nil": "true" }, "endLifespanVersion": { "@nilReason": "http://inspire.ec.europa.eu/codelist/VoidReasonValue/Unpopulated", "@nil": "true" }, "inspireId": { "@dataType": "Identifier", "localId": "809713_6745.E", "namespace": "SK.ESKN.CP", "versionId": "20261005T08:10:34" }, "label": "6745", "nationalCadastralReference": "809713_6745.E", "referencePoint": { "type": "Point", "coordinates": [ 19.65863399, 48.75181523 ] }, "validFrom": "2026-09-30T16:00:00Z", "validTo": { "@nilReason": "http://inspire.ec.europa.eu/codelist/VoidReasonValue/Unpopulated", "@nil": "true" }, "administrativeUnit": { "@href": "#auAdmUnitS.969" } }, "geometry": { "type": "Polygon", "coordinates": [ [ [ 19.65924242, 48.752203 ], [ 19.65899666, 48.75190031 ], [ 19.65874908, 48.75173014 ], [ 19.65837692, 48.75155845 ], [ 19.65776566, 48.75133882 ], [ 19.65772555, 48.75143907 ], [ 19.65767811, 48.7515763 ], [ 19.65821752, 48.75171338 ], [ 19.65860586, 48.7519361 ], [ 19.65876102, 48.75212098 ], [ 19.65888057, 48.75229416 ], [ 19.65924242, 48.752203 ] ] ] } },
{ "type": "Feature", "properties": { "@featureType": "CadastralParcel", "areaValue": { "value": 1720, "@uom": "m2" }, "beginLifespanVersion": { "@nilReason": "http://inspire.ec.europa.eu/codelist/VoidReasonValue/Unpopulated", "@nil": "true" }, "endLifespanVersion": { "@nilReason": "http://inspire.ec.europa.eu/codelist/VoidReasonValue/Unpopulated", "@nil": "true" }, "inspireId": { "@dataType": "Identifier", "localId": "809713_6746.E", "namespace": "SK.ESKN.CP", "versionId": "20261005T08:10:34" }, "label": "6746", "nationalCadastralReference": "809713_6746.E", "referencePoint": { "type": "Point", "coordinates": [ 19.65872581, 48.75166046 ] }, "validFrom": "2026-09-30T16:00:00Z", "validTo": { "@nilReason": "http://inspire.ec.europa.eu/codelist/VoidReasonValue/Unpopulated", "@nil": "true" }, "administrativeUnit": { "@href": "#auAdmUnitS.969" } }, "geometry": { "type": "Polygon", "coordinates": [ [ [ 19.65935457, 48.75218071 ], [ 19.65922919, 48.75196994 ], [ 19.65909917, 48.7518071 ], [ 19.65873689, 48.75159078 ], [ 19.65803679, 48.75132022 ], [ 19.65784209, 48.75122867 ], [ 19.65776566, 48.75133882 ], [ 19.65837692, 48.75155845 ], [ 19.65874908, 48.75173014 ], [ 19.65899666, 48.75190031 ], [ 19.65924242, 48.752203 ], [ 19.65935457, 48.75218071 ] ] ] } }
]
}
