{
"type": "FeatureCollection",
"name": "gis",
"crs": { "type": "name", "properties": { "name": "urn:ogc:def:crs:OGC:1.3:CRS84" } },
"features": [
{ "type": "Feature", "properties": { "@featureType": "CadastralParcel", "areaValue": { "value": 30855, "@uom": "m2" }, "beginLifespanVersion": { "@nilReason": "http://inspire.ec.europa.eu/codelist/VoidReasonValue/Unpopulated", "@nil": "true" }, "endLifespanVersion": { "@nilReason": "http://inspire.ec.europa.eu/codelist/VoidReasonValue/Unpopulated", "@nil": "true" }, "inspireId": { "@dataType": "Identifier", "localId": "859095_1922/1.C", "namespace": "SK.ESKN.CP", "versionId": "20260703T06:07:45" }, "label": "1922/1", "nationalCadastralReference": "859095_1922/1.C", "referencePoint": { "type": "Point", "coordinates": [ 18.31448601, 49.0987173 ] }, "validFrom": "2026-06-30T16:00:00Z", "validTo": { "@nilReason": "http://inspire.ec.europa.eu/codelist/VoidReasonValue/Unpopulated", "@nil": "true" }, "administrativeUnit": { "@href": "#auAdmUnitS.1345" } }, "geometry": { "type": "Polygon", "coordinates": [ [ [ 18.31512505, 49.09887181 ], [ 18.31525943, 49.09873792 ], [ 18.31536123, 49.09862097 ], [ 18.31545267, 49.09849911 ], [ 18.31564832, 49.09823228 ], [ 18.31574294, 49.09798235 ], [ 18.31583379, 49.09759872 ], [ 18.31596998, 49.09703965 ], [ 18.31548487, 49.09686271 ], [ 18.31542134, 49.09711665 ], [ 18.31533818, 49.09731009 ], [ 18.31521728, 49.09750738 ], [ 18.31511153, 49.09766102 ], [ 18.31494769, 49.09785129 ], [ 18.31471771, 49.09807775 ], [ 18.31468624, 49.0980999 ], [ 18.31464509, 49.09813839 ], [ 18.31455233, 49.09821117 ], [ 18.31441779, 49.09831139 ], [ 18.31427276, 49.09841093 ], [ 18.31425409, 49.09842134 ], [ 18.31373529, 49.09869667 ], [ 18.31320317, 49.09896665 ], [ 18.31306969, 49.09903435 ], [ 18.31301334, 49.09906286 ], [ 18.31299759, 49.09907092 ], [ 18.31310984, 49.09916846 ], [ 18.31310394, 49.09917156 ], [ 18.31305041, 49.09919951 ], [ 18.31304464, 49.09920262 ], [ 18.31294739, 49.09912189 ], [ 18.31292714, 49.09913068 ], [ 18.31290916, 49.09911569 ], [ 18.31284603, 49.0991477 ], [ 18.31282316, 49.09912593 ], [ 18.31275095, 49.09916114 ], [ 18.31267787, 49.09919676 ], [ 18.31264385, 49.09922373 ], [ 18.31254183, 49.09921449 ], [ 18.3125054, 49.09937508 ], [ 18.31250026, 49.09940611 ], [ 18.31248892, 49.09947217 ], [ 18.31247635, 49.09954024 ], [ 18.31247368, 49.09955237 ], [ 18.31246087, 49.09962123 ], [ 18.31245882, 49.09963276 ], [ 18.31244529, 49.09970186 ], [ 18.31244247, 49.09971614 ], [ 18.31243042, 49.09978126 ], [ 18.3124278, 49.0997951 ], [ 18.31241464, 49.09986242 ], [ 18.31241245, 49.09987502 ], [ 18.3123996, 49.09994316 ], [ 18.31239758, 49.09995343 ], [ 18.31238468, 49.10002085 ], [ 18.31238201, 49.10003297 ], [ 18.31236906, 49.10010183 ], [ 18.31236643, 49.10011568 ], [ 18.31235065, 49.10019999 ], [ 18.31234547, 49.10022605 ], [ 18.31237327, 49.10054486 ], [ 18.31253252, 49.10035722 ], [ 18.31261898, 49.10027163 ], [ 18.312683, 49.10022224 ], [ 18.31283396, 49.100129 ], [ 18.31309669, 49.09999328 ], [ 18.31311288, 49.09998498 ], [ 18.31309089, 49.09995965 ], [ 18.31309318, 49.09994308 ], [ 18.31315967, 49.09990954 ], [ 18.31318652, 49.09989967 ], [ 18.31321382, 49.09990959 ], [ 18.31322431, 49.09990188 ], [ 18.31339863, 49.09991743 ], [ 18.31339674, 49.09993096 ], [ 18.3134883, 49.09987797 ], [ 18.31395512, 49.09962617 ], [ 18.31435815, 49.09941032 ], [ 18.31454277, 49.09930442 ], [ 18.31466497, 49.09922409 ], [ 18.31482011, 49.09911338 ], [ 18.31500944, 49.09897237 ], [ 18.31512505, 49.09887181 ] ] ] } },
{ "type": "Feature", "properties": { "@featureType": "CadastralParcel", "areaValue": { "value": 6436, "@uom": "m2" }, "beginLifespanVersion": { "@nilReason": "http://inspire.ec.europa.eu/codelist/VoidReasonValue/Unpopulated", "@nil": "true" }, "endLifespanVersion": { "@nilReason": "http://inspire.ec.europa.eu/codelist/VoidReasonValue/Unpopulated", "@nil": "true" }, "inspireId": { "@dataType": "Identifier", "localId": "859095_1864/27.C", "namespace": "SK.ESKN.CP", "versionId": "20260703T06:07:45" }, "label": "1864/27", "nationalCadastralReference": "859095_1864/27.C", "referencePoint": { "type": "Point", "coordinates": [ 18.31378709, 49.10011228 ] }, "validFrom": "2026-06-30T16:00:00Z", "validTo": { "@nilReason": "http://inspire.ec.europa.eu/codelist/VoidReasonValue/Unpopulated", "@nil": "true" }, "administrativeUnit": { "@href": "#auAdmUnitS.1345" } }, "geometry": { "type": "Polygon", "coordinates": [ [ [ 18.31245712, 49.10122936 ], [ 18.31246203, 49.10122648 ], [ 18.31253614, 49.10118199 ], [ 18.31255685, 49.10116961 ], [ 18.31255999, 49.10116771 ], [ 18.31257299, 49.10116077 ], [ 18.31258248, 49.10113007 ], [ 18.31258486, 49.10112235 ], [ 18.31259002, 49.10111858 ], [ 18.31263411, 49.10108612 ], [ 18.31274751, 49.10100259 ], [ 18.3129642, 49.10084363 ], [ 18.31307452, 49.10076272 ], [ 18.31307648, 49.1007603 ], [ 18.31315928, 49.10071133 ], [ 18.3132057, 49.10066303 ], [ 18.31322505, 49.10064742 ], [ 18.31340288, 49.1004944 ], [ 18.31378561, 49.100234 ], [ 18.31409858, 49.10005859 ], [ 18.31432545, 49.09994387 ], [ 18.31480418, 49.0997347 ], [ 18.31527183, 49.09953349 ], [ 18.31594298, 49.09922914 ], [ 18.31606169, 49.09916928 ], [ 18.31607903, 49.0991596 ], [ 18.31614153, 49.09912502 ], [ 18.31614586, 49.09912238 ], [ 18.31618547, 49.09909888 ], [ 18.31611641, 49.09907082 ], [ 18.31606512, 49.09904989 ], [ 18.31599083, 49.09901973 ], [ 18.315939, 49.09899868 ], [ 18.31592414, 49.09900724 ], [ 18.3158951, 49.0990224 ], [ 18.3158242, 49.09905921 ], [ 18.3158096, 49.09906679 ], [ 18.31574812, 49.09909881 ], [ 18.31551895, 49.09920699 ], [ 18.31543812, 49.09924515 ], [ 18.31526831, 49.09932173 ], [ 18.31515589, 49.09937238 ], [ 18.31511174, 49.09939157 ], [ 18.31491115, 49.09947869 ], [ 18.31481136, 49.09952202 ], [ 18.31463857, 49.09960141 ], [ 18.31450759, 49.09966157 ], [ 18.31414298, 49.09982082 ], [ 18.31366438, 49.10005436 ], [ 18.31348519, 49.10016598 ], [ 18.31329584, 49.10029344 ], [ 18.31297561, 49.10057422 ], [ 18.31283748, 49.10071359 ], [ 18.31274879, 49.1008153 ], [ 18.31262407, 49.10098258 ], [ 18.31255512, 49.10108467 ], [ 18.31255037, 49.10109163 ], [ 18.31246305, 49.10122076 ], [ 18.31245712, 49.10122936 ] ] ] } },
{ "type": "Feature", "properties": { "@featureType": "CadastralParcel", "areaValue": { "value": 639, "@uom": "m2" }, "beginLifespanVersion": { "@nilReason": "http://inspire.ec.europa.eu/codelist/VoidReasonValue/Unpopulated", "@nil": "true" }, "endLifespanVersion": { "@nilReason": "http://inspire.ec.europa.eu/codelist/VoidReasonValue/Unpopulated", "@nil": "true" }, "inspireId": { "@dataType": "Identifier", "localId": "859095_1864/28.C", "namespace": "SK.ESKN.CP", "versionId": "20260703T06:07:45" }, "label": "1864/28", "nationalCadastralReference": "859095_1864/28.C", "referencePoint": { "type": "Point", "coordinates": [ 18.31279393, 49.10065758 ] }, "validFrom": "2026-06-30T16:00:00Z", "validTo": { "@nilReason": "http://inspire.ec.europa.eu/codelist/VoidReasonValue/Unpopulated", "@nil": "true" }, "administrativeUnit": { "@href": "#auAdmUnitS.1345" } }, "geometry": { "type": "Polygon", "coordinates": [ [ [ 18.31270993, 49.10060156 ], [ 18.31267774, 49.10072115 ], [ 18.31265296, 49.10083447 ], [ 18.31262407, 49.10098258 ], [ 18.31274879, 49.1008153 ], [ 18.31283748, 49.10071359 ], [ 18.31297561, 49.10057422 ], [ 18.31329584, 49.10029344 ], [ 18.31311066, 49.10039091 ], [ 18.31307377, 49.10041032 ], [ 18.31294731, 49.10047688 ], [ 18.31270993, 49.10060156 ] ] ] } }
]
}
