{
"type": "FeatureCollection",
"name": "gis",
"crs": { "type": "name", "properties": { "name": "urn:ogc:def:crs:OGC:1.3:CRS84" } },
"features": [
{ "type": "Feature", "properties": { "@featureType": "CadastralZoning", "beginLifespanVersion": { "@nilReason": "http://inspire.ec.europa.eu/codelist/VoidReasonValue/Unpopulated", "@nil": "true" }, "endLifespanVersion": { "@nilReason": "http://inspire.ec.europa.eu/codelist/VoidReasonValue/Unpopulated", "@nil": "true" }, "estimatedAccuracy": { "value": -1, "@uom": "m" }, "inspireId": { "@dataType": "Identifier", "localId": "864404", "namespace": "SK.ESKN.CP", "versionId": "20260703T04:07:40" }, "label": "Trenčianske Bohuslavice", "level": { "@href": "http://inspire.ec.europa.eu/codelist/CadastralZoningLevelValue/3rdOrder" }, "levelName": { "value": "Katastrálne územie", "@locale": "sk" }, "name": { "@dataType": "name", "GeographicalName": { "@dataType": "GeographicalName", "language": "SLK", "nativeness": { "@href": "http://inspire.ec.europa.eu/codelist/NativenessValue/endonym", "@title": "endonym" }, "nameStatus": { "@href": "http://inspire.ec.europa.eu/codelist/NameStatusValue/official", "@title": "official" }, "sourceOfName": { "@nilReason": "http://inspire.ec.europa.eu/codelist/VoidReasonValue/Unpopulated", "@nil": "true" }, "pronunciation": { "@dataType": "pronunciation", "@nilReason": "http://inspire.ec.europa.eu/codelist/VoidReasonValue/Unpopulated", "@nil": "true" }, "spelling": { "@dataType": "SpellingOfName", "text": "Trenčianske Bohuslavice", "script": "LATN" } } }, "nationalCadastalZoningReference": "864404", "validFrom": "2026-06-30T16:00:00Z", "validTo": { "@nilReason": "http://inspire.ec.europa.eu/codelist/VoidReasonValue/Unpopulated", "@nil": "true" } }, "geometry": { "type": "MultiPolygon", "coordinates": [ [ [ [ 17.86027199, 48.81109323 ], [ 17.86085085, 48.8107805 ], [ 17.86131572, 48.81068873 ], [ 17.86180556, 48.81063386 ], [ 17.86225248, 48.8106333 ], [ 17.86267268, 48.81056095 ], [ 17.86323629, 48.81053916 ], [ 17.86321166, 48.8104592 ], [ 17.86427894, 48.81011651 ], [ 17.86437062, 48.81008926 ], [ 17.86493432, 48.80982364 ], [ 17.86526607, 48.80964535 ], [ 17.86548001, 48.8095339 ], [ 17.86616562, 48.81000206 ], [ 17.86665664, 48.81036176 ], [ 17.86684104, 48.81061716 ], [ 17.8668686, 48.81005007 ], [ 17.86696556, 48.80980767 ], [ 17.86703241, 48.80967326 ], [ 17.86737239, 48.80944633 ], [ 17.86757933, 48.80934295 ], [ 17.86776579, 48.80917214 ], [ 17.86783834, 48.80900836 ], [ 17.86798796, 48.80889132 ], [ 17.8681963, 48.80877782 ], [ 17.86840482, 48.80861059 ], [ 17.8688801, 48.80845016 ], [ 17.86889846, 48.80844395 ], [ 17.8691157, 48.808355 ], [ 17.86943611, 48.80820916 ], [ 17.86978544, 48.8080469 ], [ 17.87028154, 48.80790885 ], [ 17.87034601, 48.80789151 ], [ 17.87042568, 48.80787004 ], [ 17.87049653, 48.80785101 ], [ 17.8711561, 48.80767377 ], [ 17.87121391, 48.80765116 ], [ 17.87104966, 48.80734776 ], [ 17.87104345, 48.80733637 ], [ 17.87103038, 48.80731219 ], [ 17.87089724, 48.80706864 ], [ 17.87087609, 48.80703666 ], [ 17.87077511, 48.80684734 ], [ 17.87075729, 48.80681403 ], [ 17.87075479, 48.80680936 ], [ 17.87060528, 48.80603933 ], [ 17.87060482, 48.80603768 ], [ 17.87059758, 48.80601494 ], [ 17.87059713, 48.8060122 ], [ 17.8705573, 48.80579496 ], [ 17.870545, 48.80572766 ], [ 17.87051757, 48.8055789 ], [ 17.87054016, 48.80538574 ], [ 17.87055225, 48.80523891 ], [ 17.87064465, 48.80521233 ], [ 17.8710933, 48.80508405 ], [ 17.87110518, 48.8050733 ], [ 17.8711114, 48.80506979 ], [ 17.87115608, 48.80504431 ], [ 17.87116957, 48.80503474 ], [ 17.87145514, 48.80483306 ], [ 17.87145969, 48.80482981 ], [ 17.87170298, 48.80467587 ], [ 17.87191079, 48.80455809 ], [ 17.87210019, 48.80445085 ], [ 17.87210289, 48.80444812 ], [ 17.87223865, 48.80431452 ], [ 17.87248165, 48.80407559 ], [ 17.87270158, 48.80385911 ], [ 17.87290126, 48.80366263 ], [ 17.87290806, 48.80365591 ], [ 17.87309237, 48.80347566 ], [ 17.87326436, 48.80330731 ], [ 17.87343129, 48.80314398 ], [ 17.87358747, 48.80299112 ], [ 17.87365356, 48.80292638 ], [ 17.8737349, 48.80285217 ], [ 17.8750405, 48.80392585 ], [ 17.87642787, 48.80506613 ], [ 17.87669705, 48.8050315 ], [ 17.87695593, 48.80499626 ], [ 17.87722128, 48.80496763 ], [ 17.87742452, 48.80491946 ], [ 17.87746962, 48.80488289 ], [ 17.87769559, 48.80469982 ], [ 17.87784367, 48.80457987 ], [ 17.87809805, 48.80402356 ], [ 17.87838412, 48.80342789 ], [ 17.87848049, 48.80278818 ], [ 17.87858642, 48.80241492 ], [ 17.87858876, 48.80240684 ], [ 17.8785983, 48.80237337 ], [ 17.87860843, 48.80233768 ], [ 17.87866236, 48.8023421 ], [ 17.87872567, 48.80229146 ], [ 17.87816521, 48.8019298 ], [ 17.8778397, 48.80169129 ], [ 17.87731718, 48.80131529 ], [ 17.87689666, 48.80095501 ], [ 17.87683647, 48.80091373 ], [ 17.87685934, 48.80089858 ], [ 17.87688476, 48.80088178 ], [ 17.87690657, 48.80086738 ], [ 17.87691454, 48.80086217 ], [ 17.87705989, 48.79980938 ], [ 17.87707861, 48.7996708 ], [ 17.8771456, 48.79918258 ], [ 17.87719314, 48.7988263 ], [ 17.87719553, 48.79880901 ], [ 17.87720249, 48.79875561 ], [ 17.8772081, 48.79871594 ], [ 17.87727837, 48.79819703 ], [ 17.87730225, 48.79802111 ], [ 17.87731015, 48.79796289 ], [ 17.87730396, 48.79780276 ], [ 17.87729757, 48.7976401 ], [ 17.87729234, 48.79750766 ], [ 17.87623232, 48.79662534 ], [ 17.87621454, 48.79661055 ], [ 17.87513013, 48.79570814 ], [ 17.87500165, 48.79560115 ], [ 17.8747687, 48.7954074 ], [ 17.87466524, 48.79532124 ], [ 17.87441194, 48.79511055 ], [ 17.87426839, 48.794991 ], [ 17.87384574, 48.79510396 ], [ 17.87367044, 48.79498864 ], [ 17.87330773, 48.79474977 ], [ 17.87280894, 48.79442141 ], [ 17.87219254, 48.79401444 ], [ 17.87218553, 48.79400977 ], [ 17.87240758, 48.79360053 ], [ 17.87218112, 48.79356474 ], [ 17.87192939, 48.79352491 ], [ 17.87169131, 48.79348716 ], [ 17.87168489, 48.79348614 ], [ 17.87144933, 48.79344891 ], [ 17.87133604, 48.79343097 ], [ 17.8711992, 48.79340935 ], [ 17.87115459, 48.79338698 ], [ 17.87105999, 48.79333964 ], [ 17.87098341, 48.79330134 ], [ 17.87092293, 48.79327114 ], [ 17.87087065, 48.79324496 ], [ 17.87081938, 48.79321929 ], [ 17.8707702, 48.79319736 ], [ 17.87075726, 48.79317427 ], [ 17.87067869, 48.79303461 ], [ 17.86947733, 48.79089872 ], [ 17.86955374, 48.79077798 ], [ 17.86962248, 48.79066925 ], [ 17.86983476, 48.79033374 ], [ 17.86986554, 48.79033848 ], [ 17.86991603, 48.79034596 ], [ 17.87015365, 48.78969256 ], [ 17.87016224, 48.78966896 ], [ 17.87026807, 48.78937779 ], [ 17.87027137, 48.78936877 ], [ 17.87029078, 48.78933608 ], [ 17.8703038, 48.78931402 ], [ 17.87030744, 48.78930945 ], [ 17.87068947, 48.78883138 ], [ 17.87070929, 48.78880666 ], [ 17.87073858, 48.78877565 ], [ 17.87075666, 48.7887566 ], [ 17.87088633, 48.7886193 ], [ 17.87090952, 48.78859487 ], [ 17.87128487, 48.78819776 ], [ 17.8712925, 48.78816923 ], [ 17.87130178, 48.78813466 ], [ 17.87134336, 48.78797913 ], [ 17.87135132, 48.78794918 ], [ 17.87137527, 48.78785986 ], [ 17.87152768, 48.78729082 ], [ 17.87187489, 48.78599409 ], [ 17.87189023, 48.78595032 ], [ 17.87212092, 48.78528928 ], [ 17.87214106, 48.78523152 ], [ 17.87236557, 48.78458853 ], [ 17.87236922, 48.78457791 ], [ 17.87242954, 48.78440536 ], [ 17.87259155, 48.78391005 ], [ 17.87259543, 48.78389782 ], [ 17.87265317, 48.78371419 ], [ 17.87274198, 48.78343228 ], [ 17.87274512, 48.78342244 ], [ 17.87278851, 48.78328436 ], [ 17.87278994, 48.78327993 ], [ 17.87279581, 48.78326123 ], [ 17.87280453, 48.78323367 ], [ 17.87281121, 48.78321204 ], [ 17.87281379, 48.78320425 ], [ 17.87281969, 48.78318528 ], [ 17.87283019, 48.78315177 ], [ 17.87283631, 48.78313219 ], [ 17.87284504, 48.78310463 ], [ 17.87285429, 48.7830752 ], [ 17.87293312, 48.78282502 ], [ 17.87295777, 48.78248614 ], [ 17.87289777, 48.78215669 ], [ 17.87285052, 48.78201694 ], [ 17.87279588, 48.78185552 ], [ 17.87276346, 48.78179143 ], [ 17.8726274, 48.78152197 ], [ 17.87243079, 48.7812605 ], [ 17.87220302, 48.78101792 ], [ 17.87199701, 48.78083545 ], [ 17.87186771, 48.78072091 ], [ 17.87156559, 48.78051512 ], [ 17.87137671, 48.78037982 ], [ 17.87113083, 48.78020903 ], [ 17.87066253, 48.77988367 ], [ 17.87013363, 48.779543 ], [ 17.86980792, 48.77927654 ], [ 17.86976476, 48.77924873 ], [ 17.86973143, 48.779219 ], [ 17.86920785, 48.77875185 ], [ 17.86886139, 48.77841613 ], [ 17.86852644, 48.7781296 ], [ 17.86851947, 48.77812368 ], [ 17.86820827, 48.77786413 ], [ 17.86786531, 48.77784822 ], [ 17.8675271, 48.77783259 ], [ 17.86730838, 48.77782246 ], [ 17.86727403, 48.77782084 ], [ 17.86726181, 48.77782028 ], [ 17.86720805, 48.77781776 ], [ 17.86711128, 48.77781201 ], [ 17.86706738, 48.77780936 ], [ 17.86695625, 48.77780274 ], [ 17.86691099, 48.77780001 ], [ 17.86667396, 48.77778588 ], [ 17.8666413, 48.77778391 ], [ 17.86637634, 48.77776818 ], [ 17.86629474, 48.77776642 ], [ 17.86592992, 48.77775839 ], [ 17.86564234, 48.77768197 ], [ 17.8651146, 48.77746867 ], [ 17.86431229, 48.77712844 ], [ 17.86402666, 48.77757555 ], [ 17.86379474, 48.77793858 ], [ 17.86300684, 48.77917202 ], [ 17.86274159, 48.77941527 ], [ 17.86247945, 48.77965573 ], [ 17.86243359, 48.77969784 ], [ 17.86231684, 48.77980494 ], [ 17.8622965, 48.77982358 ], [ 17.86228288, 48.77983612 ], [ 17.86224922, 48.77986705 ], [ 17.86217392, 48.77993628 ], [ 17.86211492, 48.77999043 ], [ 17.86209238, 48.7800111 ], [ 17.86168158, 48.78038779 ], [ 17.86165779, 48.78040966 ], [ 17.86154572, 48.78051252 ], [ 17.86153806, 48.78051946 ], [ 17.86152366, 48.78053268 ], [ 17.86147828, 48.78057428 ], [ 17.86145636, 48.78059445 ], [ 17.86139642, 48.78064944 ], [ 17.86136089, 48.78068206 ], [ 17.86133427, 48.78070655 ], [ 17.86132599, 48.78071409 ], [ 17.86126809, 48.78076712 ], [ 17.86126074, 48.78077382 ], [ 17.86121674, 48.78081432 ], [ 17.8612025, 48.78082737 ], [ 17.86116634, 48.78086059 ], [ 17.86115506, 48.78087101 ], [ 17.86114848, 48.780881 ], [ 17.86113039, 48.78090809 ], [ 17.86112332, 48.78091868 ], [ 17.86111746, 48.78092744 ], [ 17.86110816, 48.78094133 ], [ 17.86108346, 48.78097867 ], [ 17.86108088, 48.78098249 ], [ 17.86106235, 48.78104829 ], [ 17.86104942, 48.78109438 ], [ 17.86100513, 48.78125254 ], [ 17.86025923, 48.78168755 ], [ 17.85980063, 48.78182384 ], [ 17.85958546, 48.78180371 ], [ 17.85886246, 48.78209876 ], [ 17.85848027, 48.78233557 ], [ 17.85821453, 48.78257617 ], [ 17.85817978, 48.78289737 ], [ 17.85807325, 48.78317739 ], [ 17.8579089, 48.78336957 ], [ 17.85768351, 48.78361974 ], [ 17.85750924, 48.78390235 ], [ 17.85712023, 48.78431566 ], [ 17.85705378, 48.78450644 ], [ 17.85703766, 48.78450537 ], [ 17.85699364, 48.78450253 ], [ 17.85693707, 48.78449758 ], [ 17.85561399, 48.78429477 ], [ 17.8555995, 48.78440037 ], [ 17.85504281, 48.78440194 ], [ 17.85518882, 48.78471935 ], [ 17.85521832, 48.78566802 ], [ 17.85522175, 48.78618813 ], [ 17.85522221, 48.78624993 ], [ 17.8550596, 48.78661795 ], [ 17.85524794, 48.78686459 ], [ 17.85537572, 48.78735619 ], [ 17.85524519, 48.78739084 ], [ 17.85429034, 48.78764512 ], [ 17.85292587, 48.78817473 ], [ 17.8528847, 48.78819274 ], [ 17.85248618, 48.78792823 ], [ 17.85192226, 48.78773699 ], [ 17.85127002, 48.78777881 ], [ 17.85099537, 48.7877212 ], [ 17.85055571, 48.78754649 ], [ 17.85007023, 48.78782489 ], [ 17.84957377, 48.78809766 ], [ 17.84854469, 48.78899755 ], [ 17.84807398, 48.78965235 ], [ 17.84729466, 48.79039178 ], [ 17.8465645, 48.79115405 ], [ 17.8462269, 48.79152574 ], [ 17.84618933, 48.79174246 ], [ 17.84616345, 48.79178027 ], [ 17.84613517, 48.79182155 ], [ 17.84608411, 48.79189603 ], [ 17.8460584, 48.79193358 ], [ 17.84602945, 48.79197581 ], [ 17.84600596, 48.79201015 ], [ 17.84598043, 48.79204744 ], [ 17.84597904, 48.79204952 ], [ 17.84596285, 48.79208548 ], [ 17.84586269, 48.79230808 ], [ 17.84568713, 48.79258942 ], [ 17.84559362, 48.79284087 ], [ 17.84539147, 48.79311194 ], [ 17.84535624, 48.79330487 ], [ 17.84518821, 48.79377921 ], [ 17.84477909, 48.79438354 ], [ 17.84450191, 48.79433705 ], [ 17.84431079, 48.79433523 ], [ 17.84398711, 48.79424655 ], [ 17.84358751, 48.79389128 ], [ 17.8435314, 48.79328479 ], [ 17.84306406, 48.79315282 ], [ 17.84280097, 48.79297821 ], [ 17.84230139, 48.79290921 ], [ 17.8417467, 48.79283254 ], [ 17.84133549, 48.79284872 ], [ 17.84132559, 48.79284912 ], [ 17.84128395, 48.79285075 ], [ 17.84123777, 48.79285256 ], [ 17.84114692, 48.79285618 ], [ 17.84112039, 48.79285926 ], [ 17.84101898, 48.792871 ], [ 17.84089381, 48.79288555 ], [ 17.84049787, 48.79293155 ], [ 17.8403792, 48.79302732 ], [ 17.84037012, 48.79303462 ], [ 17.84036674, 48.79303731 ], [ 17.84033426, 48.79306352 ], [ 17.84029748, 48.79309317 ], [ 17.84025868, 48.7931245 ], [ 17.84022358, 48.7931529 ], [ 17.84018866, 48.79318095 ], [ 17.84010615, 48.79324757 ], [ 17.83999963, 48.7933335 ], [ 17.83998405, 48.79335324 ], [ 17.83995266, 48.79339324 ], [ 17.8399311, 48.79342056 ], [ 17.83990905, 48.79344849 ], [ 17.83988415, 48.79348012 ], [ 17.83985675, 48.79351504 ], [ 17.83983551, 48.79354202 ], [ 17.83981096, 48.79357313 ], [ 17.83977547, 48.79361813 ], [ 17.8397607, 48.79363692 ], [ 17.83976326, 48.79365685 ], [ 17.83976584, 48.79367769 ], [ 17.83976938, 48.79370536 ], [ 17.83978164, 48.7938012 ], [ 17.83978175, 48.79380238 ], [ 17.83978289, 48.79381085 ], [ 17.83979621, 48.79391578 ], [ 17.83980033, 48.79394818 ], [ 17.83980051, 48.79394982 ], [ 17.83981476, 48.79406185 ], [ 17.83981559, 48.79406669 ], [ 17.83982692, 48.79415741 ], [ 17.83984148, 48.79427218 ], [ 17.83988795, 48.79448587 ], [ 17.8401148, 48.79460744 ], [ 17.84012524, 48.79461295 ], [ 17.84027244, 48.79469186 ], [ 17.8403838, 48.79476209 ], [ 17.84039587, 48.79476969 ], [ 17.84062224, 48.79491245 ], [ 17.84108079, 48.79526444 ], [ 17.84123287, 48.79538112 ], [ 17.84135034, 48.79545064 ], [ 17.84201275, 48.79584279 ], [ 17.84215637, 48.7959278 ], [ 17.841294, 48.7967728 ], [ 17.8411032, 48.7975725 ], [ 17.84104905, 48.79784647 ], [ 17.84103578, 48.79791349 ], [ 17.84094342, 48.79865981 ], [ 17.84116594, 48.79908357 ], [ 17.84130153, 48.79934474 ], [ 17.84136778, 48.7994722 ], [ 17.8414216, 48.79955132 ], [ 17.84147767, 48.79963392 ], [ 17.84152228, 48.79969957 ], [ 17.84163228, 48.79986147 ], [ 17.8416653, 48.79993283 ], [ 17.84177866, 48.80017793 ], [ 17.84179301, 48.80039663 ], [ 17.84180414, 48.80056474 ], [ 17.84179976, 48.80062191 ], [ 17.84165367, 48.80074465 ], [ 17.84165685, 48.8009651 ], [ 17.84135994, 48.8010526 ], [ 17.84117792, 48.80110624 ], [ 17.84119384, 48.80112554 ], [ 17.84138793, 48.80136027 ], [ 17.84143977, 48.80155703 ], [ 17.84141974, 48.80191715 ], [ 17.84136001, 48.80213669 ], [ 17.84134022, 48.80220936 ], [ 17.84110957, 48.80268822 ], [ 17.84108921, 48.80270983 ], [ 17.84084571, 48.80296899 ], [ 17.84031852, 48.80362712 ], [ 17.84024409, 48.80372015 ], [ 17.8404052, 48.80427917 ], [ 17.83979367, 48.80484441 ], [ 17.84021465, 48.80486792 ], [ 17.8404179, 48.80490669 ], [ 17.84058866, 48.80494115 ], [ 17.84061169, 48.80495058 ], [ 17.84067496, 48.80497049 ], [ 17.84079009, 48.80500383 ], [ 17.84104089, 48.80507637 ], [ 17.84116276, 48.80511238 ], [ 17.84121943, 48.80512962 ], [ 17.84128155, 48.80514603 ], [ 17.84132471, 48.80516011 ], [ 17.8419633, 48.80533072 ], [ 17.842313, 48.80549052 ], [ 17.84242129, 48.80554856 ], [ 17.84249946, 48.80559908 ], [ 17.84254864, 48.80563186 ], [ 17.84257604, 48.80564724 ], [ 17.84266482, 48.80569615 ], [ 17.84274932, 48.80576313 ], [ 17.84282327, 48.80580653 ], [ 17.84289937, 48.80585918 ], [ 17.84305863, 48.80596274 ], [ 17.84308119, 48.80597558 ], [ 17.84315615, 48.80602355 ], [ 17.84330735, 48.8061232 ], [ 17.8433378, 48.8061422 ], [ 17.8434798, 48.80623325 ], [ 17.84360684, 48.80631879 ], [ 17.84366792, 48.80635843 ], [ 17.84369735, 48.80637493 ], [ 17.84372633, 48.80639565 ], [ 17.84375577, 48.80641305 ], [ 17.84378605, 48.80643728 ], [ 17.84384142, 48.80647179 ], [ 17.84389969, 48.80651099 ], [ 17.8439562, 48.80655009 ], [ 17.84401465, 48.80658704 ], [ 17.84404539, 48.80660786 ], [ 17.84407309, 48.80662507 ], [ 17.844104, 48.80664365 ], [ 17.84416083, 48.80668051 ], [ 17.84418674, 48.8066977 ], [ 17.84426292, 48.80674683 ], [ 17.84432972, 48.80678763 ], [ 17.8443962, 48.80683175 ], [ 17.84446931, 48.80687736 ], [ 17.84455127, 48.80692224 ], [ 17.84462292, 48.8069655 ], [ 17.84468924, 48.80701078 ], [ 17.84473267, 48.80705848 ], [ 17.84477955, 48.80707432 ], [ 17.84533861, 48.80726457 ], [ 17.846241, 48.80757006 ], [ 17.84708155, 48.80785328 ], [ 17.84758535, 48.80802501 ], [ 17.84887946, 48.8084638 ], [ 17.84892779, 48.80848208 ], [ 17.84909943, 48.80849752 ], [ 17.84953882, 48.80854523 ], [ 17.84955554, 48.80854886 ], [ 17.84970117, 48.80856651 ], [ 17.84975428, 48.80857298 ], [ 17.85013973, 48.80861823 ], [ 17.85023917, 48.80862976 ], [ 17.85026998, 48.80863343 ], [ 17.85037002, 48.80867117 ], [ 17.85092295, 48.80888622 ], [ 17.85180818, 48.80917482 ], [ 17.85256462, 48.80938455 ], [ 17.85351998, 48.80961714 ], [ 17.85446773, 48.8098722 ], [ 17.854499, 48.80987247 ], [ 17.85452496, 48.80987259 ], [ 17.85461977, 48.80987814 ], [ 17.85464009, 48.80988244 ], [ 17.85465911, 48.80988332 ], [ 17.85558869, 48.81011361 ], [ 17.85678539, 48.81039272 ], [ 17.85810753, 48.81068337 ], [ 17.85870315, 48.81077606 ], [ 17.85958348, 48.81098112 ], [ 17.86003022, 48.81110229 ], [ 17.86027199, 48.81109323 ] ] ] ] } },
{ "type": "Feature", "properties": { "@featureType": "CadastralZoning", "beginLifespanVersion": { "@nilReason": "http://inspire.ec.europa.eu/codelist/VoidReasonValue/Unpopulated", "@nil": "true" }, "endLifespanVersion": { "@nilReason": "http://inspire.ec.europa.eu/codelist/VoidReasonValue/Unpopulated", "@nil": "true" }, "estimatedAccuracy": { "value": -1, "@uom": "m" }, "inspireId": { "@dataType": "Identifier", "localId": "812145", "namespace": "SK.ESKN.CP", "versionId": "20260703T04:07:40" }, "label": "Dolné Srnie", "level": { "@href": "http://inspire.ec.europa.eu/codelist/CadastralZoningLevelValue/3rdOrder" }, "levelName": { "value": "Katastrálne územie", "@locale": "sk" }, "name": { "@dataType": "name", "GeographicalName": { "@dataType": "GeographicalName", "language": "SLK", "nativeness": { "@href": "http://inspire.ec.europa.eu/codelist/NativenessValue/endonym", "@title": "endonym" }, "nameStatus": { "@href": "http://inspire.ec.europa.eu/codelist/NameStatusValue/official", "@title": "official" }, "sourceOfName": { "@nilReason": "http://inspire.ec.europa.eu/codelist/VoidReasonValue/Unpopulated", "@nil": "true" }, "pronunciation": { "@dataType": "pronunciation", "@nilReason": "http://inspire.ec.europa.eu/codelist/VoidReasonValue/Unpopulated", "@nil": "true" }, "spelling": { "@dataType": "SpellingOfName", "text": "Dolné Srnie", "script": "LATN" } } }, "nationalCadastalZoningReference": "812145", "validFrom": "2026-06-30T16:00:00Z", "validTo": { "@nilReason": "http://inspire.ec.europa.eu/codelist/VoidReasonValue/Unpopulated", "@nil": "true" } }, "geometry": { "type": "MultiPolygon", "coordinates": [ [ [ [ 17.82021155, 48.81626643 ], [ 17.8203092, 48.81620941 ], [ 17.82046839, 48.81616417 ], [ 17.82078297, 48.81614714 ], [ 17.8211934, 48.81615861 ], [ 17.82123441, 48.81615974 ], [ 17.82170041, 48.81617286 ], [ 17.82205409, 48.81622757 ], [ 17.8227671, 48.81639079 ], [ 17.8227933, 48.81635481 ], [ 17.82327441, 48.81562667 ], [ 17.82366951, 48.81493863 ], [ 17.82369152, 48.81490041 ], [ 17.82401385, 48.81435688 ], [ 17.82434155, 48.8138042 ], [ 17.82439121, 48.81372052 ], [ 17.8258966, 48.81242731 ], [ 17.82629706, 48.81208071 ], [ 17.82663581, 48.81178743 ], [ 17.82741091, 48.81111649 ], [ 17.82751161, 48.81107672 ], [ 17.82761548, 48.81103579 ], [ 17.82781731, 48.81121176 ], [ 17.82800324, 48.81124933 ], [ 17.82813792, 48.81122092 ], [ 17.82828149, 48.81101053 ], [ 17.82855494, 48.81054956 ], [ 17.82859145, 48.810462 ], [ 17.82866205, 48.81029253 ], [ 17.82869815, 48.81020603 ], [ 17.82870088, 48.81019527 ], [ 17.82872649, 48.8100927 ], [ 17.82875513, 48.8099782 ], [ 17.82879154, 48.80983239 ], [ 17.82886843, 48.80952521 ], [ 17.82903282, 48.80922506 ], [ 17.82905483, 48.80918476 ], [ 17.82909405, 48.80911317 ], [ 17.82920477, 48.80891082 ], [ 17.82923812, 48.8088499 ], [ 17.8292571, 48.80882549 ], [ 17.82939969, 48.80864277 ], [ 17.82985612, 48.80805742 ], [ 17.83000339, 48.80787246 ], [ 17.8302883, 48.80751467 ], [ 17.83106568, 48.8069366 ], [ 17.8318361, 48.80658956 ], [ 17.83262293, 48.80635848 ], [ 17.83314156, 48.80623622 ], [ 17.83336811, 48.80620669 ], [ 17.83437569, 48.80617566 ], [ 17.83465463, 48.80608194 ], [ 17.83471843, 48.80603216 ], [ 17.83495151, 48.80585031 ], [ 17.83541063, 48.80549197 ], [ 17.83616685, 48.80478308 ], [ 17.83725522, 48.80396923 ], [ 17.83731675, 48.80391796 ], [ 17.83795035, 48.80339083 ], [ 17.83885052, 48.80348997 ], [ 17.84024409, 48.80372015 ], [ 17.84031852, 48.80362712 ], [ 17.84084571, 48.80296899 ], [ 17.84108921, 48.80270983 ], [ 17.84110957, 48.80268822 ], [ 17.84134022, 48.80220936 ], [ 17.84136001, 48.80213669 ], [ 17.84141974, 48.80191715 ], [ 17.84143977, 48.80155703 ], [ 17.84138793, 48.80136027 ], [ 17.84119384, 48.80112554 ], [ 17.84117792, 48.80110624 ], [ 17.84135994, 48.8010526 ], [ 17.84165685, 48.8009651 ], [ 17.84165367, 48.80074465 ], [ 17.84179976, 48.80062191 ], [ 17.84180414, 48.80056474 ], [ 17.84179301, 48.80039663 ], [ 17.84177866, 48.80017793 ], [ 17.8416653, 48.79993283 ], [ 17.84163228, 48.79986147 ], [ 17.84152228, 48.79969957 ], [ 17.84147767, 48.79963392 ], [ 17.8414216, 48.79955132 ], [ 17.84136778, 48.7994722 ], [ 17.84130153, 48.79934474 ], [ 17.84116594, 48.79908357 ], [ 17.84094342, 48.79865981 ], [ 17.84103578, 48.79791349 ], [ 17.84104905, 48.79784647 ], [ 17.8411032, 48.7975725 ], [ 17.841294, 48.7967728 ], [ 17.84215637, 48.7959278 ], [ 17.84201275, 48.79584279 ], [ 17.84135034, 48.79545064 ], [ 17.84123287, 48.79538112 ], [ 17.84108079, 48.79526444 ], [ 17.84062224, 48.79491245 ], [ 17.84039587, 48.79476969 ], [ 17.8403838, 48.79476209 ], [ 17.84027244, 48.79469186 ], [ 17.84012524, 48.79461295 ], [ 17.8401148, 48.79460744 ], [ 17.83988795, 48.79448587 ], [ 17.83984148, 48.79427218 ], [ 17.83982692, 48.79415741 ], [ 17.83981559, 48.79406669 ], [ 17.83981476, 48.79406185 ], [ 17.83980051, 48.79394982 ], [ 17.83980033, 48.79394818 ], [ 17.83979621, 48.79391578 ], [ 17.83978289, 48.79381085 ], [ 17.83978175, 48.79380238 ], [ 17.83978164, 48.7938012 ], [ 17.83976938, 48.79370536 ], [ 17.83976584, 48.79367769 ], [ 17.83976326, 48.79365685 ], [ 17.8397607, 48.79363692 ], [ 17.83977547, 48.79361813 ], [ 17.83981096, 48.79357313 ], [ 17.83983551, 48.79354202 ], [ 17.83985675, 48.79351504 ], [ 17.83988415, 48.79348012 ], [ 17.83990905, 48.79344849 ], [ 17.8399311, 48.79342056 ], [ 17.83995266, 48.79339324 ], [ 17.83998405, 48.79335324 ], [ 17.83999963, 48.7933335 ], [ 17.84010615, 48.79324757 ], [ 17.84018866, 48.79318095 ], [ 17.84022358, 48.7931529 ], [ 17.84025868, 48.7931245 ], [ 17.84029748, 48.79309317 ], [ 17.84033426, 48.79306352 ], [ 17.84036674, 48.79303731 ], [ 17.84037012, 48.79303462 ], [ 17.8403792, 48.79302732 ], [ 17.84049787, 48.79293155 ], [ 17.84089381, 48.79288555 ], [ 17.84101898, 48.792871 ], [ 17.84112039, 48.79285926 ], [ 17.84114692, 48.79285618 ], [ 17.84123777, 48.79285256 ], [ 17.84128395, 48.79285075 ], [ 17.84132559, 48.79284912 ], [ 17.84133549, 48.79284872 ], [ 17.8417467, 48.79283254 ], [ 17.84230139, 48.79290921 ], [ 17.84280097, 48.79297821 ], [ 17.84306406, 48.79315282 ], [ 17.8435314, 48.79328479 ], [ 17.84358751, 48.79389128 ], [ 17.84398711, 48.79424655 ], [ 17.84431079, 48.79433523 ], [ 17.84450191, 48.79433705 ], [ 17.84477909, 48.79438354 ], [ 17.84518821, 48.79377921 ], [ 17.84535624, 48.79330487 ], [ 17.84539147, 48.79311194 ], [ 17.84559362, 48.79284087 ], [ 17.84568713, 48.79258942 ], [ 17.84586269, 48.79230808 ], [ 17.84596285, 48.79208548 ], [ 17.84597904, 48.79204952 ], [ 17.84598043, 48.79204744 ], [ 17.84600596, 48.79201015 ], [ 17.84602945, 48.79197581 ], [ 17.8460584, 48.79193358 ], [ 17.84608411, 48.79189603 ], [ 17.84613517, 48.79182155 ], [ 17.84616345, 48.79178027 ], [ 17.84618933, 48.79174246 ], [ 17.8462269, 48.79152574 ], [ 17.84618429, 48.79151657 ], [ 17.84545596, 48.79135959 ], [ 17.84489677, 48.79109861 ], [ 17.84481057, 48.79139593 ], [ 17.8447933, 48.79145539 ], [ 17.84475798, 48.79157706 ], [ 17.84473995, 48.79163901 ], [ 17.84473737, 48.79164779 ], [ 17.84414433, 48.79137365 ], [ 17.84412957, 48.7913668 ], [ 17.84401294, 48.79131286 ], [ 17.84368489, 48.79116124 ], [ 17.84356275, 48.79111654 ], [ 17.8433152, 48.79102605 ], [ 17.84327734, 48.7910122 ], [ 17.84322622, 48.79099348 ], [ 17.84319682, 48.79098276 ], [ 17.84321829, 48.7909492 ], [ 17.84324773, 48.79090348 ], [ 17.84324846, 48.79090217 ], [ 17.84332326, 48.7907856 ], [ 17.84300712, 48.79068607 ], [ 17.84253526, 48.79059184 ], [ 17.84189184, 48.79046329 ], [ 17.84177302, 48.79042421 ], [ 17.84173126, 48.79039522 ], [ 17.84159796, 48.79015116 ], [ 17.84145408, 48.78988786 ], [ 17.84138395, 48.78977859 ], [ 17.84135609, 48.78973508 ], [ 17.84126451, 48.78959236 ], [ 17.8411797, 48.78891314 ], [ 17.84125297, 48.78876432 ], [ 17.8406471, 48.7887465 ], [ 17.84054425, 48.78877856 ], [ 17.84031799, 48.78870714 ], [ 17.83998114, 48.78856292 ], [ 17.8396333, 48.78854726 ], [ 17.84011442, 48.78816586 ], [ 17.83954789, 48.7878942 ], [ 17.83877577, 48.78750667 ], [ 17.83873233, 48.7874848 ], [ 17.83832169, 48.78779162 ], [ 17.83770412, 48.78753826 ], [ 17.83749119, 48.78743387 ], [ 17.83680175, 48.78709568 ], [ 17.83626532, 48.78683486 ], [ 17.83623889, 48.78694054 ], [ 17.83609477, 48.78702772 ], [ 17.83592298, 48.78704539 ], [ 17.83568705, 48.78702494 ], [ 17.83519196, 48.7868759 ], [ 17.8349497, 48.78674751 ], [ 17.83460307, 48.78656375 ], [ 17.83446467, 48.786526 ], [ 17.83395453, 48.78650997 ], [ 17.8336152, 48.78646753 ], [ 17.83311632, 48.78635464 ], [ 17.83286443, 48.78627597 ], [ 17.83278977, 48.78625265 ], [ 17.83250217, 48.78610642 ], [ 17.83239125, 48.78604994 ], [ 17.8322506, 48.78595461 ], [ 17.83219729, 48.78599112 ], [ 17.8321926, 48.78599436 ], [ 17.83205443, 48.78608884 ], [ 17.83150308, 48.78568078 ], [ 17.83132517, 48.78579958 ], [ 17.83117151, 48.78590225 ], [ 17.83103775, 48.78599149 ], [ 17.83096407, 48.78604075 ], [ 17.83087535, 48.78609994 ], [ 17.83075631, 48.78601144 ], [ 17.8306795, 48.7859544 ], [ 17.83060429, 48.78589863 ], [ 17.83045539, 48.78578799 ], [ 17.83027861, 48.7856567 ], [ 17.83012227, 48.78554056 ], [ 17.83011295, 48.78553484 ], [ 17.83002031, 48.78547766 ], [ 17.82985378, 48.78537489 ], [ 17.82971294, 48.78528795 ], [ 17.82963981, 48.78524279 ], [ 17.82960267, 48.78521994 ], [ 17.8293007, 48.78503364 ], [ 17.82929815, 48.78503231 ], [ 17.82913723, 48.78494325 ], [ 17.82893518, 48.78483155 ], [ 17.82869255, 48.78469725 ], [ 17.82832948, 48.78448448 ], [ 17.82830193, 48.78446836 ], [ 17.82824152, 48.78444771 ], [ 17.82684016, 48.78396898 ], [ 17.82677131, 48.78395604 ], [ 17.82668888, 48.78394047 ], [ 17.82661883, 48.78392727 ], [ 17.82554485, 48.78414212 ], [ 17.82548158, 48.78415481 ], [ 17.82529898, 48.78419131 ], [ 17.8251331, 48.7842245 ], [ 17.82458163, 48.78433479 ], [ 17.82401128, 48.78414942 ], [ 17.82314379, 48.78465603 ], [ 17.82309669, 48.784638 ], [ 17.82142206, 48.78399701 ], [ 17.81984574, 48.78339521 ], [ 17.81948978, 48.78325933 ], [ 17.81944237, 48.78330351 ], [ 17.81910299, 48.78315454 ], [ 17.81865606, 48.7829585 ], [ 17.81855431, 48.78306602 ], [ 17.81833518, 48.78297322 ], [ 17.81772849, 48.78271634 ], [ 17.81786641, 48.78260027 ], [ 17.81778144, 48.78256269 ], [ 17.81722829, 48.78231791 ], [ 17.81711565, 48.78226807 ], [ 17.8169783, 48.78220725 ], [ 17.81694238, 48.78219134 ], [ 17.8168591, 48.78215448 ], [ 17.81652636, 48.78245071 ], [ 17.81647311, 48.78242191 ], [ 17.81643726, 48.78240257 ], [ 17.81617109, 48.78225896 ], [ 17.81602161, 48.78217825 ], [ 17.81577947, 48.78204756 ], [ 17.81546375, 48.78187709 ], [ 17.81533638, 48.78197619 ], [ 17.81497461, 48.78185574 ], [ 17.81378311, 48.78145905 ], [ 17.81358305, 48.78163663 ], [ 17.81279886, 48.78140144 ], [ 17.81222765, 48.78193982 ], [ 17.81123647, 48.78152385 ], [ 17.81090358, 48.78138348 ], [ 17.81088306, 48.78137483 ], [ 17.81084394, 48.78135836 ], [ 17.81074107, 48.78131498 ], [ 17.81069577, 48.78129587 ], [ 17.81019328, 48.78108395 ], [ 17.81003693, 48.78101834 ], [ 17.80951647, 48.78156504 ], [ 17.80905066, 48.78148521 ], [ 17.80876796, 48.78143675 ], [ 17.80852586, 48.78139519 ], [ 17.80857041, 48.78131969 ], [ 17.808427, 48.78127691 ], [ 17.80861711, 48.7810562 ], [ 17.80871429, 48.78094335 ], [ 17.80878488, 48.7808614 ], [ 17.80892672, 48.78069672 ], [ 17.80904705, 48.78055701 ], [ 17.80910264, 48.78049248 ], [ 17.80924903, 48.78032266 ], [ 17.80928784, 48.78027752 ], [ 17.8092924, 48.78027229 ], [ 17.80933434, 48.78021451 ], [ 17.80937276, 48.78016139 ], [ 17.80941149, 48.78010803 ], [ 17.80945056, 48.78005423 ], [ 17.80950775, 48.77997526 ], [ 17.80954582, 48.77992275 ], [ 17.80958236, 48.77987232 ], [ 17.80978365, 48.77959485 ], [ 17.80958437, 48.77956565 ], [ 17.80898641, 48.77947814 ], [ 17.8086495, 48.7794364 ], [ 17.80794842, 48.77934947 ], [ 17.80792602, 48.77934251 ], [ 17.80789903, 48.77933418 ], [ 17.80787782, 48.77932756 ], [ 17.80780511, 48.77930507 ], [ 17.80733628, 48.77915975 ], [ 17.80728348, 48.77922481 ], [ 17.80720199, 48.77932516 ], [ 17.80718153, 48.77935037 ], [ 17.80711629, 48.7793968 ], [ 17.80680064, 48.77954963 ], [ 17.80671829, 48.77958941 ], [ 17.80657526, 48.77965864 ], [ 17.80657437, 48.77965913 ], [ 17.80650936, 48.77969319 ], [ 17.80645704, 48.77972053 ], [ 17.80636326, 48.77976973 ], [ 17.80564755, 48.78014448 ], [ 17.80541131, 48.78025888 ], [ 17.80506719, 48.7804256 ], [ 17.80479401, 48.78055789 ], [ 17.80469267, 48.78053004 ], [ 17.80455449, 48.780492 ], [ 17.80454527, 48.78048945 ], [ 17.80411556, 48.78073585 ], [ 17.80341834, 48.78113556 ], [ 17.80325069, 48.78131654 ], [ 17.80329428, 48.78139009 ], [ 17.80313931, 48.7815135 ], [ 17.8032925, 48.78162426 ], [ 17.8033372, 48.78165652 ], [ 17.80345166, 48.78173926 ], [ 17.80342071, 48.78176908 ], [ 17.80290796, 48.78226284 ], [ 17.8021601, 48.78301746 ], [ 17.80213021, 48.78304752 ], [ 17.80192437, 48.78298404 ], [ 17.80170057, 48.78291505 ], [ 17.80162824, 48.78289276 ], [ 17.80148845, 48.78284956 ], [ 17.80131473, 48.78278505 ], [ 17.80121351, 48.78274746 ], [ 17.80118922, 48.78273839 ], [ 17.80117792, 48.78273418 ], [ 17.80085541, 48.7826038 ], [ 17.80077274, 48.78257041 ], [ 17.80076395, 48.7825668 ], [ 17.8000666, 48.78229815 ], [ 17.80018101, 48.78202379 ], [ 17.80014816, 48.78201628 ], [ 17.8001743, 48.78195529 ], [ 17.80021181, 48.78186771 ], [ 17.80005, 48.78176094 ], [ 17.79973827, 48.78155535 ], [ 17.79962778, 48.78148242 ], [ 17.79793531, 48.78260672 ], [ 17.79791266, 48.78262404 ], [ 17.79787699, 48.78265149 ], [ 17.79715123, 48.78320801 ], [ 17.79715957, 48.78322659 ], [ 17.79559518, 48.78441738 ], [ 17.79555847, 48.78444539 ], [ 17.79558173, 48.78445792 ], [ 17.79548862, 48.78454238 ], [ 17.79532949, 48.78468657 ], [ 17.79516376, 48.78483687 ], [ 17.79515828, 48.78484186 ], [ 17.79515508, 48.78487653 ], [ 17.79513971, 48.78489166 ], [ 17.79498527, 48.78504436 ], [ 17.79494849, 48.78508068 ], [ 17.79480409, 48.78527689 ], [ 17.79470338, 48.78541381 ], [ 17.7946725, 48.78545582 ], [ 17.79437746, 48.78569821 ], [ 17.79428515, 48.78577395 ], [ 17.79401269, 48.78599757 ], [ 17.79372261, 48.78623574 ], [ 17.79368432, 48.78626718 ], [ 17.79343976, 48.78648763 ], [ 17.79336551, 48.78655445 ], [ 17.79307858, 48.78681304 ], [ 17.793004, 48.7868802 ], [ 17.7929821, 48.7869 ], [ 17.79281243, 48.78706766 ], [ 17.79264607, 48.78723219 ], [ 17.79202233, 48.78784901 ], [ 17.79190166, 48.78796827 ], [ 17.79184598, 48.78801554 ], [ 17.79175635, 48.78809163 ], [ 17.79166686, 48.78816764 ], [ 17.79150094, 48.78830843 ], [ 17.79095148, 48.78877498 ], [ 17.79076043, 48.78893709 ], [ 17.79068091, 48.78900242 ], [ 17.79062502, 48.78904832 ], [ 17.79056017, 48.78910153 ], [ 17.79050443, 48.78914735 ], [ 17.79043974, 48.7892004 ], [ 17.79037521, 48.78925336 ], [ 17.79008325, 48.78949294 ], [ 17.79074726, 48.79010127 ], [ 17.79150286, 48.79061476 ], [ 17.7920572, 48.79096839 ], [ 17.79209674, 48.79099356 ], [ 17.79172515, 48.791355 ], [ 17.79139595, 48.79167523 ], [ 17.79195797, 48.7920081 ], [ 17.79165267, 48.79220524 ], [ 17.79160801, 48.79222843 ], [ 17.79116967, 48.79245611 ], [ 17.79111631, 48.79248383 ], [ 17.79107365, 48.79256513 ], [ 17.79101947, 48.79266813 ], [ 17.79111328, 48.79310899 ], [ 17.79146996, 48.79328962 ], [ 17.791657, 48.79343795 ], [ 17.79228034, 48.79366482 ], [ 17.79298618, 48.79413479 ], [ 17.79322948, 48.79425331 ], [ 17.79373893, 48.79456066 ], [ 17.79408906, 48.79472173 ], [ 17.79432106, 48.79497602 ], [ 17.79470769, 48.79513615 ], [ 17.79510616, 48.79526729 ], [ 17.79511557, 48.79527039 ], [ 17.7956734, 48.7955506 ], [ 17.79607186, 48.79577386 ], [ 17.7965427, 48.79604081 ], [ 17.79666388, 48.7961079 ], [ 17.79689961, 48.79623859 ], [ 17.79700722, 48.79629816 ], [ 17.798138, 48.79697183 ], [ 17.79949266, 48.79775368 ], [ 17.79952392, 48.79777166 ], [ 17.79965866, 48.79784942 ], [ 17.79969572, 48.79787082 ], [ 17.7997133, 48.79788101 ], [ 17.80065982, 48.79844047 ], [ 17.80168155, 48.79908704 ], [ 17.80237721, 48.79973487 ], [ 17.80278066, 48.80005315 ], [ 17.80295933, 48.80017177 ], [ 17.80320216, 48.80030677 ], [ 17.80369732, 48.80054392 ], [ 17.80525409, 48.80120912 ], [ 17.80572284, 48.80141233 ], [ 17.80596132, 48.80155211 ], [ 17.80604999, 48.80168385 ], [ 17.80613677, 48.80184484 ], [ 17.80619685, 48.80191009 ], [ 17.80637497, 48.802021 ], [ 17.80670044, 48.80218991 ], [ 17.80824372, 48.80293192 ], [ 17.81003734, 48.80376039 ], [ 17.81010048, 48.80378807 ], [ 17.81069605, 48.80404981 ], [ 17.81085116, 48.80411795 ], [ 17.81101852, 48.80417374 ], [ 17.81125029, 48.80425105 ], [ 17.81134166, 48.80422816 ], [ 17.81144285, 48.80424082 ], [ 17.81248665, 48.80471215 ], [ 17.81314833, 48.80499217 ], [ 17.81344306, 48.80510338 ], [ 17.81352787, 48.80513545 ], [ 17.8135441, 48.80514158 ], [ 17.81359295, 48.80516 ], [ 17.81360581, 48.80516484 ], [ 17.81375244, 48.80522027 ], [ 17.81387, 48.80526462 ], [ 17.81366855, 48.80539552 ], [ 17.81331316, 48.80562643 ], [ 17.81324174, 48.80567284 ], [ 17.81294516, 48.80586632 ], [ 17.8125066, 48.80615241 ], [ 17.81243817, 48.80619702 ], [ 17.81244756, 48.80620319 ], [ 17.81262498, 48.80632127 ], [ 17.81280729, 48.80644254 ], [ 17.81278042, 48.80645878 ], [ 17.81265205, 48.80653614 ], [ 17.81265614, 48.80653919 ], [ 17.81310178, 48.80687733 ], [ 17.81316868, 48.80693495 ], [ 17.81335072, 48.80709151 ], [ 17.8133898, 48.80712505 ], [ 17.8136439, 48.80734343 ], [ 17.81366238, 48.807359 ], [ 17.81372895, 48.80741796 ], [ 17.81374613, 48.807433 ], [ 17.81349575, 48.80748326 ], [ 17.81326016, 48.80755392 ], [ 17.81324626, 48.80755849 ], [ 17.81326415, 48.80757439 ], [ 17.81379393, 48.8080457 ], [ 17.81434968, 48.80791069 ], [ 17.81433589, 48.80803719 ], [ 17.81432807, 48.80810797 ], [ 17.81431376, 48.80823815 ], [ 17.81428924, 48.80846226 ], [ 17.81427591, 48.80855393 ], [ 17.81426328, 48.80864067 ], [ 17.81425001, 48.80873198 ], [ 17.81424476, 48.8087677 ], [ 17.81423382, 48.80882465 ], [ 17.81419856, 48.80900702 ], [ 17.81415617, 48.80922679 ], [ 17.81413988, 48.80931133 ], [ 17.81413953, 48.80931284 ], [ 17.81409136, 48.80950942 ], [ 17.81405661, 48.80965081 ], [ 17.81422949, 48.80969564 ], [ 17.81432359, 48.80971996 ], [ 17.81430528, 48.80976897 ], [ 17.81418638, 48.81008841 ], [ 17.8141635, 48.8101496 ], [ 17.81416129, 48.81015561 ], [ 17.81400571, 48.81056168 ], [ 17.81478864, 48.81078068 ], [ 17.81498775, 48.81045086 ], [ 17.81499748, 48.81045263 ], [ 17.81505019, 48.81046197 ], [ 17.81527442, 48.81003226 ], [ 17.81558646, 48.80933541 ], [ 17.81561027, 48.80937451 ], [ 17.8156195, 48.80940343 ], [ 17.81564776, 48.80949212 ], [ 17.81567096, 48.80956506 ], [ 17.81567524, 48.8095785 ], [ 17.815681, 48.80960784 ], [ 17.81571654, 48.80978945 ], [ 17.81571877, 48.80980097 ], [ 17.81574821, 48.80988115 ], [ 17.81575774, 48.80990693 ], [ 17.81577272, 48.80992996 ], [ 17.8158358, 48.81002682 ], [ 17.81586708, 48.81005943 ], [ 17.81594264, 48.81013834 ], [ 17.81624796, 48.81045746 ], [ 17.81632373, 48.81054759 ], [ 17.81650111, 48.81075841 ], [ 17.81664198, 48.81092601 ], [ 17.81666314, 48.81105292 ], [ 17.81665719, 48.81120555 ], [ 17.81665355, 48.81129943 ], [ 17.81664101, 48.81136884 ], [ 17.81661516, 48.81151123 ], [ 17.81660622, 48.81156063 ], [ 17.81658557, 48.81167353 ], [ 17.81658311, 48.81168729 ], [ 17.81657658, 48.81172238 ], [ 17.81656973, 48.81175981 ], [ 17.81653801, 48.81193155 ], [ 17.81652011, 48.81214342 ], [ 17.8164962, 48.812426 ], [ 17.81649215, 48.81247371 ], [ 17.81649168, 48.81254186 ], [ 17.81648967, 48.81279877 ], [ 17.81648909, 48.81288146 ], [ 17.81649192, 48.81293961 ], [ 17.81649455, 48.81299242 ], [ 17.81649895, 48.81308454 ], [ 17.81650243, 48.81315474 ], [ 17.81651613, 48.81343428 ], [ 17.81656044, 48.81343426 ], [ 17.81745556, 48.81345695 ], [ 17.81901065, 48.81350193 ], [ 17.81899662, 48.81351923 ], [ 17.8186561, 48.81393764 ], [ 17.81834267, 48.81427741 ], [ 17.8182776, 48.8144157 ], [ 17.81821084, 48.8146162 ], [ 17.81820754, 48.81462611 ], [ 17.81810907, 48.81503168 ], [ 17.81820994, 48.81505958 ], [ 17.81861946, 48.81517278 ], [ 17.81916651, 48.81528927 ], [ 17.8196084, 48.8153488 ], [ 17.8196229, 48.81537822 ], [ 17.81968422, 48.81550251 ], [ 17.81975822, 48.81565268 ], [ 17.81977718, 48.81569131 ], [ 17.81981075, 48.81578312 ], [ 17.81987928, 48.81597062 ], [ 17.82002527, 48.81636972 ], [ 17.8200887, 48.81640328 ], [ 17.82021155, 48.81626643 ] ] ] ] } },
{ "type": "Feature", "properties": { "@featureType": "CadastralZoning", "beginLifespanVersion": { "@nilReason": "http://inspire.ec.europa.eu/codelist/VoidReasonValue/Unpopulated", "@nil": "true" }, "endLifespanVersion": { "@nilReason": "http://inspire.ec.europa.eu/codelist/VoidReasonValue/Unpopulated", "@nil": "true" }, "estimatedAccuracy": { "value": -1, "@uom": "m" }, "inspireId": { "@dataType": "Identifier", "localId": "842044", "namespace": "SK.ESKN.CP", "versionId": "20260703T04:07:40" }, "label": "Nové Mesto nad Váhom", "level": { "@href": "http://inspire.ec.europa.eu/codelist/CadastralZoningLevelValue/3rdOrder" }, "levelName": { "value": "Katastrálne územie", "@locale": "sk" }, "name": { "@dataType": "name", "GeographicalName": { "@dataType": "GeographicalName", "language": "SLK", "nativeness": { "@href": "http://inspire.ec.europa.eu/codelist/NativenessValue/endonym", "@title": "endonym" }, "nameStatus": { "@href": "http://inspire.ec.europa.eu/codelist/NameStatusValue/official", "@title": "official" }, "sourceOfName": { "@nilReason": "http://inspire.ec.europa.eu/codelist/VoidReasonValue/Unpopulated", "@nil": "true" }, "pronunciation": { "@dataType": "pronunciation", "@nilReason": "http://inspire.ec.europa.eu/codelist/VoidReasonValue/Unpopulated", "@nil": "true" }, "spelling": { "@dataType": "SpellingOfName", "text": "Nové Mesto nad Váhom", "script": "LATN" } } }, "nationalCadastalZoningReference": "842044", "validFrom": "2026-06-30T16:00:00Z", "validTo": { "@nilReason": "http://inspire.ec.europa.eu/codelist/VoidReasonValue/Unpopulated", "@nil": "true" } }, "geometry": { "type": "MultiPolygon", "coordinates": [ [ [ [ 17.84473995, 48.79163901 ], [ 17.84475798, 48.79157706 ], [ 17.8447933, 48.79145539 ], [ 17.84481057, 48.79139593 ], [ 17.84489677, 48.79109861 ], [ 17.84545596, 48.79135959 ], [ 17.84618429, 48.79151657 ], [ 17.8462269, 48.79152574 ], [ 17.8465645, 48.79115405 ], [ 17.84729466, 48.79039178 ], [ 17.84807398, 48.78965235 ], [ 17.84854469, 48.78899755 ], [ 17.84957377, 48.78809766 ], [ 17.85007023, 48.78782489 ], [ 17.85055571, 48.78754649 ], [ 17.85099537, 48.7877212 ], [ 17.85127002, 48.78777881 ], [ 17.85192226, 48.78773699 ], [ 17.85248618, 48.78792823 ], [ 17.8528847, 48.78819274 ], [ 17.85292587, 48.78817473 ], [ 17.85429034, 48.78764512 ], [ 17.85524519, 48.78739084 ], [ 17.85537572, 48.78735619 ], [ 17.85524794, 48.78686459 ], [ 17.8550596, 48.78661795 ], [ 17.85522221, 48.78624993 ], [ 17.85522175, 48.78618813 ], [ 17.85521832, 48.78566802 ], [ 17.85518882, 48.78471935 ], [ 17.85504281, 48.78440194 ], [ 17.8555995, 48.78440037 ], [ 17.85561399, 48.78429477 ], [ 17.85693707, 48.78449758 ], [ 17.85699364, 48.78450253 ], [ 17.85703766, 48.78450537 ], [ 17.85705378, 48.78450644 ], [ 17.85712023, 48.78431566 ], [ 17.85750924, 48.78390235 ], [ 17.85768351, 48.78361974 ], [ 17.8579089, 48.78336957 ], [ 17.85807325, 48.78317739 ], [ 17.85817978, 48.78289737 ], [ 17.85821453, 48.78257617 ], [ 17.85848027, 48.78233557 ], [ 17.85886246, 48.78209876 ], [ 17.85958546, 48.78180371 ], [ 17.85980063, 48.78182384 ], [ 17.86025923, 48.78168755 ], [ 17.86100513, 48.78125254 ], [ 17.86104942, 48.78109438 ], [ 17.86106235, 48.78104829 ], [ 17.86108088, 48.78098249 ], [ 17.86108346, 48.78097867 ], [ 17.86110816, 48.78094133 ], [ 17.86111746, 48.78092744 ], [ 17.86112332, 48.78091868 ], [ 17.86113039, 48.78090809 ], [ 17.86114848, 48.780881 ], [ 17.86115506, 48.78087101 ], [ 17.86116634, 48.78086059 ], [ 17.8612025, 48.78082737 ], [ 17.86121674, 48.78081432 ], [ 17.86126074, 48.78077382 ], [ 17.86126809, 48.78076712 ], [ 17.86132599, 48.78071409 ], [ 17.86133427, 48.78070655 ], [ 17.86136089, 48.78068206 ], [ 17.86139642, 48.78064944 ], [ 17.86145636, 48.78059445 ], [ 17.86147828, 48.78057428 ], [ 17.86152366, 48.78053268 ], [ 17.86153806, 48.78051946 ], [ 17.86154572, 48.78051252 ], [ 17.86165779, 48.78040966 ], [ 17.86168158, 48.78038779 ], [ 17.86209238, 48.7800111 ], [ 17.86211492, 48.77999043 ], [ 17.86217392, 48.77993628 ], [ 17.86224922, 48.77986705 ], [ 17.86228288, 48.77983612 ], [ 17.8622965, 48.77982358 ], [ 17.86231684, 48.77980494 ], [ 17.86243359, 48.77969784 ], [ 17.86247945, 48.77965573 ], [ 17.86274159, 48.77941527 ], [ 17.86300684, 48.77917202 ], [ 17.86379474, 48.77793858 ], [ 17.86402666, 48.77757555 ], [ 17.86431229, 48.77712844 ], [ 17.8640906, 48.7757561 ], [ 17.86406027, 48.77566613 ], [ 17.86387897, 48.77512841 ], [ 17.86374362, 48.77474555 ], [ 17.86367442, 48.774496 ], [ 17.86366401, 48.77445862 ], [ 17.86363327, 48.77434794 ], [ 17.86361624, 48.77428632 ], [ 17.86358675, 48.77418041 ], [ 17.86357816, 48.77414964 ], [ 17.86357426, 48.77413531 ], [ 17.86355282, 48.77405816 ], [ 17.86352573, 48.77396062 ], [ 17.86330299, 48.77315841 ], [ 17.86328833, 48.77310533 ], [ 17.86327328, 48.77305114 ], [ 17.86326023, 48.7730042 ], [ 17.86331429, 48.77291364 ], [ 17.86347684, 48.77264115 ], [ 17.86357388, 48.77264683 ], [ 17.86367105, 48.77265252 ], [ 17.86373923, 48.77265646 ], [ 17.86394362, 48.77266835 ], [ 17.86401463, 48.77267255 ], [ 17.86411533, 48.77267845 ], [ 17.86414799, 48.77268034 ], [ 17.86435238, 48.77269223 ], [ 17.86445782, 48.77269842 ], [ 17.86446148, 48.77269864 ], [ 17.86452951, 48.77270266 ], [ 17.864539, 48.77270323 ], [ 17.8645569, 48.77270422 ], [ 17.8645718, 48.77270512 ], [ 17.86463469, 48.77270874 ], [ 17.86476128, 48.77271611 ], [ 17.86480818, 48.77271885 ], [ 17.86496567, 48.772728 ], [ 17.86517005, 48.77273998 ], [ 17.86537444, 48.77275187 ], [ 17.86557882, 48.77276385 ], [ 17.86578321, 48.77277574 ], [ 17.86598773, 48.77278764 ], [ 17.86619197, 48.77279961 ], [ 17.86650885, 48.77281811 ], [ 17.86657703, 48.77282205 ], [ 17.86720645, 48.77285878 ], [ 17.86724195, 48.77286093 ], [ 17.8676194, 48.77288299 ], [ 17.86888923, 48.77295702 ], [ 17.86904755, 48.77284448 ], [ 17.86907209, 48.77282708 ], [ 17.86927739, 48.77268107 ], [ 17.86928556, 48.77267534 ], [ 17.86933783, 48.77263812 ], [ 17.86940782, 48.77258843 ], [ 17.86948915, 48.77253076 ], [ 17.86953551, 48.7724978 ], [ 17.86942874, 48.77232022 ], [ 17.86929266, 48.77209373 ], [ 17.86923357, 48.77199535 ], [ 17.86922392, 48.77197914 ], [ 17.86915938, 48.77187175 ], [ 17.86906796, 48.77171958 ], [ 17.86898396, 48.77157995 ], [ 17.86892044, 48.77147407 ], [ 17.86889654, 48.77143442 ], [ 17.8688901, 48.77142365 ], [ 17.86884985, 48.77136993 ], [ 17.868836, 48.77135148 ], [ 17.86881443, 48.77132263 ], [ 17.86879783, 48.77130041 ], [ 17.86869217, 48.77115938 ], [ 17.8685894, 48.77102214 ], [ 17.86848327, 48.77088055 ], [ 17.86837785, 48.77073972 ], [ 17.86784968, 48.77003459 ], [ 17.86394287, 48.76621616 ], [ 17.86156067, 48.7638875 ], [ 17.86153143, 48.76385891 ], [ 17.86150114, 48.763829 ], [ 17.86148453, 48.76381282 ], [ 17.86076108, 48.76310551 ], [ 17.86073159, 48.76307673 ], [ 17.86067023, 48.76301667 ], [ 17.86061788, 48.76296555 ], [ 17.86059178, 48.76293995 ], [ 17.86052126, 48.76287103 ], [ 17.86051092, 48.76286083 ], [ 17.86047987, 48.76283051 ], [ 17.86044391, 48.76283375 ], [ 17.859666, 48.76290368 ], [ 17.85960163, 48.76291081 ], [ 17.85954795, 48.76291668 ], [ 17.85952118, 48.76291958 ], [ 17.85944725, 48.76292776 ], [ 17.85899656, 48.76297745 ], [ 17.85841423, 48.76304357 ], [ 17.85834734, 48.76305118 ], [ 17.85826803, 48.76305767 ], [ 17.85822864, 48.76306098 ], [ 17.85821773, 48.76306186 ], [ 17.85762475, 48.76311117 ], [ 17.85751268, 48.76312046 ], [ 17.8573491, 48.76312981 ], [ 17.85707151, 48.76314572 ], [ 17.85625783, 48.76322231 ], [ 17.8557993, 48.76326547 ], [ 17.85567596, 48.7632861 ], [ 17.85552558, 48.76329678 ], [ 17.8543839, 48.76341096 ], [ 17.85427849, 48.76342147 ], [ 17.85427031, 48.76342233 ], [ 17.85426757, 48.76340663 ], [ 17.85413793, 48.76341848 ], [ 17.85299023, 48.76352379 ], [ 17.85289434, 48.76353262 ], [ 17.85284951, 48.76353677 ], [ 17.85284647, 48.76353703 ], [ 17.85278621, 48.76354206 ], [ 17.85273964, 48.76354592 ], [ 17.85269722, 48.76354941 ], [ 17.85262703, 48.76355518 ], [ 17.85259345, 48.76355794 ], [ 17.85244491, 48.76357017 ], [ 17.85239405, 48.76357441 ], [ 17.85243993, 48.76370181 ], [ 17.85241889, 48.76399296 ], [ 17.85248396, 48.76443264 ], [ 17.85250447, 48.7645549 ], [ 17.85255292, 48.76484528 ], [ 17.85267225, 48.7653381 ], [ 17.8528339, 48.76578181 ], [ 17.85298355, 48.76613567 ], [ 17.8515917, 48.76552142 ], [ 17.85048117, 48.76506299 ], [ 17.85013731, 48.76492108 ], [ 17.85007405, 48.76488465 ], [ 17.85003585, 48.76486265 ], [ 17.84872768, 48.76410929 ], [ 17.84871895, 48.76410425 ], [ 17.84841356, 48.76392835 ], [ 17.84840255, 48.76392199 ], [ 17.84820114, 48.76380603 ], [ 17.84810804, 48.76375235 ], [ 17.84802441, 48.76370421 ], [ 17.84801707, 48.76369997 ], [ 17.84764021, 48.76348281 ], [ 17.84753166, 48.76342033 ], [ 17.84738894, 48.76333827 ], [ 17.8472261, 48.76316874 ], [ 17.8471731, 48.76311351 ], [ 17.84716558, 48.76310574 ], [ 17.84709476, 48.76303318 ], [ 17.8469511, 48.76288594 ], [ 17.84690959, 48.76284342 ], [ 17.84677801, 48.76270857 ], [ 17.84616282, 48.76207816 ], [ 17.84614648, 48.76206109 ], [ 17.84598937, 48.7618966 ], [ 17.84597481, 48.76188136 ], [ 17.84592663, 48.76183085 ], [ 17.84590375, 48.7618086 ], [ 17.84585921, 48.76176535 ], [ 17.84584802, 48.76175538 ], [ 17.84575614, 48.76167323 ], [ 17.84568573, 48.76161053 ], [ 17.84567719, 48.76160315 ], [ 17.84565604, 48.76158426 ], [ 17.8456107, 48.76154376 ], [ 17.84539904, 48.76135502 ], [ 17.84537751, 48.76133592 ], [ 17.84529509, 48.76126239 ], [ 17.84525873, 48.76123002 ], [ 17.84540581, 48.76117607 ], [ 17.84560586, 48.76110258 ], [ 17.84568143, 48.76107482 ], [ 17.84571337, 48.76106312 ], [ 17.845934, 48.76098211 ], [ 17.8459907, 48.76096134 ], [ 17.84604467, 48.76094149 ], [ 17.8460559, 48.76093739 ], [ 17.84607206, 48.76092915 ], [ 17.84608176, 48.76092423 ], [ 17.84615154, 48.7608889 ], [ 17.84618636, 48.76087123 ], [ 17.84627246, 48.76082759 ], [ 17.84691683, 48.76050095 ], [ 17.84707006, 48.76042326 ], [ 17.84708034, 48.7604181 ], [ 17.8470899, 48.76041318 ], [ 17.84713498, 48.76039044 ], [ 17.84715482, 48.76038035 ], [ 17.84717138, 48.76037124 ], [ 17.84724633, 48.76033017 ], [ 17.84730413, 48.76029845 ], [ 17.84736828, 48.76026332 ], [ 17.847381, 48.76025633 ], [ 17.84763778, 48.76011546 ], [ 17.8477459, 48.76006168 ], [ 17.8478557, 48.76000565 ], [ 17.84802047, 48.75992153 ], [ 17.84803237, 48.75991547 ], [ 17.8480797, 48.75989134 ], [ 17.8481276, 48.75986606 ], [ 17.8481151, 48.75971864 ], [ 17.84810416, 48.75957872 ], [ 17.84806837, 48.75912022 ], [ 17.84799487, 48.75795872 ], [ 17.8478869, 48.75762291 ], [ 17.84780248, 48.75732619 ], [ 17.84785806, 48.75697725 ], [ 17.84786158, 48.7569548 ], [ 17.8478545, 48.75686785 ], [ 17.84779565, 48.75614299 ], [ 17.84781079, 48.75607807 ], [ 17.84769997, 48.75585461 ], [ 17.84761911, 48.75576979 ], [ 17.84759584, 48.75574951 ], [ 17.84759217, 48.75574639 ], [ 17.84755023, 48.75570999 ], [ 17.84739834, 48.75564398 ], [ 17.84731694, 48.75561142 ], [ 17.84730308, 48.75560995 ], [ 17.84724266, 48.7556034 ], [ 17.84724118, 48.75560322 ], [ 17.84724023, 48.75560316 ], [ 17.84717662, 48.75560292 ], [ 17.84704484, 48.75561165 ], [ 17.84703518, 48.75561233 ], [ 17.84701596, 48.75561306 ], [ 17.84695486, 48.75561532 ], [ 17.84689954, 48.75561739 ], [ 17.84681754, 48.75561377 ], [ 17.84677681, 48.75561203 ], [ 17.84646577, 48.75559852 ], [ 17.84616135, 48.75552833 ], [ 17.84614786, 48.75552516 ], [ 17.84603575, 48.75549932 ], [ 17.84599483, 48.75548122 ], [ 17.84598659, 48.75547756 ], [ 17.84592483, 48.75545015 ], [ 17.84590334, 48.75544063 ], [ 17.84587798, 48.75542943 ], [ 17.84587438, 48.75542786 ], [ 17.84574146, 48.75536887 ], [ 17.84572148, 48.75536324 ], [ 17.84551733, 48.75530581 ], [ 17.8453105, 48.75525679 ], [ 17.84516611, 48.75501252 ], [ 17.84505132, 48.75493115 ], [ 17.84486721, 48.7547242 ], [ 17.8448638, 48.75450138 ], [ 17.84484102, 48.75410796 ], [ 17.8448277, 48.75387686 ], [ 17.8448925, 48.75362503 ], [ 17.84489478, 48.7536165 ], [ 17.84491491, 48.75353824 ], [ 17.84492575, 48.75349646 ], [ 17.84493133, 48.75347494 ], [ 17.84493248, 48.75347058 ], [ 17.84495654, 48.75337676 ], [ 17.84502699, 48.75316998 ], [ 17.84503968, 48.75313263 ], [ 17.84507468, 48.75302981 ], [ 17.84509676, 48.75296514 ], [ 17.84509907, 48.75295832 ], [ 17.84512266, 48.75291423 ], [ 17.84519624, 48.75277645 ], [ 17.84540315, 48.75253594 ], [ 17.84548438, 48.75244161 ], [ 17.84557014, 48.75237067 ], [ 17.84559466, 48.7523504 ], [ 17.84564665, 48.7523074 ], [ 17.84566286, 48.7522998 ], [ 17.84569733, 48.75228365 ], [ 17.84574143, 48.75226302 ], [ 17.84577327, 48.75224815 ], [ 17.84577415, 48.75224766 ], [ 17.84583112, 48.75222095 ], [ 17.84583403, 48.75221968 ], [ 17.84588749, 48.75219456 ], [ 17.84596132, 48.75215162 ], [ 17.84597678, 48.75214253 ], [ 17.8461791, 48.75202483 ], [ 17.84656416, 48.75189626 ], [ 17.84657103, 48.75189396 ], [ 17.84669082, 48.75186726 ], [ 17.84671731, 48.75186137 ], [ 17.84677777, 48.75184787 ], [ 17.84678468, 48.75184631 ], [ 17.84680723, 48.75184126 ], [ 17.84681679, 48.75183931 ], [ 17.84683201, 48.7518359 ], [ 17.84689685, 48.75182131 ], [ 17.84699138, 48.75180834 ], [ 17.84712399, 48.75178865 ], [ 17.84713951, 48.75178508 ], [ 17.84716237, 48.75177978 ], [ 17.84755087, 48.75168943 ], [ 17.84763081, 48.75167232 ], [ 17.84768964, 48.75165972 ], [ 17.84782742, 48.75163032 ], [ 17.84789639, 48.75162438 ], [ 17.84792556, 48.75162181 ], [ 17.84798652, 48.75162144 ], [ 17.84806636, 48.75162086 ], [ 17.84829228, 48.75164628 ], [ 17.84859433, 48.75163973 ], [ 17.84871096, 48.75163975 ], [ 17.84877213, 48.75163985 ], [ 17.84878223, 48.75163991 ], [ 17.84903303, 48.75164047 ], [ 17.84904054, 48.75164048 ], [ 17.84932503, 48.7515832 ], [ 17.84951027, 48.75140928 ], [ 17.84949273, 48.7509787 ], [ 17.84949172, 48.75095344 ], [ 17.84948842, 48.75087079 ], [ 17.8496092, 48.75078852 ], [ 17.84970088, 48.75072607 ], [ 17.8497145, 48.75064055 ], [ 17.84971552, 48.7506342 ], [ 17.84974703, 48.75043617 ], [ 17.84972878, 48.75037762 ], [ 17.84972717, 48.75037247 ], [ 17.8496993, 48.75028282 ], [ 17.84967243, 48.75022439 ], [ 17.84967496, 48.75010353 ], [ 17.84968287, 48.75001189 ], [ 17.84969311, 48.74996654 ], [ 17.84969524, 48.7499571 ], [ 17.84972763, 48.74984346 ], [ 17.84976962, 48.74969609 ], [ 17.84985862, 48.74949612 ], [ 17.84994226, 48.74930629 ], [ 17.84999791, 48.74918052 ], [ 17.85003585, 48.74909494 ], [ 17.85003688, 48.74908155 ], [ 17.85003748, 48.74907328 ], [ 17.85004718, 48.74894996 ], [ 17.85006142, 48.74876623 ], [ 17.85007313, 48.74861757 ], [ 17.85007457, 48.7485874 ], [ 17.85012761, 48.74840259 ], [ 17.85023444, 48.74802551 ], [ 17.85008784, 48.7475407 ], [ 17.85004525, 48.74747256 ], [ 17.85002029, 48.74743285 ], [ 17.85001347, 48.74742196 ], [ 17.85010223, 48.74739437 ], [ 17.85021481, 48.74735946 ], [ 17.85039333, 48.74730398 ], [ 17.85053093, 48.74726291 ], [ 17.85055785, 48.74725488 ], [ 17.85058961, 48.74724543 ], [ 17.85061099, 48.74723895 ], [ 17.85064759, 48.74722807 ], [ 17.85071768, 48.74720712 ], [ 17.85079347, 48.74718444 ], [ 17.85089903, 48.7471529 ], [ 17.85132681, 48.74702509 ], [ 17.85133211, 48.74664548 ], [ 17.85133288, 48.7465945 ], [ 17.85133733, 48.74627625 ], [ 17.85134008, 48.74608478 ], [ 17.85069411, 48.74594705 ], [ 17.85008158, 48.7458164 ], [ 17.8500348, 48.74580616 ], [ 17.84998933, 48.74579627 ], [ 17.84991364, 48.74577977 ], [ 17.84983224, 48.74576211 ], [ 17.84978373, 48.74575149 ], [ 17.84970064, 48.74573517 ], [ 17.84962729, 48.74571953 ], [ 17.8473072, 48.74522464 ], [ 17.84717858, 48.74463985 ], [ 17.84742292, 48.74412878 ], [ 17.84749962, 48.74404528 ], [ 17.84768968, 48.74383834 ], [ 17.84779748, 48.74331728 ], [ 17.84781583, 48.74322618 ], [ 17.84784264, 48.74309369 ], [ 17.84790865, 48.74302924 ], [ 17.84793076, 48.74300764 ], [ 17.84846666, 48.74248433 ], [ 17.84847141, 48.74247965 ], [ 17.84850647, 48.74244538 ], [ 17.84855146, 48.74240151 ], [ 17.84924592, 48.74172307 ], [ 17.84932519, 48.7416456 ], [ 17.84943507, 48.74153838 ], [ 17.84946698, 48.74150717 ], [ 17.84954308, 48.74143284 ], [ 17.8496413, 48.74133683 ], [ 17.8497267, 48.74125359 ], [ 17.84976964, 48.74121167 ], [ 17.8499048, 48.7410796 ], [ 17.85022518, 48.74076657 ], [ 17.85084331, 48.7401628 ], [ 17.85179931, 48.73922891 ], [ 17.85248609, 48.73855803 ], [ 17.85251812, 48.73852683 ], [ 17.85335075, 48.73771342 ], [ 17.85343553, 48.73662698 ], [ 17.8534376, 48.7365992 ], [ 17.8535569, 48.73506981 ], [ 17.85352261, 48.73494166 ], [ 17.85351883, 48.73492752 ], [ 17.85345728, 48.73469739 ], [ 17.85332299, 48.73419572 ], [ 17.85325462, 48.73393998 ], [ 17.85320829, 48.73376667 ], [ 17.85320147, 48.73374097 ], [ 17.85301869, 48.73305791 ], [ 17.85298116, 48.73291774 ], [ 17.85287201, 48.7325097 ], [ 17.85258853, 48.73145046 ], [ 17.85245753, 48.73096063 ], [ 17.85233886, 48.73051689 ], [ 17.85233315, 48.73049505 ], [ 17.8523206, 48.73044859 ], [ 17.85225022, 48.73018569 ], [ 17.85224061, 48.73014961 ], [ 17.85223792, 48.73013942 ], [ 17.85223583, 48.7301318 ], [ 17.85215596, 48.72983292 ], [ 17.85205781, 48.72946592 ], [ 17.85204708, 48.72941812 ], [ 17.85191598, 48.72883446 ], [ 17.85186097, 48.72858973 ], [ 17.85186495, 48.72843663 ], [ 17.85187808, 48.72792148 ], [ 17.85188004, 48.7278471 ], [ 17.85190075, 48.7270324 ], [ 17.85190228, 48.72697695 ], [ 17.85190419, 48.72690202 ], [ 17.85190874, 48.72672412 ], [ 17.85191078, 48.72664323 ], [ 17.85191314, 48.72655117 ], [ 17.85191363, 48.72653187 ], [ 17.85191692, 48.72640546 ], [ 17.85191966, 48.72629391 ], [ 17.85192108, 48.72623927 ], [ 17.85194248, 48.72540186 ], [ 17.85171533, 48.72552329 ], [ 17.85158914, 48.72556026 ], [ 17.85143309, 48.72559796 ], [ 17.85130193, 48.72561358 ], [ 17.8512645, 48.72561484 ], [ 17.85122596, 48.72561612 ], [ 17.85116056, 48.72561821 ], [ 17.85111695, 48.72561773 ], [ 17.85100613, 48.72561662 ], [ 17.85062789, 48.72579709 ], [ 17.8504343, 48.72576179 ], [ 17.85000519, 48.72570816 ], [ 17.84994586, 48.7256782 ], [ 17.84962964, 48.72569661 ], [ 17.84918393, 48.72572244 ], [ 17.84831248, 48.72576799 ], [ 17.8478036, 48.72574627 ], [ 17.84677301, 48.72570983 ], [ 17.84656483, 48.72570895 ], [ 17.84591664, 48.72570362 ], [ 17.84321943, 48.72349583 ], [ 17.84240045, 48.72306524 ], [ 17.84237297, 48.7230567 ], [ 17.84229827, 48.7230333 ], [ 17.84222474, 48.72301033 ], [ 17.84219713, 48.72300179 ], [ 17.84206168, 48.72298238 ], [ 17.84202155, 48.72297651 ], [ 17.84193709, 48.72296443 ], [ 17.84190177, 48.72295931 ], [ 17.84127703, 48.72286967 ], [ 17.84089503, 48.72282004 ], [ 17.84043756, 48.72277133 ], [ 17.83983218, 48.72270155 ], [ 17.83915231, 48.72262472 ], [ 17.83843083, 48.72253488 ], [ 17.83802845, 48.72248951 ], [ 17.83792182, 48.72247103 ], [ 17.83788639, 48.72246662 ], [ 17.83782733, 48.72245943 ], [ 17.83767425, 48.72244029 ], [ 17.83626812, 48.72227854 ], [ 17.83347568, 48.72196586 ], [ 17.83271017, 48.72186491 ], [ 17.8324774, 48.7218338 ], [ 17.83192329, 48.72176645 ], [ 17.83175648, 48.7217528 ], [ 17.83086546, 48.72163275 ], [ 17.830402, 48.72158111 ], [ 17.8292693, 48.72143019 ], [ 17.82917787, 48.72165918 ], [ 17.82580083, 48.72133607 ], [ 17.82549884, 48.72130705 ], [ 17.82543149, 48.72130061 ], [ 17.82534433, 48.72129233 ], [ 17.82502387, 48.72126164 ], [ 17.82502037, 48.72126134 ], [ 17.81873186, 48.72065908 ], [ 17.81253366, 48.72062598 ], [ 17.81229971, 48.71975483 ], [ 17.81052296, 48.71973943 ], [ 17.81039166, 48.71973838 ], [ 17.81033706, 48.71942166 ], [ 17.81028931, 48.71939699 ], [ 17.8076336, 48.72042738 ], [ 17.80739973, 48.72053071 ], [ 17.80740672, 48.72056284 ], [ 17.80726541, 48.72065231 ], [ 17.80680274, 48.72123228 ], [ 17.80670287, 48.72128201 ], [ 17.80668843, 48.72165232 ], [ 17.80684871, 48.72198045 ], [ 17.80720126, 48.72280999 ], [ 17.80751741, 48.72327848 ], [ 17.80761513, 48.72350806 ], [ 17.80770231, 48.72368479 ], [ 17.80788439, 48.72408984 ], [ 17.80798988, 48.72424691 ], [ 17.8081035, 48.7243446 ], [ 17.8083172, 48.72446962 ], [ 17.809415, 48.72421834 ], [ 17.8095331, 48.72430248 ], [ 17.80975293, 48.72445903 ], [ 17.80990979, 48.72458247 ], [ 17.8100585, 48.72471346 ], [ 17.80890056, 48.72502899 ], [ 17.80853387, 48.72512821 ], [ 17.80799406, 48.72529436 ], [ 17.80795712, 48.72530575 ], [ 17.80740225, 48.72550259 ], [ 17.80732309, 48.72556424 ], [ 17.8072482, 48.72557855 ], [ 17.80718775, 48.72559013 ], [ 17.80665793, 48.72583546 ], [ 17.80682856, 48.72592471 ], [ 17.80703061, 48.72603041 ], [ 17.80704038, 48.7261691 ], [ 17.80766564, 48.7264227 ], [ 17.80789364, 48.72661758 ], [ 17.80818322, 48.72701338 ], [ 17.80820131, 48.72708348 ], [ 17.80814396, 48.72711304 ], [ 17.80813212, 48.72714023 ], [ 17.80812357, 48.72715948 ], [ 17.80817368, 48.72724174 ], [ 17.80820507, 48.72729378 ], [ 17.80840328, 48.72739871 ], [ 17.80871523, 48.72769272 ], [ 17.80843222, 48.72784978 ], [ 17.80841356, 48.72786021 ], [ 17.80700701, 48.72864087 ], [ 17.80673302, 48.72880363 ], [ 17.80665997, 48.72884686 ], [ 17.80655222, 48.72891083 ], [ 17.8062428, 48.72905146 ], [ 17.80614115, 48.72915012 ], [ 17.80609252, 48.72924542 ], [ 17.80608053, 48.72931288 ], [ 17.80607176, 48.72936111 ], [ 17.80605051, 48.72947939 ], [ 17.80603925, 48.72954157 ], [ 17.80598537, 48.72940895 ], [ 17.80596045, 48.72934773 ], [ 17.80593386, 48.72934945 ], [ 17.80589431, 48.7293521 ], [ 17.80576552, 48.72947891 ], [ 17.80552516, 48.72938839 ], [ 17.80541535, 48.72964162 ], [ 17.80534188, 48.72984469 ], [ 17.80533376, 48.72991075 ], [ 17.80527405, 48.73001504 ], [ 17.80527646, 48.73013883 ], [ 17.80526428, 48.73022632 ], [ 17.80519842, 48.73033547 ], [ 17.80517395, 48.73037589 ], [ 17.80512906, 48.73063642 ], [ 17.80506564, 48.73082998 ], [ 17.80503978, 48.73095295 ], [ 17.80499291, 48.73103065 ], [ 17.80494997, 48.7312438 ], [ 17.80487932, 48.73133938 ], [ 17.80474595, 48.73163425 ], [ 17.80458797, 48.73181961 ], [ 17.80447078, 48.73194053 ], [ 17.80417719, 48.73208691 ], [ 17.80403589, 48.73218884 ], [ 17.80393792, 48.73224916 ], [ 17.8037921, 48.73240401 ], [ 17.80377717, 48.73247102 ], [ 17.80380361, 48.73263402 ], [ 17.80369343, 48.73278102 ], [ 17.80360293, 48.7330758 ], [ 17.80338242, 48.7336951 ], [ 17.80296375, 48.73423639 ], [ 17.80286511, 48.73441028 ], [ 17.80283541, 48.73446275 ], [ 17.80279406, 48.7345351 ], [ 17.80252491, 48.73490966 ], [ 17.80199279, 48.73564958 ], [ 17.80151615, 48.73625489 ], [ 17.80130898, 48.73653433 ], [ 17.80071994, 48.73732867 ], [ 17.79909818, 48.73784415 ], [ 17.79785652, 48.73835283 ], [ 17.7969237, 48.73907189 ], [ 17.79575161, 48.73955616 ], [ 17.79459225, 48.73974261 ], [ 17.79373436, 48.73984007 ], [ 17.7929465, 48.74023217 ], [ 17.79322052, 48.74058171 ], [ 17.79278775, 48.74076004 ], [ 17.79302766, 48.74113974 ], [ 17.79331095, 48.74144442 ], [ 17.79305295, 48.74158564 ], [ 17.79289067, 48.7416105 ], [ 17.79268328, 48.74169051 ], [ 17.792569, 48.74175686 ], [ 17.79230245, 48.74185764 ], [ 17.7920523, 48.74191227 ], [ 17.7918316, 48.74189969 ], [ 17.7917761, 48.74179939 ], [ 17.79148181, 48.74143759 ], [ 17.79104374, 48.74182692 ], [ 17.79091179, 48.74178906 ], [ 17.79046724, 48.74219046 ], [ 17.79024452, 48.74244473 ], [ 17.79001015, 48.74244694 ], [ 17.78911895, 48.74241093 ], [ 17.78880967, 48.74305712 ], [ 17.78867328, 48.74319763 ], [ 17.78861629, 48.74320291 ], [ 17.78848107, 48.7433341 ], [ 17.78840157, 48.74347989 ], [ 17.78838536, 48.74360182 ], [ 17.78834344, 48.74370737 ], [ 17.78820371, 48.74388362 ], [ 17.78810264, 48.74414866 ], [ 17.78802975, 48.74425692 ], [ 17.7879235, 48.74464801 ], [ 17.78778394, 48.74481704 ], [ 17.78765959, 48.74492514 ], [ 17.78754337, 48.74505911 ], [ 17.78709855, 48.74543077 ], [ 17.78688597, 48.74553113 ], [ 17.78676757, 48.74557312 ], [ 17.78635069, 48.74566361 ], [ 17.78562714, 48.74577519 ], [ 17.78524719, 48.74585158 ], [ 17.78491738, 48.74595516 ], [ 17.78482753, 48.74599419 ], [ 17.78444312, 48.74608874 ], [ 17.78423222, 48.7460949 ], [ 17.78410349, 48.74613653 ], [ 17.78387737, 48.74621537 ], [ 17.78354994, 48.74649439 ], [ 17.7832779, 48.74672984 ], [ 17.78305682, 48.74684882 ], [ 17.78280022, 48.74694051 ], [ 17.78232186, 48.74706914 ], [ 17.78216902, 48.74713277 ], [ 17.78195036, 48.74731358 ], [ 17.78186822, 48.74791378 ], [ 17.78170207, 48.74823761 ], [ 17.78163386, 48.74833179 ], [ 17.78136401, 48.74850939 ], [ 17.78109756, 48.74874282 ], [ 17.78090107, 48.74884406 ], [ 17.78050531, 48.74905965 ], [ 17.78017075, 48.74926923 ], [ 17.77964089, 48.74955591 ], [ 17.77931006, 48.7497407 ], [ 17.778951, 48.74987055 ], [ 17.77763133, 48.7501305 ], [ 17.77759891, 48.75015525 ], [ 17.7774725, 48.75018509 ], [ 17.77739762, 48.75019604 ], [ 17.77725786, 48.75024123 ], [ 17.77710856, 48.75039069 ], [ 17.77705762, 48.7506084 ], [ 17.77703436, 48.75097376 ], [ 17.77699603, 48.75111493 ], [ 17.77694363, 48.75122191 ], [ 17.7768241, 48.75131973 ], [ 17.77668724, 48.75141341 ], [ 17.77659241, 48.7515084 ], [ 17.77650677, 48.75161091 ], [ 17.77599575, 48.75204171 ], [ 17.77589462, 48.75209775 ], [ 17.77568902, 48.75231765 ], [ 17.77515763, 48.75274168 ], [ 17.77497604, 48.75298509 ], [ 17.77491073, 48.75318042 ], [ 17.7748137, 48.75336523 ], [ 17.77466632, 48.75367061 ], [ 17.77464007, 48.75380936 ], [ 17.77462531, 48.75404653 ], [ 17.77463652, 48.75448951 ], [ 17.77460893, 48.75476365 ], [ 17.7745264, 48.75500688 ], [ 17.77428033, 48.75578689 ], [ 17.77426733, 48.75593639 ], [ 17.77429244, 48.75601361 ], [ 17.77436408, 48.75649424 ], [ 17.7743027, 48.75699997 ], [ 17.77430468, 48.75704245 ], [ 17.774376, 48.75728823 ], [ 17.77435557, 48.75752976 ], [ 17.77437381, 48.75760051 ], [ 17.77451922, 48.75786347 ], [ 17.77466689, 48.75834063 ], [ 17.77488043, 48.75857173 ], [ 17.77496063, 48.75881751 ], [ 17.77504242, 48.75909392 ], [ 17.77544763, 48.75961475 ], [ 17.77557962, 48.76001471 ], [ 17.77557233, 48.76026779 ], [ 17.7757222, 48.76061709 ], [ 17.77574215, 48.76081322 ], [ 17.77580511, 48.76087677 ], [ 17.77585197, 48.76090511 ], [ 17.77594111, 48.76095437 ], [ 17.77625336, 48.76107372 ], [ 17.77675417, 48.7611264 ], [ 17.7772858, 48.76121077 ], [ 17.77748019, 48.76120595 ], [ 17.77762896, 48.76118542 ], [ 17.7777956, 48.76115335 ], [ 17.77841116, 48.76114756 ], [ 17.77870782, 48.76117627 ], [ 17.77875672, 48.7612544 ], [ 17.77891365, 48.76181611 ], [ 17.77905903, 48.7621254 ], [ 17.77911157, 48.76221568 ], [ 17.77927285, 48.76245919 ], [ 17.77939333, 48.76273859 ], [ 17.77941106, 48.76289114 ], [ 17.77947877, 48.76301062 ], [ 17.77972263, 48.76323226 ], [ 17.779856, 48.76332577 ], [ 17.78014186, 48.76347863 ], [ 17.7802742, 48.76355609 ], [ 17.78030155, 48.7636721 ], [ 17.78031205, 48.76386268 ], [ 17.78025635, 48.76422958 ], [ 17.78041281, 48.76455354 ], [ 17.78056817, 48.76479461 ], [ 17.78077669, 48.76509511 ], [ 17.78092401, 48.7654699 ], [ 17.78103597, 48.76566957 ], [ 17.7810798, 48.76579581 ], [ 17.78104499, 48.76592545 ], [ 17.78120288, 48.76628815 ], [ 17.78124632, 48.76646006 ], [ 17.78120956, 48.76663402 ], [ 17.781218, 48.76688327 ], [ 17.78148036, 48.76734792 ], [ 17.78158342, 48.76755075 ], [ 17.78182523, 48.76789573 ], [ 17.78188849, 48.76800996 ], [ 17.78201434, 48.76818474 ], [ 17.7820948, 48.76823563 ], [ 17.78217996, 48.76855767 ], [ 17.78190301, 48.76892594 ], [ 17.78160381, 48.76919152 ], [ 17.78130744, 48.76940163 ], [ 17.78133085, 48.76941201 ], [ 17.78456963, 48.7708489 ], [ 17.78463024, 48.77087572 ], [ 17.78747976, 48.77213971 ], [ 17.7875132, 48.77215458 ], [ 17.78763878, 48.77220732 ], [ 17.78809076, 48.77222796 ], [ 17.78892099, 48.77228552 ], [ 17.78944481, 48.77229962 ], [ 17.78956447, 48.77233013 ], [ 17.78971207, 48.77240625 ], [ 17.78973675, 48.77243006 ], [ 17.79001568, 48.77269962 ], [ 17.79012092, 48.77278742 ], [ 17.79054431, 48.77301566 ], [ 17.79094146, 48.77328213 ], [ 17.79118586, 48.77342141 ], [ 17.79155695, 48.77367102 ], [ 17.79180008, 48.77385945 ], [ 17.79183928, 48.77388108 ], [ 17.79193582, 48.77393438 ], [ 17.7920885, 48.77400448 ], [ 17.7924256, 48.77425978 ], [ 17.7927144, 48.77441866 ], [ 17.79293014, 48.77453722 ], [ 17.79347226, 48.77500842 ], [ 17.7937164, 48.77517993 ], [ 17.79384959, 48.77529471 ], [ 17.79431515, 48.77569585 ], [ 17.79467121, 48.77605914 ], [ 17.79503271, 48.77631412 ], [ 17.79507527, 48.77635085 ], [ 17.79513773, 48.7764046 ], [ 17.79519017, 48.7764498 ], [ 17.79545888, 48.77668132 ], [ 17.79550526, 48.77659383 ], [ 17.79563987, 48.77655951 ], [ 17.79567035, 48.77658981 ], [ 17.79628538, 48.77720272 ], [ 17.79629953, 48.77721686 ], [ 17.79634366, 48.77725902 ], [ 17.79637621, 48.77729009 ], [ 17.79701398, 48.77705307 ], [ 17.7973984, 48.77706368 ], [ 17.79796092, 48.7774988 ], [ 17.79848279, 48.77729318 ], [ 17.79889133, 48.77725531 ], [ 17.7990721, 48.77747677 ], [ 17.79967048, 48.77858826 ], [ 17.7996913, 48.77861238 ], [ 17.8011836, 48.77820262 ], [ 17.80126717, 48.77817954 ], [ 17.8013383, 48.77815362 ], [ 17.80167434, 48.77803004 ], [ 17.80187468, 48.77795654 ], [ 17.80228042, 48.7778075 ], [ 17.80322187, 48.77761794 ], [ 17.80352053, 48.77759974 ], [ 17.80405559, 48.77764814 ], [ 17.80609538, 48.77815766 ], [ 17.80671533, 48.77849417 ], [ 17.80761146, 48.77883358 ], [ 17.80755378, 48.77889835 ], [ 17.80753309, 48.77892328 ], [ 17.80748839, 48.77897728 ], [ 17.80733628, 48.77915975 ], [ 17.80780511, 48.77930507 ], [ 17.80787782, 48.77932756 ], [ 17.80789903, 48.77933418 ], [ 17.80792602, 48.77934251 ], [ 17.80794842, 48.77934947 ], [ 17.8086495, 48.7794364 ], [ 17.80898641, 48.77947814 ], [ 17.80958437, 48.77956565 ], [ 17.80978365, 48.77959485 ], [ 17.80958236, 48.77987232 ], [ 17.80954582, 48.77992275 ], [ 17.80950775, 48.77997526 ], [ 17.80945056, 48.78005423 ], [ 17.80941149, 48.78010803 ], [ 17.80937276, 48.78016139 ], [ 17.80933434, 48.78021451 ], [ 17.8092924, 48.78027229 ], [ 17.80928784, 48.78027752 ], [ 17.80924903, 48.78032266 ], [ 17.80910264, 48.78049248 ], [ 17.80904705, 48.78055701 ], [ 17.80892672, 48.78069672 ], [ 17.80878488, 48.7808614 ], [ 17.80871429, 48.78094335 ], [ 17.80861711, 48.7810562 ], [ 17.808427, 48.78127691 ], [ 17.80857041, 48.78131969 ], [ 17.80852586, 48.78139519 ], [ 17.80876796, 48.78143675 ], [ 17.80905066, 48.78148521 ], [ 17.80951647, 48.78156504 ], [ 17.81003693, 48.78101834 ], [ 17.81019328, 48.78108395 ], [ 17.81069577, 48.78129587 ], [ 17.81074107, 48.78131498 ], [ 17.81084394, 48.78135836 ], [ 17.81088306, 48.78137483 ], [ 17.81090358, 48.78138348 ], [ 17.81123647, 48.78152385 ], [ 17.81222765, 48.78193982 ], [ 17.81279886, 48.78140144 ], [ 17.81358305, 48.78163663 ], [ 17.81378311, 48.78145905 ], [ 17.81497461, 48.78185574 ], [ 17.81533638, 48.78197619 ], [ 17.81546375, 48.78187709 ], [ 17.81577947, 48.78204756 ], [ 17.81602161, 48.78217825 ], [ 17.81617109, 48.78225896 ], [ 17.81643726, 48.78240257 ], [ 17.81647311, 48.78242191 ], [ 17.81652636, 48.78245071 ], [ 17.8168591, 48.78215448 ], [ 17.81694238, 48.78219134 ], [ 17.8169783, 48.78220725 ], [ 17.81711565, 48.78226807 ], [ 17.81722829, 48.78231791 ], [ 17.81778144, 48.78256269 ], [ 17.81786641, 48.78260027 ], [ 17.81772849, 48.78271634 ], [ 17.81833518, 48.78297322 ], [ 17.81855431, 48.78306602 ], [ 17.81865606, 48.7829585 ], [ 17.81910299, 48.78315454 ], [ 17.81944237, 48.78330351 ], [ 17.81948978, 48.78325933 ], [ 17.81984574, 48.78339521 ], [ 17.82142206, 48.78399701 ], [ 17.82309669, 48.784638 ], [ 17.82314379, 48.78465603 ], [ 17.82401128, 48.78414942 ], [ 17.82458163, 48.78433479 ], [ 17.8251331, 48.7842245 ], [ 17.82529898, 48.78419131 ], [ 17.82548158, 48.78415481 ], [ 17.82554485, 48.78414212 ], [ 17.82661883, 48.78392727 ], [ 17.82668888, 48.78394047 ], [ 17.82677131, 48.78395604 ], [ 17.82684016, 48.78396898 ], [ 17.82824152, 48.78444771 ], [ 17.82830193, 48.78446836 ], [ 17.82832948, 48.78448448 ], [ 17.82869255, 48.78469725 ], [ 17.82893518, 48.78483155 ], [ 17.82913723, 48.78494325 ], [ 17.82929815, 48.78503231 ], [ 17.8293007, 48.78503364 ], [ 17.82960267, 48.78521994 ], [ 17.82963981, 48.78524279 ], [ 17.82971294, 48.78528795 ], [ 17.82985378, 48.78537489 ], [ 17.83002031, 48.78547766 ], [ 17.83011295, 48.78553484 ], [ 17.83012227, 48.78554056 ], [ 17.83027861, 48.7856567 ], [ 17.83045539, 48.78578799 ], [ 17.83060429, 48.78589863 ], [ 17.8306795, 48.7859544 ], [ 17.83075631, 48.78601144 ], [ 17.83087535, 48.78609994 ], [ 17.83096407, 48.78604075 ], [ 17.83103775, 48.78599149 ], [ 17.83117151, 48.78590225 ], [ 17.83132517, 48.78579958 ], [ 17.83150308, 48.78568078 ], [ 17.83205443, 48.78608884 ], [ 17.8321926, 48.78599436 ], [ 17.83219729, 48.78599112 ], [ 17.8322506, 48.78595461 ], [ 17.83239125, 48.78604994 ], [ 17.83250217, 48.78610642 ], [ 17.83278977, 48.78625265 ], [ 17.83286443, 48.78627597 ], [ 17.83311632, 48.78635464 ], [ 17.8336152, 48.78646753 ], [ 17.83395453, 48.78650997 ], [ 17.83446467, 48.786526 ], [ 17.83460307, 48.78656375 ], [ 17.8349497, 48.78674751 ], [ 17.83519196, 48.7868759 ], [ 17.83568705, 48.78702494 ], [ 17.83592298, 48.78704539 ], [ 17.83609477, 48.78702772 ], [ 17.83623889, 48.78694054 ], [ 17.83626532, 48.78683486 ], [ 17.83680175, 48.78709568 ], [ 17.83749119, 48.78743387 ], [ 17.83770412, 48.78753826 ], [ 17.83832169, 48.78779162 ], [ 17.83873233, 48.7874848 ], [ 17.83877577, 48.78750667 ], [ 17.83954789, 48.7878942 ], [ 17.84011442, 48.78816586 ], [ 17.8396333, 48.78854726 ], [ 17.83998114, 48.78856292 ], [ 17.84031799, 48.78870714 ], [ 17.84054425, 48.78877856 ], [ 17.8406471, 48.7887465 ], [ 17.84125297, 48.78876432 ], [ 17.8411797, 48.78891314 ], [ 17.84126451, 48.78959236 ], [ 17.84135609, 48.78973508 ], [ 17.84138395, 48.78977859 ], [ 17.84145408, 48.78988786 ], [ 17.84159796, 48.79015116 ], [ 17.84173126, 48.79039522 ], [ 17.84177302, 48.79042421 ], [ 17.84189184, 48.79046329 ], [ 17.84253526, 48.79059184 ], [ 17.84300712, 48.79068607 ], [ 17.84332326, 48.7907856 ], [ 17.84324846, 48.79090217 ], [ 17.84324773, 48.79090348 ], [ 17.84321829, 48.7909492 ], [ 17.84319682, 48.79098276 ], [ 17.84322622, 48.79099348 ], [ 17.84327734, 48.7910122 ], [ 17.8433152, 48.79102605 ], [ 17.84356275, 48.79111654 ], [ 17.84368489, 48.79116124 ], [ 17.84401294, 48.79131286 ], [ 17.84412957, 48.7913668 ], [ 17.84414433, 48.79137365 ], [ 17.84473737, 48.79164779 ], [ 17.84473995, 48.79163901 ] ] ] ] } }
]
}
