{
"type": "FeatureCollection",
"name": "gis",
"crs": { "type": "name", "properties": { "name": "urn:ogc:def:crs:OGC:1.3:CRS84" } },
"features": [
{ "type": "Feature", "properties": { "place_id": 187391024, "osm_type": "relation", "osm_id": 20362396, "place_rank": 19, "category": "place", "type": "suburb", "importance": 0.14671842603189131, "addresstype": "suburb", "name": "Stupava", "display_name": "Stupava, Borinka, okres Malacky, Bratislavský kraj, 900 31, Slovensko" }, "geometry": { "type": "Polygon", "coordinates": [ [ [ 17.0101698, 48.2732645 ], [ 17.0102383, 48.2699743 ], [ 17.0102449, 48.2696583 ], [ 17.0167924, 48.2692606 ], [ 17.0174361, 48.2692231 ], [ 17.0221164, 48.2686999 ], [ 17.0222484, 48.2686849 ], [ 17.0223864, 48.2686695 ], [ 17.022744, 48.2686297 ], [ 17.0245435, 48.2683793 ], [ 17.0243701, 48.2680448 ], [ 17.0257269, 48.2675979 ], [ 17.0275757, 48.2669969 ], [ 17.0277954, 48.2673634 ], [ 17.0303761, 48.2667961 ], [ 17.0307147, 48.2675584 ], [ 17.0315697, 48.2675448 ], [ 17.0316356, 48.2674205 ], [ 17.0343934, 48.2657067 ], [ 17.0366386, 48.2662236 ], [ 17.0380543, 48.2636634 ], [ 17.0381146, 48.2627123 ], [ 17.0386868, 48.2627925 ], [ 17.0391731, 48.2630655 ], [ 17.0396307, 48.2629972 ], [ 17.0400626, 48.2635128 ], [ 17.0403309, 48.2638331 ], [ 17.0406505, 48.2642146 ], [ 17.0413159, 48.2650106 ], [ 17.0420363, 48.2646458 ], [ 17.0424147, 48.2649862 ], [ 17.0427686, 48.2653045 ], [ 17.0415763, 48.2660066 ], [ 17.041965, 48.266261 ], [ 17.0422947, 48.266107 ], [ 17.0432617, 48.2668495 ], [ 17.0434132, 48.2669658 ], [ 17.0431423, 48.2671301 ], [ 17.0435554, 48.2675086 ], [ 17.0437753, 48.2678157 ], [ 17.0429197, 48.2679817 ], [ 17.0424033, 48.267958 ], [ 17.0403767, 48.2679771 ], [ 17.0402594, 48.2683357 ], [ 17.0403029, 48.2683978 ], [ 17.0421173, 48.2683405 ], [ 17.0426987, 48.2683625 ], [ 17.0434474, 48.2683406 ], [ 17.0435919, 48.2684499 ], [ 17.0440331, 48.2684105 ], [ 17.0443331, 48.2686785 ], [ 17.0446683, 48.269089 ], [ 17.0448336, 48.2693065 ], [ 17.0448397, 48.2695297 ], [ 17.0451681, 48.2697439 ], [ 17.0454096, 48.2699869 ], [ 17.0455386, 48.2699157 ], [ 17.0456935, 48.2702248 ], [ 17.046081, 48.2703778 ], [ 17.0470453, 48.270901 ], [ 17.0478801, 48.27037 ], [ 17.0479718, 48.2703117 ], [ 17.0484719, 48.2699936 ], [ 17.0485132, 48.2700108 ], [ 17.0495225, 48.2704303 ], [ 17.0502263, 48.2705306 ], [ 17.0513943, 48.2706226 ], [ 17.0520182, 48.2707134 ], [ 17.0525198, 48.2707257 ], [ 17.053869, 48.2694831 ], [ 17.0561625, 48.26831 ], [ 17.0563398, 48.2682007 ], [ 17.0566025, 48.2681264 ], [ 17.0571279, 48.2678335 ], [ 17.057568, 48.2674881 ], [ 17.0577716, 48.267287 ], [ 17.0581262, 48.267016 ], [ 17.0584277, 48.2666176 ], [ 17.0586975, 48.266559 ], [ 17.0591574, 48.2660104 ], [ 17.0594201, 48.2660279 ], [ 17.0619625, 48.2662395 ], [ 17.0618803, 48.2663172 ], [ 17.0614035, 48.2688477 ], [ 17.0564226, 48.2718527 ], [ 17.0565019, 48.27197 ], [ 17.0556567, 48.2724027 ], [ 17.0552573, 48.2725387 ], [ 17.0543154, 48.272854 ], [ 17.0535101, 48.2729631 ], [ 17.0521824, 48.2731091 ], [ 17.051708, 48.273197 ], [ 17.0511877, 48.2732336 ], [ 17.043904, 48.2731275 ], [ 17.0438994, 48.2732512 ], [ 17.042065, 48.2740765 ], [ 17.0402896, 48.2758027 ], [ 17.040074, 48.276021 ], [ 17.0415744, 48.2762542 ], [ 17.0464675, 48.2770622 ], [ 17.0488052, 48.277462 ], [ 17.0493214, 48.2775136 ], [ 17.0580318, 48.2778695 ], [ 17.0587073, 48.2779036 ], [ 17.0609499, 48.2787929 ], [ 17.062138, 48.2790799 ], [ 17.0622734, 48.2792776 ], [ 17.0626069, 48.2797646 ], [ 17.0614485, 48.2803694 ], [ 17.062068, 48.281714 ], [ 17.0619967, 48.2832153 ], [ 17.0605551, 48.2832775 ], [ 17.0605961, 48.2818687 ], [ 17.0599928, 48.2817439 ], [ 17.0591893, 48.2843799 ], [ 17.059425, 48.2857047 ], [ 17.0582428, 48.2866553 ], [ 17.055513, 48.2859266 ], [ 17.0527367, 48.2844532 ], [ 17.047445, 48.2857586 ], [ 17.04737, 48.2851905 ], [ 17.046389, 48.2836489 ], [ 17.0447989, 48.2840776 ], [ 17.0433934, 48.2819723 ], [ 17.0431122, 48.2820497 ], [ 17.0432515, 48.2813955 ], [ 17.0410536, 48.2811726 ], [ 17.0393115, 48.2808446 ], [ 17.0383556, 48.2807188 ], [ 17.0375893, 48.2806087 ], [ 17.0366388, 48.2804477 ], [ 17.036815, 48.2805548 ], [ 17.0370321, 48.2817475 ], [ 17.0359098, 48.2822031 ], [ 17.0338842, 48.2830166 ], [ 17.0331738, 48.2833019 ], [ 17.0355386, 48.2859331 ], [ 17.0382588, 48.2864592 ], [ 17.040951, 48.2891335 ], [ 17.0436215, 48.2882418 ], [ 17.045211, 48.2896605 ], [ 17.0423135, 48.2906799 ], [ 17.044048, 48.2919819 ], [ 17.0443581, 48.2927041 ], [ 17.0434858, 48.2928718 ], [ 17.0430594, 48.2922012 ], [ 17.0411879, 48.2924878 ], [ 17.0406612, 48.2925685 ], [ 17.0393408, 48.2880342 ], [ 17.0333599, 48.2898252 ], [ 17.0312367, 48.2894097 ], [ 17.0315324, 48.2862633 ], [ 17.0257121, 48.2869937 ], [ 17.024861, 48.2839021 ], [ 17.0249523, 48.2838273 ], [ 17.0258375, 48.2831021 ], [ 17.0243775, 48.2818114 ], [ 17.023567, 48.2807914 ], [ 17.0228638, 48.2811808 ], [ 17.0217645, 48.2817945 ], [ 17.0216432, 48.2816817 ], [ 17.0215415, 48.280881 ], [ 17.0211945, 48.2781498 ], [ 17.0199397, 48.2770235 ], [ 17.0194496, 48.2779317 ], [ 17.0186869, 48.2782671 ], [ 17.0183882, 48.2783643 ], [ 17.017122, 48.278346 ], [ 17.0164417, 48.2782637 ], [ 17.0156607, 48.2781692 ], [ 17.0143632, 48.2777803 ], [ 17.0144343, 48.2772361 ], [ 17.0147533, 48.2766228 ], [ 17.0155823, 48.2757466 ], [ 17.0116369, 48.2757183 ], [ 17.0116196, 48.2741848 ], [ 17.0123125, 48.2741634 ], [ 17.0123122, 48.274155 ], [ 17.0122684, 48.2732038 ], [ 17.0101698, 48.2732645 ] ] ] } },
{ "type": "Feature", "properties": { "place_id": 419244908, "osm_type": "relation", "osm_id": 2206939, "place_rank": 22, "category": "place", "type": "cadastral_community", "importance": 0.10671842603189133, "addresstype": "cadastral_community", "name": "Stupava", "display_name": "Stupava, Borinka, okres Malacky, Bratislavský kraj, 900 32, Slovensko" }, "geometry": { "type": "Polygon", "coordinates": [ [ [ 16.9330748, 48.3061083 ], [ 16.9360515, 48.3031959 ], [ 16.9368335, 48.2984976 ], [ 16.9385192, 48.2947774 ], [ 16.9423793, 48.2943561 ], [ 16.9430028, 48.2941685 ], [ 16.9405671, 48.2914178 ], [ 16.9427742, 48.2913873 ], [ 16.9430356, 48.2884872 ], [ 16.9434814, 48.2884411 ], [ 16.9436756, 48.2884659 ], [ 16.9439357, 48.2886004 ], [ 16.9442849, 48.2885182 ], [ 16.9446378, 48.2881854 ], [ 16.9449204, 48.2881915 ], [ 16.9451342, 48.2880807 ], [ 16.9453501, 48.2879012 ], [ 16.945369, 48.2876427 ], [ 16.9455568, 48.287043 ], [ 16.9455622, 48.2869532 ], [ 16.9465079, 48.286633 ], [ 16.947302, 48.2865072 ], [ 16.9477463, 48.2865187 ], [ 16.9496333, 48.2868321 ], [ 16.9510208, 48.2853263 ], [ 16.9530574, 48.2849313 ], [ 16.9537853, 48.2849375 ], [ 16.9541122, 48.2849873 ], [ 16.9549519, 48.2856226 ], [ 16.9554942, 48.2858602 ], [ 16.9560356, 48.2849607 ], [ 16.9565014, 48.2851285 ], [ 16.9573629, 48.2853393 ], [ 16.9575729, 48.285459 ], [ 16.9578568, 48.2854582 ], [ 16.9580381, 48.2856876 ], [ 16.9580106, 48.2858191 ], [ 16.9580925, 48.2858429 ], [ 16.958774, 48.2858232 ], [ 16.9588657, 48.2857007 ], [ 16.9590629, 48.2856736 ], [ 16.9591972, 48.2854964 ], [ 16.9594282, 48.2854638 ], [ 16.9592746, 48.2849967 ], [ 16.9625469, 48.2855762 ], [ 16.959839, 48.2818383 ], [ 16.9609521, 48.2778602 ], [ 16.9601888, 48.2740905 ], [ 16.9592488, 48.2714331 ], [ 16.959172, 48.2713928 ], [ 16.9587989, 48.2711884 ], [ 16.9589516, 48.271077 ], [ 16.9595232, 48.2707492 ], [ 16.9596392, 48.2706227 ], [ 16.9598477, 48.2699797 ], [ 16.9598523, 48.2694862 ], [ 16.9595007, 48.2683032 ], [ 16.9593737, 48.2677487 ], [ 16.9591919, 48.26748 ], [ 16.9592053, 48.2671604 ], [ 16.959329, 48.266612 ], [ 16.9591986, 48.2662356 ], [ 16.9589531, 48.2658374 ], [ 16.9586822, 48.2654517 ], [ 16.9586734, 48.2654353 ], [ 16.9584771, 48.2650685 ], [ 16.960275, 48.264861 ], [ 16.9615941, 48.2646447 ], [ 16.9617552, 48.2649034 ], [ 16.9617209, 48.2650466 ], [ 16.9609539, 48.2659623 ], [ 16.9607841, 48.2666558 ], [ 16.9696105, 48.2687518 ], [ 16.9717841, 48.267699 ], [ 16.9719779, 48.2676728 ], [ 16.9789182, 48.2671226 ], [ 16.9789215, 48.267568 ], [ 16.9868527, 48.2655055 ], [ 16.9877738, 48.265266 ], [ 16.989084, 48.2648474 ], [ 16.9905507, 48.264485 ], [ 16.9930913, 48.2651196 ], [ 16.9933586, 48.2653861 ], [ 16.9977086, 48.2697232 ], [ 17.0073966, 48.2687303 ], [ 17.0088158, 48.2677179 ], [ 17.009619, 48.2679606 ], [ 17.0098437, 48.2695805 ], [ 17.0103983, 48.2693972 ], [ 17.0110227, 48.2694423 ], [ 17.0170869, 48.2693414 ], [ 17.0227406, 48.2686386 ], [ 17.0228867, 48.2686204 ], [ 17.0230196, 48.2686039 ], [ 17.0229521, 48.2687892 ], [ 17.0229808, 48.2688467 ], [ 17.0230415, 48.2689683 ], [ 17.0231132, 48.2691121 ], [ 17.0231726, 48.2691348 ], [ 17.0235786, 48.2692899 ], [ 17.0234994, 48.2689465 ], [ 17.0247263, 48.268766 ], [ 17.0243561, 48.2680468 ], [ 17.0267687, 48.2672311 ], [ 17.0275757, 48.2669969 ], [ 17.0277954, 48.2673634 ], [ 17.0303734, 48.266793 ], [ 17.0304197, 48.266778 ], [ 17.0304652, 48.2670433 ], [ 17.0306968, 48.2675756 ], [ 17.0315697, 48.2675448 ], [ 17.0316356, 48.2674205 ], [ 17.0318716, 48.2674636 ], [ 17.0321555, 48.2669656 ], [ 17.0324214, 48.2670075 ], [ 17.0328109, 48.2664895 ], [ 17.0337076, 48.2666389 ], [ 17.0338492, 48.2664835 ], [ 17.0339441, 48.2662234 ], [ 17.0344688, 48.2660231 ], [ 17.0348968, 48.2657438 ], [ 17.0350953, 48.2655528 ], [ 17.0355407, 48.2647777 ], [ 17.0372709, 48.2650844 ], [ 17.0376246, 48.2646047 ], [ 17.0379816, 48.2636063 ], [ 17.0378642, 48.2624605 ], [ 17.03802, 48.2621524 ], [ 17.0385365, 48.261443 ], [ 17.0391887, 48.2607045 ], [ 17.0397749, 48.260054 ], [ 17.0414158, 48.2590972 ], [ 17.0430818, 48.258368 ], [ 17.0437764, 48.2580255 ], [ 17.0444062, 48.2576368 ], [ 17.0448937, 48.2574633 ], [ 17.0452309, 48.257892 ], [ 17.0463742, 48.2597261 ], [ 17.0472539, 48.2596111 ], [ 17.0476361, 48.2594587 ], [ 17.0478831, 48.2592539 ], [ 17.0480841, 48.259175 ], [ 17.0491837, 48.2589834 ], [ 17.0500999, 48.2585577 ], [ 17.0505718, 48.2584284 ], [ 17.0514925, 48.2582719 ], [ 17.0515802, 48.2582779 ], [ 17.051606, 48.2582809 ], [ 17.0516004, 48.2583686 ], [ 17.0519387, 48.2587838 ], [ 17.0521978, 48.2589257 ], [ 17.052429, 48.2589697 ], [ 17.0524238, 48.2589873 ], [ 17.052151, 48.2597745 ], [ 17.0534487, 48.2605568 ], [ 17.0537909, 48.2607033 ], [ 17.0539762, 48.2609963 ], [ 17.0540545, 48.2612659 ], [ 17.0541311, 48.2613007 ], [ 17.0553769, 48.2612658 ], [ 17.055149, 48.2620208 ], [ 17.0550979, 48.2628582 ], [ 17.0549718, 48.2631794 ], [ 17.0549514, 48.2636402 ], [ 17.0546786, 48.2640883 ], [ 17.0543107, 48.264314 ], [ 17.0540825, 48.2643799 ], [ 17.0551033, 48.2650585 ], [ 17.0570993, 48.2660004 ], [ 17.0572273, 48.2661095 ], [ 17.0567097, 48.2666787 ], [ 17.0565062, 48.2668197 ], [ 17.0560063, 48.2668908 ], [ 17.0556828, 48.267035 ], [ 17.0565065, 48.2675926 ], [ 17.0568741, 48.2679161 ], [ 17.0573274, 48.267399 ], [ 17.0580835, 48.2667657 ], [ 17.0582298, 48.2667272 ], [ 17.0586258, 48.2661461 ], [ 17.058697, 48.2658684 ], [ 17.0588237, 48.2656985 ], [ 17.0591886, 48.2653088 ], [ 17.059787, 48.2648206 ], [ 17.0604014, 48.2650421 ], [ 17.0612684, 48.2655703 ], [ 17.0627432, 48.2652232 ], [ 17.0701072, 48.2660588 ], [ 17.0701365, 48.2662315 ], [ 17.06981, 48.2663867 ], [ 17.0696864, 48.2662042 ], [ 17.0695977, 48.2661925 ], [ 17.0695423, 48.2662441 ], [ 17.0697414, 48.2666036 ], [ 17.0694217, 48.2663626 ], [ 17.0693698, 48.2663941 ], [ 17.0695487, 48.266551 ], [ 17.0695883, 48.2666699 ], [ 17.0694623, 48.2666919 ], [ 17.0698887, 48.2672068 ], [ 17.0697288, 48.2672298 ], [ 17.0698127, 48.2673565 ], [ 17.0696447, 48.2672693 ], [ 17.0695663, 48.2672741 ], [ 17.0697986, 48.2675487 ], [ 17.0695693, 48.2675987 ], [ 17.0695971, 48.2677046 ], [ 17.0694758, 48.2676838 ], [ 17.0694296, 48.2677145 ], [ 17.0694111, 48.2678195 ], [ 17.0692476, 48.2679633 ], [ 17.0693101, 48.2680862 ], [ 17.0691377, 48.2681862 ], [ 17.0692929, 48.2683708 ], [ 17.0691903, 48.2684339 ], [ 17.0691452, 48.2685416 ], [ 17.0690488, 48.2685848 ], [ 17.0688617, 48.268807 ], [ 17.0687634, 48.2688308 ], [ 17.0686524, 48.2690584 ], [ 17.068456, 48.2690088 ], [ 17.0683341, 48.2690919 ], [ 17.0683447, 48.2691618 ], [ 17.0681333, 48.2692151 ], [ 17.0681562, 48.2693533 ], [ 17.0679327, 48.2694375 ], [ 17.068004, 48.2696628 ], [ 17.0678493, 48.2698512 ], [ 17.0669655, 48.2705571 ], [ 17.0673438, 48.2707898 ], [ 17.0672308, 48.2708306 ], [ 17.0672075, 48.2709159 ], [ 17.0670166, 48.271086 ], [ 17.0669297, 48.2710282 ], [ 17.0668035, 48.271179 ], [ 17.0670392, 48.2715215 ], [ 17.0668579, 48.2716889 ], [ 17.0668461, 48.2718427 ], [ 17.0661077, 48.2725599 ], [ 17.0653017, 48.2735637 ], [ 17.0642781, 48.2744646 ], [ 17.0634765, 48.2752949 ], [ 17.0635488, 48.2753325 ], [ 17.06282, 48.2758706 ], [ 17.0621521, 48.276258 ], [ 17.0604556, 48.2770295 ], [ 17.058748, 48.2776486 ], [ 17.0588931, 48.2779173 ], [ 17.0593324, 48.2782276 ], [ 17.0595794, 48.2783709 ], [ 17.0601849, 48.2784642 ], [ 17.0605399, 48.2788149 ], [ 17.0608477, 48.2788065 ], [ 17.0610672, 48.279 ], [ 17.0611445, 48.2789861 ], [ 17.0613993, 48.2787368 ], [ 17.0615369, 48.278772 ], [ 17.0615536, 48.2788669 ], [ 17.0616436, 48.2788934 ], [ 17.0626069, 48.2797646 ], [ 17.0625732, 48.2797951 ], [ 17.0635557, 48.2795876 ], [ 17.0649973, 48.2789375 ], [ 17.0656975, 48.2784112 ], [ 17.0663823, 48.2780431 ], [ 17.0668676, 48.277676 ], [ 17.0672759, 48.2772418 ], [ 17.0686723, 48.2768711 ], [ 17.0689576, 48.2768704 ], [ 17.0699564, 48.2763665 ], [ 17.071201, 48.2752589 ], [ 17.0708414, 48.2747429 ], [ 17.0709154, 48.2743321 ], [ 17.0711825, 48.273756 ], [ 17.0714267, 48.2734595 ], [ 17.0716079, 48.2730809 ], [ 17.0727427, 48.2715252 ], [ 17.0729288, 48.2710658 ], [ 17.0734074, 48.2702305 ], [ 17.0739368, 48.2695545 ], [ 17.0743026, 48.2692699 ], [ 17.0752777, 48.2689485 ], [ 17.0774131, 48.2683625 ], [ 17.0788893, 48.2681995 ], [ 17.0791805, 48.2679662 ], [ 17.0794049, 48.2678718 ], [ 17.0798534, 48.2678933 ], [ 17.080295, 48.2679889 ], [ 17.0812455, 48.2680885 ], [ 17.0815793, 48.2680297 ], [ 17.081597, 48.2684027 ], [ 17.0814878, 48.2688518 ], [ 17.081519, 48.2690258 ], [ 17.0817892, 48.2692125 ], [ 17.0823077, 48.2693358 ], [ 17.0834174, 48.2694948 ], [ 17.0837591, 48.2695078 ], [ 17.0839675, 48.2696666 ], [ 17.0954945, 48.2678488 ], [ 17.0960888, 48.2597401 ], [ 17.0974522, 48.2597428 ], [ 17.0979472, 48.2596885 ], [ 17.098223, 48.2596215 ], [ 17.0987181, 48.2594056 ], [ 17.0991616, 48.2591789 ], [ 17.099875, 48.25899 ], [ 17.1008309, 48.2585891 ], [ 17.1010881, 48.2585274 ], [ 17.1013474, 48.2583191 ], [ 17.101743, 48.2581776 ], [ 17.1026719, 48.2579614 ], [ 17.1041946, 48.2572159 ], [ 17.1045947, 48.2569042 ], [ 17.1050221, 48.2566516 ], [ 17.1054076, 48.2563027 ], [ 17.1057686, 48.2561927 ], [ 17.106905, 48.2554854 ], [ 17.1078178, 48.2547157 ], [ 17.1085313, 48.2538555 ], [ 17.1089088, 48.2531139 ], [ 17.1091587, 48.2529601 ], [ 17.1102098, 48.2525286 ], [ 17.1108978, 48.2524779 ], [ 17.113412, 48.2529509 ], [ 17.1144761, 48.253364 ], [ 17.1147753, 48.2539177 ], [ 17.1141095, 48.2542354 ], [ 17.11376, 48.2545598 ], [ 17.1132908, 48.2553596 ], [ 17.11325, 48.2554959 ], [ 17.1133058, 48.2557075 ], [ 17.1136831, 48.2561815 ], [ 17.1150104, 48.2564396 ], [ 17.116511, 48.2571989 ], [ 17.1170126, 48.2576135 ], [ 17.1171741, 48.2575115 ], [ 17.1172056, 48.2579962 ], [ 17.1170968, 48.2580847 ], [ 17.1171918, 48.2582879 ], [ 17.1175417, 48.2586042 ], [ 17.1183631, 48.2590495 ], [ 17.1184802, 48.2591725 ], [ 17.118484, 48.2593032 ], [ 17.1182891, 48.2595034 ], [ 17.1183346, 48.2595897 ], [ 17.1181086, 48.2602718 ], [ 17.1181539, 48.2606534 ], [ 17.1181153, 48.2608237 ], [ 17.1180623, 48.260951 ], [ 17.1179091, 48.2611877 ], [ 17.1178487, 48.2613819 ], [ 17.1177542, 48.2617012 ], [ 17.1177698, 48.2620308 ], [ 17.1182562, 48.2627217 ], [ 17.1188412, 48.2632409 ], [ 17.1188901, 48.2633583 ], [ 17.1189423, 48.2635099 ], [ 17.1189706, 48.2638936 ], [ 17.1190287, 48.2643276 ], [ 17.1191256, 48.2645212 ], [ 17.1191101, 48.2649991 ], [ 17.1191068, 48.2654513 ], [ 17.1193146, 48.2657599 ], [ 17.1196973, 48.2663325 ], [ 17.1199977, 48.2666173 ], [ 17.1203871, 48.2668363 ], [ 17.1211579, 48.2670366 ], [ 17.1214652, 48.2672011 ], [ 17.1216596, 48.267392 ], [ 17.1217204, 48.2675787 ], [ 17.1216653, 48.2677175 ], [ 17.1215588, 48.2678245 ], [ 17.1213011, 48.2679037 ], [ 17.1205176, 48.2682502 ], [ 17.1203112, 48.2684836 ], [ 17.120312, 48.2688204 ], [ 17.1204285, 48.2691886 ], [ 17.1202719, 48.2694356 ], [ 17.1201438, 48.2698056 ], [ 17.1203685, 48.270031 ], [ 17.1203826, 48.2702121 ], [ 17.120239, 48.2705828 ], [ 17.1200811, 48.2709788 ], [ 17.1200892, 48.2710702 ], [ 17.1202037, 48.2716605 ], [ 17.1203819, 48.2718445 ], [ 17.1206059, 48.2720276 ], [ 17.1209462, 48.2721589 ], [ 17.1213118, 48.2722332 ], [ 17.1215199, 48.2722375 ], [ 17.1217521, 48.2721905 ], [ 17.1221125, 48.2718685 ], [ 17.1224542, 48.2717808 ], [ 17.1229102, 48.271737 ], [ 17.1230614, 48.2720965 ], [ 17.1228154, 48.2723839 ], [ 17.1224725, 48.2726723 ], [ 17.1222466, 48.2730266 ], [ 17.1214923, 48.2736921 ], [ 17.1205727, 48.2741926 ], [ 17.1202765, 48.2743987 ], [ 17.1200509, 48.274677 ], [ 17.1199507, 48.2749281 ], [ 17.1202898, 48.2754333 ], [ 17.1204262, 48.275529 ], [ 17.1205395, 48.2760133 ], [ 17.1205593, 48.2764867 ], [ 17.1204177, 48.2766601 ], [ 17.1202183, 48.2767911 ], [ 17.1200459, 48.2775331 ], [ 17.1207396, 48.2778354 ], [ 17.1216969, 48.2780322 ], [ 17.1226326, 48.278353 ], [ 17.1236616, 48.2785142 ], [ 17.1241651, 48.2786045 ], [ 17.1245873, 48.2787675 ], [ 17.1250812, 48.2795297 ], [ 17.1250975, 48.2797524 ], [ 17.1250433, 48.2798685 ], [ 17.1246959, 48.2801015 ], [ 17.1250215, 48.2805766 ], [ 17.1257206, 48.2808904 ], [ 17.1264129, 48.2812013 ], [ 17.1277267, 48.2816494 ], [ 17.1282303, 48.2816371 ], [ 17.1284553, 48.2815597 ], [ 17.1287098, 48.2823102 ], [ 17.1286712, 48.2826161 ], [ 17.1287824, 48.2827252 ], [ 17.1289103, 48.2831429 ], [ 17.1290266, 48.2832864 ], [ 17.1290378, 48.2836317 ], [ 17.1288787, 48.2836605 ], [ 17.1287532, 48.2837515 ], [ 17.1287421, 48.2839745 ], [ 17.1285503, 48.2842293 ], [ 17.1283772, 48.2847137 ], [ 17.1281498, 48.2850859 ], [ 17.1278637, 48.2853883 ], [ 17.1277461, 48.2857036 ], [ 17.127598, 48.2858165 ], [ 17.1274852, 48.2863653 ], [ 17.1271193, 48.2866467 ], [ 17.1269516, 48.2866791 ], [ 17.1268621, 48.2868557 ], [ 17.1265864, 48.2869609 ], [ 17.1264042, 48.2869759 ], [ 17.1263047, 48.2870899 ], [ 17.126235, 48.2872637 ], [ 17.1263258, 48.2874067 ], [ 17.1262862, 48.2875113 ], [ 17.1262275, 48.2875961 ], [ 17.126113, 48.2876499 ], [ 17.1258528, 48.2879012 ], [ 17.1257339, 48.2880711 ], [ 17.1256577, 48.2881841 ], [ 17.1255831, 48.2883747 ], [ 17.12561, 48.2884712 ], [ 17.1259608, 48.2886215 ], [ 17.1259826, 48.2887677 ], [ 17.126067, 48.2890718 ], [ 17.1257558, 48.2891196 ], [ 17.1201739, 48.2910374 ], [ 17.119788, 48.2910973 ], [ 17.1195121, 48.2912254 ], [ 17.1192694, 48.291218 ], [ 17.119172, 48.2913528 ], [ 17.1188741, 48.291345 ], [ 17.1179096, 48.2917995 ], [ 17.117694, 48.2918032 ], [ 17.1175373, 48.2921158 ], [ 17.1167956, 48.2924554 ], [ 17.1161178, 48.2926435 ], [ 17.1160044, 48.2927544 ], [ 17.1157254, 48.2927976 ], [ 17.1156674, 48.2929339 ], [ 17.1154542, 48.2929386 ], [ 17.1152983, 48.2930728 ], [ 17.1150828, 48.2931157 ], [ 17.1150055, 48.2932225 ], [ 17.1146237, 48.293356 ], [ 17.1144879, 48.2933298 ], [ 17.1141936, 48.2935133 ], [ 17.1139743, 48.2934805 ], [ 17.1137464, 48.2936538 ], [ 17.1132608, 48.2937959 ], [ 17.1130859, 48.2938045 ], [ 17.1128565, 48.2939156 ], [ 17.1127764, 48.29403 ], [ 17.11262, 48.2940407 ], [ 17.1116768, 48.2945533 ], [ 17.1115544, 48.2947349 ], [ 17.1113296, 48.2947547 ], [ 17.1109429, 48.294881 ], [ 17.1104064, 48.2948175 ], [ 17.1101975, 48.2948612 ], [ 17.1095947, 48.2952227 ], [ 17.1094286, 48.2952791 ], [ 17.1092995, 48.2952039 ], [ 17.1093249, 48.2953219 ], [ 17.1089576, 48.295392 ], [ 17.10895, 48.2955056 ], [ 17.1085429, 48.2954712 ], [ 17.1083694, 48.2957814 ], [ 17.1079856, 48.2957057 ], [ 17.1076375, 48.2960021 ], [ 17.1072901, 48.2960304 ], [ 17.1072577, 48.2961435 ], [ 17.1071705, 48.2961987 ], [ 17.1067223, 48.296157 ], [ 17.1063258, 48.2964309 ], [ 17.1061224, 48.2964339 ], [ 17.1061048, 48.2965492 ], [ 17.1058852, 48.2966078 ], [ 17.1056317, 48.2967533 ], [ 17.1054657, 48.2967432 ], [ 17.1052578, 48.2968409 ], [ 17.1051694, 48.297014 ], [ 17.104448, 48.2970394 ], [ 17.104077, 48.2972205 ], [ 17.1023979, 48.2979786 ], [ 17.1003874, 48.2987056 ], [ 17.0999079, 48.2982957 ], [ 17.0993007, 48.298242 ], [ 17.0988576, 48.2977749 ], [ 17.0984495, 48.2976467 ], [ 17.0977324, 48.2979866 ], [ 17.0968711, 48.298099 ], [ 17.0966061, 48.2980585 ], [ 17.096673, 48.2977636 ], [ 17.0955632, 48.2978228 ], [ 17.0956915, 48.298176 ], [ 17.0947619, 48.2984317 ], [ 17.0947837, 48.2985893 ], [ 17.0944914, 48.2985953 ], [ 17.0940698, 48.298691 ], [ 17.0934634, 48.2988467 ], [ 17.0931521, 48.2989894 ], [ 17.0919095, 48.2992101 ], [ 17.0892755, 48.2993808 ], [ 17.0856519, 48.2997994 ], [ 17.0850129, 48.3001176 ], [ 17.084265, 48.3002373 ], [ 17.083853, 48.3004354 ], [ 17.0820114, 48.3009341 ], [ 17.0766893, 48.3021049 ], [ 17.0752754, 48.3021422 ], [ 17.0734011, 48.3017539 ], [ 17.0731644, 48.3019286 ], [ 17.0731797, 48.3020348 ], [ 17.0729156, 48.3022724 ], [ 17.0724875, 48.302468 ], [ 17.0715645, 48.3032674 ], [ 17.0708377, 48.3037571 ], [ 17.0706378, 48.3040135 ], [ 17.0698844, 48.3043702 ], [ 17.069646, 48.304363 ], [ 17.0691939, 48.30466 ], [ 17.0681919, 48.3047716 ], [ 17.0678025, 48.304944 ], [ 17.0674794, 48.3050236 ], [ 17.0665328, 48.3051491 ], [ 17.0660476, 48.3053049 ], [ 17.0655536, 48.3053345 ], [ 17.0652172, 48.3054574 ], [ 17.0640906, 48.305713 ], [ 17.0635415, 48.3056553 ], [ 17.0628824, 48.3053855 ], [ 17.0624548, 48.3054897 ], [ 17.0617437, 48.3055093 ], [ 17.0611605, 48.3057509 ], [ 17.0606366, 48.3062802 ], [ 17.0603909, 48.3067122 ], [ 17.0599254, 48.3068624 ], [ 17.0596639, 48.307154 ], [ 17.0593068, 48.3075117 ], [ 17.0586993, 48.3079676 ], [ 17.0578973, 48.3079175 ], [ 17.0575584, 48.3080606 ], [ 17.0571036, 48.3077945 ], [ 17.0567272, 48.3076661 ], [ 17.0549511, 48.3074334 ], [ 17.0541924, 48.3072493 ], [ 17.0532768, 48.3070186 ], [ 17.0528243, 48.3070252 ], [ 17.0482075, 48.3091106 ], [ 17.047229, 48.3091794 ], [ 17.0442913, 48.3090221 ], [ 17.0404015, 48.3087816 ], [ 17.0395482, 48.308712 ], [ 17.0395587, 48.3086438 ], [ 17.0359814, 48.3083984 ], [ 17.0359655, 48.3085183 ], [ 17.034889, 48.3085036 ], [ 17.0348255, 48.3086122 ], [ 17.0342138, 48.3086246 ], [ 17.0331316, 48.3087553 ], [ 17.0315475, 48.308725 ], [ 17.0300287, 48.3089693 ], [ 17.0282808, 48.3091539 ], [ 17.0278147, 48.3091661 ], [ 17.0274478, 48.3092618 ], [ 17.0221171, 48.3098489 ], [ 17.0221482, 48.3093604 ], [ 17.0223149, 48.309269 ], [ 17.0224834, 48.3089438 ], [ 17.0229334, 48.3083949 ], [ 17.0231047, 48.3076892 ], [ 17.0234196, 48.3072224 ], [ 17.0237916, 48.3068297 ], [ 17.0237888, 48.3066443 ], [ 17.0233121, 48.306284 ], [ 17.0226488, 48.3064339 ], [ 17.0225107, 48.3065332 ], [ 17.0221826, 48.3066564 ], [ 17.0212885, 48.3068268 ], [ 17.0201028, 48.3064191 ], [ 17.0194956, 48.3060816 ], [ 17.0192044, 48.3058651 ], [ 17.0178167, 48.3061779 ], [ 17.0177745, 48.3065006 ], [ 17.017243, 48.3067183 ], [ 17.0166588, 48.3070366 ], [ 17.0163731, 48.3070713 ], [ 17.015627, 48.3074168 ], [ 17.0156081, 48.3076022 ], [ 17.0152285, 48.3080483 ], [ 17.0152265, 48.3088157 ], [ 17.0151102, 48.3089207 ], [ 17.015023, 48.3091373 ], [ 17.0150546, 48.3093168 ], [ 17.0153257, 48.3095139 ], [ 17.015356, 48.3096032 ], [ 17.0149685, 48.3095833 ], [ 17.0130669, 48.3091705 ], [ 17.0127616, 48.3091406 ], [ 17.0124216, 48.3087806 ], [ 17.0120029, 48.3084514 ], [ 17.0117553, 48.3083102 ], [ 17.011226, 48.3081789 ], [ 17.0108627, 48.3080297 ], [ 17.0101822, 48.3082284 ], [ 17.009521, 48.3082158 ], [ 17.0093672, 48.3079929 ], [ 17.0091514, 48.3079373 ], [ 17.0088283, 48.3076938 ], [ 17.0086627, 48.3076348 ], [ 17.0081968, 48.3076086 ], [ 17.0074471, 48.3077076 ], [ 17.0064165, 48.3076256 ], [ 17.0062557, 48.3079965 ], [ 17.0061408, 48.3079356 ], [ 17.0059734, 48.3082088 ], [ 17.005667, 48.3083663 ], [ 17.0056491, 48.3083878 ], [ 17.005613, 48.3083434 ], [ 17.0048209, 48.3066552 ], [ 17.0047197, 48.3064877 ], [ 17.0044449, 48.3062825 ], [ 17.0042252, 48.3061464 ], [ 17.0036677, 48.3060054 ], [ 17.0027615, 48.3054663 ], [ 17.0026452, 48.3056267 ], [ 17.0018862, 48.3054198 ], [ 17.0013787, 48.3052211 ], [ 17.0010412, 48.3049676 ], [ 16.9998475, 48.3046223 ], [ 16.999644, 48.3045257 ], [ 17.0002369, 48.3037054 ], [ 17.0002965, 48.3030009 ], [ 17.0005621, 48.3020587 ], [ 17.001, 48.3016672 ], [ 17.001708, 48.302057 ], [ 17.001845, 48.3019882 ], [ 17.0023623, 48.3023583 ], [ 17.0026058, 48.3026734 ], [ 17.0026321, 48.3028208 ], [ 17.0024333, 48.3029519 ], [ 17.0027357, 48.3032698 ], [ 17.0031021, 48.3033662 ], [ 17.0037858, 48.3036492 ], [ 17.003869, 48.3036642 ], [ 17.004031, 48.3035803 ], [ 17.0045839, 48.3036204 ], [ 17.0056252, 48.3039755 ], [ 17.0065327, 48.3041587 ], [ 17.0069796, 48.3043079 ], [ 17.0080495, 48.3032726 ], [ 17.0077101, 48.3031183 ], [ 17.005514, 48.3018378 ], [ 17.004129, 48.3008941 ], [ 17.0056533, 48.3000097 ], [ 17.0054659, 48.2998896 ], [ 17.0046427, 48.2997247 ], [ 17.0042633, 48.299764 ], [ 17.0028762, 48.2993797 ], [ 17.0015108, 48.2995899 ], [ 17.0008688, 48.2995018 ], [ 17.0002607, 48.2992815 ], [ 17.0001479, 48.2993553 ], [ 16.9999964, 48.2992715 ], [ 16.9995977, 48.2988768 ], [ 16.9977183, 48.2967849 ], [ 16.9899406, 48.3001293 ], [ 16.9894783, 48.3001347 ], [ 16.9885626, 48.2999996 ], [ 16.9878047, 48.2999383 ], [ 16.9876012, 48.2999572 ], [ 16.9875392, 48.2999958 ], [ 16.9872065, 48.3007899 ], [ 16.9857637, 48.3018514 ], [ 16.9847705, 48.3026839 ], [ 16.984157, 48.3027909 ], [ 16.9834692, 48.3029944 ], [ 16.9830889, 48.3030441 ], [ 16.9826555, 48.3032279 ], [ 16.982318, 48.3031651 ], [ 16.9821418, 48.3032027 ], [ 16.9819064, 48.3026937 ], [ 16.9817203, 48.3024946 ], [ 16.9813652, 48.3024261 ], [ 16.9811658, 48.3024325 ], [ 16.9806366, 48.2959276 ], [ 16.9755558, 48.295648 ], [ 16.9731426, 48.2957665 ], [ 16.968074, 48.2958898 ], [ 16.9700471, 48.2929936 ], [ 16.9682357, 48.289231 ], [ 16.9676269, 48.2856685 ], [ 16.9622039, 48.2893767 ], [ 16.9632778, 48.2969255 ], [ 16.9644566, 48.300569 ], [ 16.9658404, 48.3005197 ], [ 16.9663174, 48.3035668 ], [ 16.964218, 48.3046798 ], [ 16.962141, 48.3055232 ], [ 16.9603276, 48.3064798 ], [ 16.9600744, 48.3065606 ], [ 16.9588909, 48.3067276 ], [ 16.9565639, 48.3069571 ], [ 16.9542433, 48.3071248 ], [ 16.951844, 48.307227 ], [ 16.9458561, 48.3071739 ], [ 16.9442419, 48.3070445 ], [ 16.9402282, 48.3067227 ], [ 16.9391158, 48.306587 ], [ 16.9335729, 48.3062659 ], [ 16.9330748, 48.3061083 ] ] ] } }
]
}
