{
"type": "FeatureCollection",
"name": "gis",
"crs": { "type": "name", "properties": { "name": "urn:ogc:def:crs:OGC:1.3:CRS84" } },
"features": [
{ "type": "Feature", "properties": { "@featureType": "CadastralZoning", "beginLifespanVersion": { "@nilReason": "http://inspire.ec.europa.eu/codelist/VoidReasonValue/Unpopulated", "@nil": "true" }, "endLifespanVersion": { "@nilReason": "http://inspire.ec.europa.eu/codelist/VoidReasonValue/Unpopulated", "@nil": "true" }, "estimatedAccuracy": { "value": -1, "@uom": "m" }, "inspireId": { "@dataType": "Identifier", "localId": "865869", "namespace": "SK.ESKN.CP", "versionId": "20261005T06:10:45" }, "label": "Turčianske Kľačany", "level": { "@href": "http://inspire.ec.europa.eu/codelist/CadastralZoningLevelValue/3rdOrder" }, "levelName": { "value": "Katastrálne územie", "@locale": "sk" }, "name": { "@dataType": "name", "GeographicalName": { "@dataType": "GeographicalName", "language": "SLK", "nativeness": { "@href": "http://inspire.ec.europa.eu/codelist/NativenessValue/endonym", "@title": "endonym" }, "nameStatus": { "@href": "http://inspire.ec.europa.eu/codelist/NameStatusValue/official", "@title": "official" }, "sourceOfName": { "@nilReason": "http://inspire.ec.europa.eu/codelist/VoidReasonValue/Unpopulated", "@nil": "true" }, "pronunciation": { "@dataType": "pronunciation", "@nilReason": "http://inspire.ec.europa.eu/codelist/VoidReasonValue/Unpopulated", "@nil": "true" }, "spelling": { "@dataType": "SpellingOfName", "text": "Turčianske Kľačany", "script": "LATN" } } }, "nationalCadastalZoningReference": "865869", "validFrom": "2026-09-30T16:00:00Z", "validTo": { "@nilReason": "http://inspire.ec.europa.eu/codelist/VoidReasonValue/Unpopulated", "@nil": "true" } }, "geometry": { "type": "MultiPolygon", "coordinates": [ [ [ [ 18.9362435, 49.15902808 ], [ 18.93706112, 49.15901589 ], [ 18.93777609, 49.1588394 ], [ 18.93838908, 49.15868805 ], [ 18.94034773, 49.15802177 ], [ 18.94136552, 49.15796078 ], [ 18.94207307, 49.15818633 ], [ 18.94332599, 49.15830912 ], [ 18.94347991, 49.15835208 ], [ 18.94386126, 49.1583719 ], [ 18.94464053, 49.15853377 ], [ 18.94760929, 49.1581284 ], [ 18.94995078, 49.15780871 ], [ 18.95001544, 49.1571736 ], [ 18.95000664, 49.15687489 ], [ 18.94983844, 49.15616182 ], [ 18.9497047, 49.15545391 ], [ 18.95019034, 49.15521644 ], [ 18.95087496, 49.15490044 ], [ 18.95147512, 49.15453183 ], [ 18.95219554, 49.15441911 ], [ 18.9528815, 49.15431178 ], [ 18.95334208, 49.15419866 ], [ 18.95405613, 49.15389748 ], [ 18.95442893, 49.15374845 ], [ 18.95509618, 49.15336319 ], [ 18.95544411, 49.15311071 ], [ 18.95585536, 49.15267582 ], [ 18.956335, 49.15200952 ], [ 18.95659732, 49.15148909 ], [ 18.95682336, 49.15096377 ], [ 18.95723126, 49.15031919 ], [ 18.9573766, 49.15005405 ], [ 18.95771304, 49.14976203 ], [ 18.95808736, 49.14946822 ], [ 18.95868182, 49.14897952 ], [ 18.95927731, 49.14848194 ], [ 18.95976979, 49.14798448 ], [ 18.96047092, 49.14735603 ], [ 18.96078793, 49.14703001 ], [ 18.96136846, 49.14634172 ], [ 18.96200007, 49.14588735 ], [ 18.96254748, 49.14546859 ], [ 18.9630835, 49.14476903 ], [ 18.96374698, 49.14436739 ], [ 18.96415337, 49.14418765 ], [ 18.96539693, 49.14389676 ], [ 18.9665458, 49.14368416 ], [ 18.96678124, 49.14338396 ], [ 18.96722977, 49.14309883 ], [ 18.96735222, 49.14257287 ], [ 18.96742748, 49.1421764 ], [ 18.96759155, 49.14139108 ], [ 18.96764833, 49.14080004 ], [ 18.96760527, 49.14046317 ], [ 18.96767925, 49.14009757 ], [ 18.967686, 49.14006454 ], [ 18.96772669, 49.13986366 ], [ 18.96798993, 49.13898836 ], [ 18.96802559, 49.13820307 ], [ 18.96854626, 49.13756522 ], [ 18.96915127, 49.13669388 ], [ 18.96926942, 49.13623724 ], [ 18.96925015, 49.13569341 ], [ 18.96923036, 49.13545359 ], [ 18.96926965, 49.13543618 ], [ 18.96899022, 49.13466758 ], [ 18.96905053, 49.13406147 ], [ 18.96946405, 49.133378 ], [ 18.97101601, 49.13225012 ], [ 18.97181469, 49.13147294 ], [ 18.97252139, 49.1309322 ], [ 18.97265094, 49.13083031 ], [ 18.97270196, 49.13078895 ], [ 18.97295561, 49.13060835 ], [ 18.97310195, 49.12952794 ], [ 18.9731084, 49.12852959 ], [ 18.97327547, 49.12835834 ], [ 18.97339634, 49.12789083 ], [ 18.97365941, 49.12745078 ], [ 18.97368729, 49.12728271 ], [ 18.97366542, 49.12703007 ], [ 18.97389644, 49.12665487 ], [ 18.97390873, 49.12662375 ], [ 18.9737654, 49.12611796 ], [ 18.97358901, 49.12584699 ], [ 18.97305453, 49.12550036 ], [ 18.97275616, 49.12543592 ], [ 18.97224069, 49.12521371 ], [ 18.97171081, 49.12473383 ], [ 18.97156457, 49.12459416 ], [ 18.97125955, 49.12435269 ], [ 18.97108152, 49.12433335 ], [ 18.97102313, 49.12420388 ], [ 18.97087899, 49.1240451 ], [ 18.97056787, 49.12395349 ], [ 18.97043826, 49.12366097 ], [ 18.97031071, 49.12351899 ], [ 18.97015596, 49.12332874 ], [ 18.97003621, 49.12316938 ], [ 18.96981966, 49.12314342 ], [ 18.96956853, 49.12299476 ], [ 18.96925269, 49.12269087 ], [ 18.96887634, 49.12244851 ], [ 18.96872054, 49.1220311 ], [ 18.96863434, 49.12171777 ], [ 18.9682498, 49.12144802 ], [ 18.96824594, 49.12143989 ], [ 18.9681385, 49.12121063 ], [ 18.96802678, 49.12097213 ], [ 18.96815085, 49.12055746 ], [ 18.96819977, 49.12003348 ], [ 18.9681441, 49.11968587 ], [ 18.96781192, 49.119435 ], [ 18.96776571, 49.11940011 ], [ 18.96787311, 49.11924661 ], [ 18.96795018, 49.11912693 ], [ 18.96795097, 49.11893919 ], [ 18.96796933, 49.11892325 ], [ 18.96810085, 49.11880902 ], [ 18.96814069, 49.11879146 ], [ 18.96827846, 49.11873076 ], [ 18.96838197, 49.11863406 ], [ 18.96839262, 49.11862404 ], [ 18.9683926, 49.11858544 ], [ 18.96850877, 49.1183899 ], [ 18.96849486, 49.11830315 ], [ 18.96848508, 49.11824232 ], [ 18.9685456, 49.11821002 ], [ 18.96869244, 49.11813173 ], [ 18.96876169, 49.11793076 ], [ 18.96900832, 49.11753129 ], [ 18.96907077, 49.1172111 ], [ 18.9690812, 49.11716066 ], [ 18.96917428, 49.11668419 ], [ 18.96917825, 49.11666436 ], [ 18.96918347, 49.11664082 ], [ 18.96918583, 49.11663002 ], [ 18.96919219, 49.11660031 ], [ 18.96919676, 49.11657889 ], [ 18.96925565, 49.11630083 ], [ 18.96925578, 49.11605407 ], [ 18.96921324, 49.1159373 ], [ 18.96916254, 49.11579747 ], [ 18.9689999, 49.11549516 ], [ 18.96890195, 49.11531291 ], [ 18.96884676, 49.11521029 ], [ 18.96883241, 49.11518377 ], [ 18.96876042, 49.11518844 ], [ 18.96870163, 49.1151789 ], [ 18.9685858, 49.11516016 ], [ 18.96858846, 49.1151492 ], [ 18.96859943, 49.11510349 ], [ 18.96861269, 49.11504887 ], [ 18.96862158, 49.11501162 ], [ 18.96862787, 49.11498605 ], [ 18.96862984, 49.1149774 ], [ 18.96863138, 49.11497126 ], [ 18.96864021, 49.11493454 ], [ 18.96864472, 49.11491592 ], [ 18.96866078, 49.11484909 ], [ 18.96866794, 49.11481959 ], [ 18.96868199, 49.11476168 ], [ 18.96875835, 49.11444472 ], [ 18.96878044, 49.11435329 ], [ 18.96879218, 49.11430464 ], [ 18.96880198, 49.11426428 ], [ 18.96883218, 49.11413872 ], [ 18.96883583, 49.11412402 ], [ 18.96884573, 49.11408276 ], [ 18.96885083, 49.11406146 ], [ 18.96885884, 49.11402823 ], [ 18.9688729, 49.11397031 ], [ 18.96887801, 49.11394892 ], [ 18.9690641, 49.11317752 ], [ 18.96911555, 49.11296419 ], [ 18.96913749, 49.11279303 ], [ 18.96913858, 49.11276603 ], [ 18.96914132, 49.11269798 ], [ 18.96912729, 49.11253006 ], [ 18.96885238, 49.11190372 ], [ 18.96874118, 49.11165037 ], [ 18.96872565, 49.11161513 ], [ 18.96871579, 49.11159254 ], [ 18.96870689, 49.11157234 ], [ 18.96869249, 49.11153572 ], [ 18.96865421, 49.11149528 ], [ 18.96742057, 49.11166381 ], [ 18.96690998, 49.11170076 ], [ 18.96627657, 49.11169427 ], [ 18.96596192, 49.11169103 ], [ 18.96458647, 49.11159309 ], [ 18.96327668, 49.11147301 ], [ 18.96190253, 49.11128419 ], [ 18.96064382, 49.11110686 ], [ 18.95841255, 49.11079366 ], [ 18.95812455, 49.11082566 ], [ 18.95689716, 49.11087021 ], [ 18.95577642, 49.1109765 ], [ 18.95460986, 49.11120178 ], [ 18.95445622, 49.11123145 ], [ 18.95429776, 49.11126827 ], [ 18.95376405, 49.1113922 ], [ 18.95332962, 49.11149309 ], [ 18.95283471, 49.11157082 ], [ 18.95277774, 49.11157975 ], [ 18.95195863, 49.11170756 ], [ 18.95171437, 49.11172615 ], [ 18.95161802, 49.11173355 ], [ 18.9515627, 49.11173779 ], [ 18.950986, 49.11178188 ], [ 18.95074741, 49.11180013 ], [ 18.95070389, 49.11180343 ], [ 18.95069117, 49.11180405 ], [ 18.95047459, 49.11181511 ], [ 18.94978683, 49.11185015 ], [ 18.94974462, 49.11185045 ], [ 18.94909416, 49.11185572 ], [ 18.9490496, 49.11185608 ], [ 18.94898813, 49.11185658 ], [ 18.94895265, 49.11185686 ], [ 18.94885984, 49.11185749 ], [ 18.94878682, 49.11185804 ], [ 18.94842836, 49.11186048 ], [ 18.94832152, 49.11186121 ], [ 18.94813906, 49.11186244 ], [ 18.94795577, 49.11186373 ], [ 18.94782157, 49.1118647 ], [ 18.9476574, 49.11186577 ], [ 18.94763238, 49.11186595 ], [ 18.94733703, 49.11186797 ], [ 18.9473219, 49.11186811 ], [ 18.94730787, 49.11186821 ], [ 18.94723885, 49.11186869 ], [ 18.94674853, 49.11187203 ], [ 18.94670426, 49.11187105 ], [ 18.94665671, 49.11187 ], [ 18.94649131, 49.11186641 ], [ 18.94569458, 49.11184893 ], [ 18.94482193, 49.11182976 ], [ 18.94466256, 49.1118263 ], [ 18.94445714, 49.11182177 ], [ 18.94439424, 49.11182039 ], [ 18.94354366, 49.1118017 ], [ 18.9428254, 49.11192797 ], [ 18.94273366, 49.11194407 ], [ 18.94268025, 49.11194488 ], [ 18.94099653, 49.11197068 ], [ 18.93983094, 49.11215635 ], [ 18.93951451, 49.1122068 ], [ 18.93880349, 49.11239754 ], [ 18.93765848, 49.11281703 ], [ 18.93715024, 49.11302416 ], [ 18.93669456, 49.11325389 ], [ 18.93558896, 49.11394314 ], [ 18.93547692, 49.11402432 ], [ 18.93432496, 49.11485859 ], [ 18.93438133, 49.11490149 ], [ 18.93444337, 49.11494874 ], [ 18.93446115, 49.11496236 ], [ 18.93453214, 49.11501647 ], [ 18.93500437, 49.11537872 ], [ 18.93536257, 49.11563111 ], [ 18.93577491, 49.11561475 ], [ 18.93596295, 49.11567136 ], [ 18.93612844, 49.11580755 ], [ 18.9361955, 49.11610552 ], [ 18.93654449, 49.11691312 ], [ 18.93656089, 49.1169512 ], [ 18.93680338, 49.1175124 ], [ 18.93684686, 49.11753761 ], [ 18.93693459, 49.1175885 ], [ 18.93711108, 49.11769088 ], [ 18.93730506, 49.11780335 ], [ 18.93739318, 49.11785444 ], [ 18.93749127, 49.1179119 ], [ 18.93772497, 49.11804884 ], [ 18.93819509, 49.11832429 ], [ 18.9382095, 49.11833269 ], [ 18.93823584, 49.11834818 ], [ 18.93824188, 49.11835174 ], [ 18.93826721, 49.11836655 ], [ 18.93827094, 49.11836872 ], [ 18.93831131, 49.11839232 ], [ 18.9384216, 49.11845707 ], [ 18.93846223, 49.11848078 ], [ 18.93857317, 49.11854583 ], [ 18.93869659, 49.11861811 ], [ 18.93879146, 49.11867369 ], [ 18.93888557, 49.11877433 ], [ 18.9389029, 49.11879289 ], [ 18.93908748, 49.1189902 ], [ 18.93911762, 49.11902248 ], [ 18.93901126, 49.11908447 ], [ 18.93898412, 49.11910032 ], [ 18.9389735, 49.11910646 ], [ 18.93881906, 49.11919641 ], [ 18.93881273, 49.11920005 ], [ 18.93878249, 49.11921764 ], [ 18.93854513, 49.11935598 ], [ 18.93829891, 49.11953003 ], [ 18.93812147, 49.11965543 ], [ 18.93674777, 49.1206265 ], [ 18.93567875, 49.12127099 ], [ 18.9354943, 49.12138223 ], [ 18.93537258, 49.12143225 ], [ 18.93464843, 49.12172982 ], [ 18.93420035, 49.12191402 ], [ 18.93311629, 49.12232132 ], [ 18.93229495, 49.12255821 ], [ 18.93221709, 49.12257645 ], [ 18.93208396, 49.12260767 ], [ 18.93202881, 49.12262327 ], [ 18.9313175, 49.12282424 ], [ 18.93119241, 49.12284793 ], [ 18.931389, 49.12317421 ], [ 18.93161399, 49.12354757 ], [ 18.93169354, 49.12367968 ], [ 18.93169561, 49.12371577 ], [ 18.93169942, 49.12377919 ], [ 18.93170787, 49.12392104 ], [ 18.93172881, 49.12396152 ], [ 18.93169916, 49.12396939 ], [ 18.93130579, 49.1242314 ], [ 18.93124406, 49.12425966 ], [ 18.93121471, 49.12427314 ], [ 18.93098466, 49.12440741 ], [ 18.93095097, 49.12449283 ], [ 18.93093861, 49.12452431 ], [ 18.93097197, 49.12481174 ], [ 18.9309847, 49.1249208 ], [ 18.93105739, 49.12516602 ], [ 18.93109065, 49.12527811 ], [ 18.9310315, 49.1255833 ], [ 18.93096545, 49.12592377 ], [ 18.93094722, 49.12601791 ], [ 18.9309018, 49.12607685 ], [ 18.93101626, 49.12609104 ], [ 18.9311234, 49.12610432 ], [ 18.93122852, 49.12611732 ], [ 18.9312729, 49.1261349 ], [ 18.93153528, 49.12623858 ], [ 18.93165833, 49.12628721 ], [ 18.9317538, 49.12632497 ], [ 18.9318513, 49.12640973 ], [ 18.93204779, 49.12658051 ], [ 18.93222584, 49.1267352 ], [ 18.93229205, 49.12679267 ], [ 18.93231686, 49.12681422 ], [ 18.93250775, 49.12689371 ], [ 18.93258282, 49.12692493 ], [ 18.93266824, 49.12696047 ], [ 18.93273624, 49.12698881 ], [ 18.93278801, 49.12704402 ], [ 18.93292486, 49.1271903 ], [ 18.93297027, 49.12723887 ], [ 18.93307722, 49.12735307 ], [ 18.93310751, 49.12738536 ], [ 18.93313559, 49.12741528 ], [ 18.9331683, 49.12745031 ], [ 18.93318637, 49.12746963 ], [ 18.93323264, 49.12751905 ], [ 18.93333749, 49.12772595 ], [ 18.93334764, 49.12774595 ], [ 18.93338495, 49.12775704 ], [ 18.93343581, 49.12777215 ], [ 18.93351178, 49.12779467 ], [ 18.93355858, 49.12803579 ], [ 18.93357648, 49.12806005 ], [ 18.9336445, 49.12815243 ], [ 18.93379676, 49.1283593 ], [ 18.93400853, 49.12864683 ], [ 18.9342626, 49.12899189 ], [ 18.93416176, 49.12901609 ], [ 18.93406036, 49.12904036 ], [ 18.93375177, 49.12911428 ], [ 18.93319399, 49.12924792 ], [ 18.93317362, 49.12925284 ], [ 18.93297203, 49.12928636 ], [ 18.93223791, 49.12940835 ], [ 18.93212382, 49.12919828 ], [ 18.93184863, 49.12925928 ], [ 18.93179388, 49.12927139 ], [ 18.93157556, 49.12931985 ], [ 18.93156089, 49.12932307 ], [ 18.93129403, 49.12938215 ], [ 18.93130472, 49.1294093 ], [ 18.93136924, 49.12957221 ], [ 18.93119434, 49.12966391 ], [ 18.93083678, 49.12985143 ], [ 18.93060623, 49.12990215 ], [ 18.93059197, 49.12990531 ], [ 18.93033729, 49.12996139 ], [ 18.93025967, 49.12998208 ], [ 18.93000624, 49.13004969 ], [ 18.92991209, 49.13080029 ], [ 18.93001608, 49.13092101 ], [ 18.92968086, 49.13121392 ], [ 18.92968785, 49.1318082 ], [ 18.92969478, 49.13239364 ], [ 18.92969835, 49.13268903 ], [ 18.92969875, 49.13272648 ], [ 18.92976815, 49.13294484 ], [ 18.92973456, 49.13327559 ], [ 18.92971939, 49.13342427 ], [ 18.92968177, 49.13379397 ], [ 18.92970162, 49.13400711 ], [ 18.92972576, 49.13426548 ], [ 18.92974991, 49.13452375 ], [ 18.92977401, 49.13478257 ], [ 18.92978137, 49.13486123 ], [ 18.92974446, 49.13504399 ], [ 18.9298755, 49.13598324 ], [ 18.93012617, 49.13666545 ], [ 18.93017127, 49.13718356 ], [ 18.9302619, 49.13729648 ], [ 18.93045879, 49.13751318 ], [ 18.93090558, 49.13813986 ], [ 18.93133222, 49.13876019 ], [ 18.93213248, 49.13988407 ], [ 18.93255045, 49.14033899 ], [ 18.93303128, 49.14079709 ], [ 18.93306154, 49.1408402 ], [ 18.93318514, 49.14101648 ], [ 18.93349179, 49.14145367 ], [ 18.93401703, 49.14201242 ], [ 18.93463948, 49.14248347 ], [ 18.93499202, 49.14276342 ], [ 18.93522072, 49.14295666 ], [ 18.93530126, 49.14305381 ], [ 18.93493735, 49.14397105 ], [ 18.93458573, 49.14470536 ], [ 18.93461087, 49.14480486 ], [ 18.93457048, 49.14486883 ], [ 18.93456818, 49.14489307 ], [ 18.93413652, 49.14549552 ], [ 18.93342693, 49.14691376 ], [ 18.93299855, 49.14732346 ], [ 18.93280213, 49.14760564 ], [ 18.93277831, 49.14820621 ], [ 18.93301295, 49.1488444 ], [ 18.9336487, 49.15012821 ], [ 18.93423597, 49.15057537 ], [ 18.9351475, 49.15115205 ], [ 18.93638548, 49.15156152 ], [ 18.93655973, 49.151705 ], [ 18.9366831, 49.15178647 ], [ 18.93671709, 49.15182481 ], [ 18.93703259, 49.15234315 ], [ 18.93629909, 49.15317332 ], [ 18.93627165, 49.1532044 ], [ 18.9358004, 49.15359948 ], [ 18.93526613, 49.15409303 ], [ 18.9352166, 49.15414472 ], [ 18.93466635, 49.15479024 ], [ 18.93390396, 49.15499037 ], [ 18.93327488, 49.15510688 ], [ 18.9323446, 49.15534414 ], [ 18.93122218, 49.15594938 ], [ 18.93084953, 49.15604974 ], [ 18.93029141, 49.15636338 ], [ 18.9301395, 49.156384 ], [ 18.93047567, 49.15643937 ], [ 18.93083441, 49.15662404 ], [ 18.9309125, 49.15669077 ], [ 18.93135088, 49.15689058 ], [ 18.93158763, 49.15699845 ], [ 18.93187589, 49.15723646 ], [ 18.93245135, 49.15763856 ], [ 18.93275413, 49.15804055 ], [ 18.93305666, 49.15823798 ], [ 18.93358419, 49.1583419 ], [ 18.93393093, 49.15853885 ], [ 18.93413225, 49.15854824 ], [ 18.93480774, 49.15874812 ], [ 18.93541794, 49.15900847 ], [ 18.9362435, 49.15902808 ] ] ] ] } }
]
}
