{
"type": "FeatureCollection",
"name": "gis",
"crs": { "type": "name", "properties": { "name": "urn:ogc:def:crs:OGC:1.3:CRS84" } },
"features": [
{ "type": "Feature", "properties": { "@featureType": "CadastralParcel", "areaValue": { "value": 524250, "@uom": "m2" }, "beginLifespanVersion": { "@nilReason": "http://inspire.ec.europa.eu/codelist/VoidReasonValue/Unpopulated", "@nil": "true" }, "endLifespanVersion": { "@nilReason": "http://inspire.ec.europa.eu/codelist/VoidReasonValue/Unpopulated", "@nil": "true" }, "inspireId": { "@dataType": "Identifier", "localId": "810363_7643/2.E", "namespace": "SK.ESKN.CP", "versionId": "20260703T06:07:01" }, "label": "7643/2", "nationalCadastralReference": "810363_7643/2.E", "referencePoint": { "type": "Point", "coordinates": [ 19.41844259, 48.59907764 ] }, "validFrom": "2026-06-30T16:00:00Z", "validTo": { "@nilReason": "http://inspire.ec.europa.eu/codelist/VoidReasonValue/Unpopulated", "@nil": "true" }, "administrativeUnit": { "@href": "#auAdmUnitS.1827" } }, "geometry": { "type": "Polygon", "coordinates": [ [ [ 19.41568729, 48.59384574 ], [ 19.41458303, 48.59415646 ], [ 19.41347105, 48.59446806 ], [ 19.41336268, 48.59477483 ], [ 19.41338292, 48.59493392 ], [ 19.41346978, 48.59505215 ], [ 19.41353198, 48.59509078 ], [ 19.41367388, 48.5951786 ], [ 19.41402323, 48.59528266 ], [ 19.41526662, 48.59562017 ], [ 19.41548633, 48.59571768 ], [ 19.41596817, 48.5960384 ], [ 19.41614418, 48.59628028 ], [ 19.41616251, 48.59650691 ], [ 19.41611096, 48.5966345 ], [ 19.41528368, 48.59758873 ], [ 19.41504156, 48.59794007 ], [ 19.41467171, 48.59868012 ], [ 19.41458839, 48.59888105 ], [ 19.41451575, 48.59956196 ], [ 19.41459478, 48.60028137 ], [ 19.41465954, 48.60044112 ], [ 19.41493476, 48.60088818 ], [ 19.41514263, 48.60107881 ], [ 19.41553635, 48.60139133 ], [ 19.41764671, 48.60256847 ], [ 19.41899201, 48.60332076 ], [ 19.41922551, 48.60348302 ], [ 19.41946731, 48.60374186 ], [ 19.41958774, 48.60391522 ], [ 19.42002607, 48.60453366 ], [ 19.41985818, 48.60402177 ], [ 19.41998792, 48.60322688 ], [ 19.42066526, 48.60323525 ], [ 19.42104388, 48.60328729 ], [ 19.42624008, 48.60384084 ], [ 19.42719819, 48.6036602 ], [ 19.42772276, 48.6036619 ], [ 19.42706742, 48.60311067 ], [ 19.4282499, 48.60276726 ], [ 19.42926362, 48.60251609 ], [ 19.42793761, 48.60249728 ], [ 19.42767918, 48.6024399 ], [ 19.42749474, 48.60236435 ], [ 19.4265629, 48.60181702 ], [ 19.4261534, 48.60138668 ], [ 19.42577289, 48.60110259 ], [ 19.4256677, 48.60096719 ], [ 19.42528067, 48.60064231 ], [ 19.42506625, 48.60052171 ], [ 19.42497749, 48.60047066 ], [ 19.42464581, 48.60035592 ], [ 19.4244016, 48.600368 ], [ 19.42426262, 48.60033921 ], [ 19.42412412, 48.60028808 ], [ 19.42403196, 48.60022298 ], [ 19.42381652, 48.59991958 ], [ 19.42373822, 48.59985839 ], [ 19.42336465, 48.59975033 ], [ 19.42298218, 48.59951672 ], [ 19.42261321, 48.5992254 ], [ 19.4220223, 48.59892988 ], [ 19.42171382, 48.59887817 ], [ 19.42139795, 48.5987555 ], [ 19.42111097, 48.59866025 ], [ 19.42102737, 48.59860295 ], [ 19.42096298, 48.59850571 ], [ 19.42092544, 48.59824492 ], [ 19.42081544, 48.59808477 ], [ 19.42056976, 48.59786496 ], [ 19.42035861, 48.59770628 ], [ 19.42013759, 48.59750124 ], [ 19.42000507, 48.59741198 ], [ 19.41980496, 48.59732567 ], [ 19.41935745, 48.59717572 ], [ 19.41917918, 48.59702481 ], [ 19.41900057, 48.59689497 ], [ 19.41894239, 48.59673969 ], [ 19.41880638, 48.59655974 ], [ 19.41877021, 48.59644398 ], [ 19.41868064, 48.59628488 ], [ 19.41848714, 48.59610223 ], [ 19.41831181, 48.59564391 ], [ 19.41822562, 48.59562751 ], [ 19.41785678, 48.59565111 ], [ 19.41777887, 48.59559408 ], [ 19.41776393, 48.59538393 ], [ 19.41738126, 48.59495932 ], [ 19.41668707, 48.59452188 ], [ 19.41608105, 48.59418414 ], [ 19.41568729, 48.59384574 ] ], [ [ 19.42042338, 48.60254922 ], [ 19.42036459, 48.60255106 ], [ 19.42036419, 48.60252552 ], [ 19.42042284, 48.60252368 ], [ 19.42042143, 48.60248728 ], [ 19.42043562, 48.60248677 ], [ 19.4204352, 48.60246782 ], [ 19.42048135, 48.60246593 ], [ 19.4204815, 48.60248487 ], [ 19.42050061, 48.60248414 ], [ 19.42050385, 48.60254164 ], [ 19.42042333, 48.60254462 ], [ 19.42042338, 48.60254922 ] ], [ [ 19.42022136, 48.60166824 ], [ 19.42037379, 48.60159904 ], [ 19.42052182, 48.60170615 ], [ 19.42058881, 48.60167585 ], [ 19.4206747, 48.60176779 ], [ 19.42054209, 48.60183586 ], [ 19.42037642, 48.60192076 ], [ 19.42014279, 48.60170386 ], [ 19.42022136, 48.60166824 ] ], [ [ 19.41988025, 48.60146352 ], [ 19.41985258, 48.60144004 ], [ 19.41990208, 48.60141568 ], [ 19.419933, 48.60143931 ], [ 19.41988025, 48.60146352 ] ], [ [ 19.42049045, 48.60139002 ], [ 19.42053887, 48.60143314 ], [ 19.4205116, 48.60144655 ], [ 19.42049795, 48.60143437 ], [ 19.42044069, 48.6014627 ], [ 19.42040593, 48.60143176 ], [ 19.42047395, 48.60139817 ], [ 19.42049045, 48.60139002 ] ], [ [ 19.41982033, 48.60130031 ], [ 19.41986735, 48.60135012 ], [ 19.41979026, 48.60138202 ], [ 19.41974437, 48.60133181 ], [ 19.41982033, 48.60130031 ] ], [ [ 19.41975264, 48.60124673 ], [ 19.41969675, 48.60126854 ], [ 19.41967222, 48.60124746 ], [ 19.41972534, 48.6012211 ], [ 19.41975264, 48.60124673 ] ], [ [ 19.42025013, 48.60113521 ], [ 19.42025012, 48.6011353 ], [ 19.42026224, 48.60114146 ], [ 19.42025311, 48.60114924 ], [ 19.42026742, 48.60115658 ], [ 19.42025424, 48.60116795 ], [ 19.42023, 48.60115564 ], [ 19.42022207, 48.60116248 ], [ 19.42021085, 48.60115672 ], [ 19.42020127, 48.60116502 ], [ 19.42012187, 48.60112432 ], [ 19.42013356, 48.60111414 ], [ 19.42012016, 48.60110729 ], [ 19.42014919, 48.60108242 ], [ 19.42016092, 48.60108838 ], [ 19.42018831, 48.60106487 ], [ 19.42027826, 48.60111111 ], [ 19.42025013, 48.60113521 ] ], [ [ 19.41980515, 48.60100702 ], [ 19.41973575, 48.60094787 ], [ 19.4198264, 48.600901 ], [ 19.41987612, 48.60094328 ], [ 19.41985526, 48.60095402 ], [ 19.41987534, 48.60097101 ], [ 19.41980515, 48.60100702 ] ] ] } }
]
}
