{
"type": "FeatureCollection",
"name": "gis",
"crs": { "type": "name", "properties": { "name": "urn:ogc:def:crs:OGC:1.3:CRS84" } },
"features": [
{ "type": "Feature", "properties": { "@featureType": "CadastralParcel", "areaValue": { "value": 311, "@uom": "m2" }, "beginLifespanVersion": { "@nilReason": "http://inspire.ec.europa.eu/codelist/VoidReasonValue/Unpopulated", "@nil": "true" }, "endLifespanVersion": { "@nilReason": "http://inspire.ec.europa.eu/codelist/VoidReasonValue/Unpopulated", "@nil": "true" }, "inspireId": { "@dataType": "Identifier", "localId": "835196_1721/3.C", "namespace": "SK.ESKN.CP", "versionId": "20260703T04:07:11" }, "label": "1721/3", "nationalCadastralReference": "835196_1721/3.C", "referencePoint": { "type": "Point", "coordinates": [ 17.02416811, 48.44031036 ] }, "validFrom": "2026-06-30T16:00:00Z", "validTo": { "@nilReason": "http://inspire.ec.europa.eu/codelist/VoidReasonValue/Unpopulated", "@nil": "true" }, "administrativeUnit": { "@href": "#auAdmUnitS.2181" } }, "geometry": { "type": "Polygon", "coordinates": [ [ [ 17.02439888, 48.44035809 ], [ 17.02405633, 48.44021177 ], [ 17.02405167, 48.44023677 ], [ 17.02404861, 48.44029189 ], [ 17.02404957, 48.44032884 ], [ 17.02410259, 48.44035162 ], [ 17.0242657, 48.44042259 ], [ 17.02428657, 48.44040178 ], [ 17.02438548, 48.44044414 ], [ 17.02439888, 48.44035809 ] ] ] } },
{ "type": "Feature", "properties": { "@featureType": "CadastralParcel", "areaValue": { "value": 9419, "@uom": "m2" }, "beginLifespanVersion": { "@nilReason": "http://inspire.ec.europa.eu/codelist/VoidReasonValue/Unpopulated", "@nil": "true" }, "endLifespanVersion": { "@nilReason": "http://inspire.ec.europa.eu/codelist/VoidReasonValue/Unpopulated", "@nil": "true" }, "inspireId": { "@dataType": "Identifier", "localId": "835196_1218/8.C", "namespace": "SK.ESKN.CP", "versionId": "20260703T04:07:11" }, "label": "1218/8", "nationalCadastralReference": "835196_1218/8.C", "referencePoint": { "type": "Point", "coordinates": [ 17.02385407, 48.44188219 ] }, "validFrom": "2026-06-30T16:00:00Z", "validTo": { "@nilReason": "http://inspire.ec.europa.eu/codelist/VoidReasonValue/Unpopulated", "@nil": "true" }, "administrativeUnit": { "@href": "#auAdmUnitS.2181" } }, "geometry": { "type": "Polygon", "coordinates": [ [ [ 17.02381688, 48.44007276 ], [ 17.02381653, 48.44013855 ], [ 17.02381434, 48.44019065 ], [ 17.02381952, 48.44027698 ], [ 17.02375899, 48.44027475 ], [ 17.02375604, 48.44034506 ], [ 17.02378631, 48.44034523 ], [ 17.02379169, 48.44038438 ], [ 17.02378318, 48.44052338 ], [ 17.02378222, 48.44053399 ], [ 17.02378324, 48.44059969 ], [ 17.0237746, 48.44061257 ], [ 17.02374181, 48.44061639 ], [ 17.02373359, 48.44068119 ], [ 17.02369521, 48.44098405 ], [ 17.0236944, 48.44108714 ], [ 17.02369351, 48.44120054 ], [ 17.02369256, 48.44131158 ], [ 17.02369131, 48.44145198 ], [ 17.02368987, 48.44163152 ], [ 17.02367869, 48.44180632 ], [ 17.02367605, 48.44190549 ], [ 17.02367228, 48.44204455 ], [ 17.02366798, 48.44220734 ], [ 17.02366417, 48.442352 ], [ 17.02364876, 48.44293432 ], [ 17.02364861, 48.44319802 ], [ 17.02365037, 48.44330744 ], [ 17.02364725, 48.44334357 ], [ 17.02364712, 48.443362 ], [ 17.02396722, 48.44373786 ], [ 17.02397647, 48.44352351 ], [ 17.02400188, 48.44341685 ], [ 17.02400221, 48.44327449 ], [ 17.02400697, 48.4431572 ], [ 17.02400942, 48.44303812 ], [ 17.02401176, 48.44291976 ], [ 17.02401356, 48.4428058 ], [ 17.02401535, 48.44268658 ], [ 17.02401783, 48.44256733 ], [ 17.02402039, 48.44244754 ], [ 17.02402284, 48.44233027 ], [ 17.02402536, 48.44221165 ], [ 17.02402775, 48.44209384 ], [ 17.02402979, 48.44197564 ], [ 17.02403188, 48.44185889 ], [ 17.02403389, 48.44173915 ], [ 17.02403596, 48.44161996 ], [ 17.02403807, 48.44150041 ], [ 17.02403931, 48.44142889 ], [ 17.02404957, 48.44114536 ], [ 17.02401677, 48.44112812 ], [ 17.02400898, 48.44112397 ], [ 17.02401791, 48.44088528 ], [ 17.0240473, 48.44040091 ], [ 17.02404957, 48.44032884 ], [ 17.02404861, 48.44029189 ], [ 17.02405167, 48.44023677 ], [ 17.02405633, 48.44021177 ], [ 17.02406031, 48.44016395 ], [ 17.02381688, 48.44007276 ] ] ] } },
{ "type": "Feature", "properties": { "@featureType": "CadastralParcel", "areaValue": { "value": 135, "@uom": "m2" }, "beginLifespanVersion": { "@nilReason": "http://inspire.ec.europa.eu/codelist/VoidReasonValue/Unpopulated", "@nil": "true" }, "endLifespanVersion": { "@nilReason": "http://inspire.ec.europa.eu/codelist/VoidReasonValue/Unpopulated", "@nil": "true" }, "inspireId": { "@dataType": "Identifier", "localId": "835196_3398.C", "namespace": "SK.ESKN.CP", "versionId": "20260703T04:07:11" }, "label": "3398", "nationalCadastralReference": "835196_3398.C", "referencePoint": { "type": "Point", "coordinates": [ 17.02321894, 48.43433453 ] }, "validFrom": "2026-06-30T16:00:00Z", "validTo": { "@nilReason": "http://inspire.ec.europa.eu/codelist/VoidReasonValue/Unpopulated", "@nil": "true" }, "administrativeUnit": { "@href": "#auAdmUnitS.2181" } }, "geometry": { "type": "Polygon", "coordinates": [ [ [ 17.02316136, 48.43439966 ], [ 17.02329811, 48.43438766 ], [ 17.02327651, 48.43427038 ], [ 17.02313991, 48.4342814 ], [ 17.02316136, 48.43439966 ] ] ] } },
{ "type": "Feature", "properties": { "@featureType": "CadastralParcel", "areaValue": { "value": 1424, "@uom": "m2" }, "beginLifespanVersion": { "@nilReason": "http://inspire.ec.europa.eu/codelist/VoidReasonValue/Unpopulated", "@nil": "true" }, "endLifespanVersion": { "@nilReason": "http://inspire.ec.europa.eu/codelist/VoidReasonValue/Unpopulated", "@nil": "true" }, "inspireId": { "@dataType": "Identifier", "localId": "835196_3265/1.C", "namespace": "SK.ESKN.CP", "versionId": "20260703T04:07:11" }, "label": "3265/1", "nationalCadastralReference": "835196_3265/1.C", "referencePoint": { "type": "Point", "coordinates": [ 17.0235514, 48.43321156 ] }, "validFrom": "2026-06-30T16:00:00Z", "validTo": { "@nilReason": "http://inspire.ec.europa.eu/codelist/VoidReasonValue/Unpopulated", "@nil": "true" }, "administrativeUnit": { "@href": "#auAdmUnitS.2181" } }, "geometry": { "type": "Polygon", "coordinates": [ [ [ 17.02361277, 48.4344537 ], [ 17.0236716, 48.43439814 ], [ 17.02372488, 48.43437854 ], [ 17.02368066, 48.4343164 ], [ 17.02366401, 48.43417405 ], [ 17.02369102, 48.43414597 ], [ 17.02365827, 48.43412927 ], [ 17.02365117, 48.43406162 ], [ 17.02364769, 48.43398806 ], [ 17.02364497, 48.43390877 ], [ 17.02364398, 48.43388077 ], [ 17.02364959, 48.43376679 ], [ 17.02366814, 48.43364023 ], [ 17.02364296, 48.43350562 ], [ 17.02362407, 48.43340425 ], [ 17.02364432, 48.43338393 ], [ 17.02361713, 48.43336996 ], [ 17.02361024, 48.43333089 ], [ 17.02356781, 48.43309222 ], [ 17.02353626, 48.43291523 ], [ 17.02350555, 48.43275393 ], [ 17.02342672, 48.43229916 ], [ 17.0233935, 48.43211011 ], [ 17.02336868, 48.43202163 ], [ 17.02336695, 48.43201528 ], [ 17.02332627, 48.43204911 ], [ 17.02331225, 48.43206081 ], [ 17.02357284, 48.43354893 ], [ 17.02357752, 48.43362084 ], [ 17.02356654, 48.4337274 ], [ 17.0235856, 48.4338541 ], [ 17.02358928, 48.43396157 ], [ 17.02360878, 48.43424062 ], [ 17.02361277, 48.4344537 ] ] ] } },
{ "type": "Feature", "properties": { "@featureType": "CadastralParcel", "areaValue": { "value": 470, "@uom": "m2" }, "beginLifespanVersion": { "@nilReason": "http://inspire.ec.europa.eu/codelist/VoidReasonValue/Unpopulated", "@nil": "true" }, "endLifespanVersion": { "@nilReason": "http://inspire.ec.europa.eu/codelist/VoidReasonValue/Unpopulated", "@nil": "true" }, "inspireId": { "@dataType": "Identifier", "localId": "835196_3270/2.C", "namespace": "SK.ESKN.CP", "versionId": "20260703T04:07:11" }, "label": "3270/2", "nationalCadastralReference": "835196_3270/2.C", "referencePoint": { "type": "Point", "coordinates": [ 17.02381473, 48.4344273 ] }, "validFrom": "2026-06-30T16:00:00Z", "validTo": { "@nilReason": "http://inspire.ec.europa.eu/codelist/VoidReasonValue/Unpopulated", "@nil": "true" }, "administrativeUnit": { "@href": "#auAdmUnitS.2181" } }, "geometry": { "type": "Polygon", "coordinates": [ [ [ 17.02396888, 48.43440495 ], [ 17.02404516, 48.43429435 ], [ 17.02405584, 48.4342788 ], [ 17.02402042, 48.4342565 ], [ 17.02372488, 48.43437854 ], [ 17.0236716, 48.43439814 ], [ 17.02367928, 48.43444965 ], [ 17.02368587, 48.43452062 ], [ 17.02369199, 48.43457527 ], [ 17.02391637, 48.43448129 ], [ 17.02396888, 48.43440495 ] ] ] } },
{ "type": "Feature", "properties": { "@featureType": "CadastralParcel", "areaValue": { "value": 55820, "@uom": "m2" }, "beginLifespanVersion": { "@nilReason": "http://inspire.ec.europa.eu/codelist/VoidReasonValue/Unpopulated", "@nil": "true" }, "endLifespanVersion": { "@nilReason": "http://inspire.ec.europa.eu/codelist/VoidReasonValue/Unpopulated", "@nil": "true" }, "inspireId": { "@dataType": "Identifier", "localId": "835196_3400/1.C", "namespace": "SK.ESKN.CP", "versionId": "20260703T04:07:11" }, "label": "3400/1", "nationalCadastralReference": "835196_3400/1.C", "referencePoint": { "type": "Point", "coordinates": [ 17.02253794, 48.43002336 ] }, "validFrom": "2026-06-30T16:00:00Z", "validTo": { "@nilReason": "http://inspire.ec.europa.eu/codelist/VoidReasonValue/Unpopulated", "@nil": "true" }, "administrativeUnit": { "@href": "#auAdmUnitS.2181" } }, "geometry": { "type": "Polygon", "coordinates": [ [ [ 17.02158394, 48.42528568 ], [ 17.02162596, 48.42537091 ], [ 17.02167574, 48.42547185 ], [ 17.02173427, 48.4258466 ], [ 17.02171264, 48.42586881 ], [ 17.02177178, 48.42617262 ], [ 17.021772, 48.42618882 ], [ 17.02176775, 48.42628779 ], [ 17.02177438, 48.42639637 ], [ 17.02180254, 48.42686071 ], [ 17.0218015, 48.42692383 ], [ 17.02179783, 48.42705964 ], [ 17.0217932, 48.42721572 ], [ 17.02177536, 48.42782781 ], [ 17.02180255, 48.42816443 ], [ 17.02182953, 48.4283252 ], [ 17.02186314, 48.42852584 ], [ 17.02189628, 48.42872329 ], [ 17.02192261, 48.4288804 ], [ 17.02199392, 48.42928593 ], [ 17.02199797, 48.4293108 ], [ 17.0220019, 48.42933286 ], [ 17.02201923, 48.42943023 ], [ 17.02209583, 48.42986497 ], [ 17.02210596, 48.42992261 ], [ 17.02214148, 48.43012411 ], [ 17.02216816, 48.43025069 ], [ 17.02219547, 48.4302709 ], [ 17.02225286, 48.43061609 ], [ 17.02231784, 48.43101252 ], [ 17.02239156, 48.43144037 ], [ 17.02245828, 48.43182815 ], [ 17.02249713, 48.43205301 ], [ 17.02252286, 48.43220249 ], [ 17.02256285, 48.43243493 ], [ 17.0227058, 48.43240826 ], [ 17.02270114, 48.43238208 ], [ 17.02269085, 48.43232542 ], [ 17.02275843, 48.43231973 ], [ 17.0227614, 48.43233928 ], [ 17.02288741, 48.43232907 ], [ 17.02289884, 48.43239241 ], [ 17.02294224, 48.43263268 ], [ 17.02279246, 48.43264461 ], [ 17.02280224, 48.43269753 ], [ 17.02284347, 48.43272882 ], [ 17.02296061, 48.43272063 ], [ 17.02296691, 48.43276003 ], [ 17.02297491, 48.43276012 ], [ 17.02297978, 48.43279906 ], [ 17.02298883, 48.4327994 ], [ 17.02299956, 48.43286378 ], [ 17.02300459, 48.43289459 ], [ 17.02304918, 48.43289085 ], [ 17.0231131, 48.43324752 ], [ 17.02305548, 48.43325199 ], [ 17.02296048, 48.43325934 ], [ 17.02296528, 48.43328019 ], [ 17.02306254, 48.43327318 ], [ 17.02308476, 48.43337766 ], [ 17.02298312, 48.43338574 ], [ 17.02291657, 48.43338825 ], [ 17.02292903, 48.43345373 ], [ 17.02294167, 48.43352602 ], [ 17.02295806, 48.433633 ], [ 17.0229652, 48.43367923 ], [ 17.02299818, 48.43367678 ], [ 17.02300306, 48.43367775 ], [ 17.02300558, 48.43368081 ], [ 17.0230485, 48.43394003 ], [ 17.02304705, 48.43394328 ], [ 17.02304245, 48.43394495 ], [ 17.02299985, 48.43394811 ], [ 17.02300431, 48.43397291 ], [ 17.02309144, 48.43446197 ], [ 17.02310011, 48.43449475 ], [ 17.02312089, 48.4345741 ], [ 17.02316119, 48.43461943 ], [ 17.0231925, 48.4346278 ], [ 17.02321052, 48.43464575 ], [ 17.02326972, 48.43470503 ], [ 17.02330876, 48.43474268 ], [ 17.02345704, 48.43468933 ], [ 17.02352442, 48.4346603 ], [ 17.0235392, 48.43464992 ], [ 17.0235552, 48.43463863 ], [ 17.0235808, 48.43462681 ], [ 17.02369199, 48.43457527 ], [ 17.02368587, 48.43452062 ], [ 17.02367928, 48.43444965 ], [ 17.0236716, 48.43439814 ], [ 17.02361277, 48.4344537 ], [ 17.02360878, 48.43424062 ], [ 17.02358928, 48.43396157 ], [ 17.0235856, 48.4338541 ], [ 17.02356654, 48.4337274 ], [ 17.02357752, 48.43362084 ], [ 17.02357284, 48.43354893 ], [ 17.02331225, 48.43206081 ], [ 17.02329511, 48.43207501 ], [ 17.02328759, 48.43203301 ], [ 17.02330489, 48.43201864 ], [ 17.02328951, 48.43193062 ], [ 17.02301896, 48.43040584 ], [ 17.02288436, 48.4296351 ], [ 17.0228744, 48.42964337 ], [ 17.02286288, 48.42965289 ], [ 17.022867, 48.42959703 ], [ 17.0229358, 48.42954016 ], [ 17.02301904, 48.42947071 ], [ 17.02332608, 48.42921485 ], [ 17.02351107, 48.42906068 ], [ 17.02350583, 48.4290577 ], [ 17.02293156, 48.42872659 ], [ 17.02290611, 48.42871193 ], [ 17.02280481, 48.42865348 ], [ 17.022775, 48.4285181 ], [ 17.02275277, 48.42841732 ], [ 17.02268996, 48.42813197 ], [ 17.0226546, 48.4279568 ], [ 17.02256427, 48.42796473 ], [ 17.02255638, 48.42792514 ], [ 17.02264666, 48.42791756 ], [ 17.02252619, 48.42732234 ], [ 17.02250384, 48.4272117 ], [ 17.02254824, 48.42717477 ], [ 17.0225649, 48.42716099 ], [ 17.02231191, 48.42645349 ], [ 17.02221681, 48.42608864 ], [ 17.02215988, 48.42579519 ], [ 17.02213451, 48.4256301 ], [ 17.02221332, 48.42524294 ], [ 17.0219487, 48.42522542 ], [ 17.02193525, 48.42522631 ], [ 17.02177776, 48.42524078 ], [ 17.02175921, 48.42524395 ], [ 17.02174943, 48.42524482 ], [ 17.02158394, 48.42528568 ] ], [ [ 17.02329811, 48.43438766 ], [ 17.02316136, 48.43439966 ], [ 17.02313991, 48.4342814 ], [ 17.02327651, 48.43427038 ], [ 17.02329811, 48.43438766 ] ], [ [ 17.02310703, 48.43376476 ], [ 17.02309584, 48.43368923 ], [ 17.02316006, 48.43368511 ], [ 17.02317372, 48.43375954 ], [ 17.02310703, 48.43376476 ] ], [ [ 17.02262126, 48.43217666 ], [ 17.02255567, 48.43218177 ], [ 17.02254612, 48.43212298 ], [ 17.02261108, 48.43211756 ], [ 17.02262126, 48.43217666 ] ], [ [ 17.02309423, 48.42938743 ], [ 17.02304493, 48.42936002 ], [ 17.02309865, 48.4293173 ], [ 17.02310954, 48.42932329 ], [ 17.02311685, 48.42931728 ], [ 17.02313489, 48.42932719 ], [ 17.02312759, 48.42933311 ], [ 17.02314701, 48.42934375 ], [ 17.02309423, 48.42938743 ] ], [ [ 17.0228527, 48.42917585 ], [ 17.02295781, 48.42916811 ], [ 17.02297148, 48.42926894 ], [ 17.0228691, 48.42927569 ], [ 17.0228527, 48.42917585 ] ], [ [ 17.02324018, 48.42925129 ], [ 17.02318476, 48.42921949 ], [ 17.0232142, 48.42919682 ], [ 17.02326948, 48.42922861 ], [ 17.02324018, 48.42925129 ] ], [ [ 17.02327208, 48.42922671 ], [ 17.02321667, 48.42919491 ], [ 17.02324611, 48.42917223 ], [ 17.02330151, 48.42920413 ], [ 17.02327208, 48.42922671 ] ], [ [ 17.02294165, 48.42910725 ], [ 17.02285913, 48.42911473 ], [ 17.02281821, 48.42888918 ], [ 17.02290154, 48.42888176 ], [ 17.02294165, 48.42910725 ] ], [ [ 17.02347503, 48.42905478 ], [ 17.02337836, 48.42913561 ], [ 17.02303228, 48.42895188 ], [ 17.02312896, 48.42887106 ], [ 17.02347503, 48.42905478 ] ], [ [ 17.0221726, 48.42609258 ], [ 17.02212829, 48.42609625 ], [ 17.02211248, 48.42608866 ], [ 17.02210445, 48.42604472 ], [ 17.02211638, 48.42603514 ], [ 17.02216048, 48.42603019 ], [ 17.0221726, 48.42609258 ] ] ] } },
{ "type": "Feature", "properties": { "@featureType": "CadastralParcel", "areaValue": { "value": 4266, "@uom": "m2" }, "beginLifespanVersion": { "@nilReason": "http://inspire.ec.europa.eu/codelist/VoidReasonValue/Unpopulated", "@nil": "true" }, "endLifespanVersion": { "@nilReason": "http://inspire.ec.europa.eu/codelist/VoidReasonValue/Unpopulated", "@nil": "true" }, "inspireId": { "@dataType": "Identifier", "localId": "835196_2597/1.C", "namespace": "SK.ESKN.CP", "versionId": "20260703T04:07:11" }, "label": "2597/1", "nationalCadastralReference": "835196_2597/1.C", "referencePoint": { "type": "Point", "coordinates": [ 17.02270362, 48.4396986 ] }, "validFrom": "2026-06-30T16:00:00Z", "validTo": { "@nilReason": "http://inspire.ec.europa.eu/codelist/VoidReasonValue/Unpopulated", "@nil": "true" }, "administrativeUnit": { "@href": "#auAdmUnitS.2181" } }, "geometry": { "type": "Polygon", "coordinates": [ [ [ 17.02366172, 48.44000486 ], [ 17.0235854, 48.43997199 ], [ 17.02350768, 48.43993848 ], [ 17.02337467, 48.43988113 ], [ 17.02317566, 48.43979532 ], [ 17.02298225, 48.43971197 ], [ 17.0229778, 48.43971004 ], [ 17.0229248, 48.43968716 ], [ 17.0229458, 48.43965668 ], [ 17.02293049, 48.43965202 ], [ 17.02284988, 48.43962754 ], [ 17.0226177, 48.43955691 ], [ 17.02260216, 48.43957927 ], [ 17.02254602, 48.43955916 ], [ 17.02250825, 48.43954682 ], [ 17.0223199, 48.43948533 ], [ 17.02211871, 48.43943662 ], [ 17.02206797, 48.43942466 ], [ 17.02205776, 48.43946889 ], [ 17.02188234, 48.43942573 ], [ 17.02189152, 48.43938296 ], [ 17.02170827, 48.43933863 ], [ 17.02157034, 48.43930526 ], [ 17.02152488, 48.4392943 ], [ 17.02149914, 48.43928856 ], [ 17.02137315, 48.43926939 ], [ 17.02137434, 48.43926522 ], [ 17.02131479, 48.43925664 ], [ 17.02110288, 48.43923078 ], [ 17.02096165, 48.43921355 ], [ 17.02083774, 48.43919506 ], [ 17.02078095, 48.43918621 ], [ 17.02059306, 48.43913939 ], [ 17.02060368, 48.43919915 ], [ 17.02066026, 48.43928691 ], [ 17.02071729, 48.43931711 ], [ 17.02072183, 48.43928677 ], [ 17.0207233, 48.43927639 ], [ 17.020728, 48.43927671 ], [ 17.02090169, 48.43928702 ], [ 17.02090747, 48.43928742 ], [ 17.02090588, 48.43929861 ], [ 17.02090157, 48.43932923 ], [ 17.02108319, 48.43934443 ], [ 17.02118651, 48.4393617 ], [ 17.02132916, 48.43938554 ], [ 17.0213906, 48.43939687 ], [ 17.02140578, 48.43939972 ], [ 17.02146133, 48.43940957 ], [ 17.02147334, 48.43941274 ], [ 17.02154725, 48.43943306 ], [ 17.02167238, 48.4394604 ], [ 17.02182106, 48.43949631 ], [ 17.0218635, 48.43950653 ], [ 17.02196428, 48.43953501 ], [ 17.02201714, 48.43954992 ], [ 17.02221785, 48.43961497 ], [ 17.02235818, 48.43966007 ], [ 17.02256736, 48.43974251 ], [ 17.02279241, 48.43983118 ], [ 17.02292125, 48.4398821 ], [ 17.02296853, 48.43989889 ], [ 17.02303025, 48.4399304 ], [ 17.02306545, 48.43994709 ], [ 17.02322169, 48.44002474 ], [ 17.02348318, 48.44015477 ], [ 17.0235255, 48.44017375 ], [ 17.02360227, 48.4402081 ], [ 17.02364381, 48.44022512 ], [ 17.02370195, 48.44024898 ], [ 17.02371691, 48.44025506 ], [ 17.023751, 48.44027104 ], [ 17.02375899, 48.44027475 ], [ 17.02381952, 48.44027698 ], [ 17.02381434, 48.44019065 ], [ 17.02381653, 48.44013855 ], [ 17.02381688, 48.44007276 ], [ 17.02381713, 48.44003237 ], [ 17.02378477, 48.44005276 ], [ 17.02366172, 48.44000486 ] ] ] } },
{ "type": "Feature", "properties": { "@featureType": "CadastralParcel", "areaValue": { "value": 323, "@uom": "m2" }, "beginLifespanVersion": { "@nilReason": "http://inspire.ec.europa.eu/codelist/VoidReasonValue/Unpopulated", "@nil": "true" }, "endLifespanVersion": { "@nilReason": "http://inspire.ec.europa.eu/codelist/VoidReasonValue/Unpopulated", "@nil": "true" }, "inspireId": { "@dataType": "Identifier", "localId": "835196_1218/12.C", "namespace": "SK.ESKN.CP", "versionId": "20260703T04:07:11" }, "label": "1218/12", "nationalCadastralReference": "835196_1218/12.C", "referencePoint": { "type": "Point", "coordinates": [ 17.02377385, 48.43591577 ] }, "validFrom": "2026-06-30T16:00:00Z", "validTo": { "@nilReason": "http://inspire.ec.europa.eu/codelist/VoidReasonValue/Unpopulated", "@nil": "true" }, "administrativeUnit": { "@href": "#auAdmUnitS.2181" } }, "geometry": { "type": "Polygon", "coordinates": [ [ [ 17.02389799, 48.43668417 ], [ 17.02398961, 48.43711948 ], [ 17.02389926, 48.43659656 ], [ 17.02381587, 48.43611318 ], [ 17.02373241, 48.43563024 ], [ 17.02362736, 48.43502117 ], [ 17.0235552, 48.43463863 ], [ 17.0235392, 48.43464992 ], [ 17.02373201, 48.43571836 ], [ 17.02389799, 48.43668417 ] ] ] } },
{ "type": "Feature", "properties": { "@featureType": "CadastralParcel", "areaValue": { "value": 793, "@uom": "m2" }, "beginLifespanVersion": { "@nilReason": "http://inspire.ec.europa.eu/codelist/VoidReasonValue/Unpopulated", "@nil": "true" }, "endLifespanVersion": { "@nilReason": "http://inspire.ec.europa.eu/codelist/VoidReasonValue/Unpopulated", "@nil": "true" }, "inspireId": { "@dataType": "Identifier", "localId": "835196_3258/60.C", "namespace": "SK.ESKN.CP", "versionId": "20260703T04:07:11" }, "label": "3258/60", "nationalCadastralReference": "835196_3258/60.C", "referencePoint": { "type": "Point", "coordinates": [ 17.02380283, 48.4359178 ] }, "validFrom": "2026-06-30T16:00:00Z", "validTo": { "@nilReason": "http://inspire.ec.europa.eu/codelist/VoidReasonValue/Unpopulated", "@nil": "true" }, "administrativeUnit": { "@href": "#auAdmUnitS.2181" } }, "geometry": { "type": "Polygon", "coordinates": [ [ [ 17.02367459, 48.43504527 ], [ 17.0235984, 48.43463335 ], [ 17.02358317, 48.4346352 ], [ 17.0235552, 48.43463863 ], [ 17.02362736, 48.43502117 ], [ 17.02373241, 48.43563024 ], [ 17.02381587, 48.43611318 ], [ 17.02389926, 48.43659656 ], [ 17.02398961, 48.43711948 ], [ 17.02404097, 48.43742276 ], [ 17.02403618, 48.4373436 ], [ 17.02402666, 48.43725463 ], [ 17.02399715, 48.4371067 ], [ 17.02397672, 48.43692712 ], [ 17.02396125, 48.43680529 ], [ 17.02394432, 48.43667974 ], [ 17.02392929, 48.43657538 ], [ 17.02392082, 48.43651839 ], [ 17.02390717, 48.43642886 ], [ 17.02388934, 48.43631708 ], [ 17.02388228, 48.43624735 ], [ 17.02384872, 48.43606136 ], [ 17.0237984, 48.43577424 ], [ 17.02379406, 48.43572919 ], [ 17.02379341, 48.4357202 ], [ 17.02379376, 48.43570205 ], [ 17.02379409, 48.4356999 ], [ 17.02374975, 48.43545333 ], [ 17.02373508, 48.43545423 ], [ 17.02370181, 48.43522749 ], [ 17.02367459, 48.43504527 ] ] ] } },
{ "type": "Feature", "properties": { "@featureType": "CadastralParcel", "areaValue": { "value": 647, "@uom": "m2" }, "beginLifespanVersion": { "@nilReason": "http://inspire.ec.europa.eu/codelist/VoidReasonValue/Unpopulated", "@nil": "true" }, "endLifespanVersion": { "@nilReason": "http://inspire.ec.europa.eu/codelist/VoidReasonValue/Unpopulated", "@nil": "true" }, "inspireId": { "@dataType": "Identifier", "localId": "835196_3258/37.C", "namespace": "SK.ESKN.CP", "versionId": "20260703T04:07:11" }, "label": "3258/37", "nationalCadastralReference": "835196_3258/37.C", "referencePoint": { "type": "Point", "coordinates": [ 17.02365856, 48.43473743 ] }, "validFrom": "2026-06-30T16:00:00Z", "validTo": { "@nilReason": "http://inspire.ec.europa.eu/codelist/VoidReasonValue/Unpopulated", "@nil": "true" }, "administrativeUnit": { "@href": "#auAdmUnitS.2181" } }, "geometry": { "type": "Polygon", "coordinates": [ [ [ 17.0235984, 48.43463335 ], [ 17.02367459, 48.43504527 ], [ 17.02366567, 48.4349859 ], [ 17.02363522, 48.43478412 ], [ 17.02369551, 48.43477992 ], [ 17.02370081, 48.43477811 ], [ 17.02370217, 48.43477459 ], [ 17.0236988, 48.43475501 ], [ 17.02369857, 48.43474595 ], [ 17.02369899, 48.43473965 ], [ 17.02369995, 48.4347352 ], [ 17.02370578, 48.43472204 ], [ 17.02371244, 48.43471408 ], [ 17.02371988, 48.43470637 ], [ 17.02372869, 48.43469946 ], [ 17.02373809, 48.43469314 ], [ 17.02374785, 48.43468712 ], [ 17.02375865, 48.43468135 ], [ 17.02376985, 48.4346766 ], [ 17.02378188, 48.43467254 ], [ 17.0237945, 48.43466915 ], [ 17.02380732, 48.43466613 ], [ 17.02384675, 48.43465888 ], [ 17.02407795, 48.43463614 ], [ 17.02408471, 48.43463462 ], [ 17.02408862, 48.43463217 ], [ 17.02409075, 48.43462888 ], [ 17.02409114, 48.43462547 ], [ 17.0240677, 48.43447868 ], [ 17.0240298, 48.4344337 ], [ 17.02391637, 48.43448129 ], [ 17.02369199, 48.43457527 ], [ 17.02363025, 48.43462946 ], [ 17.0235984, 48.43463335 ] ] ] } },
{ "type": "Feature", "properties": { "@featureType": "CadastralParcel", "areaValue": { "value": 15873, "@uom": "m2" }, "beginLifespanVersion": { "@nilReason": "http://inspire.ec.europa.eu/codelist/VoidReasonValue/Unpopulated", "@nil": "true" }, "endLifespanVersion": { "@nilReason": "http://inspire.ec.europa.eu/codelist/VoidReasonValue/Unpopulated", "@nil": "true" }, "inspireId": { "@dataType": "Identifier", "localId": "835196_908.E", "namespace": "SK.ESKN.CP", "versionId": "20260703T04:07:11" }, "label": "908", "nationalCadastralReference": "835196_908.E", "referencePoint": { "type": "Point", "coordinates": [ 17.0398462, 48.44139564 ] }, "validFrom": "2026-06-30T16:00:00Z", "validTo": { "@nilReason": "http://inspire.ec.europa.eu/codelist/VoidReasonValue/Unpopulated", "@nil": "true" }, "administrativeUnit": { "@href": "#auAdmUnitS.2181" } }, "geometry": { "type": "MultiPolygon", "coordinates": [ [ [ [ 17.02647086, 48.44115493 ], [ 17.02673451, 48.44116432 ], [ 17.02711447, 48.44114277 ], [ 17.02742588, 48.44111546 ], [ 17.02782132, 48.4410843 ], [ 17.02832975, 48.44097667 ], [ 17.02861692, 48.44089418 ], [ 17.02889693, 48.44088109 ], [ 17.02918898, 48.4408869 ], [ 17.02970013, 48.44092744 ], [ 17.03043533, 48.44099284 ], [ 17.03066113, 48.4410132 ], [ 17.03095839, 48.44104078 ], [ 17.03229353, 48.44115781 ], [ 17.03298415, 48.44122151 ], [ 17.0332146, 48.44128142 ], [ 17.03349609, 48.44128613 ], [ 17.0337155, 48.44127568 ], [ 17.03383988, 48.44126029 ], [ 17.03463283, 48.44125501 ], [ 17.03626754, 48.44125128 ], [ 17.03764955, 48.44122526 ], [ 17.03793828, 48.44121816 ], [ 17.03865495, 48.4412901 ], [ 17.03930696, 48.44135041 ], [ 17.03957438, 48.44137585 ], [ 17.03996696, 48.44149307 ], [ 17.04092993, 48.44181265 ], [ 17.04157575, 48.44201581 ], [ 17.04165217, 48.44191379 ], [ 17.04142269, 48.44184303 ], [ 17.04023553, 48.44146244 ], [ 17.04024103, 48.44145495 ], [ 17.0401177, 48.44141582 ], [ 17.04008769, 48.44140691 ], [ 17.04007899, 48.44140424 ], [ 17.04002443, 48.44138705 ], [ 17.03990981, 48.44135312 ], [ 17.03981974, 48.44132656 ], [ 17.03978696, 48.44131619 ], [ 17.03967191, 48.4412797 ], [ 17.03966767, 48.44127815 ], [ 17.03962063, 48.44126509 ], [ 17.03951294, 48.44124176 ], [ 17.03932686, 48.44120866 ], [ 17.03913972, 48.44119212 ], [ 17.03893808, 48.44117631 ], [ 17.03884885, 48.44116987 ], [ 17.03865591, 48.44115574 ], [ 17.03863193, 48.44115438 ], [ 17.03838337, 48.44113972 ], [ 17.03817974, 48.44112269 ], [ 17.03794294, 48.44110837 ], [ 17.03765228, 48.44111127 ], [ 17.03724651, 48.44111075 ], [ 17.03692165, 48.44111774 ], [ 17.03563285, 48.44112605 ], [ 17.034363, 48.44113483 ], [ 17.03396393, 48.44113757 ], [ 17.03383683, 48.44113795 ], [ 17.03374096, 48.44113141 ], [ 17.03351844, 48.44107819 ], [ 17.03301736, 48.44109576 ], [ 17.03281369, 48.44108604 ], [ 17.03229802, 48.44104123 ], [ 17.0310982, 48.44093225 ], [ 17.03043925, 48.44087558 ], [ 17.02933132, 48.44079101 ], [ 17.02906579, 48.44077101 ], [ 17.02885466, 48.4407709 ], [ 17.02862372, 48.44080768 ], [ 17.02830129, 48.44088885 ], [ 17.02813521, 48.44091829 ], [ 17.02779854, 48.44096929 ], [ 17.02742384, 48.44102375 ], [ 17.02725917, 48.44104841 ], [ 17.02721861, 48.44104971 ], [ 17.02698931, 48.44106526 ], [ 17.02683331, 48.441068 ], [ 17.02674059, 48.44107099 ], [ 17.02652256, 48.44106453 ], [ 17.02648933, 48.44106064 ], [ 17.02648746, 48.44107009 ], [ 17.0264737, 48.44114003 ], [ 17.02647086, 48.44115493 ] ] ], [ [ [ 17.02439888, 48.44035809 ], [ 17.02438548, 48.44044414 ], [ 17.02455458, 48.44051688 ], [ 17.02457854, 48.44053597 ], [ 17.02456268, 48.44055161 ], [ 17.02455883, 48.44055541 ], [ 17.02494401, 48.44072046 ], [ 17.02503016, 48.44075653 ], [ 17.02503336, 48.44074635 ], [ 17.02503904, 48.44072269 ], [ 17.02504262, 48.44069862 ], [ 17.02504405, 48.44067431 ], [ 17.02504311, 48.44064956 ], [ 17.02504066, 48.44062842 ], [ 17.02494144, 48.44058983 ], [ 17.02439888, 48.44035809 ] ] ] ] } },
{ "type": "Feature", "properties": { "@featureType": "CadastralParcel", "areaValue": { "value": 13508, "@uom": "m2" }, "beginLifespanVersion": { "@nilReason": "http://inspire.ec.europa.eu/codelist/VoidReasonValue/Unpopulated", "@nil": "true" }, "endLifespanVersion": { "@nilReason": "http://inspire.ec.europa.eu/codelist/VoidReasonValue/Unpopulated", "@nil": "true" }, "inspireId": { "@dataType": "Identifier", "localId": "835196_429/1.E", "namespace": "SK.ESKN.CP", "versionId": "20260703T04:07:11" }, "label": "429/1", "nationalCadastralReference": "835196_429/1.E", "referencePoint": { "type": "Point", "coordinates": [ 17.02235184, 48.44066355 ] }, "validFrom": "2026-06-30T16:00:00Z", "validTo": { "@nilReason": "http://inspire.ec.europa.eu/codelist/VoidReasonValue/Unpopulated", "@nil": "true" }, "administrativeUnit": { "@href": "#auAdmUnitS.2181" } }, "geometry": { "type": "Polygon", "coordinates": [ [ [ 17.01902488, 48.4396697 ], [ 17.01873211, 48.43971887 ], [ 17.01871819, 48.43969107 ], [ 17.01861272, 48.43971769 ], [ 17.01827222, 48.43980763 ], [ 17.01794602, 48.43989384 ], [ 17.0178463, 48.43992021 ], [ 17.01777844, 48.43993818 ], [ 17.01762265, 48.43997925 ], [ 17.017183, 48.44009533 ], [ 17.01710995, 48.44011791 ], [ 17.01709013, 48.44012397 ], [ 17.01708457, 48.44012567 ], [ 17.01700254, 48.44015099 ], [ 17.01692139, 48.44017673 ], [ 17.01690424, 48.44018396 ], [ 17.01683354, 48.44021069 ], [ 17.01665963, 48.44026616 ], [ 17.01668122, 48.4402953 ], [ 17.01669982, 48.44028925 ], [ 17.01672229, 48.44032414 ], [ 17.01670705, 48.44032961 ], [ 17.01642981, 48.44043218 ], [ 17.01639325, 48.44039172 ], [ 17.01626655, 48.44025116 ], [ 17.01611003, 48.44007847 ], [ 17.01600515, 48.43994628 ], [ 17.01587148, 48.43976818 ], [ 17.01587064, 48.43976659 ], [ 17.01582184, 48.43966716 ], [ 17.01581927, 48.43966183 ], [ 17.01578477, 48.43968379 ], [ 17.0157507, 48.43971527 ], [ 17.0157471, 48.43979232 ], [ 17.01581903, 48.43988095 ], [ 17.01584267, 48.43991005 ], [ 17.01585558, 48.43992585 ], [ 17.01593905, 48.44002864 ], [ 17.01595195, 48.44004453 ], [ 17.01603724, 48.44014962 ], [ 17.01605472, 48.44017106 ], [ 17.01606764, 48.44018686 ], [ 17.01616719, 48.44030956 ], [ 17.01618011, 48.44032536 ], [ 17.01622829, 48.4403847 ], [ 17.01630134, 48.44047051 ], [ 17.01636979, 48.44055176 ], [ 17.01647424, 48.44052734 ], [ 17.0164854, 48.44052277 ], [ 17.0165086, 48.44050275 ], [ 17.01664017, 48.44045315 ], [ 17.01676198, 48.44040777 ], [ 17.01674231, 48.44038464 ], [ 17.01682947, 48.44031727 ], [ 17.01715449, 48.44018858 ], [ 17.0172737, 48.44014509 ], [ 17.01735619, 48.44011149 ], [ 17.01737635, 48.44010591 ], [ 17.01781899, 48.43998362 ], [ 17.01797921, 48.43993941 ], [ 17.01801397, 48.43992985 ], [ 17.01829797, 48.43986444 ], [ 17.01844991, 48.43984218 ], [ 17.01875224, 48.43977422 ], [ 17.01917985, 48.43970623 ], [ 17.01922891, 48.43969385 ], [ 17.01934918, 48.43966635 ], [ 17.01937594, 48.43966022 ], [ 17.01938139, 48.43965923 ], [ 17.01960972, 48.43961651 ], [ 17.01982889, 48.43956177 ], [ 17.01983483, 48.43956027 ], [ 17.019859, 48.43955424 ], [ 17.02005528, 48.43950517 ], [ 17.02009263, 48.4394947 ], [ 17.02010044, 48.43949252 ], [ 17.02012104, 48.43948669 ], [ 17.02013028, 48.43948407 ], [ 17.0201334, 48.4394832 ], [ 17.02024858, 48.43945083 ], [ 17.02025602, 48.43946074 ], [ 17.02046103, 48.43938505 ], [ 17.0205524, 48.4394957 ], [ 17.02062682, 48.43958585 ], [ 17.02071514, 48.43969332 ], [ 17.02079043, 48.43978488 ], [ 17.02082818, 48.43982733 ], [ 17.02086086, 48.43986744 ], [ 17.02088863, 48.43990323 ], [ 17.02092123, 48.4399456 ], [ 17.02095308, 48.43998402 ], [ 17.02103566, 48.44008558 ], [ 17.02108731, 48.44014624 ], [ 17.02115656, 48.44022763 ], [ 17.0211498, 48.44023006 ], [ 17.02117101, 48.44025555 ], [ 17.02122644, 48.44031819 ], [ 17.02128543, 48.44038505 ], [ 17.02131283, 48.44041883 ], [ 17.0213568, 48.44047119 ], [ 17.02141225, 48.44053717 ], [ 17.02144934, 48.44058129 ], [ 17.02153972, 48.44069305 ], [ 17.02154293, 48.44069779 ], [ 17.02156094, 48.44072026 ], [ 17.02161733, 48.44078369 ], [ 17.02167141, 48.44084894 ], [ 17.02157356, 48.44088783 ], [ 17.02150388, 48.44091499 ], [ 17.02143089, 48.44094336 ], [ 17.0212755, 48.44100391 ], [ 17.02114507, 48.44105404 ], [ 17.02116992, 48.4411635 ], [ 17.02118, 48.44115976 ], [ 17.02130067, 48.44111474 ], [ 17.02133022, 48.44110374 ], [ 17.0214986, 48.44104092 ], [ 17.02156015, 48.441018 ], [ 17.02161738, 48.44099668 ], [ 17.02175001, 48.44094724 ], [ 17.02184128, 48.44106204 ], [ 17.02191287, 48.44115209 ], [ 17.02200768, 48.44127129 ], [ 17.0220683, 48.44134784 ], [ 17.02212811, 48.44142353 ], [ 17.02213875, 48.44143736 ], [ 17.02217003, 48.44148126 ], [ 17.0222043, 48.44152338 ], [ 17.02221574, 48.44153817 ], [ 17.02227789, 48.44161889 ], [ 17.02235746, 48.44172241 ], [ 17.02240919, 48.44178968 ], [ 17.02245979, 48.44185279 ], [ 17.02251744, 48.4419248 ], [ 17.02257207, 48.44199353 ], [ 17.02261214, 48.442043 ], [ 17.02267154, 48.44211956 ], [ 17.02271077, 48.44217006 ], [ 17.02294202, 48.44205991 ], [ 17.02292403, 48.44203734 ], [ 17.02286849, 48.44196747 ], [ 17.02277527, 48.44184765 ], [ 17.02275449, 48.44182029 ], [ 17.02268894, 48.44173599 ], [ 17.0226168, 48.4416469 ], [ 17.02255166, 48.44156525 ], [ 17.02251395, 48.44151811 ], [ 17.02244692, 48.44143289 ], [ 17.02242101, 48.44140003 ], [ 17.02232319, 48.44127565 ], [ 17.02224983, 48.44118213 ], [ 17.02222981, 48.44115681 ], [ 17.02219393, 48.44111106 ], [ 17.02217119, 48.4410823 ], [ 17.02209686, 48.44099062 ], [ 17.02204753, 48.44092985 ], [ 17.02200368, 48.44087586 ], [ 17.02201368, 48.44086036 ], [ 17.02213766, 48.44081232 ], [ 17.02221838, 48.4407814 ], [ 17.02226345, 48.44076404 ], [ 17.02237092, 48.44072265 ], [ 17.02242609, 48.44070146 ], [ 17.02255625, 48.44065122 ], [ 17.02259943, 48.44063464 ], [ 17.02270806, 48.44059278 ], [ 17.02290905, 48.4405141 ], [ 17.0230081, 48.44047529 ], [ 17.0231077, 48.44043644 ], [ 17.02322902, 48.44038893 ], [ 17.0232614, 48.44037632 ], [ 17.02334352, 48.44034422 ], [ 17.02364381, 48.44022512 ], [ 17.02370195, 48.44024898 ], [ 17.02371691, 48.44025506 ], [ 17.02375899, 48.44027475 ], [ 17.02381952, 48.44027698 ], [ 17.023817, 48.44023423 ], [ 17.02367368, 48.4401759 ], [ 17.0228812, 48.43983959 ], [ 17.02262282, 48.43973879 ], [ 17.02246532, 48.43967724 ], [ 17.02210552, 48.43955568 ], [ 17.02183797, 48.43948445 ], [ 17.02133878, 48.43936902 ], [ 17.02108998, 48.43933034 ], [ 17.02090336, 48.4393167 ], [ 17.02071942, 48.43930333 ], [ 17.02056867, 48.43929232 ], [ 17.0204243, 48.4392558 ], [ 17.02028258, 48.43914478 ], [ 17.02032376, 48.43920554 ], [ 17.02038078, 48.43928781 ], [ 17.02037227, 48.43930332 ], [ 17.02039418, 48.43934279 ], [ 17.02015932, 48.43941463 ], [ 17.02012124, 48.43942632 ], [ 17.01982806, 48.43951606 ], [ 17.01981123, 48.43952124 ], [ 17.01958784, 48.43956629 ], [ 17.01932296, 48.43961962 ], [ 17.01902488, 48.4396697 ] ], [ [ 17.02196331, 48.43978546 ], [ 17.02193428, 48.43976666 ], [ 17.02189414, 48.43979701 ], [ 17.02192037, 48.43984455 ], [ 17.02194797, 48.4398947 ], [ 17.02186268, 48.43991474 ], [ 17.0217833, 48.43993346 ], [ 17.02178697, 48.43994049 ], [ 17.02171106, 48.43996225 ], [ 17.02163245, 48.43998482 ], [ 17.02161595, 48.43998957 ], [ 17.02155724, 48.44000645 ], [ 17.02130478, 48.44007881 ], [ 17.02121136, 48.43994533 ], [ 17.02118461, 48.43995399 ], [ 17.02115487, 48.4399195 ], [ 17.02101053, 48.43975235 ], [ 17.02086758, 48.43958674 ], [ 17.02084129, 48.43955628 ], [ 17.0208376, 48.43955205 ], [ 17.0208173, 48.43952861 ], [ 17.02070433, 48.43939768 ], [ 17.02071729, 48.43931711 ], [ 17.02090157, 48.43932923 ], [ 17.02108319, 48.43934443 ], [ 17.02118651, 48.4393617 ], [ 17.02132916, 48.43938554 ], [ 17.02140578, 48.43939972 ], [ 17.02146133, 48.43940957 ], [ 17.02147334, 48.43941274 ], [ 17.02154725, 48.43943306 ], [ 17.02167238, 48.4394604 ], [ 17.02182106, 48.43949631 ], [ 17.0218635, 48.43950653 ], [ 17.02196428, 48.43953501 ], [ 17.02201714, 48.43954992 ], [ 17.02209026, 48.43957363 ], [ 17.02221785, 48.43961497 ], [ 17.02235818, 48.43966007 ], [ 17.02256736, 48.43974251 ], [ 17.0227545, 48.43981621 ], [ 17.02279241, 48.43983118 ], [ 17.02291684, 48.439879 ], [ 17.02296853, 48.43989889 ], [ 17.02302986, 48.43992938 ], [ 17.02306545, 48.43994709 ], [ 17.02322169, 48.44002474 ], [ 17.02348318, 48.44015477 ], [ 17.02347607, 48.44016125 ], [ 17.02342182, 48.44020998 ], [ 17.02319895, 48.44029133 ], [ 17.02303555, 48.44035096 ], [ 17.02300949, 48.44036049 ], [ 17.02290094, 48.44040009 ], [ 17.02276273, 48.44045051 ], [ 17.02255713, 48.44052562 ], [ 17.02239271, 48.44058564 ], [ 17.02236536, 48.44059561 ], [ 17.02230863, 48.44061633 ], [ 17.02226702, 48.44063157 ], [ 17.02207337, 48.44070225 ], [ 17.02191142, 48.44076127 ], [ 17.02183545, 48.44067589 ], [ 17.02176759, 48.44059957 ], [ 17.02168886, 48.44051094 ], [ 17.02163478, 48.44045011 ], [ 17.02154654, 48.44035088 ], [ 17.02152245, 48.44032383 ], [ 17.02149825, 48.4402966 ], [ 17.02140493, 48.44019151 ], [ 17.02135931, 48.44014021 ], [ 17.0215214, 48.4400935 ], [ 17.02153633, 48.44008919 ], [ 17.02167761, 48.44004793 ], [ 17.02173936, 48.44002991 ], [ 17.02177601, 48.44001867 ], [ 17.02183981, 48.44000051 ], [ 17.02200126, 48.4399421 ], [ 17.02203522, 48.43992986 ], [ 17.02199033, 48.43988964 ], [ 17.02198132, 48.43987754 ], [ 17.02194749, 48.43981846 ], [ 17.02196426, 48.43980134 ], [ 17.02197344, 48.43979203 ], [ 17.02196331, 48.43978546 ] ] ] } },
{ "type": "Feature", "properties": { "@featureType": "CadastralParcel", "areaValue": { "value": 5318, "@uom": "m2" }, "beginLifespanVersion": { "@nilReason": "http://inspire.ec.europa.eu/codelist/VoidReasonValue/Unpopulated", "@nil": "true" }, "endLifespanVersion": { "@nilReason": "http://inspire.ec.europa.eu/codelist/VoidReasonValue/Unpopulated", "@nil": "true" }, "inspireId": { "@dataType": "Identifier", "localId": "835196_477.E", "namespace": "SK.ESKN.CP", "versionId": "20260703T04:07:11" }, "label": "477", "nationalCadastralReference": "835196_477.E", "referencePoint": { "type": "Point", "coordinates": [ 17.02003076, 48.43867981 ] }, "validFrom": "2026-06-30T16:00:00Z", "validTo": { "@nilReason": "http://inspire.ec.europa.eu/codelist/VoidReasonValue/Unpopulated", "@nil": "true" }, "administrativeUnit": { "@href": "#auAdmUnitS.2181" } }, "geometry": { "type": "Polygon", "coordinates": [ [ [ 17.01805578, 48.43742334 ], [ 17.01820853, 48.43735087 ], [ 17.01830765, 48.43732482 ], [ 17.01835037, 48.43732358 ], [ 17.01842857, 48.43734158 ], [ 17.01857881, 48.43742895 ], [ 17.01887995, 48.43760039 ], [ 17.01901097, 48.4376662 ], [ 17.01904404, 48.43768256 ], [ 17.01904577, 48.43768368 ], [ 17.0191428, 48.43774789 ], [ 17.01935355, 48.43786931 ], [ 17.01948596, 48.4379561 ], [ 17.01960954, 48.43808514 ], [ 17.01972442, 48.43823093 ], [ 17.01976922, 48.43833163 ], [ 17.01980639, 48.43840694 ], [ 17.01984797, 48.43850561 ], [ 17.0200113, 48.43875136 ], [ 17.02007219, 48.4388376 ], [ 17.02014225, 48.4389393 ], [ 17.02018744, 48.43900485 ], [ 17.02023133, 48.43906914 ], [ 17.02028258, 48.43914478 ], [ 17.0204243, 48.4392558 ], [ 17.02056867, 48.43929232 ], [ 17.02071942, 48.43930333 ], [ 17.02090336, 48.4393167 ], [ 17.02108998, 48.43933034 ], [ 17.02133878, 48.43936902 ], [ 17.02183797, 48.43948445 ], [ 17.02210552, 48.43955568 ], [ 17.02246532, 48.43967724 ], [ 17.02262282, 48.43973879 ], [ 17.0228812, 48.43983959 ], [ 17.02367368, 48.4401759 ], [ 17.023817, 48.44023423 ], [ 17.02381434, 48.44019065 ], [ 17.02381595, 48.44010172 ], [ 17.02263656, 48.43960024 ], [ 17.02245872, 48.43956315 ], [ 17.02230175, 48.4395264 ], [ 17.02214924, 48.43949068 ], [ 17.0221036, 48.43947997 ], [ 17.02208564, 48.43947576 ], [ 17.02205776, 48.43946889 ], [ 17.02188234, 48.43942573 ], [ 17.02159777, 48.43935559 ], [ 17.02156937, 48.43934859 ], [ 17.02138992, 48.43931573 ], [ 17.02136264, 48.43931116 ], [ 17.02110605, 48.43926843 ], [ 17.02095165, 48.43924849 ], [ 17.02060095, 48.43918342 ], [ 17.02055433, 48.43915971 ], [ 17.02026935, 48.43891154 ], [ 17.02004478, 48.43860827 ], [ 17.01996077, 48.43854595 ], [ 17.01986748, 48.43839493 ], [ 17.01983309, 48.43832451 ], [ 17.01975555, 48.43812512 ], [ 17.01973671, 48.43809481 ], [ 17.01970123, 48.43803769 ], [ 17.0196982, 48.43801941 ], [ 17.01970466, 48.43799426 ], [ 17.01969229, 48.43796259 ], [ 17.0190908, 48.43764806 ], [ 17.01851398, 48.43725284 ], [ 17.01847698, 48.43720647 ], [ 17.01845322, 48.4371394 ], [ 17.01805578, 48.43742334 ] ] ] } },
{ "type": "Feature", "properties": { "@featureType": "CadastralParcel", "areaValue": { "value": 266, "@uom": "m2" }, "beginLifespanVersion": { "@nilReason": "http://inspire.ec.europa.eu/codelist/VoidReasonValue/Unpopulated", "@nil": "true" }, "endLifespanVersion": { "@nilReason": "http://inspire.ec.europa.eu/codelist/VoidReasonValue/Unpopulated", "@nil": "true" }, "inspireId": { "@dataType": "Identifier", "localId": "835196_478.E", "namespace": "SK.ESKN.CP", "versionId": "20260703T04:07:11" }, "label": "478", "nationalCadastralReference": "835196_478.E", "referencePoint": { "type": "Point", "coordinates": [ 17.02323571, 48.43983822 ] }, "validFrom": "2026-06-30T16:00:00Z", "validTo": { "@nilReason": "http://inspire.ec.europa.eu/codelist/VoidReasonValue/Unpopulated", "@nil": "true" }, "administrativeUnit": { "@href": "#auAdmUnitS.2181" } }, "geometry": { "type": "Polygon", "coordinates": [ [ [ 17.02381637, 48.44007254 ], [ 17.02367869, 48.44001289 ], [ 17.02366172, 48.44000486 ], [ 17.0235854, 48.43997199 ], [ 17.02350768, 48.43993848 ], [ 17.02337467, 48.43988113 ], [ 17.02317566, 48.43979532 ], [ 17.02298225, 48.43971197 ], [ 17.0229248, 48.43968716 ], [ 17.02280312, 48.4396418 ], [ 17.02263656, 48.43960024 ], [ 17.02381595, 48.44010172 ], [ 17.02381637, 48.44007254 ] ] ] } },
{ "type": "Feature", "properties": { "@featureType": "CadastralParcel", "areaValue": { "value": 8, "@uom": "m2" }, "beginLifespanVersion": { "@nilReason": "http://inspire.ec.europa.eu/codelist/VoidReasonValue/Unpopulated", "@nil": "true" }, "endLifespanVersion": { "@nilReason": "http://inspire.ec.europa.eu/codelist/VoidReasonValue/Unpopulated", "@nil": "true" }, "inspireId": { "@dataType": "Identifier", "localId": "835196_1037/3.E", "namespace": "SK.ESKN.CP", "versionId": "20260703T04:07:11" }, "label": "1037/3", "nationalCadastralReference": "835196_1037/3.E", "referencePoint": { "type": "Point", "coordinates": [ 17.02362162, 48.43461368 ] }, "validFrom": "2026-06-30T16:00:00Z", "validTo": { "@nilReason": "http://inspire.ec.europa.eu/codelist/VoidReasonValue/Unpopulated", "@nil": "true" }, "administrativeUnit": { "@href": "#auAdmUnitS.2181" } }, "geometry": { "type": "Polygon", "coordinates": [ [ [ 17.02363606, 48.43462434 ], [ 17.02363215, 48.43460301 ], [ 17.0235808, 48.43462681 ], [ 17.02358317, 48.4346352 ], [ 17.02359576, 48.43463371 ], [ 17.02363025, 48.43462946 ], [ 17.02363606, 48.43462434 ] ] ] } }
]
}
