{
"type": "FeatureCollection",
"name": "gis",
"crs": { "type": "name", "properties": { "name": "urn:ogc:def:crs:OGC:1.3:CRS84" } },
"features": [
{ "type": "Feature", "properties": { "@featureType": "CadastralZoning", "beginLifespanVersion": { "@nilReason": "http://inspire.ec.europa.eu/codelist/VoidReasonValue/Unpopulated", "@nil": "true" }, "endLifespanVersion": { "@nilReason": "http://inspire.ec.europa.eu/codelist/VoidReasonValue/Unpopulated", "@nil": "true" }, "estimatedAccuracy": { "value": -1, "@uom": "m" }, "inspireId": { "@dataType": "Identifier", "localId": "831646", "namespace": "SK.ESKN.CP", "versionId": "20260703T04:07:40" }, "label": "Levice", "level": { "@href": "http://inspire.ec.europa.eu/codelist/CadastralZoningLevelValue/3rdOrder" }, "levelName": { "value": "Katastrálne územie", "@locale": "sk" }, "name_1": { "@dataType": "name", "GeographicalName": { "@dataType": "GeographicalName", "language": "SLK", "nativeness": { "@href": "http://inspire.ec.europa.eu/codelist/NativenessValue/endonym", "@title": "endonym" }, "nameStatus": { "@href": "http://inspire.ec.europa.eu/codelist/NameStatusValue/official", "@title": "official" }, "sourceOfName": { "@nilReason": "http://inspire.ec.europa.eu/codelist/VoidReasonValue/Unpopulated", "@nil": "true" }, "pronunciation": { "@dataType": "pronunciation", "@nilReason": "http://inspire.ec.europa.eu/codelist/VoidReasonValue/Unpopulated", "@nil": "true" }, "spelling": { "@dataType": "SpellingOfName", "text": "Levice", "script": "LATN" } } }, "nationalCadastalZoningReference": "831646", "validFrom": "2026-06-30T16:00:00Z", "validTo": { "@nilReason": "http://inspire.ec.europa.eu/codelist/VoidReasonValue/Unpopulated", "@nil": "true" }, "place_id": 188053037, "osm_type": "relation", "osm_id": 2217953, "place_rank": 16, "category": "boundary", "type": "administrative", "importance": 0.54101794346419685, "addresstype": "town", "name_2": "Levice", "display_name": "Levice, okres Levice, Nitriansky kraj, Slovensko" }, "geometry": { "type": "Polygon", "coordinates": [ [ [ 18.60507133, 48.24096499 ], [ 18.605146197207823, 48.240848357772705 ], [ 18.605393810630222, 48.240425215267557 ], [ 18.60540453, 48.24039561 ], [ 18.605395697948939, 48.240315861462015 ], [ 18.605362709611295, 48.24020553639901 ], [ 18.60527591, 48.24006826 ], [ 18.60527761, 48.23997135 ], [ 18.60535403, 48.23981011 ], [ 18.60544467, 48.23961869 ], [ 18.60542173, 48.23953767 ], [ 18.60539071, 48.2395118 ], [ 18.60537001, 48.23949443 ], [ 18.60526324, 48.23940523 ], [ 18.60523705, 48.23939623 ], [ 18.60512765, 48.2393585 ], [ 18.60486385, 48.23926761 ], [ 18.604859048660092, 48.239265953673247 ], [ 18.604674456785702, 48.239208385522168 ], [ 18.60463291, 48.23919755 ], [ 18.6045473, 48.2391752 ], [ 18.60450867, 48.23916515 ], [ 18.60448982, 48.23916025 ], [ 18.60441388, 48.2391405 ], [ 18.604441583341018, 48.239135759932935 ], [ 18.604426, 48.2391309 ], [ 18.604456072014749, 48.239128534447197 ], [ 18.60445243, 48.23911688 ], [ 18.60447869, 48.23911533 ], [ 18.6045014, 48.23911404 ], [ 18.60452848, 48.23911245 ], [ 18.60456168, 48.23911047 ], [ 18.60462806, 48.23910669 ], [ 18.60465309, 48.23910525 ], [ 18.60466412, 48.23910459 ], [ 18.60486519, 48.23909289 ], [ 18.6049324, 48.23908898 ], [ 18.60496246, 48.23908728 ], [ 18.60497104, 48.23908675 ], [ 18.60498151, 48.23908615 ], [ 18.60501389, 48.2390843 ], [ 18.605023, 48.23908381 ], [ 18.60502463, 48.23908371 ], [ 18.605029163718346, 48.239083453374434 ], [ 18.6054252, 48.2390523 ], [ 18.607074810513698, 48.239002230682203 ], [ 18.607019151307899, 48.23877340132988 ], [ 18.606876050325578, 48.238305474543075 ], [ 18.60686458, 48.23827561 ], [ 18.60678061, 48.23801847 ], [ 18.60666104, 48.23765227 ], [ 18.60644361, 48.23719042 ], [ 18.606457496719443, 48.237184203286034 ], [ 18.6064558, 48.2371806 ], [ 18.6066695, 48.2370852 ], [ 18.6083547, 48.2368498 ], [ 18.609493138518616, 48.236541718966585 ], [ 18.60951444, 48.23653585 ], [ 18.609538415211976, 48.236529466315034 ], [ 18.6109957, 48.2361351 ], [ 18.6133476, 48.2353009 ], [ 18.6136583, 48.2356834 ], [ 18.6143526, 48.2354877 ], [ 18.6157274, 48.2349567 ], [ 18.6163064, 48.2353526 ], [ 18.6177241, 48.2346005 ], [ 18.619016, 48.235069 ], [ 18.6197888, 48.235402 ], [ 18.6231032, 48.2390065 ], [ 18.6244698, 48.2380249 ], [ 18.6258478, 48.2372786 ], [ 18.626335058965221, 48.237040365795373 ], [ 18.62655384, 48.23693179 ], [ 18.6268469, 48.23678338 ], [ 18.62721149, 48.2366088 ], [ 18.627580554730599, 48.236431408928041 ], [ 18.6280469, 48.2362034 ], [ 18.628406291909467, 48.236018334055579 ], [ 18.62861247, 48.23590883 ], [ 18.62888832, 48.23576751 ], [ 18.62964852, 48.23537844 ], [ 18.629665215038649, 48.235370061816504 ], [ 18.629913647129182, 48.235242133729507 ], [ 18.6300073, 48.23519145 ], [ 18.630118897220061, 48.235136441862466 ], [ 18.630879786774674, 48.234744627967068 ], [ 18.63088188, 48.23474351 ], [ 18.630891664940354, 48.234738511402135 ], [ 18.6315739, 48.2343872 ], [ 18.6326882, 48.2337653 ], [ 18.6335621, 48.234309 ], [ 18.6342959, 48.2338749 ], [ 18.6354873, 48.2347902 ], [ 18.6359867, 48.2350009 ], [ 18.636252403968829, 48.235181031514379 ], [ 18.63701762, 48.23453782 ], [ 18.63702472463255, 48.234532764092499 ], [ 18.6370298, 48.2345285 ], [ 18.6375061, 48.2341889 ], [ 18.6390504, 48.2334515 ], [ 18.6394159, 48.2332063 ], [ 18.640349205457973, 48.23254147967377 ], [ 18.64082214, 48.23219486 ], [ 18.641248995770205, 48.231900533149989 ], [ 18.641267448755467, 48.231887388557752 ], [ 18.641289163620694, 48.231867750256612 ], [ 18.64182121551536, 48.231300143146221 ], [ 18.64183139, 48.231288 ], [ 18.64184885, 48.23126647 ], [ 18.641853134507997, 48.231266091116041 ], [ 18.641861, 48.2312577 ], [ 18.642539232873208, 48.231176335985808 ], [ 18.64260371, 48.23111814 ], [ 18.642697033492219, 48.231077544897836 ], [ 18.642909319559656, 48.230943287012913 ], [ 18.64319082, 48.23074045 ], [ 18.64431209, 48.23003183 ], [ 18.645056360540583, 48.229585415606593 ], [ 18.645119, 48.2295458 ], [ 18.6464214, 48.230098 ], [ 18.6470435, 48.2304149 ], [ 18.6477213, 48.2308699 ], [ 18.6485854, 48.2305354 ], [ 18.651563315853419, 48.228863465300819 ], [ 18.65148298, 48.22861077 ], [ 18.65142852, 48.22829111 ], [ 18.6514344, 48.22820914 ], [ 18.65149784, 48.22805556 ], [ 18.65221291, 48.22667297 ], [ 18.65230235, 48.22649978 ], [ 18.65253686, 48.22604641 ], [ 18.65254989, 48.22602131 ], [ 18.652561, 48.22599989 ], [ 18.65261037, 48.22590439 ], [ 18.652676381210192, 48.22577664574176 ], [ 18.653239119103258, 48.224668326410551 ], [ 18.65325782, 48.22461695 ], [ 18.65326024, 48.22456682 ], [ 18.65326305, 48.22451022 ], [ 18.65326091, 48.22445316 ], [ 18.65326403, 48.22441958 ], [ 18.65327203, 48.22433123 ], [ 18.6532796, 48.22424862 ], [ 18.65328951, 48.22413998 ], [ 18.65329234703384, 48.224108818359042 ], [ 18.653312743906447, 48.223657330827564 ], [ 18.6532923, 48.22353259 ], [ 18.65328546, 48.22349099 ], [ 18.6533044, 48.22339032 ], [ 18.6533253, 48.22327902 ], [ 18.6533258, 48.22324151 ], [ 18.65332595, 48.22322573 ], [ 18.65332812, 48.22306063 ], [ 18.653340037922348, 48.223053174097231 ], [ 18.6533401, 48.2230518 ], [ 18.653571600203861, 48.222895656446866 ], [ 18.65359916, 48.22282281 ], [ 18.653602747011004, 48.222815324841442 ], [ 18.65365192020036, 48.222633681332724 ], [ 18.65365861, 48.22251138 ], [ 18.65365946, 48.22249546 ], [ 18.65368935, 48.22242922 ], [ 18.653732685194608, 48.22233533914406 ], [ 18.653786476959233, 48.222136634829894 ], [ 18.65381206, 48.22202467 ], [ 18.65383737, 48.22191378 ], [ 18.65389641679948, 48.221829544946765 ], [ 18.65398768083023, 48.221684632465511 ], [ 18.65404762, 48.22158128 ], [ 18.65405938, 48.22156116 ], [ 18.65411995, 48.22137422 ], [ 18.65416641, 48.22130049 ], [ 18.654202696374107, 48.221242865862678 ], [ 18.654225997739882, 48.221188056601967 ], [ 18.65425975, 48.22106714 ], [ 18.65430207, 48.2209663 ], [ 18.65438316, 48.22081287 ], [ 18.654395282610462, 48.220789866268667 ], [ 18.654524957664947, 48.220484845784618 ], [ 18.65453539, 48.22045097 ], [ 18.65454545, 48.22041803 ], [ 18.65461758, 48.22031519 ], [ 18.65467663, 48.22023122 ], [ 18.65480623, 48.22011876 ], [ 18.65468418, 48.22010305 ], [ 18.65435115, 48.22006005 ], [ 18.65387331, 48.21999974 ], [ 18.65327732, 48.21991049 ], [ 18.65160982, 48.21967259 ], [ 18.65143818, 48.2196606 ], [ 18.65139024, 48.21965728 ], [ 18.65116651, 48.21964166 ], [ 18.65009778, 48.21946789 ], [ 18.64928295, 48.21933727 ], [ 18.64806738, 48.21912081 ], [ 18.64706319, 48.2189506 ], [ 18.6457853, 48.21874715 ], [ 18.64520639, 48.21865093 ], [ 18.64466248, 48.21856554 ], [ 18.64441854, 48.21855846 ], [ 18.64409619, 48.2185679 ], [ 18.64385294, 48.21860191 ], [ 18.64366615, 48.21864693 ], [ 18.6434395, 48.21873779 ], [ 18.643352, 48.21880019 ], [ 18.6431461, 48.21890588 ], [ 18.6431442, 48.21891706 ], [ 18.64306791, 48.21935128 ], [ 18.64293556, 48.21993712 ], [ 18.64281866, 48.21995136 ], [ 18.64270656, 48.21994268 ], [ 18.64259007, 48.21987781 ], [ 18.64252151, 48.21983971 ], [ 18.64234006, 48.22011448 ], [ 18.64218088, 48.22001418 ], [ 18.64209885, 48.21996245 ], [ 18.64191998, 48.21975398 ], [ 18.64160852, 48.21947985 ], [ 18.64158929, 48.21940013 ], [ 18.64153797, 48.21929006 ], [ 18.64140137, 48.21905374 ], [ 18.64140362, 48.21891165 ], [ 18.64158461, 48.21843474 ], [ 18.64161242, 48.21816988 ], [ 18.64168704, 48.21791423 ], [ 18.64174408, 48.21770888 ], [ 18.64201798, 48.21682545 ], [ 18.6419647, 48.21680948 ], [ 18.64195571, 48.21680683 ], [ 18.64195337, 48.21680607 ], [ 18.64187935, 48.21678401 ], [ 18.64173105, 48.21674665 ], [ 18.64167065, 48.21673147 ], [ 18.64163973, 48.21672366 ], [ 18.64160758, 48.21671713 ], [ 18.64150662, 48.21669678 ], [ 18.64138148, 48.21666437 ], [ 18.64129975, 48.21664135 ], [ 18.64123287, 48.21662726 ], [ 18.64121642, 48.21662375 ], [ 18.6411111, 48.21660153 ], [ 18.64109004, 48.21659705 ], [ 18.64105444, 48.21659007 ], [ 18.64086658, 48.21652819 ], [ 18.64078917, 48.21650405 ], [ 18.64072364, 48.21648327 ], [ 18.64071189, 48.21648001 ], [ 18.64067096, 48.21646571 ], [ 18.64063474, 48.21645598 ], [ 18.64055216, 48.21642886 ], [ 18.64050751, 48.21641408 ], [ 18.64044669, 48.21639562 ], [ 18.64039582, 48.21638204 ], [ 18.64031226, 48.21635964 ], [ 18.6402362, 48.21633892 ], [ 18.64023279, 48.2163381 ], [ 18.64019934, 48.21632997 ], [ 18.64013201, 48.21631071 ], [ 18.64006841, 48.21629635 ], [ 18.64006898, 48.21629277 ], [ 18.63984506, 48.21622875 ], [ 18.63984048, 48.21621641 ], [ 18.63988632, 48.21606117 ], [ 18.6399354, 48.21589699 ], [ 18.63995174, 48.21585023 ], [ 18.63995283, 48.21574336 ], [ 18.639953, 48.21572523 ], [ 18.63994816, 48.21567273 ], [ 18.63994644, 48.21565468 ], [ 18.639946, 48.21564942 ], [ 18.63993353, 48.21551294 ], [ 18.63991963, 48.2153615 ], [ 18.63990374, 48.21518757 ], [ 18.63990147, 48.21516291 ], [ 18.64007978, 48.21512204 ], [ 18.6401259, 48.21511136 ], [ 18.64024726, 48.21509042 ], [ 18.64031436, 48.21508034 ], [ 18.64042793, 48.21506457 ], [ 18.64041291, 48.21504372 ], [ 18.64037721, 48.21499414 ], [ 18.64035511, 48.21497598 ], [ 18.64033891, 48.21494037 ], [ 18.64031521, 48.21484966 ], [ 18.64031225, 48.21483849 ], [ 18.64027642, 48.21449168 ], [ 18.64027451, 48.2144729 ], [ 18.64026917, 48.21442126 ], [ 18.64024905, 48.21417311 ], [ 18.64021906, 48.21396738 ], [ 18.64010138, 48.21351633 ], [ 18.64007449, 48.21340633 ], [ 18.64005356, 48.21333292 ], [ 18.64001444, 48.21319247 ], [ 18.63998747, 48.21307091 ], [ 18.63997321, 48.21300706 ], [ 18.63995927, 48.21295388 ], [ 18.63996051, 48.21292697 ], [ 18.63997068, 48.2128732 ], [ 18.63998821, 48.21283336 ], [ 18.63999419, 48.21281961 ], [ 18.63999645, 48.21281549 ], [ 18.64002646, 48.21276289 ], [ 18.64003972, 48.2127415 ], [ 18.64011322, 48.21254959 ], [ 18.6401118, 48.21251901 ], [ 18.64011868, 48.21240334 ], [ 18.64012378, 48.21237691 ], [ 18.64017066, 48.21231539 ], [ 18.64019264, 48.21230115 ], [ 18.64024686, 48.21226258 ], [ 18.64030062, 48.21222453 ], [ 18.64035248, 48.21218763 ], [ 18.64040315, 48.21215167 ], [ 18.64046476, 48.21210791 ], [ 18.64051045, 48.21209405 ], [ 18.64047533, 48.21190834 ], [ 18.6404648, 48.21185715 ], [ 18.64043339, 48.21179337 ], [ 18.64041453, 48.21175634 ], [ 18.64038477, 48.21176348 ], [ 18.6401342, 48.21083656 ], [ 18.63994717, 48.2100146 ], [ 18.63996679, 48.20873678 ], [ 18.63930461, 48.20746298 ], [ 18.63928183, 48.20746607 ], [ 18.63905106, 48.20681796 ], [ 18.63904161, 48.20679128 ], [ 18.63888791, 48.20630236 ], [ 18.639293, 48.20620901 ], [ 18.63957941, 48.20614034 ], [ 18.63954157, 48.20584467 ], [ 18.63927228, 48.20490329 ], [ 18.6390511, 48.20437319 ], [ 18.6382676, 48.20278161 ], [ 18.63805198, 48.20218468 ], [ 18.63801891, 48.20209346 ], [ 18.63761522, 48.20223561 ], [ 18.63694965, 48.20243241 ], [ 18.63643878, 48.20251451 ], [ 18.6359737, 48.20260631 ], [ 18.6356275, 48.20267732 ], [ 18.63526969, 48.20273496 ], [ 18.63506926, 48.20275369 ], [ 18.63475993, 48.20278446 ], [ 18.63436157, 48.20282474 ], [ 18.63407411, 48.20288882 ], [ 18.63413035, 48.20269805 ], [ 18.63421823, 48.20237889 ], [ 18.63436413, 48.20223224 ], [ 18.63460509, 48.20204743 ], [ 18.63485022, 48.20181277 ], [ 18.63486234, 48.20169956 ], [ 18.63483011, 48.20168373 ], [ 18.63474056, 48.20148632 ], [ 18.63471809, 48.20141571 ], [ 18.63473415, 48.20135459 ], [ 18.6347847, 48.20129508 ], [ 18.63485979, 48.20124582 ], [ 18.63499761, 48.20117119 ], [ 18.63589919, 48.20076244 ], [ 18.63600362, 48.20068825 ], [ 18.6361048, 48.20057969 ], [ 18.63625945, 48.2002452 ], [ 18.63630428, 48.20002701 ], [ 18.63629138, 48.1999109 ], [ 18.63625738, 48.19984184 ], [ 18.63623639, 48.19980461 ], [ 18.63611068, 48.19969934 ], [ 18.63603267, 48.19962257 ], [ 18.6359749, 48.19956367 ], [ 18.63589862, 48.19952714 ], [ 18.63594722, 48.1995148 ], [ 18.63599616, 48.19947414 ], [ 18.63615609, 48.19932743 ], [ 18.63645447, 48.19913085 ], [ 18.63700343, 48.19879357 ], [ 18.63716335, 48.19867023 ], [ 18.63726797, 48.19850654 ], [ 18.63773195, 48.19729436 ], [ 18.63801834, 48.19675596 ], [ 18.63804773, 48.1966472 ], [ 18.63800875, 48.19653572 ], [ 18.63782906, 48.19635372 ], [ 18.63760284, 48.19616821 ], [ 18.63769836, 48.19599933 ], [ 18.63792192, 48.19572741 ], [ 18.6380683, 48.19543415 ], [ 18.63776532, 48.19510372 ], [ 18.63773736, 48.19507387 ], [ 18.63733185, 48.19468634 ], [ 18.63738709, 48.19458702 ], [ 18.63781662, 48.19423251 ], [ 18.63800864, 48.19410587 ], [ 18.6383544, 48.1939724 ], [ 18.63841174, 48.19381787 ], [ 18.63837666, 48.1937076 ], [ 18.6392902, 48.19314997 ], [ 18.6396296, 48.19266705 ], [ 18.63973354, 48.19254997 ], [ 18.63984354, 48.19241969 ], [ 18.6399565, 48.19227495 ], [ 18.64001857, 48.19219602 ], [ 18.64011732, 48.19212621 ], [ 18.64056645, 48.19197028 ], [ 18.64102, 48.19182126 ], [ 18.64124225, 48.19176681 ], [ 18.64154005, 48.1917382 ], [ 18.6415154, 48.19170222 ], [ 18.64157152, 48.19170454 ], [ 18.6417416, 48.19172422 ], [ 18.6419458, 48.19162837 ], [ 18.64214802, 48.19147971 ], [ 18.64217625, 48.19149288 ], [ 18.64220433, 48.19146715 ], [ 18.64231038, 48.19137049 ], [ 18.64243719, 48.1912495 ], [ 18.64253616, 48.19113441 ], [ 18.6424293, 48.19110525 ], [ 18.64258042, 48.19087947 ], [ 18.64286615, 48.19059521 ], [ 18.64290918, 48.19052292 ], [ 18.64293109, 48.19052699 ], [ 18.64295375, 48.19047814 ], [ 18.64297877, 48.19042419 ], [ 18.64296895, 48.19042284 ], [ 18.64308801, 48.19022321 ], [ 18.64318995, 48.19005242 ], [ 18.64321397, 48.19005688 ], [ 18.64327277, 48.18995585 ], [ 18.64333002, 48.1898542 ], [ 18.64336197, 48.18986233 ], [ 18.64345768, 48.18977179 ], [ 18.6435534, 48.18968124 ], [ 18.64352096, 48.18966946 ], [ 18.64354961, 48.18964016 ], [ 18.64361221, 48.1895757 ], [ 18.64362355, 48.18955781 ], [ 18.64371335, 48.18948156 ], [ 18.64377742, 48.18941393 ], [ 18.64394349, 48.18906462 ], [ 18.64419443, 48.18862959 ], [ 18.64425846, 48.18851883 ], [ 18.64471979, 48.18776288 ], [ 18.64479862, 48.18758786 ], [ 18.64498695, 48.18716946 ], [ 18.64507176, 48.18658638 ], [ 18.64515263, 48.18622288 ], [ 18.64512328, 48.18621462 ], [ 18.64505293, 48.18619492 ], [ 18.64471352, 48.18617978 ], [ 18.6441749, 48.18626293 ], [ 18.6432532, 48.18651318 ], [ 18.64268032, 48.18691461 ], [ 18.642309336631392, 48.186949094425806 ], [ 18.641307555597042, 48.187064640799036 ], [ 18.64118324, 48.18708673 ], [ 18.64096103, 48.18703634 ], [ 18.640701313614816, 48.187030678177308 ], [ 18.640578948776536, 48.187032334791688 ], [ 18.6405587, 48.18705594 ], [ 18.640530676009824, 48.187044707036698 ], [ 18.6404289, 48.1872289 ], [ 18.6403829, 48.1884185 ], [ 18.6402741, 48.1888355 ], [ 18.640262080732512, 48.188829507000456 ], [ 18.64026191, 48.18884494 ], [ 18.64022549, 48.18882916 ], [ 18.6401933, 48.18881532 ], [ 18.63899271, 48.18821568 ], [ 18.63701115, 48.18722202 ], [ 18.63506965, 48.18625576 ], [ 18.63487878, 48.18616076 ], [ 18.63484746, 48.18614976 ], [ 18.63477446, 48.18612415 ], [ 18.63476023, 48.18611913 ], [ 18.63473162, 48.1861091 ], [ 18.63364395, 48.18563851 ], [ 18.63248323, 48.18519182 ], [ 18.63197192, 48.18502104 ], [ 18.63133746, 48.18479881 ], [ 18.63130483, 48.18478747 ], [ 18.63121368, 48.18475581 ], [ 18.62900701, 48.18398808 ], [ 18.62662373, 48.18317073 ], [ 18.62451218, 48.18243288 ], [ 18.6244717, 48.1824185 ], [ 18.62442797, 48.18240304 ], [ 18.62439887, 48.18239271 ], [ 18.62438646, 48.18238599 ], [ 18.6229795, 48.18163084 ], [ 18.62296117, 48.18162073 ], [ 18.6228924, 48.18158261 ], [ 18.62287774, 48.1815745 ], [ 18.62082781, 48.18046736 ], [ 18.61849499, 48.17920096 ], [ 18.61706598, 48.17842215 ], [ 18.61703866, 48.17840722 ], [ 18.61693795, 48.17835228 ], [ 18.61689594, 48.17832942 ], [ 18.61673335, 48.17824081 ], [ 18.61670297, 48.17822553 ], [ 18.61662045, 48.17818404 ], [ 18.61655548, 48.17815145 ], [ 18.61650768, 48.17812737 ], [ 18.61573771, 48.17770944 ], [ 18.61459721, 48.17709041 ], [ 18.61375541, 48.17663327 ], [ 18.61273376, 48.17607556 ], [ 18.61168707, 48.17550428 ], [ 18.60997083, 48.17457545 ], [ 18.6085514, 48.17380417 ], [ 18.60849008, 48.17383467 ], [ 18.60840746, 48.17379416 ], [ 18.60832434, 48.17375335 ], [ 18.60804634, 48.17366889 ], [ 18.60783612, 48.17345549 ], [ 18.60764376, 48.17343101 ], [ 18.60724375, 48.17350422 ], [ 18.60705938, 48.17346727 ], [ 18.60681061, 48.17332341 ], [ 18.60665078, 48.1730697 ], [ 18.60663846, 48.17305008 ], [ 18.60660565, 48.17284996 ], [ 18.60638621, 48.1727566 ], [ 18.6060022, 48.17277048 ], [ 18.60572856, 48.17271116 ], [ 18.60531751, 48.17241786 ], [ 18.60513907576274, 48.172460705550826 ], [ 18.6049977, 48.1725903 ], [ 18.6049359, 48.1732511 ], [ 18.6048726946734, 48.173338854741104 ], [ 18.60482478, 48.17341208 ], [ 18.60478500220146, 48.173460607615198 ], [ 18.6047513, 48.1735074 ], [ 18.604742470281757, 48.173512495168275 ], [ 18.60473904, 48.17351668 ], [ 18.604318611234358, 48.173759066924241 ], [ 18.6042655, 48.1740054 ], [ 18.60449081764574, 48.174237535707533 ], [ 18.60456733, 48.17429327 ], [ 18.604585812081165, 48.174335404653419 ], [ 18.6046158, 48.1743663 ], [ 18.604552, 48.1744519 ], [ 18.604547615383893, 48.174506491245602 ], [ 18.60456376, 48.17460141 ], [ 18.604528399306023, 48.174745743577176 ], [ 18.6045125, 48.1749437 ], [ 18.604498345195413, 48.17494564215594 ], [ 18.60450036, 48.17495321 ], [ 18.60420885, 48.17500272 ], [ 18.60361794, 48.17507462 ], [ 18.603201216178526, 48.175045589508564 ], [ 18.60258579189318, 48.175018010667536 ], [ 18.60210917, 48.17500655 ], [ 18.602013559836237, 48.175035989373903 ], [ 18.601762767922185, 48.175126197520711 ], [ 18.601735440466232, 48.175140125082287 ], [ 18.6015263, 48.1753244 ], [ 18.6014800916595, 48.175408362934874 ], [ 18.60142141, 48.17553732 ], [ 18.60137023, 48.175666 ], [ 18.601256380162535, 48.175814858248188 ], [ 18.6012448, 48.1758359 ], [ 18.601239279851757, 48.175837216842297 ], [ 18.60123283, 48.17584565 ], [ 18.60090954, 48.17592221 ], [ 18.60063878, 48.17594533 ], [ 18.60027344, 48.17597737 ], [ 18.6002468, 48.17601327 ], [ 18.60018394, 48.17602428 ], [ 18.60007585, 48.17608082 ], [ 18.600051282681466, 48.17609365672336 ], [ 18.599812, 48.1766171 ], [ 18.5996765, 48.177371 ], [ 18.5997511, 48.1775736 ], [ 18.6000463, 48.1778131 ], [ 18.6001439, 48.1779662 ], [ 18.6007389, 48.1781837 ], [ 18.6011677, 48.1781168 ], [ 18.6017615, 48.1781277 ], [ 18.6022948, 48.1782313 ], [ 18.6025435, 48.1782382 ], [ 18.6027963, 48.1783558 ], [ 18.6032002, 48.1788955 ], [ 18.6032898, 48.1791339 ], [ 18.6031913, 48.1793157 ], [ 18.603182881102576, 48.179318828994724 ], [ 18.60317927, 48.17932551 ], [ 18.602940427153627, 48.179413977947824 ], [ 18.6025929, 48.1797806 ], [ 18.602585011162976, 48.179783168812058 ], [ 18.60258086, 48.17979033 ], [ 18.60252426, 48.17980854 ], [ 18.60242625, 48.17983667 ], [ 18.60240597, 48.17984251 ], [ 18.60229246, 48.1798827 ], [ 18.602274841849418, 48.179888887689565 ], [ 18.6018435, 48.1803351 ], [ 18.6016714, 48.1806653 ], [ 18.6016892, 48.1809301 ], [ 18.6015523, 48.1814417 ], [ 18.6012811, 48.1820506 ], [ 18.6009888, 48.182329 ], [ 18.600931120432239, 48.182405972331601 ], [ 18.60073247, 48.18270145 ], [ 18.600699192737135, 48.182715475612348 ], [ 18.6006405, 48.1827938 ], [ 18.6006209, 48.1828414 ], [ 18.6010182, 48.1836142 ], [ 18.6013292, 48.1838985 ], [ 18.6014575, 48.1841998 ], [ 18.601438109491603, 48.184240619170517 ], [ 18.60141411, 48.1843462 ], [ 18.601277072959537, 48.184579618928964 ], [ 18.6012501, 48.1846364 ], [ 18.601207450496204, 48.184685233036696 ], [ 18.60108866, 48.1848371 ], [ 18.600862277652933, 48.185080450720875 ], [ 18.6008204, 48.1851284 ], [ 18.600818268653054, 48.18512775839298 ], [ 18.60080849, 48.18513827 ], [ 18.60073128, 48.18511411 ], [ 18.60063359, 48.18514063 ], [ 18.60059354, 48.18515144 ], [ 18.6005552, 48.18515377 ], [ 18.60041844, 48.1851621 ], [ 18.60014026, 48.18509196 ], [ 18.59971797, 48.18512901 ], [ 18.59909718, 48.18527551 ], [ 18.59902188, 48.18529324 ], [ 18.59832280943353, 48.185527484324318 ], [ 18.597923, 48.1858737 ], [ 18.597922455348911, 48.185873369098772 ], [ 18.59791109, 48.18588321 ], [ 18.59785799, 48.18585062 ], [ 18.59685236, 48.18642683 ], [ 18.59476784, 48.187605 ], [ 18.59266642, 48.18879919 ], [ 18.59066715, 48.18993188 ], [ 18.58975048, 48.1904546 ], [ 18.5896294, 48.19052324 ], [ 18.58885003, 48.19096585 ], [ 18.58872211, 48.19103853 ], [ 18.588714256010334, 48.19104298991293 ], [ 18.587936567239055, 48.192420859653183 ], [ 18.58729061, 48.19357653 ], [ 18.58725155, 48.19364649 ], [ 18.58723181, 48.19368214 ], [ 18.58720483, 48.19373057 ], [ 18.58719396, 48.19374992 ], [ 18.587055767513274, 48.193981416181956 ], [ 18.5869447, 48.1941782 ], [ 18.5868984, 48.1951547 ], [ 18.5866872, 48.1957139 ], [ 18.5859977, 48.1968649 ], [ 18.5842532, 48.1985496 ], [ 18.583352852429744, 48.199713635976686 ], [ 18.58329619, 48.19978734 ], [ 18.583243690873257, 48.199854768116339 ], [ 18.5825173, 48.2007939 ], [ 18.582506123047221, 48.200802246028935 ], [ 18.58250511, 48.20080355 ], [ 18.582459099461431, 48.200837359374695 ], [ 18.580262196801957, 48.202477825566184 ], [ 18.58019132, 48.20253106 ], [ 18.58018062, 48.20253905 ], [ 18.57941419, 48.20311406 ], [ 18.57926816, 48.20322076 ], [ 18.57529661, 48.20219566 ], [ 18.57335405, 48.20170429 ], [ 18.57243996, 48.20085748 ], [ 18.57222353, 48.20065314 ], [ 18.5714381, 48.19991985 ], [ 18.57126477, 48.19975378 ], [ 18.57107363, 48.1995788 ], [ 18.57103857, 48.19954665 ], [ 18.57102752, 48.19953657 ], [ 18.571005357714814, 48.199515052957246 ], [ 18.5685473, 48.2026267 ], [ 18.5684681, 48.2028141 ], [ 18.5684583, 48.202853 ], [ 18.561925, 48.2123003 ], [ 18.561889275616945, 48.212343437817985 ], [ 18.5618467, 48.21240378 ], [ 18.56173033, 48.21255424 ], [ 18.56165188, 48.21264333 ], [ 18.56147011, 48.21285345 ], [ 18.56136185316452, 48.212980309663138 ], [ 18.5612253, 48.2131452 ], [ 18.5610277, 48.2135617 ], [ 18.5645964, 48.2208302 ], [ 18.5646164, 48.2208696 ], [ 18.5740927, 48.2228509 ], [ 18.574726304028513, 48.223621095973193 ], [ 18.57522681, 48.22420028 ], [ 18.57555085, 48.22459946 ], [ 18.5760643, 48.22523164 ], [ 18.57617882, 48.22537263 ], [ 18.57629651, 48.2255175 ], [ 18.57642363, 48.22566695 ], [ 18.57651158, 48.22578231 ], [ 18.57656881, 48.22585745 ], [ 18.576837986461022, 48.226188013532109 ], [ 18.5821431, 48.2326368 ], [ 18.582206222858026, 48.232655089683973 ], [ 18.582230306596141, 48.232621977955489 ], [ 18.582388246346238, 48.232349665446861 ], [ 18.58240791, 48.23230377 ], [ 18.58240853, 48.23225354 ], [ 18.58214733, 48.23202404 ], [ 18.5821429, 48.23195215 ], [ 18.58217914, 48.23184268 ], [ 18.582190578288976, 48.231837132816921 ], [ 18.5821913, 48.231833 ], [ 18.5824614, 48.2317021 ], [ 18.5826192, 48.2317254 ], [ 18.5826838, 48.2317899 ], [ 18.5830858, 48.2316268 ], [ 18.583212793197269, 48.231548129122949 ], [ 18.58325808, 48.23148947 ], [ 18.583420125057593, 48.23141968933529 ], [ 18.5834419, 48.2314062 ], [ 18.5840841, 48.2312843 ], [ 18.5846308, 48.2311102 ], [ 18.58487119373294, 48.230888196529094 ], [ 18.58487336, 48.23088465 ], [ 18.584896306019495, 48.230837567198989 ], [ 18.584993838044333, 48.230495177627184 ], [ 18.5849968, 48.23047332 ], [ 18.58499705, 48.23045141 ], [ 18.585008720123831, 48.230442933568526 ], [ 18.5850091, 48.2304416 ], [ 18.585014769875027, 48.230438539416227 ], [ 18.58506984, 48.23039854 ], [ 18.585285544722119, 48.230292375859115 ], [ 18.5853546, 48.2302551 ], [ 18.5856189, 48.2301795 ], [ 18.585976070327867, 48.229964326656138 ], [ 18.58599274, 48.2297342 ], [ 18.58602071, 48.22966904 ], [ 18.586032454133658, 48.22966169396431 ], [ 18.5860328, 48.2296594 ], [ 18.58604233334739, 48.229655514448758 ], [ 18.58607497, 48.2296351 ], [ 18.58625114, 48.22956297 ], [ 18.586286733640961, 48.229555903071287 ], [ 18.5863206, 48.2295421 ], [ 18.5866586, 48.2295674 ], [ 18.5869111, 48.229493 ], [ 18.586977051237032, 48.229404991738136 ], [ 18.58698918, 48.22938249 ], [ 18.58702749, 48.2292328 ], [ 18.5870389, 48.22913299 ], [ 18.587050695348729, 48.229125718372153 ], [ 18.587051, 48.2291242 ], [ 18.587062341298822, 48.229118538845981 ], [ 18.5871657, 48.22905482 ], [ 18.587528821014494, 48.228885689543837 ], [ 18.5876482, 48.2288261 ], [ 18.58775341126654, 48.228796098349775 ], [ 18.58777875, 48.22878755 ], [ 18.587804819634876, 48.228781438932245 ], [ 18.5879298, 48.2287458 ], [ 18.5925326, 48.2322332 ], [ 18.5982243, 48.2364512 ], [ 18.5981991, 48.2364779 ], [ 18.5994229, 48.2368571 ], [ 18.5999251, 48.2369431 ], [ 18.6005928, 48.2372875 ], [ 18.60187947394564, 48.238115169257533 ], [ 18.6019666, 48.23816522 ], [ 18.602035958993483, 48.238215830239909 ], [ 18.6029357, 48.2387946 ], [ 18.602656557121897, 48.23908315103958 ], [ 18.60264994, 48.23909004 ], [ 18.60261775, 48.23912357 ], [ 18.60221602, 48.23954167 ], [ 18.60212679, 48.23963625 ], [ 18.60210468, 48.23965029 ], [ 18.60160244, 48.23940698 ], [ 18.6013028, 48.23919934 ], [ 18.60127779, 48.23920502 ], [ 18.60112562, 48.23922659 ], [ 18.60095075, 48.23925153 ], [ 18.60086854, 48.23926329 ], [ 18.60080873, 48.23927185 ], [ 18.60080213, 48.23927167 ], [ 18.60073949, 48.23927024 ], [ 18.60063483, 48.23926779 ], [ 18.60060992, 48.23926715 ], [ 18.600555803272311, 48.239265894053382 ], [ 18.600776137745257, 48.239433701531723 ], [ 18.60078933, 48.23944279 ], [ 18.600809060403368, 48.239458775539269 ], [ 18.6012072, 48.239762 ], [ 18.6016092, 48.2398718 ], [ 18.6018109, 48.2405382 ], [ 18.6018165, 48.2405475 ], [ 18.6022173, 48.2410927 ], [ 18.6033491, 48.2415807 ], [ 18.6039873, 48.2417758 ], [ 18.6042993, 48.241655 ], [ 18.604714027984965, 48.241401582309877 ], [ 18.60507133, 48.24096499 ] ] ] } },
{ "type": "Feature", "properties": { "@featureType": "CadastralZoning", "beginLifespanVersion": { "@nilReason": "http://inspire.ec.europa.eu/codelist/VoidReasonValue/Unpopulated", "@nil": "true" }, "endLifespanVersion": { "@nilReason": "http://inspire.ec.europa.eu/codelist/VoidReasonValue/Unpopulated", "@nil": "true" }, "estimatedAccuracy": { "value": -1, "@uom": "m" }, "inspireId": { "@dataType": "Identifier", "localId": "871389", "namespace": "SK.ESKN.CP", "versionId": "20260703T04:07:40" }, "label": "Vyšné nad Hronom", "level": { "@href": "http://inspire.ec.europa.eu/codelist/CadastralZoningLevelValue/3rdOrder" }, "levelName": { "value": "Katastrálne územie", "@locale": "sk" }, "name_1": { "@dataType": "name", "GeographicalName": { "@dataType": "GeographicalName", "language": "SLK", "nativeness": { "@href": "http://inspire.ec.europa.eu/codelist/NativenessValue/endonym", "@title": "endonym" }, "nameStatus": { "@href": "http://inspire.ec.europa.eu/codelist/NameStatusValue/official", "@title": "official" }, "sourceOfName": { "@nilReason": "http://inspire.ec.europa.eu/codelist/VoidReasonValue/Unpopulated", "@nil": "true" }, "pronunciation": { "@dataType": "pronunciation", "@nilReason": "http://inspire.ec.europa.eu/codelist/VoidReasonValue/Unpopulated", "@nil": "true" }, "spelling": { "@dataType": "SpellingOfName", "text": "Vyšné nad Hronom", "script": "LATN" } } }, "nationalCadastalZoningReference": "871389", "validFrom": "2026-06-30T16:00:00Z", "validTo": { "@nilReason": "http://inspire.ec.europa.eu/codelist/VoidReasonValue/Unpopulated", "@nil": "true" }, "place_id": 188053037, "osm_type": "relation", "osm_id": 2217953, "place_rank": 16, "category": "boundary", "type": "administrative", "importance": 0.54101794346419685, "addresstype": "town", "name_2": "Levice", "display_name": "Levice, okres Levice, Nitriansky kraj, Slovensko" }, "geometry": { "type": "MultiPolygon", "coordinates": [ [ [ [ 18.60073247, 48.18270145 ], [ 18.600931120432239, 48.182405972331601 ], [ 18.600699192737135, 48.182715475612348 ], [ 18.60073247, 48.18270145 ] ] ], [ [ [ 18.60229246, 48.1798827 ], [ 18.60240597, 48.17984251 ], [ 18.60242625, 48.17983667 ], [ 18.60252426, 48.17980854 ], [ 18.60258086, 48.17979033 ], [ 18.602585011162976, 48.179783168812058 ], [ 18.6022815, 48.179882 ], [ 18.602274841849418, 48.179888887689565 ], [ 18.60229246, 48.1798827 ] ] ], [ [ [ 18.60317927, 48.17932551 ], [ 18.603182881102576, 48.179318828994724 ], [ 18.6029478, 48.1794062 ], [ 18.602940427153627, 48.179413977947824 ], [ 18.60317927, 48.17932551 ] ] ], [ [ [ 18.60007585, 48.17608082 ], [ 18.60018394, 48.17602428 ], [ 18.6002468, 48.17601327 ], [ 18.60027344, 48.17597737 ], [ 18.60063878, 48.17594533 ], [ 18.60090954, 48.17592221 ], [ 18.60123283, 48.17584565 ], [ 18.601239279851757, 48.175837216842297 ], [ 18.6009216, 48.175913 ], [ 18.6002851, 48.1759684 ], [ 18.600053, 48.1760899 ], [ 18.600051282681466, 48.17609365672336 ], [ 18.60007585, 48.17608082 ] ] ], [ [ [ 18.60137023, 48.175666 ], [ 18.60142141, 48.17553732 ], [ 18.6014800916595, 48.175408362934874 ], [ 18.601256380162535, 48.175814858248188 ], [ 18.60137023, 48.175666 ] ] ], [ [ [ 18.601762767922185, 48.175126197520711 ], [ 18.6017433, 48.1751332 ], [ 18.601735440466232, 48.175140125082287 ], [ 18.601762767922185, 48.175126197520711 ] ] ], [ [ [ 18.60210917, 48.17500655 ], [ 18.60258579189318, 48.175018010667536 ], [ 18.6021214, 48.1749972 ], [ 18.602013559836237, 48.175035989373903 ], [ 18.60210917, 48.17500655 ] ] ], [ [ [ 18.60361794, 48.17507462 ], [ 18.60420885, 48.17500272 ], [ 18.60450036, 48.17495321 ], [ 18.604498345195413, 48.17494564215594 ], [ 18.6036299, 48.1750648 ], [ 18.603201216178526, 48.175045589508564 ], [ 18.60361794, 48.17507462 ] ] ], [ [ [ 18.60456376, 48.17460141 ], [ 18.604547615383893, 48.174506491245602 ], [ 18.604528399306023, 48.174745743577176 ], [ 18.60456376, 48.17460141 ] ] ], [ [ [ 18.60456733, 48.17429327 ], [ 18.60449081764574, 48.174237535707533 ], [ 18.604585812081165, 48.174335404653419 ], [ 18.60456733, 48.17429327 ] ] ], [ [ [ 18.60473904, 48.17351668 ], [ 18.604742470281757, 48.173512495168275 ], [ 18.6043191, 48.1737568 ], [ 18.604318611234358, 48.173759066924241 ], [ 18.60473904, 48.17351668 ] ] ], [ [ [ 18.60482478, 48.17341208 ], [ 18.6048726946734, 48.173338854741104 ], [ 18.60478500220146, 48.173460607615198 ], [ 18.60482478, 48.17341208 ] ] ], [ [ [ 18.60531751, 48.17241786 ], [ 18.60572856, 48.17271116 ], [ 18.6060022, 48.17277048 ], [ 18.60638621, 48.1727566 ], [ 18.60660565, 48.17284996 ], [ 18.60663846, 48.17305008 ], [ 18.60665078, 48.1730697 ], [ 18.60681061, 48.17332341 ], [ 18.60705938, 48.17346727 ], [ 18.60724375, 48.17350422 ], [ 18.60764376, 48.17343101 ], [ 18.60783612, 48.17345549 ], [ 18.60804634, 48.17366889 ], [ 18.60832434, 48.17375335 ], [ 18.60840746, 48.17379416 ], [ 18.608422218286414, 48.173786445373715 ], [ 18.6084197, 48.1737852 ], [ 18.6083368, 48.1737433 ], [ 18.6080587, 48.1736594 ], [ 18.6078479, 48.1734461 ], [ 18.6076558, 48.1734221 ], [ 18.6072557, 48.1734951 ], [ 18.6070712, 48.1734578 ], [ 18.6068227, 48.1733136 ], [ 18.6066503, 48.1730402 ], [ 18.6066177, 48.172841 ], [ 18.6063981, 48.1727466 ], [ 18.6060141, 48.1727606 ], [ 18.6057407, 48.1727017 ], [ 18.6053294, 48.1724087 ], [ 18.6051489, 48.1724517 ], [ 18.60513907576274, 48.172460705550826 ], [ 18.60531751, 48.17241786 ] ] ] ] } }
]
}
