{
"type": "FeatureCollection",
"name": "gis",
"crs": { "type": "name", "properties": { "name": "urn:ogc:def:crs:OGC:1.3:CRS84" } },
"features": [
{ "type": "Feature", "properties": { "@featureType": "CadastralParcel", "areaValue": { "value": 369, "@uom": "m2" }, "beginLifespanVersion": { "@nilReason": "http://inspire.ec.europa.eu/codelist/VoidReasonValue/Unpopulated", "@nil": "true" }, "endLifespanVersion": { "@nilReason": "http://inspire.ec.europa.eu/codelist/VoidReasonValue/Unpopulated", "@nil": "true" }, "inspireId": { "@dataType": "Identifier", "localId": "865371_1436/349.C", "namespace": "SK.ESKN.CP", "versionId": "20261005T07:10:35" }, "label": "1436/349", "nationalCadastralReference": "865371_1436/349.C", "referencePoint": { "type": "Point", "coordinates": [ 18.80796454, 49.19050794 ] }, "validFrom": "2026-09-30T16:00:00Z", "validTo": { "@nilReason": "http://inspire.ec.europa.eu/codelist/VoidReasonValue/Unpopulated", "@nil": "true" }, "administrativeUnit": { "@href": "#auAdmUnitS.2962" } }, "geometry": { "type": "Polygon", "coordinates": [ [ [ 18.80777675, 49.19047709 ], [ 18.80788872, 49.19060105 ], [ 18.80792316, 49.19059967 ], [ 18.80789958, 49.19057599 ], [ 18.80793615, 49.19056029 ], [ 18.80796624, 49.19059044 ], [ 18.80794448, 49.19059978 ], [ 18.8079994, 49.19060082 ], [ 18.80815179, 49.19053879 ], [ 18.80802796, 49.19039897 ], [ 18.80798815, 49.19039926 ], [ 18.80777675, 49.19047709 ] ] ] } },
{ "type": "Feature", "properties": { "@featureType": "CadastralParcel", "areaValue": { "value": 15, "@uom": "m2" }, "beginLifespanVersion": { "@nilReason": "http://inspire.ec.europa.eu/codelist/VoidReasonValue/Unpopulated", "@nil": "true" }, "endLifespanVersion": { "@nilReason": "http://inspire.ec.europa.eu/codelist/VoidReasonValue/Unpopulated", "@nil": "true" }, "inspireId": { "@dataType": "Identifier", "localId": "865371_1436/966.C", "namespace": "SK.ESKN.CP", "versionId": "20261005T07:10:35" }, "label": "1436/966", "nationalCadastralReference": "865371_1436/966.C", "referencePoint": { "type": "Point", "coordinates": [ 18.80792909, 49.19061997 ] }, "validFrom": "2026-09-30T16:00:00Z", "validTo": { "@nilReason": "http://inspire.ec.europa.eu/codelist/VoidReasonValue/Unpopulated", "@nil": "true" }, "administrativeUnit": { "@href": "#auAdmUnitS.2962" } }, "geometry": { "type": "Polygon", "coordinates": [ [ [ 18.80791836, 49.19063379 ], [ 18.8079994, 49.19060082 ], [ 18.80794448, 49.19059978 ], [ 18.80792967, 49.19060614 ], [ 18.80792316, 49.19059967 ], [ 18.80788872, 49.19060105 ], [ 18.80791836, 49.19063379 ] ] ] } }
]
}
