{
"type": "FeatureCollection",
"name": "gis",
"crs": { "type": "name", "properties": { "name": "urn:ogc:def:crs:OGC:1.3:CRS84" } },
"features": [
{ "type": "Feature", "properties": { "@featureType": "CadastralZoning", "beginLifespanVersion": { "@nilReason": "http://inspire.ec.europa.eu/codelist/VoidReasonValue/Unpopulated", "@nil": "true" }, "endLifespanVersion": { "@nilReason": "http://inspire.ec.europa.eu/codelist/VoidReasonValue/Unpopulated", "@nil": "true" }, "estimatedAccuracy": { "value": -1, "@uom": "m" }, "inspireId": { "@dataType": "Identifier", "localId": "865265", "namespace": "SK.ESKN.CP", "versionId": "20260703T04:07:40" }, "label": "Trnavá Hora", "level": { "@href": "http://inspire.ec.europa.eu/codelist/CadastralZoningLevelValue/3rdOrder" }, "levelName": { "value": "Katastrálne územie", "@locale": "sk" }, "name": { "@dataType": "name", "GeographicalName": { "@dataType": "GeographicalName", "language": "SLK", "nativeness": { "@href": "http://inspire.ec.europa.eu/codelist/NativenessValue/endonym", "@title": "endonym" }, "nameStatus": { "@href": "http://inspire.ec.europa.eu/codelist/NameStatusValue/official", "@title": "official" }, "sourceOfName": { "@nilReason": "http://inspire.ec.europa.eu/codelist/VoidReasonValue/Unpopulated", "@nil": "true" }, "pronunciation": { "@dataType": "pronunciation", "@nilReason": "http://inspire.ec.europa.eu/codelist/VoidReasonValue/Unpopulated", "@nil": "true" }, "spelling": { "@dataType": "SpellingOfName", "text": "Trnavá Hora", "script": "LATN" } } }, "nationalCadastalZoningReference": "865265", "validFrom": "2026-06-30T16:00:00Z", "validTo": { "@nilReason": "http://inspire.ec.europa.eu/codelist/VoidReasonValue/Unpopulated", "@nil": "true" } }, "geometry": { "type": "MultiPolygon", "coordinates": [ [ [ [ 18.98527129, 48.61147839 ], [ 18.98554873, 48.61149653 ], [ 18.98598273, 48.61151937 ], [ 18.98624551, 48.61124137 ], [ 18.98656302, 48.61100898 ], [ 18.98669684, 48.61064145 ], [ 18.98657769, 48.61053176 ], [ 18.98663789, 48.61035307 ], [ 18.98725272, 48.60909524 ], [ 18.9873574, 48.6088811 ], [ 18.98736683, 48.60886191 ], [ 18.98746852, 48.6086772 ], [ 18.98777503, 48.60835722 ], [ 18.98777933, 48.60833173 ], [ 18.98778474, 48.60829547 ], [ 18.98785436, 48.60782402 ], [ 18.98787543, 48.60768149 ], [ 18.98808177, 48.60716971 ], [ 18.98812766, 48.60705604 ], [ 18.98818238, 48.60692009 ], [ 18.98823552, 48.60678839 ], [ 18.98833495, 48.60654196 ], [ 18.98844126, 48.60627821 ], [ 18.98846068, 48.60623012 ], [ 18.98850199, 48.60612786 ], [ 18.98858423, 48.6059078 ], [ 18.98868457, 48.60563923 ], [ 18.98875361, 48.60545457 ], [ 18.98881836, 48.60528116 ], [ 18.98899642, 48.60495547 ], [ 18.98900781, 48.60493458 ], [ 18.98937066, 48.60440638 ], [ 18.98956013, 48.6040395 ], [ 18.98959826, 48.60396594 ], [ 18.98992043, 48.60334223 ], [ 18.98987615, 48.60312477 ], [ 18.98977373, 48.6026224 ], [ 18.98994033, 48.60260352 ], [ 18.99092024, 48.6024925 ], [ 18.99146662, 48.60243055 ], [ 18.99157408, 48.60236898 ], [ 18.99233761, 48.6019311 ], [ 18.9926361, 48.60173426 ], [ 18.99290614, 48.60164621 ], [ 18.99325179, 48.6015334 ], [ 18.9935216, 48.60116879 ], [ 18.99337218, 48.60070824 ], [ 18.99365096, 48.60034724 ], [ 18.99407479, 48.60003147 ], [ 18.99515895, 48.59901487 ], [ 18.99605746, 48.59830636 ], [ 18.99614155, 48.59826696 ], [ 18.9952925, 48.59768085 ], [ 18.99506739, 48.59752548 ], [ 18.99463748, 48.59741737 ], [ 18.99417047, 48.59726543 ], [ 18.99387941, 48.59709237 ], [ 18.9938336, 48.59706507 ], [ 18.99365964, 48.59713968 ], [ 18.99345868, 48.59734597 ], [ 18.99329853, 48.59755333 ], [ 18.99317538, 48.59779243 ], [ 18.99307009, 48.59800627 ], [ 18.99301121, 48.59809953 ], [ 18.9928565, 48.59834451 ], [ 18.9926492, 48.59856445 ], [ 18.99237522, 48.5988143 ], [ 18.99221708, 48.59896277 ], [ 18.99203723, 48.59908255 ], [ 18.99186317, 48.59916978 ], [ 18.99143951, 48.59934475 ], [ 18.99136873, 48.59938193 ], [ 18.99129054, 48.59942315 ], [ 18.99100041, 48.59957584 ], [ 18.99063203, 48.5998245 ], [ 18.9904115, 48.59998325 ], [ 18.99031978, 48.60003452 ], [ 18.98927765, 48.60002161 ], [ 18.98843052, 48.60001119 ], [ 18.98804051, 48.60019137 ], [ 18.98774588, 48.6003275 ], [ 18.98689702, 48.59976739 ], [ 18.98674602, 48.59967819 ], [ 18.98662419, 48.59960616 ], [ 18.98631253, 48.59942193 ], [ 18.98576006, 48.59906538 ], [ 18.9854827, 48.59896588 ], [ 18.98495399, 48.59883603 ], [ 18.98441199, 48.59821563 ], [ 18.98312788, 48.59759207 ], [ 18.98307855, 48.59756819 ], [ 18.98275483, 48.59741095 ], [ 18.98259633, 48.59717956 ], [ 18.98241182, 48.59679297 ], [ 18.98212217, 48.59653734 ], [ 18.98196336, 48.59636871 ], [ 18.98193343, 48.59633706 ], [ 18.98190025, 48.59630173 ], [ 18.98119546, 48.59595176 ], [ 18.9809337, 48.59571377 ], [ 18.98122495, 48.59553735 ], [ 18.98147762, 48.59538296 ], [ 18.98163359, 48.59524169 ], [ 18.98173755, 48.59507379 ], [ 18.98175414, 48.59500788 ], [ 18.98166042, 48.59475724 ], [ 18.98154004, 48.59452553 ], [ 18.98143548, 48.59436769 ], [ 18.98129894, 48.59416403 ], [ 18.98102963, 48.59387965 ], [ 18.9807959, 48.59356633 ], [ 18.98057255, 48.59327256 ], [ 18.98039639, 48.59297172 ], [ 18.98034885, 48.59279107 ], [ 18.98034628, 48.59277804 ], [ 18.98033931, 48.59274179 ], [ 18.98026555, 48.59235965 ], [ 18.98022293, 48.59223653 ], [ 18.98000487, 48.59193356 ], [ 18.97958984, 48.59140058 ], [ 18.97946244, 48.59123689 ], [ 18.97936867, 48.59110692 ], [ 18.9791244, 48.59076843 ], [ 18.97852225, 48.58982734 ], [ 18.97813446, 48.58914582 ], [ 18.97910373, 48.58883891 ], [ 18.97915821, 48.58882156 ], [ 18.98003009, 48.58854549 ], [ 18.97987803, 48.5881656 ], [ 18.9796143, 48.5876496 ], [ 18.97944159, 48.5874109 ], [ 18.97926267, 48.58705056 ], [ 18.97903608, 48.58682527 ], [ 18.97872481, 48.58662093 ], [ 18.97835236, 48.58642835 ], [ 18.97761183, 48.58608663 ], [ 18.97746183, 48.58596219 ], [ 18.9770685, 48.58552916 ], [ 18.97694871, 48.58535034 ], [ 18.97683347, 48.58484035 ], [ 18.97677472, 48.58477106 ], [ 18.97714828, 48.58476318 ], [ 18.97725053, 48.58463362 ], [ 18.97804537, 48.58437431 ], [ 18.97880737, 48.58418143 ], [ 18.97969957, 48.58396178 ], [ 18.98062901, 48.58369856 ], [ 18.98113891, 48.58355653 ], [ 18.98179983, 48.58336399 ], [ 18.98193503, 48.58343643 ], [ 18.98314638, 48.58334077 ], [ 18.98344412, 48.58326065 ], [ 18.9837458, 48.58317215 ], [ 18.9840677, 48.58308523 ], [ 18.9847285, 48.58282881 ], [ 18.98464472, 48.58267121 ], [ 18.98461662, 48.58262017 ], [ 18.98456801, 48.58252778 ], [ 18.98456768, 48.58252704 ], [ 18.98449735, 48.58239313 ], [ 18.98444983, 48.58230773 ], [ 18.98440952, 48.58223533 ], [ 18.98440744, 48.58222503 ], [ 18.98419975, 48.58174282 ], [ 18.98419126, 48.58172327 ], [ 18.98415301, 48.58163537 ], [ 18.98389968, 48.58105262 ], [ 18.98379161, 48.58080404 ], [ 18.98374325, 48.58069289 ], [ 18.98374742, 48.58064854 ], [ 18.98277797, 48.5812544 ], [ 18.98033656, 48.58278025 ], [ 18.97985817, 48.58292371 ], [ 18.97988523, 48.58311441 ], [ 18.97847773, 48.58333933 ], [ 18.97611273, 48.5835628 ], [ 18.97596753, 48.583597 ], [ 18.97443356, 48.5837854 ], [ 18.97403709, 48.58390567 ], [ 18.97347224, 48.5841653 ], [ 18.97251004, 48.58415989 ], [ 18.96923348, 48.5844227 ], [ 18.9670268, 48.58461066 ], [ 18.96686265, 48.58462638 ], [ 18.9660444, 48.58469979 ], [ 18.96508604, 48.58463526 ], [ 18.96463142, 48.5846046 ], [ 18.9634066, 48.58455525 ], [ 18.96245067, 48.5845167 ], [ 18.96223848, 48.58450814 ], [ 18.96155889, 48.58462854 ], [ 18.9588995, 48.58534494 ], [ 18.95752705, 48.58643419 ], [ 18.95706466, 48.58660173 ], [ 18.95630873, 48.58693461 ], [ 18.95568618, 48.5872088 ], [ 18.95566437, 48.58719289 ], [ 18.9556492, 48.58718183 ], [ 18.95563064, 48.58716835 ], [ 18.9556069, 48.58715027 ], [ 18.95500131, 48.5873684 ], [ 18.95490482, 48.58740326 ], [ 18.95489801, 48.58739515 ], [ 18.95404193, 48.58752797 ], [ 18.95403388, 48.58752585 ], [ 18.95400813, 48.58751578 ], [ 18.95320801, 48.58755061 ], [ 18.95319088, 48.58756236 ], [ 18.95316593, 48.5875794 ], [ 18.95224637, 48.587739 ], [ 18.95151047, 48.58782499 ], [ 18.9510152, 48.58779401 ], [ 18.95033275, 48.58769708 ], [ 18.95002931, 48.58751398 ], [ 18.95001328, 48.58772478 ], [ 18.94988569, 48.58791734 ], [ 18.94986854, 48.58794325 ], [ 18.94986632, 48.58794603 ], [ 18.94983438, 48.58798102 ], [ 18.94983217, 48.5879837 ], [ 18.94981807, 48.58802547 ], [ 18.94981515, 48.58803425 ], [ 18.94980762, 48.58804171 ], [ 18.94979164, 48.58810791 ], [ 18.94978134, 48.58811821 ], [ 18.94974413, 48.58817639 ], [ 18.94967178, 48.58825153 ], [ 18.9496605, 48.58826313 ], [ 18.94966586, 48.5882873 ], [ 18.9495711, 48.58835986 ], [ 18.94955552, 48.58837223 ], [ 18.94952252, 48.58839995 ], [ 18.94946516, 48.58843851 ], [ 18.94943939, 48.58847075 ], [ 18.94940876, 48.58849327 ], [ 18.94922395, 48.58860019 ], [ 18.94909497, 48.58868985 ], [ 18.94894931, 48.58883782 ], [ 18.94884094, 48.58899709 ], [ 18.94870829, 48.58920156 ], [ 18.94861545, 48.58933131 ], [ 18.94851041, 48.58948299 ], [ 18.94844346, 48.58960414 ], [ 18.94831702, 48.58995181 ], [ 18.948192, 48.5900847 ], [ 18.94804787, 48.59016546 ], [ 18.94785844, 48.5903554 ], [ 18.94774331, 48.59056113 ], [ 18.94750602, 48.59072282 ], [ 18.94721267, 48.59080408 ], [ 18.94716872, 48.59081139 ], [ 18.94709953, 48.59082292 ], [ 18.94706916, 48.59083391 ], [ 18.94688564, 48.59092835 ], [ 18.94677684, 48.59097529 ], [ 18.94676405, 48.59098943 ], [ 18.94674039, 48.59100463 ], [ 18.94658482, 48.59110429 ], [ 18.94645702, 48.59118616 ], [ 18.94593322, 48.5918231 ], [ 18.94595863, 48.59205504 ], [ 18.94589479, 48.59217852 ], [ 18.94621412, 48.59245904 ], [ 18.9461924, 48.59294927 ], [ 18.94559246, 48.59352513 ], [ 18.94558959, 48.5936868 ], [ 18.94568495, 48.59391358 ], [ 18.9457199, 48.59399664 ], [ 18.94560456, 48.59421345 ], [ 18.9454245, 48.59455189 ], [ 18.94543889, 48.59456029 ], [ 18.94547163, 48.59457928 ], [ 18.94549684, 48.59459401 ], [ 18.94551796, 48.59473996 ], [ 18.94556413, 48.5950601 ], [ 18.94564727, 48.59563913 ], [ 18.94563984, 48.59570189 ], [ 18.94547381, 48.59709588 ], [ 18.94540831, 48.59718562 ], [ 18.94512547, 48.59757283 ], [ 18.94497587, 48.5977777 ], [ 18.94487982, 48.59790909 ], [ 18.94493045, 48.59840969 ], [ 18.94512575, 48.59874206 ], [ 18.94525405, 48.59896042 ], [ 18.94531513, 48.59921547 ], [ 18.94528171, 48.59940707 ], [ 18.94522358, 48.59974002 ], [ 18.94528571, 48.59995093 ], [ 18.94544317, 48.60048486 ], [ 18.94544548, 48.6004931 ], [ 18.94545433, 48.60052467 ], [ 18.94544897, 48.60059187 ], [ 18.94543142, 48.60081197 ], [ 18.94572287, 48.60126381 ], [ 18.94569549, 48.60135432 ], [ 18.94521426, 48.60167782 ], [ 18.94564196, 48.60231135 ], [ 18.9456562, 48.60232344 ], [ 18.94579493, 48.60244157 ], [ 18.94569878, 48.60288515 ], [ 18.9456718, 48.60300969 ], [ 18.94541496, 48.60320331 ], [ 18.94527763, 48.60374725 ], [ 18.94545677, 48.60388296 ], [ 18.94545497, 48.60393004 ], [ 18.94545443, 48.60394282 ], [ 18.94553332, 48.60397798 ], [ 18.94555107, 48.60399025 ], [ 18.94556857, 48.60400233 ], [ 18.94571635, 48.604285 ], [ 18.94583919, 48.60486894 ], [ 18.94588149, 48.60501993 ], [ 18.94590687, 48.60511053 ], [ 18.94597785, 48.60536357 ], [ 18.94604602, 48.60560681 ], [ 18.946116, 48.60585673 ], [ 18.94698708, 48.60613036 ], [ 18.94717342, 48.60635871 ], [ 18.94759207, 48.60687162 ], [ 18.94794105, 48.60667883 ], [ 18.94808195, 48.60672571 ], [ 18.94839742, 48.60683077 ], [ 18.94870655, 48.60672452 ], [ 18.94874083, 48.60671274 ], [ 18.94878631, 48.60669711 ], [ 18.94899712, 48.60645594 ], [ 18.9494816, 48.60579894 ], [ 18.94972705, 48.60553816 ], [ 18.950142, 48.60516941 ], [ 18.95022799, 48.60509307 ], [ 18.95096738, 48.60484561 ], [ 18.95110044, 48.60479251 ], [ 18.95134801, 48.60469384 ], [ 18.95143021, 48.60468758 ], [ 18.95239001, 48.604614 ], [ 18.95278908, 48.60458341 ], [ 18.95323429, 48.60418805 ], [ 18.95387956, 48.60389229 ], [ 18.9541657, 48.60395461 ], [ 18.95472073, 48.60407675 ], [ 18.95554735, 48.60370896 ], [ 18.95570095, 48.60372383 ], [ 18.95657377, 48.60376674 ], [ 18.95672428, 48.60377415 ], [ 18.95696203, 48.60378583 ], [ 18.95707333, 48.60379133 ], [ 18.95723692, 48.60386191 ], [ 18.95736789, 48.60393823 ], [ 18.95745733, 48.60399033 ], [ 18.95772206, 48.60414464 ], [ 18.95778779, 48.60418299 ], [ 18.95783607, 48.60421116 ], [ 18.95785136, 48.60422005 ], [ 18.95789379, 48.60424477 ], [ 18.9579734, 48.60428662 ], [ 18.95810415, 48.60435544 ], [ 18.95825208, 48.60443325 ], [ 18.95831887, 48.60446841 ], [ 18.95842938, 48.60452646 ], [ 18.95847924, 48.60455272 ], [ 18.9585046, 48.60456042 ], [ 18.95858581, 48.60458495 ], [ 18.95871497, 48.6046241 ], [ 18.95887436, 48.60467227 ], [ 18.959008, 48.60471273 ], [ 18.95903624, 48.6047213 ], [ 18.95909718, 48.6048304 ], [ 18.9591912, 48.604999 ], [ 18.95938582, 48.60495336 ], [ 18.9596435, 48.60489289 ], [ 18.95979938, 48.60485637 ], [ 18.9599185, 48.60482844 ], [ 18.9602156, 48.6047588 ], [ 18.96034959, 48.60478322 ], [ 18.96065256, 48.6044411 ], [ 18.96070107, 48.6043863 ], [ 18.96093493, 48.6044316 ], [ 18.96104081, 48.60445215 ], [ 18.96132228, 48.60450673 ], [ 18.96154244, 48.60454934 ], [ 18.96156915, 48.60456531 ], [ 18.96160198, 48.60458485 ], [ 18.96167462, 48.60455887 ], [ 18.96172438, 48.6045403 ], [ 18.96187106, 48.60458206 ], [ 18.96203059, 48.60462086 ], [ 18.96209514, 48.60460367 ], [ 18.96219857, 48.604636 ], [ 18.96223974, 48.60467391 ], [ 18.96227304, 48.60470465 ], [ 18.96281544, 48.60468124 ], [ 18.96291037, 48.60466957 ], [ 18.96296657, 48.60466342 ], [ 18.96298889, 48.60466095 ], [ 18.96307759, 48.60464905 ], [ 18.96315731, 48.60463832 ], [ 18.96386602, 48.60477717 ], [ 18.96395624, 48.60478384 ], [ 18.96439196, 48.60481606 ], [ 18.96458587, 48.60483045 ], [ 18.96660624, 48.60536542 ], [ 18.96666023, 48.60537963 ], [ 18.96737047, 48.60556769 ], [ 18.96754768, 48.60524352 ], [ 18.96777338, 48.60492578 ], [ 18.96800243, 48.60504784 ], [ 18.96805483, 48.60507577 ], [ 18.96828595, 48.60519884 ], [ 18.96846213, 48.60501388 ], [ 18.96856147, 48.60490889 ], [ 18.96867885, 48.60517681 ], [ 18.96857921, 48.60537839 ], [ 18.96831078, 48.60554007 ], [ 18.96813503, 48.60575302 ], [ 18.96804141, 48.60600127 ], [ 18.96834524, 48.60600853 ], [ 18.96855802, 48.60606212 ], [ 18.96856929, 48.60612222 ], [ 18.96846133, 48.6062606 ], [ 18.96878625, 48.60651924 ], [ 18.96920113, 48.6069091 ], [ 18.96939093, 48.6071531 ], [ 18.96966139, 48.6073359 ], [ 18.96999171, 48.6074081 ], [ 18.97098354, 48.60745749 ], [ 18.97191963, 48.60745488 ], [ 18.9732422, 48.60746236 ], [ 18.9737287, 48.60748973 ], [ 18.9742338, 48.60758433 ], [ 18.9754917, 48.60819356 ], [ 18.97591899, 48.60837305 ], [ 18.9762364, 48.6085207 ], [ 18.97635372, 48.60858123 ], [ 18.97713552, 48.60892874 ], [ 18.97798827, 48.60907076 ], [ 18.98026049, 48.60941922 ], [ 18.98072117, 48.6095395 ], [ 18.98124201, 48.60963478 ], [ 18.9818746, 48.60977407 ], [ 18.98216844, 48.60980207 ], [ 18.98300503, 48.61009369 ], [ 18.98356109, 48.61050013 ], [ 18.9840556, 48.61113697 ], [ 18.98420767, 48.61140212 ], [ 18.9844067, 48.61136297 ], [ 18.98444697, 48.61137593 ], [ 18.98446362, 48.61138129 ], [ 18.98448473, 48.61138813 ], [ 18.98452744, 48.61140112 ], [ 18.98454764, 48.61140648 ], [ 18.98467977, 48.61144133 ], [ 18.98473154, 48.61145243 ], [ 18.98488047, 48.61148796 ], [ 18.98527129, 48.61147839 ] ] ] ] } },
{ "type": "Feature", "properties": { "@featureType": "CadastralZoning", "beginLifespanVersion": { "@nilReason": "http://inspire.ec.europa.eu/codelist/VoidReasonValue/Unpopulated", "@nil": "true" }, "endLifespanVersion": { "@nilReason": "http://inspire.ec.europa.eu/codelist/VoidReasonValue/Unpopulated", "@nil": "true" }, "estimatedAccuracy": { "value": -1, "@uom": "m" }, "inspireId": { "@dataType": "Identifier", "localId": "823996", "namespace": "SK.ESKN.CP", "versionId": "20260703T04:07:40" }, "label": "Kľačany", "level": { "@href": "http://inspire.ec.europa.eu/codelist/CadastralZoningLevelValue/3rdOrder" }, "levelName": { "value": "Katastrálne územie", "@locale": "sk" }, "name": { "@dataType": "name", "GeographicalName": { "@dataType": "GeographicalName", "language": "SLK", "nativeness": { "@href": "http://inspire.ec.europa.eu/codelist/NativenessValue/endonym", "@title": "endonym" }, "nameStatus": { "@href": "http://inspire.ec.europa.eu/codelist/NameStatusValue/official", "@title": "official" }, "sourceOfName": { "@nilReason": "http://inspire.ec.europa.eu/codelist/VoidReasonValue/Unpopulated", "@nil": "true" }, "pronunciation": { "@dataType": "pronunciation", "@nilReason": "http://inspire.ec.europa.eu/codelist/VoidReasonValue/Unpopulated", "@nil": "true" }, "spelling": { "@dataType": "SpellingOfName", "text": "Kľačany", "script": "LATN" } } }, "nationalCadastalZoningReference": "823996", "validFrom": "2026-06-30T16:00:00Z", "validTo": { "@nilReason": "http://inspire.ec.europa.eu/codelist/VoidReasonValue/Unpopulated", "@nil": "true" } }, "geometry": { "type": "MultiPolygon", "coordinates": [ [ [ [ 18.97582864, 48.63210523 ], [ 18.97591705, 48.63208555 ], [ 18.97608762, 48.63202738 ], [ 18.97660712, 48.63199497 ], [ 18.97707866, 48.63215134 ], [ 18.97715874, 48.63201425 ], [ 18.97715135, 48.63189697 ], [ 18.97730548, 48.63172675 ], [ 18.97760192, 48.63183806 ], [ 18.977772, 48.63183235 ], [ 18.9778412, 48.6318282 ], [ 18.97803553, 48.63181877 ], [ 18.97825858, 48.63197045 ], [ 18.9785198, 48.63201096 ], [ 18.97875489, 48.63183493 ], [ 18.9792, 48.63190327 ], [ 18.97923075, 48.63182095 ], [ 18.97915061, 48.63180786 ], [ 18.97917611, 48.63160846 ], [ 18.9794473, 48.63153799 ], [ 18.97949963, 48.63152441 ], [ 18.97951673, 48.63154954 ], [ 18.97966274, 48.63176378 ], [ 18.98000946, 48.63180042 ], [ 18.9804447, 48.63218495 ], [ 18.98126296, 48.63218726 ], [ 18.98141708, 48.63205708 ], [ 18.98150011, 48.63190615 ], [ 18.98147652, 48.63174169 ], [ 18.9818903, 48.63185047 ], [ 18.98229768, 48.63177662 ], [ 18.98262792, 48.63153776 ], [ 18.98244208, 48.6313289 ], [ 18.98258965, 48.63123176 ], [ 18.9829489, 48.63140486 ], [ 18.98338522, 48.63147869 ], [ 18.98353112, 48.63163276 ], [ 18.98379064, 48.63150892 ], [ 18.98399692, 48.63077751 ], [ 18.98423265, 48.63071109 ], [ 18.98510197, 48.63074708 ], [ 18.98556783, 48.63073708 ], [ 18.98631002, 48.63035026 ], [ 18.98679583, 48.63024519 ], [ 18.98717781, 48.6301732 ], [ 18.98741642, 48.63019847 ], [ 18.98777358, 48.63012927 ], [ 18.98783148, 48.63011805 ], [ 18.98786141, 48.63011226 ], [ 18.98824144, 48.63003232 ], [ 18.98863417, 48.62994959 ], [ 18.98942145, 48.6297531 ], [ 18.98965492, 48.62969206 ], [ 18.98995192, 48.62932332 ], [ 18.98999986, 48.62918144 ], [ 18.98993444, 48.62893233 ], [ 18.98993263, 48.62892556 ], [ 18.98979951, 48.62841885 ], [ 18.98967386, 48.62821891 ], [ 18.98956415, 48.6276874 ], [ 18.98955799, 48.62725251 ], [ 18.9896787, 48.62621107 ], [ 18.98910802, 48.62511464 ], [ 18.98855687, 48.62422177 ], [ 18.98847208, 48.62328816 ], [ 18.98838402, 48.62291 ], [ 18.98829427, 48.62248512 ], [ 18.98830269, 48.62204078 ], [ 18.98838234, 48.62148252 ], [ 18.98825162, 48.62103428 ], [ 18.98821543, 48.6209105 ], [ 18.98819279, 48.62075186 ], [ 18.98818277, 48.62068181 ], [ 18.98799931, 48.61939971 ], [ 18.98794871, 48.61872047 ], [ 18.98797243, 48.61840292 ], [ 18.98799802, 48.61797721 ], [ 18.98808228, 48.61691922 ], [ 18.98816423, 48.61649547 ], [ 18.98822739, 48.61629122 ], [ 18.98824086, 48.61595871 ], [ 18.98818395, 48.61584587 ], [ 18.98810127, 48.61567346 ], [ 18.98793104, 48.61520472 ], [ 18.9879047, 48.61513231 ], [ 18.98787403, 48.61504795 ], [ 18.9877541, 48.61490963 ], [ 18.98724491, 48.61432267 ], [ 18.98670071, 48.61381403 ], [ 18.98663492, 48.61375116 ], [ 18.98654096, 48.61366124 ], [ 18.9863797, 48.61330462 ], [ 18.98621149, 48.61289749 ], [ 18.98620995, 48.61257144 ], [ 18.98580238, 48.61196473 ], [ 18.98579312, 48.61161122 ], [ 18.98598273, 48.61151937 ], [ 18.98554873, 48.61149653 ], [ 18.98527129, 48.61147839 ], [ 18.98488047, 48.61148796 ], [ 18.98473154, 48.61145243 ], [ 18.98467977, 48.61144133 ], [ 18.98454764, 48.61140648 ], [ 18.98452744, 48.61140112 ], [ 18.98448473, 48.61138813 ], [ 18.98446362, 48.61138129 ], [ 18.98444697, 48.61137593 ], [ 18.9844067, 48.61136297 ], [ 18.98420767, 48.61140212 ], [ 18.9840556, 48.61113697 ], [ 18.98356109, 48.61050013 ], [ 18.98300503, 48.61009369 ], [ 18.98216844, 48.60980207 ], [ 18.9818746, 48.60977407 ], [ 18.98124201, 48.60963478 ], [ 18.98072117, 48.6095395 ], [ 18.98026049, 48.60941922 ], [ 18.97798827, 48.60907076 ], [ 18.97713552, 48.60892874 ], [ 18.97635372, 48.60858123 ], [ 18.9762364, 48.6085207 ], [ 18.97591899, 48.60837305 ], [ 18.9754917, 48.60819356 ], [ 18.9742338, 48.60758433 ], [ 18.9737287, 48.60748973 ], [ 18.9732422, 48.60746236 ], [ 18.97191963, 48.60745488 ], [ 18.97098354, 48.60745749 ], [ 18.96999171, 48.6074081 ], [ 18.96966139, 48.6073359 ], [ 18.96939093, 48.6071531 ], [ 18.96920113, 48.6069091 ], [ 18.96878625, 48.60651924 ], [ 18.96846133, 48.6062606 ], [ 18.96856929, 48.60612222 ], [ 18.96855802, 48.60606212 ], [ 18.96834524, 48.60600853 ], [ 18.96804141, 48.60600127 ], [ 18.96813503, 48.60575302 ], [ 18.96831078, 48.60554007 ], [ 18.96857921, 48.60537839 ], [ 18.96867885, 48.60517681 ], [ 18.96856147, 48.60490889 ], [ 18.96846213, 48.60501388 ], [ 18.96828595, 48.60519884 ], [ 18.96805483, 48.60507577 ], [ 18.96800243, 48.60504784 ], [ 18.96777338, 48.60492578 ], [ 18.96754768, 48.60524352 ], [ 18.96737047, 48.60556769 ], [ 18.96666023, 48.60537963 ], [ 18.96660624, 48.60536542 ], [ 18.96458587, 48.60483045 ], [ 18.96439196, 48.60481606 ], [ 18.96395624, 48.60478384 ], [ 18.96386602, 48.60477717 ], [ 18.96315731, 48.60463832 ], [ 18.96307759, 48.60464905 ], [ 18.96298889, 48.60466095 ], [ 18.96296657, 48.60466342 ], [ 18.96291037, 48.60466957 ], [ 18.96281544, 48.60468124 ], [ 18.96227304, 48.60470465 ], [ 18.96223974, 48.60467391 ], [ 18.96219857, 48.604636 ], [ 18.96209514, 48.60460367 ], [ 18.96203059, 48.60462086 ], [ 18.96187106, 48.60458206 ], [ 18.96172438, 48.6045403 ], [ 18.96167462, 48.60455887 ], [ 18.96160198, 48.60458485 ], [ 18.96156915, 48.60456531 ], [ 18.96154244, 48.60454934 ], [ 18.96132228, 48.60450673 ], [ 18.96104081, 48.60445215 ], [ 18.96093493, 48.6044316 ], [ 18.96070107, 48.6043863 ], [ 18.96065256, 48.6044411 ], [ 18.96034959, 48.60478322 ], [ 18.9602156, 48.6047588 ], [ 18.9599185, 48.60482844 ], [ 18.95979938, 48.60485637 ], [ 18.9596435, 48.60489289 ], [ 18.95938582, 48.60495336 ], [ 18.9591912, 48.604999 ], [ 18.95909718, 48.6048304 ], [ 18.95903624, 48.6047213 ], [ 18.959008, 48.60471273 ], [ 18.95887436, 48.60467227 ], [ 18.95871497, 48.6046241 ], [ 18.95858581, 48.60458495 ], [ 18.9585046, 48.60456042 ], [ 18.95847924, 48.60455272 ], [ 18.95842938, 48.60452646 ], [ 18.95831887, 48.60446841 ], [ 18.95825208, 48.60443325 ], [ 18.95810415, 48.60435544 ], [ 18.9579734, 48.60428662 ], [ 18.95789379, 48.60424477 ], [ 18.95785136, 48.60422005 ], [ 18.95783607, 48.60421116 ], [ 18.95778779, 48.60418299 ], [ 18.95772206, 48.60414464 ], [ 18.95745733, 48.60399033 ], [ 18.95736789, 48.60393823 ], [ 18.95723692, 48.60386191 ], [ 18.95707333, 48.60379133 ], [ 18.95696203, 48.60378583 ], [ 18.95672428, 48.60377415 ], [ 18.95657377, 48.60376674 ], [ 18.95570095, 48.60372383 ], [ 18.95554735, 48.60370896 ], [ 18.95472073, 48.60407675 ], [ 18.9541657, 48.60395461 ], [ 18.95387956, 48.60389229 ], [ 18.95323429, 48.60418805 ], [ 18.95278908, 48.60458341 ], [ 18.95239001, 48.604614 ], [ 18.95143021, 48.60468758 ], [ 18.95134801, 48.60469384 ], [ 18.95110044, 48.60479251 ], [ 18.95096738, 48.60484561 ], [ 18.95022799, 48.60509307 ], [ 18.950142, 48.60516941 ], [ 18.94972705, 48.60553816 ], [ 18.9494816, 48.60579894 ], [ 18.94899712, 48.60645594 ], [ 18.94878631, 48.60669711 ], [ 18.94874083, 48.60671274 ], [ 18.94870655, 48.60672452 ], [ 18.94839742, 48.60683077 ], [ 18.94808195, 48.60672571 ], [ 18.94794105, 48.60667883 ], [ 18.94759207, 48.60687162 ], [ 18.94771584, 48.60721593 ], [ 18.94773691, 48.60727465 ], [ 18.94789111, 48.60770359 ], [ 18.9479014, 48.60773208 ], [ 18.94806755, 48.6080266 ], [ 18.94827824, 48.60840025 ], [ 18.94834254, 48.60843339 ], [ 18.94837219, 48.60844862 ], [ 18.94849488, 48.60851189 ], [ 18.94849977, 48.60851431 ], [ 18.94869048, 48.60861263 ], [ 18.94924428, 48.6088979 ], [ 18.94992273, 48.60945347 ], [ 18.94995834, 48.60952745 ], [ 18.94997261, 48.60954983 ], [ 18.95021856, 48.61003234 ], [ 18.95034662, 48.61028369 ], [ 18.95083781, 48.61055548 ], [ 18.95135931, 48.61107361 ], [ 18.95144114, 48.611155 ], [ 18.95177246, 48.6116241 ], [ 18.95175898, 48.61164759 ], [ 18.95168003, 48.61178518 ], [ 18.9515518, 48.61185981 ], [ 18.95146223, 48.61188843 ], [ 18.95136645, 48.61192837 ], [ 18.95128837, 48.61196119 ], [ 18.95121167, 48.61202781 ], [ 18.95116069, 48.61210486 ], [ 18.951086, 48.61229823 ], [ 18.95103779, 48.61242286 ], [ 18.95106437, 48.61258063 ], [ 18.95108466, 48.61260737 ], [ 18.95120945, 48.61274517 ], [ 18.95134547, 48.61286604 ], [ 18.95144973, 48.61308108 ], [ 18.951514, 48.61314146 ], [ 18.95152717, 48.61317217 ], [ 18.95207946, 48.61344878 ], [ 18.95209952, 48.61345882 ], [ 18.95210894, 48.61350305 ], [ 18.95217151, 48.61379489 ], [ 18.95218528, 48.6138591 ], [ 18.95215242, 48.61395114 ], [ 18.95192119, 48.61459763 ], [ 18.95179102, 48.6149619 ], [ 18.95168719, 48.61525399 ], [ 18.95165733, 48.61533771 ], [ 18.95165631, 48.61534064 ], [ 18.95164508, 48.61537885 ], [ 18.95164037, 48.61539241 ], [ 18.95162433, 48.61543804 ], [ 18.95157487, 48.6155793 ], [ 18.95183232, 48.61606619 ], [ 18.95190732, 48.61625926 ], [ 18.9522615, 48.61717043 ], [ 18.95224085, 48.61735176 ], [ 18.95210684, 48.61749944 ], [ 18.95238689, 48.61790322 ], [ 18.95255341, 48.61814345 ], [ 18.95258488, 48.61833295 ], [ 18.95249565, 48.61859765 ], [ 18.95247196, 48.61866806 ], [ 18.95246699, 48.61868278 ], [ 18.9523858, 48.61904693 ], [ 18.95238251, 48.61926866 ], [ 18.95240232, 48.61928555 ], [ 18.95244829, 48.61940398 ], [ 18.95287406, 48.61994022 ], [ 18.95298576, 48.62008087 ], [ 18.95300225, 48.62011337 ], [ 18.95311115, 48.62032856 ], [ 18.95311277, 48.62033216 ], [ 18.95313023, 48.62037165 ], [ 18.95318144, 48.6205599 ], [ 18.95313443, 48.62060269 ], [ 18.95319495, 48.62062987 ], [ 18.95325068, 48.62081311 ], [ 18.95332776, 48.62105978 ], [ 18.95335645, 48.62115253 ], [ 18.95330126, 48.62137955 ], [ 18.95320777, 48.62169851 ], [ 18.9532133, 48.62175986 ], [ 18.95316607, 48.62184206 ], [ 18.95319095, 48.62193128 ], [ 18.95320586, 48.62198453 ], [ 18.95356023, 48.62230615 ], [ 18.95362798, 48.62237302 ], [ 18.95376541, 48.62250893 ], [ 18.95378328, 48.62275582 ], [ 18.95365537, 48.6231451 ], [ 18.95341581, 48.62332762 ], [ 18.95334185, 48.62347358 ], [ 18.95333435, 48.62357693 ], [ 18.95332696, 48.62368038 ], [ 18.95336365, 48.62391407 ], [ 18.95338234, 48.62417967 ], [ 18.95345855, 48.62426628 ], [ 18.95346517, 48.62427374 ], [ 18.95349835, 48.62431142 ], [ 18.95346026, 48.62439571 ], [ 18.95345807, 48.62440056 ], [ 18.95338708, 48.62446468 ], [ 18.95324784, 48.62459053 ], [ 18.95322571, 48.62466039 ], [ 18.95321975, 48.62467894 ], [ 18.95318906, 48.6247757 ], [ 18.95327005, 48.6249817 ], [ 18.95356915, 48.62534126 ], [ 18.95356924, 48.62569441 ], [ 18.95351374, 48.62579864 ], [ 18.95340863, 48.62599605 ], [ 18.95331303, 48.62611746 ], [ 18.95324918, 48.62619863 ], [ 18.95355111, 48.62633346 ], [ 18.95369893, 48.62643968 ], [ 18.95374167, 48.6264783 ], [ 18.95383734, 48.62654263 ], [ 18.95396973, 48.62663174 ], [ 18.95407398, 48.62670191 ], [ 18.95413532, 48.62674319 ], [ 18.95426842, 48.62700435 ], [ 18.95426948, 48.62700811 ], [ 18.95431191, 48.62716776 ], [ 18.9543224, 48.62720744 ], [ 18.95443226, 48.62731137 ], [ 18.95467563, 48.62754162 ], [ 18.95467907, 48.62765969 ], [ 18.95467921, 48.62766321 ], [ 18.9546848, 48.62786005 ], [ 18.95484381, 48.62815716 ], [ 18.95487526, 48.62825195 ], [ 18.95501045, 48.628528 ], [ 18.95502468, 48.62854497 ], [ 18.95514997, 48.62869415 ], [ 18.95516036, 48.62883557 ], [ 18.95517074, 48.62903923 ], [ 18.95528143, 48.62920986 ], [ 18.95536228, 48.62942307 ], [ 18.95533462, 48.62957933 ], [ 18.95531835, 48.62975583 ], [ 18.95532832, 48.62976609 ], [ 18.95549574, 48.62970589 ], [ 18.95557485, 48.62973599 ], [ 18.955704, 48.62969955 ], [ 18.95572228, 48.62969444 ], [ 18.95575802, 48.62969482 ], [ 18.95581198, 48.62969541 ], [ 18.95605848, 48.62969833 ], [ 18.95640121, 48.62970227 ], [ 18.95686572, 48.62965118 ], [ 18.95701349, 48.6296349 ], [ 18.95715781, 48.62961899 ], [ 18.95796303, 48.62966076 ], [ 18.9584215, 48.62970281 ], [ 18.95932623, 48.6297841 ], [ 18.95957528, 48.62977217 ], [ 18.95967454, 48.62975522 ], [ 18.96015513, 48.62967336 ], [ 18.96030278, 48.62966745 ], [ 18.96052532, 48.62971866 ], [ 18.96074375, 48.62980528 ], [ 18.9608127, 48.62983261 ], [ 18.9608523, 48.6298478 ], [ 18.96090506, 48.62986807 ], [ 18.96115816, 48.62997261 ], [ 18.96226833, 48.63014706 ], [ 18.96292013, 48.63016475 ], [ 18.9641892, 48.63008254 ], [ 18.9655642, 48.63030742 ], [ 18.96638009, 48.63035347 ], [ 18.96706846, 48.63031869 ], [ 18.96719453, 48.6303123 ], [ 18.96791501, 48.63033625 ], [ 18.96880996, 48.63039171 ], [ 18.96938663, 48.63048131 ], [ 18.97026687, 48.63081789 ], [ 18.97073578, 48.63102963 ], [ 18.97086316, 48.63108716 ], [ 18.97090148, 48.63110056 ], [ 18.9709615, 48.63112157 ], [ 18.97103239, 48.63114637 ], [ 18.97107886, 48.63116226 ], [ 18.97124684, 48.63122051 ], [ 18.97147195, 48.63111208 ], [ 18.9717599, 48.63115667 ], [ 18.97232523, 48.63131964 ], [ 18.97244078, 48.63155696 ], [ 18.9725713, 48.63141928 ], [ 18.97305478, 48.63147931 ], [ 18.97322801, 48.63145348 ], [ 18.97385412, 48.6318803 ], [ 18.97448253, 48.6319522 ], [ 18.97494202, 48.63213503 ], [ 18.97543089, 48.63224268 ], [ 18.97582864, 48.63210523 ] ] ] ] } },
{ "type": "Feature", "properties": { "@featureType": "CadastralZoning", "beginLifespanVersion": { "@nilReason": "http://inspire.ec.europa.eu/codelist/VoidReasonValue/Unpopulated", "@nil": "true" }, "endLifespanVersion": { "@nilReason": "http://inspire.ec.europa.eu/codelist/VoidReasonValue/Unpopulated", "@nil": "true" }, "estimatedAccuracy": { "value": -1, "@uom": "m" }, "inspireId": { "@dataType": "Identifier", "localId": "822485", "namespace": "SK.ESKN.CP", "versionId": "20260703T04:07:40" }, "label": "Jastrabá", "level": { "@href": "http://inspire.ec.europa.eu/codelist/CadastralZoningLevelValue/3rdOrder" }, "levelName": { "value": "Katastrálne územie", "@locale": "sk" }, "name": { "@dataType": "name", "GeographicalName": { "@dataType": "GeographicalName", "language": "SLK", "nativeness": { "@href": "http://inspire.ec.europa.eu/codelist/NativenessValue/endonym", "@title": "endonym" }, "nameStatus": { "@href": "http://inspire.ec.europa.eu/codelist/NameStatusValue/official", "@title": "official" }, "sourceOfName": { "@nilReason": "http://inspire.ec.europa.eu/codelist/VoidReasonValue/Unpopulated", "@nil": "true" }, "pronunciation": { "@dataType": "pronunciation", "@nilReason": "http://inspire.ec.europa.eu/codelist/VoidReasonValue/Unpopulated", "@nil": "true" }, "spelling": { "@dataType": "SpellingOfName", "text": "Jastrabá", "script": "LATN" } } }, "nationalCadastalZoningReference": "822485", "validFrom": "2026-06-30T16:00:00Z", "validTo": { "@nilReason": "http://inspire.ec.europa.eu/codelist/VoidReasonValue/Unpopulated", "@nil": "true" } }, "geometry": { "type": "MultiPolygon", "coordinates": [ [ [ [ 18.94338006, 48.66470855 ], [ 18.94348855, 48.66469948 ], [ 18.94362435, 48.66457634 ], [ 18.94456488, 48.66372343 ], [ 18.94495096, 48.66337323 ], [ 18.94501261, 48.66331739 ], [ 18.94506299, 48.6632717 ], [ 18.94531082, 48.66309854 ], [ 18.94548485, 48.66269701 ], [ 18.94559412, 48.66243433 ], [ 18.94563745, 48.66232992 ], [ 18.94565615, 48.66212702 ], [ 18.94566627, 48.66201776 ], [ 18.94561531, 48.66191043 ], [ 18.94557186, 48.66181919 ], [ 18.94553816, 48.66174837 ], [ 18.94550053, 48.66167979 ], [ 18.94541604, 48.66152583 ], [ 18.94541214, 48.66133937 ], [ 18.94540032, 48.66077032 ], [ 18.94593814, 48.66044283 ], [ 18.94634277, 48.66007093 ], [ 18.94662298, 48.65958867 ], [ 18.94685872, 48.65921834 ], [ 18.9474616, 48.65926779 ], [ 18.94754913, 48.65927496 ], [ 18.9476155, 48.6590192 ], [ 18.94773755, 48.65854926 ], [ 18.94918514, 48.65850271 ], [ 18.9493906, 48.65793581 ], [ 18.94948604, 48.65767351 ], [ 18.94975264, 48.65694024 ], [ 18.94994553, 48.65640996 ], [ 18.95017072, 48.6560785 ], [ 18.95050195, 48.65559144 ], [ 18.95045436, 48.65532734 ], [ 18.95057848, 48.65534883 ], [ 18.95073265, 48.65503206 ], [ 18.9509977, 48.65506984 ], [ 18.951128, 48.65508849 ], [ 18.9511393, 48.65508969 ], [ 18.95119325, 48.65509524 ], [ 18.95122621, 48.65509864 ], [ 18.95132599, 48.65481409 ], [ 18.95153924, 48.6545817 ], [ 18.95160462, 48.65447715 ], [ 18.95168643, 48.65426637 ], [ 18.95167535, 48.65395867 ], [ 18.95197172, 48.65341517 ], [ 18.95212619, 48.65321992 ], [ 18.95223258, 48.65301319 ], [ 18.95221218, 48.65274822 ], [ 18.95222005, 48.65249065 ], [ 18.95225134, 48.65215922 ], [ 18.95206454, 48.6515384 ], [ 18.95197792, 48.65125048 ], [ 18.95165343, 48.65091957 ], [ 18.95145552, 48.65057249 ], [ 18.95139107, 48.65045933 ], [ 18.95128853, 48.65024637 ], [ 18.95126727, 48.65020208 ], [ 18.95119521, 48.65005254 ], [ 18.95144907, 48.6497341 ], [ 18.95197327, 48.64949781 ], [ 18.95284523, 48.64962518 ], [ 18.95330809, 48.64968252 ], [ 18.95337828, 48.64969124 ], [ 18.95359429, 48.6496282 ], [ 18.95395298, 48.6494467 ], [ 18.95410052, 48.64917261 ], [ 18.95409557, 48.64910976 ], [ 18.95407524, 48.64884994 ], [ 18.95400551, 48.64875997 ], [ 18.95392392, 48.64865487 ], [ 18.95375034, 48.64843116 ], [ 18.95376586, 48.64834094 ], [ 18.95382516, 48.64799795 ], [ 18.95374057, 48.64788008 ], [ 18.95359283, 48.6476741 ], [ 18.95344433, 48.64752401 ], [ 18.95337731, 48.64745411 ], [ 18.95347262, 48.64723825 ], [ 18.95347821, 48.64717251 ], [ 18.95348921, 48.64704147 ], [ 18.95359435, 48.64687581 ], [ 18.95375794, 48.64661823 ], [ 18.95415667, 48.64607301 ], [ 18.95436258, 48.6459022 ], [ 18.95456653, 48.6457331 ], [ 18.95477406, 48.64554948 ], [ 18.95468554, 48.64521582 ], [ 18.95491161, 48.6450097 ], [ 18.95498455, 48.64487036 ], [ 18.95525718, 48.64460905 ], [ 18.95553151, 48.64428623 ], [ 18.9558328, 48.6442739 ], [ 18.95594007, 48.64415778 ], [ 18.95600575, 48.6440868 ], [ 18.95608439, 48.64398392 ], [ 18.95632805, 48.64366485 ], [ 18.95673964, 48.64334145 ], [ 18.95706945, 48.64303534 ], [ 18.95717353, 48.64280233 ], [ 18.95724875, 48.64263388 ], [ 18.95723526, 48.64238659 ], [ 18.95717659, 48.64221312 ], [ 18.95720116, 48.64207176 ], [ 18.95734408, 48.64184308 ], [ 18.9573837, 48.64177961 ], [ 18.95741515, 48.64160361 ], [ 18.95728001, 48.64145926 ], [ 18.95723993, 48.64141635 ], [ 18.95705298, 48.64122822 ], [ 18.95699594, 48.64115207 ], [ 18.95697449, 48.64112347 ], [ 18.9568445, 48.64094997 ], [ 18.9568002, 48.64092002 ], [ 18.9565817, 48.64077268 ], [ 18.95653633, 48.64075196 ], [ 18.95625912, 48.64062499 ], [ 18.95619114, 48.64059383 ], [ 18.95617941, 48.64042871 ], [ 18.95617411, 48.64035357 ], [ 18.95610757, 48.64022453 ], [ 18.95604011, 48.6400939 ], [ 18.95603722, 48.64008834 ], [ 18.95586425, 48.64002369 ], [ 18.95566818, 48.63995046 ], [ 18.95525806, 48.63979722 ], [ 18.95509735, 48.63973716 ], [ 18.95503408, 48.63971355 ], [ 18.95501621, 48.63970687 ], [ 18.95489691, 48.63963828 ], [ 18.95479738, 48.63958115 ], [ 18.95477602, 48.639553 ], [ 18.95470186, 48.6394555 ], [ 18.95462973, 48.63936054 ], [ 18.95461142, 48.63933652 ], [ 18.95459145, 48.639294 ], [ 18.95454424, 48.6391931 ], [ 18.95450857, 48.63911695 ], [ 18.95448338, 48.63906317 ], [ 18.95444253, 48.6389625 ], [ 18.95434271, 48.63871684 ], [ 18.95433438, 48.63864082 ], [ 18.95431322, 48.63844563 ], [ 18.95431033, 48.63841897 ], [ 18.95432786, 48.63833011 ], [ 18.95435355, 48.63820027 ], [ 18.9543461, 48.63809219 ], [ 18.95433504, 48.63793187 ], [ 18.95432907, 48.63784498 ], [ 18.95432349, 48.63776523 ], [ 18.95432188, 48.6377416 ], [ 18.9542971, 48.63765266 ], [ 18.95429481, 48.63764425 ], [ 18.95424835, 48.63747699 ], [ 18.95428312, 48.63737918 ], [ 18.95431299, 48.63729537 ], [ 18.95442465, 48.63714015 ], [ 18.95445143, 48.63710291 ], [ 18.95472032, 48.63702353 ], [ 18.95473919, 48.63700636 ], [ 18.95481852, 48.63693383 ], [ 18.95487408, 48.63688317 ], [ 18.9548906, 48.63683224 ], [ 18.95491633, 48.63675246 ], [ 18.95492672, 48.63672043 ], [ 18.95493105, 48.6366456 ], [ 18.95493698, 48.63654181 ], [ 18.95493715, 48.63653794 ], [ 18.9549376, 48.63640636 ], [ 18.95493784, 48.63633863 ], [ 18.95493813, 48.63626459 ], [ 18.9549387, 48.63609676 ], [ 18.95493869, 48.63608864 ], [ 18.95503055, 48.63556582 ], [ 18.95526986, 48.63527459 ], [ 18.95538033, 48.63514005 ], [ 18.95540251, 48.63508264 ], [ 18.9554233, 48.63505006 ], [ 18.95551253, 48.63488169 ], [ 18.95555871, 48.63479448 ], [ 18.95556367, 48.63476235 ], [ 18.95559724, 48.63454469 ], [ 18.95560437, 48.63450906 ], [ 18.95565835, 48.63424211 ], [ 18.9557429, 48.63394632 ], [ 18.95573201, 48.63383617 ], [ 18.95572589, 48.63377398 ], [ 18.95571578, 48.63367226 ], [ 18.95570637, 48.63357752 ], [ 18.95568109, 48.63309654 ], [ 18.95571385, 48.63265596 ], [ 18.95555955, 48.63223956 ], [ 18.95541211, 48.63193411 ], [ 18.95535495, 48.63182512 ], [ 18.95524521, 48.63161576 ], [ 18.95506769, 48.63127287 ], [ 18.95497614, 48.63104748 ], [ 18.95508223, 48.63082991 ], [ 18.95522819, 48.63055015 ], [ 18.95515492, 48.63011814 ], [ 18.95523312, 48.62975275 ], [ 18.95527851, 48.62975912 ], [ 18.95532832, 48.62976609 ], [ 18.95531835, 48.62975583 ], [ 18.95533462, 48.62957933 ], [ 18.95536228, 48.62942307 ], [ 18.95528143, 48.62920986 ], [ 18.95517074, 48.62903923 ], [ 18.95516036, 48.62883557 ], [ 18.95514997, 48.62869415 ], [ 18.95502468, 48.62854497 ], [ 18.95501045, 48.628528 ], [ 18.95487526, 48.62825195 ], [ 18.95484381, 48.62815716 ], [ 18.9546848, 48.62786005 ], [ 18.95467921, 48.62766321 ], [ 18.95467907, 48.62765969 ], [ 18.95467563, 48.62754162 ], [ 18.95443226, 48.62731137 ], [ 18.9543224, 48.62720744 ], [ 18.95431191, 48.62716776 ], [ 18.95426948, 48.62700811 ], [ 18.95426842, 48.62700435 ], [ 18.95413532, 48.62674319 ], [ 18.95407398, 48.62670191 ], [ 18.95396973, 48.62663174 ], [ 18.95383734, 48.62654263 ], [ 18.95374167, 48.6264783 ], [ 18.95369893, 48.62643968 ], [ 18.95355111, 48.62633346 ], [ 18.95324918, 48.62619863 ], [ 18.95331303, 48.62611746 ], [ 18.95340863, 48.62599605 ], [ 18.95351374, 48.62579864 ], [ 18.95356924, 48.62569441 ], [ 18.95356915, 48.62534126 ], [ 18.95327005, 48.6249817 ], [ 18.95318906, 48.6247757 ], [ 18.95321975, 48.62467894 ], [ 18.95322571, 48.62466039 ], [ 18.95324784, 48.62459053 ], [ 18.95338708, 48.62446468 ], [ 18.95345807, 48.62440056 ], [ 18.95346026, 48.62439571 ], [ 18.95349835, 48.62431142 ], [ 18.95346517, 48.62427374 ], [ 18.95345855, 48.62426628 ], [ 18.95338234, 48.62417967 ], [ 18.95336365, 48.62391407 ], [ 18.95332696, 48.62368038 ], [ 18.95333435, 48.62357693 ], [ 18.95334185, 48.62347358 ], [ 18.95341581, 48.62332762 ], [ 18.95365537, 48.6231451 ], [ 18.95378328, 48.62275582 ], [ 18.95376541, 48.62250893 ], [ 18.95362798, 48.62237302 ], [ 18.95356023, 48.62230615 ], [ 18.95320586, 48.62198453 ], [ 18.95319095, 48.62193128 ], [ 18.95316607, 48.62184206 ], [ 18.9532133, 48.62175986 ], [ 18.95320777, 48.62169851 ], [ 18.95330126, 48.62137955 ], [ 18.95335645, 48.62115253 ], [ 18.95332776, 48.62105978 ], [ 18.95325068, 48.62081311 ], [ 18.95319495, 48.62062987 ], [ 18.95313443, 48.62060269 ], [ 18.95318144, 48.6205599 ], [ 18.95313023, 48.62037165 ], [ 18.95311277, 48.62033216 ], [ 18.95311115, 48.62032856 ], [ 18.95300225, 48.62011337 ], [ 18.95298576, 48.62008087 ], [ 18.95287406, 48.61994022 ], [ 18.95244829, 48.61940398 ], [ 18.95240232, 48.61928555 ], [ 18.95238251, 48.61926866 ], [ 18.9523858, 48.61904693 ], [ 18.95246699, 48.61868278 ], [ 18.95247196, 48.61866806 ], [ 18.95249565, 48.61859765 ], [ 18.95258488, 48.61833295 ], [ 18.95255341, 48.61814345 ], [ 18.95238689, 48.61790322 ], [ 18.95210684, 48.61749944 ], [ 18.95224085, 48.61735176 ], [ 18.95203501, 48.61735415 ], [ 18.95200953, 48.61735448 ], [ 18.95170329, 48.61735923 ], [ 18.95158305, 48.61739296 ], [ 18.95146634, 48.61738583 ], [ 18.95138526, 48.61740217 ], [ 18.95117181, 48.61738225 ], [ 18.95099066, 48.61741801 ], [ 18.95088933, 48.61738731 ], [ 18.95075378, 48.61737372 ], [ 18.95072525, 48.61737452 ], [ 18.94960767, 48.61740468 ], [ 18.94946342, 48.61740859 ], [ 18.94901767, 48.61746295 ], [ 18.948553, 48.61749289 ], [ 18.94794124, 48.61746913 ], [ 18.9476659, 48.6174584 ], [ 18.94746769, 48.61743727 ], [ 18.94713107, 48.61740132 ], [ 18.94673493, 48.61744909 ], [ 18.94629861, 48.61741408 ], [ 18.94620925, 48.6174069 ], [ 18.94527342, 48.61715026 ], [ 18.9449453, 48.61717002 ], [ 18.94407718, 48.61737958 ], [ 18.9435003, 48.61739158 ], [ 18.94325586, 48.61758556 ], [ 18.94280307, 48.61783844 ], [ 18.94252736, 48.61789876 ], [ 18.94250593, 48.61798832 ], [ 18.94222126, 48.61814199 ], [ 18.94201169, 48.61811324 ], [ 18.94187963, 48.61800997 ], [ 18.94140618, 48.61785902 ], [ 18.94126343, 48.61773536 ], [ 18.94049743, 48.61771242 ], [ 18.94034262, 48.61764678 ], [ 18.94020507, 48.61747963 ], [ 18.93978302, 48.6174179 ], [ 18.93935297, 48.61727413 ], [ 18.93912775, 48.61703034 ], [ 18.93884908, 48.61694184 ], [ 18.93878216, 48.61692065 ], [ 18.93836998, 48.61673449 ], [ 18.9380484, 48.61682538 ], [ 18.93779784, 48.61681572 ], [ 18.93754214, 48.61678008 ], [ 18.93727863, 48.61668993 ], [ 18.9370127, 48.61638225 ], [ 18.93683824, 48.61635574 ], [ 18.93623287, 48.61637888 ], [ 18.9356625, 48.61632343 ], [ 18.93500496, 48.61631548 ], [ 18.93388314, 48.61594513 ], [ 18.93230581, 48.61586246 ], [ 18.93229047, 48.61590543 ], [ 18.9319037, 48.61602805 ], [ 18.93189353, 48.61603123 ], [ 18.93186429, 48.61604281 ], [ 18.93143262, 48.61617945 ], [ 18.93007108, 48.61657056 ], [ 18.92933893, 48.6167977 ], [ 18.92924663, 48.61684258 ], [ 18.92921255, 48.61686654 ], [ 18.92885076, 48.61706765 ], [ 18.92839672, 48.61724428 ], [ 18.92825278, 48.61730031 ], [ 18.9276984, 48.61751599 ], [ 18.92764467, 48.61753696 ], [ 18.927629, 48.61754301 ], [ 18.92753591, 48.61756774 ], [ 18.92740716, 48.617602 ], [ 18.92732689, 48.61762414 ], [ 18.92683786, 48.61775774 ], [ 18.92640252, 48.61789057 ], [ 18.92610625, 48.61799752 ], [ 18.92581562, 48.61813191 ], [ 18.92542688, 48.61837718 ], [ 18.92497877, 48.61867659 ], [ 18.92482963, 48.61868383 ], [ 18.92439845, 48.61886603 ], [ 18.92365503, 48.61931059 ], [ 18.92283236, 48.61975784 ], [ 18.92177844, 48.62029787 ], [ 18.92157894, 48.62040896 ], [ 18.92147077, 48.62051391 ], [ 18.92141705, 48.62065241 ], [ 18.92128098, 48.62094283 ], [ 18.92134755, 48.62160925 ], [ 18.92134369, 48.62206315 ], [ 18.9213114, 48.62219752 ], [ 18.92058231, 48.62522969 ], [ 18.9199044, 48.6261177 ], [ 18.9181391, 48.62758115 ], [ 18.91804554, 48.6276587 ], [ 18.91763619, 48.62806084 ], [ 18.91639515, 48.62874917 ], [ 18.91579278, 48.62897226 ], [ 18.91488359, 48.62930903 ], [ 18.91477805, 48.62934808 ], [ 18.91464605, 48.62939696 ], [ 18.91376428, 48.62991464 ], [ 18.91422954, 48.63083328 ], [ 18.91434896, 48.63106908 ], [ 18.91446869, 48.63130561 ], [ 18.91468399, 48.63206582 ], [ 18.91481197, 48.63266739 ], [ 18.9148487, 48.63303776 ], [ 18.91485326, 48.63308373 ], [ 18.91485492, 48.63309978 ], [ 18.91485818, 48.6331464 ], [ 18.9148509, 48.63329487 ], [ 18.91484021, 48.63351207 ], [ 18.91479495, 48.63361754 ], [ 18.91449238, 48.63394036 ], [ 18.9137304, 48.6344559 ], [ 18.91297192, 48.63459916 ], [ 18.91375697, 48.63535201 ], [ 18.91408312, 48.63566473 ], [ 18.91521019, 48.63696743 ], [ 18.91544279, 48.63841841 ], [ 18.91547196, 48.63887337 ], [ 18.91553454, 48.63903543 ], [ 18.91586089, 48.63959242 ], [ 18.9167691, 48.64076462 ], [ 18.91659423, 48.64133151 ], [ 18.91644644, 48.64167022 ], [ 18.9166541, 48.64223555 ], [ 18.91768328, 48.64368347 ], [ 18.91849327, 48.64418508 ], [ 18.91915648, 48.64457866 ], [ 18.91982213, 48.64477671 ], [ 18.92010499, 48.64512056 ], [ 18.92027494, 48.64531573 ], [ 18.92037042, 48.64563228 ], [ 18.920492, 48.64574631 ], [ 18.92072587, 48.64580341 ], [ 18.92097269, 48.64582418 ], [ 18.92128786, 48.64580399 ], [ 18.92144109, 48.64582069 ], [ 18.92177086, 48.64585745 ], [ 18.92218135, 48.64607135 ], [ 18.92221968, 48.64609397 ], [ 18.9224664, 48.64623805 ], [ 18.92275165, 48.6463482 ], [ 18.92298018, 48.64643939 ], [ 18.92412832, 48.6468974 ], [ 18.92408975, 48.64693511 ], [ 18.92446355, 48.64710076 ], [ 18.92484336, 48.64776428 ], [ 18.9246849, 48.64838948 ], [ 18.9246695, 48.64845021 ], [ 18.92457185, 48.64883552 ], [ 18.92456733, 48.64885324 ], [ 18.92454624, 48.64892423 ], [ 18.924544, 48.6489353 ], [ 18.92451659, 48.64906632 ], [ 18.92474624, 48.64907457 ], [ 18.92529894, 48.64909441 ], [ 18.92550459, 48.64910189 ], [ 18.92572651, 48.64910983 ], [ 18.92690323, 48.64921269 ], [ 18.92697385, 48.64921884 ], [ 18.92762578, 48.64944419 ], [ 18.92846575, 48.64976152 ], [ 18.92860927, 48.64978691 ], [ 18.92924578, 48.64989943 ], [ 18.92943932, 48.64993369 ], [ 18.92954964, 48.64996009 ], [ 18.92983798, 48.65002898 ], [ 18.92995678, 48.65005734 ], [ 18.93082698, 48.64991598 ], [ 18.93105474, 48.64985638 ], [ 18.93118743, 48.64982168 ], [ 18.93153426, 48.64973101 ], [ 18.9317967, 48.64966236 ], [ 18.93181554, 48.64966305 ], [ 18.93194025, 48.64966763 ], [ 18.93304385, 48.64970779 ], [ 18.9338322, 48.64951974 ], [ 18.93427005, 48.64956848 ], [ 18.93463748, 48.64960938 ], [ 18.9346614, 48.64961204 ], [ 18.93539879, 48.64969307 ], [ 18.93545214, 48.64974459 ], [ 18.93579139, 48.65007297 ], [ 18.93592032, 48.65035216 ], [ 18.93593945, 48.65039355 ], [ 18.9359689, 48.65045747 ], [ 18.93662582, 48.65098286 ], [ 18.93672701, 48.65119983 ], [ 18.93672133, 48.6516436 ], [ 18.93712314, 48.65205798 ], [ 18.9376625, 48.65281331 ], [ 18.93823779, 48.65310134 ], [ 18.93839876, 48.65327392 ], [ 18.93813804, 48.65349484 ], [ 18.93805685, 48.65355374 ], [ 18.93812066, 48.65359615 ], [ 18.9381845, 48.65370613 ], [ 18.93818505, 48.65382883 ], [ 18.93825517, 48.65390241 ], [ 18.93827454, 48.6540821 ], [ 18.93821032, 48.65417993 ], [ 18.93829823, 48.65425983 ], [ 18.93835694, 48.6544068 ], [ 18.93835038, 48.65454384 ], [ 18.93827737, 48.65474054 ], [ 18.93833801, 48.65479496 ], [ 18.93848461, 48.65493199 ], [ 18.93850529, 48.65499294 ], [ 18.9384548, 48.65505937 ], [ 18.93854362, 48.65519804 ], [ 18.93859418, 48.65561149 ], [ 18.93893397, 48.65590642 ], [ 18.93897528, 48.65594217 ], [ 18.93899173, 48.65595646 ], [ 18.93900174, 48.65596518 ], [ 18.93936781, 48.65618648 ], [ 18.9394299, 48.65627535 ], [ 18.9394858, 48.65635533 ], [ 18.93958769, 48.65650107 ], [ 18.9396212, 48.65654888 ], [ 18.9396395, 48.6568068 ], [ 18.93964601, 48.65689824 ], [ 18.93965413, 48.65701204 ], [ 18.93965383, 48.65701815 ], [ 18.93964934, 48.65710461 ], [ 18.9396431, 48.65722372 ], [ 18.93964053, 48.65727383 ], [ 18.93963876, 48.65730657 ], [ 18.93963695, 48.65734193 ], [ 18.93963502, 48.65737728 ], [ 18.93963321, 48.65741264 ], [ 18.93963141, 48.657448 ], [ 18.93962761, 48.65751924 ], [ 18.93962314, 48.65760552 ], [ 18.93961859, 48.65769368 ], [ 18.93961059, 48.65784779 ], [ 18.93960284, 48.65799497 ], [ 18.93960308, 48.65800111 ], [ 18.93961296, 48.65822848 ], [ 18.93961848, 48.65835414 ], [ 18.93962237, 48.65844346 ], [ 18.93963041, 48.65862932 ], [ 18.93963149, 48.65865283 ], [ 18.9395944, 48.65874096 ], [ 18.93954794, 48.65885116 ], [ 18.93950125, 48.65896206 ], [ 18.93946135, 48.65905681 ], [ 18.93944044, 48.65910662 ], [ 18.93943507, 48.65914684 ], [ 18.93942321, 48.65923472 ], [ 18.9394111, 48.65932467 ], [ 18.93939889, 48.65941542 ], [ 18.93938642, 48.6595085 ], [ 18.9393845, 48.65952266 ], [ 18.93943088, 48.6596026 ], [ 18.93947996, 48.65968737 ], [ 18.93953052, 48.65977475 ], [ 18.93955536, 48.65981751 ], [ 18.9395668, 48.65983731 ], [ 18.9395659, 48.65984971 ], [ 18.93956372, 48.65988252 ], [ 18.93956023, 48.65993232 ], [ 18.93955558, 48.65999919 ], [ 18.93955101, 48.66006643 ], [ 18.93954842, 48.66010391 ], [ 18.93950339, 48.66028012 ], [ 18.9394523, 48.66048028 ], [ 18.93944113, 48.66051074 ], [ 18.93939768, 48.66063011 ], [ 18.9393537, 48.66075054 ], [ 18.9393411, 48.66078507 ], [ 18.9393401, 48.66078782 ], [ 18.93933203, 48.6608197 ], [ 18.93922718, 48.66123125 ], [ 18.93922094, 48.66124744 ], [ 18.93915897, 48.66140772 ], [ 18.93912507, 48.66149538 ], [ 18.93911377, 48.66152339 ], [ 18.93910492, 48.66154558 ], [ 18.93908444, 48.66157295 ], [ 18.93895867, 48.66174088 ], [ 18.93878374, 48.66203746 ], [ 18.9383574, 48.66223034 ], [ 18.93825625, 48.66234821 ], [ 18.93821228, 48.66239954 ], [ 18.93816943, 48.66244949 ], [ 18.9381272, 48.66249875 ], [ 18.93811649, 48.66251119 ], [ 18.93810217, 48.66254645 ], [ 18.9380496, 48.66267509 ], [ 18.93801852, 48.66275135 ], [ 18.9380002, 48.66279642 ], [ 18.93793275, 48.66296156 ], [ 18.93776998, 48.66336059 ], [ 18.93985825, 48.66394332 ], [ 18.93993474, 48.66396463 ], [ 18.94010531, 48.66403766 ], [ 18.94019753, 48.6640771 ], [ 18.94040222, 48.66417632 ], [ 18.94104253, 48.66446025 ], [ 18.94152436, 48.66467393 ], [ 18.94155919, 48.66468942 ], [ 18.94162947, 48.66471736 ], [ 18.94164457, 48.66472328 ], [ 18.94170721, 48.66474786 ], [ 18.94338006, 48.66470855 ] ] ] ] } },
{ "type": "Feature", "properties": { "@featureType": "CadastralZoning", "beginLifespanVersion": { "@nilReason": "http://inspire.ec.europa.eu/codelist/VoidReasonValue/Unpopulated", "@nil": "true" }, "endLifespanVersion": { "@nilReason": "http://inspire.ec.europa.eu/codelist/VoidReasonValue/Unpopulated", "@nil": "true" }, "estimatedAccuracy": { "value": -1, "@uom": "m" }, "inspireId": { "@dataType": "Identifier", "localId": "846724", "namespace": "SK.ESKN.CP", "versionId": "20260703T04:07:40" }, "label": "Pitelová", "level": { "@href": "http://inspire.ec.europa.eu/codelist/CadastralZoningLevelValue/3rdOrder" }, "levelName": { "value": "Katastrálne územie", "@locale": "sk" }, "name": { "@dataType": "name", "GeographicalName": { "@dataType": "GeographicalName", "language": "SLK", "nativeness": { "@href": "http://inspire.ec.europa.eu/codelist/NativenessValue/endonym", "@title": "endonym" }, "nameStatus": { "@href": "http://inspire.ec.europa.eu/codelist/NameStatusValue/official", "@title": "official" }, "sourceOfName": { "@nilReason": "http://inspire.ec.europa.eu/codelist/VoidReasonValue/Unpopulated", "@nil": "true" }, "pronunciation": { "@dataType": "pronunciation", "@nilReason": "http://inspire.ec.europa.eu/codelist/VoidReasonValue/Unpopulated", "@nil": "true" }, "spelling": { "@dataType": "SpellingOfName", "text": "Pitelová", "script": "LATN" } } }, "nationalCadastalZoningReference": "846724", "validFrom": "2026-06-30T16:00:00Z", "validTo": { "@nilReason": "http://inspire.ec.europa.eu/codelist/VoidReasonValue/Unpopulated", "@nil": "true" } }, "geometry": { "type": "MultiPolygon", "coordinates": [ [ [ [ 18.91005892, 48.62114165 ], [ 18.91117365, 48.62095097 ], [ 18.91168878, 48.62054004 ], [ 18.91200833, 48.62052426 ], [ 18.9124157, 48.62058705 ], [ 18.9137211, 48.62066106 ], [ 18.91429309, 48.62057733 ], [ 18.91463559, 48.62053385 ], [ 18.9149062, 48.62047811 ], [ 18.91525941, 48.62036979 ], [ 18.91711203, 48.6194549 ], [ 18.91917441, 48.61961643 ], [ 18.91999545, 48.61879648 ], [ 18.92044369, 48.61882489 ], [ 18.92079395, 48.61888391 ], [ 18.92107718, 48.61897972 ], [ 18.92124423, 48.61913261 ], [ 18.92139582, 48.61939937 ], [ 18.9213776, 48.61951931 ], [ 18.9212667, 48.61978523 ], [ 18.92177844, 48.62029787 ], [ 18.92283236, 48.61975784 ], [ 18.92365503, 48.61931059 ], [ 18.92439845, 48.61886603 ], [ 18.92482963, 48.61868383 ], [ 18.92497877, 48.61867659 ], [ 18.92542688, 48.61837718 ], [ 18.92581562, 48.61813191 ], [ 18.92610625, 48.61799752 ], [ 18.92640252, 48.61789057 ], [ 18.92683786, 48.61775774 ], [ 18.92732689, 48.61762414 ], [ 18.92740716, 48.617602 ], [ 18.92753591, 48.61756774 ], [ 18.927629, 48.61754301 ], [ 18.92764467, 48.61753696 ], [ 18.9276984, 48.61751599 ], [ 18.92825278, 48.61730031 ], [ 18.92839672, 48.61724428 ], [ 18.92885076, 48.61706765 ], [ 18.92921255, 48.61686654 ], [ 18.92924663, 48.61684258 ], [ 18.92933893, 48.6167977 ], [ 18.93007108, 48.61657056 ], [ 18.93143262, 48.61617945 ], [ 18.93186429, 48.61604281 ], [ 18.93189353, 48.61603123 ], [ 18.9319037, 48.61602805 ], [ 18.93229047, 48.61590543 ], [ 18.93230581, 48.61586246 ], [ 18.93388314, 48.61594513 ], [ 18.93500496, 48.61631548 ], [ 18.9356625, 48.61632343 ], [ 18.93623287, 48.61637888 ], [ 18.93683824, 48.61635574 ], [ 18.9370127, 48.61638225 ], [ 18.93727863, 48.61668993 ], [ 18.93754214, 48.61678008 ], [ 18.93779784, 48.61681572 ], [ 18.9380484, 48.61682538 ], [ 18.93836998, 48.61673449 ], [ 18.93878216, 48.61692065 ], [ 18.93884908, 48.61694184 ], [ 18.93912775, 48.61703034 ], [ 18.93935297, 48.61727413 ], [ 18.93978302, 48.6174179 ], [ 18.94020507, 48.61747963 ], [ 18.94034262, 48.61764678 ], [ 18.94049743, 48.61771242 ], [ 18.94126343, 48.61773536 ], [ 18.94140618, 48.61785902 ], [ 18.94187963, 48.61800997 ], [ 18.94201169, 48.61811324 ], [ 18.94222126, 48.61814199 ], [ 18.94250593, 48.61798832 ], [ 18.94252736, 48.61789876 ], [ 18.94280307, 48.61783844 ], [ 18.94325586, 48.61758556 ], [ 18.9435003, 48.61739158 ], [ 18.94407718, 48.61737958 ], [ 18.9449453, 48.61717002 ], [ 18.94527342, 48.61715026 ], [ 18.94620925, 48.6174069 ], [ 18.94629861, 48.61741408 ], [ 18.94673493, 48.61744909 ], [ 18.94713107, 48.61740132 ], [ 18.94746769, 48.61743727 ], [ 18.9476659, 48.6174584 ], [ 18.94794124, 48.61746913 ], [ 18.948553, 48.61749289 ], [ 18.94901767, 48.61746295 ], [ 18.94946342, 48.61740859 ], [ 18.94960767, 48.61740468 ], [ 18.95072525, 48.61737452 ], [ 18.95075378, 48.61737372 ], [ 18.95088933, 48.61738731 ], [ 18.95099066, 48.61741801 ], [ 18.95117181, 48.61738225 ], [ 18.95138526, 48.61740217 ], [ 18.95146634, 48.61738583 ], [ 18.95158305, 48.61739296 ], [ 18.95170329, 48.61735923 ], [ 18.95200953, 48.61735448 ], [ 18.95203501, 48.61735415 ], [ 18.95224085, 48.61735176 ], [ 18.9522615, 48.61717043 ], [ 18.95190732, 48.61625926 ], [ 18.95183232, 48.61606619 ], [ 18.95157487, 48.6155793 ], [ 18.95162433, 48.61543804 ], [ 18.95164037, 48.61539241 ], [ 18.95164508, 48.61537885 ], [ 18.95165631, 48.61534064 ], [ 18.95165733, 48.61533771 ], [ 18.95168719, 48.61525399 ], [ 18.95179102, 48.6149619 ], [ 18.95192119, 48.61459763 ], [ 18.95215242, 48.61395114 ], [ 18.95218528, 48.6138591 ], [ 18.95217151, 48.61379489 ], [ 18.95210894, 48.61350305 ], [ 18.95209952, 48.61345882 ], [ 18.95207946, 48.61344878 ], [ 18.95152717, 48.61317217 ], [ 18.951514, 48.61314146 ], [ 18.95144973, 48.61308108 ], [ 18.95134547, 48.61286604 ], [ 18.95120945, 48.61274517 ], [ 18.95108466, 48.61260737 ], [ 18.95106437, 48.61258063 ], [ 18.95103779, 48.61242286 ], [ 18.951086, 48.61229823 ], [ 18.95116069, 48.61210486 ], [ 18.95121167, 48.61202781 ], [ 18.95128837, 48.61196119 ], [ 18.95136645, 48.61192837 ], [ 18.95146223, 48.61188843 ], [ 18.9515518, 48.61185981 ], [ 18.95168003, 48.61178518 ], [ 18.95175898, 48.61164759 ], [ 18.95177246, 48.6116241 ], [ 18.95144114, 48.611155 ], [ 18.95135931, 48.61107361 ], [ 18.95083781, 48.61055548 ], [ 18.95034662, 48.61028369 ], [ 18.95021856, 48.61003234 ], [ 18.94997261, 48.60954983 ], [ 18.94995834, 48.60952745 ], [ 18.94992273, 48.60945347 ], [ 18.94924428, 48.6088979 ], [ 18.94869048, 48.60861263 ], [ 18.94849977, 48.60851431 ], [ 18.94849488, 48.60851189 ], [ 18.94837219, 48.60844862 ], [ 18.94834254, 48.60843339 ], [ 18.94827824, 48.60840025 ], [ 18.94806755, 48.6080266 ], [ 18.9479014, 48.60773208 ], [ 18.94789111, 48.60770359 ], [ 18.94773691, 48.60727465 ], [ 18.94771584, 48.60721593 ], [ 18.94759207, 48.60687162 ], [ 18.94717342, 48.60635871 ], [ 18.94698708, 48.60613036 ], [ 18.946116, 48.60585673 ], [ 18.94604602, 48.60560681 ], [ 18.94597785, 48.60536357 ], [ 18.94590687, 48.60511053 ], [ 18.94588149, 48.60501993 ], [ 18.94583919, 48.60486894 ], [ 18.94571635, 48.604285 ], [ 18.94556857, 48.60400233 ], [ 18.94555107, 48.60399025 ], [ 18.94553332, 48.60397798 ], [ 18.94545443, 48.60394282 ], [ 18.94545497, 48.60393004 ], [ 18.94545677, 48.60388296 ], [ 18.94527763, 48.60374725 ], [ 18.94541496, 48.60320331 ], [ 18.9456718, 48.60300969 ], [ 18.94569878, 48.60288515 ], [ 18.94579493, 48.60244157 ], [ 18.9456562, 48.60232344 ], [ 18.94564196, 48.60231135 ], [ 18.94521426, 48.60167782 ], [ 18.94569549, 48.60135432 ], [ 18.94572287, 48.60126381 ], [ 18.94543142, 48.60081197 ], [ 18.94544897, 48.60059187 ], [ 18.94545433, 48.60052467 ], [ 18.94544548, 48.6004931 ], [ 18.94544317, 48.60048486 ], [ 18.94528571, 48.59995093 ], [ 18.94522358, 48.59974002 ], [ 18.94528171, 48.59940707 ], [ 18.94531513, 48.59921547 ], [ 18.94525405, 48.59896042 ], [ 18.94512575, 48.59874206 ], [ 18.94493045, 48.59840969 ], [ 18.94487982, 48.59790909 ], [ 18.94497587, 48.5977777 ], [ 18.94512547, 48.59757283 ], [ 18.94540831, 48.59718562 ], [ 18.94547381, 48.59709588 ], [ 18.94563984, 48.59570189 ], [ 18.94564727, 48.59563913 ], [ 18.94556413, 48.5950601 ], [ 18.94551796, 48.59473996 ], [ 18.94549684, 48.59459401 ], [ 18.94547163, 48.59457928 ], [ 18.94543889, 48.59456029 ], [ 18.9454245, 48.59455189 ], [ 18.94560456, 48.59421345 ], [ 18.9457199, 48.59399664 ], [ 18.94568495, 48.59391358 ], [ 18.94558959, 48.5936868 ], [ 18.94559246, 48.59352513 ], [ 18.9461924, 48.59294927 ], [ 18.94621412, 48.59245904 ], [ 18.94589479, 48.59217852 ], [ 18.94595863, 48.59205504 ], [ 18.94593322, 48.5918231 ], [ 18.94645702, 48.59118616 ], [ 18.94658482, 48.59110429 ], [ 18.94674039, 48.59100463 ], [ 18.94676405, 48.59098943 ], [ 18.94677684, 48.59097529 ], [ 18.94688564, 48.59092835 ], [ 18.94706916, 48.59083391 ], [ 18.94709953, 48.59082292 ], [ 18.94716872, 48.59081139 ], [ 18.94721267, 48.59080408 ], [ 18.94750602, 48.59072282 ], [ 18.94774331, 48.59056113 ], [ 18.94785844, 48.5903554 ], [ 18.94804787, 48.59016546 ], [ 18.948192, 48.5900847 ], [ 18.94831702, 48.58995181 ], [ 18.94844346, 48.58960414 ], [ 18.94851041, 48.58948299 ], [ 18.94861545, 48.58933131 ], [ 18.94870829, 48.58920156 ], [ 18.94884094, 48.58899709 ], [ 18.94894931, 48.58883782 ], [ 18.94909497, 48.58868985 ], [ 18.94922395, 48.58860019 ], [ 18.94940876, 48.58849327 ], [ 18.94943939, 48.58847075 ], [ 18.94946516, 48.58843851 ], [ 18.94952252, 48.58839995 ], [ 18.94955552, 48.58837223 ], [ 18.9495711, 48.58835986 ], [ 18.94966586, 48.5882873 ], [ 18.9496605, 48.58826313 ], [ 18.94967178, 48.58825153 ], [ 18.94974413, 48.58817639 ], [ 18.94978134, 48.58811821 ], [ 18.94979164, 48.58810791 ], [ 18.94980762, 48.58804171 ], [ 18.94981515, 48.58803425 ], [ 18.94981807, 48.58802547 ], [ 18.94983217, 48.5879837 ], [ 18.94983438, 48.58798102 ], [ 18.94986632, 48.58794603 ], [ 18.94986854, 48.58794325 ], [ 18.94988569, 48.58791734 ], [ 18.95001328, 48.58772478 ], [ 18.95002931, 48.58751398 ], [ 18.95000151, 48.58750517 ], [ 18.94976468, 48.58743002 ], [ 18.94973334, 48.58742012 ], [ 18.94907107, 48.58715644 ], [ 18.94851793, 48.58699982 ], [ 18.9479439, 48.58690842 ], [ 18.94718377, 48.58651228 ], [ 18.94616635, 48.58599256 ], [ 18.94580005, 48.58576213 ], [ 18.9457095, 48.58566261 ], [ 18.94566562, 48.58561436 ], [ 18.94490024, 48.58477332 ], [ 18.94495435, 48.58474054 ], [ 18.94541366, 48.58445806 ], [ 18.94541923, 48.58445456 ], [ 18.94547758, 48.58442155 ], [ 18.94559819, 48.58435357 ], [ 18.94561288, 48.5843453 ], [ 18.94565245, 48.58432297 ], [ 18.94576201, 48.58426119 ], [ 18.94579659, 48.58423265 ], [ 18.94571524, 48.58407388 ], [ 18.94568842, 48.58402155 ], [ 18.9456833, 48.58401172 ], [ 18.94566402, 48.58397402 ], [ 18.94564461, 48.58393632 ], [ 18.94560671, 48.58386231 ], [ 18.94559728, 48.58384397 ], [ 18.94557889, 48.58380803 ], [ 18.94556215, 48.58377542 ], [ 18.94553799, 48.58372827 ], [ 18.94551881, 48.58369085 ], [ 18.94537837, 48.58341694 ], [ 18.94523438, 48.58313617 ], [ 18.9452481, 48.58304378 ], [ 18.94525702, 48.58298335 ], [ 18.94529534, 48.5827248 ], [ 18.94531221, 48.5826112 ], [ 18.94533269, 48.58247351 ], [ 18.94534918, 48.58236196 ], [ 18.9453591, 48.58229527 ], [ 18.94537536, 48.58218569 ], [ 18.94539117, 48.58207889 ], [ 18.94540475, 48.58198766 ], [ 18.94541668, 48.58190718 ], [ 18.94542795, 48.58183126 ], [ 18.94543922, 48.58175526 ], [ 18.94545051, 48.58167916 ], [ 18.94545118, 48.58167451 ], [ 18.9454336, 48.5816 ], [ 18.94541435, 48.58151874 ], [ 18.94539578, 48.58143985 ], [ 18.94530135, 48.5810402 ], [ 18.94531108, 48.58098216 ], [ 18.94478398, 48.58087005 ], [ 18.94474498, 48.58086174 ], [ 18.94470906, 48.58085729 ], [ 18.94405556, 48.58077543 ], [ 18.94375943, 48.58073827 ], [ 18.94356821, 48.58071433 ], [ 18.94340044, 48.58069339 ], [ 18.94325063, 48.58067463 ], [ 18.94312079, 48.58065834 ], [ 18.94300824, 48.58064419 ], [ 18.94289849, 48.58063046 ], [ 18.94279062, 48.580617 ], [ 18.94268369, 48.58060359 ], [ 18.94258373, 48.58059108 ], [ 18.94257556, 48.58059003 ], [ 18.94247662, 48.58061663 ], [ 18.94239299, 48.58063906 ], [ 18.94231511, 48.58065997 ], [ 18.94224101, 48.58067999 ], [ 18.94217085, 48.58069877 ], [ 18.94210868, 48.58071552 ], [ 18.94129111, 48.58093519 ], [ 18.94119847, 48.58209841 ], [ 18.94118937, 48.58221295 ], [ 18.94118855, 48.58222355 ], [ 18.94118717, 48.58224125 ], [ 18.94118449, 48.58227485 ], [ 18.94118322, 48.58229165 ], [ 18.9411819, 48.58230647 ], [ 18.94117492, 48.5823946 ], [ 18.94117309, 48.5824185 ], [ 18.94117024, 48.58245363 ], [ 18.94116138, 48.58249593 ], [ 18.94115995, 48.58250587 ], [ 18.94115767, 48.58252316 ], [ 18.94115713, 48.58252665 ], [ 18.94115265, 48.5825441 ], [ 18.94108515, 48.58280783 ], [ 18.94100553, 48.58306598 ], [ 18.94086175, 48.5835321 ], [ 18.9408434, 48.58357536 ], [ 18.94077336, 48.58368318 ], [ 18.94041783, 48.58362475 ], [ 18.93983604, 48.58352913 ], [ 18.93956017, 48.58360413 ], [ 18.93919697, 48.58370289 ], [ 18.93891701, 48.58377904 ], [ 18.93864002, 48.58385434 ], [ 18.938331, 48.58393838 ], [ 18.93800977, 48.58402575 ], [ 18.93777925, 48.58408837 ], [ 18.93677315, 48.58436195 ], [ 18.9343382, 48.58464766 ], [ 18.93269857, 48.58484004 ], [ 18.93255935, 48.58485636 ], [ 18.93224138, 48.58488751 ], [ 18.93122364, 48.58498744 ], [ 18.93095146, 48.58501417 ], [ 18.93068713, 48.58504004 ], [ 18.93056376, 48.58505221 ], [ 18.9305104, 48.58505741 ], [ 18.930424, 48.58507075 ], [ 18.93021517, 48.58509405 ], [ 18.93001707, 48.58511628 ], [ 18.92969198, 48.58515256 ], [ 18.92951717, 48.5851721 ], [ 18.92932334, 48.58519383 ], [ 18.92827984, 48.58531045 ], [ 18.92820615, 48.58531867 ], [ 18.92791713, 48.58535102 ], [ 18.92699816, 48.58545372 ], [ 18.92640278, 48.58552024 ], [ 18.926324, 48.58553 ], [ 18.92620028, 48.58553818 ], [ 18.925986, 48.58559069 ], [ 18.92467049, 48.58591315 ], [ 18.92466154, 48.58591531 ], [ 18.92459609, 48.58595074 ], [ 18.92458857, 48.58595459 ], [ 18.92417464, 48.58616382 ], [ 18.92349869, 48.58652477 ], [ 18.92302037, 48.58678013 ], [ 18.92117354, 48.58721493 ], [ 18.92116081, 48.58721797 ], [ 18.92112338, 48.58722417 ], [ 18.92105334, 48.58723591 ], [ 18.92104544, 48.58723721 ], [ 18.92103249, 48.5872398 ], [ 18.91953526, 48.58753312 ], [ 18.9176263, 48.58829581 ], [ 18.91720129, 48.58846558 ], [ 18.91537471, 48.59024439 ], [ 18.91521375, 48.59042348 ], [ 18.91447319, 48.59120034 ], [ 18.91395645, 48.59131459 ], [ 18.909546, 48.58910247 ], [ 18.90733485, 48.58793889 ], [ 18.90720099, 48.58786849 ], [ 18.90711047, 48.58816242 ], [ 18.9070248, 48.58844044 ], [ 18.90692823, 48.58849185 ], [ 18.90689836, 48.58850773 ], [ 18.90688632, 48.58851414 ], [ 18.90685019, 48.58852311 ], [ 18.90679519, 48.58851207 ], [ 18.90675771, 48.58856751 ], [ 18.90667786, 48.5886887 ], [ 18.90668393, 48.5887112 ], [ 18.9065227, 48.58903414 ], [ 18.90637891, 48.58930214 ], [ 18.90636015, 48.58933699 ], [ 18.90638517, 48.58953231 ], [ 18.90638532, 48.5895334 ], [ 18.90640232, 48.58966706 ], [ 18.90648265, 48.59029407 ], [ 18.90644929, 48.59065146 ], [ 18.90662165, 48.59092527 ], [ 18.90680491, 48.59120468 ], [ 18.90692008, 48.59143495 ], [ 18.90721887, 48.59254056 ], [ 18.90711513, 48.59289506 ], [ 18.90654257, 48.59314559 ], [ 18.90620666, 48.5933319 ], [ 18.90594625, 48.5935248 ], [ 18.90581478, 48.59363972 ], [ 18.90570425, 48.59380218 ], [ 18.90557483, 48.59405883 ], [ 18.90549995, 48.59430837 ], [ 18.90543453, 48.59490947 ], [ 18.90532694, 48.5955444 ], [ 18.90547126, 48.59612536 ], [ 18.90560831, 48.59699876 ], [ 18.90562342, 48.59723001 ], [ 18.90558773, 48.59758278 ], [ 18.90466403, 48.59903464 ], [ 18.90363774, 48.59931368 ], [ 18.90285981, 48.59954028 ], [ 18.90222854, 48.60008005 ], [ 18.90125836, 48.60045803 ], [ 18.90104937, 48.60050527 ], [ 18.90067707, 48.60046273 ], [ 18.90036032, 48.60047311 ], [ 18.89987184, 48.60054348 ], [ 18.89904753, 48.6005444 ], [ 18.89866443, 48.60056391 ], [ 18.89843468, 48.60059789 ], [ 18.8977762, 48.6008086 ], [ 18.89758676, 48.60091413 ], [ 18.89775296, 48.60106738 ], [ 18.89777038, 48.60108353 ], [ 18.89816519, 48.60106283 ], [ 18.89857934, 48.60107325 ], [ 18.89913761, 48.60120368 ], [ 18.8999439, 48.60142517 ], [ 18.9002868, 48.60156444 ], [ 18.90090853, 48.60177561 ], [ 18.90153122, 48.60201344 ], [ 18.90184668, 48.60215823 ], [ 18.90204546, 48.60228312 ], [ 18.90216834, 48.60239408 ], [ 18.90272685, 48.60325707 ], [ 18.90298581, 48.60351171 ], [ 18.90355778, 48.60390892 ], [ 18.903834, 48.60404627 ], [ 18.903869, 48.60410049 ], [ 18.90413175, 48.60441575 ], [ 18.90449049, 48.60457331 ], [ 18.90525099, 48.60468236 ], [ 18.90570923, 48.60467076 ], [ 18.90616662, 48.60470242 ], [ 18.90671021, 48.60502861 ], [ 18.90682704, 48.60509966 ], [ 18.90703819, 48.60550616 ], [ 18.90723722, 48.60575013 ], [ 18.90756505, 48.60596274 ], [ 18.90863216, 48.60638359 ], [ 18.90992649, 48.60709134 ], [ 18.91009244, 48.60724952 ], [ 18.91013969, 48.60729453 ], [ 18.91072925, 48.60785624 ], [ 18.91097121, 48.60821606 ], [ 18.91113015, 48.60833889 ], [ 18.91139279, 48.60860325 ], [ 18.91160075, 48.60885253 ], [ 18.91160928, 48.60939168 ], [ 18.91166854, 48.60996816 ], [ 18.91172365, 48.61027409 ], [ 18.91207254, 48.61116233 ], [ 18.91222529, 48.61144765 ], [ 18.91247841, 48.61174129 ], [ 18.91273537, 48.61199633 ], [ 18.91306844, 48.61221235 ], [ 18.91317302, 48.61239191 ], [ 18.91340897, 48.61264047 ], [ 18.91358683, 48.61275875 ], [ 18.91352699, 48.6127877 ], [ 18.91303952, 48.6130523 ], [ 18.91276118, 48.61322112 ], [ 18.91221414, 48.61360894 ], [ 18.91177224, 48.61388977 ], [ 18.91112454, 48.61424355 ], [ 18.9107415, 48.61430821 ], [ 18.90894051, 48.61418657 ], [ 18.90845205, 48.61418716 ], [ 18.90800005, 48.61431681 ], [ 18.90777889, 48.61442812 ], [ 18.90740977, 48.61464466 ], [ 18.90691386, 48.61489383 ], [ 18.90648744, 48.61519312 ], [ 18.90632665, 48.61533368 ], [ 18.90586943, 48.61580774 ], [ 18.90572709, 48.61599986 ], [ 18.90574415, 48.61683533 ], [ 18.90635757, 48.61763201 ], [ 18.90681532, 48.61817442 ], [ 18.90813211, 48.61912643 ], [ 18.90843806, 48.61932447 ], [ 18.90893078, 48.61978343 ], [ 18.90927946, 48.62005718 ], [ 18.90934483, 48.62012991 ], [ 18.9094319, 48.62028818 ], [ 18.90939162, 48.6207163 ], [ 18.90934319, 48.62086978 ], [ 18.90905815, 48.6210745 ], [ 18.90972796, 48.62120149 ], [ 18.91005892, 48.62114165 ] ] ] ] } }
]
}
