{
"type": "FeatureCollection",
"name": "gis",
"crs": { "type": "name", "properties": { "name": "urn:ogc:def:crs:OGC:1.3:CRS84" } },
"features": [
{ "type": "Feature", "properties": { "@featureType": "CadastralParcel", "areaValue": { "value": 25018, "@uom": "m2" }, "beginLifespanVersion": { "@nilReason": "http://inspire.ec.europa.eu/codelist/VoidReasonValue/Unpopulated", "@nil": "true" }, "endLifespanVersion": { "@nilReason": "http://inspire.ec.europa.eu/codelist/VoidReasonValue/Unpopulated", "@nil": "true" }, "inspireId": { "@dataType": "Identifier", "localId": "809713_10580/1.C", "namespace": "SK.ESKN.CP", "versionId": "20260703T06:07:46" }, "label": "10580/1", "nationalCadastralReference": "809713_10580/1.C", "referencePoint": { "type": "Point", "coordinates": [ 19.64250495, 48.73324078 ] }, "validFrom": "2026-06-30T16:00:00Z", "validTo": { "@nilReason": "http://inspire.ec.europa.eu/codelist/VoidReasonValue/Unpopulated", "@nil": "true" }, "administrativeUnit": { "@href": "#auAdmUnitS.969" } }, "geometry": { "type": "Polygon", "coordinates": [ [ [ 19.63880018, 48.73116493 ], [ 19.63846543, 48.7310291 ], [ 19.63802092, 48.73083551 ], [ 19.63813703, 48.73135417 ], [ 19.63826886, 48.73152343 ], [ 19.6389886, 48.73177698 ], [ 19.63926424, 48.73198299 ], [ 19.63922393, 48.7321831 ], [ 19.63956326, 48.73213642 ], [ 19.640286, 48.73226399 ], [ 19.64077819, 48.73248441 ], [ 19.64137128, 48.73279454 ], [ 19.64187286, 48.73311742 ], [ 19.64179173, 48.7332799 ], [ 19.6425399, 48.73354498 ], [ 19.64427177, 48.73437631 ], [ 19.64545928, 48.73511072 ], [ 19.64662397, 48.73562945 ], [ 19.64636407, 48.73535323 ], [ 19.6462208, 48.73517698 ], [ 19.64626552, 48.73516078 ], [ 19.64545006, 48.734709 ], [ 19.64507538, 48.73449306 ], [ 19.64501224, 48.73454665 ], [ 19.64505074, 48.73459246 ], [ 19.64500212, 48.73462273 ], [ 19.64489206, 48.73462094 ], [ 19.6447138, 48.7345228 ], [ 19.64443094, 48.73436832 ], [ 19.64407025, 48.7341503 ], [ 19.643732, 48.73393266 ], [ 19.64351954, 48.73388499 ], [ 19.64339869, 48.73384495 ], [ 19.64318005, 48.7337751 ], [ 19.64291786, 48.73361054 ], [ 19.64317348, 48.73345273 ], [ 19.6427742, 48.73322433 ], [ 19.64250745, 48.73306569 ], [ 19.64213687, 48.73285786 ], [ 19.64177879, 48.73266375 ], [ 19.64123001, 48.7323786 ], [ 19.64035049, 48.73194238 ], [ 19.63945166, 48.73150195 ], [ 19.63893355, 48.73130055 ], [ 19.63880018, 48.73116493 ] ], [ [ 19.64218828, 48.73325724 ], [ 19.64209894, 48.73321293 ], [ 19.64219153, 48.73313128 ], [ 19.64228087, 48.73317558 ], [ 19.64218828, 48.73325724 ] ] ] } }
]
}
