{
"type": "FeatureCollection",
"name": "gis",
"crs": { "type": "name", "properties": { "name": "urn:ogc:def:crs:OGC:1.3:CRS84" } },
"features": [
{ "type": "Feature", "properties": { "@featureType": "CadastralParcel", "areaValue": { "value": 22976, "@uom": "m2" }, "beginLifespanVersion": { "@nilReason": "http://inspire.ec.europa.eu/codelist/VoidReasonValue/Unpopulated", "@nil": "true" }, "endLifespanVersion": { "@nilReason": "http://inspire.ec.europa.eu/codelist/VoidReasonValue/Unpopulated", "@nil": "true" }, "inspireId": { "@dataType": "Identifier", "localId": "811432_350/1.E", "namespace": "SK.ESKN.CP", "versionId": "20260703T05:07:59" }, "label": "350/1", "nationalCadastralReference": "811432_350/1.E", "referencePoint": { "type": "Point", "coordinates": [ 18.26934231, 49.14227917 ] }, "validFrom": "2026-06-30T16:00:00Z", "validTo": { "@nilReason": "http://inspire.ec.europa.eu/codelist/VoidReasonValue/Unpopulated", "@nil": "true" }, "administrativeUnit": { "@href": "#auAdmUnitS.2798" } }, "geometry": { "type": "Polygon", "coordinates": [ [ [ 18.27046407, 49.14300089 ], [ 18.27070393, 49.14308537 ], [ 18.27074067, 49.14310107 ], [ 18.2709268, 49.14315886 ], [ 18.27104469, 49.14319566 ], [ 18.27124537, 49.14303639 ], [ 18.27141687, 49.14290355 ], [ 18.27153259, 49.14280574 ], [ 18.27052348, 49.1423145 ], [ 18.27024244, 49.14215062 ], [ 18.27002764, 49.14203137 ], [ 18.26933298, 49.14164143 ], [ 18.26907306, 49.14151484 ], [ 18.26882859, 49.14141521 ], [ 18.26876784, 49.14140213 ], [ 18.26875605, 49.14150887 ], [ 18.26869557, 49.14167956 ], [ 18.26861573, 49.14185621 ], [ 18.26853089, 49.14200179 ], [ 18.26830683, 49.14224385 ], [ 18.26806634, 49.14234364 ], [ 18.26790348, 49.14237281 ], [ 18.26757083, 49.14246307 ], [ 18.26757169, 49.14248487 ], [ 18.26756559, 49.14252189 ], [ 18.2677276, 49.14257165 ], [ 18.26781091, 49.1425018 ], [ 18.26863496, 49.14269182 ], [ 18.26885767, 49.14274337 ], [ 18.26932655, 49.14283969 ], [ 18.26941323, 49.14285749 ], [ 18.26990587, 49.14292473 ], [ 18.27046407, 49.14300089 ] ] ] } }
]
}
