{
"type": "FeatureCollection",
"name": "gis",
"crs": { "type": "name", "properties": { "name": "urn:ogc:def:crs:OGC:1.3:CRS84" } },
"features": [
{ "type": "Feature", "properties": { "@featureType": "CadastralParcel", "areaValue": { "value": 647, "@uom": "m2" }, "beginLifespanVersion": { "@nilReason": "http://inspire.ec.europa.eu/codelist/VoidReasonValue/Unpopulated", "@nil": "true" }, "endLifespanVersion": { "@nilReason": "http://inspire.ec.europa.eu/codelist/VoidReasonValue/Unpopulated", "@nil": "true" }, "inspireId": { "@dataType": "Identifier", "localId": "806404_10292.E", "namespace": "SK.ESKN.CP", "versionId": "20260703T07:07:58" }, "label": "10292", "nationalCadastralReference": "806404_10292.E", "referencePoint": { "type": "Point", "coordinates": [ 19.33171196, 49.41603313 ] }, "validFrom": "2026-06-30T16:00:00Z", "validTo": { "@nilReason": "http://inspire.ec.europa.eu/codelist/VoidReasonValue/Unpopulated", "@nil": "true" }, "administrativeUnit": { "@href": "#auAdmUnitS.1976" } }, "geometry": { "type": "Polygon", "coordinates": [ [ [ 19.33126217, 49.41589266 ], [ 19.33131103, 49.41601215 ], [ 19.33164359, 49.41606761 ], [ 19.33208016, 49.41614094 ], [ 19.33208561, 49.41606889 ], [ 19.33209526, 49.41605411 ], [ 19.33171687, 49.41598072 ], [ 19.33151354, 49.41593999 ], [ 19.33126217, 49.41589266 ] ] ] } },
{ "type": "Feature", "properties": { "@featureType": "CadastralParcel", "areaValue": { "value": 1973, "@uom": "m2" }, "beginLifespanVersion": { "@nilReason": "http://inspire.ec.europa.eu/codelist/VoidReasonValue/Unpopulated", "@nil": "true" }, "endLifespanVersion": { "@nilReason": "http://inspire.ec.europa.eu/codelist/VoidReasonValue/Unpopulated", "@nil": "true" }, "inspireId": { "@dataType": "Identifier", "localId": "806404_10293.E", "namespace": "SK.ESKN.CP", "versionId": "20260703T07:07:58" }, "label": "10293", "nationalCadastralReference": "806404_10293.E", "referencePoint": { "type": "Point", "coordinates": [ 19.33282986, 49.41624676 ] }, "validFrom": "2026-06-30T16:00:00Z", "validTo": { "@nilReason": "http://inspire.ec.europa.eu/codelist/VoidReasonValue/Unpopulated", "@nil": "true" }, "administrativeUnit": { "@href": "#auAdmUnitS.1976" } }, "geometry": { "type": "Polygon", "coordinates": [ [ [ 19.33409951, 49.41654548 ], [ 19.33419834, 49.41655525 ], [ 19.33419255, 49.41644229 ], [ 19.33339344, 49.41631843 ], [ 19.3327987, 49.41618458 ], [ 19.3322164, 49.41605069 ], [ 19.33217348, 49.41613919 ], [ 19.33282244, 49.41630893 ], [ 19.33336962, 49.41645433 ], [ 19.33409951, 49.41654548 ] ] ] } }
]
}
