{
"type": "FeatureCollection",
"name": "gis",
"crs": { "type": "name", "properties": { "name": "urn:ogc:def:crs:OGC:1.3:CRS84" } },
"features": [
{ "type": "Feature", "properties": { "@featureType": "CadastralParcel", "areaValue": { "value": 8244, "@uom": "m2" }, "beginLifespanVersion": { "@nilReason": "http://inspire.ec.europa.eu/codelist/VoidReasonValue/Unpopulated", "@nil": "true" }, "endLifespanVersion": { "@nilReason": "http://inspire.ec.europa.eu/codelist/VoidReasonValue/Unpopulated", "@nil": "true" }, "inspireId": { "@dataType": "Identifier", "localId": "826693_816/12.C", "namespace": "SK.ESKN.CP", "versionId": "20260703T07:07:42" }, "label": "816/12", "nationalCadastralReference": "826693_816/12.C", "referencePoint": { "type": "Point", "coordinates": [ 17.70166939, 48.73732595 ] }, "validFrom": "2026-06-30T16:00:00Z", "validTo": { "@nilReason": "http://inspire.ec.europa.eu/codelist/VoidReasonValue/Unpopulated", "@nil": "true" }, "administrativeUnit": { "@href": "#auAdmUnitS.318" } }, "geometry": { "type": "Polygon", "coordinates": [ [ [ 17.70082428, 48.73733559 ], [ 17.70091535, 48.73733762 ], [ 17.70100443, 48.73734313 ], [ 17.70108554, 48.73735086 ], [ 17.70133853, 48.73737057 ], [ 17.70148774, 48.73738053 ], [ 17.70164902, 48.73739114 ], [ 17.70185115, 48.73740545 ], [ 17.70203173, 48.73740705 ], [ 17.70211163, 48.73740892 ], [ 17.70204414, 48.73744485 ], [ 17.70199337, 48.7374726 ], [ 17.70187775, 48.73758919 ], [ 17.7018428, 48.73764511 ], [ 17.70183159, 48.73766745 ], [ 17.7016826, 48.7380451 ], [ 17.70163071, 48.73815128 ], [ 17.7016231, 48.73816842 ], [ 17.70165413, 48.73818073 ], [ 17.70169938, 48.7381997 ], [ 17.70173508, 48.7381394 ], [ 17.70174933, 48.73811589 ], [ 17.70176748, 48.73804746 ], [ 17.7018324, 48.73788483 ], [ 17.70184904, 48.7378434 ], [ 17.70191031, 48.73775488 ], [ 17.70199663, 48.73761958 ], [ 17.70207758, 48.73755025 ], [ 17.70214004, 48.73749865 ], [ 17.70235497, 48.7374022 ], [ 17.70257083, 48.73733968 ], [ 17.70259781, 48.73733232 ], [ 17.70261911, 48.73732659 ], [ 17.70268666, 48.73730954 ], [ 17.70297678, 48.73723463 ], [ 17.70316552, 48.73719491 ], [ 17.7032145, 48.73718168 ], [ 17.70326799, 48.73716945 ], [ 17.70330377, 48.73715875 ], [ 17.70338473, 48.73713666 ], [ 17.70345516, 48.73711663 ], [ 17.70354131, 48.73709937 ], [ 17.70376237, 48.73704259 ], [ 17.70393235, 48.73700126 ], [ 17.70397076, 48.73699614 ], [ 17.70407365, 48.73697929 ], [ 17.70420495, 48.73694694 ], [ 17.70428201, 48.73692732 ], [ 17.70446687, 48.73688121 ], [ 17.70462881, 48.73684073 ], [ 17.70468841, 48.73682581 ], [ 17.70471969, 48.73681799 ], [ 17.70494754, 48.73675567 ], [ 17.70500577, 48.73674075 ], [ 17.70507239, 48.73672446 ], [ 17.70515737, 48.73670388 ], [ 17.70520713, 48.73669187 ], [ 17.70537662, 48.73664824 ], [ 17.70565863, 48.73658041 ], [ 17.70582076, 48.73654248 ], [ 17.70592035, 48.73655767 ], [ 17.70602121, 48.73659958 ], [ 17.70607973, 48.73663192 ], [ 17.70615444, 48.73675072 ], [ 17.70620807, 48.73683596 ], [ 17.70641602, 48.737158 ], [ 17.70643305, 48.73718724 ], [ 17.70643689, 48.73719389 ], [ 17.70646037, 48.73728187 ], [ 17.7064452, 48.73728491 ], [ 17.70645788, 48.73731496 ], [ 17.70648395, 48.73736823 ], [ 17.70656986, 48.73748411 ], [ 17.70671432, 48.73760694 ], [ 17.70711521, 48.7378093 ], [ 17.70719856, 48.7378495 ], [ 17.70770405, 48.73810503 ], [ 17.70778445, 48.73813719 ], [ 17.70785527, 48.73803028 ], [ 17.70733709, 48.73776792 ], [ 17.7072578, 48.73772409 ], [ 17.7071651, 48.73768042 ], [ 17.70713724, 48.73766687 ], [ 17.70692147, 48.73756157 ], [ 17.70676536, 48.73744191 ], [ 17.7066035, 48.73727401 ], [ 17.70655962, 48.73724926 ], [ 17.70651514, 48.73718228 ], [ 17.70650358, 48.73715294 ], [ 17.70649278, 48.73713755 ], [ 17.70639154, 48.73698333 ], [ 17.70635985, 48.73693793 ], [ 17.70615284, 48.7366219 ], [ 17.70614747, 48.7365951 ], [ 17.7061207, 48.73657105 ], [ 17.70611076, 48.73656212 ], [ 17.70607499, 48.73651954 ], [ 17.70592755, 48.7364555 ], [ 17.70582513, 48.7364526 ], [ 17.70573459, 48.73645649 ], [ 17.70560544, 48.73648526 ], [ 17.70485522, 48.73667164 ], [ 17.70479578, 48.73668639 ], [ 17.70473648, 48.73670115 ], [ 17.70466897, 48.73671793 ], [ 17.70464181, 48.73672457 ], [ 17.70400804, 48.73688219 ], [ 17.70391052, 48.73691518 ], [ 17.70387824, 48.7369242 ], [ 17.70326159, 48.73707846 ], [ 17.70295255, 48.73715581 ], [ 17.7028032, 48.73719318 ], [ 17.70273765, 48.73720864 ], [ 17.70265136, 48.73722886 ], [ 17.70254753, 48.73725333 ], [ 17.70238267, 48.73729218 ], [ 17.70212059, 48.7373233 ], [ 17.70199552, 48.73732414 ], [ 17.70180718, 48.73732532 ], [ 17.70164118, 48.73731333 ], [ 17.70149707, 48.73730297 ], [ 17.70135837, 48.73729304 ], [ 17.70032085, 48.73721836 ], [ 17.69959612, 48.73717117 ], [ 17.69937761, 48.73715584 ], [ 17.69909892, 48.73713633 ], [ 17.69907813, 48.73720903 ], [ 17.69946781, 48.73723639 ], [ 17.69958268, 48.73724684 ], [ 17.69971497, 48.73725774 ], [ 17.69997249, 48.73727431 ], [ 17.70009245, 48.73728164 ], [ 17.70020629, 48.73728968 ], [ 17.70048726, 48.73730751 ], [ 17.70070859, 48.73732518 ], [ 17.70082428, 48.73733559 ] ] ] } },
{ "type": "Feature", "properties": { "@featureType": "CadastralParcel", "areaValue": { "value": 259, "@uom": "m2" }, "beginLifespanVersion": { "@nilReason": "http://inspire.ec.europa.eu/codelist/VoidReasonValue/Unpopulated", "@nil": "true" }, "endLifespanVersion": { "@nilReason": "http://inspire.ec.europa.eu/codelist/VoidReasonValue/Unpopulated", "@nil": "true" }, "inspireId": { "@dataType": "Identifier", "localId": "826693_13562/6.C", "namespace": "SK.ESKN.CP", "versionId": "20260703T07:07:42" }, "label": "13562/6", "nationalCadastralReference": "826693_13562/6.C", "referencePoint": { "type": "Point", "coordinates": [ 17.70139337, 48.73746184 ] }, "validFrom": "2026-06-30T16:00:00Z", "validTo": { "@nilReason": "http://inspire.ec.europa.eu/codelist/VoidReasonValue/Unpopulated", "@nil": "true" }, "administrativeUnit": { "@href": "#auAdmUnitS.318" } }, "geometry": { "type": "Polygon", "coordinates": [ [ [ 17.70146605, 48.73755903 ], [ 17.70148774, 48.73738053 ], [ 17.70133853, 48.73737057 ], [ 17.70128244, 48.73754315 ], [ 17.70146605, 48.73755903 ] ] ] } },
{ "type": "Feature", "properties": { "@featureType": "CadastralParcel", "areaValue": { "value": 885, "@uom": "m2" }, "beginLifespanVersion": { "@nilReason": "http://inspire.ec.europa.eu/codelist/VoidReasonValue/Unpopulated", "@nil": "true" }, "endLifespanVersion": { "@nilReason": "http://inspire.ec.europa.eu/codelist/VoidReasonValue/Unpopulated", "@nil": "true" }, "inspireId": { "@dataType": "Identifier", "localId": "826693_13563.C", "namespace": "SK.ESKN.CP", "versionId": "20260703T07:07:42" }, "label": "13563", "nationalCadastralReference": "826693_13563.C", "referencePoint": { "type": "Point", "coordinates": [ 17.70135425, 48.7377451 ] }, "validFrom": "2026-06-30T16:00:00Z", "validTo": { "@nilReason": "http://inspire.ec.europa.eu/codelist/VoidReasonValue/Unpopulated", "@nil": "true" }, "administrativeUnit": { "@href": "#auAdmUnitS.318" } }, "geometry": { "type": "Polygon", "coordinates": [ [ [ 17.70145106, 48.73799537 ], [ 17.70151462, 48.73756321 ], [ 17.70146605, 48.73755903 ], [ 17.70128244, 48.73754315 ], [ 17.70116494, 48.737927 ], [ 17.70145106, 48.73799537 ] ] ] } }
]
}
