{
"type": "FeatureCollection",
"name": "gis",
"crs": { "type": "name", "properties": { "name": "urn:ogc:def:crs:OGC:1.3:CRS84" } },
"features": [
{ "type": "Feature", "properties": { "@featureType": "CadastralParcel", "areaValue": { "value": 23, "@uom": "m2" }, "beginLifespanVersion": { "@nilReason": "http://inspire.ec.europa.eu/codelist/VoidReasonValue/Unpopulated", "@nil": "true" }, "endLifespanVersion": { "@nilReason": "http://inspire.ec.europa.eu/codelist/VoidReasonValue/Unpopulated", "@nil": "true" }, "inspireId": { "@dataType": "Identifier", "localId": "838578_953/192.C", "namespace": "SK.ESKN.CP", "versionId": "20260703T05:07:04" }, "label": "953/192", "nationalCadastralReference": "838578_953/192.C", "referencePoint": { "type": "Point", "coordinates": [ 18.89597369, 48.91297516 ] }, "validFrom": "2026-06-30T16:00:00Z", "validTo": { "@nilReason": "http://inspire.ec.europa.eu/codelist/VoidReasonValue/Unpopulated", "@nil": "true" }, "administrativeUnit": { "@href": "#auAdmUnitS.2827" } }, "geometry": { "type": "Polygon", "coordinates": [ [ [ 18.89597148, 48.91294519 ], [ 18.89592807, 48.91297445 ], [ 18.8959768, 48.91300563 ], [ 18.89601927, 48.91297741 ], [ 18.89602046, 48.91297666 ], [ 18.89601932, 48.91297588 ], [ 18.89597148, 48.91294519 ] ] ] } },
{ "type": "Feature", "properties": { "@featureType": "CadastralParcel", "areaValue": { "value": 39, "@uom": "m2" }, "beginLifespanVersion": { "@nilReason": "http://inspire.ec.europa.eu/codelist/VoidReasonValue/Unpopulated", "@nil": "true" }, "endLifespanVersion": { "@nilReason": "http://inspire.ec.europa.eu/codelist/VoidReasonValue/Unpopulated", "@nil": "true" }, "inspireId": { "@dataType": "Identifier", "localId": "838578_394/2.C", "namespace": "SK.ESKN.CP", "versionId": "20260703T05:07:04" }, "label": "394/2", "nationalCadastralReference": "838578_394/2.C", "referencePoint": { "type": "Point", "coordinates": [ 18.88275536, 48.91304474 ] }, "validFrom": "2026-06-30T16:00:00Z", "validTo": { "@nilReason": "http://inspire.ec.europa.eu/codelist/VoidReasonValue/Unpopulated", "@nil": "true" }, "administrativeUnit": { "@href": "#auAdmUnitS.2827" } }, "geometry": { "type": "Polygon", "coordinates": [ [ [ 18.88273604, 48.91301194 ], [ 18.8827339, 48.91301499 ], [ 18.88269464, 48.91307278 ], [ 18.88268916, 48.91308089 ], [ 18.88269089, 48.91308134 ], [ 18.88273943, 48.91309565 ], [ 18.8827532, 48.91307525 ], [ 18.88276746, 48.91305415 ], [ 18.8827869, 48.91305984 ], [ 18.88280335, 48.91303533 ], [ 18.88280535, 48.91303228 ], [ 18.88273604, 48.91301194 ] ] ] } },
{ "type": "Feature", "properties": { "@featureType": "CadastralParcel", "areaValue": { "value": 478, "@uom": "m2" }, "beginLifespanVersion": { "@nilReason": "http://inspire.ec.europa.eu/codelist/VoidReasonValue/Unpopulated", "@nil": "true" }, "endLifespanVersion": { "@nilReason": "http://inspire.ec.europa.eu/codelist/VoidReasonValue/Unpopulated", "@nil": "true" }, "inspireId": { "@dataType": "Identifier", "localId": "838578_953/250.C", "namespace": "SK.ESKN.CP", "versionId": "20260703T05:07:04" }, "label": "953/250", "nationalCadastralReference": "838578_953/250.C", "referencePoint": { "type": "Point", "coordinates": [ 18.8964649, 48.91205805 ] }, "validFrom": "2026-06-30T16:00:00Z", "validTo": { "@nilReason": "http://inspire.ec.europa.eu/codelist/VoidReasonValue/Unpopulated", "@nil": "true" }, "administrativeUnit": { "@href": "#auAdmUnitS.2827" } }, "geometry": { "type": "Polygon", "coordinates": [ [ [ 18.89574375, 48.91110349 ], [ 18.89552528, 48.91128615 ], [ 18.8955155, 48.91129602 ], [ 18.89550848, 48.91130675 ], [ 18.8955044, 48.91131818 ], [ 18.89550342, 48.91132995 ], [ 18.89550547, 48.9113416 ], [ 18.89550717, 48.91134809 ], [ 18.89551657, 48.91136354 ], [ 18.8955311, 48.91137728 ], [ 18.89781236, 48.91306519 ], [ 18.89783364, 48.91307738 ], [ 18.89785896, 48.91308553 ], [ 18.89786942, 48.91308733 ], [ 18.89788902, 48.91308941 ], [ 18.89790891, 48.91308899 ], [ 18.89792828, 48.9130861 ], [ 18.89794643, 48.91308072 ], [ 18.89796265, 48.91307316 ], [ 18.89816655, 48.91295714 ], [ 18.89817021, 48.91295507 ], [ 18.89815691, 48.91294483 ], [ 18.8979492, 48.913063 ], [ 18.89793618, 48.91306901 ], [ 18.89792171, 48.91307332 ], [ 18.89790625, 48.91307559 ], [ 18.89789033, 48.91307595 ], [ 18.89787466, 48.91307424 ], [ 18.89786552, 48.91307278 ], [ 18.89784496, 48.91306614 ], [ 18.89782765, 48.91305623 ], [ 18.89764614, 48.91292192 ], [ 18.89731926, 48.91268003 ], [ 18.89702597, 48.91246304 ], [ 18.89675119, 48.91225981 ], [ 18.89657083, 48.91212628 ], [ 18.89638643, 48.91198982 ], [ 18.89619674, 48.91184949 ], [ 18.89600089, 48.91170461 ], [ 18.895744, 48.91151447 ], [ 18.89554639, 48.91136823 ], [ 18.89553456, 48.91135716 ], [ 18.89552701, 48.9113446 ], [ 18.8955255, 48.91133884 ], [ 18.89552386, 48.91132955 ], [ 18.8955247, 48.91132012 ], [ 18.89552796, 48.911311 ], [ 18.89553364, 48.91130236 ], [ 18.89554141, 48.91129446 ], [ 18.89575743, 48.91111394 ], [ 18.89575605, 48.91111287 ], [ 18.89574375, 48.91110349 ] ] ] } },
{ "type": "Feature", "properties": { "@featureType": "CadastralParcel", "areaValue": { "value": 185, "@uom": "m2" }, "beginLifespanVersion": { "@nilReason": "http://inspire.ec.europa.eu/codelist/VoidReasonValue/Unpopulated", "@nil": "true" }, "endLifespanVersion": { "@nilReason": "http://inspire.ec.europa.eu/codelist/VoidReasonValue/Unpopulated", "@nil": "true" }, "inspireId": { "@dataType": "Identifier", "localId": "838578_953/248.C", "namespace": "SK.ESKN.CP", "versionId": "20260703T05:07:04" }, "label": "953/248", "nationalCadastralReference": "838578_953/248.C", "referencePoint": { "type": "Point", "coordinates": [ 18.89650311, 48.91217696 ] }, "validFrom": "2026-06-30T16:00:00Z", "validTo": { "@nilReason": "http://inspire.ec.europa.eu/codelist/VoidReasonValue/Unpopulated", "@nil": "true" }, "administrativeUnit": { "@href": "#auAdmUnitS.2827" } }, "geometry": { "type": "Polygon", "coordinates": [ [ [ 18.89507612, 48.911117 ], [ 18.89507021, 48.91112067 ], [ 18.89533238, 48.91131469 ], [ 18.89536105, 48.91133618 ], [ 18.89564377, 48.91154515 ], [ 18.89586202, 48.91170669 ], [ 18.89604351, 48.91184101 ], [ 18.8962254, 48.91197553 ], [ 18.89640703, 48.91210995 ], [ 18.89658815, 48.91224398 ], [ 18.89695192, 48.9125131 ], [ 18.89723488, 48.91272243 ], [ 18.89759865, 48.91299165 ], [ 18.89786928, 48.91319186 ], [ 18.89787545, 48.9131883 ], [ 18.89507612, 48.911117 ] ] ] } }
]
}
