{
"type": "FeatureCollection",
"name": "gis",
"crs": { "type": "name", "properties": { "name": "urn:ogc:def:crs:OGC:1.3:CRS84" } },
"features": [
{ "type": "Feature", "properties": { "@featureType": "CadastralParcel", "areaValue": { "value": 772, "@uom": "m2" }, "beginLifespanVersion": { "@nilReason": "http://inspire.ec.europa.eu/codelist/VoidReasonValue/Unpopulated", "@nil": "true" }, "endLifespanVersion": { "@nilReason": "http://inspire.ec.europa.eu/codelist/VoidReasonValue/Unpopulated", "@nil": "true" }, "inspireId": { "@dataType": "Identifier", "localId": "839353_24/3.C", "namespace": "SK.ESKN.CP", "versionId": "20260703T07:07:14" }, "label": "24/3", "nationalCadastralReference": "839353_24/3.C", "referencePoint": { "type": "Point", "coordinates": [ 19.52385521, 49.39337125 ] }, "validFrom": "2026-06-30T16:00:00Z", "validTo": { "@nilReason": "http://inspire.ec.europa.eu/codelist/VoidReasonValue/Unpopulated", "@nil": "true" }, "administrativeUnit": { "@href": "#auAdmUnitS.162" } }, "geometry": { "type": "Polygon", "coordinates": [ [ [ 19.52398248, 49.39331477 ], [ 19.52398424, 49.39330214 ], [ 19.52360963, 49.39315393 ], [ 19.52359994, 49.39316449 ], [ 19.52335845, 49.39342773 ], [ 19.52331363, 49.39347654 ], [ 19.52354886, 49.39357589 ], [ 19.52359603, 49.39359587 ], [ 19.5236748, 49.39362909 ], [ 19.52398248, 49.39331477 ] ], [ [ 19.52361063, 49.39355083 ], [ 19.5235789, 49.3935375 ], [ 19.52350769, 49.39350858 ], [ 19.52349604, 49.39352067 ], [ 19.5234197, 49.39348936 ], [ 19.52343081, 49.39347707 ], [ 19.52369834, 49.39319752 ], [ 19.52384656, 49.39325805 ], [ 19.52387926, 49.39327134 ], [ 19.52361063, 49.39355083 ] ] ] } },
{ "type": "Feature", "properties": { "@featureType": "CadastralParcel", "areaValue": { "value": 208, "@uom": "m2" }, "beginLifespanVersion": { "@nilReason": "http://inspire.ec.europa.eu/codelist/VoidReasonValue/Unpopulated", "@nil": "true" }, "endLifespanVersion": { "@nilReason": "http://inspire.ec.europa.eu/codelist/VoidReasonValue/Unpopulated", "@nil": "true" }, "inspireId": { "@dataType": "Identifier", "localId": "839353_24/279.C", "namespace": "SK.ESKN.CP", "versionId": "20260703T07:07:14" }, "label": "24/279", "nationalCadastralReference": "839353_24/279.C", "referencePoint": { "type": "Point", "coordinates": [ 19.52414865, 49.39249572 ] }, "validFrom": "2026-06-30T16:00:00Z", "validTo": { "@nilReason": "http://inspire.ec.europa.eu/codelist/VoidReasonValue/Unpopulated", "@nil": "true" }, "administrativeUnit": { "@href": "#auAdmUnitS.162" } }, "geometry": { "type": "Polygon", "coordinates": [ [ [ 19.5240616, 49.39266579 ], [ 19.52415853, 49.39253345 ], [ 19.52421378, 49.39245799 ], [ 19.52426254, 49.39233843 ], [ 19.52427262, 49.39231374 ], [ 19.52421318, 49.39228968 ], [ 19.52418213, 49.39236345 ], [ 19.52414682, 49.39244747 ], [ 19.52404956, 49.39257899 ], [ 19.52400311, 49.39264187 ], [ 19.5240616, 49.39266579 ] ] ] } },
{ "type": "Feature", "properties": { "@featureType": "CadastralParcel", "areaValue": { "value": 277, "@uom": "m2" }, "beginLifespanVersion": { "@nilReason": "http://inspire.ec.europa.eu/codelist/VoidReasonValue/Unpopulated", "@nil": "true" }, "endLifespanVersion": { "@nilReason": "http://inspire.ec.europa.eu/codelist/VoidReasonValue/Unpopulated", "@nil": "true" }, "inspireId": { "@dataType": "Identifier", "localId": "839353_24/278.C", "namespace": "SK.ESKN.CP", "versionId": "20260703T07:07:14" }, "label": "24/278", "nationalCadastralReference": "839353_24/278.C", "referencePoint": { "type": "Point", "coordinates": [ 19.52400868, 49.39274637 ] }, "validFrom": "2026-06-30T16:00:00Z", "validTo": { "@nilReason": "http://inspire.ec.europa.eu/codelist/VoidReasonValue/Unpopulated", "@nil": "true" }, "administrativeUnit": { "@href": "#auAdmUnitS.162" } }, "geometry": { "type": "Polygon", "coordinates": [ [ [ 19.52396536, 49.39269298 ], [ 19.52398428, 49.39281371 ], [ 19.52409607, 49.39287917 ], [ 19.52425288, 49.39291737 ], [ 19.5244095, 49.39289247 ], [ 19.52450716, 49.39284804 ], [ 19.52444244, 49.39282158 ], [ 19.52437629, 49.39285157 ], [ 19.52425552, 49.39287044 ], [ 19.52412916, 49.39283812 ], [ 19.52405119, 49.39279223 ], [ 19.52403609, 49.39270051 ], [ 19.5240616, 49.39266579 ], [ 19.52400311, 49.39264187 ], [ 19.52396536, 49.39269298 ] ] ] } },
{ "type": "Feature", "properties": { "@featureType": "CadastralParcel", "areaValue": { "value": 228, "@uom": "m2" }, "beginLifespanVersion": { "@nilReason": "http://inspire.ec.europa.eu/codelist/VoidReasonValue/Unpopulated", "@nil": "true" }, "endLifespanVersion": { "@nilReason": "http://inspire.ec.europa.eu/codelist/VoidReasonValue/Unpopulated", "@nil": "true" }, "inspireId": { "@dataType": "Identifier", "localId": "839353_24/277.C", "namespace": "SK.ESKN.CP", "versionId": "20260703T07:07:14" }, "label": "24/277", "nationalCadastralReference": "839353_24/277.C", "referencePoint": { "type": "Point", "coordinates": [ 19.52474641, 49.39271133 ] }, "validFrom": "2026-06-30T16:00:00Z", "validTo": { "@nilReason": "http://inspire.ec.europa.eu/codelist/VoidReasonValue/Unpopulated", "@nil": "true" }, "administrativeUnit": { "@href": "#auAdmUnitS.162" } }, "geometry": { "type": "Polygon", "coordinates": [ [ [ 19.52457347, 49.39281787 ], [ 19.5246334, 49.39279058 ], [ 19.52487821, 49.39267918 ], [ 19.5249234, 49.39265545 ], [ 19.52500794, 49.39261105 ], [ 19.52494558, 49.39258588 ], [ 19.52494017, 49.3925887 ], [ 19.52483768, 49.39264219 ], [ 19.52461439, 49.39274348 ], [ 19.52444244, 49.39282158 ], [ 19.52450716, 49.39284804 ], [ 19.52457347, 49.39281787 ] ] ] } },
{ "type": "Feature", "properties": { "@featureType": "CadastralParcel", "areaValue": { "value": 274, "@uom": "m2" }, "beginLifespanVersion": { "@nilReason": "http://inspire.ec.europa.eu/codelist/VoidReasonValue/Unpopulated", "@nil": "true" }, "endLifespanVersion": { "@nilReason": "http://inspire.ec.europa.eu/codelist/VoidReasonValue/Unpopulated", "@nil": "true" }, "inspireId": { "@dataType": "Identifier", "localId": "839353_24/276.C", "namespace": "SK.ESKN.CP", "versionId": "20260703T07:07:14" }, "label": "24/276", "nationalCadastralReference": "839353_24/276.C", "referencePoint": { "type": "Point", "coordinates": [ 19.52524117, 49.39246064 ] }, "validFrom": "2026-06-30T16:00:00Z", "validTo": { "@nilReason": "http://inspire.ec.europa.eu/codelist/VoidReasonValue/Unpopulated", "@nil": "true" }, "administrativeUnit": { "@href": "#auAdmUnitS.162" } }, "geometry": { "type": "Polygon", "coordinates": [ [ [ 19.52523751, 49.39243253 ], [ 19.52513141, 49.39248875 ], [ 19.52494558, 49.39258588 ], [ 19.52500794, 49.39261105 ], [ 19.52517467, 49.39252352 ], [ 19.52518796, 49.39251673 ], [ 19.52545501, 49.39238047 ], [ 19.52558398, 49.39231429 ], [ 19.52551652, 49.39228771 ], [ 19.52524395, 49.39242913 ], [ 19.52523751, 49.39243253 ] ] ] } },
{ "type": "Feature", "properties": { "@featureType": "CadastralParcel", "areaValue": { "value": 29, "@uom": "m2" }, "beginLifespanVersion": { "@nilReason": "http://inspire.ec.europa.eu/codelist/VoidReasonValue/Unpopulated", "@nil": "true" }, "endLifespanVersion": { "@nilReason": "http://inspire.ec.europa.eu/codelist/VoidReasonValue/Unpopulated", "@nil": "true" }, "inspireId": { "@dataType": "Identifier", "localId": "839353_24/275.C", "namespace": "SK.ESKN.CP", "versionId": "20260703T07:07:14" }, "label": "24/275", "nationalCadastralReference": "839353_24/275.C", "referencePoint": { "type": "Point", "coordinates": [ 19.52557302, 49.39228547 ] }, "validFrom": "2026-06-30T16:00:00Z", "validTo": { "@nilReason": "http://inspire.ec.europa.eu/codelist/VoidReasonValue/Unpopulated", "@nil": "true" }, "administrativeUnit": { "@href": "#auAdmUnitS.162" } }, "geometry": { "type": "Polygon", "coordinates": [ [ [ 19.525525, 49.39228323 ], [ 19.52551652, 49.39228771 ], [ 19.52558398, 49.39231429 ], [ 19.52563454, 49.392279 ], [ 19.52556975, 49.39225335 ], [ 19.52556262, 49.39225807 ], [ 19.525525, 49.39228323 ] ] ] } },
{ "type": "Feature", "properties": { "@featureType": "CadastralParcel", "areaValue": { "value": 37, "@uom": "m2" }, "beginLifespanVersion": { "@nilReason": "http://inspire.ec.europa.eu/codelist/VoidReasonValue/Unpopulated", "@nil": "true" }, "endLifespanVersion": { "@nilReason": "http://inspire.ec.europa.eu/codelist/VoidReasonValue/Unpopulated", "@nil": "true" }, "inspireId": { "@dataType": "Identifier", "localId": "839353_24/274.C", "namespace": "SK.ESKN.CP", "versionId": "20260703T07:07:14" }, "label": "24/274", "nationalCadastralReference": "839353_24/274.C", "referencePoint": { "type": "Point", "coordinates": [ 19.52563513, 49.39224336 ] }, "validFrom": "2026-06-30T16:00:00Z", "validTo": { "@nilReason": "http://inspire.ec.europa.eu/codelist/VoidReasonValue/Unpopulated", "@nil": "true" }, "administrativeUnit": { "@href": "#auAdmUnitS.162" } }, "geometry": { "type": "Polygon", "coordinates": [ [ [ 19.52563454, 49.392279 ], [ 19.52569988, 49.39223337 ], [ 19.52563694, 49.39220844 ], [ 19.52556975, 49.39225335 ], [ 19.52563454, 49.392279 ] ] ] } },
{ "type": "Feature", "properties": { "@featureType": "CadastralParcel", "areaValue": { "value": 45, "@uom": "m2" }, "beginLifespanVersion": { "@nilReason": "http://inspire.ec.europa.eu/codelist/VoidReasonValue/Unpopulated", "@nil": "true" }, "endLifespanVersion": { "@nilReason": "http://inspire.ec.europa.eu/codelist/VoidReasonValue/Unpopulated", "@nil": "true" }, "inspireId": { "@dataType": "Identifier", "localId": "839353_24/328.C", "namespace": "SK.ESKN.CP", "versionId": "20260703T07:07:14" }, "label": "24/328", "nationalCadastralReference": "839353_24/328.C", "referencePoint": { "type": "Point", "coordinates": [ 19.52570961, 49.39219265 ] }, "validFrom": "2026-06-30T16:00:00Z", "validTo": { "@nilReason": "http://inspire.ec.europa.eu/codelist/VoidReasonValue/Unpopulated", "@nil": "true" }, "administrativeUnit": { "@href": "#auAdmUnitS.162" } }, "geometry": { "type": "Polygon", "coordinates": [ [ [ 19.52578142, 49.39217686 ], [ 19.52578251, 49.39217574 ], [ 19.52572182, 49.39215172 ], [ 19.52563694, 49.39220844 ], [ 19.52569988, 49.39223337 ], [ 19.52570211, 49.39223185 ], [ 19.52578142, 49.39217686 ] ] ] } },
{ "type": "Feature", "properties": { "@featureType": "CadastralParcel", "areaValue": { "value": 33, "@uom": "m2" }, "beginLifespanVersion": { "@nilReason": "http://inspire.ec.europa.eu/codelist/VoidReasonValue/Unpopulated", "@nil": "true" }, "endLifespanVersion": { "@nilReason": "http://inspire.ec.europa.eu/codelist/VoidReasonValue/Unpopulated", "@nil": "true" }, "inspireId": { "@dataType": "Identifier", "localId": "839353_24/273.C", "namespace": "SK.ESKN.CP", "versionId": "20260703T07:07:14" }, "label": "24/273", "nationalCadastralReference": "839353_24/273.C", "referencePoint": { "type": "Point", "coordinates": [ 19.52586449, 49.3919906 ] }, "validFrom": "2026-06-30T16:00:00Z", "validTo": { "@nilReason": "http://inspire.ec.europa.eu/codelist/VoidReasonValue/Unpopulated", "@nil": "true" }, "administrativeUnit": { "@href": "#auAdmUnitS.162" } }, "geometry": { "type": "Polygon", "coordinates": [ [ [ 19.52596111, 49.39201933 ], [ 19.52583056, 49.39196664 ], [ 19.52584756, 49.39201455 ], [ 19.52591779, 49.39204234 ], [ 19.52596111, 49.39201933 ] ] ] } },
{ "type": "Feature", "properties": { "@featureType": "CadastralParcel", "areaValue": { "value": 93, "@uom": "m2" }, "beginLifespanVersion": { "@nilReason": "http://inspire.ec.europa.eu/codelist/VoidReasonValue/Unpopulated", "@nil": "true" }, "endLifespanVersion": { "@nilReason": "http://inspire.ec.europa.eu/codelist/VoidReasonValue/Unpopulated", "@nil": "true" }, "inspireId": { "@dataType": "Identifier", "localId": "839353_24/329.C", "namespace": "SK.ESKN.CP", "versionId": "20260703T07:07:14" }, "label": "24/329", "nationalCadastralReference": "839353_24/329.C", "referencePoint": { "type": "Point", "coordinates": [ 19.52582215, 49.39209454 ] }, "validFrom": "2026-06-30T16:00:00Z", "validTo": { "@nilReason": "http://inspire.ec.europa.eu/codelist/VoidReasonValue/Unpopulated", "@nil": "true" }, "administrativeUnit": { "@href": "#auAdmUnitS.162" } }, "geometry": { "type": "Polygon", "coordinates": [ [ [ 19.52578251, 49.39217574 ], [ 19.52591779, 49.39204234 ], [ 19.52584756, 49.39201455 ], [ 19.52584991, 49.39202106 ], [ 19.52572939, 49.39214674 ], [ 19.52572182, 49.39215172 ], [ 19.52578251, 49.39217574 ] ] ] } },
{ "type": "Feature", "properties": { "@featureType": "CadastralParcel", "areaValue": { "value": 621, "@uom": "m2" }, "beginLifespanVersion": { "@nilReason": "http://inspire.ec.europa.eu/codelist/VoidReasonValue/Unpopulated", "@nil": "true" }, "endLifespanVersion": { "@nilReason": "http://inspire.ec.europa.eu/codelist/VoidReasonValue/Unpopulated", "@nil": "true" }, "inspireId": { "@dataType": "Identifier", "localId": "839353_24/1.C", "namespace": "SK.ESKN.CP", "versionId": "20260703T07:07:14" }, "label": "24/1", "nationalCadastralReference": "839353_24/1.C", "referencePoint": { "type": "Point", "coordinates": [ 19.52393081, 49.39274813 ] }, "validFrom": "2026-06-30T16:00:00Z", "validTo": { "@nilReason": "http://inspire.ec.europa.eu/codelist/VoidReasonValue/Unpopulated", "@nil": "true" }, "administrativeUnit": { "@href": "#auAdmUnitS.162" } }, "geometry": { "type": "Polygon", "coordinates": [ [ [ 19.52361259, 49.39256009 ], [ 19.52366314, 49.39250289 ], [ 19.5234583, 49.39241907 ], [ 19.52363927, 49.39269091 ], [ 19.52382415, 49.39271191 ], [ 19.52395108, 49.39278436 ], [ 19.52406031, 49.39299075 ], [ 19.52427122, 49.39304745 ], [ 19.52439496, 49.3931239 ], [ 19.52437081, 49.39307576 ], [ 19.52428369, 49.39303531 ], [ 19.5244095, 49.39289247 ], [ 19.52425288, 49.39291737 ], [ 19.52409607, 49.39287917 ], [ 19.52398428, 49.39281371 ], [ 19.52396536, 49.39269298 ], [ 19.52377416, 49.3926899 ], [ 19.52362151, 49.39262809 ], [ 19.52361259, 49.39256009 ] ] ] } },
{ "type": "Feature", "properties": { "@featureType": "CadastralParcel", "areaValue": { "value": 378, "@uom": "m2" }, "beginLifespanVersion": { "@nilReason": "http://inspire.ec.europa.eu/codelist/VoidReasonValue/Unpopulated", "@nil": "true" }, "endLifespanVersion": { "@nilReason": "http://inspire.ec.europa.eu/codelist/VoidReasonValue/Unpopulated", "@nil": "true" }, "inspireId": { "@dataType": "Identifier", "localId": "839353_24/67.C", "namespace": "SK.ESKN.CP", "versionId": "20260703T07:07:14" }, "label": "24/67", "nationalCadastralReference": "839353_24/67.C", "referencePoint": { "type": "Point", "coordinates": [ 19.52392227, 49.39345926 ] }, "validFrom": "2026-06-30T16:00:00Z", "validTo": { "@nilReason": "http://inspire.ec.europa.eu/codelist/VoidReasonValue/Unpopulated", "@nil": "true" }, "administrativeUnit": { "@href": "#auAdmUnitS.162" } }, "geometry": { "type": "Polygon", "coordinates": [ [ [ 19.52420993, 49.3933614 ], [ 19.5240072, 49.39327452 ], [ 19.5240008, 49.39330875 ], [ 19.52398424, 49.39330214 ], [ 19.52398248, 49.39331477 ], [ 19.5236748, 49.39362909 ], [ 19.52370282, 49.39364091 ], [ 19.52379707, 49.39355712 ], [ 19.52420993, 49.3933614 ] ] ] } },
{ "type": "Feature", "properties": { "@featureType": "CadastralParcel", "areaValue": { "value": 174, "@uom": "m2" }, "beginLifespanVersion": { "@nilReason": "http://inspire.ec.europa.eu/codelist/VoidReasonValue/Unpopulated", "@nil": "true" }, "endLifespanVersion": { "@nilReason": "http://inspire.ec.europa.eu/codelist/VoidReasonValue/Unpopulated", "@nil": "true" }, "inspireId": { "@dataType": "Identifier", "localId": "839353_24/76.C", "namespace": "SK.ESKN.CP", "versionId": "20260703T07:07:14" }, "label": "24/76", "nationalCadastralReference": "839353_24/76.C", "referencePoint": { "type": "Point", "coordinates": [ 19.52408782, 49.39326515 ] }, "validFrom": "2026-06-30T16:00:00Z", "validTo": { "@nilReason": "http://inspire.ec.europa.eu/codelist/VoidReasonValue/Unpopulated", "@nil": "true" }, "administrativeUnit": { "@href": "#auAdmUnitS.162" } }, "geometry": { "type": "Polygon", "coordinates": [ [ [ 19.52420993, 49.3933614 ], [ 19.52423801, 49.39334798 ], [ 19.52415861, 49.39325578 ], [ 19.52415632, 49.39317609 ], [ 19.52410929, 49.39315476 ], [ 19.52406017, 49.39319977 ], [ 19.52401291, 49.39324422 ], [ 19.5240072, 49.39327452 ], [ 19.52420993, 49.3933614 ] ] ] } },
{ "type": "Feature", "properties": { "@featureType": "CadastralParcel", "areaValue": { "value": 90, "@uom": "m2" }, "beginLifespanVersion": { "@nilReason": "http://inspire.ec.europa.eu/codelist/VoidReasonValue/Unpopulated", "@nil": "true" }, "endLifespanVersion": { "@nilReason": "http://inspire.ec.europa.eu/codelist/VoidReasonValue/Unpopulated", "@nil": "true" }, "inspireId": { "@dataType": "Identifier", "localId": "839353_24/12.C", "namespace": "SK.ESKN.CP", "versionId": "20260703T07:07:14" }, "label": "24/12", "nationalCadastralReference": "839353_24/12.C", "referencePoint": { "type": "Point", "coordinates": [ 19.52350964, 49.39362792 ] }, "validFrom": "2026-06-30T16:00:00Z", "validTo": { "@nilReason": "http://inspire.ec.europa.eu/codelist/VoidReasonValue/Unpopulated", "@nil": "true" }, "administrativeUnit": { "@href": "#auAdmUnitS.162" } }, "geometry": { "type": "Polygon", "coordinates": [ [ [ 19.52346268, 49.39368501 ], [ 19.52359603, 49.39359587 ], [ 19.52354886, 49.39357589 ], [ 19.52342337, 49.39365997 ], [ 19.52333149, 49.39372143 ], [ 19.52338001, 49.39374039 ], [ 19.52346268, 49.39368501 ] ] ] } },
{ "type": "Feature", "properties": { "@featureType": "CadastralParcel", "areaValue": { "value": 31, "@uom": "m2" }, "beginLifespanVersion": { "@nilReason": "http://inspire.ec.europa.eu/codelist/VoidReasonValue/Unpopulated", "@nil": "true" }, "endLifespanVersion": { "@nilReason": "http://inspire.ec.europa.eu/codelist/VoidReasonValue/Unpopulated", "@nil": "true" }, "inspireId": { "@dataType": "Identifier", "localId": "839353_24/281.C", "namespace": "SK.ESKN.CP", "versionId": "20260703T07:07:14" }, "label": "24/281", "nationalCadastralReference": "839353_24/281.C", "referencePoint": { "type": "Point", "coordinates": [ 19.52432547, 49.39178828 ] }, "validFrom": "2026-06-30T16:00:00Z", "validTo": { "@nilReason": "http://inspire.ec.europa.eu/codelist/VoidReasonValue/Unpopulated", "@nil": "true" }, "administrativeUnit": { "@href": "#auAdmUnitS.162" } }, "geometry": { "type": "Polygon", "coordinates": [ [ [ 19.5243556, 49.39180365 ], [ 19.52437091, 49.39177784 ], [ 19.52430545, 49.39175189 ], [ 19.52428072, 49.39179872 ], [ 19.52428071, 49.39180016 ], [ 19.52435544, 49.39182978 ], [ 19.5243556, 49.39180365 ] ] ] } },
{ "type": "Feature", "properties": { "@featureType": "CadastralParcel", "areaValue": { "value": 277, "@uom": "m2" }, "beginLifespanVersion": { "@nilReason": "http://inspire.ec.europa.eu/codelist/VoidReasonValue/Unpopulated", "@nil": "true" }, "endLifespanVersion": { "@nilReason": "http://inspire.ec.europa.eu/codelist/VoidReasonValue/Unpopulated", "@nil": "true" }, "inspireId": { "@dataType": "Identifier", "localId": "839353_24/280.C", "namespace": "SK.ESKN.CP", "versionId": "20260703T07:07:14" }, "label": "24/280", "nationalCadastralReference": "839353_24/280.C", "referencePoint": { "type": "Point", "coordinates": [ 19.52429954, 49.39209248 ] }, "validFrom": "2026-06-30T16:00:00Z", "validTo": { "@nilReason": "http://inspire.ec.europa.eu/codelist/VoidReasonValue/Unpopulated", "@nil": "true" }, "administrativeUnit": { "@href": "#auAdmUnitS.162" } }, "geometry": { "type": "Polygon", "coordinates": [ [ [ 19.52421893, 49.39227588 ], [ 19.52421318, 49.39228968 ], [ 19.52427262, 49.39231374 ], [ 19.52428475, 49.39228409 ], [ 19.52434691, 49.39204499 ], [ 19.52435444, 49.39201577 ], [ 19.52435544, 49.39182978 ], [ 19.52428071, 49.39180016 ], [ 19.52428276, 49.39189255 ], [ 19.52428529, 49.39200894 ], [ 19.52425271, 49.39213996 ], [ 19.52421893, 49.39227588 ] ] ] } },
{ "type": "Feature", "properties": { "@featureType": "CadastralParcel", "areaValue": { "value": 1013, "@uom": "m2" }, "beginLifespanVersion": { "@nilReason": "http://inspire.ec.europa.eu/codelist/VoidReasonValue/Unpopulated", "@nil": "true" }, "endLifespanVersion": { "@nilReason": "http://inspire.ec.europa.eu/codelist/VoidReasonValue/Unpopulated", "@nil": "true" }, "inspireId": { "@dataType": "Identifier", "localId": "839353_24/289.C", "namespace": "SK.ESKN.CP", "versionId": "20260703T07:07:14" }, "label": "24/289", "nationalCadastralReference": "839353_24/289.C", "referencePoint": { "type": "Point", "coordinates": [ 19.52456378, 49.39148994 ] }, "validFrom": "2026-06-30T16:00:00Z", "validTo": { "@nilReason": "http://inspire.ec.europa.eu/codelist/VoidReasonValue/Unpopulated", "@nil": "true" }, "administrativeUnit": { "@href": "#auAdmUnitS.162" } }, "geometry": { "type": "Polygon", "coordinates": [ [ [ 19.52518875, 49.39173405 ], [ 19.52523693, 49.3917511 ], [ 19.52554677, 49.39186041 ], [ 19.52559456, 49.39187717 ], [ 19.52569824, 49.39191378 ], [ 19.52583056, 49.39196664 ], [ 19.52596111, 49.39201933 ], [ 19.52618633, 49.39209731 ], [ 19.52622569, 49.39205827 ], [ 19.52580513, 49.39189158 ], [ 19.52574472, 49.3918701 ], [ 19.52567212, 49.39184508 ], [ 19.52558595, 49.39181531 ], [ 19.52554932, 49.39180266 ], [ 19.52551761, 49.39179176 ], [ 19.52547592, 49.39177734 ], [ 19.5253619, 49.39173802 ], [ 19.52533127, 49.39172743 ], [ 19.52528172, 49.39171032 ], [ 19.52507443, 49.39163783 ], [ 19.52482014, 49.39154898 ], [ 19.52473319, 49.39152512 ], [ 19.52447721, 49.39145475 ], [ 19.52439011, 49.39142206 ], [ 19.52418656, 49.39134559 ], [ 19.52415137, 49.39133237 ], [ 19.52402827, 49.39128623 ], [ 19.52399854, 49.39127497 ], [ 19.52378874, 49.39119624 ], [ 19.52377135, 49.39117797 ], [ 19.52374925, 49.3911547 ], [ 19.52373746, 49.39114218 ], [ 19.5232612, 49.39093591 ], [ 19.52323189, 49.39097902 ], [ 19.52373315, 49.3911775 ], [ 19.52376337, 49.39118941 ], [ 19.52483811, 49.39161496 ], [ 19.5248821, 49.39162597 ], [ 19.52517039, 49.39172754 ], [ 19.52518875, 49.39173405 ] ] ] } },
{ "type": "Feature", "properties": { "@featureType": "CadastralParcel", "areaValue": { "value": 538, "@uom": "m2" }, "beginLifespanVersion": { "@nilReason": "http://inspire.ec.europa.eu/codelist/VoidReasonValue/Unpopulated", "@nil": "true" }, "endLifespanVersion": { "@nilReason": "http://inspire.ec.europa.eu/codelist/VoidReasonValue/Unpopulated", "@nil": "true" }, "inspireId": { "@dataType": "Identifier", "localId": "839353_24/92.C", "namespace": "SK.ESKN.CP", "versionId": "20260703T07:07:14" }, "label": "24/92", "nationalCadastralReference": "839353_24/92.C", "referencePoint": { "type": "Point", "coordinates": [ 19.52392495, 49.39128355 ] }, "validFrom": "2026-06-30T16:00:00Z", "validTo": { "@nilReason": "http://inspire.ec.europa.eu/codelist/VoidReasonValue/Unpopulated", "@nil": "true" }, "administrativeUnit": { "@href": "#auAdmUnitS.162" } }, "geometry": { "type": "Polygon", "coordinates": [ [ [ 19.52323189, 49.39097902 ], [ 19.52322468, 49.39098969 ], [ 19.52369583, 49.39120384 ], [ 19.52370792, 49.39121349 ], [ 19.52373246, 49.39123335 ], [ 19.52374938, 49.39124692 ], [ 19.52394816, 49.39132019 ], [ 19.52397845, 49.39133139 ], [ 19.5240037, 49.39134073 ], [ 19.52438945, 49.3914944 ], [ 19.52453682, 49.39153957 ], [ 19.52483811, 49.39161496 ], [ 19.52376337, 49.39118941 ], [ 19.52373315, 49.3911775 ], [ 19.52323189, 49.39097902 ] ] ] } },
{ "type": "Feature", "properties": { "@featureType": "CadastralParcel", "areaValue": { "value": 2989, "@uom": "m2" }, "beginLifespanVersion": { "@nilReason": "http://inspire.ec.europa.eu/codelist/VoidReasonValue/Unpopulated", "@nil": "true" }, "endLifespanVersion": { "@nilReason": "http://inspire.ec.europa.eu/codelist/VoidReasonValue/Unpopulated", "@nil": "true" }, "inspireId": { "@dataType": "Identifier", "localId": "839353_24/227.C", "namespace": "SK.ESKN.CP", "versionId": "20260703T07:07:14" }, "label": "24/227", "nationalCadastralReference": "839353_24/227.C", "referencePoint": { "type": "Point", "coordinates": [ 19.52346938, 49.39262784 ] }, "validFrom": "2026-06-30T16:00:00Z", "validTo": { "@nilReason": "http://inspire.ec.europa.eu/codelist/VoidReasonValue/Unpopulated", "@nil": "true" }, "administrativeUnit": { "@href": "#auAdmUnitS.162" } }, "geometry": { "type": "Polygon", "coordinates": [ [ [ 19.52415861, 49.39325578 ], [ 19.52423801, 49.39334798 ], [ 19.52435071, 49.39329459 ], [ 19.52439839, 49.39313064 ], [ 19.52439496, 49.3931239 ], [ 19.52427122, 49.39304745 ], [ 19.52406031, 49.39299075 ], [ 19.52395108, 49.39278436 ], [ 19.52382415, 49.39271191 ], [ 19.52363927, 49.39269091 ], [ 19.5234583, 49.39241907 ], [ 19.52344545, 49.39209076 ], [ 19.52343128, 49.39208507 ], [ 19.52336353, 49.39191318 ], [ 19.52330177, 49.39188632 ], [ 19.52329741, 49.39189225 ], [ 19.52320036, 49.3920244 ], [ 19.52319777, 49.39202798 ], [ 19.52320387, 49.39203033 ], [ 19.52314401, 49.39212703 ], [ 19.52327626, 49.39256477 ], [ 19.5234816, 49.39276335 ], [ 19.52372515, 49.39284289 ], [ 19.52379134, 49.39296838 ], [ 19.52386619, 49.39300476 ], [ 19.52393213, 49.39305336 ], [ 19.52399461, 49.39310215 ], [ 19.52410929, 49.39315476 ], [ 19.52415632, 49.39317609 ], [ 19.52415861, 49.39325578 ] ] ] } }
]
}
