{
"type": "FeatureCollection",
"name": "gis",
"crs": { "type": "name", "properties": { "name": "urn:ogc:def:crs:OGC:1.3:CRS84" } },
"features": [
{ "type": "Feature", "properties": { "@featureType": "CadastralParcel", "areaValue": { "value": 905, "@uom": "m2" }, "beginLifespanVersion": { "@nilReason": "http://inspire.ec.europa.eu/codelist/VoidReasonValue/Unpopulated", "@nil": "true" }, "endLifespanVersion": { "@nilReason": "http://inspire.ec.europa.eu/codelist/VoidReasonValue/Unpopulated", "@nil": "true" }, "inspireId": { "@dataType": "Identifier", "localId": "816507_280/6.E", "namespace": "SK.ESKN.CP", "versionId": "20260703T07:07:24" }, "label": "280/6", "nationalCadastralReference": "816507_280/6.E", "referencePoint": { "type": "Point", "coordinates": [ 22.0676579, 48.77669263 ] }, "validFrom": "2026-06-30T16:00:00Z", "validTo": { "@nilReason": "http://inspire.ec.europa.eu/codelist/VoidReasonValue/Unpopulated", "@nil": "true" }, "administrativeUnit": { "@href": "#auAdmUnitS.1876" } }, "geometry": { "type": "Polygon", "coordinates": [ [ [ 22.06773857, 48.77640924 ], [ 22.06776384, 48.77622816 ], [ 22.06778883, 48.77605741 ], [ 22.06781386, 48.77588568 ], [ 22.06777231, 48.77588109 ], [ 22.0677493, 48.77587856 ], [ 22.06773956, 48.77587743 ], [ 22.06772833, 48.77594601 ], [ 22.06771156, 48.77604873 ], [ 22.06770568, 48.77609404 ], [ 22.06770567, 48.77609413 ], [ 22.06768534, 48.77624455 ], [ 22.06767066, 48.77633131 ], [ 22.06766183, 48.77638338 ], [ 22.06765883, 48.77640095 ], [ 22.06763748, 48.77653002 ], [ 22.06763747, 48.7765302 ], [ 22.06763141, 48.7765665 ], [ 22.06762957, 48.77657762 ], [ 22.06762661, 48.77660697 ], [ 22.06762484, 48.77662691 ], [ 22.06762464, 48.77662817 ], [ 22.06761229, 48.77675709 ], [ 22.06754105, 48.77740583 ], [ 22.06756478, 48.77740262 ], [ 22.06759468, 48.77739865 ], [ 22.06764051, 48.77708551 ], [ 22.06768692, 48.77676427 ], [ 22.06771285, 48.77658609 ], [ 22.06773857, 48.77640924 ] ] ] } }
]
}
