{
"type": "FeatureCollection",
"name": "gis",
"crs": { "type": "name", "properties": { "name": "urn:ogc:def:crs:OGC:1.3:CRS84" } },
"features": [
{ "type": "Feature", "properties": { "@featureType": "CadastralParcel", "areaValue": { "value": 602, "@uom": "m2" }, "beginLifespanVersion": { "@nilReason": "http://inspire.ec.europa.eu/codelist/VoidReasonValue/Unpopulated", "@nil": "true" }, "endLifespanVersion": { "@nilReason": "http://inspire.ec.europa.eu/codelist/VoidReasonValue/Unpopulated", "@nil": "true" }, "inspireId": { "@dataType": "Identifier", "localId": "838527_1533/476.C", "namespace": "SK.ESKN.CP", "versionId": "20260703T05:07:56" }, "label": "1533/476", "nationalCadastralReference": "838527_1533/476.C", "referencePoint": { "type": "Point", "coordinates": [ 17.28528703, 48.14283636 ] }, "validFrom": "2026-06-30T16:00:00Z", "validTo": { "@nilReason": "http://inspire.ec.europa.eu/codelist/VoidReasonValue/Unpopulated", "@nil": "true" }, "administrativeUnit": { "@href": "#auAdmUnitS.1159" } }, "geometry": { "type": "Polygon", "coordinates": [ [ [ 17.28538949, 48.14269132 ], [ 17.28504799, 48.14282006 ], [ 17.28518382, 48.14298161 ], [ 17.28552617, 48.14285265 ], [ 17.28538949, 48.14269132 ] ] ] } },
{ "type": "Feature", "properties": { "@featureType": "CadastralParcel", "areaValue": { "value": 602, "@uom": "m2" }, "beginLifespanVersion": { "@nilReason": "http://inspire.ec.europa.eu/codelist/VoidReasonValue/Unpopulated", "@nil": "true" }, "endLifespanVersion": { "@nilReason": "http://inspire.ec.europa.eu/codelist/VoidReasonValue/Unpopulated", "@nil": "true" }, "inspireId": { "@dataType": "Identifier", "localId": "838527_1533/474.C", "namespace": "SK.ESKN.CP", "versionId": "20260703T05:07:56" }, "label": "1533/474", "nationalCadastralReference": "838527_1533/474.C", "referencePoint": { "type": "Point", "coordinates": [ 17.28501335, 48.14251226 ] }, "validFrom": "2026-06-30T16:00:00Z", "validTo": { "@nilReason": "http://inspire.ec.europa.eu/codelist/VoidReasonValue/Unpopulated", "@nil": "true" }, "administrativeUnit": { "@href": "#auAdmUnitS.1159" } }, "geometry": { "type": "Polygon", "coordinates": [ [ [ 17.28511474, 48.14236711 ], [ 17.28477467, 48.14249531 ], [ 17.28491134, 48.14265764 ], [ 17.28525212, 48.14252922 ], [ 17.28511474, 48.14236711 ] ] ] } },
{ "type": "Feature", "properties": { "@featureType": "CadastralParcel", "areaValue": { "value": 601, "@uom": "m2" }, "beginLifespanVersion": { "@nilReason": "http://inspire.ec.europa.eu/codelist/VoidReasonValue/Unpopulated", "@nil": "true" }, "endLifespanVersion": { "@nilReason": "http://inspire.ec.europa.eu/codelist/VoidReasonValue/Unpopulated", "@nil": "true" }, "inspireId": { "@dataType": "Identifier", "localId": "838527_1533/473.C", "namespace": "SK.ESKN.CP", "versionId": "20260703T05:07:56" }, "label": "1533/473", "nationalCadastralReference": "838527_1533/473.C", "referencePoint": { "type": "Point", "coordinates": [ 17.28487639, 48.14235001 ] }, "validFrom": "2026-06-30T16:00:00Z", "validTo": { "@nilReason": "http://inspire.ec.europa.eu/codelist/VoidReasonValue/Unpopulated", "@nil": "true" }, "administrativeUnit": { "@href": "#auAdmUnitS.1159" } }, "geometry": { "type": "Polygon", "coordinates": [ [ [ 17.28497737, 48.14220501 ], [ 17.28463816, 48.1423329 ], [ 17.28477467, 48.14249531 ], [ 17.28511474, 48.14236711 ], [ 17.28497737, 48.14220501 ] ] ] } },
{ "type": "Feature", "properties": { "@featureType": "CadastralParcel", "areaValue": { "value": 846, "@uom": "m2" }, "beginLifespanVersion": { "@nilReason": "http://inspire.ec.europa.eu/codelist/VoidReasonValue/Unpopulated", "@nil": "true" }, "endLifespanVersion": { "@nilReason": "http://inspire.ec.europa.eu/codelist/VoidReasonValue/Unpopulated", "@nil": "true" }, "inspireId": { "@dataType": "Identifier", "localId": "838527_1533/472.C", "namespace": "SK.ESKN.CP", "versionId": "20260703T05:07:56" }, "label": "1533/472", "nationalCadastralReference": "838527_1533/472.C", "referencePoint": { "type": "Point", "coordinates": [ 17.28471127, 48.14215439 ] }, "validFrom": "2026-06-30T16:00:00Z", "validTo": { "@nilReason": "http://inspire.ec.europa.eu/codelist/VoidReasonValue/Unpopulated", "@nil": "true" }, "administrativeUnit": { "@href": "#auAdmUnitS.1159" } }, "geometry": { "type": "Polygon", "coordinates": [ [ [ 17.28478368, 48.14197636 ], [ 17.28444548, 48.14210378 ], [ 17.28463816, 48.1423329 ], [ 17.28497737, 48.14220501 ], [ 17.28478368, 48.14197636 ] ] ] } },
{ "type": "Feature", "properties": { "@featureType": "CadastralParcel", "areaValue": { "value": 847, "@uom": "m2" }, "beginLifespanVersion": { "@nilReason": "http://inspire.ec.europa.eu/codelist/VoidReasonValue/Unpopulated", "@nil": "true" }, "endLifespanVersion": { "@nilReason": "http://inspire.ec.europa.eu/codelist/VoidReasonValue/Unpopulated", "@nil": "true" }, "inspireId": { "@dataType": "Identifier", "localId": "838527_1533/471.C", "namespace": "SK.ESKN.CP", "versionId": "20260703T05:07:56" }, "label": "1533/471", "nationalCadastralReference": "838527_1533/471.C", "referencePoint": { "type": "Point", "coordinates": [ 17.28450919, 48.14191492 ] }, "validFrom": "2026-06-30T16:00:00Z", "validTo": { "@nilReason": "http://inspire.ec.europa.eu/codelist/VoidReasonValue/Unpopulated", "@nil": "true" }, "administrativeUnit": { "@href": "#auAdmUnitS.1159" } }, "geometry": { "type": "Polygon", "coordinates": [ [ [ 17.28463189, 48.14179586 ], [ 17.28450442, 48.14184425 ], [ 17.28443519, 48.14176185 ], [ 17.2842823, 48.14181959 ], [ 17.28425054, 48.14184532 ], [ 17.28425588, 48.14187857 ], [ 17.28444548, 48.14210378 ], [ 17.28478368, 48.14197636 ], [ 17.28476242, 48.14195127 ], [ 17.28463189, 48.14179586 ] ] ] } },
{ "type": "Feature", "properties": { "@featureType": "CadastralParcel", "areaValue": { "value": 600, "@uom": "m2" }, "beginLifespanVersion": { "@nilReason": "http://inspire.ec.europa.eu/codelist/VoidReasonValue/Unpopulated", "@nil": "true" }, "endLifespanVersion": { "@nilReason": "http://inspire.ec.europa.eu/codelist/VoidReasonValue/Unpopulated", "@nil": "true" }, "inspireId": { "@dataType": "Identifier", "localId": "838527_1533/469.C", "namespace": "SK.ESKN.CP", "versionId": "20260703T05:07:56" }, "label": "1533/469", "nationalCadastralReference": "838527_1533/469.C", "referencePoint": { "type": "Point", "coordinates": [ 17.28425875, 48.14161699 ] }, "validFrom": "2026-06-30T16:00:00Z", "validTo": { "@nilReason": "http://inspire.ec.europa.eu/codelist/VoidReasonValue/Unpopulated", "@nil": "true" }, "administrativeUnit": { "@href": "#auAdmUnitS.1159" } }, "geometry": { "type": "Polygon", "coordinates": [ [ [ 17.28435887, 48.14147095 ], [ 17.28402038, 48.14159853 ], [ 17.28412741, 48.14172573 ], [ 17.28416587, 48.1417459 ], [ 17.28421439, 48.14174198 ], [ 17.2844971, 48.14163546 ], [ 17.28435887, 48.14147095 ] ] ] } },
{ "type": "Feature", "properties": { "@featureType": "CadastralParcel", "areaValue": { "value": 601, "@uom": "m2" }, "beginLifespanVersion": { "@nilReason": "http://inspire.ec.europa.eu/codelist/VoidReasonValue/Unpopulated", "@nil": "true" }, "endLifespanVersion": { "@nilReason": "http://inspire.ec.europa.eu/codelist/VoidReasonValue/Unpopulated", "@nil": "true" }, "inspireId": { "@dataType": "Identifier", "localId": "838527_1533/468.C", "namespace": "SK.ESKN.CP", "versionId": "20260703T05:07:56" }, "label": "1533/468", "nationalCadastralReference": "838527_1533/468.C", "referencePoint": { "type": "Point", "coordinates": [ 17.28412109, 48.14145324 ] }, "validFrom": "2026-06-30T16:00:00Z", "validTo": { "@nilReason": "http://inspire.ec.europa.eu/codelist/VoidReasonValue/Unpopulated", "@nil": "true" }, "administrativeUnit": { "@href": "#auAdmUnitS.1159" } }, "geometry": { "type": "Polygon", "coordinates": [ [ [ 17.28422192, 48.14130788 ], [ 17.28388328, 48.14143554 ], [ 17.28402038, 48.14159853 ], [ 17.28435887, 48.14147095 ], [ 17.28422192, 48.14130788 ] ] ] } },
{ "type": "Feature", "properties": { "@featureType": "CadastralParcel", "areaValue": { "value": 600, "@uom": "m2" }, "beginLifespanVersion": { "@nilReason": "http://inspire.ec.europa.eu/codelist/VoidReasonValue/Unpopulated", "@nil": "true" }, "endLifespanVersion": { "@nilReason": "http://inspire.ec.europa.eu/codelist/VoidReasonValue/Unpopulated", "@nil": "true" }, "inspireId": { "@dataType": "Identifier", "localId": "838527_1533/467.C", "namespace": "SK.ESKN.CP", "versionId": "20260703T05:07:56" }, "label": "1533/467", "nationalCadastralReference": "838527_1533/467.C", "referencePoint": { "type": "Point", "coordinates": [ 17.28398424, 48.14129036 ] }, "validFrom": "2026-06-30T16:00:00Z", "validTo": { "@nilReason": "http://inspire.ec.europa.eu/codelist/VoidReasonValue/Unpopulated", "@nil": "true" }, "administrativeUnit": { "@href": "#auAdmUnitS.1159" } }, "geometry": { "type": "Polygon", "coordinates": [ [ [ 17.28408532, 48.14114519 ], [ 17.28374655, 48.14127284 ], [ 17.28388328, 48.14143554 ], [ 17.28422192, 48.14130788 ], [ 17.28408532, 48.14114519 ] ] ] } },
{ "type": "Feature", "properties": { "@featureType": "CadastralParcel", "areaValue": { "value": 601, "@uom": "m2" }, "beginLifespanVersion": { "@nilReason": "http://inspire.ec.europa.eu/codelist/VoidReasonValue/Unpopulated", "@nil": "true" }, "endLifespanVersion": { "@nilReason": "http://inspire.ec.europa.eu/codelist/VoidReasonValue/Unpopulated", "@nil": "true" }, "inspireId": { "@dataType": "Identifier", "localId": "838527_1533/466.C", "namespace": "SK.ESKN.CP", "versionId": "20260703T05:07:56" }, "label": "1533/466", "nationalCadastralReference": "838527_1533/466.C", "referencePoint": { "type": "Point", "coordinates": [ 17.2838475, 48.14112766 ] }, "validFrom": "2026-06-30T16:00:00Z", "validTo": { "@nilReason": "http://inspire.ec.europa.eu/codelist/VoidReasonValue/Unpopulated", "@nil": "true" }, "administrativeUnit": { "@href": "#auAdmUnitS.1159" } }, "geometry": { "type": "Polygon", "coordinates": [ [ [ 17.28394858, 48.14098249 ], [ 17.28360968, 48.14111013 ], [ 17.28374655, 48.14127284 ], [ 17.28408532, 48.14114519 ], [ 17.28394858, 48.14098249 ] ] ] } },
{ "type": "Feature", "properties": { "@featureType": "CadastralParcel", "areaValue": { "value": 380, "@uom": "m2" }, "beginLifespanVersion": { "@nilReason": "http://inspire.ec.europa.eu/codelist/VoidReasonValue/Unpopulated", "@nil": "true" }, "endLifespanVersion": { "@nilReason": "http://inspire.ec.europa.eu/codelist/VoidReasonValue/Unpopulated", "@nil": "true" }, "inspireId": { "@dataType": "Identifier", "localId": "838527_1533/455.C", "namespace": "SK.ESKN.CP", "versionId": "20260703T05:07:56" }, "label": "1533/455", "nationalCadastralReference": "838527_1533/455.C", "referencePoint": { "type": "Point", "coordinates": [ 17.28246646, 48.13933688 ] }, "validFrom": "2026-06-30T16:00:00Z", "validTo": { "@nilReason": "http://inspire.ec.europa.eu/codelist/VoidReasonValue/Unpopulated", "@nil": "true" }, "administrativeUnit": { "@href": "#auAdmUnitS.1159" } }, "geometry": { "type": "Polygon", "coordinates": [ [ [ 17.2821446, 48.13936822 ], [ 17.28219709, 48.13934839 ], [ 17.28216816, 48.13931394 ], [ 17.28232859, 48.13925354 ], [ 17.28238164, 48.13931661 ], [ 17.28235462, 48.13932675 ], [ 17.28239653, 48.13937652 ], [ 17.28226299, 48.13942677 ], [ 17.2822105, 48.13944661 ], [ 17.2822354, 48.13947628 ], [ 17.28257832, 48.13934701 ], [ 17.28243953, 48.13918273 ], [ 17.28215282, 48.13929078 ], [ 17.28212268, 48.13931652 ], [ 17.28212841, 48.13934899 ], [ 17.2821446, 48.13936822 ] ] ] } },
{ "type": "Feature", "properties": { "@featureType": "CadastralParcel", "areaValue": { "value": 412, "@uom": "m2" }, "beginLifespanVersion": { "@nilReason": "http://inspire.ec.europa.eu/codelist/VoidReasonValue/Unpopulated", "@nil": "true" }, "endLifespanVersion": { "@nilReason": "http://inspire.ec.europa.eu/codelist/VoidReasonValue/Unpopulated", "@nil": "true" }, "inspireId": { "@dataType": "Identifier", "localId": "838527_1533/454.C", "namespace": "SK.ESKN.CP", "versionId": "20260703T05:07:56" }, "label": "1533/454", "nationalCadastralReference": "838527_1533/454.C", "referencePoint": { "type": "Point", "coordinates": [ 17.28225618, 48.13901899 ] }, "validFrom": "2026-06-30T16:00:00Z", "validTo": { "@nilReason": "http://inspire.ec.europa.eu/codelist/VoidReasonValue/Unpopulated", "@nil": "true" }, "administrativeUnit": { "@href": "#auAdmUnitS.1159" } }, "geometry": { "type": "Polygon", "coordinates": [ [ [ 17.28237335, 48.13910441 ], [ 17.28212198, 48.13880678 ], [ 17.28201983, 48.13885567 ], [ 17.28192507, 48.13890289 ], [ 17.28186772, 48.13893099 ], [ 17.28210008, 48.13920739 ], [ 17.28211724, 48.13920094 ], [ 17.28211507, 48.13919826 ], [ 17.28210564, 48.1392018 ], [ 17.28206822, 48.1391572 ], [ 17.28209511, 48.13914706 ], [ 17.28206378, 48.13910964 ], [ 17.28212238, 48.13908777 ], [ 17.28209117, 48.13905055 ], [ 17.28203054, 48.13907337 ], [ 17.28194122, 48.13896713 ], [ 17.28195123, 48.13896337 ], [ 17.28195879, 48.13897245 ], [ 17.28203158, 48.13894502 ], [ 17.28201378, 48.13892387 ], [ 17.28209894, 48.13889128 ], [ 17.2820977, 48.13888967 ], [ 17.28210757, 48.13888589 ], [ 17.28219105, 48.13898505 ], [ 17.28218463, 48.13898743 ], [ 17.28226155, 48.13907893 ], [ 17.28225154, 48.13908269 ], [ 17.28224994, 48.13908069 ], [ 17.28217073, 48.1391105 ], [ 17.28217947, 48.13912075 ], [ 17.2823259, 48.13906557 ], [ 17.28236191, 48.13910872 ], [ 17.28237335, 48.13910441 ] ] ] } },
{ "type": "Feature", "properties": { "@featureType": "CadastralParcel", "areaValue": { "value": 385, "@uom": "m2" }, "beginLifespanVersion": { "@nilReason": "http://inspire.ec.europa.eu/codelist/VoidReasonValue/Unpopulated", "@nil": "true" }, "endLifespanVersion": { "@nilReason": "http://inspire.ec.europa.eu/codelist/VoidReasonValue/Unpopulated", "@nil": "true" }, "inspireId": { "@dataType": "Identifier", "localId": "838527_1533/453.C", "namespace": "SK.ESKN.CP", "versionId": "20260703T05:07:56" }, "label": "1533/453", "nationalCadastralReference": "838527_1533/453.C", "referencePoint": { "type": "Point", "coordinates": [ 17.28199221, 48.13912971 ] }, "validFrom": "2026-06-30T16:00:00Z", "validTo": { "@nilReason": "http://inspire.ec.europa.eu/codelist/VoidReasonValue/Unpopulated", "@nil": "true" }, "administrativeUnit": { "@href": "#auAdmUnitS.1159" } }, "geometry": { "type": "Polygon", "coordinates": [ [ [ 17.28210008, 48.13920739 ], [ 17.28186772, 48.13893099 ], [ 17.28184528, 48.13894206 ], [ 17.2817654, 48.13898277 ], [ 17.28164088, 48.13903316 ], [ 17.28160957, 48.13904582 ], [ 17.28186905, 48.13935429 ], [ 17.28188609, 48.13934774 ], [ 17.28188367, 48.13934496 ], [ 17.28187438, 48.13934841 ], [ 17.28183683, 48.13930381 ], [ 17.28186385, 48.13929367 ], [ 17.28182894, 48.13925222 ], [ 17.28188756, 48.13923017 ], [ 17.28182958, 48.13916126 ], [ 17.28176895, 48.13918408 ], [ 17.28167963, 48.13907784 ], [ 17.28168964, 48.13907408 ], [ 17.28169721, 48.13908317 ], [ 17.28176999, 48.13905573 ], [ 17.28175233, 48.13903459 ], [ 17.28183749, 48.13900201 ], [ 17.28183611, 48.13900038 ], [ 17.28184612, 48.13899661 ], [ 17.28192947, 48.13909577 ], [ 17.28192317, 48.13909815 ], [ 17.281998, 48.13918734 ], [ 17.28205534, 48.13916575 ], [ 17.28209264, 48.13921024 ], [ 17.28210008, 48.13920739 ] ] ] } },
{ "type": "Feature", "properties": { "@featureType": "CadastralParcel", "areaValue": { "value": 601, "@uom": "m2" }, "beginLifespanVersion": { "@nilReason": "http://inspire.ec.europa.eu/codelist/VoidReasonValue/Unpopulated", "@nil": "true" }, "endLifespanVersion": { "@nilReason": "http://inspire.ec.europa.eu/codelist/VoidReasonValue/Unpopulated", "@nil": "true" }, "inspireId": { "@dataType": "Identifier", "localId": "838527_1533/465.C", "namespace": "SK.ESKN.CP", "versionId": "20260703T05:07:56" }, "label": "1533/465", "nationalCadastralReference": "838527_1533/465.C", "referencePoint": { "type": "Point", "coordinates": [ 17.2837107, 48.140965 ] }, "validFrom": "2026-06-30T16:00:00Z", "validTo": { "@nilReason": "http://inspire.ec.europa.eu/codelist/VoidReasonValue/Unpopulated", "@nil": "true" }, "administrativeUnit": { "@href": "#auAdmUnitS.1159" } }, "geometry": { "type": "Polygon", "coordinates": [ [ [ 17.28381199, 48.14081971 ], [ 17.28347279, 48.14094752 ], [ 17.28360968, 48.14111013 ], [ 17.28394858, 48.14098249 ], [ 17.28382047, 48.14082995 ], [ 17.28381199, 48.14081971 ] ] ] } },
{ "type": "Feature", "properties": { "@featureType": "CadastralParcel", "areaValue": { "value": 602, "@uom": "m2" }, "beginLifespanVersion": { "@nilReason": "http://inspire.ec.europa.eu/codelist/VoidReasonValue/Unpopulated", "@nil": "true" }, "endLifespanVersion": { "@nilReason": "http://inspire.ec.europa.eu/codelist/VoidReasonValue/Unpopulated", "@nil": "true" }, "inspireId": { "@dataType": "Identifier", "localId": "838527_1533/464.C", "namespace": "SK.ESKN.CP", "versionId": "20260703T05:07:56" }, "label": "1533/464", "nationalCadastralReference": "838527_1533/464.C", "referencePoint": { "type": "Point", "coordinates": [ 17.28357407, 48.14080227 ] }, "validFrom": "2026-06-30T16:00:00Z", "validTo": { "@nilReason": "http://inspire.ec.europa.eu/codelist/VoidReasonValue/Unpopulated", "@nil": "true" }, "administrativeUnit": { "@href": "#auAdmUnitS.1159" } }, "geometry": { "type": "Polygon", "coordinates": [ [ [ 17.28367596, 48.14065679 ], [ 17.28333606, 48.14078482 ], [ 17.28347279, 48.14094752 ], [ 17.28381199, 48.14081971 ], [ 17.28367596, 48.14065679 ] ] ] } },
{ "type": "Feature", "properties": { "@featureType": "CadastralParcel", "areaValue": { "value": 605, "@uom": "m2" }, "beginLifespanVersion": { "@nilReason": "http://inspire.ec.europa.eu/codelist/VoidReasonValue/Unpopulated", "@nil": "true" }, "endLifespanVersion": { "@nilReason": "http://inspire.ec.europa.eu/codelist/VoidReasonValue/Unpopulated", "@nil": "true" }, "inspireId": { "@dataType": "Identifier", "localId": "838527_1533/463.C", "namespace": "SK.ESKN.CP", "versionId": "20260703T05:07:56" }, "label": "1533/463", "nationalCadastralReference": "838527_1533/463.C", "referencePoint": { "type": "Point", "coordinates": [ 17.28343746, 48.14063931 ] }, "validFrom": "2026-06-30T16:00:00Z", "validTo": { "@nilReason": "http://inspire.ec.europa.eu/codelist/VoidReasonValue/Unpopulated", "@nil": "true" }, "administrativeUnit": { "@href": "#auAdmUnitS.1159" } }, "geometry": { "type": "Polygon", "coordinates": [ [ [ 17.2835396, 48.1404934 ], [ 17.28319883, 48.14062182 ], [ 17.28333606, 48.14078482 ], [ 17.28367596, 48.14065679 ], [ 17.2835396, 48.1404934 ] ] ] } },
{ "type": "Feature", "properties": { "@featureType": "CadastralParcel", "areaValue": { "value": 608, "@uom": "m2" }, "beginLifespanVersion": { "@nilReason": "http://inspire.ec.europa.eu/codelist/VoidReasonValue/Unpopulated", "@nil": "true" }, "endLifespanVersion": { "@nilReason": "http://inspire.ec.europa.eu/codelist/VoidReasonValue/Unpopulated", "@nil": "true" }, "inspireId": { "@dataType": "Identifier", "localId": "838527_1533/462.C", "namespace": "SK.ESKN.CP", "versionId": "20260703T05:07:56" }, "label": "1533/462", "nationalCadastralReference": "838527_1533/462.C", "referencePoint": { "type": "Point", "coordinates": [ 17.28330055, 48.14047587 ] }, "validFrom": "2026-06-30T16:00:00Z", "validTo": { "@nilReason": "http://inspire.ec.europa.eu/codelist/VoidReasonValue/Unpopulated", "@nil": "true" }, "administrativeUnit": { "@href": "#auAdmUnitS.1159" } }, "geometry": { "type": "Polygon", "coordinates": [ [ [ 17.28340288, 48.14032971 ], [ 17.2830614, 48.14045835 ], [ 17.28319883, 48.14062182 ], [ 17.2835396, 48.1404934 ], [ 17.28340288, 48.14032971 ] ] ] } },
{ "type": "Feature", "properties": { "@featureType": "CadastralParcel", "areaValue": { "value": 612, "@uom": "m2" }, "beginLifespanVersion": { "@nilReason": "http://inspire.ec.europa.eu/codelist/VoidReasonValue/Unpopulated", "@nil": "true" }, "endLifespanVersion": { "@nilReason": "http://inspire.ec.europa.eu/codelist/VoidReasonValue/Unpopulated", "@nil": "true" }, "inspireId": { "@dataType": "Identifier", "localId": "838527_1533/460.C", "namespace": "SK.ESKN.CP", "versionId": "20260703T05:07:56" }, "label": "1533/460", "nationalCadastralReference": "838527_1533/460.C", "referencePoint": { "type": "Point", "coordinates": [ 17.28302617, 48.14014843 ] }, "validFrom": "2026-06-30T16:00:00Z", "validTo": { "@nilReason": "http://inspire.ec.europa.eu/codelist/VoidReasonValue/Unpopulated", "@nil": "true" }, "administrativeUnit": { "@href": "#auAdmUnitS.1159" } }, "geometry": { "type": "Polygon", "coordinates": [ [ [ 17.28312925, 48.14000177 ], [ 17.28278606, 48.14013102 ], [ 17.28292383, 48.14029488 ], [ 17.28326618, 48.14016584 ], [ 17.28312925, 48.14000177 ] ] ] } },
{ "type": "Feature", "properties": { "@featureType": "CadastralParcel", "areaValue": { "value": 614, "@uom": "m2" }, "beginLifespanVersion": { "@nilReason": "http://inspire.ec.europa.eu/codelist/VoidReasonValue/Unpopulated", "@nil": "true" }, "endLifespanVersion": { "@nilReason": "http://inspire.ec.europa.eu/codelist/VoidReasonValue/Unpopulated", "@nil": "true" }, "inspireId": { "@dataType": "Identifier", "localId": "838527_1533/459.C", "namespace": "SK.ESKN.CP", "versionId": "20260703T05:07:56" }, "label": "1533/459", "nationalCadastralReference": "838527_1533/459.C", "referencePoint": { "type": "Point", "coordinates": [ 17.28288876, 48.13998442 ] }, "validFrom": "2026-06-30T16:00:00Z", "validTo": { "@nilReason": "http://inspire.ec.europa.eu/codelist/VoidReasonValue/Unpopulated", "@nil": "true" }, "administrativeUnit": { "@href": "#auAdmUnitS.1159" } }, "geometry": { "type": "Polygon", "coordinates": [ [ [ 17.2829922, 48.13983751 ], [ 17.28264816, 48.13996707 ], [ 17.28278606, 48.14013102 ], [ 17.28312925, 48.14000177 ], [ 17.2829922, 48.13983751 ] ] ] } },
{ "type": "Feature", "properties": { "@featureType": "CadastralParcel", "areaValue": { "value": 614, "@uom": "m2" }, "beginLifespanVersion": { "@nilReason": "http://inspire.ec.europa.eu/codelist/VoidReasonValue/Unpopulated", "@nil": "true" }, "endLifespanVersion": { "@nilReason": "http://inspire.ec.europa.eu/codelist/VoidReasonValue/Unpopulated", "@nil": "true" }, "inspireId": { "@dataType": "Identifier", "localId": "838527_1533/458.C", "namespace": "SK.ESKN.CP", "versionId": "20260703T05:07:56" }, "label": "1533/458", "nationalCadastralReference": "838527_1533/458.C", "referencePoint": { "type": "Point", "coordinates": [ 17.28275134, 48.13982037 ] }, "validFrom": "2026-06-30T16:00:00Z", "validTo": { "@nilReason": "http://inspire.ec.europa.eu/codelist/VoidReasonValue/Unpopulated", "@nil": "true" }, "administrativeUnit": { "@href": "#auAdmUnitS.1159" } }, "geometry": { "type": "Polygon", "coordinates": [ [ [ 17.2828543, 48.13967365 ], [ 17.28251039, 48.13980322 ], [ 17.28264816, 48.13996707 ], [ 17.2829922, 48.13983751 ], [ 17.28295321, 48.13979083 ], [ 17.2828543, 48.13967365 ] ] ] } },
{ "type": "Feature", "properties": { "@featureType": "CadastralParcel", "areaValue": { "value": 614, "@uom": "m2" }, "beginLifespanVersion": { "@nilReason": "http://inspire.ec.europa.eu/codelist/VoidReasonValue/Unpopulated", "@nil": "true" }, "endLifespanVersion": { "@nilReason": "http://inspire.ec.europa.eu/codelist/VoidReasonValue/Unpopulated", "@nil": "true" }, "inspireId": { "@dataType": "Identifier", "localId": "838527_1533/457.C", "namespace": "SK.ESKN.CP", "versionId": "20260703T05:07:56" }, "label": "1533/457", "nationalCadastralReference": "838527_1533/457.C", "referencePoint": { "type": "Point", "coordinates": [ 17.28261342, 48.13965651 ] }, "validFrom": "2026-06-30T16:00:00Z", "validTo": { "@nilReason": "http://inspire.ec.europa.eu/codelist/VoidReasonValue/Unpopulated", "@nil": "true" }, "administrativeUnit": { "@href": "#auAdmUnitS.1159" } }, "geometry": { "type": "Polygon", "coordinates": [ [ [ 17.28271596, 48.13950995 ], [ 17.28237261, 48.13963937 ], [ 17.28251039, 48.13980322 ], [ 17.2828543, 48.13967365 ], [ 17.28271596, 48.13950995 ] ] ] } },
{ "type": "Feature", "properties": { "@featureType": "CadastralParcel", "areaValue": { "value": 610, "@uom": "m2" }, "beginLifespanVersion": { "@nilReason": "http://inspire.ec.europa.eu/codelist/VoidReasonValue/Unpopulated", "@nil": "true" }, "endLifespanVersion": { "@nilReason": "http://inspire.ec.europa.eu/codelist/VoidReasonValue/Unpopulated", "@nil": "true" }, "inspireId": { "@dataType": "Identifier", "localId": "838527_1533/456.C", "namespace": "SK.ESKN.CP", "versionId": "20260703T05:07:56" }, "label": "1533/456", "nationalCadastralReference": "838527_1533/456.C", "referencePoint": { "type": "Point", "coordinates": [ 17.28247565, 48.13949311 ] }, "validFrom": "2026-06-30T16:00:00Z", "validTo": { "@nilReason": "http://inspire.ec.europa.eu/codelist/VoidReasonValue/Unpopulated", "@nil": "true" }, "administrativeUnit": { "@href": "#auAdmUnitS.1159" } }, "geometry": { "type": "Polygon", "coordinates": [ [ [ 17.28257832, 48.13934701 ], [ 17.2822354, 48.13947628 ], [ 17.28237261, 48.13963937 ], [ 17.28271596, 48.13950995 ], [ 17.28257832, 48.13934701 ] ] ] } },
{ "type": "Feature", "properties": { "@featureType": "CadastralParcel", "areaValue": { "value": 607, "@uom": "m2" }, "beginLifespanVersion": { "@nilReason": "http://inspire.ec.europa.eu/codelist/VoidReasonValue/Unpopulated", "@nil": "true" }, "endLifespanVersion": { "@nilReason": "http://inspire.ec.europa.eu/codelist/VoidReasonValue/Unpopulated", "@nil": "true" }, "inspireId": { "@dataType": "Identifier", "localId": "838527_1533/451.C", "namespace": "SK.ESKN.CP", "versionId": "20260703T05:07:56" }, "label": "1533/451", "nationalCadastralReference": "838527_1533/451.C", "referencePoint": { "type": "Point", "coordinates": [ 17.28191398, 48.13954796 ] }, "validFrom": "2026-06-30T16:00:00Z", "validTo": { "@nilReason": "http://inspire.ec.europa.eu/codelist/VoidReasonValue/Unpopulated", "@nil": "true" }, "administrativeUnit": { "@href": "#auAdmUnitS.1159" } }, "geometry": { "type": "Polygon", "coordinates": [ [ [ 17.28180978, 48.1396945 ], [ 17.28215525, 48.13956441 ], [ 17.28205595, 48.13944621 ], [ 17.28201967, 48.1394204 ], [ 17.2819667, 48.13942068 ], [ 17.28167269, 48.13953151 ], [ 17.28180978, 48.1396945 ] ] ] } },
{ "type": "Feature", "properties": { "@featureType": "CadastralParcel", "areaValue": { "value": 602, "@uom": "m2" }, "beginLifespanVersion": { "@nilReason": "http://inspire.ec.europa.eu/codelist/VoidReasonValue/Unpopulated", "@nil": "true" }, "endLifespanVersion": { "@nilReason": "http://inspire.ec.europa.eu/codelist/VoidReasonValue/Unpopulated", "@nil": "true" }, "inspireId": { "@dataType": "Identifier", "localId": "838527_1533/449.C", "namespace": "SK.ESKN.CP", "versionId": "20260703T05:07:56" }, "label": "1533/449", "nationalCadastralReference": "838527_1533/449.C", "referencePoint": { "type": "Point", "coordinates": [ 17.28218414, 48.13986907 ] }, "validFrom": "2026-06-30T16:00:00Z", "validTo": { "@nilReason": "http://inspire.ec.europa.eu/codelist/VoidReasonValue/Unpopulated", "@nil": "true" }, "administrativeUnit": { "@href": "#auAdmUnitS.1159" } }, "geometry": { "type": "Polygon", "coordinates": [ [ [ 17.28207868, 48.14001417 ], [ 17.28242417, 48.13988399 ], [ 17.28228969, 48.13972433 ], [ 17.28194412, 48.13985415 ], [ 17.28207868, 48.14001417 ] ] ] } },
{ "type": "Feature", "properties": { "@featureType": "CadastralParcel", "areaValue": { "value": 602, "@uom": "m2" }, "beginLifespanVersion": { "@nilReason": "http://inspire.ec.europa.eu/codelist/VoidReasonValue/Unpopulated", "@nil": "true" }, "endLifespanVersion": { "@nilReason": "http://inspire.ec.europa.eu/codelist/VoidReasonValue/Unpopulated", "@nil": "true" }, "inspireId": { "@dataType": "Identifier", "localId": "838527_1533/443.C", "namespace": "SK.ESKN.CP", "versionId": "20260703T05:07:56" }, "label": "1533/443", "nationalCadastralReference": "838527_1533/443.C", "referencePoint": { "type": "Point", "coordinates": [ 17.28299102, 48.14082846 ] }, "validFrom": "2026-06-30T16:00:00Z", "validTo": { "@nilReason": "http://inspire.ec.europa.eu/codelist/VoidReasonValue/Unpopulated", "@nil": "true" }, "administrativeUnit": { "@href": "#auAdmUnitS.1159" } }, "geometry": { "type": "Polygon", "coordinates": [ [ [ 17.28288575, 48.14097367 ], [ 17.28323086, 48.14084328 ], [ 17.28309642, 48.14068335 ], [ 17.28275118, 48.14081364 ], [ 17.28288575, 48.14097367 ] ] ] } },
{ "type": "Feature", "properties": { "@featureType": "CadastralParcel", "areaValue": { "value": 601, "@uom": "m2" }, "beginLifespanVersion": { "@nilReason": "http://inspire.ec.europa.eu/codelist/VoidReasonValue/Unpopulated", "@nil": "true" }, "endLifespanVersion": { "@nilReason": "http://inspire.ec.europa.eu/codelist/VoidReasonValue/Unpopulated", "@nil": "true" }, "inspireId": { "@dataType": "Identifier", "localId": "838527_1533/442.C", "namespace": "SK.ESKN.CP", "versionId": "20260703T05:07:56" }, "label": "1533/442", "nationalCadastralReference": "838527_1533/442.C", "referencePoint": { "type": "Point", "coordinates": [ 17.28312553, 48.14098839 ] }, "validFrom": "2026-06-30T16:00:00Z", "validTo": { "@nilReason": "http://inspire.ec.europa.eu/codelist/VoidReasonValue/Unpopulated", "@nil": "true" }, "administrativeUnit": { "@href": "#auAdmUnitS.1159" } }, "geometry": { "type": "Polygon", "coordinates": [ [ [ 17.28301998, 48.14113322 ], [ 17.28336532, 48.14100311 ], [ 17.28323086, 48.14084328 ], [ 17.28288575, 48.14097367 ], [ 17.28301998, 48.14113322 ] ] ] } },
{ "type": "Feature", "properties": { "@featureType": "CadastralParcel", "areaValue": { "value": 602, "@uom": "m2" }, "beginLifespanVersion": { "@nilReason": "http://inspire.ec.europa.eu/codelist/VoidReasonValue/Unpopulated", "@nil": "true" }, "endLifespanVersion": { "@nilReason": "http://inspire.ec.europa.eu/codelist/VoidReasonValue/Unpopulated", "@nil": "true" }, "inspireId": { "@dataType": "Identifier", "localId": "838527_1533/441.C", "namespace": "SK.ESKN.CP", "versionId": "20260703T05:07:56" }, "label": "1533/441", "nationalCadastralReference": "838527_1533/441.C", "referencePoint": { "type": "Point", "coordinates": [ 17.28325988, 48.14114808 ] }, "validFrom": "2026-06-30T16:00:00Z", "validTo": { "@nilReason": "http://inspire.ec.europa.eu/codelist/VoidReasonValue/Unpopulated", "@nil": "true" }, "administrativeUnit": { "@href": "#auAdmUnitS.1159" } }, "geometry": { "type": "Polygon", "coordinates": [ [ [ 17.28315455, 48.14129315 ], [ 17.28349978, 48.14116295 ], [ 17.28336532, 48.14100311 ], [ 17.28301998, 48.14113322 ], [ 17.28315455, 48.14129315 ] ] ] } },
{ "type": "Feature", "properties": { "@featureType": "CadastralParcel", "areaValue": { "value": 602, "@uom": "m2" }, "beginLifespanVersion": { "@nilReason": "http://inspire.ec.europa.eu/codelist/VoidReasonValue/Unpopulated", "@nil": "true" }, "endLifespanVersion": { "@nilReason": "http://inspire.ec.europa.eu/codelist/VoidReasonValue/Unpopulated", "@nil": "true" }, "inspireId": { "@dataType": "Identifier", "localId": "838527_1533/440.C", "namespace": "SK.ESKN.CP", "versionId": "20260703T05:07:56" }, "label": "1533/440", "nationalCadastralReference": "838527_1533/440.C", "referencePoint": { "type": "Point", "coordinates": [ 17.28339445, 48.14130802 ] }, "validFrom": "2026-06-30T16:00:00Z", "validTo": { "@nilReason": "http://inspire.ec.europa.eu/codelist/VoidReasonValue/Unpopulated", "@nil": "true" }, "administrativeUnit": { "@href": "#auAdmUnitS.1159" } }, "geometry": { "type": "Polygon", "coordinates": [ [ [ 17.28328901, 48.14145299 ], [ 17.28363436, 48.14132288 ], [ 17.28349978, 48.14116295 ], [ 17.28315455, 48.14129315 ], [ 17.28328901, 48.14145299 ] ] ] } },
{ "type": "Feature", "properties": { "@featureType": "CadastralParcel", "areaValue": { "value": 602, "@uom": "m2" }, "beginLifespanVersion": { "@nilReason": "http://inspire.ec.europa.eu/codelist/VoidReasonValue/Unpopulated", "@nil": "true" }, "endLifespanVersion": { "@nilReason": "http://inspire.ec.europa.eu/codelist/VoidReasonValue/Unpopulated", "@nil": "true" }, "inspireId": { "@dataType": "Identifier", "localId": "838527_1533/439.C", "namespace": "SK.ESKN.CP", "versionId": "20260703T05:07:56" }, "label": "1533/439", "nationalCadastralReference": "838527_1533/439.C", "referencePoint": { "type": "Point", "coordinates": [ 17.28352892, 48.14146785 ] }, "validFrom": "2026-06-30T16:00:00Z", "validTo": { "@nilReason": "http://inspire.ec.europa.eu/codelist/VoidReasonValue/Unpopulated", "@nil": "true" }, "administrativeUnit": { "@href": "#auAdmUnitS.1159" } }, "geometry": { "type": "Polygon", "coordinates": [ [ [ 17.28342347, 48.14161282 ], [ 17.28376882, 48.14148272 ], [ 17.28363436, 48.14132288 ], [ 17.28328901, 48.14145299 ], [ 17.28342347, 48.14161282 ] ] ] } },
{ "type": "Feature", "properties": { "@featureType": "CadastralParcel", "areaValue": { "value": 602, "@uom": "m2" }, "beginLifespanVersion": { "@nilReason": "http://inspire.ec.europa.eu/codelist/VoidReasonValue/Unpopulated", "@nil": "true" }, "endLifespanVersion": { "@nilReason": "http://inspire.ec.europa.eu/codelist/VoidReasonValue/Unpopulated", "@nil": "true" }, "inspireId": { "@dataType": "Identifier", "localId": "838527_1533/438.C", "namespace": "SK.ESKN.CP", "versionId": "20260703T05:07:56" }, "label": "1533/438", "nationalCadastralReference": "838527_1533/438.C", "referencePoint": { "type": "Point", "coordinates": [ 17.28366337, 48.14162773 ] }, "validFrom": "2026-06-30T16:00:00Z", "validTo": { "@nilReason": "http://inspire.ec.europa.eu/codelist/VoidReasonValue/Unpopulated", "@nil": "true" }, "administrativeUnit": { "@href": "#auAdmUnitS.1159" } }, "geometry": { "type": "Polygon", "coordinates": [ [ [ 17.28355792, 48.14177275 ], [ 17.28390327, 48.14164264 ], [ 17.28376882, 48.14148272 ], [ 17.28342347, 48.14161282 ], [ 17.28355792, 48.14177275 ] ] ] } },
{ "type": "Feature", "properties": { "@featureType": "CadastralParcel", "areaValue": { "value": 600, "@uom": "m2" }, "beginLifespanVersion": { "@nilReason": "http://inspire.ec.europa.eu/codelist/VoidReasonValue/Unpopulated", "@nil": "true" }, "endLifespanVersion": { "@nilReason": "http://inspire.ec.europa.eu/codelist/VoidReasonValue/Unpopulated", "@nil": "true" }, "inspireId": { "@dataType": "Identifier", "localId": "838527_1533/437.C", "namespace": "SK.ESKN.CP", "versionId": "20260703T05:07:56" }, "label": "1533/437", "nationalCadastralReference": "838527_1533/437.C", "referencePoint": { "type": "Point", "coordinates": [ 17.28400274, 48.14203119 ] }, "validFrom": "2026-06-30T16:00:00Z", "validTo": { "@nilReason": "http://inspire.ec.europa.eu/codelist/VoidReasonValue/Unpopulated", "@nil": "true" }, "administrativeUnit": { "@href": "#auAdmUnitS.1159" } }, "geometry": { "type": "Polygon", "coordinates": [ [ [ 17.28389793, 48.14217684 ], [ 17.28424315, 48.14204672 ], [ 17.28414061, 48.14192479 ], [ 17.28410082, 48.14190263 ], [ 17.28404948, 48.14190736 ], [ 17.28382224, 48.14199306 ], [ 17.28376232, 48.14201566 ], [ 17.28389793, 48.14217684 ] ] ] } },
{ "type": "Feature", "properties": { "@featureType": "CadastralParcel", "areaValue": { "value": 600, "@uom": "m2" }, "beginLifespanVersion": { "@nilReason": "http://inspire.ec.europa.eu/codelist/VoidReasonValue/Unpopulated", "@nil": "true" }, "endLifespanVersion": { "@nilReason": "http://inspire.ec.europa.eu/codelist/VoidReasonValue/Unpopulated", "@nil": "true" }, "inspireId": { "@dataType": "Identifier", "localId": "838527_1533/435.C", "namespace": "SK.ESKN.CP", "versionId": "20260703T05:07:56" }, "label": "1533/435", "nationalCadastralReference": "838527_1533/435.C", "referencePoint": { "type": "Point", "coordinates": [ 17.28427166, 48.14235091 ] }, "validFrom": "2026-06-30T16:00:00Z", "validTo": { "@nilReason": "http://inspire.ec.europa.eu/codelist/VoidReasonValue/Unpopulated", "@nil": "true" }, "administrativeUnit": { "@href": "#auAdmUnitS.1159" } }, "geometry": { "type": "Polygon", "coordinates": [ [ [ 17.28416617, 48.14249574 ], [ 17.28451138, 48.14236562 ], [ 17.28437715, 48.14220607 ], [ 17.28403193, 48.14233619 ], [ 17.28416617, 48.14249574 ] ] ] } },
{ "type": "Feature", "properties": { "@featureType": "CadastralParcel", "areaValue": { "value": 600, "@uom": "m2" }, "beginLifespanVersion": { "@nilReason": "http://inspire.ec.europa.eu/codelist/VoidReasonValue/Unpopulated", "@nil": "true" }, "endLifespanVersion": { "@nilReason": "http://inspire.ec.europa.eu/codelist/VoidReasonValue/Unpopulated", "@nil": "true" }, "inspireId": { "@dataType": "Identifier", "localId": "838527_1533/434.C", "namespace": "SK.ESKN.CP", "versionId": "20260703T05:07:56" }, "label": "1533/434", "nationalCadastralReference": "838527_1533/434.C", "referencePoint": { "type": "Point", "coordinates": [ 17.28440589, 48.14251045 ] }, "validFrom": "2026-06-30T16:00:00Z", "validTo": { "@nilReason": "http://inspire.ec.europa.eu/codelist/VoidReasonValue/Unpopulated", "@nil": "true" }, "administrativeUnit": { "@href": "#auAdmUnitS.1159" } }, "geometry": { "type": "Polygon", "coordinates": [ [ [ 17.2843004, 48.14265529 ], [ 17.28464562, 48.14252517 ], [ 17.28451138, 48.14236562 ], [ 17.28416617, 48.14249574 ], [ 17.2843004, 48.14265529 ] ] ] } },
{ "type": "Feature", "properties": { "@featureType": "CadastralParcel", "areaValue": { "value": 600, "@uom": "m2" }, "beginLifespanVersion": { "@nilReason": "http://inspire.ec.europa.eu/codelist/VoidReasonValue/Unpopulated", "@nil": "true" }, "endLifespanVersion": { "@nilReason": "http://inspire.ec.europa.eu/codelist/VoidReasonValue/Unpopulated", "@nil": "true" }, "inspireId": { "@dataType": "Identifier", "localId": "838527_1533/433.C", "namespace": "SK.ESKN.CP", "versionId": "20260703T05:07:56" }, "label": "1533/433", "nationalCadastralReference": "838527_1533/433.C", "referencePoint": { "type": "Point", "coordinates": [ 17.28454013, 48.14267 ] }, "validFrom": "2026-06-30T16:00:00Z", "validTo": { "@nilReason": "http://inspire.ec.europa.eu/codelist/VoidReasonValue/Unpopulated", "@nil": "true" }, "administrativeUnit": { "@href": "#auAdmUnitS.1159" } }, "geometry": { "type": "Polygon", "coordinates": [ [ [ 17.28443464, 48.14281484 ], [ 17.28477986, 48.14268472 ], [ 17.28464562, 48.14252517 ], [ 17.2843004, 48.14265529 ], [ 17.28443464, 48.14281484 ] ] ] } },
{ "type": "Feature", "properties": { "@featureType": "CadastralParcel", "areaValue": { "value": 600, "@uom": "m2" }, "beginLifespanVersion": { "@nilReason": "http://inspire.ec.europa.eu/codelist/VoidReasonValue/Unpopulated", "@nil": "true" }, "endLifespanVersion": { "@nilReason": "http://inspire.ec.europa.eu/codelist/VoidReasonValue/Unpopulated", "@nil": "true" }, "inspireId": { "@dataType": "Identifier", "localId": "838527_1533/432.C", "namespace": "SK.ESKN.CP", "versionId": "20260703T05:07:56" }, "label": "1533/432", "nationalCadastralReference": "838527_1533/432.C", "referencePoint": { "type": "Point", "coordinates": [ 17.28467431, 48.14282954 ] }, "validFrom": "2026-06-30T16:00:00Z", "validTo": { "@nilReason": "http://inspire.ec.europa.eu/codelist/VoidReasonValue/Unpopulated", "@nil": "true" }, "administrativeUnit": { "@href": "#auAdmUnitS.1159" } }, "geometry": { "type": "Polygon", "coordinates": [ [ [ 17.28456888, 48.14297438 ], [ 17.28491397, 48.14284425 ], [ 17.28477986, 48.14268472 ], [ 17.28443464, 48.14281484 ], [ 17.28456888, 48.14297438 ] ] ] } },
{ "type": "Feature", "properties": { "@featureType": "CadastralParcel", "areaValue": { "value": 8639, "@uom": "m2" }, "beginLifespanVersion": { "@nilReason": "http://inspire.ec.europa.eu/codelist/VoidReasonValue/Unpopulated", "@nil": "true" }, "endLifespanVersion": { "@nilReason": "http://inspire.ec.europa.eu/codelist/VoidReasonValue/Unpopulated", "@nil": "true" }, "inspireId": { "@dataType": "Identifier", "localId": "838527_1533/422.C", "namespace": "SK.ESKN.CP", "versionId": "20260703T05:07:56" }, "label": "1533/422", "nationalCadastralReference": "838527_1533/422.C", "referencePoint": { "type": "Point", "coordinates": [ 17.28411224, 48.14183674 ] }, "validFrom": "2026-06-30T16:00:00Z", "validTo": { "@nilReason": "http://inspire.ec.europa.eu/codelist/VoidReasonValue/Unpopulated", "@nil": "true" }, "administrativeUnit": { "@href": "#auAdmUnitS.1159" } }, "geometry": { "type": "Polygon", "coordinates": [ [ [ 17.28592439, 48.1440453 ], [ 17.28600065, 48.14413593 ], [ 17.28605863, 48.14420493 ], [ 17.28620409, 48.14437815 ], [ 17.28621218, 48.14438736 ], [ 17.28621981, 48.14440151 ], [ 17.28622026, 48.14441121 ], [ 17.28621804, 48.14441983 ], [ 17.28621225, 48.14442975 ], [ 17.28620178, 48.14443845 ], [ 17.28618777, 48.14444557 ], [ 17.28620167, 48.14446203 ], [ 17.28614132, 48.14448478 ], [ 17.28617956, 48.14453024 ], [ 17.28623991, 48.14450749 ], [ 17.28625381, 48.14452396 ], [ 17.28627012, 48.14451962 ], [ 17.28628704, 48.14451839 ], [ 17.2863022, 48.14452002 ], [ 17.28631441, 48.14452327 ], [ 17.28632832, 48.14452962 ], [ 17.28634067, 48.1445402 ], [ 17.28636973, 48.14457466 ], [ 17.28639605, 48.14456474 ], [ 17.28648685, 48.14453054 ], [ 17.28642024, 48.14445139 ], [ 17.28634696, 48.14436439 ], [ 17.2862606, 48.14426179 ], [ 17.28620917, 48.14420054 ], [ 17.28610122, 48.1440722 ], [ 17.28609535, 48.14403982 ], [ 17.28612535, 48.14401406 ], [ 17.28640765, 48.14390769 ], [ 17.28634202, 48.14382924 ], [ 17.28606216, 48.14393468 ], [ 17.2860129, 48.14393991 ], [ 17.28597306, 48.14391992 ], [ 17.28597203, 48.14391868 ], [ 17.28586524, 48.14379168 ], [ 17.28579919, 48.14371329 ], [ 17.28579678, 48.14371042 ], [ 17.2857822, 48.14369309 ], [ 17.28572847, 48.14362907 ], [ 17.28560963, 48.14348772 ], [ 17.28559194, 48.14346675 ], [ 17.28557769, 48.1434499 ], [ 17.28545574, 48.14330491 ], [ 17.28540498, 48.14324461 ], [ 17.28538775, 48.14322413 ], [ 17.28537547, 48.14320949 ], [ 17.28531978, 48.14314326 ], [ 17.28520276, 48.14300419 ], [ 17.28518382, 48.14298161 ], [ 17.28504799, 48.14282006 ], [ 17.28491134, 48.14265764 ], [ 17.28477467, 48.14249531 ], [ 17.28463816, 48.1423329 ], [ 17.28444548, 48.14210378 ], [ 17.28425588, 48.14187857 ], [ 17.28425054, 48.14184532 ], [ 17.2842823, 48.14181959 ], [ 17.28443519, 48.14176185 ], [ 17.28448281, 48.14174386 ], [ 17.28456277, 48.14171365 ], [ 17.2844971, 48.14163546 ], [ 17.28421439, 48.14174198 ], [ 17.28416587, 48.1417459 ], [ 17.28412741, 48.14172573 ], [ 17.28402038, 48.14159853 ], [ 17.28388328, 48.14143554 ], [ 17.28374655, 48.14127284 ], [ 17.28360968, 48.14111013 ], [ 17.28347279, 48.14094752 ], [ 17.28333606, 48.14078482 ], [ 17.28319883, 48.14062182 ], [ 17.2830614, 48.14045835 ], [ 17.28292383, 48.14029488 ], [ 17.28278606, 48.14013102 ], [ 17.28264816, 48.13996707 ], [ 17.28251039, 48.13980322 ], [ 17.28237261, 48.13963937 ], [ 17.2822354, 48.13947628 ], [ 17.2822105, 48.13944661 ], [ 17.2821446, 48.13936822 ], [ 17.28212841, 48.13934899 ], [ 17.28212268, 48.13931652 ], [ 17.28215282, 48.13929078 ], [ 17.28243953, 48.13918273 ], [ 17.28237335, 48.13910441 ], [ 17.28236191, 48.13910872 ], [ 17.28211724, 48.13920094 ], [ 17.28210008, 48.13920739 ], [ 17.28209264, 48.13921024 ], [ 17.28207762, 48.13921593 ], [ 17.28206515, 48.13922171 ], [ 17.2820493, 48.13923032 ], [ 17.2820345, 48.13924001 ], [ 17.28201657, 48.13925527 ], [ 17.28200208, 48.13927202 ], [ 17.28199681, 48.13927935 ], [ 17.28198483, 48.13929184 ], [ 17.2819666, 48.13930735 ], [ 17.28194416, 48.13932213 ], [ 17.2819186, 48.13933517 ], [ 17.28188609, 48.13934774 ], [ 17.28186905, 48.13935429 ], [ 17.28183845, 48.13936582 ], [ 17.28161365, 48.13945059 ], [ 17.28160678, 48.13945321 ], [ 17.28167269, 48.13953151 ], [ 17.2819667, 48.13942068 ], [ 17.28201967, 48.1394204 ], [ 17.28205595, 48.13944621 ], [ 17.28215525, 48.13956441 ], [ 17.28228969, 48.13972433 ], [ 17.28242417, 48.13988399 ], [ 17.28255861, 48.14004392 ], [ 17.28269306, 48.14020375 ], [ 17.28282752, 48.14036359 ], [ 17.28296209, 48.14052352 ], [ 17.28309642, 48.14068335 ], [ 17.28323086, 48.14084328 ], [ 17.28336532, 48.14100311 ], [ 17.28349978, 48.14116295 ], [ 17.28363436, 48.14132288 ], [ 17.28376882, 48.14148272 ], [ 17.28390327, 48.14164264 ], [ 17.28400386, 48.14176218 ], [ 17.28401641, 48.14179781 ], [ 17.28398613, 48.14182815 ], [ 17.28369641, 48.14193728 ], [ 17.28376232, 48.14201566 ], [ 17.28382224, 48.14199306 ], [ 17.28404948, 48.14190736 ], [ 17.28410082, 48.14190263 ], [ 17.28414061, 48.14192479 ], [ 17.28424315, 48.14204672 ], [ 17.28437715, 48.14220607 ], [ 17.28451138, 48.14236562 ], [ 17.28464562, 48.14252517 ], [ 17.28477986, 48.14268472 ], [ 17.28491397, 48.14284425 ], [ 17.28493797, 48.14287278 ], [ 17.28504821, 48.1430038 ], [ 17.28511527, 48.14308353 ], [ 17.28516476, 48.14314239 ], [ 17.28518245, 48.14316335 ], [ 17.28520519, 48.14319034 ], [ 17.2852177, 48.14320527 ], [ 17.28531656, 48.14332289 ], [ 17.28543945, 48.14346885 ], [ 17.28545082, 48.14348235 ], [ 17.28546851, 48.14350331 ], [ 17.28551788, 48.14356207 ], [ 17.28558493, 48.14364188 ], [ 17.28569127, 48.14376822 ], [ 17.28569727, 48.1438007 ], [ 17.28566713, 48.14382645 ], [ 17.28537754, 48.14393559 ], [ 17.28544302, 48.14401412 ], [ 17.28573033, 48.14390583 ], [ 17.28577998, 48.14390062 ], [ 17.28581989, 48.14392107 ], [ 17.28592439, 48.1440453 ] ] ] } },
{ "type": "Feature", "properties": { "@featureType": "CadastralParcel", "areaValue": { "value": 445, "@uom": "m2" }, "beginLifespanVersion": { "@nilReason": "http://inspire.ec.europa.eu/codelist/VoidReasonValue/Unpopulated", "@nil": "true" }, "endLifespanVersion": { "@nilReason": "http://inspire.ec.europa.eu/codelist/VoidReasonValue/Unpopulated", "@nil": "true" }, "inspireId": { "@dataType": "Identifier", "localId": "838527_1533/452.C", "namespace": "SK.ESKN.CP", "versionId": "20260703T05:07:56" }, "label": "1533/452", "nationalCadastralReference": "838527_1533/452.C", "referencePoint": { "type": "Point", "coordinates": [ 17.28175266, 48.13925998 ] }, "validFrom": "2026-06-30T16:00:00Z", "validTo": { "@nilReason": "http://inspire.ec.europa.eu/codelist/VoidReasonValue/Unpopulated", "@nil": "true" }, "administrativeUnit": { "@href": "#auAdmUnitS.1159" } }, "geometry": { "type": "Polygon", "coordinates": [ [ [ 17.28160957, 48.13904582 ], [ 17.28150886, 48.13908676 ], [ 17.28138962, 48.13912061 ], [ 17.28133942, 48.13913499 ], [ 17.28146718, 48.13928716 ], [ 17.28147109, 48.13929175 ], [ 17.28160678, 48.13945321 ], [ 17.28161365, 48.13945059 ], [ 17.28154247, 48.13936589 ], [ 17.28163039, 48.13933295 ], [ 17.28159915, 48.13929591 ], [ 17.28153865, 48.13931874 ], [ 17.28144933, 48.1392125 ], [ 17.28145934, 48.13920874 ], [ 17.28146691, 48.13921782 ], [ 17.2815397, 48.13919039 ], [ 17.28152203, 48.13916924 ], [ 17.28160719, 48.13913666 ], [ 17.28160581, 48.13913504 ], [ 17.28161582, 48.13913127 ], [ 17.28169917, 48.13923042 ], [ 17.28169274, 48.1392328 ], [ 17.28176966, 48.1393243 ], [ 17.28175965, 48.13932806 ], [ 17.28175806, 48.13932606 ], [ 17.28167898, 48.13935588 ], [ 17.2816876, 48.13936603 ], [ 17.28177068, 48.13933476 ], [ 17.28176977, 48.13933361 ], [ 17.28180137, 48.1393217 ], [ 17.28183845, 48.13936582 ], [ 17.28186905, 48.13935429 ], [ 17.28160957, 48.13904582 ] ] ] } },
{ "type": "Feature", "properties": { "@featureType": "CadastralParcel", "areaValue": { "value": 463, "@uom": "m2" }, "beginLifespanVersion": { "@nilReason": "http://inspire.ec.europa.eu/codelist/VoidReasonValue/Unpopulated", "@nil": "true" }, "endLifespanVersion": { "@nilReason": "http://inspire.ec.europa.eu/codelist/VoidReasonValue/Unpopulated", "@nil": "true" }, "inspireId": { "@dataType": "Identifier", "localId": "838527_1533/447.C", "namespace": "SK.ESKN.CP", "versionId": "20260703T05:07:56" }, "label": "1533/447", "nationalCadastralReference": "838527_1533/447.C", "referencePoint": { "type": "Point", "coordinates": [ 17.28232352, 48.14018893 ] }, "validFrom": "2026-06-30T16:00:00Z", "validTo": { "@nilReason": "http://inspire.ec.europa.eu/codelist/VoidReasonValue/Unpopulated", "@nil": "true" }, "administrativeUnit": { "@href": "#auAdmUnitS.1159" } }, "geometry": { "type": "Polygon", "coordinates": [ [ [ 17.28255861, 48.14004392 ], [ 17.28221326, 48.14017411 ], [ 17.28234747, 48.14033375 ], [ 17.28269306, 48.14020375 ], [ 17.28255861, 48.14004392 ] ], [ [ 17.28248298, 48.14026203 ], [ 17.28239844, 48.14016181 ], [ 17.28252473, 48.14011406 ], [ 17.28260941, 48.14021429 ], [ 17.28248298, 48.14026203 ] ] ] } },
{ "type": "Feature", "properties": { "@featureType": "CadastralParcel", "areaValue": { "value": 612, "@uom": "m2" }, "beginLifespanVersion": { "@nilReason": "http://inspire.ec.europa.eu/codelist/VoidReasonValue/Unpopulated", "@nil": "true" }, "endLifespanVersion": { "@nilReason": "http://inspire.ec.europa.eu/codelist/VoidReasonValue/Unpopulated", "@nil": "true" }, "inspireId": { "@dataType": "Identifier", "localId": "838527_1533/341.C", "namespace": "SK.ESKN.CP", "versionId": "20260703T05:07:56" }, "label": "1533/341", "nationalCadastralReference": "838527_1533/341.C", "referencePoint": { "type": "Point", "coordinates": [ 17.28379023, 48.14178528 ] }, "validFrom": "2026-06-30T16:00:00Z", "validTo": { "@nilReason": "http://inspire.ec.europa.eu/codelist/VoidReasonValue/Unpopulated", "@nil": "true" }, "administrativeUnit": { "@href": "#auAdmUnitS.1159" } }, "geometry": { "type": "Polygon", "coordinates": [ [ [ 17.28355792, 48.14177275 ], [ 17.28369641, 48.14193728 ], [ 17.28398613, 48.14182815 ], [ 17.28401641, 48.14179781 ], [ 17.28400386, 48.14176218 ], [ 17.28390327, 48.14164264 ], [ 17.28355792, 48.14177275 ] ] ] } },
{ "type": "Feature", "properties": { "@featureType": "CadastralParcel", "areaValue": { "value": 463, "@uom": "m2" }, "beginLifespanVersion": { "@nilReason": "http://inspire.ec.europa.eu/codelist/VoidReasonValue/Unpopulated", "@nil": "true" }, "endLifespanVersion": { "@nilReason": "http://inspire.ec.europa.eu/codelist/VoidReasonValue/Unpopulated", "@nil": "true" }, "inspireId": { "@dataType": "Identifier", "localId": "838527_1533/445.C", "namespace": "SK.ESKN.CP", "versionId": "20260703T05:07:56" }, "label": "1533/445", "nationalCadastralReference": "838527_1533/445.C", "referencePoint": { "type": "Point", "coordinates": [ 17.28259234, 48.1405086 ] }, "validFrom": "2026-06-30T16:00:00Z", "validTo": { "@nilReason": "http://inspire.ec.europa.eu/codelist/VoidReasonValue/Unpopulated", "@nil": "true" }, "administrativeUnit": { "@href": "#auAdmUnitS.1159" } }, "geometry": { "type": "Polygon", "coordinates": [ [ [ 17.28261662, 48.14065362 ], [ 17.28296209, 48.14052352 ], [ 17.28282752, 48.14036359 ], [ 17.28248204, 48.14049369 ], [ 17.28261662, 48.14065362 ] ], [ [ 17.28287884, 48.14053409 ], [ 17.28275263, 48.14058221 ], [ 17.28266742, 48.14048194 ], [ 17.28279375, 48.14043392 ], [ 17.28287884, 48.14053409 ] ] ] } },
{ "type": "Feature", "properties": { "@featureType": "CadastralParcel", "areaValue": { "value": 7615, "@uom": "m2" }, "beginLifespanVersion": { "@nilReason": "http://inspire.ec.europa.eu/codelist/VoidReasonValue/Unpopulated", "@nil": "true" }, "endLifespanVersion": { "@nilReason": "http://inspire.ec.europa.eu/codelist/VoidReasonValue/Unpopulated", "@nil": "true" }, "inspireId": { "@dataType": "Identifier", "localId": "838527_1533/340.C", "namespace": "SK.ESKN.CP", "versionId": "20260703T05:07:56" }, "label": "1533/340", "nationalCadastralReference": "838527_1533/340.C", "referencePoint": { "type": "Point", "coordinates": [ 17.28297793, 48.14171573 ] }, "validFrom": "2026-06-30T16:00:00Z", "validTo": { "@nilReason": "http://inspire.ec.europa.eu/codelist/VoidReasonValue/Unpopulated", "@nil": "true" }, "administrativeUnit": { "@href": "#auAdmUnitS.1159" } }, "geometry": { "type": "Polygon", "coordinates": [ [ [ 17.28515889, 48.14423143 ], [ 17.28512575, 48.1441798 ], [ 17.28512295, 48.14417501 ], [ 17.285121, 48.14416901 ], [ 17.28512014, 48.14416298 ], [ 17.28512218, 48.14415101 ], [ 17.28512897, 48.1441398 ], [ 17.28513999, 48.14413014 ], [ 17.28515986, 48.14412088 ], [ 17.28544302, 48.14401412 ], [ 17.28537754, 48.14393559 ], [ 17.28509411, 48.14404233 ], [ 17.28508767, 48.14404479 ], [ 17.28507159, 48.14404852 ], [ 17.28505457, 48.14404947 ], [ 17.28503784, 48.14404755 ], [ 17.28502232, 48.1440429 ], [ 17.28500906, 48.14403579 ], [ 17.28499845, 48.14402623 ], [ 17.2848942, 48.1439022 ], [ 17.28475994, 48.14374274 ], [ 17.28462582, 48.14358329 ], [ 17.28449159, 48.14342365 ], [ 17.28435723, 48.14326401 ], [ 17.28422337, 48.14310466 ], [ 17.28408901, 48.14294502 ], [ 17.28395477, 48.14278547 ], [ 17.28382067, 48.14262593 ], [ 17.28368644, 48.14246629 ], [ 17.2835523, 48.14230702 ], [ 17.28344978, 48.142185 ], [ 17.28344315, 48.14217416 ], [ 17.28344096, 48.14216245 ], [ 17.2834462, 48.14214536 ], [ 17.28346118, 48.14213081 ], [ 17.28348575, 48.14211987 ], [ 17.28376232, 48.14201566 ], [ 17.28369641, 48.14193728 ], [ 17.28341958, 48.14204147 ], [ 17.28340148, 48.14204786 ], [ 17.28338457, 48.14205081 ], [ 17.28336703, 48.14205073 ], [ 17.28334225, 48.14204484 ], [ 17.28332278, 48.14203316 ], [ 17.28331797, 48.14202823 ], [ 17.28321244, 48.14190285 ], [ 17.28307798, 48.14174301 ], [ 17.28294352, 48.14158317 ], [ 17.28280907, 48.14142325 ], [ 17.28267462, 48.14126341 ], [ 17.28254016, 48.14110358 ], [ 17.28240558, 48.14094364 ], [ 17.28227127, 48.14078372 ], [ 17.2821367, 48.14062379 ], [ 17.28200198, 48.14046393 ], [ 17.28186778, 48.1403042 ], [ 17.28173333, 48.14014437 ], [ 17.28159889, 48.13998444 ], [ 17.28146444, 48.1398246 ], [ 17.28135857, 48.13969883 ], [ 17.28135386, 48.13969328 ], [ 17.28134813, 48.13968359 ], [ 17.28134684, 48.1396732 ], [ 17.28134996, 48.13966302 ], [ 17.28135741, 48.13965375 ], [ 17.28137498, 48.13964362 ], [ 17.28138285, 48.13964062 ], [ 17.28167269, 48.13953151 ], [ 17.28160678, 48.13945321 ], [ 17.28131695, 48.13956223 ], [ 17.28129487, 48.13956908 ], [ 17.28127721, 48.13956981 ], [ 17.28125738, 48.13956605 ], [ 17.28124477, 48.13956006 ], [ 17.2812353, 48.13955194 ], [ 17.28123221, 48.13954821 ], [ 17.2811259, 48.13942177 ], [ 17.28112303, 48.13941833 ], [ 17.28096768, 48.1392337 ], [ 17.28091521, 48.13924613 ], [ 17.28083992, 48.1392649 ], [ 17.28097393, 48.13942408 ], [ 17.28110731, 48.13958285 ], [ 17.28124083, 48.13974172 ], [ 17.28137505, 48.13990127 ], [ 17.28150972, 48.1400614 ], [ 17.28164416, 48.14022133 ], [ 17.28177849, 48.14038106 ], [ 17.28191225, 48.14054013 ], [ 17.28204587, 48.14069919 ], [ 17.28217931, 48.1408577 ], [ 17.2822847, 48.14098307 ], [ 17.28236381, 48.14107715 ], [ 17.28244305, 48.14117124 ], [ 17.28253499, 48.14128081 ], [ 17.28262745, 48.14139051 ], [ 17.28270655, 48.14148459 ], [ 17.28278553, 48.14157866 ], [ 17.28287784, 48.14168844 ], [ 17.28297018, 48.14179804 ], [ 17.28304914, 48.1418922 ], [ 17.28312827, 48.14198619 ], [ 17.2832338, 48.14211158 ], [ 17.28288989, 48.14224105 ], [ 17.28295535, 48.14231968 ], [ 17.28329957, 48.14218995 ], [ 17.28343415, 48.14234988 ], [ 17.28356799, 48.14250941 ], [ 17.28370186, 48.14266866 ], [ 17.28383504, 48.14282715 ], [ 17.28396787, 48.14298525 ], [ 17.28410025, 48.14314277 ], [ 17.28423228, 48.14329992 ], [ 17.28436397, 48.14345658 ], [ 17.28449578, 48.14361344 ], [ 17.28454791, 48.14367546 ], [ 17.28462689, 48.14376953 ], [ 17.284678, 48.14383021 ], [ 17.28475801, 48.14392552 ], [ 17.28475928, 48.14392696 ], [ 17.2848839, 48.14408497 ], [ 17.28490811, 48.14411567 ], [ 17.28491721, 48.14412721 ], [ 17.28493247, 48.14414729 ], [ 17.28494605, 48.14416681 ], [ 17.28496374, 48.144196 ], [ 17.2849786, 48.14422427 ], [ 17.28499002, 48.14425115 ], [ 17.28501392, 48.14424839 ], [ 17.28513223, 48.14423455 ], [ 17.28515889, 48.14423143 ] ] ] } },
{ "type": "Feature", "properties": { "@featureType": "CadastralParcel", "areaValue": { "value": 431, "@uom": "m2" }, "beginLifespanVersion": { "@nilReason": "http://inspire.ec.europa.eu/codelist/VoidReasonValue/Unpopulated", "@nil": "true" }, "endLifespanVersion": { "@nilReason": "http://inspire.ec.europa.eu/codelist/VoidReasonValue/Unpopulated", "@nil": "true" }, "inspireId": { "@dataType": "Identifier", "localId": "838527_1533/426.C", "namespace": "SK.ESKN.CP", "versionId": "20260703T05:07:56" }, "label": "1533/426", "nationalCadastralReference": "838527_1533/426.C", "referencePoint": { "type": "Point", "coordinates": [ 17.28530123, 48.14376267 ] }, "validFrom": "2026-06-30T16:00:00Z", "validTo": { "@nilReason": "http://inspire.ec.europa.eu/codelist/VoidReasonValue/Unpopulated", "@nil": "true" }, "administrativeUnit": { "@href": "#auAdmUnitS.1159" } }, "geometry": { "type": "Polygon", "coordinates": [ [ [ 17.28545607, 48.14358554 ], [ 17.28517337, 48.14369287 ], [ 17.28523985, 48.14377192 ], [ 17.28537754, 48.14393559 ], [ 17.28566713, 48.14382645 ], [ 17.28569727, 48.1438007 ], [ 17.28569127, 48.14376822 ], [ 17.28563019, 48.14379228 ], [ 17.28554623, 48.14369264 ], [ 17.28553435, 48.14369718 ], [ 17.28558007, 48.14375136 ], [ 17.28556477, 48.14375713 ], [ 17.2856074, 48.14380758 ], [ 17.28543592, 48.14387231 ], [ 17.28538999, 48.14381766 ], [ 17.28541043, 48.14381007 ], [ 17.2853501, 48.14373865 ], [ 17.2853298, 48.14374625 ], [ 17.28528373, 48.14369169 ], [ 17.28545493, 48.14362703 ], [ 17.28550344, 48.14368519 ], [ 17.28552906, 48.14367541 ], [ 17.28545607, 48.14358554 ] ] ] } },
{ "type": "Feature", "properties": { "@featureType": "CadastralParcel", "areaValue": { "value": 600, "@uom": "m2" }, "beginLifespanVersion": { "@nilReason": "http://inspire.ec.europa.eu/codelist/VoidReasonValue/Unpopulated", "@nil": "true" }, "endLifespanVersion": { "@nilReason": "http://inspire.ec.europa.eu/codelist/VoidReasonValue/Unpopulated", "@nil": "true" }, "inspireId": { "@dataType": "Identifier", "localId": "838527_1533/436.C", "namespace": "SK.ESKN.CP", "versionId": "20260703T05:07:56" }, "label": "1533/436", "nationalCadastralReference": "838527_1533/436.C", "referencePoint": { "type": "Point", "coordinates": [ 17.28413754, 48.14219146 ] }, "validFrom": "2026-06-30T16:00:00Z", "validTo": { "@nilReason": "http://inspire.ec.europa.eu/codelist/VoidReasonValue/Unpopulated", "@nil": "true" }, "administrativeUnit": { "@href": "#auAdmUnitS.1159" } }, "geometry": { "type": "Polygon", "coordinates": [ [ [ 17.28403193, 48.14233619 ], [ 17.28437715, 48.14220607 ], [ 17.28424315, 48.14204672 ], [ 17.28389793, 48.14217684 ], [ 17.28403193, 48.14233619 ] ] ] } },
{ "type": "Feature", "properties": { "@featureType": "CadastralParcel", "areaValue": { "value": 602, "@uom": "m2" }, "beginLifespanVersion": { "@nilReason": "http://inspire.ec.europa.eu/codelist/VoidReasonValue/Unpopulated", "@nil": "true" }, "endLifespanVersion": { "@nilReason": "http://inspire.ec.europa.eu/codelist/VoidReasonValue/Unpopulated", "@nil": "true" }, "inspireId": { "@dataType": "Identifier", "localId": "838527_1533/444.C", "namespace": "SK.ESKN.CP", "versionId": "20260703T05:07:56" }, "label": "1533/444", "nationalCadastralReference": "838527_1533/444.C", "referencePoint": { "type": "Point", "coordinates": [ 17.28285652, 48.14066849 ] }, "validFrom": "2026-06-30T16:00:00Z", "validTo": { "@nilReason": "http://inspire.ec.europa.eu/codelist/VoidReasonValue/Unpopulated", "@nil": "true" }, "administrativeUnit": { "@href": "#auAdmUnitS.1159" } }, "geometry": { "type": "Polygon", "coordinates": [ [ [ 17.28275118, 48.14081364 ], [ 17.28309642, 48.14068335 ], [ 17.28296209, 48.14052352 ], [ 17.28261662, 48.14065362 ], [ 17.28275118, 48.14081364 ] ] ] } },
{ "type": "Feature", "properties": { "@featureType": "CadastralParcel", "areaValue": { "value": 609, "@uom": "m2" }, "beginLifespanVersion": { "@nilReason": "http://inspire.ec.europa.eu/codelist/VoidReasonValue/Unpopulated", "@nil": "true" }, "endLifespanVersion": { "@nilReason": "http://inspire.ec.europa.eu/codelist/VoidReasonValue/Unpopulated", "@nil": "true" }, "inspireId": { "@dataType": "Identifier", "localId": "838527_1533/461.C", "namespace": "SK.ESKN.CP", "versionId": "20260703T05:07:56" }, "label": "1533/461", "nationalCadastralReference": "838527_1533/461.C", "referencePoint": { "type": "Point", "coordinates": [ 17.28316342, 48.14031229 ] }, "validFrom": "2026-06-30T16:00:00Z", "validTo": { "@nilReason": "http://inspire.ec.europa.eu/codelist/VoidReasonValue/Unpopulated", "@nil": "true" }, "administrativeUnit": { "@href": "#auAdmUnitS.1159" } }, "geometry": { "type": "Polygon", "coordinates": [ [ [ 17.28326618, 48.14016584 ], [ 17.28292383, 48.14029488 ], [ 17.2830614, 48.14045835 ], [ 17.28340288, 48.14032971 ], [ 17.28326618, 48.14016584 ] ] ] } },
{ "type": "Feature", "properties": { "@featureType": "CadastralParcel", "areaValue": { "value": 604, "@uom": "m2" }, "beginLifespanVersion": { "@nilReason": "http://inspire.ec.europa.eu/codelist/VoidReasonValue/Unpopulated", "@nil": "true" }, "endLifespanVersion": { "@nilReason": "http://inspire.ec.europa.eu/codelist/VoidReasonValue/Unpopulated", "@nil": "true" }, "inspireId": { "@dataType": "Identifier", "localId": "838527_1533/475.C", "namespace": "SK.ESKN.CP", "versionId": "20260703T05:07:56" }, "label": "1533/475", "nationalCadastralReference": "838527_1533/475.C", "referencePoint": { "type": "Point", "coordinates": [ 17.28515036, 48.14267448 ] }, "validFrom": "2026-06-30T16:00:00Z", "validTo": { "@nilReason": "http://inspire.ec.europa.eu/codelist/VoidReasonValue/Unpopulated", "@nil": "true" }, "administrativeUnit": { "@href": "#auAdmUnitS.1159" } }, "geometry": { "type": "Polygon", "coordinates": [ [ [ 17.28525212, 48.14252922 ], [ 17.28491134, 48.14265764 ], [ 17.28504799, 48.14282006 ], [ 17.28538949, 48.14269132 ], [ 17.28525212, 48.14252922 ] ] ] } },
{ "type": "Feature", "properties": { "@featureType": "CadastralParcel", "areaValue": { "value": 425, "@uom": "m2" }, "beginLifespanVersion": { "@nilReason": "http://inspire.ec.europa.eu/codelist/VoidReasonValue/Unpopulated", "@nil": "true" }, "endLifespanVersion": { "@nilReason": "http://inspire.ec.europa.eu/codelist/VoidReasonValue/Unpopulated", "@nil": "true" }, "inspireId": { "@dataType": "Identifier", "localId": "838527_1533/479.C", "namespace": "SK.ESKN.CP", "versionId": "20260703T05:07:56" }, "label": "1533/479", "nationalCadastralReference": "838527_1533/479.C", "referencePoint": { "type": "Point", "coordinates": [ 17.28581784, 48.14328108 ] }, "validFrom": "2026-06-30T16:00:00Z", "validTo": { "@nilReason": "http://inspire.ec.europa.eu/codelist/VoidReasonValue/Unpopulated", "@nil": "true" }, "administrativeUnit": { "@href": "#auAdmUnitS.1159" } }, "geometry": { "type": "Polygon", "coordinates": [ [ [ 17.28572898, 48.14309546 ], [ 17.28538775, 48.14322413 ], [ 17.28540498, 48.14324461 ], [ 17.28546746, 48.1432211 ], [ 17.28552588, 48.14328895 ], [ 17.2855512, 48.14327942 ], [ 17.28550226, 48.14322142 ], [ 17.28567347, 48.14315667 ], [ 17.28571953, 48.14321132 ], [ 17.28569922, 48.14321901 ], [ 17.28575954, 48.14329043 ], [ 17.28577972, 48.14328273 ], [ 17.28582578, 48.14333738 ], [ 17.28565431, 48.14340202 ], [ 17.28561181, 48.14335158 ], [ 17.28559679, 48.14335727 ], [ 17.28555094, 48.14330308 ], [ 17.28553991, 48.14330732 ], [ 17.28564004, 48.14342638 ], [ 17.28557769, 48.1434499 ], [ 17.28559194, 48.14346675 ], [ 17.28593201, 48.14333855 ], [ 17.28579667, 48.1431764 ], [ 17.28572898, 48.14309546 ] ] ] } },
{ "type": "Feature", "properties": { "@featureType": "CadastralParcel", "areaValue": { "value": 427, "@uom": "m2" }, "beginLifespanVersion": { "@nilReason": "http://inspire.ec.europa.eu/codelist/VoidReasonValue/Unpopulated", "@nil": "true" }, "endLifespanVersion": { "@nilReason": "http://inspire.ec.europa.eu/codelist/VoidReasonValue/Unpopulated", "@nil": "true" }, "inspireId": { "@dataType": "Identifier", "localId": "838527_1533/477.C", "namespace": "SK.ESKN.CP", "versionId": "20260703T05:07:56" }, "label": "1533/477", "nationalCadastralReference": "838527_1533/477.C", "referencePoint": { "type": "Point", "coordinates": [ 17.2856045, 48.14302676 ] }, "validFrom": "2026-06-30T16:00:00Z", "validTo": { "@nilReason": "http://inspire.ec.europa.eu/codelist/VoidReasonValue/Unpopulated", "@nil": "true" }, "administrativeUnit": { "@href": "#auAdmUnitS.1159" } }, "geometry": { "type": "Polygon", "coordinates": [ [ [ 17.28518382, 48.14298161 ], [ 17.28520276, 48.14300419 ], [ 17.28526526, 48.14298059 ], [ 17.28532354, 48.14304853 ], [ 17.28534871, 48.14303899 ], [ 17.28529991, 48.14298099 ], [ 17.28547111, 48.14291633 ], [ 17.28551718, 48.1429709 ], [ 17.28549685, 48.14297868 ], [ 17.28555704, 48.14305009 ], [ 17.28557736, 48.14304239 ], [ 17.28562343, 48.14309696 ], [ 17.28545195, 48.14316169 ], [ 17.28540959, 48.14311126 ], [ 17.2853943, 48.14311693 ], [ 17.28534871, 48.14306276 ], [ 17.28533771, 48.14306682 ], [ 17.28543796, 48.14318598 ], [ 17.28537547, 48.14320949 ], [ 17.28538775, 48.14322413 ], [ 17.28572898, 48.14309546 ], [ 17.28566142, 48.14301453 ], [ 17.28552973, 48.14285687 ], [ 17.28552617, 48.14285265 ], [ 17.28518382, 48.14298161 ] ] ] } },
{ "type": "Feature", "properties": { "@featureType": "CadastralParcel", "areaValue": { "value": 420, "@uom": "m2" }, "beginLifespanVersion": { "@nilReason": "http://inspire.ec.europa.eu/codelist/VoidReasonValue/Unpopulated", "@nil": "true" }, "endLifespanVersion": { "@nilReason": "http://inspire.ec.europa.eu/codelist/VoidReasonValue/Unpopulated", "@nil": "true" }, "inspireId": { "@dataType": "Identifier", "localId": "838527_1533/431.C", "namespace": "SK.ESKN.CP", "versionId": "20260703T05:07:56" }, "label": "1533/431", "nationalCadastralReference": "838527_1533/431.C", "referencePoint": { "type": "Point", "coordinates": [ 17.28468395, 48.14302898 ] }, "validFrom": "2026-06-30T16:00:00Z", "validTo": { "@nilReason": "http://inspire.ec.europa.eu/codelist/VoidReasonValue/Unpopulated", "@nil": "true" }, "administrativeUnit": { "@href": "#auAdmUnitS.1159" } }, "geometry": { "type": "Polygon", "coordinates": [ [ [ 17.28493901, 48.14297343 ], [ 17.28492857, 48.14297735 ], [ 17.28497443, 48.14303154 ], [ 17.28495913, 48.1430373 ], [ 17.28500176, 48.14308775 ], [ 17.28483029, 48.14315239 ], [ 17.28478422, 48.14309782 ], [ 17.28480466, 48.14309014 ], [ 17.28474448, 48.14301874 ], [ 17.28472403, 48.14302642 ], [ 17.2846781, 48.14297177 ], [ 17.2848493, 48.14290712 ], [ 17.28489839, 48.14296504 ], [ 17.28492541, 48.14295491 ], [ 17.28487591, 48.14289614 ], [ 17.28493797, 48.14287278 ], [ 17.28491397, 48.14284425 ], [ 17.28456888, 48.14297438 ], [ 17.28470288, 48.14313373 ], [ 17.28477018, 48.14321366 ], [ 17.28505306, 48.14310697 ], [ 17.28493901, 48.14297343 ] ] ] } },
{ "type": "Feature", "properties": { "@featureType": "CadastralParcel", "areaValue": { "value": 425, "@uom": "m2" }, "beginLifespanVersion": { "@nilReason": "http://inspire.ec.europa.eu/codelist/VoidReasonValue/Unpopulated", "@nil": "true" }, "endLifespanVersion": { "@nilReason": "http://inspire.ec.europa.eu/codelist/VoidReasonValue/Unpopulated", "@nil": "true" }, "inspireId": { "@dataType": "Identifier", "localId": "838527_1533/429.C", "namespace": "SK.ESKN.CP", "versionId": "20260703T05:07:56" }, "label": "1533/429", "nationalCadastralReference": "838527_1533/429.C", "referencePoint": { "type": "Point", "coordinates": [ 17.28489942, 48.14328493 ] }, "validFrom": "2026-06-30T16:00:00Z", "validTo": { "@nilReason": "http://inspire.ec.europa.eu/codelist/VoidReasonValue/Unpopulated", "@nil": "true" }, "administrativeUnit": { "@href": "#auAdmUnitS.1159" } }, "geometry": { "type": "Polygon", "coordinates": [ [ [ 17.2852177, 48.14320527 ], [ 17.28520519, 48.14319034 ], [ 17.2851314, 48.14321817 ], [ 17.28517573, 48.14327081 ], [ 17.28516044, 48.14327648 ], [ 17.28520293, 48.14332701 ], [ 17.28503147, 48.14339156 ], [ 17.28498555, 48.14333692 ], [ 17.28500613, 48.14332924 ], [ 17.2849458, 48.14325783 ], [ 17.28492537, 48.14326542 ], [ 17.28487958, 48.14321078 ], [ 17.28505089, 48.14314632 ], [ 17.28509984, 48.14320424 ], [ 17.28512531, 48.14319454 ], [ 17.28511841, 48.1431864 ], [ 17.28518245, 48.14316335 ], [ 17.28516476, 48.14314239 ], [ 17.2851027, 48.14316575 ], [ 17.28505306, 48.14310697 ], [ 17.28477018, 48.14321366 ], [ 17.28483724, 48.14329338 ], [ 17.28497136, 48.14345283 ], [ 17.2852545, 48.14334625 ], [ 17.28515563, 48.14322872 ], [ 17.2852177, 48.14320527 ] ] ] } },
{ "type": "Feature", "properties": { "@featureType": "CadastralParcel", "areaValue": { "value": 425, "@uom": "m2" }, "beginLifespanVersion": { "@nilReason": "http://inspire.ec.europa.eu/codelist/VoidReasonValue/Unpopulated", "@nil": "true" }, "endLifespanVersion": { "@nilReason": "http://inspire.ec.europa.eu/codelist/VoidReasonValue/Unpopulated", "@nil": "true" }, "inspireId": { "@dataType": "Identifier", "localId": "838527_1533/428.C", "namespace": "SK.ESKN.CP", "versionId": "20260703T05:07:56" }, "label": "1533/428", "nationalCadastralReference": "838527_1533/428.C", "referencePoint": { "type": "Point", "coordinates": [ 17.28509819, 48.14352121 ] }, "validFrom": "2026-06-30T16:00:00Z", "validTo": { "@nilReason": "http://inspire.ec.europa.eu/codelist/VoidReasonValue/Unpopulated", "@nil": "true" }, "administrativeUnit": { "@href": "#auAdmUnitS.1159" } }, "geometry": { "type": "Polygon", "coordinates": [ [ [ 17.2852545, 48.14334625 ], [ 17.28497136, 48.14345283 ], [ 17.28510561, 48.14361238 ], [ 17.28517337, 48.14369287 ], [ 17.28545607, 48.14358554 ], [ 17.28540632, 48.14352666 ], [ 17.28546851, 48.14350331 ], [ 17.28545082, 48.14348235 ], [ 17.28543945, 48.14346885 ], [ 17.28537739, 48.14349221 ], [ 17.28534304, 48.14345143 ], [ 17.28533146, 48.14345582 ], [ 17.28537704, 48.14351008 ], [ 17.28536188, 48.14351576 ], [ 17.28540438, 48.14356621 ], [ 17.28523278, 48.14363084 ], [ 17.28518685, 48.14357619 ], [ 17.28520728, 48.1435686 ], [ 17.28514724, 48.14349711 ], [ 17.28512681, 48.1435047 ], [ 17.28508088, 48.14345006 ], [ 17.28525219, 48.14338559 ], [ 17.28530114, 48.14344351 ], [ 17.28532661, 48.14343381 ], [ 17.2852545, 48.14334625 ] ] ] } },
{ "type": "Feature", "properties": { "@featureType": "CadastralParcel", "areaValue": { "value": 464, "@uom": "m2" }, "beginLifespanVersion": { "@nilReason": "http://inspire.ec.europa.eu/codelist/VoidReasonValue/Unpopulated", "@nil": "true" }, "endLifespanVersion": { "@nilReason": "http://inspire.ec.europa.eu/codelist/VoidReasonValue/Unpopulated", "@nil": "true" }, "inspireId": { "@dataType": "Identifier", "localId": "838527_1533/446.C", "namespace": "SK.ESKN.CP", "versionId": "20260703T05:07:56" }, "label": "1533/446", "nationalCadastralReference": "838527_1533/446.C", "referencePoint": { "type": "Point", "coordinates": [ 17.28245791, 48.14034867 ] }, "validFrom": "2026-06-30T16:00:00Z", "validTo": { "@nilReason": "http://inspire.ec.europa.eu/codelist/VoidReasonValue/Unpopulated", "@nil": "true" }, "administrativeUnit": { "@href": "#auAdmUnitS.1159" } }, "geometry": { "type": "Polygon", "coordinates": [ [ [ 17.28269306, 48.14020375 ], [ 17.28234747, 48.14033375 ], [ 17.28248204, 48.14049369 ], [ 17.28282752, 48.14036359 ], [ 17.28269306, 48.14020375 ] ], [ [ 17.2827441, 48.14037433 ], [ 17.28261768, 48.14042207 ], [ 17.28253303, 48.14032165 ], [ 17.28265958, 48.14027401 ], [ 17.2827441, 48.14037433 ] ] ] } },
{ "type": "Feature", "properties": { "@featureType": "CadastralParcel", "areaValue": { "value": 464, "@uom": "m2" }, "beginLifespanVersion": { "@nilReason": "http://inspire.ec.europa.eu/codelist/VoidReasonValue/Unpopulated", "@nil": "true" }, "endLifespanVersion": { "@nilReason": "http://inspire.ec.europa.eu/codelist/VoidReasonValue/Unpopulated", "@nil": "true" }, "inspireId": { "@dataType": "Identifier", "localId": "838527_1533/448.C", "namespace": "SK.ESKN.CP", "versionId": "20260703T05:07:56" }, "label": "1533/448", "nationalCadastralReference": "838527_1533/448.C", "referencePoint": { "type": "Point", "coordinates": [ 17.28218886, 48.14002905 ] }, "validFrom": "2026-06-30T16:00:00Z", "validTo": { "@nilReason": "http://inspire.ec.europa.eu/codelist/VoidReasonValue/Unpopulated", "@nil": "true" }, "administrativeUnit": { "@href": "#auAdmUnitS.1159" } }, "geometry": { "type": "Polygon", "coordinates": [ [ [ 17.28242417, 48.13988399 ], [ 17.28207868, 48.14001417 ], [ 17.28221326, 48.14017411 ], [ 17.28255861, 48.14004392 ], [ 17.28242417, 48.13988399 ] ], [ [ 17.28247493, 48.14005464 ], [ 17.28234862, 48.14010247 ], [ 17.28226393, 48.14000233 ], [ 17.28239024, 48.13995449 ], [ 17.28247493, 48.14005464 ] ] ] } },
{ "type": "Feature", "properties": { "@featureType": "CadastralParcel", "areaValue": { "value": 800, "@uom": "m2" }, "beginLifespanVersion": { "@nilReason": "http://inspire.ec.europa.eu/codelist/VoidReasonValue/Unpopulated", "@nil": "true" }, "endLifespanVersion": { "@nilReason": "http://inspire.ec.europa.eu/codelist/VoidReasonValue/Unpopulated", "@nil": "true" }, "inspireId": { "@dataType": "Identifier", "localId": "838527_1533/424.C", "namespace": "SK.ESKN.CP", "versionId": "20260703T05:07:56" }, "label": "1533/424", "nationalCadastralReference": "838527_1533/424.C", "referencePoint": { "type": "Point", "coordinates": [ 17.28588594, 48.14427002 ] }, "validFrom": "2026-06-30T16:00:00Z", "validTo": { "@nilReason": "http://inspire.ec.europa.eu/codelist/VoidReasonValue/Unpopulated", "@nil": "true" }, "administrativeUnit": { "@href": "#auAdmUnitS.1159" } }, "geometry": { "type": "Polygon", "coordinates": [ [ [ 17.28607765, 48.14431916 ], [ 17.28614574, 48.14440013 ], [ 17.28620409, 48.14437815 ], [ 17.28605863, 48.14420493 ], [ 17.28600065, 48.14413593 ], [ 17.28594202, 48.14415798 ], [ 17.28590402, 48.14411272 ], [ 17.28561727, 48.14422087 ], [ 17.28571304, 48.14433476 ], [ 17.28579115, 48.14442742 ], [ 17.28607765, 48.14431916 ] ] ] } },
{ "type": "Feature", "properties": { "@featureType": "CadastralParcel", "areaValue": { "value": 462, "@uom": "m2" }, "beginLifespanVersion": { "@nilReason": "http://inspire.ec.europa.eu/codelist/VoidReasonValue/Unpopulated", "@nil": "true" }, "endLifespanVersion": { "@nilReason": "http://inspire.ec.europa.eu/codelist/VoidReasonValue/Unpopulated", "@nil": "true" }, "inspireId": { "@dataType": "Identifier", "localId": "838527_1533/450.C", "namespace": "SK.ESKN.CP", "versionId": "20260703T05:07:56" }, "label": "1533/450", "nationalCadastralReference": "838527_1533/450.C", "referencePoint": { "type": "Point", "coordinates": [ 17.28192027, 48.13970942 ] }, "validFrom": "2026-06-30T16:00:00Z", "validTo": { "@nilReason": "http://inspire.ec.europa.eu/codelist/VoidReasonValue/Unpopulated", "@nil": "true" }, "administrativeUnit": { "@href": "#auAdmUnitS.1159" } }, "geometry": { "type": "Polygon", "coordinates": [ [ [ 17.28215525, 48.13956441 ], [ 17.28180978, 48.1396945 ], [ 17.28194412, 48.13985415 ], [ 17.28228969, 48.13972433 ], [ 17.28215525, 48.13956441 ] ], [ [ 17.28207942, 48.13978296 ], [ 17.28199551, 48.13968214 ], [ 17.28212265, 48.13963418 ], [ 17.28220667, 48.13973519 ], [ 17.28207942, 48.13978296 ] ] ] } },
{ "type": "Feature", "properties": { "@featureType": "CadastralParcel", "areaValue": { "value": 426, "@uom": "m2" }, "beginLifespanVersion": { "@nilReason": "http://inspire.ec.europa.eu/codelist/VoidReasonValue/Unpopulated", "@nil": "true" }, "endLifespanVersion": { "@nilReason": "http://inspire.ec.europa.eu/codelist/VoidReasonValue/Unpopulated", "@nil": "true" }, "inspireId": { "@dataType": "Identifier", "localId": "838527_1533/482.C", "namespace": "SK.ESKN.CP", "versionId": "20260703T05:07:56" }, "label": "1533/482", "nationalCadastralReference": "838527_1533/482.C", "referencePoint": { "type": "Point", "coordinates": [ 17.28620293, 48.14374046 ] }, "validFrom": "2026-06-30T16:00:00Z", "validTo": { "@nilReason": "http://inspire.ec.europa.eu/codelist/VoidReasonValue/Unpopulated", "@nil": "true" }, "administrativeUnit": { "@href": "#auAdmUnitS.1159" } }, "geometry": { "type": "Polygon", "coordinates": [ [ [ 17.28613598, 48.1435827 ], [ 17.28579678, 48.14371042 ], [ 17.28579919, 48.14371329 ], [ 17.28586096, 48.14369009 ], [ 17.28593663, 48.14377734 ], [ 17.2859621, 48.14376764 ], [ 17.28591329, 48.14370964 ], [ 17.28608463, 48.14364499 ], [ 17.28613057, 48.14369955 ], [ 17.28611024, 48.14370733 ], [ 17.2861703, 48.14377873 ], [ 17.28619076, 48.14377096 ], [ 17.28623682, 48.14382561 ], [ 17.28606534, 48.14389034 ], [ 17.28602299, 48.14383982 ], [ 17.28600769, 48.14384558 ], [ 17.2859621, 48.14379141 ], [ 17.28595024, 48.14379578 ], [ 17.28603395, 48.14389531 ], [ 17.28597203, 48.14391868 ], [ 17.28597306, 48.14391992 ], [ 17.2860129, 48.14393991 ], [ 17.28606216, 48.14393468 ], [ 17.28634202, 48.14382924 ], [ 17.28629416, 48.14377211 ], [ 17.286204, 48.14366411 ], [ 17.28613598, 48.1435827 ] ] ] } },
{ "type": "Feature", "properties": { "@featureType": "CadastralParcel", "areaValue": { "value": 427, "@uom": "m2" }, "beginLifespanVersion": { "@nilReason": "http://inspire.ec.europa.eu/codelist/VoidReasonValue/Unpopulated", "@nil": "true" }, "endLifespanVersion": { "@nilReason": "http://inspire.ec.europa.eu/codelist/VoidReasonValue/Unpopulated", "@nil": "true" }, "inspireId": { "@dataType": "Identifier", "localId": "838527_1533/480.C", "namespace": "SK.ESKN.CP", "versionId": "20260703T05:07:56" }, "label": "1533/480", "nationalCadastralReference": "838527_1533/480.C", "referencePoint": { "type": "Point", "coordinates": [ 17.28602158, 48.14352418 ] }, "validFrom": "2026-06-30T16:00:00Z", "validTo": { "@nilReason": "http://inspire.ec.europa.eu/codelist/VoidReasonValue/Unpopulated", "@nil": "true" }, "administrativeUnit": { "@href": "#auAdmUnitS.1159" } }, "geometry": { "type": "Polygon", "coordinates": [ [ [ 17.28593201, 48.14333855 ], [ 17.28559194, 48.14346675 ], [ 17.28560963, 48.14348772 ], [ 17.28567169, 48.14346436 ], [ 17.28573039, 48.14353214 ], [ 17.28575572, 48.14352252 ], [ 17.28570691, 48.14346452 ], [ 17.28587824, 48.14339987 ], [ 17.28592418, 48.14345443 ], [ 17.28590387, 48.14346212 ], [ 17.28596405, 48.14353362 ], [ 17.28598438, 48.14352584 ], [ 17.28603044, 48.14358049 ], [ 17.28585896, 48.14364522 ], [ 17.2858166, 48.1435947 ], [ 17.2858013, 48.14360046 ], [ 17.28575571, 48.14354629 ], [ 17.28574384, 48.14355075 ], [ 17.28584398, 48.1436698 ], [ 17.2857822, 48.14369309 ], [ 17.28579678, 48.14371042 ], [ 17.28613598, 48.1435827 ], [ 17.28606783, 48.14350118 ], [ 17.28593201, 48.14333855 ] ] ] } },
{ "type": "Feature", "properties": { "@featureType": "CadastralParcel", "areaValue": { "value": 206, "@uom": "m2" }, "beginLifespanVersion": { "@nilReason": "http://inspire.ec.europa.eu/codelist/VoidReasonValue/Unpopulated", "@nil": "true" }, "endLifespanVersion": { "@nilReason": "http://inspire.ec.europa.eu/codelist/VoidReasonValue/Unpopulated", "@nil": "true" }, "inspireId": { "@dataType": "Identifier", "localId": "838527_1533/485.C", "namespace": "SK.ESKN.CP", "versionId": "20260703T05:07:56" }, "label": "1533/485", "nationalCadastralReference": "838527_1533/485.C", "referencePoint": { "type": "Point", "coordinates": [ 17.28663644, 48.14444036 ] }, "validFrom": "2026-06-30T16:00:00Z", "validTo": { "@nilReason": "http://inspire.ec.europa.eu/codelist/VoidReasonValue/Unpopulated", "@nil": "true" }, "administrativeUnit": { "@href": "#auAdmUnitS.1159" } }, "geometry": { "type": "Polygon", "coordinates": [ [ [ 17.28682276, 48.14440405 ], [ 17.28677962, 48.14435248 ], [ 17.28650218, 48.14445709 ], [ 17.28647874, 48.14442933 ], [ 17.28642024, 48.14445139 ], [ 17.28648685, 48.14453054 ], [ 17.28682276, 48.14440405 ] ] ] } },
{ "type": "Feature", "properties": { "@featureType": "CadastralParcel", "areaValue": { "value": 800, "@uom": "m2" }, "beginLifespanVersion": { "@nilReason": "http://inspire.ec.europa.eu/codelist/VoidReasonValue/Unpopulated", "@nil": "true" }, "endLifespanVersion": { "@nilReason": "http://inspire.ec.europa.eu/codelist/VoidReasonValue/Unpopulated", "@nil": "true" }, "inspireId": { "@dataType": "Identifier", "localId": "838527_1533/484.C", "namespace": "SK.ESKN.CP", "versionId": "20260703T05:07:56" }, "label": "1533/484", "nationalCadastralReference": "838527_1533/484.C", "referencePoint": { "type": "Point", "coordinates": [ 17.28652022, 48.14430713 ] }, "validFrom": "2026-06-30T16:00:00Z", "validTo": { "@nilReason": "http://inspire.ec.europa.eu/codelist/VoidReasonValue/Unpopulated", "@nil": "true" }, "administrativeUnit": { "@href": "#auAdmUnitS.1159" } }, "geometry": { "type": "Polygon", "coordinates": [ [ [ 17.28650218, 48.14445709 ], [ 17.28677962, 48.14435248 ], [ 17.28668346, 48.14423757 ], [ 17.28659189, 48.14412821 ], [ 17.28631373, 48.14423304 ], [ 17.28631924, 48.14423964 ], [ 17.2862606, 48.14426179 ], [ 17.28634696, 48.14436439 ], [ 17.28642024, 48.14445139 ], [ 17.28647874, 48.14442933 ], [ 17.28650218, 48.14445709 ] ] ] } },
{ "type": "Feature", "properties": { "@featureType": "CadastralParcel", "areaValue": { "value": 806, "@uom": "m2" }, "beginLifespanVersion": { "@nilReason": "http://inspire.ec.europa.eu/codelist/VoidReasonValue/Unpopulated", "@nil": "true" }, "endLifespanVersion": { "@nilReason": "http://inspire.ec.europa.eu/codelist/VoidReasonValue/Unpopulated", "@nil": "true" }, "inspireId": { "@dataType": "Identifier", "localId": "838527_1533/483.C", "namespace": "SK.ESKN.CP", "versionId": "20260703T05:07:56" }, "label": "1533/483", "nationalCadastralReference": "838527_1533/483.C", "referencePoint": { "type": "Point", "coordinates": [ 17.28634719, 48.14410085 ] }, "validFrom": "2026-06-30T16:00:00Z", "validTo": { "@nilReason": "http://inspire.ec.europa.eu/codelist/VoidReasonValue/Unpopulated", "@nil": "true" }, "administrativeUnit": { "@href": "#auAdmUnitS.1159" } }, "geometry": { "type": "Polygon", "coordinates": [ [ [ 17.28659189, 48.14412821 ], [ 17.28654624, 48.14407349 ], [ 17.28640765, 48.14390769 ], [ 17.28612535, 48.14401406 ], [ 17.28609535, 48.14403982 ], [ 17.28610122, 48.1440722 ], [ 17.28620917, 48.14420054 ], [ 17.2862606, 48.14426179 ], [ 17.28631924, 48.14423964 ], [ 17.28631373, 48.14423304 ], [ 17.28659189, 48.14412821 ] ] ] } },
{ "type": "Feature", "properties": { "@featureType": "CadastralParcel", "areaValue": { "value": 800, "@uom": "m2" }, "beginLifespanVersion": { "@nilReason": "http://inspire.ec.europa.eu/codelist/VoidReasonValue/Unpopulated", "@nil": "true" }, "endLifespanVersion": { "@nilReason": "http://inspire.ec.europa.eu/codelist/VoidReasonValue/Unpopulated", "@nil": "true" }, "inspireId": { "@dataType": "Identifier", "localId": "838527_1533/425.C", "namespace": "SK.ESKN.CP", "versionId": "20260703T05:07:56" }, "label": "1533/425", "nationalCadastralReference": "838527_1533/425.C", "referencePoint": { "type": "Point", "coordinates": [ 17.28572523, 48.14407901 ] }, "validFrom": "2026-06-30T16:00:00Z", "validTo": { "@nilReason": "http://inspire.ec.europa.eu/codelist/VoidReasonValue/Unpopulated", "@nil": "true" }, "administrativeUnit": { "@href": "#auAdmUnitS.1159" } }, "geometry": { "type": "Polygon", "coordinates": [ [ [ 17.28590402, 48.14411272 ], [ 17.28594202, 48.14415798 ], [ 17.28600065, 48.14413593 ], [ 17.28592439, 48.1440453 ], [ 17.28581989, 48.14392107 ], [ 17.28577998, 48.14390062 ], [ 17.28573033, 48.14390583 ], [ 17.28544302, 48.14401412 ], [ 17.28557867, 48.14417512 ], [ 17.28561727, 48.14422087 ], [ 17.28590402, 48.14411272 ] ] ] } },
{ "type": "Feature", "properties": { "@featureType": "CadastralParcel", "areaValue": { "value": 236, "@uom": "m2" }, "beginLifespanVersion": { "@nilReason": "http://inspire.ec.europa.eu/codelist/VoidReasonValue/Unpopulated", "@nil": "true" }, "endLifespanVersion": { "@nilReason": "http://inspire.ec.europa.eu/codelist/VoidReasonValue/Unpopulated", "@nil": "true" }, "inspireId": { "@dataType": "Identifier", "localId": "838527_1533/413.C", "namespace": "SK.ESKN.CP", "versionId": "20260703T05:07:56" }, "label": "1533/413", "nationalCadastralReference": "838527_1533/413.C", "referencePoint": { "type": "Point", "coordinates": [ 17.2860411, 48.14435964 ] }, "validFrom": "2026-06-30T16:00:00Z", "validTo": { "@nilReason": "http://inspire.ec.europa.eu/codelist/VoidReasonValue/Unpopulated", "@nil": "true" }, "administrativeUnit": { "@href": "#auAdmUnitS.1159" } }, "geometry": { "type": "Polygon", "coordinates": [ [ [ 17.28614574, 48.14440013 ], [ 17.28607765, 48.14431916 ], [ 17.28579115, 48.14442742 ], [ 17.28582791, 48.14447106 ], [ 17.28593872, 48.14447777 ], [ 17.28614574, 48.14440013 ] ] ] } }
]
}
