{
"type": "FeatureCollection",
"name": "gis",
"crs": { "type": "name", "properties": { "name": "urn:ogc:def:crs:OGC:1.3:CRS84" } },
"features": [
{ "type": "Feature", "properties": { "@featureType": "CadastralParcel", "areaValue": { "value": 35272, "@uom": "m2" }, "beginLifespanVersion": { "@nilReason": "http://inspire.ec.europa.eu/codelist/VoidReasonValue/Unpopulated", "@nil": "true" }, "endLifespanVersion": { "@nilReason": "http://inspire.ec.europa.eu/codelist/VoidReasonValue/Unpopulated", "@nil": "true" }, "inspireId": { "@dataType": "Identifier", "localId": "872563_1237.C", "namespace": "SK.ESKN.CP", "versionId": "20261005T07:10:10" }, "label": "1237", "nationalCadastralReference": "872563_1237.C", "referencePoint": { "type": "Point", "coordinates": [ 19.92012445, 48.84887024 ] }, "validFrom": "2026-09-30T16:00:00Z", "validTo": { "@nilReason": "http://inspire.ec.europa.eu/codelist/VoidReasonValue/Unpopulated", "@nil": "true" }, "administrativeUnit": { "@href": "#auAdmUnitS.2730" } }, "geometry": { "type": "Polygon", "coordinates": [ [ [ 19.9101795, 48.8467958 ], [ 19.90948677, 48.84670393 ], [ 19.90895971, 48.84662981 ], [ 19.90824212, 48.84675225 ], [ 19.90776328, 48.84692141 ], [ 19.90742265, 48.84704977 ], [ 19.90676318, 48.84739501 ], [ 19.90648396, 48.84742424 ], [ 19.9064606, 48.84742856 ], [ 19.90643515, 48.84743334 ], [ 19.90567053, 48.84751555 ], [ 19.90555102, 48.84755643 ], [ 19.90548856, 48.8475654 ], [ 19.90549259, 48.84758296 ], [ 19.90550342, 48.84763146 ], [ 19.90553285, 48.84776221 ], [ 19.90553634, 48.84780201 ], [ 19.90556415, 48.84779823 ], [ 19.90562004, 48.84779078 ], [ 19.90660747, 48.84765856 ], [ 19.90669715, 48.84759875 ], [ 19.90680451, 48.84760809 ], [ 19.90722604, 48.84747921 ], [ 19.90766877, 48.84732338 ], [ 19.90757065, 48.84735633 ], [ 19.90754003, 48.8473161 ], [ 19.90753079, 48.84726389 ], [ 19.90776266, 48.8471419 ], [ 19.9078687, 48.84714668 ], [ 19.90809863, 48.84707255 ], [ 19.90824206, 48.84695861 ], [ 19.9084476, 48.84691057 ], [ 19.90867886, 48.84685641 ], [ 19.90904623, 48.84685148 ], [ 19.90931103, 48.84688048 ], [ 19.9097168, 48.84692845 ], [ 19.90973275, 48.84700149 ], [ 19.90963256, 48.84698714 ], [ 19.90959649, 48.84699164 ], [ 19.90972694, 48.84701908 ], [ 19.91006922, 48.84699704 ], [ 19.91053673, 48.84705871 ], [ 19.91093416, 48.84717832 ], [ 19.91128761, 48.84731057 ], [ 19.9120156, 48.84758435 ], [ 19.91238881, 48.84770581 ], [ 19.91248371, 48.8477367 ], [ 19.91254948, 48.84775814 ], [ 19.91260268, 48.84777545 ], [ 19.91268721, 48.84779355 ], [ 19.91306132, 48.84787368 ], [ 19.91319615, 48.84789689 ], [ 19.9132316, 48.84790299 ], [ 19.91345964, 48.84794214 ], [ 19.91428647, 48.8481435 ], [ 19.91509883, 48.84836019 ], [ 19.91547792, 48.84845648 ], [ 19.91556777, 48.84848173 ], [ 19.91566, 48.84831992 ], [ 19.91593388, 48.84819402 ], [ 19.91627524, 48.8482642 ], [ 19.91656577, 48.84840197 ], [ 19.91671386, 48.8483886 ], [ 19.91685998, 48.84842066 ], [ 19.91693408, 48.84842254 ], [ 19.91703079, 48.84842502 ], [ 19.91714572, 48.84843242 ], [ 19.91760403, 48.84855802 ], [ 19.91789391, 48.84872072 ], [ 19.91824754, 48.84888512 ], [ 19.9185675, 48.84885535 ], [ 19.91868642, 48.84884426 ], [ 19.91901107, 48.84881404 ], [ 19.91948672, 48.8487924 ], [ 19.91951909, 48.84880071 ], [ 19.91976336, 48.84883593 ], [ 19.92023295, 48.84898453 ], [ 19.92024169, 48.84898733 ], [ 19.92052116, 48.84907758 ], [ 19.9207952, 48.84916336 ], [ 19.92102663, 48.84926031 ], [ 19.92130005, 48.84943383 ], [ 19.92141779, 48.84943486 ], [ 19.92144553, 48.84947677 ], [ 19.92154106, 48.84982542 ], [ 19.92166637, 48.85006025 ], [ 19.92179618, 48.85029231 ], [ 19.92193626, 48.85048478 ], [ 19.92197351, 48.85048789 ], [ 19.92197892, 48.8505348 ], [ 19.9220576, 48.85062717 ], [ 19.92217937, 48.85080013 ], [ 19.92240527, 48.8509036 ], [ 19.92266921, 48.85102022 ], [ 19.92318888, 48.85112325 ], [ 19.92322152, 48.85112598 ], [ 19.92324232, 48.85105819 ], [ 19.92326515, 48.85098346 ], [ 19.92327179, 48.85096157 ], [ 19.92323754, 48.85095706 ], [ 19.92284001, 48.85088714 ], [ 19.92261437, 48.85080774 ], [ 19.92228994, 48.85061665 ], [ 19.92217153, 48.85050737 ], [ 19.92219475, 48.85032623 ], [ 19.92213878, 48.85027132 ], [ 19.92199249, 48.85016788 ], [ 19.92189362, 48.84999112 ], [ 19.92181036, 48.84982376 ], [ 19.92180172, 48.84981006 ], [ 19.92177147, 48.84976165 ], [ 19.92175586, 48.84973684 ], [ 19.92173986, 48.84956304 ], [ 19.92163847, 48.84944313 ], [ 19.92162831, 48.84943107 ], [ 19.92159546, 48.84939111 ], [ 19.92159449, 48.8493899 ], [ 19.9215683, 48.84936157 ], [ 19.92147154, 48.84925717 ], [ 19.92121407, 48.84914425 ], [ 19.92091617, 48.84900763 ], [ 19.92056766, 48.84890986 ], [ 19.92047605, 48.84889426 ], [ 19.92030077, 48.84885169 ], [ 19.92005625, 48.84879383 ], [ 19.91999158, 48.84875964 ], [ 19.91993058, 48.84875363 ], [ 19.9197647, 48.84870848 ], [ 19.91957784, 48.84868388 ], [ 19.91954153, 48.84867532 ], [ 19.91898992, 48.84866653 ], [ 19.91872447, 48.84866239 ], [ 19.91856364, 48.84865792 ], [ 19.91830766, 48.84868275 ], [ 19.91802543, 48.84852416 ], [ 19.91771197, 48.84837074 ], [ 19.91759083, 48.84833172 ], [ 19.91739195, 48.8483213 ], [ 19.9170839, 48.84831148 ], [ 19.91700541, 48.8482776 ], [ 19.91688675, 48.84823129 ], [ 19.91686505, 48.8482228 ], [ 19.91671325, 48.84816355 ], [ 19.91648039, 48.84802661 ], [ 19.91635029, 48.84802911 ], [ 19.91600975, 48.84800665 ], [ 19.9158175, 48.84799398 ], [ 19.91580916, 48.84799408 ], [ 19.91579564, 48.84799414 ], [ 19.91564187, 48.84800131 ], [ 19.91558243, 48.84799618 ], [ 19.91538597, 48.8479791 ], [ 19.91479088, 48.84797377 ], [ 19.91459548, 48.84797376 ], [ 19.91429126, 48.84797374 ], [ 19.91400878, 48.84775484 ], [ 19.91364085, 48.84775004 ], [ 19.91347214, 48.84774378 ], [ 19.91336901, 48.84774003 ], [ 19.9131462, 48.84768083 ], [ 19.91308816, 48.84766413 ], [ 19.91297488, 48.84763138 ], [ 19.91290046, 48.84761318 ], [ 19.91277533, 48.84758155 ], [ 19.91272635, 48.84755027 ], [ 19.91265597, 48.8475089 ], [ 19.91263491, 48.84750359 ], [ 19.91257456, 48.84748823 ], [ 19.91245441, 48.8474405 ], [ 19.91233308, 48.84739227 ], [ 19.91226735, 48.84736614 ], [ 19.91202812, 48.84723171 ], [ 19.9118744, 48.84717968 ], [ 19.91153788, 48.84708239 ], [ 19.91081625, 48.84695631 ], [ 19.9101795, 48.8467958 ] ] ] } }
]
}
