{
"type": "FeatureCollection",
"name": "gis",
"crs": { "type": "name", "properties": { "name": "urn:ogc:def:crs:OGC:1.3:CRS84" } },
"features": [
{ "type": "Feature", "properties": { "@featureType": "CadastralZoning", "beginLifespanVersion": { "@nilReason": "http://inspire.ec.europa.eu/codelist/VoidReasonValue/Unpopulated", "@nil": "true" }, "endLifespanVersion": { "@nilReason": "http://inspire.ec.europa.eu/codelist/VoidReasonValue/Unpopulated", "@nil": "true" }, "estimatedAccuracy": { "value": -1, "@uom": "m" }, "inspireId": { "@dataType": "Identifier", "localId": "859079", "namespace": "SK.ESKN.CP", "versionId": "20260703T04:07:40" }, "label": "Stretavka", "level": { "@href": "http://inspire.ec.europa.eu/codelist/CadastralZoningLevelValue/3rdOrder" }, "levelName": { "value": "Katastrálne územie", "@locale": "sk" }, "name_1": { "@dataType": "name", "GeographicalName": { "@dataType": "GeographicalName", "language": "SLK", "nativeness": { "@href": "http://inspire.ec.europa.eu/codelist/NativenessValue/endonym", "@title": "endonym" }, "nameStatus": { "@href": "http://inspire.ec.europa.eu/codelist/NameStatusValue/official", "@title": "official" }, "sourceOfName": { "@nilReason": "http://inspire.ec.europa.eu/codelist/VoidReasonValue/Unpopulated", "@nil": "true" }, "pronunciation": { "@dataType": "pronunciation", "@nilReason": "http://inspire.ec.europa.eu/codelist/VoidReasonValue/Unpopulated", "@nil": "true" }, "spelling": { "@dataType": "SpellingOfName", "text": "Stretavka", "script": "LATN" } } }, "nationalCadastalZoningReference": "859079", "validFrom": "2026-06-30T16:00:00Z", "validTo": { "@nilReason": "http://inspire.ec.europa.eu/codelist/VoidReasonValue/Unpopulated", "@nil": "true" }, "place_id": 189118747, "osm_type": "way", "osm_id": 1076403924, "place_rank": 25, "category": "boundary", "type": "protected_area", "importance": 0.26362243234793048, "addresstype": "protected_area", "name_2": "Stretavka", "display_name": "Stretavka, okres Michalovce, Košický kraj, Slovensko" }, "geometry": { "type": "Polygon", "coordinates": [ [ [ 22.00229897, 48.60609172 ], [ 22.002342112556132, 48.60607429674652 ], [ 22.004018, 48.6053916 ], [ 22.0040927, 48.6053508 ], [ 22.00410535, 48.605326 ], [ 22.00414378, 48.60527682 ], [ 22.00410894, 48.60528091 ], [ 22.00404051, 48.60528896 ], [ 22.003986547704685, 48.605293116458341 ], [ 22.002953694896078, 48.605400285004222 ], [ 22.00284929, 48.60541142 ], [ 22.00281283287897, 48.60540668243214 ], [ 22.000649017048524, 48.605132615320208 ], [ 22.00062605, 48.60512979 ], [ 21.9998001, 48.60501441 ], [ 21.99945784, 48.60494662 ], [ 21.99886046, 48.60478168 ], [ 21.99835967, 48.60453963 ], [ 21.998111544870458, 48.604364476930996 ], [ 21.9979404, 48.6042437 ], [ 21.997726447479131, 48.604021079396169 ], [ 21.99748131, 48.60376607 ], [ 21.997332545797828, 48.603451903341792 ], [ 21.9972885, 48.6033589 ], [ 21.997288460290484, 48.603358823995912 ], [ 21.99700244, 48.60283492 ], [ 21.99694747, 48.60272809 ], [ 21.99624097, 48.60135406 ], [ 21.99563076, 48.60075392 ], [ 21.99525285, 48.60047978 ], [ 21.9943553, 48.59993026 ], [ 21.994348926292879, 48.599926975444561 ], [ 21.99145785147719, 48.59846433669049 ], [ 21.99145601, 48.59846341 ], [ 21.99144765845347, 48.598459417006282 ], [ 21.990245658402312, 48.597885475635309 ], [ 21.99003299, 48.59817442 ], [ 21.99002682, 48.59818282 ], [ 21.99005348, 48.59829318 ], [ 21.99016805, 48.59876758 ], [ 21.99017038, 48.59880103 ], [ 21.99017981, 48.59927266 ], [ 21.99016436, 48.59934761 ], [ 21.990119751875273, 48.599470436087977 ], [ 21.9896392, 48.6007955 ], [ 21.988605382722088, 48.601941296914475 ], [ 21.98858953, 48.60195896 ], [ 21.988333930557332, 48.602263760246672 ], [ 21.9882867, 48.6023201 ], [ 21.9882521, 48.6025672 ], [ 21.988382, 48.6027987 ], [ 21.988416661615826, 48.602808766113093 ], [ 21.98867322, 48.60288303 ], [ 21.989309190406381, 48.602810072316579 ], [ 21.9893721, 48.6028028 ], [ 21.9902681, 48.6026541 ], [ 21.990268106452934, 48.602654100588879 ], [ 21.99026811, 48.6026541 ], [ 21.990274284127629, 48.602654664344534 ], [ 21.9907908, 48.6027018 ], [ 21.991035577746434, 48.602850715609563 ], [ 21.99112535, 48.60290531 ], [ 21.991182452640974, 48.603059758675862 ], [ 21.9911838, 48.6030634 ], [ 21.991183799684766, 48.603063402099814 ], [ 21.99118381, 48.60306343 ], [ 21.991142105089629, 48.603341133236746 ], [ 21.9911062, 48.6035803 ], [ 21.991106183692992, 48.60358032540924 ], [ 21.99110618, 48.60358035 ], [ 21.99076668, 48.60412097 ], [ 21.990517515394586, 48.604497666725869 ], [ 21.99055465309867, 48.604658635341487 ], [ 21.99061384, 48.60491503 ], [ 21.99074156, 48.60532198 ], [ 21.990741681195146, 48.605322391530777 ], [ 21.9907425, 48.605325 ], [ 21.99074246431249, 48.605325050687462 ], [ 21.99074247, 48.60532507 ], [ 21.990739604008308, 48.605329113216939 ], [ 21.9906214, 48.605497 ], [ 21.990943, 48.6055601 ], [ 21.9909793, 48.6051794 ], [ 21.9907939, 48.6044864 ], [ 21.9914259, 48.6033688 ], [ 21.9913706, 48.6029486 ], [ 21.9912211, 48.6027415 ], [ 21.990679, 48.6025197 ], [ 21.9896273, 48.6025781 ], [ 21.9890725, 48.6027315 ], [ 21.9887065, 48.6027193 ], [ 21.9885564, 48.6025627 ], [ 21.9885059, 48.6023311 ], [ 21.9897317, 48.6009606 ], [ 21.9899717, 48.6006224 ], [ 21.9904551, 48.5993818 ], [ 21.990408, 48.5988729 ], [ 21.992137, 48.5997184 ], [ 21.9943874, 48.6010984 ], [ 21.9944782, 48.601307 ], [ 21.9943429, 48.6019606 ], [ 21.9940574, 48.6023249 ], [ 21.9930363, 48.6030171 ], [ 21.9926753, 48.6035252 ], [ 21.9925915, 48.6039445 ], [ 21.9927737, 48.6048776 ], [ 21.9930671, 48.6059179 ], [ 21.9933595, 48.6067173 ], [ 21.9936939, 48.6071431 ], [ 21.9941778, 48.6081099 ], [ 21.9942582, 48.6081036 ], [ 21.9943028, 48.6082351 ], [ 21.9943254, 48.6082536 ], [ 21.9944701, 48.6082261 ], [ 21.9944625, 48.608135 ], [ 21.9944345, 48.608135 ], [ 21.9944123, 48.6080693 ], [ 21.9944981, 48.6080559 ], [ 21.9943263, 48.6076403 ], [ 21.9943331, 48.6075872 ], [ 21.9946185, 48.6077608 ], [ 21.9948461, 48.6079473 ], [ 21.9949367, 48.6081485 ], [ 21.9959353, 48.6080094 ], [ 21.9958432, 48.6079812 ], [ 21.9953561, 48.608001 ], [ 21.9951692, 48.6077106 ], [ 21.9954255, 48.607713 ], [ 21.9955115, 48.6077458 ], [ 21.9955293, 48.6078163 ], [ 21.9955621, 48.6078117 ], [ 21.9955858, 48.6079203 ], [ 21.9957817, 48.6079144 ], [ 21.9957235, 48.6077108 ], [ 21.9955433, 48.6075991 ], [ 21.9954478, 48.607577 ], [ 21.9949339, 48.6075911 ], [ 21.9947444, 48.6075053 ], [ 21.9944746, 48.6073534 ], [ 21.9939061, 48.6066452 ], [ 21.9937128, 48.6060055 ], [ 21.9932549, 48.6047677 ], [ 21.9931614, 48.6045813 ], [ 21.9930465, 48.603951 ], [ 21.9931293, 48.6035317 ], [ 21.9934626, 48.603142 ], [ 21.9944272, 48.6024735 ], [ 21.9947504, 48.6020891 ], [ 21.9949096, 48.6014254 ], [ 21.994859, 48.6012123 ], [ 21.995324, 48.6017519 ], [ 21.9957979, 48.602599 ], [ 21.996368, 48.6038002 ], [ 21.9967065, 48.6042829 ], [ 21.9971084, 48.60466 ], [ 21.9975262, 48.6049868 ], [ 21.998071, 48.6052768 ], [ 21.9986307, 48.6055084 ], [ 21.9992271, 48.6056618 ], [ 21.9998185, 48.6057522 ], [ 22.0012524, 48.6059194 ], [ 22.0022989, 48.6060919 ], [ 22.002298946155832, 48.606091881197763 ], [ 22.00229897, 48.60609172 ] ] ] } },
{ "type": "Feature", "properties": { "@featureType": "CadastralZoning", "beginLifespanVersion": { "@nilReason": "http://inspire.ec.europa.eu/codelist/VoidReasonValue/Unpopulated", "@nil": "true" }, "endLifespanVersion": { "@nilReason": "http://inspire.ec.europa.eu/codelist/VoidReasonValue/Unpopulated", "@nil": "true" }, "estimatedAccuracy": { "value": -1, "@uom": "m" }, "inspireId": { "@dataType": "Identifier", "localId": "859079", "namespace": "SK.ESKN.CP", "versionId": "20260703T04:07:40" }, "label": "Stretavka", "level": { "@href": "http://inspire.ec.europa.eu/codelist/CadastralZoningLevelValue/3rdOrder" }, "levelName": { "value": "Katastrálne územie", "@locale": "sk" }, "name_1": { "@dataType": "name", "GeographicalName": { "@dataType": "GeographicalName", "language": "SLK", "nativeness": { "@href": "http://inspire.ec.europa.eu/codelist/NativenessValue/endonym", "@title": "endonym" }, "nameStatus": { "@href": "http://inspire.ec.europa.eu/codelist/NameStatusValue/official", "@title": "official" }, "sourceOfName": { "@nilReason": "http://inspire.ec.europa.eu/codelist/VoidReasonValue/Unpopulated", "@nil": "true" }, "pronunciation": { "@dataType": "pronunciation", "@nilReason": "http://inspire.ec.europa.eu/codelist/VoidReasonValue/Unpopulated", "@nil": "true" }, "spelling": { "@dataType": "SpellingOfName", "text": "Stretavka", "script": "LATN" } } }, "nationalCadastalZoningReference": "859079", "validFrom": "2026-06-30T16:00:00Z", "validTo": { "@nilReason": "http://inspire.ec.europa.eu/codelist/VoidReasonValue/Unpopulated", "@nil": "true" }, "place_id": 418691979, "osm_type": "relation", "osm_id": 2386511, "place_rank": 22, "category": "place", "type": "cadastral_community", "importance": 0.10672343556878001, "addresstype": "cadastral_community", "name_2": "Stretavka", "display_name": "Stretavka, okres Michalovce, Košický kraj, 072 13, Slovensko" }, "geometry": { "type": "Polygon", "coordinates": [ [ [ 21.99357459, 48.63014426 ], [ 21.99360645, 48.63008907 ], [ 21.99311341, 48.62941297 ], [ 21.993132703155627, 48.629414307124087 ], [ 21.9931246, 48.6294032 ], [ 21.998464193622929, 48.629773097199319 ], [ 21.99763453, 48.6285548 ], [ 21.99658474, 48.6265531 ], [ 21.996597518028874, 48.626546485952019 ], [ 21.9965959, 48.6265434 ], [ 21.998987939555203, 48.625304681207858 ], [ 21.99847598, 48.62479473 ], [ 21.998490447027571, 48.624788431130405 ], [ 21.9984873, 48.6247853 ], [ 21.998705503359751, 48.624694796706514 ], [ 21.99983516, 48.62420295 ], [ 22.000274289260883, 48.62404411794985 ], [ 22.000363084970534, 48.62400728852532 ], [ 22.00030986, 48.62392354 ], [ 22.00030073, 48.62390955 ], [ 21.99883717, 48.62165024 ], [ 21.99863141, 48.62125812 ], [ 21.99835979, 48.62018079 ], [ 21.99832344, 48.62003671 ], [ 21.9980696, 48.61902992 ], [ 21.997995485718835, 48.618725574424531 ], [ 21.996414155594014, 48.612559877638539 ], [ 21.99623403, 48.61191148 ], [ 21.99600692, 48.61148706 ], [ 21.99567081, 48.61113359 ], [ 21.99535251, 48.6105732 ], [ 21.9951566, 48.60959544 ], [ 21.99512419, 48.6092865 ], [ 21.99536386, 48.60887093 ], [ 21.99540278, 48.60880349 ], [ 21.99546904, 48.60868866 ], [ 21.99550722, 48.60850565 ], [ 21.995516698112986, 48.608504209345412 ], [ 21.9955183, 48.6084965 ], [ 21.996268918228093, 48.608381973899917 ], [ 21.99625614, 48.60828564 ], [ 21.996269110306919, 48.608288500719596 ], [ 21.9962675, 48.6082763 ], [ 21.996645, 48.6083586 ], [ 22.002275592887443, 48.610659443281563 ], [ 22.00233217, 48.61059834 ], [ 22.00235353, 48.61057537 ], [ 22.00238833, 48.6105378 ], [ 22.00199491, 48.60814616 ], [ 22.00208367, 48.60754698 ], [ 22.00210651, 48.60739284 ], [ 22.00229897, 48.60609172 ], [ 22.002309356659293, 48.606087525315822 ], [ 22.0023101, 48.6060825 ], [ 22.004110577237093, 48.605319310551124 ], [ 22.00414378, 48.60527682 ], [ 22.00410894, 48.60528091 ], [ 22.00404051, 48.60528896 ], [ 22.00398027, 48.6052936 ], [ 22.00382508, 48.60530735 ], [ 22.00284929, 48.60541142 ], [ 22.00167583, 48.60525893 ], [ 22.00062605, 48.60512979 ], [ 21.9998001, 48.60501441 ], [ 21.99945784, 48.60494662 ], [ 21.99886046, 48.60478168 ], [ 21.99835967, 48.60453963 ], [ 21.99794045, 48.6042437 ], [ 21.99748131, 48.60376607 ], [ 21.997288933734684, 48.603359801505889 ], [ 21.997287954802928, 48.603357898093236 ], [ 21.99700244, 48.60283492 ], [ 21.99694747, 48.60272809 ], [ 21.99624097, 48.60135406 ], [ 21.99563076, 48.60075392 ], [ 21.995416793316434, 48.60059870625431 ], [ 21.994860601062872, 48.600239627767891 ], [ 21.9943553, 48.59993026 ], [ 21.99380862, 48.59964854 ], [ 21.992963346983018, 48.59922241993614 ], [ 21.99099777014397, 48.598244318977805 ], [ 21.9903971, 48.59795713 ], [ 21.990249329132848, 48.597886492707836 ], [ 21.9900441, 48.5981653 ], [ 21.9901794, 48.5987582 ], [ 21.990191, 48.5992636 ], [ 21.99016883288343, 48.599325911449 ], [ 21.99016436, 48.59934761 ], [ 21.990005766538868, 48.599784288621372 ], [ 21.9896503, 48.6007835 ], [ 21.9882981, 48.6023105 ], [ 21.9882633, 48.6025572 ], [ 21.9883932, 48.6027888 ], [ 21.9886845, 48.6028736 ], [ 21.9902794, 48.6026438 ], [ 21.990802, 48.6026928 ], [ 21.9911365, 48.6028957 ], [ 21.9911949, 48.6030534 ], [ 21.9911172, 48.6035713 ], [ 21.990868034826075, 48.603959572515251 ], [ 21.99076668, 48.60412097 ], [ 21.990692265803535, 48.604233472271815 ], [ 21.9905288, 48.6044882 ], [ 21.9907538, 48.6053151 ], [ 21.99056, 48.6055892 ], [ 21.990555006514697, 48.605589535364935 ], [ 21.99054873, 48.60559839 ], [ 21.99014376, 48.60562568 ], [ 21.98977068, 48.6055463 ], [ 21.98927064, 48.60545129 ], [ 21.98895727, 48.6054883 ], [ 21.98892941, 48.60550355 ], [ 21.98842716, 48.60577773 ], [ 21.988185972645187, 48.605909395040449 ], [ 21.9875786, 48.6065058 ], [ 21.987576240384097, 48.606506870761621 ], [ 21.98756755, 48.60651541 ], [ 21.987056760384156, 48.606746902619591 ], [ 21.9869081, 48.6069078 ], [ 21.9867326, 48.6074782 ], [ 21.986678961049297, 48.607550785482616 ], [ 21.98641215, 48.60794938 ], [ 21.986101264475764, 48.608332537997264 ], [ 21.9860656, 48.6083808 ], [ 21.985963832165265, 48.608549274590978 ], [ 21.98593821, 48.60859423 ], [ 21.98568161, 48.60904419 ], [ 21.985136231431088, 48.609919350858696 ], [ 21.9849661, 48.610201 ], [ 21.984647339808284, 48.610690619842465 ], [ 21.98461236, 48.61074522 ], [ 21.98376975, 48.61206071 ], [ 21.983699371956209, 48.612146710917969 ], [ 21.9836874, 48.6121651 ], [ 21.983685026654054, 48.612164240662864 ], [ 21.98367605, 48.61217521 ], [ 21.98338143, 48.61209244 ], [ 21.9831395, 48.6120044 ], [ 21.98279076, 48.61187754 ], [ 21.98216484, 48.61164989 ], [ 21.98213447, 48.61164203 ], [ 21.98201907, 48.61157501 ], [ 21.98181992, 48.6115566 ], [ 21.98168666, 48.61154422 ], [ 21.981344572671841, 48.611403429373922 ], [ 21.980503774813318, 48.611091526237821 ], [ 21.97979893, 48.61084371 ], [ 21.97970484, 48.61081771 ], [ 21.97851988, 48.61059585 ], [ 21.97803404, 48.61032727 ], [ 21.97797892, 48.61030107 ], [ 21.97746566, 48.60988313 ], [ 21.97741807, 48.60971807 ], [ 21.97728657, 48.60962131 ], [ 21.977101696540966, 48.609544710454635 ], [ 21.976427715542361, 48.609315961608608 ], [ 21.97631391, 48.60929074 ], [ 21.976227467008506, 48.609288779602707 ], [ 21.976013892630039, 48.609305596131676 ], [ 21.975922, 48.60931911 ], [ 21.97583489, 48.60932848 ], [ 21.975474904012156, 48.609539701689819 ], [ 21.9751512, 48.6099136 ], [ 21.9745614, 48.611204 ], [ 21.9745396, 48.6134488 ], [ 21.9747261, 48.6136977 ], [ 21.974709020511213, 48.613699666185823 ], [ 21.9747148, 48.61370737 ], [ 21.9746559, 48.61371203 ], [ 21.97440989, 48.6137424 ], [ 21.97405374, 48.61386543 ], [ 21.97367497, 48.61397566 ], [ 21.97343986, 48.6140413 ], [ 21.97334014, 48.61406475 ], [ 21.972980045132498, 48.614294841427778 ], [ 21.9726041, 48.6146362 ], [ 21.972603863281638, 48.614636308659215 ], [ 21.97259293, 48.61464626 ], [ 21.97235119, 48.61475736 ], [ 21.97185661, 48.61478606 ], [ 21.97150275, 48.61464185 ], [ 21.97135854, 48.61452003 ], [ 21.97113989, 48.61445494 ], [ 21.97081779, 48.61438297 ], [ 21.96993078, 48.61439808 ], [ 21.96922017, 48.61447163 ], [ 21.96839292, 48.61477241 ], [ 21.967954877788252, 48.615088950954089 ], [ 21.9678538, 48.615567 ], [ 21.9675385, 48.6162285 ], [ 21.9675695, 48.6164341 ], [ 21.9674439, 48.6166254 ], [ 21.967436289945457, 48.616629276649789 ], [ 21.96743263, 48.61663484 ], [ 21.96684289, 48.61693511 ], [ 21.96656816, 48.61698338 ], [ 21.966316175826424, 48.616979192294664 ], [ 21.965872463397918, 48.616987773027681 ], [ 21.96571549, 48.61700002 ], [ 21.965265, 48.61700927 ], [ 21.96482758, 48.61684973 ], [ 21.96439169, 48.61680246 ], [ 21.96425095, 48.61672292 ], [ 21.96418099, 48.61656531 ], [ 21.96367829, 48.61619914 ], [ 21.96324915, 48.61589563 ], [ 21.96271163, 48.61559338 ], [ 21.96253128, 48.61554697 ], [ 21.96222868, 48.61534874 ], [ 21.96207334, 48.61512412 ], [ 21.96211567, 48.61486508 ], [ 21.96205709, 48.61450616 ], [ 21.96193791, 48.61437432 ], [ 21.96188217, 48.61413822 ], [ 21.961878702224681, 48.614113078967456 ], [ 21.961831741362804, 48.613945199557847 ], [ 21.96182239, 48.61394243 ], [ 21.96181365, 48.61393123 ], [ 21.96169781, 48.61397812 ], [ 21.96149938, 48.61400451 ], [ 21.961244924836766, 48.614009976439434 ], [ 21.961212715894685, 48.614012841830842 ], [ 21.96103427, 48.61403759 ], [ 21.960889531086995, 48.614112827985487 ], [ 21.9598421, 48.6150046 ], [ 21.9584541, 48.616338 ], [ 21.9583813, 48.6164173 ], [ 21.9593535, 48.6168543 ], [ 21.9611904, 48.6168886 ], [ 21.9605542, 48.6181104 ], [ 21.96016, 48.6190153 ], [ 21.9633312, 48.6191782 ], [ 21.964758407727665, 48.619118014232278 ], [ 21.96611109, 48.61905258 ], [ 21.967946031692779, 48.618983591196411 ], [ 21.9700326, 48.6188956 ], [ 21.9702345, 48.6205555 ], [ 21.9767324, 48.6203596 ], [ 21.9776412, 48.6205296 ], [ 21.9770158, 48.6222431 ], [ 21.9775692, 48.6230241 ], [ 21.9778131, 48.6229108 ], [ 21.9782949, 48.6235639 ], [ 21.9785992, 48.6238246 ], [ 21.9785101, 48.6244153 ], [ 21.9782426, 48.6249362 ], [ 21.9787078, 48.6256811 ], [ 21.979276, 48.6263017 ], [ 21.9794482, 48.6265544 ], [ 21.9794709, 48.6266945 ], [ 21.9794087, 48.6268832 ], [ 21.979260750958588, 48.627009997041711 ], [ 21.97914034, 48.62711363 ], [ 21.9791325, 48.62711551 ], [ 21.97891236, 48.6271674 ], [ 21.97848351, 48.62726858 ], [ 21.97741647, 48.62748035 ], [ 21.97730086, 48.62750333 ], [ 21.97718018, 48.62752725 ], [ 21.97699675, 48.62761686 ], [ 21.97681346, 48.62770646 ], [ 21.976729, 48.62774776 ], [ 21.976722522559516, 48.627752020030961 ], [ 21.9763741, 48.6280185 ], [ 21.9765752, 48.6284138 ], [ 21.976734, 48.6285809 ], [ 21.9781528, 48.6287229 ], [ 21.9801883, 48.6290464 ], [ 21.9825636, 48.6296012 ], [ 21.987938576889288, 48.629915226829844 ], [ 21.98943877, 48.62999993 ], [ 21.98997829, 48.63003426 ], [ 21.989989717466496, 48.630035062354033 ], [ 21.9908496, 48.6300853 ], [ 21.993527793668683, 48.630225222769653 ], [ 21.99354092, 48.63020247 ], [ 21.99357459, 48.63014426 ] ] ] } }
]
}
