{
"type": "FeatureCollection",
"name": "gis",
"crs": { "type": "name", "properties": { "name": "urn:ogc:def:crs:OGC:1.3:CRS84" } },
"features": [
{ "type": "Feature", "properties": { "@featureType": "CadastralParcel", "areaValue": { "value": 4599510, "@uom": "m2" }, "beginLifespanVersion": { "@nilReason": "http://inspire.ec.europa.eu/codelist/VoidReasonValue/Unpopulated", "@nil": "true" }, "endLifespanVersion": { "@nilReason": "http://inspire.ec.europa.eu/codelist/VoidReasonValue/Unpopulated", "@nil": "true" }, "inspireId": { "@dataType": "Identifier", "localId": "824844_576/1.C", "namespace": "SK.ESKN.CP", "versionId": "20260703T05:07:38" }, "label": "576/1", "nationalCadastralReference": "824844_576/1.C", "referencePoint": { "type": "Point", "coordinates": [ 22.03454345, 48.80169488 ] }, "validFrom": "2026-06-30T16:00:00Z", "validTo": { "@nilReason": "http://inspire.ec.europa.eu/codelist/VoidReasonValue/Unpopulated", "@nil": "true" }, "administrativeUnit": { "@href": "#auAdmUnitS.273" } }, "geometry": { "type": "Polygon", "coordinates": [ [ [ 22.0281857, 48.80893026 ], [ 22.02832601, 48.8088127 ], [ 22.02835783, 48.80879664 ], [ 22.02836334, 48.80879552 ], [ 22.02838303, 48.80879167 ], [ 22.02835783, 48.80874247 ], [ 22.02832672, 48.80868179 ], [ 22.02861038, 48.80864509 ], [ 22.02875035, 48.80862697 ], [ 22.02878729, 48.8086733 ], [ 22.02898347, 48.8089194 ], [ 22.02924512, 48.80911515 ], [ 22.02925953, 48.80920171 ], [ 22.02938908, 48.80930797 ], [ 22.02942504, 48.80933755 ], [ 22.0294208, 48.80936255 ], [ 22.02941717, 48.80938379 ], [ 22.0293457, 48.80980555 ], [ 22.03042512, 48.80991263 ], [ 22.03077572, 48.80933149 ], [ 22.03094853, 48.80904509 ], [ 22.03095738, 48.80903045 ], [ 22.03095873, 48.80902824 ], [ 22.03100723, 48.80884367 ], [ 22.03101533, 48.808813 ], [ 22.03121215, 48.80868862 ], [ 22.03165358, 48.80841042 ], [ 22.03175617, 48.80816686 ], [ 22.03310465, 48.80836968 ], [ 22.03413561, 48.80852478 ], [ 22.0341307, 48.80894374 ], [ 22.03413042, 48.80896353 ], [ 22.03415737, 48.80957251 ], [ 22.03424604, 48.80958788 ], [ 22.03479224, 48.80971363 ], [ 22.03486454, 48.8097269 ], [ 22.03488697, 48.80973275 ], [ 22.03510268, 48.80978879 ], [ 22.03521496, 48.80981823 ], [ 22.03555482, 48.80987871 ], [ 22.0362288, 48.81002248 ], [ 22.03624394, 48.80992098 ], [ 22.036247, 48.80990026 ], [ 22.03625324, 48.80985884 ], [ 22.03625708, 48.80983364 ], [ 22.0363557, 48.80917343 ], [ 22.0369296, 48.80926646 ], [ 22.03741453, 48.80940395 ], [ 22.0377443, 48.80950162 ], [ 22.03860688, 48.80957325 ], [ 22.03878998, 48.80953896 ], [ 22.03891772, 48.80947095 ], [ 22.03907002, 48.8091925 ], [ 22.03919496, 48.80905171 ], [ 22.03930029, 48.80893303 ], [ 22.04010514, 48.80824825 ], [ 22.04030848, 48.80811861 ], [ 22.04068114, 48.80793276 ], [ 22.04084349, 48.80789167 ], [ 22.04092217, 48.80791022 ], [ 22.04101509, 48.80799164 ], [ 22.04101085, 48.80806848 ], [ 22.04083632, 48.80820691 ], [ 22.04088403, 48.8082805 ], [ 22.04131938, 48.80831663 ], [ 22.04158305, 48.80836527 ], [ 22.04179559, 48.80837758 ], [ 22.04214992, 48.80833877 ], [ 22.04232715, 48.80831937 ], [ 22.04236142, 48.80831561 ], [ 22.04252045, 48.80836443 ], [ 22.04273759, 48.80844164 ], [ 22.04353228, 48.80860744 ], [ 22.04392644, 48.80856293 ], [ 22.0442666, 48.808608 ], [ 22.04483571, 48.80883766 ], [ 22.04570629, 48.80908535 ], [ 22.04625262, 48.80925146 ], [ 22.04652236, 48.80933353 ], [ 22.04622072, 48.81010532 ], [ 22.04621405, 48.81012252 ], [ 22.04611906, 48.81036537 ], [ 22.04619961, 48.81036739 ], [ 22.04647092, 48.81037418 ], [ 22.046673, 48.81038111 ], [ 22.04675298, 48.81040589 ], [ 22.04680608, 48.81042633 ], [ 22.04687579, 48.81045194 ], [ 22.04709199, 48.81053155 ], [ 22.04724543, 48.81058806 ], [ 22.04724518, 48.81058014 ], [ 22.04723046, 48.81058032 ], [ 22.04722956, 48.81055214 ], [ 22.04724428, 48.81055195 ], [ 22.04724287, 48.81051079 ], [ 22.04724245, 48.81049611 ], [ 22.04732875, 48.81049522 ], [ 22.04732903, 48.81050989 ], [ 22.04732942, 48.81052997 ], [ 22.0473346, 48.81052991 ], [ 22.04733477, 48.81053918 ], [ 22.04732959, 48.81053924 ], [ 22.04733062, 48.8105875 ], [ 22.04724543, 48.81058806 ], [ 22.04740546, 48.81064356 ], [ 22.04748114, 48.81066976 ], [ 22.04751616, 48.81067222 ], [ 22.04751468, 48.81068173 ], [ 22.04756064, 48.81069822 ], [ 22.04766486, 48.81073555 ], [ 22.04773462, 48.81074055 ], [ 22.04774123, 48.81070211 ], [ 22.04778236, 48.81070489 ], [ 22.04777602, 48.81074335 ], [ 22.04776918, 48.81078845 ], [ 22.0477687, 48.81079212 ], [ 22.04778402, 48.81079609 ], [ 22.04785843, 48.81081552 ], [ 22.04794655, 48.81085579 ], [ 22.04797711, 48.81086975 ], [ 22.04818006, 48.81096254 ], [ 22.04831324, 48.81102333 ], [ 22.04843379, 48.81107842 ], [ 22.04844269, 48.8110825 ], [ 22.04847473, 48.8111019 ], [ 22.0484862, 48.81110883 ], [ 22.0484995, 48.81111725 ], [ 22.04850371, 48.81111996 ], [ 22.04861178, 48.81118897 ], [ 22.04868048, 48.81123291 ], [ 22.04885962, 48.81134736 ], [ 22.04887936, 48.81135998 ], [ 22.04894386, 48.81140121 ], [ 22.04902797, 48.81145488 ], [ 22.04907877, 48.81148742 ], [ 22.04908851, 48.81149368 ], [ 22.0491463, 48.81153052 ], [ 22.04917189, 48.81157064 ], [ 22.04919722, 48.81161049 ], [ 22.04921578, 48.81163964 ], [ 22.04931196, 48.81179097 ], [ 22.04936463, 48.81187376 ], [ 22.0493936, 48.81191927 ], [ 22.04944978, 48.81200764 ], [ 22.04945166, 48.81201065 ], [ 22.04948502, 48.81206311 ], [ 22.04959617, 48.81204382 ], [ 22.04965768, 48.81219872 ], [ 22.04977275, 48.81208855 ], [ 22.04981532, 48.81202055 ], [ 22.05001865, 48.81207672 ], [ 22.05011542, 48.81210343 ], [ 22.0503224, 48.81212792 ], [ 22.05031542, 48.81243084 ], [ 22.04998594, 48.81246828 ], [ 22.04986771, 48.81247256 ], [ 22.04972185, 48.81243414 ], [ 22.04979048, 48.81254144 ], [ 22.05027958, 48.81269364 ], [ 22.05038838, 48.81254858 ], [ 22.05116126, 48.81151912 ], [ 22.05166056, 48.81093528 ], [ 22.05197351, 48.81054872 ], [ 22.052073, 48.81039705 ], [ 22.05218572, 48.81022508 ], [ 22.05222394, 48.81016688 ], [ 22.05237205, 48.80994096 ], [ 22.05225994, 48.80910498 ], [ 22.05234485, 48.80898553 ], [ 22.05251299, 48.80881408 ], [ 22.05290399, 48.80864078 ], [ 22.05255373, 48.80789898 ], [ 22.05202878, 48.80738605 ], [ 22.05183544, 48.80703676 ], [ 22.05148841, 48.80623654 ], [ 22.05126561, 48.80607642 ], [ 22.05087752, 48.80251931 ], [ 22.05069761, 48.80087045 ], [ 22.05053791, 48.80000902 ], [ 22.05022825, 48.79880294 ], [ 22.04960291, 48.79627814 ], [ 22.04830914, 48.79639781 ], [ 22.04678473, 48.79632745 ], [ 22.04653493, 48.79626295 ], [ 22.04467864, 48.79282124 ], [ 22.04123897, 48.79278256 ], [ 22.03512546, 48.7917866 ], [ 22.02750816, 48.79053975 ], [ 22.02174724, 48.7895678 ], [ 22.01999013, 48.79610609 ], [ 22.01883161, 48.8004165 ], [ 22.01752472, 48.80355531 ], [ 22.01728918, 48.80412085 ], [ 22.0167095, 48.80524479 ], [ 22.01521007, 48.80815195 ], [ 22.01479311, 48.80896028 ], [ 22.01478182, 48.80898205 ], [ 22.01458309, 48.8093676 ], [ 22.01453589, 48.80945914 ], [ 22.01452398, 48.80948216 ], [ 22.01453495, 48.80966673 ], [ 22.0145358, 48.8096834 ], [ 22.01454191, 48.80974735 ], [ 22.01471171, 48.80982257 ], [ 22.01491036, 48.80974667 ], [ 22.01508727, 48.80965999 ], [ 22.01517817, 48.80961549 ], [ 22.01520452, 48.80959993 ], [ 22.01541018, 48.80947885 ], [ 22.01552906, 48.80942379 ], [ 22.01592175, 48.80920538 ], [ 22.01593364, 48.80918767 ], [ 22.0165882, 48.80883452 ], [ 22.01669, 48.80884158 ], [ 22.01715463, 48.80886546 ], [ 22.01722196, 48.80886502 ], [ 22.01727352, 48.80889093 ], [ 22.01732132, 48.80890595 ], [ 22.01824882, 48.80917899 ], [ 22.01826922, 48.80917967 ], [ 22.01829296, 48.80918403 ], [ 22.01871512, 48.8093297 ], [ 22.01896296, 48.80941527 ], [ 22.01900013, 48.80942814 ], [ 22.01903756, 48.80944102 ], [ 22.01920854, 48.80950006 ], [ 22.01920725, 48.80952072 ], [ 22.01926656, 48.80953953 ], [ 22.0197845, 48.80960699 ], [ 22.01985146, 48.80961572 ], [ 22.01989737, 48.80962313 ], [ 22.01993267, 48.80962786 ], [ 22.02015488, 48.80965745 ], [ 22.02029635, 48.80967627 ], [ 22.0203449, 48.80968276 ], [ 22.02045864, 48.80969794 ], [ 22.02050275, 48.8097134 ], [ 22.02145217, 48.81001179 ], [ 22.02151677, 48.81003351 ], [ 22.0234644, 48.80990909 ], [ 22.02474219, 48.80980496 ], [ 22.02477156, 48.8098036 ], [ 22.02528166, 48.809767 ], [ 22.02534767, 48.80976329 ], [ 22.02581091, 48.80970935 ], [ 22.02662755, 48.80967314 ], [ 22.02769931, 48.80970185 ], [ 22.02775546, 48.80970906 ], [ 22.0277745, 48.80970952 ], [ 22.02781159, 48.80970412 ], [ 22.02784157, 48.80970394 ], [ 22.02777602, 48.8092201 ], [ 22.02793641, 48.80906227 ], [ 22.02802888, 48.80909744 ], [ 22.02806058, 48.80905394 ], [ 22.02810571, 48.8090067 ], [ 22.02815478, 48.80895965 ], [ 22.0281857, 48.80893026 ], [ 22.02807296, 48.80892654 ], [ 22.0280784, 48.80886521 ], [ 22.02811243, 48.80886585 ], [ 22.02815326, 48.80886666 ], [ 22.02818946, 48.80886735 ], [ 22.0281857, 48.80893026 ] ], [ [ 22.03507309, 48.80971528 ], [ 22.03499414, 48.80970915 ], [ 22.03499907, 48.80968164 ], [ 22.03507774, 48.80968786 ], [ 22.03507309, 48.80971528 ] ], [ [ 22.0351742, 48.8097323 ], [ 22.03509415, 48.80971885 ], [ 22.03510435, 48.80969219 ], [ 22.03518468, 48.80970546 ], [ 22.0351742, 48.8097323 ] ], [ [ 22.04927609, 48.81170741 ], [ 22.04928381, 48.81165864 ], [ 22.04933084, 48.81166076 ], [ 22.04937692, 48.81166276 ], [ 22.04937304, 48.8117109 ], [ 22.04927609, 48.81170741 ] ], [ [ 22.0495052, 48.81165162 ], [ 22.0495179, 48.81161647 ], [ 22.04952395, 48.81160294 ], [ 22.04956855, 48.81160959 ], [ 22.04961682, 48.81161642 ], [ 22.04960343, 48.81166172 ], [ 22.0495052, 48.81165162 ] ], [ [ 22.0227615, 48.80985265 ], [ 22.02267015, 48.80984387 ], [ 22.02268693, 48.80978227 ], [ 22.02277982, 48.80979019 ], [ 22.0227615, 48.80985265 ] ], [ [ 22.04879116, 48.81106117 ], [ 22.04870066, 48.81104685 ], [ 22.04872111, 48.8109848 ], [ 22.04881229, 48.81099914 ], [ 22.04879116, 48.81106117 ] ], [ [ 22.04833409, 48.81089452 ], [ 22.04833053, 48.81095922 ], [ 22.048238, 48.810957 ], [ 22.0482402, 48.81089226 ], [ 22.04833409, 48.81089452 ] ], [ [ 22.02265638, 48.80975337 ], [ 22.02265342, 48.80982124 ], [ 22.02256089, 48.80981917 ], [ 22.02256173, 48.80975251 ], [ 22.02265638, 48.80975337 ] ], [ [ 22.02303123, 48.80963502 ], [ 22.02307185, 48.809485 ], [ 22.02323549, 48.80950436 ], [ 22.02323224, 48.80951634 ], [ 22.02330924, 48.80952576 ], [ 22.0233143, 48.80950833 ], [ 22.02339836, 48.8095182 ], [ 22.02342238, 48.8094413 ], [ 22.02351646, 48.80945492 ], [ 22.02353354, 48.80940737 ], [ 22.02353853, 48.80939354 ], [ 22.02363823, 48.80939406 ], [ 22.02363219, 48.80941957 ], [ 22.02362101, 48.80946627 ], [ 22.02379212, 48.80949111 ], [ 22.02382102, 48.80946877 ], [ 22.02421823, 48.80949477 ], [ 22.02419841, 48.80961866 ], [ 22.02380334, 48.80959334 ], [ 22.0237674, 48.80957312 ], [ 22.02369624, 48.80978 ], [ 22.02357136, 48.80976662 ], [ 22.02355, 48.80986428 ], [ 22.02320341, 48.80988837 ], [ 22.02325375, 48.80973256 ], [ 22.02306682, 48.80970797 ], [ 22.02308483, 48.80964136 ], [ 22.02303123, 48.80963502 ] ] ] } }
]
}
