{
"type": "FeatureCollection",
"name": "gis",
"crs": { "type": "name", "properties": { "name": "urn:ogc:def:crs:OGC:1.3:CRS84" } },
"features": [
{ "type": "Feature", "properties": { "@featureType": "CadastralParcel", "areaValue": { "value": 8615, "@uom": "m2" }, "beginLifespanVersion": { "@nilReason": "http://inspire.ec.europa.eu/codelist/VoidReasonValue/Unpopulated", "@nil": "true" }, "endLifespanVersion": { "@nilReason": "http://inspire.ec.europa.eu/codelist/VoidReasonValue/Unpopulated", "@nil": "true" }, "inspireId": { "@dataType": "Identifier", "localId": "808393_1757/1.C", "namespace": "SK.ESKN.CP", "versionId": "20260703T05:07:11" }, "label": "1757/1", "nationalCadastralReference": "808393_1757/1.C", "referencePoint": { "type": "Point", "coordinates": [ 18.79649395, 49.43382027 ] }, "validFrom": "2026-06-30T16:00:00Z", "validTo": { "@nilReason": "http://inspire.ec.europa.eu/codelist/VoidReasonValue/Unpopulated", "@nil": "true" }, "administrativeUnit": { "@href": "#auAdmUnitS.444" } }, "geometry": { "type": "Polygon", "coordinates": [ [ [ 18.79769522, 49.43152191 ], [ 18.79786038, 49.43144969 ], [ 18.7980915, 49.43134443 ], [ 18.79813206, 49.43132578 ], [ 18.79812102, 49.43131421 ], [ 18.79807525, 49.43125818 ], [ 18.79806636, 49.43124708 ], [ 18.79794485, 49.43122729 ], [ 18.7977591, 49.43129483 ], [ 18.79772713, 49.43130645 ], [ 18.7976659, 49.43134262 ], [ 18.79767768, 49.43135161 ], [ 18.79768796, 49.43135692 ], [ 18.79769924, 49.43136201 ], [ 18.79771133, 49.43136607 ], [ 18.79772442, 49.43136872 ], [ 18.79773805, 49.43136925 ], [ 18.79775159, 49.43136823 ], [ 18.79776933, 49.43136445 ], [ 18.79778955, 49.43136081 ], [ 18.79764393, 49.43142474 ], [ 18.79758307, 49.43145443 ], [ 18.79752389, 49.43148638 ], [ 18.79745033, 49.4315285 ], [ 18.79745811, 49.43151447 ], [ 18.79745809, 49.43150554 ], [ 18.79745284, 49.43149751 ], [ 18.7974313, 49.43148125 ], [ 18.79729262, 49.43156313 ], [ 18.79710045, 49.43172821 ], [ 18.79706603, 49.43173491 ], [ 18.79702126, 49.43181108 ], [ 18.79700908, 49.43183174 ], [ 18.79678993, 49.43207904 ], [ 18.79677563, 49.43210004 ], [ 18.79669875, 49.43226204 ], [ 18.79667669, 49.43236418 ], [ 18.79665328, 49.43245579 ], [ 18.79664928, 49.43247173 ], [ 18.79663285, 49.43253195 ], [ 18.79664714, 49.43253503 ], [ 18.79663136, 49.43260367 ], [ 18.79661375, 49.43269873 ], [ 18.79661129, 49.43271223 ], [ 18.79658733, 49.43284268 ], [ 18.79655542, 49.43301701 ], [ 18.79651257, 49.43324508 ], [ 18.79644738, 49.43359367 ], [ 18.79636684, 49.43403239 ], [ 18.7963004, 49.43434674 ], [ 18.79627104, 49.43446013 ], [ 18.79622655, 49.43458646 ], [ 18.79610511, 49.43484106 ], [ 18.7959343, 49.43505225 ], [ 18.79589415, 49.43510276 ], [ 18.79577582, 49.43521527 ], [ 18.79563371, 49.43533224 ], [ 18.79542013, 49.43550262 ], [ 18.79536509, 49.43554479 ], [ 18.79524272, 49.43562787 ], [ 18.79518925, 49.43565136 ], [ 18.79514944, 49.43567168 ], [ 18.79494361, 49.4357952 ], [ 18.79486461, 49.43584218 ], [ 18.79478485, 49.43588858 ], [ 18.79463625, 49.4359758 ], [ 18.79464702, 49.43598619 ], [ 18.79440123, 49.43615527 ], [ 18.7943254, 49.43621143 ], [ 18.79412491, 49.4363547 ], [ 18.79413309, 49.43636938 ], [ 18.79417086, 49.4364378 ], [ 18.79417909, 49.43646231 ], [ 18.79428742, 49.436373 ], [ 18.79450538, 49.43622251 ], [ 18.79459415, 49.43616115 ], [ 18.79473333, 49.43606496 ], [ 18.79505695, 49.43586887 ], [ 18.7951336, 49.43582294 ], [ 18.79523215, 49.43577327 ], [ 18.79537662, 49.43567563 ], [ 18.79538568, 49.43566934 ], [ 18.79541729, 49.43567439 ], [ 18.7954882, 49.43562339 ], [ 18.79584784, 49.43536511 ], [ 18.79607706, 49.43516045 ], [ 18.79613126, 49.43510236 ], [ 18.79620685, 49.43501389 ], [ 18.79628764, 49.43487554 ], [ 18.79634787, 49.43475399 ], [ 18.79638621, 49.43466586 ], [ 18.7964052, 49.43462219 ], [ 18.79644854, 49.43446874 ], [ 18.79647156, 49.4343598 ], [ 18.79650956, 49.43418091 ], [ 18.79653964, 49.4340707 ], [ 18.79661809, 49.43360815 ], [ 18.7967096, 49.43313247 ], [ 18.79667936, 49.4331412 ], [ 18.79668949, 49.43302563 ], [ 18.79672073, 49.43285794 ], [ 18.7967654, 49.4326205 ], [ 18.79678179, 49.43255378 ], [ 18.7968448, 49.43255649 ], [ 18.79683185, 49.43252525 ], [ 18.79684159, 49.43246541 ], [ 18.79689789, 49.43230776 ], [ 18.79701346, 49.43207983 ], [ 18.79707815, 49.43199675 ], [ 18.79720494, 49.43185888 ], [ 18.79729637, 49.43177312 ], [ 18.79737824, 49.43170915 ], [ 18.79747623, 49.43163889 ], [ 18.7975947, 49.43156968 ], [ 18.79769522, 49.43152191 ] ] ] } },
{ "type": "Feature", "properties": { "@featureType": "CadastralParcel", "areaValue": { "value": 3296, "@uom": "m2" }, "beginLifespanVersion": { "@nilReason": "http://inspire.ec.europa.eu/codelist/VoidReasonValue/Unpopulated", "@nil": "true" }, "endLifespanVersion": { "@nilReason": "http://inspire.ec.europa.eu/codelist/VoidReasonValue/Unpopulated", "@nil": "true" }, "inspireId": { "@dataType": "Identifier", "localId": "808393_277/1.C", "namespace": "SK.ESKN.CP", "versionId": "20260703T05:07:11" }, "label": "277/1", "nationalCadastralReference": "808393_277/1.C", "referencePoint": { "type": "Point", "coordinates": [ 18.79702251, 49.43134958 ] }, "validFrom": "2026-06-30T16:00:00Z", "validTo": { "@nilReason": "http://inspire.ec.europa.eu/codelist/VoidReasonValue/Unpopulated", "@nil": "true" }, "administrativeUnit": { "@href": "#auAdmUnitS.444" } }, "geometry": { "type": "Polygon", "coordinates": [ [ [ 18.7972721, 49.43138204 ], [ 18.79724793, 49.43136356 ], [ 18.79726481, 49.43135433 ], [ 18.79723936, 49.43133498 ], [ 18.79727429, 49.43131603 ], [ 18.7973116, 49.43134484 ], [ 18.79766996, 49.43114475 ], [ 18.79780911, 49.43125069 ], [ 18.79765693, 49.43133566 ], [ 18.79741648, 49.43147002 ], [ 18.7974313, 49.43148125 ], [ 18.7976659, 49.43134262 ], [ 18.79772713, 49.43130645 ], [ 18.7978968, 49.43121065 ], [ 18.7978435, 49.43116885 ], [ 18.79790128, 49.4311417 ], [ 18.79777544, 49.43089619 ], [ 18.7977589, 49.43090373 ], [ 18.79727595, 49.4311231 ], [ 18.79701567, 49.43088572 ], [ 18.7969627, 49.43091086 ], [ 18.79690944, 49.43093608 ], [ 18.79651798, 49.43112173 ], [ 18.79685619, 49.43140877 ], [ 18.79680829, 49.43176078 ], [ 18.79685006, 49.43177213 ], [ 18.79694321, 49.43179434 ], [ 18.79701681, 49.43181013 ], [ 18.79702126, 49.43181108 ], [ 18.79706603, 49.43173491 ], [ 18.79710045, 49.43172821 ], [ 18.79707526, 49.43172718 ], [ 18.79696256, 49.43172255 ], [ 18.79697616, 49.43155773 ], [ 18.79694964, 49.43155637 ], [ 18.79695615, 49.43149807 ], [ 18.79698145, 49.43149929 ], [ 18.79705885, 49.4315031 ], [ 18.7972721, 49.43138204 ] ], [ [ 18.79667757, 49.43122792 ], [ 18.79654978, 49.43111381 ], [ 18.79693744, 49.43092985 ], [ 18.7970141, 49.43099803 ], [ 18.79697798, 49.43101529 ], [ 18.79702841, 49.43106028 ], [ 18.79699405, 49.43107673 ], [ 18.79667757, 49.43122792 ] ] ] } },
{ "type": "Feature", "properties": { "@featureType": "CadastralParcel", "areaValue": { "value": 304, "@uom": "m2" }, "beginLifespanVersion": { "@nilReason": "http://inspire.ec.europa.eu/codelist/VoidReasonValue/Unpopulated", "@nil": "true" }, "endLifespanVersion": { "@nilReason": "http://inspire.ec.europa.eu/codelist/VoidReasonValue/Unpopulated", "@nil": "true" }, "inspireId": { "@dataType": "Identifier", "localId": "808393_1757/12.C", "namespace": "SK.ESKN.CP", "versionId": "20260703T05:07:11" }, "label": "1757/12", "nationalCadastralReference": "808393_1757/12.C", "referencePoint": { "type": "Point", "coordinates": [ 18.79675959, 49.43282788 ] }, "validFrom": "2026-06-30T16:00:00Z", "validTo": { "@nilReason": "http://inspire.ec.europa.eu/codelist/VoidReasonValue/Unpopulated", "@nil": "true" }, "administrativeUnit": { "@href": "#auAdmUnitS.444" } }, "geometry": { "type": "Polygon", "coordinates": [ [ [ 18.79683205, 49.43262294 ], [ 18.7968448, 49.43255649 ], [ 18.79678179, 49.43255378 ], [ 18.7967654, 49.4326205 ], [ 18.79672073, 49.43285794 ], [ 18.79668949, 49.43302563 ], [ 18.79667936, 49.4331412 ], [ 18.7967096, 49.43313247 ], [ 18.7967341, 49.43313464 ], [ 18.79674731, 49.43306551 ], [ 18.79679855, 49.43279782 ], [ 18.79680724, 49.43275236 ], [ 18.79683205, 49.43262294 ] ] ] } },
{ "type": "Feature", "properties": { "@featureType": "CadastralParcel", "areaValue": { "value": 7204, "@uom": "m2" }, "beginLifespanVersion": { "@nilReason": "http://inspire.ec.europa.eu/codelist/VoidReasonValue/Unpopulated", "@nil": "true" }, "endLifespanVersion": { "@nilReason": "http://inspire.ec.europa.eu/codelist/VoidReasonValue/Unpopulated", "@nil": "true" }, "inspireId": { "@dataType": "Identifier", "localId": "808393_288/2.C", "namespace": "SK.ESKN.CP", "versionId": "20260703T05:07:11" }, "label": "288/2", "nationalCadastralReference": "808393_288/2.C", "referencePoint": { "type": "Point", "coordinates": [ 18.79741948, 49.43201224 ] }, "validFrom": "2026-06-30T16:00:00Z", "validTo": { "@nilReason": "http://inspire.ec.europa.eu/codelist/VoidReasonValue/Unpopulated", "@nil": "true" }, "administrativeUnit": { "@href": "#auAdmUnitS.444" } }, "geometry": { "type": "Polygon", "coordinates": [ [ [ 18.79837138, 49.43267493 ], [ 18.79831083, 49.43237443 ], [ 18.79831098, 49.43222363 ], [ 18.7983369, 49.43208948 ], [ 18.79836489, 49.43187211 ], [ 18.7983716, 49.43181328 ], [ 18.79824831, 49.43161977 ], [ 18.7980915, 49.43134443 ], [ 18.79786038, 49.43144969 ], [ 18.79769522, 49.43152191 ], [ 18.7975947, 49.43156968 ], [ 18.79747623, 49.43163889 ], [ 18.79737824, 49.43170915 ], [ 18.79729637, 49.43177312 ], [ 18.79720494, 49.43185888 ], [ 18.79707815, 49.43199675 ], [ 18.79701346, 49.43207983 ], [ 18.79689789, 49.43230776 ], [ 18.79684159, 49.43246541 ], [ 18.79683185, 49.43252525 ], [ 18.7968448, 49.43255649 ], [ 18.79730343, 49.43259275 ], [ 18.79773807, 49.43262733 ], [ 18.79799152, 49.43264715 ], [ 18.79819217, 49.43266101 ], [ 18.79837138, 49.43267493 ] ], [ [ 18.79824438, 49.43238408 ], [ 18.79819264, 49.43265833 ], [ 18.79801809, 49.43264248 ], [ 18.79806999, 49.43236698 ], [ 18.79808061, 49.43236717 ], [ 18.79817046, 49.43184459 ], [ 18.79830089, 49.43185131 ], [ 18.79820457, 49.43237824 ], [ 18.79824438, 49.43238408 ] ], [ [ 18.79742359, 49.43193987 ], [ 18.7974462, 49.43182405 ], [ 18.79761464, 49.43183778 ], [ 18.79761717, 49.43182032 ], [ 18.7978393, 49.43183835 ], [ 18.79783594, 49.43185586 ], [ 18.79795069, 49.43186529 ], [ 18.79793527, 49.43194233 ], [ 18.79803252, 49.43195014 ], [ 18.79803057, 49.4319605 ], [ 18.79797897, 49.43223349 ], [ 18.79788125, 49.4322262 ], [ 18.79782431, 49.43252047 ], [ 18.79781131, 49.43257644 ], [ 18.79780418, 49.43257589 ], [ 18.79741945, 49.43254606 ], [ 18.79742993, 49.43248806 ], [ 18.79743513, 49.43248851 ], [ 18.79751587, 49.43205602 ], [ 18.79756574, 49.43205994 ], [ 18.79758611, 49.43195339 ], [ 18.79742359, 49.43193987 ] ], [ [ 18.79712084, 49.43200058 ], [ 18.79714869, 49.43196359 ], [ 18.79727102, 49.4319744 ], [ 18.79726362, 49.43201488 ], [ 18.79721005, 49.43200959 ], [ 18.79717264, 49.43216777 ], [ 18.79708443, 49.43216069 ], [ 18.79712084, 49.43200058 ] ], [ [ 18.79798809, 49.43161475 ], [ 18.79797577, 49.43169475 ], [ 18.79784694, 49.43168397 ], [ 18.79784551, 49.43169003 ], [ 18.79780362, 49.43168651 ], [ 18.79780407, 49.43168049 ], [ 18.79763905, 49.43166712 ], [ 18.79765248, 49.43160648 ], [ 18.79781001, 49.4316201 ], [ 18.79781018, 49.43161866 ], [ 18.7978543, 49.43162202 ], [ 18.79785769, 49.43160433 ], [ 18.79798809, 49.43161475 ] ] ] } },
{ "type": "Feature", "properties": { "@featureType": "CadastralParcel", "areaValue": { "value": 92868, "@uom": "m2" }, "beginLifespanVersion": { "@nilReason": "http://inspire.ec.europa.eu/codelist/VoidReasonValue/Unpopulated", "@nil": "true" }, "endLifespanVersion": { "@nilReason": "http://inspire.ec.europa.eu/codelist/VoidReasonValue/Unpopulated", "@nil": "true" }, "inspireId": { "@dataType": "Identifier", "localId": "808393_1750/1.C", "namespace": "SK.ESKN.CP", "versionId": "20260703T05:07:11" }, "label": "1750/1", "nationalCadastralReference": "808393_1750/1.C", "referencePoint": { "type": "Point", "coordinates": [ 18.79910728, 49.43471869 ] }, "validFrom": "2026-06-30T16:00:00Z", "validTo": { "@nilReason": "http://inspire.ec.europa.eu/codelist/VoidReasonValue/Unpopulated", "@nil": "true" }, "administrativeUnit": { "@href": "#auAdmUnitS.444" } }, "geometry": { "type": "Polygon", "coordinates": [ [ [ 18.789678, 49.44051388 ], [ 18.78968089, 49.44045928 ], [ 18.78971412, 49.44045558 ], [ 18.78986679, 49.44043883 ], [ 18.78989847, 49.44043533 ], [ 18.78990525, 49.44039996 ], [ 18.78999928, 49.44035123 ], [ 18.79005212, 49.44032383 ], [ 18.7901025, 49.44030072 ], [ 18.79013305, 49.44028841 ], [ 18.79016651, 49.44027706 ], [ 18.79020658, 49.44026604 ], [ 18.79045213, 49.44022928 ], [ 18.79048134, 49.44022339 ], [ 18.79053497, 49.44021118 ], [ 18.79061894, 49.4401678 ], [ 18.79070948, 49.44013747 ], [ 18.79082033, 49.44010278 ], [ 18.79088431, 49.44008398 ], [ 18.79104272, 49.44006654 ], [ 18.79106585, 49.44006286 ], [ 18.79142276, 49.43997014 ], [ 18.79149292, 49.43996537 ], [ 18.79153653, 49.43996961 ], [ 18.79155457, 49.43997135 ], [ 18.79183946, 49.4399091 ], [ 18.79249321, 49.43976945 ], [ 18.79290186, 49.43966984 ], [ 18.79291394, 49.43964773 ], [ 18.7929472, 49.43964034 ], [ 18.79293563, 49.43966166 ], [ 18.79297654, 49.43965168 ], [ 18.7930458, 49.43962576 ], [ 18.79306204, 49.43961496 ], [ 18.79310156, 49.43960617 ], [ 18.79324177, 49.43957579 ], [ 18.79328691, 49.43956855 ], [ 18.79335236, 49.43955804 ], [ 18.79341682, 49.43954774 ], [ 18.79343106, 49.4395455 ], [ 18.79343063, 49.43955359 ], [ 18.7934502, 49.43955082 ], [ 18.79346276, 49.43954876 ], [ 18.79348648, 49.43954592 ], [ 18.79354746, 49.43954149 ], [ 18.79356955, 49.43953839 ], [ 18.79358053, 49.43953796 ], [ 18.79359263, 49.43953741 ], [ 18.79374728, 49.43950768 ], [ 18.79391615, 49.43947589 ], [ 18.79410636, 49.43944375 ], [ 18.79419324, 49.43942992 ], [ 18.79424151, 49.43942312 ], [ 18.79481487, 49.43933271 ], [ 18.79487451, 49.43932334 ], [ 18.79531023, 49.43926958 ], [ 18.79619314, 49.4391621 ], [ 18.79628305, 49.43915294 ], [ 18.7963719, 49.43914336 ], [ 18.79663202, 49.43911527 ], [ 18.79669005, 49.43910897 ], [ 18.7975081, 49.43902069 ], [ 18.79752207, 49.4389967 ], [ 18.79758754, 49.43896327 ], [ 18.79765631, 49.43894363 ], [ 18.79771936, 49.4389255 ], [ 18.79778289, 49.43889549 ], [ 18.79797483, 49.43880454 ], [ 18.79810038, 49.43873064 ], [ 18.79820825, 49.43865313 ], [ 18.79830751, 49.43856561 ], [ 18.79835994, 49.43851076 ], [ 18.7984067, 49.43845472 ], [ 18.79844592, 49.43840037 ], [ 18.79849095, 49.43832557 ], [ 18.79851472, 49.43827773 ], [ 18.79858334, 49.43812802 ], [ 18.79863073, 49.43802457 ], [ 18.79864341, 49.4380272 ], [ 18.79865477, 49.43799965 ], [ 18.79869288, 49.43789743 ], [ 18.79872772, 49.43779821 ], [ 18.79883686, 49.43739271 ], [ 18.79901815, 49.43667352 ], [ 18.79911009, 49.4363392 ], [ 18.79908748, 49.4363044 ], [ 18.7991716, 49.43594893 ], [ 18.79921688, 49.43577033 ], [ 18.79925942, 49.43561323 ], [ 18.79926494, 49.43559169 ], [ 18.79930612, 49.43541152 ], [ 18.79931925, 49.4353625 ], [ 18.79935448, 49.43523145 ], [ 18.79938582, 49.4350469 ], [ 18.7993888, 49.43503595 ], [ 18.7994569, 49.43478655 ], [ 18.79945805, 49.43478282 ], [ 18.7994667, 49.43475251 ], [ 18.79948609, 49.43468487 ], [ 18.79958713, 49.43451743 ], [ 18.79964684, 49.43435788 ], [ 18.79957579, 49.43435413 ], [ 18.79957989, 49.4343271 ], [ 18.79964983, 49.43433089 ], [ 18.79967157, 49.43388751 ], [ 18.79961561, 49.43388598 ], [ 18.7996167, 49.43386782 ], [ 18.79967251, 49.43386952 ], [ 18.79967772, 49.43376254 ], [ 18.7996775, 49.43375865 ], [ 18.79963336, 49.43375539 ], [ 18.79963565, 49.43372845 ], [ 18.79967637, 49.43373027 ], [ 18.79966832, 49.43353061 ], [ 18.79963462, 49.43353023 ], [ 18.79963362, 49.43351223 ], [ 18.7996676, 49.43351263 ], [ 18.79964189, 49.43287631 ], [ 18.7993964, 49.43237389 ], [ 18.79920494, 49.43202489 ], [ 18.79918772, 49.43202436 ], [ 18.79913974, 49.43202306 ], [ 18.79884589, 49.43201487 ], [ 18.79876232, 49.43178795 ], [ 18.79859202, 49.43151779 ], [ 18.79846942, 49.43121228 ], [ 18.79846101, 49.43120067 ], [ 18.79841979, 49.43114361 ], [ 18.79840937, 49.43112918 ], [ 18.79796551, 49.430431 ], [ 18.79761739, 49.42989009 ], [ 18.79723956, 49.42932519 ], [ 18.79723372, 49.42931632 ], [ 18.79717715, 49.42923187 ], [ 18.79716322, 49.42921103 ], [ 18.79704953, 49.42904101 ], [ 18.79694565, 49.42878437 ], [ 18.79682574, 49.42837013 ], [ 18.7967958, 49.42824402 ], [ 18.79681735, 49.42807863 ], [ 18.79689107, 49.42789932 ], [ 18.79705142, 49.42769778 ], [ 18.79750123, 49.42733266 ], [ 18.79796531, 49.42719341 ], [ 18.79786464, 49.42708837 ], [ 18.79786281, 49.42708638 ], [ 18.79739883, 49.42722591 ], [ 18.79689104, 49.42765642 ], [ 18.79677997, 49.42782099 ], [ 18.79665006, 49.42812403 ], [ 18.79658863, 49.42811284 ], [ 18.79654303, 49.42810453 ], [ 18.79652169, 49.42827048 ], [ 18.79651478, 49.42832406 ], [ 18.79651295, 49.4283403 ], [ 18.79655205, 49.4285255 ], [ 18.79661247, 49.42881103 ], [ 18.79665933, 49.42897102 ], [ 18.79677652, 49.4292068 ], [ 18.79685907, 49.42935528 ], [ 18.7968688, 49.42937084 ], [ 18.79693286, 49.42934772 ], [ 18.79693697, 49.42935262 ], [ 18.79687192, 49.42937588 ], [ 18.79694996, 49.42950112 ], [ 18.79743158, 49.43020821 ], [ 18.79777166, 49.43071497 ], [ 18.79783055, 49.43081334 ], [ 18.79791507, 49.43098673 ], [ 18.79804365, 49.43119251 ], [ 18.79803357, 49.43119587 ], [ 18.79806636, 49.43124708 ], [ 18.79807525, 49.43125818 ], [ 18.79812102, 49.43131421 ], [ 18.79813206, 49.43132578 ], [ 18.7980915, 49.43134443 ], [ 18.79824831, 49.43161977 ], [ 18.7983716, 49.43181328 ], [ 18.79840276, 49.43186206 ], [ 18.79844474, 49.43192303 ], [ 18.79848684, 49.43200485 ], [ 18.79857274, 49.4321691 ], [ 18.79843426, 49.43184745 ], [ 18.79837103, 49.43171864 ], [ 18.79830694, 49.43161521 ], [ 18.79820908, 49.43148462 ], [ 18.79824079, 49.43147398 ], [ 18.79833744, 49.43160434 ], [ 18.79841482, 49.43172937 ], [ 18.79862441, 49.43219585 ], [ 18.79877537, 49.43255603 ], [ 18.79884313, 49.43278673 ], [ 18.79887501, 49.43298148 ], [ 18.7989057, 49.43331499 ], [ 18.7989016, 49.43342311 ], [ 18.79889846, 49.43375163 ], [ 18.798875, 49.43392026 ], [ 18.79886665, 49.43400741 ], [ 18.79885746, 49.43410273 ], [ 18.79878763, 49.43445776 ], [ 18.79876867, 49.43455383 ], [ 18.79865008, 49.43519498 ], [ 18.79871182, 49.43519338 ], [ 18.79852149, 49.43616754 ], [ 18.79847739, 49.43648367 ], [ 18.79847361, 49.43650467 ], [ 18.79842429, 49.43669714 ], [ 18.79839183, 49.43682923 ], [ 18.79837635, 49.43699701 ], [ 18.79835995, 49.4370685 ], [ 18.79824409, 49.43758649 ], [ 18.79808466, 49.43787846 ], [ 18.79805365, 49.43798483 ], [ 18.79802479, 49.4380518 ], [ 18.79798323, 49.438122 ], [ 18.79793756, 49.43818161 ], [ 18.79787725, 49.43824327 ], [ 18.79781378, 49.43830142 ], [ 18.79776395, 49.43836452 ], [ 18.79770039, 49.43839705 ], [ 18.79765004, 49.43841538 ], [ 18.79760029, 49.43847325 ], [ 18.7975097, 49.43853371 ], [ 18.79752222, 49.43855708 ], [ 18.7974031, 49.4386452 ], [ 18.79734701, 49.43866865 ], [ 18.7972503, 49.43869397 ], [ 18.79721782, 49.43869726 ], [ 18.79714487, 49.43873084 ], [ 18.79709666, 49.43873711 ], [ 18.79705723, 49.43875546 ], [ 18.7969679, 49.43877702 ], [ 18.79691512, 49.43878223 ], [ 18.79687149, 49.43878504 ], [ 18.7968382, 49.4387881 ], [ 18.79675569, 49.43880469 ], [ 18.79673538, 49.43880905 ], [ 18.79671506, 49.43881351 ], [ 18.79666861, 49.43882356 ], [ 18.79662462, 49.43883735 ], [ 18.79657896, 49.43884203 ], [ 18.79648274, 49.43884735 ], [ 18.79644222, 49.43885528 ], [ 18.79637649, 49.43886118 ], [ 18.79629649, 49.43886734 ], [ 18.79608252, 49.43887868 ], [ 18.79598464, 49.43888284 ], [ 18.79590737, 49.43888472 ], [ 18.79581835, 49.43889231 ], [ 18.79563058, 49.43891348 ], [ 18.79547211, 49.43892227 ], [ 18.79538844, 49.43893014 ], [ 18.79524604, 49.43893524 ], [ 18.79516241, 49.43894627 ], [ 18.7950428, 49.43896193 ], [ 18.79496648, 49.43897198 ], [ 18.79487948, 49.43898337 ], [ 18.7948293, 49.43898998 ], [ 18.79475832, 49.43899931 ], [ 18.79466345, 49.43901174 ], [ 18.79451137, 49.43903168 ], [ 18.79427888, 49.43906344 ], [ 18.79416387, 49.43907997 ], [ 18.79417079, 49.43910964 ], [ 18.79379661, 49.43914754 ], [ 18.79376152, 49.43915403 ], [ 18.79374837, 49.43915642 ], [ 18.79369625, 49.43916528 ], [ 18.79368931, 49.43914841 ], [ 18.79364999, 49.43915216 ], [ 18.7936086, 49.43915697 ], [ 18.79351997, 49.43916584 ], [ 18.79348604, 49.43917076 ], [ 18.79346027, 49.43917566 ], [ 18.79343043, 49.43917989 ], [ 18.79334065, 49.43919258 ], [ 18.79321075, 49.43921096 ], [ 18.79296644, 49.43924554 ], [ 18.79299238, 49.43923921 ], [ 18.79299109, 49.43923499 ], [ 18.79298919, 49.43922903 ], [ 18.7929423, 49.43923816 ], [ 18.79294517, 49.43924525 ], [ 18.79294659, 49.43924839 ], [ 18.79295571, 49.43926329 ], [ 18.79301223, 49.43926828 ], [ 18.79300743, 49.43929988 ], [ 18.79258448, 49.43938865 ], [ 18.79255588, 49.43935416 ], [ 18.79238155, 49.43939794 ], [ 18.79183638, 49.43951126 ], [ 18.7916567, 49.43956495 ], [ 18.79159392, 49.43959328 ], [ 18.79146454, 49.43961313 ], [ 18.79137392, 49.43964634 ], [ 18.79130868, 49.43963684 ], [ 18.79111793, 49.43969961 ], [ 18.79110048, 49.43969068 ], [ 18.79053545, 49.43980694 ], [ 18.79041088, 49.43982929 ], [ 18.7903402, 49.43990799 ], [ 18.79024444, 49.4399551 ], [ 18.79027345, 49.440009 ], [ 18.79020947, 49.44002554 ], [ 18.79017401, 49.43997005 ], [ 18.79009038, 49.43998792 ], [ 18.78996827, 49.44002871 ], [ 18.78987384, 49.44003863 ], [ 18.78986772, 49.44003209 ], [ 18.78964148, 49.44009429 ], [ 18.7896365, 49.44006012 ], [ 18.78960664, 49.44006679 ], [ 18.78951204, 49.44009753 ], [ 18.78913511, 49.44023666 ], [ 18.78884313, 49.44035391 ], [ 18.78855431, 49.44047251 ], [ 18.78835144, 49.44055765 ], [ 18.78812499, 49.44070255 ], [ 18.78793803, 49.44085481 ], [ 18.78732266, 49.44130823 ], [ 18.78732265, 49.44130832 ], [ 18.78713935, 49.44142018 ], [ 18.78689214, 49.44155598 ], [ 18.78666746, 49.44168509 ], [ 18.78662484, 49.44170797 ], [ 18.78657615, 49.44172846 ], [ 18.78658359, 49.441731 ], [ 18.78659121, 49.44173546 ], [ 18.78659797, 49.44174474 ], [ 18.78659766, 49.4417541 ], [ 18.78659281, 49.44176107 ], [ 18.78658646, 49.44176552 ], [ 18.78665282, 49.44182387 ], [ 18.7866342, 49.44183374 ], [ 18.78663252, 49.44183275 ], [ 18.78654371, 49.4417496 ], [ 18.78653795, 49.44174461 ], [ 18.78650692, 49.44175068 ], [ 18.78639967, 49.44177617 ], [ 18.78636948, 49.44178102 ], [ 18.78637588, 49.4417864 ], [ 18.78639238, 49.44180087 ], [ 18.78651346, 49.44191337 ], [ 18.78650158, 49.44192115 ], [ 18.78642364, 49.4418465 ], [ 18.78641153, 49.44184822 ], [ 18.78639577, 49.44184705 ], [ 18.78638642, 49.44184431 ], [ 18.78637756, 49.44183979 ], [ 18.78636796, 49.44183001 ], [ 18.78636533, 49.4418186 ], [ 18.78619598, 49.44187363 ], [ 18.78605301, 49.44189132 ], [ 18.78605288, 49.44189132 ], [ 18.78593074, 49.44190612 ], [ 18.78585743, 49.44191406 ], [ 18.78569871, 49.4419111 ], [ 18.78557308, 49.44189992 ], [ 18.78541561, 49.44187303 ], [ 18.78527029, 49.44183838 ], [ 18.78516836, 49.4418029 ], [ 18.78502955, 49.44174306 ], [ 18.78489621, 49.44166555 ], [ 18.78394032, 49.44096658 ], [ 18.78394004, 49.44096657 ], [ 18.78364153, 49.44084138 ], [ 18.78333799, 49.44076545 ], [ 18.78309139, 49.44072764 ], [ 18.7827708, 49.44070567 ], [ 18.78257033, 49.44070822 ], [ 18.78230641, 49.44075944 ], [ 18.78197441, 49.44081319 ], [ 18.78203751, 49.44085172 ], [ 18.78204617, 49.44085785 ], [ 18.78198617, 49.44089056 ], [ 18.78196007, 49.44089588 ], [ 18.78192052, 49.44090719 ], [ 18.78192039, 49.44090718 ], [ 18.78182075, 49.44093938 ], [ 18.78137908, 49.44105439 ], [ 18.78079128, 49.44118809 ], [ 18.78060905, 49.44122955 ], [ 18.78032491, 49.44126836 ], [ 18.78000055, 49.44131267 ], [ 18.77981361, 49.4413371 ], [ 18.77961144, 49.44136048 ], [ 18.77878285, 49.44138793 ], [ 18.77873757, 49.44138947 ], [ 18.77773773, 49.44142258 ], [ 18.777741, 49.44148327 ], [ 18.7779181, 49.44147844 ], [ 18.77792958, 49.4415558 ], [ 18.77749549, 49.44156736 ], [ 18.77749506, 49.44149121 ], [ 18.77748736, 49.44143282 ], [ 18.77727004, 49.44144089 ], [ 18.77659338, 49.44146327 ], [ 18.77648798, 49.44147577 ], [ 18.77477909, 49.44154625 ], [ 18.77453482, 49.44155752 ], [ 18.77428053, 49.44156927 ], [ 18.77408175, 49.44157838 ], [ 18.77398643, 49.44158075 ], [ 18.77384658, 49.44158416 ], [ 18.77373254, 49.44158693 ], [ 18.77354412, 49.44159161 ], [ 18.77323986, 49.44159914 ], [ 18.7729997, 49.44160503 ], [ 18.77271575, 49.44162859 ], [ 18.77251596, 49.44164937 ], [ 18.7724772, 49.44165079 ], [ 18.77160496, 49.44169469 ], [ 18.7713516, 49.441709 ], [ 18.77067035, 49.4417441 ], [ 18.76999878, 49.44173487 ], [ 18.76849173, 49.44171414 ], [ 18.76834592, 49.44171191 ], [ 18.76820213, 49.44170681 ], [ 18.76822671, 49.44205364 ], [ 18.76822655, 49.44207429 ], [ 18.77032119, 49.44200908 ], [ 18.7706704, 49.44199829 ], [ 18.77168519, 49.44197999 ], [ 18.77234833, 49.44197552 ], [ 18.77238921, 49.44197493 ], [ 18.77249376, 49.44197402 ], [ 18.77346407, 49.44195747 ], [ 18.77401765, 49.44193027 ], [ 18.77439012, 49.44191246 ], [ 18.77546496, 49.44190085 ], [ 18.77727221, 49.4419555 ], [ 18.77815365, 49.44193837 ], [ 18.77876717, 49.44190964 ], [ 18.7795754, 49.44180393 ], [ 18.78046501, 49.44180254 ], [ 18.7812254, 49.44164655 ], [ 18.78158618, 49.44145502 ], [ 18.78197576, 49.4412997 ], [ 18.78198881, 49.44130958 ], [ 18.78205771, 49.44127417 ], [ 18.7820446, 49.44126817 ], [ 18.78212408, 49.44122537 ], [ 18.78214833, 49.44121364 ], [ 18.78217857, 49.44120609 ], [ 18.78220692, 49.44119709 ], [ 18.78226841, 49.44120324 ], [ 18.7825445, 49.44117258 ], [ 18.78268506, 49.44115305 ], [ 18.78300102, 49.44118931 ], [ 18.7830471, 49.44119601 ], [ 18.78307363, 49.44119621 ], [ 18.78310418, 49.44119635 ], [ 18.78331907, 49.4412106 ], [ 18.78351733, 49.44125358 ], [ 18.78366546, 49.44131292 ], [ 18.78380674, 49.44141844 ], [ 18.78395889, 49.44151532 ], [ 18.78408918, 49.44161459 ], [ 18.78412391, 49.44164868 ], [ 18.78423053, 49.44172526 ], [ 18.78438938, 49.44183647 ], [ 18.78451655, 49.44192493 ], [ 18.78468704, 49.44202231 ], [ 18.78480334, 49.4420864 ], [ 18.78503001, 49.4421893 ], [ 18.78518703, 49.44225297 ], [ 18.78540117, 49.44234863 ], [ 18.78549016, 49.44240184 ], [ 18.7856039, 49.44237876 ], [ 18.78574338, 49.44237378 ], [ 18.786353, 49.44239992 ], [ 18.78652395, 49.44240361 ], [ 18.78669145, 49.44231826 ], [ 18.78669629, 49.44232167 ], [ 18.78672078, 49.44231022 ], [ 18.78674246, 49.44229339 ], [ 18.78676444, 49.44227648 ], [ 18.78677548, 49.44226641 ], [ 18.78678288, 49.44225786 ], [ 18.78678808, 49.44225037 ], [ 18.7867934, 49.44224072 ], [ 18.78679749, 49.44222984 ], [ 18.78679979, 49.44221769 ], [ 18.78680034, 49.44220744 ], [ 18.78679944, 49.44219891 ], [ 18.78679953, 49.44218908 ], [ 18.7868317, 49.44217478 ], [ 18.78691552, 49.44213265 ], [ 18.78694542, 49.4421176 ], [ 18.7868835, 49.44206137 ], [ 18.78692585, 49.4420806 ], [ 18.78695671, 49.44208959 ], [ 18.78698866, 49.44209412 ], [ 18.78700933, 49.44209483 ], [ 18.78702728, 49.44209395 ], [ 18.78705346, 49.44209025 ], [ 18.78704116, 49.44207988 ], [ 18.78708243, 49.44206577 ], [ 18.78709729, 49.44205851 ], [ 18.78711199, 49.4420479 ], [ 18.78717349, 49.4420039 ], [ 18.78719863, 49.44198599 ], [ 18.78719334, 49.44198283 ], [ 18.78722876, 49.44195886 ], [ 18.7872543, 49.44194214 ], [ 18.78728759, 49.44192203 ], [ 18.78733439, 49.4418954 ], [ 18.78733924, 49.44189881 ], [ 18.78743202, 49.44185119 ], [ 18.78750104, 49.44181705 ], [ 18.78758485, 49.44177384 ], [ 18.78768858, 49.4417193 ], [ 18.78776989, 49.44167614 ], [ 18.78785861, 49.44162903 ], [ 18.78794065, 49.44158673 ], [ 18.78802093, 49.44154414 ], [ 18.78811606, 49.44149313 ], [ 18.78818274, 49.44145544 ], [ 18.78822876, 49.44142958 ], [ 18.78829593, 49.441381 ], [ 18.78838897, 49.44131419 ], [ 18.78848128, 49.44124887 ], [ 18.78853276, 49.44121219 ], [ 18.78857287, 49.44118486 ], [ 18.78876679, 49.44102646 ], [ 18.7888201, 49.44099404 ], [ 18.78883066, 49.44098574 ], [ 18.7889552, 49.44089755 ], [ 18.78910148, 49.44080002 ], [ 18.78921723, 49.4407387 ], [ 18.78946642, 49.44062176 ], [ 18.78963502, 49.44055352 ], [ 18.78962738, 49.44054582 ], [ 18.789678, 49.44051388 ] ], [ [ 18.789001, 49.44080051 ], [ 18.78902065, 49.44078791 ], [ 18.78904029, 49.44080272 ], [ 18.78901974, 49.44081474 ], [ 18.789001, 49.44080051 ] ], [ [ 18.78966948, 49.44041422 ], [ 18.78965223, 49.44038772 ], [ 18.7899103, 49.44031615 ], [ 18.78992756, 49.44034266 ], [ 18.78966948, 49.44041422 ] ], [ [ 18.78962836, 49.44019112 ], [ 18.78988629, 49.44011955 ], [ 18.78990356, 49.44014596 ], [ 18.78964561, 49.44021762 ], [ 18.78962836, 49.44019112 ] ], [ [ 18.79819112, 49.43147873 ], [ 18.79818312, 49.43146145 ], [ 18.79820947, 49.43145631 ], [ 18.79821748, 49.4314735 ], [ 18.79819112, 49.43147873 ] ] ] } },
{ "type": "Feature", "properties": { "@featureType": "CadastralParcel", "areaValue": { "value": 837, "@uom": "m2" }, "beginLifespanVersion": { "@nilReason": "http://inspire.ec.europa.eu/codelist/VoidReasonValue/Unpopulated", "@nil": "true" }, "endLifespanVersion": { "@nilReason": "http://inspire.ec.europa.eu/codelist/VoidReasonValue/Unpopulated", "@nil": "true" }, "inspireId": { "@dataType": "Identifier", "localId": "808393_277/9.C", "namespace": "SK.ESKN.CP", "versionId": "20260703T05:07:11" }, "label": "277/9", "nationalCadastralReference": "808393_277/9.C", "referencePoint": { "type": "Point", "coordinates": [ 18.7974606, 49.43085476 ] }, "validFrom": "2026-06-30T16:00:00Z", "validTo": { "@nilReason": "http://inspire.ec.europa.eu/codelist/VoidReasonValue/Unpopulated", "@nil": "true" }, "administrativeUnit": { "@href": "#auAdmUnitS.444" } }, "geometry": { "type": "Polygon", "coordinates": [ [ [ 18.79701904, 49.43088418 ], [ 18.79701567, 49.43088572 ], [ 18.79727595, 49.4311231 ], [ 18.7977589, 49.43090373 ], [ 18.79768574, 49.430721 ], [ 18.79760754, 49.43060513 ], [ 18.79710576, 49.43084301 ], [ 18.79705616, 49.43086652 ], [ 18.79701904, 49.43088418 ] ], [ [ 18.79751304, 49.43099938 ], [ 18.79740672, 49.43089866 ], [ 18.79761728, 49.43080443 ], [ 18.79772378, 49.4309048 ], [ 18.79751304, 49.43099938 ] ], [ [ 18.79767024, 49.43073942 ], [ 18.79731548, 49.43090063 ], [ 18.79716475, 49.43096908 ], [ 18.79707506, 49.43088409 ], [ 18.79722269, 49.43081728 ], [ 18.79758102, 49.43065508 ], [ 18.79767024, 49.43073942 ] ] ] } },
{ "type": "Feature", "properties": { "@featureType": "CadastralParcel", "areaValue": { "value": 70, "@uom": "m2" }, "beginLifespanVersion": { "@nilReason": "http://inspire.ec.europa.eu/codelist/VoidReasonValue/Unpopulated", "@nil": "true" }, "endLifespanVersion": { "@nilReason": "http://inspire.ec.europa.eu/codelist/VoidReasonValue/Unpopulated", "@nil": "true" }, "inspireId": { "@dataType": "Identifier", "localId": "844748_1691/3.C", "namespace": "SK.ESKN.CP", "versionId": "20260703T06:07:03" }, "label": "1691/3", "nationalCadastralReference": "844748_1691/3.C", "referencePoint": { "type": "Point", "coordinates": [ 18.83723084, 49.42202259 ] }, "validFrom": "2026-06-30T16:00:00Z", "validTo": { "@nilReason": "http://inspire.ec.europa.eu/codelist/VoidReasonValue/Unpopulated", "@nil": "true" }, "administrativeUnit": { "@href": "#auAdmUnitS.178" } }, "geometry": { "type": "Polygon", "coordinates": [ [ [ 18.83718725, 49.42207681 ], [ 18.8372611, 49.42208699 ], [ 18.83727258, 49.42204212 ], [ 18.83728295, 49.42200306 ], [ 18.83728597, 49.42199176 ], [ 18.8371812, 49.42197882 ], [ 18.83718725, 49.42207681 ] ] ] } },
{ "type": "Feature", "properties": { "@featureType": "CadastralParcel", "areaValue": { "value": 449, "@uom": "m2" }, "beginLifespanVersion": { "@nilReason": "http://inspire.ec.europa.eu/codelist/VoidReasonValue/Unpopulated", "@nil": "true" }, "endLifespanVersion": { "@nilReason": "http://inspire.ec.europa.eu/codelist/VoidReasonValue/Unpopulated", "@nil": "true" }, "inspireId": { "@dataType": "Identifier", "localId": "844748_1691/9.C", "namespace": "SK.ESKN.CP", "versionId": "20260703T06:07:03" }, "label": "1691/9", "nationalCadastralReference": "844748_1691/9.C", "referencePoint": { "type": "Point", "coordinates": [ 18.83715439, 49.42067147 ] }, "validFrom": "2026-06-30T16:00:00Z", "validTo": { "@nilReason": "http://inspire.ec.europa.eu/codelist/VoidReasonValue/Unpopulated", "@nil": "true" }, "administrativeUnit": { "@href": "#auAdmUnitS.178" } }, "geometry": { "type": "Polygon", "coordinates": [ [ [ 18.83704629, 49.42044203 ], [ 18.83711166, 49.42078703 ], [ 18.83712851, 49.42090091 ], [ 18.8371958, 49.42084843 ], [ 18.83724774, 49.42083729 ], [ 18.83724428, 49.42081664 ], [ 18.83719891, 49.42055591 ], [ 18.83717725, 49.42042456 ], [ 18.83704629, 49.42044203 ] ] ] } },
{ "type": "Feature", "properties": { "@featureType": "CadastralParcel", "areaValue": { "value": 1272, "@uom": "m2" }, "beginLifespanVersion": { "@nilReason": "http://inspire.ec.europa.eu/codelist/VoidReasonValue/Unpopulated", "@nil": "true" }, "endLifespanVersion": { "@nilReason": "http://inspire.ec.europa.eu/codelist/VoidReasonValue/Unpopulated", "@nil": "true" }, "inspireId": { "@dataType": "Identifier", "localId": "844748_1691/8.C", "namespace": "SK.ESKN.CP", "versionId": "20260703T06:07:03" }, "label": "1691/8", "nationalCadastralReference": "844748_1691/8.C", "referencePoint": { "type": "Point", "coordinates": [ 18.83725757, 49.42144864 ] }, "validFrom": "2026-06-30T16:00:00Z", "validTo": { "@nilReason": "http://inspire.ec.europa.eu/codelist/VoidReasonValue/Unpopulated", "@nil": "true" }, "administrativeUnit": { "@href": "#auAdmUnitS.178" } }, "geometry": { "type": "Polygon", "coordinates": [ [ [ 18.83712851, 49.42090091 ], [ 18.83714168, 49.42099025 ], [ 18.83719103, 49.42127535 ], [ 18.83717181, 49.42166157 ], [ 18.83722632, 49.42168881 ], [ 18.83722623, 49.42172984 ], [ 18.83722248, 49.42181732 ], [ 18.83722132, 49.42190276 ], [ 18.83717892, 49.42193117 ], [ 18.83717956, 49.42195221 ], [ 18.8371812, 49.42197882 ], [ 18.83728597, 49.42199176 ], [ 18.83730117, 49.42193436 ], [ 18.83733307, 49.42183813 ], [ 18.83741346, 49.42170894 ], [ 18.83734526, 49.42162193 ], [ 18.83731843, 49.42125076 ], [ 18.83724774, 49.42083729 ], [ 18.8371958, 49.42084843 ], [ 18.83712851, 49.42090091 ] ] ] } },
{ "type": "Feature", "properties": { "@featureType": "CadastralParcel", "areaValue": { "value": 152, "@uom": "m2" }, "beginLifespanVersion": { "@nilReason": "http://inspire.ec.europa.eu/codelist/VoidReasonValue/Unpopulated", "@nil": "true" }, "endLifespanVersion": { "@nilReason": "http://inspire.ec.europa.eu/codelist/VoidReasonValue/Unpopulated", "@nil": "true" }, "inspireId": { "@dataType": "Identifier", "localId": "844748_1691/7.C", "namespace": "SK.ESKN.CP", "versionId": "20260703T06:07:03" }, "label": "1691/7", "nationalCadastralReference": "844748_1691/7.C", "referencePoint": { "type": "Point", "coordinates": [ 18.83719653, 49.42225156 ] }, "validFrom": "2026-06-30T16:00:00Z", "validTo": { "@nilReason": "http://inspire.ec.europa.eu/codelist/VoidReasonValue/Unpopulated", "@nil": "true" }, "administrativeUnit": { "@href": "#auAdmUnitS.178" } }, "geometry": { "type": "Polygon", "coordinates": [ [ [ 18.83718725, 49.42207681 ], [ 18.83719512, 49.42220447 ], [ 18.83715296, 49.42229864 ], [ 18.83713378, 49.42236269 ], [ 18.83710843, 49.42243887 ], [ 18.83709885, 49.42246679 ], [ 18.83718015, 49.42240358 ], [ 18.8372611, 49.42208699 ], [ 18.83718725, 49.42207681 ] ] ] } },
{ "type": "Feature", "properties": { "@featureType": "CadastralParcel", "areaValue": { "value": 2, "@uom": "m2" }, "beginLifespanVersion": { "@nilReason": "http://inspire.ec.europa.eu/codelist/VoidReasonValue/Unpopulated", "@nil": "true" }, "endLifespanVersion": { "@nilReason": "http://inspire.ec.europa.eu/codelist/VoidReasonValue/Unpopulated", "@nil": "true" }, "inspireId": { "@dataType": "Identifier", "localId": "844748_1691/6.C", "namespace": "SK.ESKN.CP", "versionId": "20260703T06:07:03" }, "label": "1691/6", "nationalCadastralReference": "844748_1691/6.C", "referencePoint": { "type": "Point", "coordinates": [ 18.83682297, 49.42310671 ] }, "validFrom": "2026-06-30T16:00:00Z", "validTo": { "@nilReason": "http://inspire.ec.europa.eu/codelist/VoidReasonValue/Unpopulated", "@nil": "true" }, "administrativeUnit": { "@href": "#auAdmUnitS.178" } }, "geometry": { "type": "Polygon", "coordinates": [ [ [ 18.83680982, 49.42311086 ], [ 18.83682933, 49.42311529 ], [ 18.83683612, 49.42310256 ], [ 18.8368166, 49.42309813 ], [ 18.83680982, 49.42311086 ] ] ] } },
{ "type": "Feature", "properties": { "@featureType": "CadastralParcel", "areaValue": { "value": 362, "@uom": "m2" }, "beginLifespanVersion": { "@nilReason": "http://inspire.ec.europa.eu/codelist/VoidReasonValue/Unpopulated", "@nil": "true" }, "endLifespanVersion": { "@nilReason": "http://inspire.ec.europa.eu/codelist/VoidReasonValue/Unpopulated", "@nil": "true" }, "inspireId": { "@dataType": "Identifier", "localId": "844748_1691/2.C", "namespace": "SK.ESKN.CP", "versionId": "20260703T06:07:03" }, "label": "1691/2", "nationalCadastralReference": "844748_1691/2.C", "referencePoint": { "type": "Point", "coordinates": [ 18.83694899, 49.42280692 ] }, "validFrom": "2026-06-30T16:00:00Z", "validTo": { "@nilReason": "http://inspire.ec.europa.eu/codelist/VoidReasonValue/Unpopulated", "@nil": "true" }, "administrativeUnit": { "@href": "#auAdmUnitS.178" } }, "geometry": { "type": "Polygon", "coordinates": [ [ [ 18.83715296, 49.42229864 ], [ 18.83667905, 49.42335536 ], [ 18.83672001, 49.42336774 ], [ 18.83673589, 49.42333915 ], [ 18.83676785, 49.42327927 ], [ 18.83679266, 49.42323049 ], [ 18.8368193, 49.42317566 ], [ 18.83685038, 49.42310816 ], [ 18.83688464, 49.4230291 ], [ 18.83690914, 49.42297029 ], [ 18.83693465, 49.42290647 ], [ 18.83696153, 49.42283704 ], [ 18.83698441, 49.42277679 ], [ 18.83700514, 49.42272166 ], [ 18.83703775, 49.42263449 ], [ 18.83707239, 49.42254084 ], [ 18.83709885, 49.42246679 ], [ 18.83710843, 49.42243887 ], [ 18.83713378, 49.42236269 ], [ 18.83715296, 49.42229864 ] ], [ [ 18.83682933, 49.42311529 ], [ 18.83680982, 49.42311086 ], [ 18.8368166, 49.42309813 ], [ 18.83683612, 49.42310256 ], [ 18.83682933, 49.42311529 ] ] ] } },
{ "type": "Feature", "properties": { "@featureType": "CadastralParcel", "areaValue": { "value": 96, "@uom": "m2" }, "beginLifespanVersion": { "@nilReason": "http://inspire.ec.europa.eu/codelist/VoidReasonValue/Unpopulated", "@nil": "true" }, "endLifespanVersion": { "@nilReason": "http://inspire.ec.europa.eu/codelist/VoidReasonValue/Unpopulated", "@nil": "true" }, "inspireId": { "@dataType": "Identifier", "localId": "844748_1691/1.C", "namespace": "SK.ESKN.CP", "versionId": "20260703T06:07:03" }, "label": "1691/1", "nationalCadastralReference": "844748_1691/1.C", "referencePoint": { "type": "Point", "coordinates": [ 18.83719925, 49.42177358 ] }, "validFrom": "2026-06-30T16:00:00Z", "validTo": { "@nilReason": "http://inspire.ec.europa.eu/codelist/VoidReasonValue/Unpopulated", "@nil": "true" }, "administrativeUnit": { "@href": "#auAdmUnitS.178" } }, "geometry": { "type": "Polygon", "coordinates": [ [ [ 18.83717181, 49.42166157 ], [ 18.83717115, 49.42167507 ], [ 18.83717892, 49.42193117 ], [ 18.83722132, 49.42190276 ], [ 18.83722248, 49.42181732 ], [ 18.83722623, 49.42172984 ], [ 18.83722632, 49.42168881 ], [ 18.83717181, 49.42166157 ] ] ] } },
{ "type": "Feature", "properties": { "@featureType": "CadastralParcel", "areaValue": { "value": 636, "@uom": "m2" }, "beginLifespanVersion": { "@nilReason": "http://inspire.ec.europa.eu/codelist/VoidReasonValue/Unpopulated", "@nil": "true" }, "endLifespanVersion": { "@nilReason": "http://inspire.ec.europa.eu/codelist/VoidReasonValue/Unpopulated", "@nil": "true" }, "inspireId": { "@dataType": "Identifier", "localId": "844748_1690/4.C", "namespace": "SK.ESKN.CP", "versionId": "20260703T06:07:03" }, "label": "1690/4", "nationalCadastralReference": "844748_1690/4.C", "referencePoint": { "type": "Point", "coordinates": [ 18.83710289, 49.42105273 ] }, "validFrom": "2026-06-30T16:00:00Z", "validTo": { "@nilReason": "http://inspire.ec.europa.eu/codelist/VoidReasonValue/Unpopulated", "@nil": "true" }, "administrativeUnit": { "@href": "#auAdmUnitS.178" } }, "geometry": { "type": "Polygon", "coordinates": [ [ [ 18.83704629, 49.42044203 ], [ 18.83702023, 49.42044602 ], [ 18.83703815, 49.42053614 ], [ 18.83703591, 49.42053629 ], [ 18.8369955, 49.42055731 ], [ 18.83697984, 49.42056797 ], [ 18.83696628, 49.42058188 ], [ 18.83695738, 49.42059721 ], [ 18.83695365, 49.42061443 ], [ 18.83695874, 49.42063417 ], [ 18.8369944, 49.42067911 ], [ 18.83706414, 49.42071425 ], [ 18.83707496, 49.42075647 ], [ 18.83708497, 49.42080082 ], [ 18.83709249, 49.42084405 ], [ 18.83706421, 49.42089067 ], [ 18.83703874, 49.42093916 ], [ 18.83704033, 49.42098569 ], [ 18.83705018, 49.4210303 ], [ 18.83705639, 49.42107517 ], [ 18.83706623, 49.42111978 ], [ 18.83707609, 49.4211643 ], [ 18.8370889, 49.42121294 ], [ 18.83709935, 49.42125253 ], [ 18.83710254, 49.42126505 ], [ 18.83711176, 49.42129411 ], [ 18.83712248, 49.42134066 ], [ 18.83712644, 49.42136287 ], [ 18.83712921, 49.42138358 ], [ 18.83713077, 49.42139583 ], [ 18.83712357, 49.42141891 ], [ 18.83711102, 49.42142783 ], [ 18.83713104, 49.42144762 ], [ 18.83713798, 49.42147151 ], [ 18.83714182, 49.42150057 ], [ 18.83714747, 49.42155011 ], [ 18.83715017, 49.42157712 ], [ 18.83715426, 49.42160403 ], [ 18.83715855, 49.42163501 ], [ 18.83717115, 49.42167507 ], [ 18.83717181, 49.42166157 ], [ 18.83719103, 49.42127535 ], [ 18.83714168, 49.42099025 ], [ 18.83712851, 49.42090091 ], [ 18.83711166, 49.42078703 ], [ 18.83704629, 49.42044203 ] ] ] } },
{ "type": "Feature", "properties": { "@featureType": "CadastralParcel", "areaValue": { "value": 2476, "@uom": "m2" }, "beginLifespanVersion": { "@nilReason": "http://inspire.ec.europa.eu/codelist/VoidReasonValue/Unpopulated", "@nil": "true" }, "endLifespanVersion": { "@nilReason": "http://inspire.ec.europa.eu/codelist/VoidReasonValue/Unpopulated", "@nil": "true" }, "inspireId": { "@dataType": "Identifier", "localId": "844748_1690/3.C", "namespace": "SK.ESKN.CP", "versionId": "20260703T06:07:03" }, "label": "1690/3", "nationalCadastralReference": "844748_1690/3.C", "referencePoint": { "type": "Point", "coordinates": [ 18.83693507, 49.42105273 ] }, "validFrom": "2026-06-30T16:00:00Z", "validTo": { "@nilReason": "http://inspire.ec.europa.eu/codelist/VoidReasonValue/Unpopulated", "@nil": "true" }, "administrativeUnit": { "@href": "#auAdmUnitS.178" } }, "geometry": { "type": "Polygon", "coordinates": [ [ [ 18.83702023, 49.42044602 ], [ 18.83636671, 49.42054569 ], [ 18.83672442, 49.42096031 ], [ 18.83704716, 49.42128296 ], [ 18.83715855, 49.42163501 ], [ 18.83715426, 49.42160403 ], [ 18.83715017, 49.42157712 ], [ 18.83714747, 49.42155011 ], [ 18.83714182, 49.42150057 ], [ 18.83713798, 49.42147151 ], [ 18.83713104, 49.42144762 ], [ 18.83711102, 49.42142783 ], [ 18.83712357, 49.42141891 ], [ 18.83713077, 49.42139583 ], [ 18.83712921, 49.42138358 ], [ 18.83712644, 49.42136287 ], [ 18.83712248, 49.42134066 ], [ 18.83711176, 49.42129411 ], [ 18.83710254, 49.42126505 ], [ 18.83709935, 49.42125253 ], [ 18.8370889, 49.42121294 ], [ 18.83707609, 49.4211643 ], [ 18.83706623, 49.42111978 ], [ 18.83705639, 49.42107517 ], [ 18.83705018, 49.4210303 ], [ 18.83704033, 49.42098569 ], [ 18.83703874, 49.42093916 ], [ 18.83706421, 49.42089067 ], [ 18.83709249, 49.42084405 ], [ 18.83708497, 49.42080082 ], [ 18.83707496, 49.42075647 ], [ 18.83706414, 49.42071425 ], [ 18.8369944, 49.42067911 ], [ 18.83695874, 49.42063417 ], [ 18.83695365, 49.42061443 ], [ 18.83695738, 49.42059721 ], [ 18.83696628, 49.42058188 ], [ 18.83697984, 49.42056797 ], [ 18.8369955, 49.42055731 ], [ 18.83703591, 49.42053629 ], [ 18.83703815, 49.42053614 ], [ 18.83702023, 49.42044602 ] ] ] } },
{ "type": "Feature", "properties": { "@featureType": "CadastralParcel", "areaValue": { "value": 29085, "@uom": "m2" }, "beginLifespanVersion": { "@nilReason": "http://inspire.ec.europa.eu/codelist/VoidReasonValue/Unpopulated", "@nil": "true" }, "endLifespanVersion": { "@nilReason": "http://inspire.ec.europa.eu/codelist/VoidReasonValue/Unpopulated", "@nil": "true" }, "inspireId": { "@dataType": "Identifier", "localId": "844748_1665/2.C", "namespace": "SK.ESKN.CP", "versionId": "20260703T06:07:03" }, "label": "1665/2", "nationalCadastralReference": "844748_1665/2.C", "referencePoint": { "type": "Point", "coordinates": [ 18.83304045, 49.41889801 ] }, "validFrom": "2026-06-30T16:00:00Z", "validTo": { "@nilReason": "http://inspire.ec.europa.eu/codelist/VoidReasonValue/Unpopulated", "@nil": "true" }, "administrativeUnit": { "@href": "#auAdmUnitS.178" } }, "geometry": { "type": "Polygon", "coordinates": [ [ [ 18.83439669, 49.41460405 ], [ 18.83403617, 49.41447753 ], [ 18.83292434, 49.41613887 ], [ 18.83258856, 49.41682654 ], [ 18.83250737, 49.41728617 ], [ 18.8325199, 49.41740487 ], [ 18.83266234, 49.41847828 ], [ 18.83295039, 49.41897738 ], [ 18.83329285, 49.41939079 ], [ 18.83413174, 49.41984496 ], [ 18.83465227, 49.42007483 ], [ 18.83540602, 49.42030609 ], [ 18.83613937, 49.4207598 ], [ 18.83646939, 49.42120801 ], [ 18.83653606, 49.42129855 ], [ 18.83665821, 49.42146463 ], [ 18.83676827, 49.42161403 ], [ 18.83673437, 49.42233133 ], [ 18.83651, 49.42330666 ], [ 18.83667905, 49.42335536 ], [ 18.83715296, 49.42229864 ], [ 18.83719512, 49.42220447 ], [ 18.83718725, 49.42207681 ], [ 18.8371812, 49.42197882 ], [ 18.83717956, 49.42195221 ], [ 18.83717892, 49.42193117 ], [ 18.83717115, 49.42167507 ], [ 18.83715855, 49.42163501 ], [ 18.83704716, 49.42128296 ], [ 18.83672442, 49.42096031 ], [ 18.83636671, 49.42054569 ], [ 18.83562872, 49.42005133 ], [ 18.83522818, 49.4199077 ], [ 18.83491957, 49.41977347 ], [ 18.83453959, 49.41958661 ], [ 18.83404799, 49.41938068 ], [ 18.83358189, 49.41922701 ], [ 18.83322327, 49.41898911 ], [ 18.8331354, 49.41881865 ], [ 18.83296173, 49.41848811 ], [ 18.83293374, 49.41844492 ], [ 18.83283612, 49.41803855 ], [ 18.83273835, 49.41741742 ], [ 18.83273115, 49.41726137 ], [ 18.83279028, 49.41701132 ], [ 18.83320503, 49.41630956 ], [ 18.83323298, 49.41626229 ], [ 18.83439669, 49.41460405 ] ], [ [ 18.8370672, 49.42157026 ], [ 18.83699892, 49.42156208 ], [ 18.83699238, 49.42149924 ], [ 18.83706562, 49.42151101 ], [ 18.8370672, 49.42157026 ] ] ] } }
]
}
