{
"type": "FeatureCollection",
"name": "gis",
"crs": { "type": "name", "properties": { "name": "urn:ogc:def:crs:OGC:1.3:CRS84" } },
"features": [
{ "type": "Feature", "properties": { "@featureType": "CadastralParcel", "areaValue": { "value": 13809, "@uom": "m2" }, "beginLifespanVersion": { "@nilReason": "http://inspire.ec.europa.eu/codelist/VoidReasonValue/Unpopulated", "@nil": "true" }, "endLifespanVersion": { "@nilReason": "http://inspire.ec.europa.eu/codelist/VoidReasonValue/Unpopulated", "@nil": "true" }, "inspireId": { "@dataType": "Identifier", "localId": "831077_1290/1.C", "namespace": "SK.ESKN.CP", "versionId": "20260703T05:07:40" }, "label": "1290/1", "nationalCadastralReference": "831077_1290/1.C", "referencePoint": { "type": "Point", "coordinates": [ 18.28459509, 49.07072727 ] }, "validFrom": "2026-06-30T16:00:00Z", "validTo": { "@nilReason": "http://inspire.ec.europa.eu/codelist/VoidReasonValue/Unpopulated", "@nil": "true" }, "administrativeUnit": { "@href": "#auAdmUnitS.1109" } }, "geometry": { "type": "Polygon", "coordinates": [ [ [ 18.2840535, 49.06994 ], [ 18.28404279, 49.06988524 ], [ 18.28404069, 49.06987501 ], [ 18.28369431, 49.06991343 ], [ 18.28322532, 49.0699776 ], [ 18.28262708, 49.06968402 ], [ 18.28262459, 49.06966628 ], [ 18.28264053, 49.06961898 ], [ 18.28250112, 49.0695399 ], [ 18.28229161, 49.0694391 ], [ 18.28216662, 49.06937798 ], [ 18.28216378, 49.06937656 ], [ 18.28216129, 49.06935882 ], [ 18.28213491, 49.06935571 ], [ 18.28205555, 49.06931125 ], [ 18.28208253, 49.0692856 ], [ 18.28192821, 49.06920713 ], [ 18.28176634, 49.06927165 ], [ 18.28173386, 49.0693005 ], [ 18.28162719, 49.06937888 ], [ 18.28160924, 49.06939213 ], [ 18.28167417, 49.06941989 ], [ 18.28170103, 49.06939721 ], [ 18.28196628, 49.06952662 ], [ 18.28200376, 49.06951104 ], [ 18.28210128, 49.06956059 ], [ 18.28208836, 49.06957114 ], [ 18.28233117, 49.06964946 ], [ 18.28267443, 49.06979897 ], [ 18.2831026, 49.07001265 ], [ 18.28305302, 49.07002204 ], [ 18.28294488, 49.07004221 ], [ 18.28287294, 49.07005557 ], [ 18.28279066, 49.0700744 ], [ 18.28277895, 49.07008836 ], [ 18.28271832, 49.07016022 ], [ 18.28270497, 49.07017616 ], [ 18.28298771, 49.07011918 ], [ 18.28297629, 49.07011411 ], [ 18.28315412, 49.07007883 ], [ 18.28323074, 49.07011799 ], [ 18.2832678, 49.07008352 ], [ 18.28334027, 49.07011875 ], [ 18.28341336, 49.07015545 ], [ 18.28359965, 49.07025008 ], [ 18.28362775, 49.07029471 ], [ 18.28361914, 49.07030172 ], [ 18.28391148, 49.07044258 ], [ 18.28379414, 49.07053849 ], [ 18.28417795, 49.07069841 ], [ 18.28475382, 49.07098034 ], [ 18.28484912, 49.07098066 ], [ 18.28636591, 49.07172322 ], [ 18.28645578, 49.07176719 ], [ 18.28641361, 49.0717788 ], [ 18.28648877, 49.07181761 ], [ 18.28681869, 49.0719464 ], [ 18.28702154, 49.07203311 ], [ 18.28760786, 49.07228466 ], [ 18.28779065, 49.07212203 ], [ 18.28742773, 49.0719355 ], [ 18.28704842, 49.07173885 ], [ 18.28700898, 49.07172417 ], [ 18.28693664, 49.07169744 ], [ 18.28686209, 49.07166977 ], [ 18.28665526, 49.07161561 ], [ 18.28651996, 49.07151556 ], [ 18.28647244, 49.07151757 ], [ 18.28619402, 49.07138365 ], [ 18.28622225, 49.07136204 ], [ 18.2857758, 49.07113994 ], [ 18.28577219, 49.07113811 ], [ 18.28574422, 49.07116289 ], [ 18.2849202, 49.07075614 ], [ 18.28503323, 49.07065745 ], [ 18.28499078, 49.07063646 ], [ 18.28501311, 49.07061696 ], [ 18.28503032, 49.07060195 ], [ 18.28460586, 49.07039237 ], [ 18.28465478, 49.07034494 ], [ 18.28422712, 49.07012633 ], [ 18.28423367, 49.07007615 ], [ 18.28418314, 49.07005074 ], [ 18.28407382, 49.07007156 ], [ 18.28402346, 49.07000383 ], [ 18.28405648, 49.06995082 ], [ 18.2840535, 49.06994 ] ], [ [ 18.28373468, 49.0699945 ], [ 18.28421516, 49.07023577 ], [ 18.28423153, 49.070244 ], [ 18.28433529, 49.07029733 ], [ 18.28444939, 49.0703451 ], [ 18.28450448, 49.07037348 ], [ 18.28464969, 49.07047228 ], [ 18.28456031, 49.07056237 ], [ 18.28409768, 49.07036219 ], [ 18.28408199, 49.07035507 ], [ 18.28339844, 49.07004675 ], [ 18.2833804, 49.0700387 ], [ 18.28342915, 49.07003143 ], [ 18.28369252, 49.0699923 ], [ 18.28372166, 49.06998799 ], [ 18.28373468, 49.0699945 ] ] ] } }
]
}
