{
"type": "FeatureCollection",
"name": "gis",
"crs": { "type": "name", "properties": { "name": "urn:ogc:def:crs:OGC:1.3:CRS84" } },
"features": [
{ "type": "Feature", "properties": { "@featureType": "CadastralZoning", "beginLifespanVersion": { "@nilReason": "http://inspire.ec.europa.eu/codelist/VoidReasonValue/Unpopulated", "@nil": "true" }, "endLifespanVersion": { "@nilReason": "http://inspire.ec.europa.eu/codelist/VoidReasonValue/Unpopulated", "@nil": "true" }, "estimatedAccuracy": { "value": -1, "@uom": "m" }, "inspireId": { "@dataType": "Identifier", "localId": "801062", "namespace": "SK.ESKN.CP", "versionId": "20260703T04:07:40" }, "label": "Banská Bystrica", "level": { "@href": "http://inspire.ec.europa.eu/codelist/CadastralZoningLevelValue/3rdOrder" }, "levelName": { "value": "Katastrálne územie", "@locale": "sk" }, "name_1": { "@dataType": "name", "GeographicalName": { "@dataType": "GeographicalName", "language": "SLK", "nativeness": { "@href": "http://inspire.ec.europa.eu/codelist/NativenessValue/endonym", "@title": "endonym" }, "nameStatus": { "@href": "http://inspire.ec.europa.eu/codelist/NameStatusValue/official", "@title": "official" }, "sourceOfName": { "@nilReason": "http://inspire.ec.europa.eu/codelist/VoidReasonValue/Unpopulated", "@nil": "true" }, "pronunciation": { "@dataType": "pronunciation", "@nilReason": "http://inspire.ec.europa.eu/codelist/VoidReasonValue/Unpopulated", "@nil": "true" }, "spelling": { "@dataType": "SpellingOfName", "text": "Banská Bystrica", "script": "LATN" } } }, "nationalCadastalZoningReference": "801062", "validFrom": "2026-06-30T16:00:00Z", "validTo": { "@nilReason": "http://inspire.ec.europa.eu/codelist/VoidReasonValue/Unpopulated", "@nil": "true" }, "place_id": 188751706, "osm_type": "relation", "osm_id": 2265296, "place_rank": 16, "category": "boundary", "type": "administrative", "importance": 0.61653959633050281, "addresstype": "town", "name_2": "Banská Bystrica", "display_name": "Banská Bystrica, okres Banská Bystrica, Banskobystrický kraj, Slovensko" }, "geometry": { "type": "Polygon", "coordinates": [ [ [ 19.14214417, 48.75529903 ], [ 19.14218628, 48.75526782 ], [ 19.1422775, 48.75520026 ], [ 19.14239196, 48.75508739 ], [ 19.14239734, 48.75508207 ], [ 19.14252312, 48.75499826 ], [ 19.14254525, 48.75498095 ], [ 19.14256101, 48.75497307 ], [ 19.14258878, 48.75495901 ], [ 19.14264351, 48.75493204 ], [ 19.14285663, 48.75482719 ], [ 19.14289808, 48.75481877 ], [ 19.14303043, 48.75474935 ], [ 19.14304773, 48.75476283 ], [ 19.14305501, 48.75476842 ], [ 19.14321014, 48.75488662 ], [ 19.14332347, 48.75485766 ], [ 19.1433955, 48.75478121 ], [ 19.14353852, 48.7547345 ], [ 19.14360947, 48.75471121 ], [ 19.14366441, 48.75462662 ], [ 19.1436926, 48.75458707 ], [ 19.14369388, 48.75458541 ], [ 19.14377649, 48.75447793 ], [ 19.14379568, 48.7544529 ], [ 19.14388228, 48.75434028 ], [ 19.14400302, 48.75423097 ], [ 19.14407646, 48.75417588 ], [ 19.14418312, 48.75413225 ], [ 19.14441012, 48.75407976 ], [ 19.14475052, 48.75399641 ], [ 19.14481811, 48.75397989 ], [ 19.14484513, 48.75397735 ], [ 19.14488826, 48.75400256 ], [ 19.1449098, 48.75399658 ], [ 19.14492922, 48.75399123 ], [ 19.14502479, 48.75396491 ], [ 19.1450255, 48.75396467 ], [ 19.14502527, 48.75393643 ], [ 19.14501887, 48.75386731 ], [ 19.1450085, 48.75371836 ], [ 19.14499447, 48.75358492 ], [ 19.14508781, 48.75355533 ], [ 19.14536206, 48.75346837 ], [ 19.14537213, 48.75346489 ], [ 19.14570487, 48.75334897 ], [ 19.14594648, 48.75325381 ], [ 19.14649718, 48.75310623 ], [ 19.1464958, 48.75305909 ], [ 19.14646191, 48.75287913 ], [ 19.14643253, 48.75270146 ], [ 19.14639942, 48.7525219 ], [ 19.14637223, 48.752343 ], [ 19.14635386, 48.75216326 ], [ 19.14633491, 48.75198386 ], [ 19.14631611, 48.75180428 ], [ 19.14629536, 48.75162388 ], [ 19.14631868, 48.75157056 ], [ 19.14650717, 48.75122388 ], [ 19.14652622, 48.75108495 ], [ 19.14660225, 48.7508213 ], [ 19.14665626, 48.75060797 ], [ 19.14672994, 48.75050473 ], [ 19.14682412, 48.75036462 ], [ 19.14692358, 48.75021521 ], [ 19.14695294, 48.7501712 ], [ 19.14696053, 48.75016319 ], [ 19.14702727, 48.7500936 ], [ 19.1471291, 48.74998733 ], [ 19.14733266, 48.74975385 ], [ 19.14766502, 48.74952951 ], [ 19.14784699, 48.7494067 ], [ 19.14800933, 48.74933353 ], [ 19.1480226, 48.74932705 ], [ 19.14803099, 48.74932287 ], [ 19.14815157, 48.74926928 ], [ 19.14839253, 48.74918337 ], [ 19.14848118, 48.74915175 ], [ 19.14866019, 48.74908796 ], [ 19.14886523, 48.74897702 ], [ 19.14897435, 48.7488932 ], [ 19.14899734, 48.74887548 ], [ 19.14902816, 48.74887429 ], [ 19.14906446, 48.74889231 ], [ 19.1492594, 48.74898875 ], [ 19.14946677, 48.74902194 ], [ 19.15005754, 48.74893466 ], [ 19.15037525, 48.74885018 ], [ 19.15066064, 48.74881056 ], [ 19.15070654, 48.74881471 ], [ 19.15080199, 48.74882328 ], [ 19.15080523, 48.74882353 ], [ 19.15086085, 48.74882861 ], [ 19.15091445, 48.74883341 ], [ 19.15098225, 48.74875197 ], [ 19.15103377, 48.74875468 ], [ 19.15104434, 48.74861209 ], [ 19.15102356, 48.74854586 ], [ 19.15098358, 48.74841872 ], [ 19.15097301, 48.74838538 ], [ 19.15093536, 48.74817448 ], [ 19.15097234, 48.74816331 ], [ 19.1513379, 48.74805341 ], [ 19.15191393, 48.74794555 ], [ 19.1525458, 48.74782727 ], [ 19.15256238, 48.74782412 ], [ 19.15282956, 48.74777413 ], [ 19.15286693, 48.74775225 ], [ 19.15292137, 48.74772047 ], [ 19.15305141, 48.74764453 ], [ 19.15319519, 48.74756042 ], [ 19.15332728, 48.74748322 ], [ 19.15339312, 48.7474447 ], [ 19.15340606, 48.74743749 ], [ 19.15366535, 48.74729386 ], [ 19.15379304, 48.74722312 ], [ 19.1542149, 48.74705258 ], [ 19.1542469, 48.74703963 ], [ 19.15481106, 48.74681142 ], [ 19.15512578, 48.74668412 ], [ 19.15514405, 48.74667203 ], [ 19.1552223, 48.74662006 ], [ 19.15524204, 48.74660705 ], [ 19.15525294, 48.74659983 ], [ 19.15570872, 48.7462972 ], [ 19.15571535, 48.74629284 ], [ 19.15572212, 48.74628839 ], [ 19.15575911, 48.74626379 ], [ 19.1557653, 48.74625967 ], [ 19.15602341, 48.74593949 ], [ 19.15603689, 48.74592266 ], [ 19.15612894, 48.74580859 ], [ 19.15621201, 48.74567605 ], [ 19.15629759, 48.74553939 ], [ 19.15636642, 48.74519124 ], [ 19.15661088, 48.74498645 ], [ 19.15667135, 48.74479769 ], [ 19.15668887, 48.7447825 ], [ 19.15671275, 48.74476176 ], [ 19.15675282, 48.74472675 ], [ 19.15690201, 48.74459674 ], [ 19.1570825, 48.7444394 ], [ 19.15727369, 48.74427293 ], [ 19.1574237, 48.74411743 ], [ 19.15753527, 48.7440018 ], [ 19.15769347, 48.74383768 ], [ 19.15772504, 48.74382002 ], [ 19.15784347, 48.74375388 ], [ 19.15795041, 48.74369402 ], [ 19.15807363, 48.74362522 ], [ 19.15820866, 48.74354969 ], [ 19.15837786, 48.74345511 ], [ 19.15840172, 48.74344176 ], [ 19.15852758, 48.74337137 ], [ 19.15866492, 48.74329461 ], [ 19.15882991, 48.74320234 ], [ 19.1590237, 48.74309399 ], [ 19.15908947, 48.74305718 ], [ 19.15922258, 48.74298282 ], [ 19.15924077, 48.74297262 ], [ 19.15924133, 48.74298095 ], [ 19.15924677, 48.74307221 ], [ 19.15924742, 48.74308342 ], [ 19.15926114, 48.74308391 ], [ 19.15931194, 48.74308569 ], [ 19.1593486, 48.74308704 ], [ 19.15935188, 48.74310884 ], [ 19.159383, 48.74331021 ], [ 19.1594068, 48.74346379 ], [ 19.15940792, 48.74347079 ], [ 19.15940939, 48.74348078 ], [ 19.15945627, 48.74352601 ], [ 19.15949859, 48.74356686 ], [ 19.15961645, 48.7436806 ], [ 19.15966715, 48.74372944 ], [ 19.15969098, 48.74375523 ], [ 19.15991583, 48.74399822 ], [ 19.16003345, 48.74404006 ], [ 19.16032427, 48.74414362 ], [ 19.16065907, 48.74423446 ], [ 19.1609251, 48.74421505 ], [ 19.16113658, 48.74425654 ], [ 19.16165746, 48.74439033 ], [ 19.16192134, 48.74445693 ], [ 19.1619969, 48.74448229 ], [ 19.1620351, 48.74451257 ], [ 19.16197673, 48.74462559 ], [ 19.16209485, 48.74467395 ], [ 19.16235197, 48.74481174 ], [ 19.16275557, 48.74501867 ], [ 19.16281207, 48.74504985 ], [ 19.16299443, 48.74515033 ], [ 19.16391701, 48.74556895 ], [ 19.1639697, 48.74554899 ], [ 19.16398662, 48.74554522 ], [ 19.16427528, 48.74548101 ], [ 19.16444841, 48.745507 ], [ 19.16519227, 48.74561888 ], [ 19.16544425, 48.74565676 ], [ 19.16546812, 48.74566036 ], [ 19.16596708, 48.74573443 ], [ 19.16626844, 48.74569195 ], [ 19.16738034, 48.74599122 ], [ 19.16753693, 48.74603335 ], [ 19.16787673, 48.74612476 ], [ 19.16789238, 48.74612752 ], [ 19.16808155, 48.74616123 ], [ 19.16820976, 48.74618411 ], [ 19.16912879, 48.7462443 ], [ 19.17018863, 48.7464243 ], [ 19.17057727, 48.74653019 ], [ 19.17070232, 48.74656427 ], [ 19.17076888, 48.74658241 ], [ 19.17131206, 48.7467305 ], [ 19.1718761, 48.74684471 ], [ 19.17189509, 48.74685042 ], [ 19.17195736, 48.74686916 ], [ 19.17274737, 48.74710743 ], [ 19.17351668, 48.74730653 ], [ 19.17369587, 48.74701545 ], [ 19.173708374492126, 48.746903785927685 ], [ 19.173711253252581, 48.746389590310166 ], [ 19.17370049, 48.74617655 ], [ 19.17375489, 48.74604395 ], [ 19.173762163921793, 48.74604597518492 ], [ 19.173767, 48.7460342 ], [ 19.173970056012198, 48.74609100158667 ], [ 19.17405757, 48.74588607 ], [ 19.174067499888938, 48.745881747070634 ], [ 19.1740697, 48.7458766 ], [ 19.174415062731917, 48.74572665124915 ], [ 19.17424352, 48.74545537 ], [ 19.1742997, 48.74519723 ], [ 19.17431446, 48.74491316 ], [ 19.17431468, 48.74490875 ], [ 19.17420981, 48.74473471 ], [ 19.17400387, 48.74439276 ], [ 19.17394648, 48.74422943 ], [ 19.17388784, 48.74397992 ], [ 19.17389479, 48.74386059 ], [ 19.17390576, 48.74367373 ], [ 19.17394865, 48.74351107 ], [ 19.17398308, 48.74338019 ], [ 19.17400176, 48.74330959 ], [ 19.17402968, 48.74325505 ], [ 19.17405793, 48.74320007 ], [ 19.17409214, 48.74313321 ], [ 19.1741012, 48.74311562 ], [ 19.17414521, 48.74306231 ], [ 19.17424396, 48.7429427 ], [ 19.17427533, 48.74286352 ], [ 19.17428679, 48.74286589 ], [ 19.17431317, 48.74287142 ], [ 19.1743429, 48.74287747 ], [ 19.17437102, 48.74288327 ], [ 19.17467688, 48.7429464 ], [ 19.17470714, 48.74295267 ], [ 19.1748047, 48.74297277 ], [ 19.17486547, 48.74298531 ], [ 19.1748799, 48.74298313 ], [ 19.1749838, 48.74296729 ], [ 19.17507521, 48.74295337 ], [ 19.17517646, 48.74296852 ], [ 19.17518531, 48.74296986 ], [ 19.17544602, 48.74300877 ], [ 19.17563767, 48.74303376 ], [ 19.17582125, 48.74305762 ], [ 19.17594502, 48.74307378 ], [ 19.17597006, 48.74307176 ], [ 19.17612225, 48.74305946 ], [ 19.17625626, 48.74304871 ], [ 19.17623603, 48.74318677 ], [ 19.17644431, 48.74335794 ], [ 19.17656755, 48.74345929 ], [ 19.17831592, 48.74346243 ], [ 19.1785776, 48.74339651 ], [ 19.17906557, 48.74327366 ], [ 19.17924541, 48.74304096 ], [ 19.17936227, 48.74288976 ], [ 19.17950861, 48.74270051 ], [ 19.17954607, 48.74265202 ], [ 19.17958497, 48.74260171 ], [ 19.17961302, 48.74256548 ], [ 19.1796701, 48.74249162 ], [ 19.17982865, 48.74240036 ], [ 19.17994858, 48.74233137 ], [ 19.18001693, 48.74229206 ], [ 19.18008396, 48.7422535 ], [ 19.18017649, 48.74220031 ], [ 19.18020083, 48.74218626 ], [ 19.18029643, 48.74213123 ], [ 19.18041093, 48.74203277 ], [ 19.18054412, 48.74191835 ], [ 19.18057805, 48.74188926 ], [ 19.18059675, 48.74187322 ], [ 19.18060732, 48.74186409 ], [ 19.18061335, 48.74185888 ], [ 19.18062558, 48.7418483 ], [ 19.18072439, 48.74176331 ], [ 19.18073398, 48.7417507 ], [ 19.18081554, 48.74154322 ], [ 19.18083018, 48.74150615 ], [ 19.18086811, 48.74140962 ], [ 19.18106395, 48.74091167 ], [ 19.18113883, 48.74072117 ], [ 19.18114361, 48.74070887 ], [ 19.18112688, 48.74053536 ], [ 19.18104883, 48.74052613 ], [ 19.18105299, 48.74048891 ], [ 19.18106172, 48.74041088 ], [ 19.18106628, 48.74037007 ], [ 19.18114844, 48.74036687 ], [ 19.18130949, 48.74028006 ], [ 19.1813143, 48.73996873 ], [ 19.18126216, 48.73974614 ], [ 19.1811541, 48.73947482 ], [ 19.18104414, 48.73932425 ], [ 19.1809083, 48.73911245 ], [ 19.18048838, 48.73864534 ], [ 19.1802164, 48.73840496 ], [ 19.18005003, 48.73830168 ], [ 19.17989581, 48.73818727 ], [ 19.17941605, 48.73794331 ], [ 19.17924048, 48.73785401 ], [ 19.17904105, 48.7378208 ], [ 19.17905124, 48.73780768 ], [ 19.17909603, 48.73774973 ], [ 19.17908619, 48.73764509 ], [ 19.17951981, 48.73773592 ], [ 19.17998274, 48.73783288 ], [ 19.18062249, 48.7379861 ], [ 19.18160141, 48.73821037 ], [ 19.18257327, 48.73844178 ], [ 19.18339052, 48.73863297 ], [ 19.18403551, 48.73880653 ], [ 19.18402862, 48.73890837 ], [ 19.18415155, 48.73890031 ], [ 19.18523546, 48.73905646 ], [ 19.18610163, 48.7392493 ], [ 19.18614672, 48.73925935 ], [ 19.18617464, 48.73926576 ], [ 19.18630718, 48.73929614 ], [ 19.18643573, 48.73932559 ], [ 19.18679241, 48.73940723 ], [ 19.18720506, 48.7395017 ], [ 19.18749887, 48.73954942 ], [ 19.18821159, 48.73972221 ], [ 19.1882838, 48.73973972 ], [ 19.18832884, 48.73963677 ], [ 19.1883464, 48.73959669 ], [ 19.18833203, 48.73944944 ], [ 19.18830148, 48.73930907 ], [ 19.18810897, 48.73879746 ], [ 19.1880513, 48.73860824 ], [ 19.18802387, 48.73836919 ], [ 19.18805011, 48.73812437 ], [ 19.1881202, 48.73787764 ], [ 19.18819413, 48.73773327 ], [ 19.18819817, 48.73772517 ], [ 19.18823408, 48.73765505 ], [ 19.18823798, 48.73765064 ], [ 19.18832636, 48.737549 ], [ 19.18841643, 48.73744563 ], [ 19.18846819, 48.73738621 ], [ 19.18848268, 48.73736636 ], [ 19.18854039, 48.73728783 ], [ 19.1885888, 48.73722184 ], [ 19.18859333, 48.73721422 ], [ 19.1886428, 48.73713132 ], [ 19.18869545, 48.73704318 ], [ 19.18870382, 48.73702925 ], [ 19.18872107, 48.73697733 ], [ 19.18874415, 48.7369074 ], [ 19.18874933, 48.73689151 ], [ 19.18876144, 48.73685513 ], [ 19.18876255, 48.7368403 ], [ 19.18876825, 48.7367697 ], [ 19.18877435, 48.73669181 ], [ 19.18877862, 48.73663891 ], [ 19.18874742, 48.7363884 ], [ 19.18867385, 48.73618776 ], [ 19.18858583, 48.73604197 ], [ 19.1885521, 48.73600218 ], [ 19.18841561, 48.73584121 ], [ 19.18824711, 48.73568482 ], [ 19.18794126, 48.73540087 ], [ 19.18784764, 48.73531387 ], [ 19.18774636, 48.73521974 ], [ 19.18772066, 48.73519594 ], [ 19.18749325, 48.73512891 ], [ 19.18753953, 48.73505263 ], [ 19.18749571, 48.73501288 ], [ 19.18724304, 48.73478384 ], [ 19.18703062, 48.73459111 ], [ 19.18694074, 48.73450971 ], [ 19.18663212, 48.73422995 ], [ 19.18662061, 48.73421947 ], [ 19.18658013, 48.73418277 ], [ 19.18652047, 48.73412863 ], [ 19.18648296, 48.73409461 ], [ 19.18644508, 48.73406029 ], [ 19.18634593, 48.73397032 ], [ 19.18632042, 48.73394725 ], [ 19.1862466, 48.73387826 ], [ 19.18618266, 48.7338185 ], [ 19.18608169, 48.73372411 ], [ 19.18598763, 48.73363618 ], [ 19.18590122, 48.7335554 ], [ 19.18582284, 48.73348213 ], [ 19.18577803, 48.73344026 ], [ 19.18569681, 48.73336433 ], [ 19.18548352, 48.73316489 ], [ 19.18534909, 48.73303928 ], [ 19.18531799, 48.73301016 ], [ 19.18526133, 48.73295725 ], [ 19.18531929, 48.73293267 ], [ 19.18532816, 48.73292887 ], [ 19.18535795, 48.73290264 ], [ 19.18539196, 48.7328703 ], [ 19.18543673, 48.73282343 ], [ 19.18546204, 48.73279581 ], [ 19.18627905, 48.73345474 ], [ 19.1877514, 48.73429799 ], [ 19.18869956, 48.73472415 ], [ 19.18972956, 48.73496555 ], [ 19.19020615, 48.73504022 ], [ 19.19028742, 48.73472974 ], [ 19.19029358, 48.73470632 ], [ 19.19029545, 48.73469938 ], [ 19.19029862, 48.73468808 ], [ 19.19031699, 48.73462116 ], [ 19.19032358, 48.73460002 ], [ 19.19033988, 48.7345248 ], [ 19.19052411, 48.733745 ], [ 19.19072579, 48.73364194 ], [ 19.19077835, 48.73356795 ], [ 19.19094489, 48.73323737 ], [ 19.19096041, 48.73319962 ], [ 19.1910094, 48.73308072 ], [ 19.19103072, 48.73302892 ], [ 19.19108346, 48.73290443 ], [ 19.19140734, 48.73252102 ], [ 19.19161979, 48.73221874 ], [ 19.19162436, 48.73216432 ], [ 19.19163729, 48.73211932 ], [ 19.19167245, 48.73199722 ], [ 19.19169253, 48.73192723 ], [ 19.1917988, 48.7316663 ], [ 19.19204908, 48.73136939 ], [ 19.1921865, 48.73107364 ], [ 19.19250768, 48.73062625 ], [ 19.19268035, 48.73048615 ], [ 19.19280846, 48.73030186 ], [ 19.1928975, 48.73000834 ], [ 19.19294925, 48.72967757 ], [ 19.19304624, 48.72948147 ], [ 19.1932599, 48.72892369 ], [ 19.19344917, 48.72865779 ], [ 19.19391325, 48.72823424 ], [ 19.19436428, 48.72767586 ], [ 19.19433891, 48.72728235 ], [ 19.19381529, 48.72695297 ], [ 19.19377942, 48.72577249 ], [ 19.19442343, 48.72543411 ], [ 19.19451, 48.72454529 ], [ 19.194528490000419, 48.724082872346841 ], [ 19.194522839159582, 48.724086094285845 ], [ 19.19452007, 48.72409065 ], [ 19.19373686, 48.72453713 ], [ 19.193442864724904, 48.724608760151298 ], [ 19.191856590426724, 48.725031097316766 ], [ 19.19184092, 48.72504173 ], [ 19.19175848, 48.72491325 ], [ 19.19161879, 48.72487036 ], [ 19.19147079, 48.72452316 ], [ 19.19107604, 48.72422775 ], [ 19.19094153, 48.72392828 ], [ 19.19044755, 48.7236769 ], [ 19.19040484, 48.72370547 ], [ 19.190336418949197, 48.723617334102642 ], [ 19.189996141536888, 48.723285555726918 ], [ 19.18958911, 48.72292976 ], [ 19.18932829, 48.72265577 ], [ 19.189332109108125, 48.722635469282395 ], [ 19.18927020140503, 48.722554659558142 ], [ 19.18905089, 48.72228853 ], [ 19.18902598, 48.72226017 ], [ 19.18883899, 48.72190835 ], [ 19.18878273, 48.7216724 ], [ 19.18857009281508, 48.721661105424324 ], [ 19.187662831232483, 48.721652252642677 ], [ 19.18725597, 48.72165785 ], [ 19.18585993, 48.72180784 ], [ 19.18547103, 48.72175095 ], [ 19.18514183, 48.72152564 ], [ 19.18491147, 48.72132815 ], [ 19.18268173, 48.72152076 ], [ 19.18140262, 48.7215195 ], [ 19.17968758, 48.72141393 ], [ 19.17948262, 48.72091873 ], [ 19.179497479336586, 48.720916407013711 ], [ 19.1794947, 48.7209097 ], [ 19.179556451456726, 48.720900069038862 ], [ 19.17951132, 48.72078396 ], [ 19.179427096885838, 48.720669115879971 ], [ 19.179256097347746, 48.720482041830998 ], [ 19.17920282, 48.72044692 ], [ 19.17913144, 48.72042223 ], [ 19.17898965, 48.72040312 ], [ 19.178455298908677, 48.720424698251975 ], [ 19.178376192882542, 48.720429112065915 ], [ 19.17820508, 48.72044768 ], [ 19.17793267, 48.72039737 ], [ 19.17766348, 48.7203427 ], [ 19.1772419, 48.72012727 ], [ 19.17649851, 48.71974277 ], [ 19.17620536, 48.71957331 ], [ 19.17597649, 48.71948598 ], [ 19.17561763, 48.71935694 ], [ 19.17531882, 48.71920163 ], [ 19.17497974, 48.71904073 ], [ 19.17486297, 48.71896376 ], [ 19.17479921, 48.71890022 ], [ 19.174768607273005, 48.718709367480848 ], [ 19.174761309475009, 48.718678366672286 ], [ 19.17472529, 48.71858638 ], [ 19.17451242, 48.71839378 ], [ 19.17445145, 48.71840279 ], [ 19.17417617, 48.71825646 ], [ 19.1740004, 48.71824262 ], [ 19.173869480234661, 48.718258422100128 ], [ 19.173510393351549, 48.7183209952643 ], [ 19.17345558, 48.71833839 ], [ 19.173426920338731, 48.718348653134683 ], [ 19.173257185657075, 48.71843254009864 ], [ 19.17298449, 48.71860208 ], [ 19.1725381, 48.71879123 ], [ 19.17236571, 48.7188459 ], [ 19.172313967369057, 48.718857086701902 ], [ 19.172058345634298, 48.718938410026119 ], [ 19.17171911, 48.71907032 ], [ 19.17163206, 48.71909311 ], [ 19.17141277, 48.7191527 ], [ 19.17125494, 48.71919908 ], [ 19.171226112166881, 48.719216544164468 ], [ 19.170899502989425, 48.719427495451384 ], [ 19.170840045193049, 48.719467124087508 ], [ 19.170812637787261, 48.719489874696052 ], [ 19.1705539, 48.71971481 ], [ 19.170472982018499, 48.719771819492131 ], [ 19.1703123, 48.7199052 ], [ 19.1701005, 48.72048 ], [ 19.170089449465209, 48.720486944334013 ], [ 19.17008829, 48.72048919 ], [ 19.17003683, 48.72052274 ], [ 19.16990595, 48.7206083 ], [ 19.169855156605763, 48.720634177739811 ], [ 19.169437016462549, 48.720896943739298 ], [ 19.16940791, 48.72091755 ], [ 19.16931815, 48.7209402 ], [ 19.16904735, 48.72094857 ], [ 19.16879531, 48.72105705 ], [ 19.168558677738236, 48.721063987720427 ], [ 19.167545493881757, 48.721129036122598 ], [ 19.16747999, 48.72113557 ], [ 19.16747574, 48.72116864 ], [ 19.16741187, 48.72116695 ], [ 19.16729105, 48.72116381 ], [ 19.16718355, 48.72116107 ], [ 19.16730455, 48.72075623 ], [ 19.16666307, 48.72002224 ], [ 19.16669565, 48.71971316 ], [ 19.16646104, 48.71841341 ], [ 19.166473393717116, 48.718404873994118 ], [ 19.1664732, 48.7184038 ], [ 19.166981851520756, 48.718052698014894 ], [ 19.16743276, 48.71757415 ], [ 19.167439274204487, 48.717569969549004 ], [ 19.1674447, 48.7175642 ], [ 19.168312428990632, 48.717008362185204 ], [ 19.1684466, 48.71687817 ], [ 19.168389586196632, 48.716660958114375 ], [ 19.168321826239801, 48.716456794128241 ], [ 19.16821372, 48.71627191 ], [ 19.16818442435056, 48.716042795673687 ], [ 19.168166243123778, 48.71598801476906 ], [ 19.16812183, 48.71594861 ], [ 19.16807159, 48.7158253 ], [ 19.16804033, 48.71565423 ], [ 19.16811047, 48.71542951 ], [ 19.16825892, 48.71523569 ], [ 19.16834055, 48.71516394 ], [ 19.168426536325878, 48.715120276328108 ], [ 19.169271295943446, 48.714544433250843 ], [ 19.169310451940103, 48.714506262946173 ], [ 19.169570451368717, 48.714231022171738 ], [ 19.16959886, 48.71419849 ], [ 19.16968636, 48.71408645 ], [ 19.1698479, 48.71393385 ], [ 19.16985609, 48.71379988 ], [ 19.16990559, 48.71362555 ], [ 19.16993755, 48.71354577 ], [ 19.1698788, 48.71354839 ], [ 19.1698199, 48.71355101 ], [ 19.16983602, 48.71337053 ], [ 19.16984251, 48.71315441 ], [ 19.16978364, 48.71286475 ], [ 19.16969962, 48.71259279 ], [ 19.1696921, 48.71241657 ], [ 19.16971385, 48.71232818 ], [ 19.16974652, 48.71219829 ], [ 19.16989662, 48.7117827 ], [ 19.17000916, 48.71158081 ], [ 19.1701327, 48.71139027 ], [ 19.17020454, 48.71132309 ], [ 19.17048286, 48.71108639 ], [ 19.170484774152552, 48.711085226608198 ], [ 19.1704947, 48.7110766 ], [ 19.170563133607452, 48.711037600964524 ], [ 19.17066271, 48.71097708 ], [ 19.170727234213388, 48.710944083092372 ], [ 19.171550050798494, 48.710475175279555 ], [ 19.171579246854396, 48.710448304998621 ], [ 19.172184434455033, 48.709831194298985 ], [ 19.1722146, 48.70979784 ], [ 19.17222138117209, 48.70979351967646 ], [ 19.1722265, 48.7097883 ], [ 19.1724791, 48.7096271 ], [ 19.1726711, 48.7095441 ], [ 19.1739486, 48.7092822 ], [ 19.1749675, 48.7088845 ], [ 19.17499, 48.7089128 ], [ 19.175317974966482, 48.708666631906645 ], [ 19.17553094, 48.70848501 ], [ 19.175760582040564, 48.708334424419292 ], [ 19.175767278405683, 48.7083293983301 ], [ 19.17573064, 48.70829549 ], [ 19.17649052, 48.70700544 ], [ 19.17608929, 48.70639221 ], [ 19.17584187, 48.70655775 ], [ 19.17540142, 48.70676793 ], [ 19.17529488, 48.70683125 ], [ 19.17503445, 48.70690596 ], [ 19.17482536, 48.70694802 ], [ 19.17429767, 48.70718279 ], [ 19.17415544, 48.70726059 ], [ 19.17400999, 48.70731839 ], [ 19.17382469, 48.70736702 ], [ 19.17371577, 48.70736619 ], [ 19.17350397, 48.70738377 ], [ 19.1734328, 48.70738659 ], [ 19.17315304, 48.70754873 ], [ 19.17287268, 48.70759451 ], [ 19.17253283, 48.70759949 ], [ 19.17222507, 48.70762228 ], [ 19.17215219, 48.707616 ], [ 19.17154182, 48.70774931 ], [ 19.17133694, 48.7076563 ], [ 19.17107093, 48.70779295 ], [ 19.17097561, 48.70785321 ], [ 19.17100146, 48.70799967 ], [ 19.17052805, 48.70826052 ], [ 19.17047224, 48.70827222 ], [ 19.17023357, 48.70837144 ], [ 19.16976041, 48.70854482 ], [ 19.16948345, 48.70863315 ], [ 19.16930456, 48.70867307 ], [ 19.16892585, 48.7088547 ], [ 19.16887491, 48.70890811 ], [ 19.16868693, 48.70899268 ], [ 19.16857204, 48.70900869 ], [ 19.16837348, 48.7090783 ], [ 19.16801644, 48.70930969 ], [ 19.16789091, 48.70934772 ], [ 19.16774189, 48.70935213 ], [ 19.16756173, 48.70948849 ], [ 19.16742897, 48.70954239 ], [ 19.16704643, 48.70980679 ], [ 19.16696817, 48.70986067 ], [ 19.16683318, 48.7101291 ], [ 19.16670185, 48.71030392 ], [ 19.16628121, 48.71050693 ], [ 19.16618473, 48.71056532 ], [ 19.16607138, 48.710677 ], [ 19.16598524, 48.71071606 ], [ 19.16570609, 48.71098192 ], [ 19.16564549, 48.71104839 ], [ 19.16553374, 48.71121876 ], [ 19.16545684, 48.7112727 ], [ 19.16538465, 48.71135753 ], [ 19.16533997, 48.71136706 ], [ 19.16511568, 48.71149584 ], [ 19.16470094, 48.71179202 ], [ 19.16451605, 48.71189747 ], [ 19.16450065, 48.71192792 ], [ 19.16449155, 48.71194587 ], [ 19.16384289, 48.71251734 ], [ 19.16365424, 48.71261991 ], [ 19.16343024, 48.71277034 ], [ 19.16332391, 48.71286792 ], [ 19.16318624, 48.7130262 ], [ 19.16302289, 48.71314623 ], [ 19.16297112, 48.71320682 ], [ 19.16282521, 48.71343864 ], [ 19.16253374, 48.71358305 ], [ 19.16247169, 48.71362599 ], [ 19.16231556, 48.71400971 ], [ 19.16218688, 48.71414859 ], [ 19.16204877, 48.71422568 ], [ 19.16180502, 48.71441842 ], [ 19.16168141, 48.71482809 ], [ 19.16164208, 48.71492355 ], [ 19.1615747, 48.71501403 ], [ 19.16142086, 48.71542582 ], [ 19.16137613, 48.71567884 ], [ 19.16139516, 48.71587367 ], [ 19.16134223, 48.71598109 ], [ 19.16117914, 48.71619583 ], [ 19.16097886, 48.71637763 ], [ 19.16084295, 48.71647151 ], [ 19.16065362, 48.71656772 ], [ 19.15975237, 48.71682647 ], [ 19.15951337, 48.71694639 ], [ 19.15936715, 48.71699242 ], [ 19.15925038, 48.71701283 ], [ 19.15796563, 48.71711835 ], [ 19.15748247, 48.71703959 ], [ 19.15705185, 48.71705135 ], [ 19.15680152, 48.71699891 ], [ 19.15587148, 48.71676111 ], [ 19.15574716, 48.71684879 ], [ 19.15505755, 48.71733433 ], [ 19.15490065, 48.71747542 ], [ 19.15458605, 48.71767369 ], [ 19.15433542, 48.71776958 ], [ 19.15394836, 48.71786418 ], [ 19.15385039, 48.71781301 ], [ 19.15339495, 48.7178164 ], [ 19.1532551, 48.7178493 ], [ 19.15325819, 48.71795649 ], [ 19.15320115, 48.71796316 ], [ 19.15317948, 48.71794009 ], [ 19.15313451, 48.71795709 ], [ 19.15314619, 48.71796956 ], [ 19.15304896, 48.71798092 ], [ 19.15258663, 48.71826039 ], [ 19.15192381, 48.71866102 ], [ 19.15103077, 48.71860942 ], [ 19.15040802, 48.71852963 ], [ 19.15013576, 48.71855592 ], [ 19.14997129, 48.71858832 ], [ 19.14957314, 48.71869417 ], [ 19.14900895, 48.7189604 ], [ 19.14858985, 48.71908767 ], [ 19.14776886, 48.7195649 ], [ 19.14733436, 48.72016848 ], [ 19.14635055, 48.72072129 ], [ 19.14625095, 48.72079854 ], [ 19.14610657, 48.72091039 ], [ 19.14571177, 48.72100683 ], [ 19.14551262, 48.72105546 ], [ 19.14440574, 48.72164296 ], [ 19.14365346, 48.72204419 ], [ 19.14338674, 48.72220384 ], [ 19.14328122, 48.722267 ], [ 19.14261369, 48.72266835 ], [ 19.14226919, 48.72297892 ], [ 19.14210212, 48.72323772 ], [ 19.14192124, 48.72332611 ], [ 19.14194419, 48.72357155 ], [ 19.14182877, 48.72371782 ], [ 19.14175838, 48.72370128 ], [ 19.14151649, 48.72417554 ], [ 19.14157648, 48.72421655 ], [ 19.14121416, 48.72491052 ], [ 19.14089832, 48.72506549 ], [ 19.14080253, 48.7256585 ], [ 19.14060308, 48.72568529 ], [ 19.13849765, 48.72570415 ], [ 19.13822705, 48.72569216 ], [ 19.13822027, 48.72569182 ], [ 19.13818262, 48.7256897 ], [ 19.1381696, 48.72568905 ], [ 19.13810242, 48.72568529 ], [ 19.13809348, 48.72568476 ], [ 19.13807939, 48.72568397 ], [ 19.13796508, 48.72568835 ], [ 19.13754423, 48.72570448 ], [ 19.13752497, 48.72570488 ], [ 19.13743711, 48.72570668 ], [ 19.13743531, 48.72587876 ], [ 19.13743013, 48.72616799 ], [ 19.13740967, 48.72649841 ], [ 19.13740252, 48.7268257 ], [ 19.1373961, 48.72713074 ], [ 19.13740183, 48.72726991 ], [ 19.13741215, 48.72751951 ], [ 19.1374036, 48.72752405 ], [ 19.1373665, 48.72754359 ], [ 19.13715125, 48.72765734 ], [ 19.13715043, 48.72767065 ], [ 19.13713065, 48.72766958 ], [ 19.13712889, 48.72766949 ], [ 19.13701508, 48.72772259 ], [ 19.13701248, 48.72772264 ], [ 19.1369794, 48.72772345 ], [ 19.13696587, 48.72773099 ], [ 19.1368367, 48.72780308 ], [ 19.13682288, 48.72781078 ], [ 19.13680482, 48.72780655 ], [ 19.13677787, 48.72780008 ], [ 19.13671533, 48.72783857 ], [ 19.13671373, 48.72783949 ], [ 19.13649314, 48.72797516 ], [ 19.13647836, 48.72798417 ], [ 19.13644113, 48.72800731 ], [ 19.13636858, 48.72805225 ], [ 19.13627436, 48.72811182 ], [ 19.13622953, 48.7281455 ], [ 19.13620632, 48.72816275 ], [ 19.13619827, 48.72816885 ], [ 19.13618197, 48.72817797 ], [ 19.13616437, 48.72818783 ], [ 19.13602379, 48.72826675 ], [ 19.13593344, 48.72832578 ], [ 19.13585352, 48.72837812 ], [ 19.1357785, 48.72841843 ], [ 19.13570957, 48.72845543 ], [ 19.13568592, 48.72846815 ], [ 19.1355517, 48.72854026 ], [ 19.13548714, 48.72858082 ], [ 19.13545063, 48.72860363 ], [ 19.13542128, 48.72862212 ], [ 19.13541717, 48.72862471 ], [ 19.13539059, 48.72863197 ], [ 19.13538325, 48.72863422 ], [ 19.13529497, 48.72866152 ], [ 19.1352814, 48.72866581 ], [ 19.13526741, 48.72867017 ], [ 19.13526111, 48.72866679 ], [ 19.13514921, 48.72860617 ], [ 19.13506647, 48.72856133 ], [ 19.13500699, 48.72852908 ], [ 19.13486812, 48.72849238 ], [ 19.13477572, 48.72848611 ], [ 19.13464357, 48.72849266 ], [ 19.13455567, 48.72850934 ], [ 19.13450546, 48.72852183 ], [ 19.13447194, 48.72853019 ], [ 19.13442143, 48.72854655 ], [ 19.1342697, 48.72860336 ], [ 19.13426768, 48.72860074 ], [ 19.1342557, 48.7285849 ], [ 19.13421159, 48.72857109 ], [ 19.13410768, 48.72853873 ], [ 19.13404052, 48.72851774 ], [ 19.13391739, 48.72850229 ], [ 19.13370403, 48.72852666 ], [ 19.13365016, 48.72853888 ], [ 19.13256547, 48.72879622 ], [ 19.13249516, 48.72881286 ], [ 19.13207397, 48.72891283 ], [ 19.13198797, 48.72893077 ], [ 19.13195244, 48.72893876 ], [ 19.13176069, 48.72898665 ], [ 19.1316188, 48.72903601 ], [ 19.13154808, 48.72906958 ], [ 19.13152617, 48.72908014 ], [ 19.13142629, 48.72912805 ], [ 19.13133845, 48.72918162 ], [ 19.13132917, 48.729189 ], [ 19.13131103, 48.72920362 ], [ 19.13125858, 48.72924558 ], [ 19.13094762, 48.72953325 ], [ 19.13093148, 48.72954824 ], [ 19.13069526, 48.72976673 ], [ 19.13064169, 48.7298163 ], [ 19.13059937, 48.72985543 ], [ 19.13058459, 48.72986922 ], [ 19.13045781, 48.72998642 ], [ 19.13044123, 48.73000174 ], [ 19.13032036, 48.73011365 ], [ 19.1302954, 48.73013676 ], [ 19.13017485, 48.73024823 ], [ 19.13015734, 48.7302645 ], [ 19.13008262, 48.7303335 ], [ 19.13006131, 48.73035319 ], [ 19.12998321, 48.73042554 ], [ 19.12996632, 48.73044112 ], [ 19.12984226, 48.73055594 ], [ 19.12982323, 48.73057358 ], [ 19.12969811, 48.73068933 ], [ 19.12968107, 48.73070508 ], [ 19.12955808, 48.73081886 ], [ 19.1295392, 48.73083633 ], [ 19.12941926, 48.73094728 ], [ 19.12932639, 48.73101277 ], [ 19.12932324, 48.73101532 ], [ 19.12928918, 48.73104295 ], [ 19.12928722, 48.73104457 ], [ 19.1291888, 48.731117 ], [ 19.12890778, 48.73132398 ], [ 19.12884355, 48.73137131 ], [ 19.12775991, 48.73216941 ], [ 19.12749896, 48.73236277 ], [ 19.12750622, 48.73246513 ], [ 19.12740346, 48.73253969 ], [ 19.12739708, 48.73254424 ], [ 19.12688791, 48.73291356 ], [ 19.12674338, 48.73291607 ], [ 19.12648805, 48.73311638 ], [ 19.12633769, 48.73321402 ], [ 19.12630488, 48.7332354 ], [ 19.12616229, 48.73334271 ], [ 19.126063, 48.73342636 ], [ 19.12595711, 48.73353585 ], [ 19.12571302, 48.73379227 ], [ 19.12555011, 48.73396243 ], [ 19.12552398, 48.73398981 ], [ 19.12537791, 48.73415332 ], [ 19.12520908, 48.73432273 ], [ 19.12502781, 48.73450452 ], [ 19.12477331, 48.73475528 ], [ 19.12465036, 48.73487447 ], [ 19.12455913, 48.73496276 ], [ 19.12441264, 48.73511064 ], [ 19.12439696, 48.73512628 ], [ 19.12427297, 48.73524993 ], [ 19.12411742, 48.73540313 ], [ 19.12397686, 48.7355431 ], [ 19.12396855, 48.73555143 ], [ 19.12395427, 48.73556561 ], [ 19.12394244, 48.73557747 ], [ 19.12386668, 48.73565309 ], [ 19.12378546, 48.73575414 ], [ 19.12371209, 48.73587136 ], [ 19.1236676, 48.73600453 ], [ 19.12364827, 48.73610927 ], [ 19.12364645, 48.73612298 ], [ 19.12363956, 48.73617549 ], [ 19.12363236, 48.73623078 ], [ 19.1236343, 48.73624016 ], [ 19.12364106, 48.73627206 ], [ 19.12364302, 48.73628127 ], [ 19.12365676, 48.73634679 ], [ 19.1236572, 48.73634888 ], [ 19.12366161, 48.73637021 ], [ 19.12366571, 48.73638944 ], [ 19.12366649, 48.73639462 ], [ 19.1236377, 48.73639842 ], [ 19.12358809, 48.7364067 ], [ 19.12350637, 48.73642043 ], [ 19.12346589, 48.7364251 ], [ 19.12343894, 48.73642828 ], [ 19.1234511, 48.7364884 ], [ 19.12337172, 48.73655383 ], [ 19.12318592, 48.73666216 ], [ 19.1229973, 48.73671209 ], [ 19.1228991, 48.73671355 ], [ 19.12286354, 48.73671332 ], [ 19.12271777, 48.73671225 ], [ 19.12250682, 48.7367149 ], [ 19.12204666, 48.73680533 ], [ 19.12198786, 48.73683579 ], [ 19.12168512, 48.73704502 ], [ 19.12161141, 48.73709765 ], [ 19.12113735, 48.73717468 ], [ 19.12098949, 48.73728019 ], [ 19.12095413, 48.7373578 ], [ 19.12091952, 48.73744087 ], [ 19.1208868, 48.73746495 ], [ 19.12063836, 48.73755187 ], [ 19.12052788, 48.73757031 ], [ 19.1202749, 48.73761903 ], [ 19.12001762, 48.73768053 ], [ 19.11977325, 48.73786532 ], [ 19.1196676, 48.73797373 ], [ 19.11957386, 48.73804304 ], [ 19.11929478, 48.73816587 ], [ 19.11901875, 48.73829786 ], [ 19.11899664, 48.73849338 ], [ 19.11887331, 48.73860136 ], [ 19.11863488, 48.73869012 ], [ 19.11854816, 48.73870342 ], [ 19.11837547, 48.73877153 ], [ 19.11831129, 48.7389352 ], [ 19.11830485, 48.73899215 ], [ 19.11820867, 48.73906495 ], [ 19.11816158, 48.7390775 ], [ 19.11808178, 48.73907175 ], [ 19.11794412, 48.73904952 ], [ 19.1178491, 48.73892271 ], [ 19.11780829, 48.73890986 ], [ 19.1177456, 48.73889143 ], [ 19.11770113, 48.73889284 ], [ 19.117661, 48.7389161 ], [ 19.11754606, 48.73904029 ], [ 19.11751017, 48.73906827 ], [ 19.11724685, 48.73923246 ], [ 19.11719116, 48.73926668 ], [ 19.11705171, 48.73932426 ], [ 19.11698552, 48.73933677 ], [ 19.11672208, 48.7393332 ], [ 19.11645505, 48.7393529 ], [ 19.11635755, 48.73936747 ], [ 19.11601911, 48.73949051 ], [ 19.11591253, 48.7395057 ], [ 19.11574473, 48.7395185 ], [ 19.11568445, 48.73950533 ], [ 19.11563675, 48.73947988 ], [ 19.11552826, 48.73942879 ], [ 19.11547296, 48.73939809 ], [ 19.11543245, 48.73938139 ], [ 19.11540929, 48.73938475 ], [ 19.11536285, 48.7393939 ], [ 19.11526642, 48.73943035 ], [ 19.11526955, 48.73947983 ], [ 19.11529418, 48.73956222 ], [ 19.11523709, 48.73966067 ], [ 19.11511547, 48.7397498 ], [ 19.11495269, 48.7397917 ], [ 19.11474429, 48.73983189 ], [ 19.11455553, 48.73985519 ], [ 19.11433977, 48.73986408 ], [ 19.11411694, 48.73987875 ], [ 19.1140851, 48.73991785 ], [ 19.11407004, 48.7399365 ], [ 19.11419882, 48.74022281 ], [ 19.11430311, 48.74045443 ], [ 19.11431454, 48.74047989 ], [ 19.11442012, 48.74071455 ], [ 19.11450981, 48.7409137 ], [ 19.11463709, 48.74119651 ], [ 19.11465284, 48.74122841 ], [ 19.11469028, 48.74130484 ], [ 19.11479693, 48.7415217 ], [ 19.11487624, 48.74160652 ], [ 19.11491991, 48.74165315 ], [ 19.11492271, 48.74165617 ], [ 19.11494667, 48.7416818 ], [ 19.1151093, 48.74201975 ], [ 19.11512817, 48.7420205 ], [ 19.11517744, 48.74202249 ], [ 19.11519333, 48.74205682 ], [ 19.11523261, 48.74204713 ], [ 19.11533991, 48.74202079 ], [ 19.1153796, 48.74201103 ], [ 19.11539096, 48.74200826 ], [ 19.11539489, 48.74200728 ], [ 19.11560948, 48.74197993 ], [ 19.11548411, 48.74241555 ], [ 19.11553895, 48.74249248 ], [ 19.11554495, 48.7425009 ], [ 19.11546952, 48.74251917 ], [ 19.11524156, 48.74257426 ], [ 19.11489516, 48.74265903 ], [ 19.11488239, 48.74266218 ], [ 19.11471927, 48.74269623 ], [ 19.11447487, 48.74275077 ], [ 19.11443436, 48.7427641 ], [ 19.11423593, 48.74282931 ], [ 19.11405648, 48.74288834 ], [ 19.11400307, 48.74290481 ], [ 19.11390108, 48.74296858 ], [ 19.11374655, 48.74304841 ], [ 19.11372903, 48.74306341 ], [ 19.11351379, 48.74318199 ], [ 19.11342177, 48.74320945 ], [ 19.11326329, 48.74331452 ], [ 19.11312965, 48.74335786 ], [ 19.11305437, 48.74338687 ], [ 19.11292178, 48.74344028 ], [ 19.11277857, 48.7434754 ], [ 19.11278068, 48.74347965 ], [ 19.11249673, 48.74354387 ], [ 19.11249056, 48.74354411 ], [ 19.11247274, 48.74354494 ], [ 19.11201966, 48.7436227 ], [ 19.11192942, 48.74364646 ], [ 19.11171142, 48.74370384 ], [ 19.1117958, 48.74375708 ], [ 19.11184824, 48.74379016 ], [ 19.11185448, 48.74379408 ], [ 19.11185639, 48.74379526 ], [ 19.11190985, 48.74382902 ], [ 19.11198603, 48.74388726 ], [ 19.1120493, 48.74393783 ], [ 19.11210347, 48.74397975 ], [ 19.11217661, 48.74403712 ], [ 19.11225786, 48.74410247 ], [ 19.11235371, 48.74417964 ], [ 19.11241502, 48.74423074 ], [ 19.11250761, 48.74430793 ], [ 19.11255629, 48.74434767 ], [ 19.11264788, 48.74442282 ], [ 19.11273833, 48.7444972 ], [ 19.11278536, 48.74453587 ], [ 19.11287694, 48.74461111 ], [ 19.11289727, 48.7446279 ], [ 19.11291773, 48.7446447 ], [ 19.11300061, 48.74471247 ], [ 19.11309536, 48.74478985 ], [ 19.11313281, 48.74482156 ], [ 19.11314277, 48.74482999 ], [ 19.11323277, 48.74490596 ], [ 19.11332742, 48.74498541 ], [ 19.11336052, 48.74501582 ], [ 19.11337347, 48.74502313 ], [ 19.11341577, 48.74504696 ], [ 19.1135063, 48.74512305 ], [ 19.11352361, 48.74513762 ], [ 19.11377113, 48.74534603 ], [ 19.1137969, 48.74536768 ], [ 19.11389079, 48.74544665 ], [ 19.11401626, 48.74572017 ], [ 19.11446793, 48.74573693 ], [ 19.11511857, 48.74579836 ], [ 19.1151635, 48.74580257 ], [ 19.11526348, 48.74581202 ], [ 19.11534816, 48.74582298 ], [ 19.11549064, 48.7458413 ], [ 19.11565508, 48.74592475 ], [ 19.11570731, 48.74595123 ], [ 19.11572485, 48.74598303 ], [ 19.1157373, 48.74600556 ], [ 19.11579784, 48.74611534 ], [ 19.11579837, 48.74612637 ], [ 19.11579916, 48.74614706 ], [ 19.11580145, 48.74619912 ], [ 19.11580944, 48.74638647 ], [ 19.11583021, 48.74651394 ], [ 19.11585728, 48.74667969 ], [ 19.11586249, 48.74671196 ], [ 19.11586656, 48.74672542 ], [ 19.11589584, 48.74682219 ], [ 19.11591381, 48.74688152 ], [ 19.11593396, 48.74694818 ], [ 19.11594176, 48.74695758 ], [ 19.11599832, 48.7470254 ], [ 19.11601608, 48.74704676 ], [ 19.11602258, 48.74705447 ], [ 19.11603194, 48.74706576 ], [ 19.11605116, 48.74708871 ], [ 19.1160669, 48.74710753 ], [ 19.11609438, 48.74714063 ], [ 19.1161357, 48.74719012 ], [ 19.11616415, 48.74722426 ], [ 19.11618734, 48.74725201 ], [ 19.1161867, 48.74726001 ], [ 19.11616879, 48.74748828 ], [ 19.11618818, 48.74760378 ], [ 19.11619657, 48.7476538 ], [ 19.11619796, 48.74766198 ], [ 19.11621036, 48.74773565 ], [ 19.1159042, 48.74795859 ], [ 19.11574263, 48.74814025 ], [ 19.11563542, 48.74826094 ], [ 19.11532689, 48.74862535 ], [ 19.1150144, 48.74884987 ], [ 19.1149341, 48.74890749 ], [ 19.11489936, 48.74893247 ], [ 19.1148562, 48.74899815 ], [ 19.1147377, 48.74917879 ], [ 19.11464474, 48.74933742 ], [ 19.11462412, 48.74938943 ], [ 19.11461418, 48.74941464 ], [ 19.11458171, 48.74949664 ], [ 19.11455378, 48.74955189 ], [ 19.11442539, 48.74980545 ], [ 19.1142366, 48.75007568 ], [ 19.11451455, 48.75024799 ], [ 19.11457815, 48.75028739 ], [ 19.1146344, 48.750323 ], [ 19.11465069, 48.75033337 ], [ 19.11491924, 48.75016809 ], [ 19.11532062, 48.74992101 ], [ 19.11583639, 48.7495765 ], [ 19.11593287, 48.7495121 ], [ 19.11594451, 48.7495033 ], [ 19.11602794, 48.7494397 ], [ 19.11633433, 48.74920639 ], [ 19.11657165, 48.74904949 ], [ 19.11703493, 48.74883613 ], [ 19.11737965, 48.74868219 ], [ 19.11767842, 48.7485487 ], [ 19.11820104, 48.7484014 ], [ 19.1189069, 48.74821356 ], [ 19.11974217, 48.74801497 ], [ 19.12049851, 48.74786298 ], [ 19.12103527, 48.7477353 ], [ 19.12137967, 48.74837921 ], [ 19.12175471, 48.74897042 ], [ 19.12173048, 48.74897734 ], [ 19.12141374, 48.7490672 ], [ 19.12107561, 48.74917494 ], [ 19.12100183, 48.74926058 ], [ 19.12096918, 48.74935636 ], [ 19.12100347, 48.74937158 ], [ 19.12103541, 48.74938579 ], [ 19.12131754, 48.74934518 ], [ 19.12216222, 48.74940722 ], [ 19.12242406, 48.74946165 ], [ 19.12265411, 48.74950774 ], [ 19.12273483, 48.74956584 ], [ 19.12283343, 48.74949586 ], [ 19.12321543, 48.74967572 ], [ 19.12390609, 48.75012335 ], [ 19.12427913, 48.75033433 ], [ 19.12510404, 48.75071643 ], [ 19.12524858, 48.75092198 ], [ 19.12542564, 48.75107502 ], [ 19.12574947, 48.75118436 ], [ 19.12605039, 48.75125513 ], [ 19.126284, 48.75136632 ], [ 19.12659887, 48.75159741 ], [ 19.12683483, 48.75181469 ], [ 19.12706883, 48.75191643 ], [ 19.12749246, 48.7522593 ], [ 19.12797032, 48.75264138 ], [ 19.12809551, 48.75266199 ], [ 19.12863868, 48.75287639 ], [ 19.12867288, 48.75288754 ], [ 19.12882843, 48.75289297 ], [ 19.12886112, 48.75288737 ], [ 19.12917525, 48.75282306 ], [ 19.12930884, 48.7527814 ], [ 19.1293577, 48.75276659 ], [ 19.12942562, 48.75274604 ], [ 19.1294677, 48.75273333 ], [ 19.12975361, 48.75268828 ], [ 19.1297836, 48.75268354 ], [ 19.12995093, 48.75265708 ], [ 19.13011805, 48.75264458 ], [ 19.13018669, 48.75259837 ], [ 19.13024243, 48.7525939 ], [ 19.1304162, 48.75253574 ], [ 19.13048765, 48.75251176 ], [ 19.13038215, 48.75239518 ], [ 19.1301988, 48.75244881 ], [ 19.13018381, 48.75238223 ], [ 19.13043908, 48.75216261 ], [ 19.13045358, 48.75215142 ], [ 19.1306624, 48.75199055 ], [ 19.1308539, 48.75183812 ], [ 19.13114159, 48.75160918 ], [ 19.13122595, 48.75154201 ], [ 19.13169541, 48.75116827 ], [ 19.13178231, 48.75109915 ], [ 19.13184315, 48.75105074 ], [ 19.13196902, 48.75095044 ], [ 19.13232563, 48.75066664 ], [ 19.13235678, 48.75065646 ], [ 19.13239558, 48.75066793 ], [ 19.13242898, 48.75067778 ], [ 19.132545, 48.750712 ], [ 19.13258102, 48.75072271 ], [ 19.13275472, 48.75077394 ], [ 19.13335973, 48.75088738 ], [ 19.1333978, 48.75089449 ], [ 19.13384432, 48.75052683 ], [ 19.13489748, 48.74965943 ], [ 19.13520336, 48.74946844 ], [ 19.13581772, 48.74896665 ], [ 19.13593809, 48.74891144 ], [ 19.13603199, 48.74886845 ], [ 19.13630091, 48.74874517 ], [ 19.13648711, 48.74866011 ], [ 19.13673761, 48.7487667 ], [ 19.13691548, 48.74884626 ], [ 19.13701808, 48.7488543 ], [ 19.13717179, 48.74886629 ], [ 19.13772674, 48.74890952 ], [ 19.13776283, 48.74891238 ], [ 19.13781042, 48.74891608 ], [ 19.13874791, 48.74892422 ], [ 19.13879941, 48.7489246 ], [ 19.13882461, 48.74892485 ], [ 19.13877626, 48.74912646 ], [ 19.13870979, 48.74940284 ], [ 19.13866707, 48.7495811 ], [ 19.13863315, 48.74972228 ], [ 19.13860699, 48.74983102 ], [ 19.1385984, 48.7498673 ], [ 19.13854962, 48.75007024 ], [ 19.13853339, 48.75019245 ], [ 19.13850935, 48.75037434 ], [ 19.13850677, 48.75043716 ], [ 19.1384896, 48.75085333 ], [ 19.138525, 48.75117216 ], [ 19.13854488, 48.75135152 ], [ 19.13856013, 48.7514292 ], [ 19.13862345, 48.75175202 ], [ 19.13862634, 48.75178084 ], [ 19.13862904, 48.75180893 ], [ 19.13864955, 48.75201781 ], [ 19.13892499, 48.75308455 ], [ 19.13899865, 48.75338461 ], [ 19.13904593, 48.7535775 ], [ 19.13905034, 48.75359521 ], [ 19.1390869, 48.75374401 ], [ 19.13910868, 48.75383274 ], [ 19.13912454, 48.75389773 ], [ 19.1391569, 48.75402937 ], [ 19.13916672, 48.75406936 ], [ 19.13917597, 48.75410706 ], [ 19.13917869, 48.75411801 ], [ 19.13919063, 48.75415855 ], [ 19.1392228, 48.75426881 ], [ 19.1392237, 48.75427174 ], [ 19.13925769, 48.75438768 ], [ 19.13927956, 48.75446225 ], [ 19.13933283, 48.75446037 ], [ 19.13934789, 48.75445985 ], [ 19.13959094, 48.75445135 ], [ 19.13966886, 48.75444861 ], [ 19.13969378, 48.75444776 ], [ 19.13970869, 48.75444732 ], [ 19.13972896, 48.75444661 ], [ 19.13979291, 48.75444435 ], [ 19.13981742, 48.75444348 ], [ 19.13984316, 48.75444258 ], [ 19.1398522, 48.75444231 ], [ 19.13985932, 48.75444203 ], [ 19.14002569, 48.75443625 ], [ 19.14026353, 48.75442794 ], [ 19.14048591, 48.75442014 ], [ 19.14048823, 48.75442007 ], [ 19.14055026, 48.7544179 ], [ 19.14055848, 48.75441758 ], [ 19.14057163, 48.75441714 ], [ 19.14066748, 48.75441375 ], [ 19.14081523, 48.75440858 ], [ 19.14086548, 48.75440682 ], [ 19.14087082, 48.75440663 ], [ 19.14090671, 48.75441976 ], [ 19.14092047, 48.75442477 ], [ 19.14093921, 48.75443155 ], [ 19.14105463, 48.75447367 ], [ 19.14107474, 48.75447313 ], [ 19.14108171, 48.75447293 ], [ 19.14110209, 48.75447249 ], [ 19.14123761, 48.75446925 ], [ 19.14137172, 48.75447738 ], [ 19.14153646, 48.7544873 ], [ 19.14159184, 48.75450175 ], [ 19.14159157, 48.75450291 ], [ 19.14147727, 48.75482627 ], [ 19.14147102, 48.75486483 ], [ 19.14146148, 48.75492289 ], [ 19.14147738, 48.75497057 ], [ 19.14151738, 48.75503928 ], [ 19.14156816, 48.75509949 ], [ 19.14166151, 48.75521033 ], [ 19.14177758, 48.75532174 ], [ 19.14178153, 48.75532545 ], [ 19.14190001, 48.75538756 ], [ 19.14196141, 48.75540194 ], [ 19.14207854, 48.75534765 ], [ 19.14214417, 48.75529903 ] ] ] } },
{ "type": "Feature", "properties": { "@featureType": "CadastralZoning", "beginLifespanVersion": { "@nilReason": "http://inspire.ec.europa.eu/codelist/VoidReasonValue/Unpopulated", "@nil": "true" }, "endLifespanVersion": { "@nilReason": "http://inspire.ec.europa.eu/codelist/VoidReasonValue/Unpopulated", "@nil": "true" }, "estimatedAccuracy": { "value": -1, "@uom": "m" }, "inspireId": { "@dataType": "Identifier", "localId": "801062", "namespace": "SK.ESKN.CP", "versionId": "20260703T04:07:40" }, "label": "Banská Bystrica", "level": { "@href": "http://inspire.ec.europa.eu/codelist/CadastralZoningLevelValue/3rdOrder" }, "levelName": { "value": "Katastrálne územie", "@locale": "sk" }, "name_1": { "@dataType": "name", "GeographicalName": { "@dataType": "GeographicalName", "language": "SLK", "nativeness": { "@href": "http://inspire.ec.europa.eu/codelist/NativenessValue/endonym", "@title": "endonym" }, "nameStatus": { "@href": "http://inspire.ec.europa.eu/codelist/NameStatusValue/official", "@title": "official" }, "sourceOfName": { "@nilReason": "http://inspire.ec.europa.eu/codelist/VoidReasonValue/Unpopulated", "@nil": "true" }, "pronunciation": { "@dataType": "pronunciation", "@nilReason": "http://inspire.ec.europa.eu/codelist/VoidReasonValue/Unpopulated", "@nil": "true" }, "spelling": { "@dataType": "SpellingOfName", "text": "Banská Bystrica", "script": "LATN" } } }, "nationalCadastalZoningReference": "801062", "validFrom": "2026-06-30T16:00:00Z", "validTo": { "@nilReason": "http://inspire.ec.europa.eu/codelist/VoidReasonValue/Unpopulated", "@nil": "true" }, "place_id": 189264884, "osm_type": "relation", "osm_id": 20613018, "place_rank": 22, "category": "boundary", "type": "administrative", "importance": 0.61653959633050281, "addresstype": "suburb", "name_2": "Banská Bystrica", "display_name": "Banská Bystrica, okres Banská Bystrica, Banskobystrický kraj, 974 01, Slovensko" }, "geometry": { "type": "Polygon", "coordinates": [ [ [ 19.14239196, 48.75508739 ], [ 19.14239734, 48.75508207 ], [ 19.142491600473516, 48.755019262158648 ], [ 19.1425573, 48.7549719 ], [ 19.142739298764429, 48.754884914193177 ], [ 19.14285663, 48.75482719 ], [ 19.142862619766042, 48.754825973261035 ], [ 19.1430425, 48.75474 ], [ 19.1432221, 48.7548773 ], [ 19.143363484764254, 48.754815189796929 ], [ 19.1433955, 48.75478121 ], [ 19.14353852, 48.7547345 ], [ 19.143572714691263, 48.7547232752733 ], [ 19.143613178991149, 48.75470549934181 ], [ 19.14366441, 48.75462662 ], [ 19.1436926, 48.75458707 ], [ 19.14369388, 48.75458541 ], [ 19.14377649, 48.75447793 ], [ 19.14379568, 48.7544529 ], [ 19.14388228, 48.75434028 ], [ 19.14400302, 48.75423097 ], [ 19.14407646, 48.75417588 ], [ 19.144079021738929, 48.754174832103232 ], [ 19.1440884, 48.7541669 ], [ 19.144116925573435, 48.754159327281371 ], [ 19.14418312, 48.75413225 ], [ 19.14441012, 48.75407976 ], [ 19.144494176949323, 48.754059177900338 ], [ 19.1448301, 48.75397 ], [ 19.1449004, 48.7539926 ], [ 19.145025451929421, 48.753958767768914 ], [ 19.14502527, 48.75393643 ], [ 19.14501887, 48.75386731 ], [ 19.1450085, 48.75371836 ], [ 19.14499447, 48.75358492 ], [ 19.145007167325598, 48.753580894781827 ], [ 19.1450067, 48.7535752 ], [ 19.14557627347218, 48.753393770473352 ], [ 19.14570487, 48.75334897 ], [ 19.14594648, 48.75325381 ], [ 19.146382417411445, 48.75313698478994 ], [ 19.146497011741765, 48.753100482396263 ], [ 19.1464958, 48.75305909 ], [ 19.14646191, 48.75287913 ], [ 19.14643253, 48.75270146 ], [ 19.14639942, 48.7525219 ], [ 19.14637223, 48.752343 ], [ 19.14635386, 48.75216326 ], [ 19.14633491, 48.75198386 ], [ 19.14631611, 48.75180428 ], [ 19.14629536, 48.75162388 ], [ 19.14631868, 48.75157056 ], [ 19.14650717, 48.75122388 ], [ 19.14652622, 48.75108495 ], [ 19.14660225, 48.7508213 ], [ 19.14665626, 48.75060797 ], [ 19.14672994, 48.75050473 ], [ 19.14682412, 48.75036462 ], [ 19.14692358, 48.75021521 ], [ 19.14695294, 48.7501712 ], [ 19.14696053, 48.75016319 ], [ 19.14702727, 48.7500936 ], [ 19.147028150976471, 48.750092680611118 ], [ 19.147245408918181, 48.749853925567812 ], [ 19.14733266, 48.74975385 ], [ 19.147342545972016, 48.749747177058119 ], [ 19.1473448, 48.7497447 ], [ 19.147859, 48.749397 ], [ 19.147931797820164, 48.74936847535912 ], [ 19.14800933, 48.74933353 ], [ 19.1480226, 48.74932705 ], [ 19.14803099, 48.74932287 ], [ 19.14815157, 48.74926928 ], [ 19.14839253, 48.74918337 ], [ 19.14848118, 48.74915175 ], [ 19.148522293085254, 48.749137099401104 ], [ 19.1486721, 48.7490784 ], [ 19.1490093, 48.7488661 ], [ 19.1492716, 48.7489794 ], [ 19.149479, 48.749012 ], [ 19.15033406219775, 48.748861131954719 ], [ 19.15037525, 48.74885018 ], [ 19.150473213281227, 48.748836579995789 ], [ 19.1506726, 48.7488014 ], [ 19.150922574831661, 48.748823650615186 ], [ 19.15098225, 48.74875197 ], [ 19.151031742669499, 48.748754573360522 ], [ 19.151033882547821, 48.748753161722433 ], [ 19.15104434, 48.74861209 ], [ 19.15102356, 48.74854586 ], [ 19.15098358, 48.74841872 ], [ 19.15097301, 48.74838538 ], [ 19.15093536, 48.74817448 ], [ 19.150948638853723, 48.748170469053647 ], [ 19.1509474, 48.7481655 ], [ 19.15135, 48.7480445 ], [ 19.1528305, 48.7477732 ], [ 19.15283396671283, 48.747771549885563 ], [ 19.15286693, 48.74775225 ], [ 19.15292137, 48.74772047 ], [ 19.15305141, 48.74764453 ], [ 19.15319519, 48.74756042 ], [ 19.15332728, 48.74748322 ], [ 19.15339312, 48.7474447 ], [ 19.15340606, 48.74743749 ], [ 19.15366535, 48.74729386 ], [ 19.15379304, 48.74722312 ], [ 19.1542149, 48.74705258 ], [ 19.1542469, 48.74703963 ], [ 19.15481106, 48.74681142 ], [ 19.155077582246168, 48.746703615342085 ], [ 19.1551377, 48.746675 ], [ 19.155768132388559, 48.746256156481856 ], [ 19.15582643828829, 48.746183829245496 ], [ 19.156270044448522, 48.745583376621468 ], [ 19.15629759, 48.74553939 ], [ 19.15636642, 48.74519124 ], [ 19.15661088, 48.74498645 ], [ 19.15667135, 48.74479769 ], [ 19.15668887, 48.7447825 ], [ 19.15670490602691, 48.744768572562897 ], [ 19.157670866283667, 48.743861129569687 ], [ 19.15769347, 48.74383768 ], [ 19.157699298958832, 48.743834419328067 ], [ 19.1577056, 48.7438285 ], [ 19.1592529, 48.7429632 ], [ 19.1592593, 48.7430741 ], [ 19.1593607, 48.7430779 ], [ 19.1594216, 48.7434708 ], [ 19.1599282, 48.7439885 ], [ 19.1606709, 48.7442255 ], [ 19.1609371, 48.7442059 ], [ 19.162009, 48.7444726 ], [ 19.1620474, 48.7445028 ], [ 19.1619887, 48.7446159 ], [ 19.163929, 48.7455601 ], [ 19.16396162948336, 48.745552047269165 ], [ 19.1639697, 48.74554899 ], [ 19.16398662, 48.74554522 ], [ 19.164013714168515, 48.745539193129076 ], [ 19.1642876, 48.7454716 ], [ 19.165979, 48.7457249 ], [ 19.1662803, 48.745682 ], [ 19.1678887, 48.746115 ], [ 19.168222, 48.7461752 ], [ 19.1691408, 48.7462349 ], [ 19.1702003, 48.7464153 ], [ 19.171638736430694, 48.746796647285919 ], [ 19.1718761, 48.74684471 ], [ 19.17189509, 48.74685042 ], [ 19.17195736, 48.74686916 ], [ 19.172285062712749, 48.746967996375957 ], [ 19.173523039586353, 48.747296199354345 ], [ 19.17369587, 48.74701545 ], [ 19.173708374492126, 48.746903785927685 ], [ 19.173711253252581, 48.746389590310166 ], [ 19.17370049, 48.74617655 ], [ 19.17375489, 48.74604395 ], [ 19.173762163921793, 48.74604597518492 ], [ 19.173767, 48.7460342 ], [ 19.173970056012198, 48.74609100158667 ], [ 19.17405757, 48.74588607 ], [ 19.174067499888938, 48.745881747070634 ], [ 19.1740697, 48.7458766 ], [ 19.174415062731917, 48.74572665124915 ], [ 19.17424352, 48.74545537 ], [ 19.1742997, 48.74519723 ], [ 19.17431446, 48.74491316 ], [ 19.17431468, 48.74490875 ], [ 19.17420981, 48.74473471 ], [ 19.17400387, 48.74439276 ], [ 19.17394648, 48.74422943 ], [ 19.17388784, 48.74397992 ], [ 19.17389479, 48.74386059 ], [ 19.17390576, 48.74367373 ], [ 19.17394865, 48.74351107 ], [ 19.17398308, 48.74338019 ], [ 19.17400176, 48.74330959 ], [ 19.17402968, 48.74325505 ], [ 19.17405793, 48.74320007 ], [ 19.17409214, 48.74313321 ], [ 19.1741012, 48.74311562 ], [ 19.17414521, 48.74306231 ], [ 19.174201154759309, 48.742994547441405 ], [ 19.174264145927935, 48.742891749353717 ], [ 19.17427533, 48.74286352 ], [ 19.174280756276275, 48.742864642188025 ], [ 19.1742874, 48.7428538 ], [ 19.1748777, 48.7429763 ], [ 19.1750874, 48.7429438 ], [ 19.1759572, 48.7430641 ], [ 19.1762682, 48.7430387 ], [ 19.1762481, 48.7431775 ], [ 19.1765798, 48.7434498 ], [ 19.1783281, 48.7434529 ], [ 19.179071597982777, 48.743265860224689 ], [ 19.17924541, 48.74304096 ], [ 19.17936227, 48.74288976 ], [ 19.17950861, 48.74270051 ], [ 19.17954607, 48.74265202 ], [ 19.17958497, 48.74260171 ], [ 19.17961302, 48.74256548 ], [ 19.1796701, 48.74249162 ], [ 19.179678603217972, 48.742486725621745 ], [ 19.1796821, 48.7424822 ], [ 19.180305514274075, 48.742123418317682 ], [ 19.180406567780466, 48.742036521127822 ], [ 19.180730753247364, 48.741754942893714 ], [ 19.18073398, 48.7417507 ], [ 19.18081554, 48.74154322 ], [ 19.18083018, 48.74150615 ], [ 19.18086811, 48.74140962 ], [ 19.18106395, 48.74091167 ], [ 19.18113883, 48.74072117 ], [ 19.18114361, 48.74070887 ], [ 19.18112688, 48.74053536 ], [ 19.18104883, 48.74052613 ], [ 19.18105299, 48.74048891 ], [ 19.18106172, 48.74041088 ], [ 19.18106628, 48.74037007 ], [ 19.181077231521485, 48.740369643455828 ], [ 19.1810783, 48.7403601 ], [ 19.1794684, 48.7400603 ], [ 19.1775537, 48.7400506 ], [ 19.175883, 48.74021 ], [ 19.1752422, 48.7402164 ], [ 19.174911, 48.7401941 ], [ 19.1742679, 48.7400521 ], [ 19.1736109, 48.7400051 ], [ 19.1728723, 48.7381918 ], [ 19.1734889, 48.7379017 ], [ 19.1739031, 48.7377628 ], [ 19.1745229, 48.737658 ], [ 19.1741513, 48.7373808 ], [ 19.1716416, 48.7370219 ], [ 19.169324, 48.7370682 ], [ 19.1666317, 48.7368904 ], [ 19.1648717, 48.7365824 ], [ 19.1619253, 48.735945 ], [ 19.1576313, 48.7352044 ], [ 19.1571162, 48.735143 ], [ 19.1559692, 48.7350116 ], [ 19.1553977, 48.7349435 ], [ 19.1546049, 48.7348594 ], [ 19.1540057, 48.7344447 ], [ 19.1520967, 48.7336212 ], [ 19.1500393, 48.7329025 ], [ 19.1470633, 48.7321151 ], [ 19.1461594, 48.7310971 ], [ 19.1476223, 48.7307709 ], [ 19.1487153, 48.7304663 ], [ 19.1489222, 48.7298484 ], [ 19.1498091, 48.7286841 ], [ 19.1507471, 48.727036 ], [ 19.1507556, 48.7264285 ], [ 19.1503377, 48.7260404 ], [ 19.1507129, 48.7256241 ], [ 19.1499029, 48.7251516 ], [ 19.150892, 48.7245834 ], [ 19.1522138, 48.725416 ], [ 19.1535952, 48.7253428 ], [ 19.1537231, 48.7246791 ], [ 19.1548316, 48.7248309 ], [ 19.1546696, 48.7253991 ], [ 19.1553092, 48.7256691 ], [ 19.1561022, 48.725686 ], [ 19.1563154, 48.7260235 ], [ 19.1570658, 48.7263779 ], [ 19.1577991, 48.7275029 ], [ 19.1590185, 48.7276435 ], [ 19.1591379, 48.7278797 ], [ 19.1642458, 48.727936 ], [ 19.1644173, 48.727794 ], [ 19.1645761, 48.7276626 ], [ 19.1651156, 48.727216 ], [ 19.1658233, 48.7272948 ], [ 19.1660814, 48.7279368 ], [ 19.1661218, 48.7280372 ], [ 19.167273, 48.728431 ], [ 19.1688164, 48.7282735 ], [ 19.1718692, 48.7291678 ], [ 19.1719459, 48.7292635 ], [ 19.1775889, 48.730702 ], [ 19.1782156, 48.7299117 ], [ 19.179192, 48.7303996 ], [ 19.1796055, 48.7306334 ], [ 19.1807333, 48.7308183 ], [ 19.1806874, 48.7316065 ], [ 19.1818335, 48.7316698 ], [ 19.1838451, 48.7318675 ], [ 19.1848013, 48.7324372 ], [ 19.1885728, 48.7327859 ], [ 19.1862909, 48.7334458 ], [ 19.1877637, 48.7342888 ], [ 19.1887117, 48.734715 ], [ 19.190209094787662, 48.735028969874833 ], [ 19.19028742, 48.73472974 ], [ 19.19029358, 48.73470632 ], [ 19.19029545, 48.73469938 ], [ 19.19029862, 48.73468808 ], [ 19.19031699, 48.73462116 ], [ 19.19032358, 48.73460002 ], [ 19.19033988, 48.7345248 ], [ 19.19052411, 48.733745 ], [ 19.190535125925443, 48.733739370779077 ], [ 19.1905361, 48.7337354 ], [ 19.190779407346078, 48.733565851180096 ], [ 19.190863275611981, 48.733399373629105 ], [ 19.191005090285348, 48.733091179789184 ], [ 19.1910094, 48.73308072 ], [ 19.19103072, 48.73302892 ], [ 19.19108346, 48.73290443 ], [ 19.191143917734127, 48.73283285997455 ], [ 19.19157633763918, 48.732280565274792 ], [ 19.19161979, 48.73221874 ], [ 19.19162436, 48.73216432 ], [ 19.19163729, 48.73211932 ], [ 19.19167245, 48.73199722 ], [ 19.19169253, 48.73192723 ], [ 19.1917988, 48.7316663 ], [ 19.19204908, 48.73136939 ], [ 19.1921865, 48.73107364 ], [ 19.19250768, 48.73062625 ], [ 19.192518884792136, 48.730617158719646 ], [ 19.1925195, 48.7306163 ], [ 19.192797775179926, 48.730317230427687 ], [ 19.19280846, 48.73030186 ], [ 19.192847881164674, 48.730171908290032 ], [ 19.192926077458417, 48.729825681721358 ], [ 19.19294925, 48.72967757 ], [ 19.193000263914293, 48.729574427113185 ], [ 19.193150565913104, 48.729209117159932 ], [ 19.1932599, 48.72892369 ], [ 19.19344917, 48.72865779 ], [ 19.193709260631007, 48.728420414145056 ], [ 19.194321664675204, 48.727728618231289 ], [ 19.19436428, 48.72767586 ], [ 19.19433891, 48.72728235 ], [ 19.19381529, 48.72695297 ], [ 19.19377942, 48.72577249 ], [ 19.193791376329763, 48.72576620782602 ], [ 19.1937913, 48.7257637 ], [ 19.194423809765709, 48.725430210919988 ], [ 19.19451, 48.72454529 ], [ 19.194528490000419, 48.724082872346841 ], [ 19.194522839159582, 48.724086094285845 ], [ 19.19452007, 48.72409065 ], [ 19.19373686, 48.72453713 ], [ 19.193442864724904, 48.724608760151298 ], [ 19.191856590426724, 48.725031097316766 ], [ 19.19184092, 48.72504173 ], [ 19.19175848, 48.72491325 ], [ 19.19161879, 48.72487036 ], [ 19.19147079, 48.72452316 ], [ 19.19107604, 48.72422775 ], [ 19.19094153, 48.72392828 ], [ 19.19044755, 48.7236769 ], [ 19.19040484, 48.72370547 ], [ 19.190336418949197, 48.723617334102642 ], [ 19.189996141536888, 48.723285555726918 ], [ 19.18958911, 48.72292976 ], [ 19.18932829, 48.72265577 ], [ 19.189332109108125, 48.722635469282395 ], [ 19.18927020140503, 48.722554659558142 ], [ 19.18905089, 48.72228853 ], [ 19.18902598, 48.72226017 ], [ 19.18883899, 48.72190835 ], [ 19.18878273, 48.7216724 ], [ 19.18857009281508, 48.721661105424324 ], [ 19.187662831232483, 48.721652252642677 ], [ 19.18725597, 48.72165785 ], [ 19.18585993, 48.72180784 ], [ 19.18547103, 48.72175095 ], [ 19.18514183, 48.72152564 ], [ 19.18491147, 48.72132815 ], [ 19.18268173, 48.72152076 ], [ 19.18140262, 48.7215195 ], [ 19.17968758, 48.72141393 ], [ 19.17948262, 48.72091873 ], [ 19.179497479336586, 48.720916407013711 ], [ 19.1794947, 48.7209097 ], [ 19.179556451456726, 48.720900069038862 ], [ 19.17951132, 48.72078396 ], [ 19.179427096885838, 48.720669115879971 ], [ 19.179256097347746, 48.720482041830998 ], [ 19.17920282, 48.72044692 ], [ 19.17913144, 48.72042223 ], [ 19.17898965, 48.72040312 ], [ 19.178455298908677, 48.720424698251975 ], [ 19.178376192882542, 48.720429112065915 ], [ 19.17820508, 48.72044768 ], [ 19.17793267, 48.72039737 ], [ 19.17766348, 48.7203427 ], [ 19.1772419, 48.72012727 ], [ 19.17649851, 48.71974277 ], [ 19.17620536, 48.71957331 ], [ 19.17597649, 48.71948598 ], [ 19.17561763, 48.71935694 ], [ 19.17531882, 48.71920163 ], [ 19.17497974, 48.71904073 ], [ 19.17486297, 48.71896376 ], [ 19.17479921, 48.71890022 ], [ 19.174768607273005, 48.718709367480848 ], [ 19.174761309475009, 48.718678366672286 ], [ 19.17472529, 48.71858638 ], [ 19.17451242, 48.71839378 ], [ 19.17445145, 48.71840279 ], [ 19.17417617, 48.71825646 ], [ 19.1740004, 48.71824262 ], [ 19.173869480234661, 48.718258422100128 ], [ 19.173510393351549, 48.7183209952643 ], [ 19.17345558, 48.71833839 ], [ 19.173426920338731, 48.718348653134683 ], [ 19.173257185657075, 48.71843254009864 ], [ 19.17298449, 48.71860208 ], [ 19.1725381, 48.71879123 ], [ 19.17236571, 48.7188459 ], [ 19.172313967369057, 48.718857086701902 ], [ 19.172058345634298, 48.718938410026119 ], [ 19.17171911, 48.71907032 ], [ 19.17163206, 48.71909311 ], [ 19.17141277, 48.7191527 ], [ 19.17125494, 48.71919908 ], [ 19.171226112166881, 48.719216544164468 ], [ 19.170899502989425, 48.719427495451384 ], [ 19.170840045193049, 48.719467124087508 ], [ 19.170812637787261, 48.719489874696052 ], [ 19.1705539, 48.71971481 ], [ 19.170472982018499, 48.719771819492131 ], [ 19.1703123, 48.7199052 ], [ 19.1701005, 48.72048 ], [ 19.170089449465209, 48.720486944334013 ], [ 19.17008829, 48.72048919 ], [ 19.17003683, 48.72052274 ], [ 19.16990595, 48.7206083 ], [ 19.169855156605763, 48.720634177739811 ], [ 19.169437016462549, 48.720896943739298 ], [ 19.16940791, 48.72091755 ], [ 19.16931815, 48.7209402 ], [ 19.16904735, 48.72094857 ], [ 19.16879531, 48.72105705 ], [ 19.168558677738236, 48.721063987720427 ], [ 19.167545493881757, 48.721129036122598 ], [ 19.16747999, 48.72113557 ], [ 19.16747574, 48.72116864 ], [ 19.16741187, 48.72116695 ], [ 19.16729105, 48.72116381 ], [ 19.16718355, 48.72116107 ], [ 19.16730455, 48.72075623 ], [ 19.16666307, 48.72002224 ], [ 19.16669565, 48.71971316 ], [ 19.16646104, 48.71841341 ], [ 19.166473393717116, 48.718404873994118 ], [ 19.1664732, 48.7184038 ], [ 19.166981851520756, 48.718052698014894 ], [ 19.16743276, 48.71757415 ], [ 19.167439274204487, 48.717569969549004 ], [ 19.1674447, 48.7175642 ], [ 19.168312428990632, 48.717008362185204 ], [ 19.1684466, 48.71687817 ], [ 19.168389586196632, 48.716660958114375 ], [ 19.168321826239801, 48.716456794128241 ], [ 19.16821372, 48.71627191 ], [ 19.16818442435056, 48.716042795673687 ], [ 19.168166243123778, 48.71598801476906 ], [ 19.16812183, 48.71594861 ], [ 19.16807159, 48.7158253 ], [ 19.16804033, 48.71565423 ], [ 19.16811047, 48.71542951 ], [ 19.16825892, 48.71523569 ], [ 19.16834055, 48.71516394 ], [ 19.168426536325878, 48.715120276328108 ], [ 19.169271295943446, 48.714544433250843 ], [ 19.169310451940103, 48.714506262946173 ], [ 19.169570451368717, 48.714231022171738 ], [ 19.16959886, 48.71419849 ], [ 19.16968636, 48.71408645 ], [ 19.1698479, 48.71393385 ], [ 19.16985609, 48.71379988 ], [ 19.16990559, 48.71362555 ], [ 19.16993755, 48.71354577 ], [ 19.1698788, 48.71354839 ], [ 19.1698199, 48.71355101 ], [ 19.16983602, 48.71337053 ], [ 19.16984251, 48.71315441 ], [ 19.16978364, 48.71286475 ], [ 19.16969962, 48.71259279 ], [ 19.1696921, 48.71241657 ], [ 19.16971385, 48.71232818 ], [ 19.16974652, 48.71219829 ], [ 19.16989662, 48.7117827 ], [ 19.17000916, 48.71158081 ], [ 19.1701327, 48.71139027 ], [ 19.17020454, 48.71132309 ], [ 19.17048286, 48.71108639 ], [ 19.170484774152552, 48.711085226608198 ], [ 19.1704947, 48.7110766 ], [ 19.170563133607452, 48.711037600964524 ], [ 19.17066271, 48.71097708 ], [ 19.170727234213388, 48.710944083092372 ], [ 19.171550050798494, 48.710475175279555 ], [ 19.171579246854396, 48.710448304998621 ], [ 19.172184434455033, 48.709831194298985 ], [ 19.1722146, 48.70979784 ], [ 19.17222138117209, 48.70979351967646 ], [ 19.1722265, 48.7097883 ], [ 19.1724791, 48.7096271 ], [ 19.1726711, 48.7095441 ], [ 19.1739486, 48.7092822 ], [ 19.1749675, 48.7088845 ], [ 19.17499, 48.7089128 ], [ 19.175317974966482, 48.708666631906645 ], [ 19.17553094, 48.70848501 ], [ 19.175760582040564, 48.708334424419292 ], [ 19.175767278405683, 48.7083293983301 ], [ 19.17573064, 48.70829549 ], [ 19.17649052, 48.70700544 ], [ 19.17608929, 48.70639221 ], [ 19.17584187, 48.70655775 ], [ 19.175420123687363, 48.706759004716744 ], [ 19.175367192137529, 48.70678827267178 ], [ 19.17529488, 48.70683125 ], [ 19.17503445, 48.70690596 ], [ 19.17482536, 48.70694802 ], [ 19.174346996817707, 48.707160844431591 ], [ 19.174292831621401, 48.707185436599552 ], [ 19.17415544, 48.70726059 ], [ 19.17400999, 48.70731839 ], [ 19.17382469, 48.70736702 ], [ 19.17371577, 48.70736619 ], [ 19.17350397, 48.70738377 ], [ 19.1734328, 48.70738659 ], [ 19.17315304, 48.70754873 ], [ 19.17287268, 48.70759451 ], [ 19.17253283, 48.70759949 ], [ 19.17222507, 48.70762228 ], [ 19.17215219, 48.707616 ], [ 19.17154182, 48.70774931 ], [ 19.17133694, 48.7076563 ], [ 19.17123713529854, 48.70770756992389 ], [ 19.171004887878855, 48.707834700925517 ], [ 19.170988127045035, 48.707845296895371 ], [ 19.1710136, 48.7079908 ], [ 19.171001109055943, 48.707997681633799 ], [ 19.17100146, 48.70799967 ], [ 19.17052805, 48.70826052 ], [ 19.170489920967761, 48.70826851336458 ], [ 19.170443611836482, 48.708284121313042 ], [ 19.17023357, 48.70837144 ], [ 19.16976041, 48.70854482 ], [ 19.16948345, 48.70863315 ], [ 19.16930456, 48.70867307 ], [ 19.169227195334464, 48.708710174233325 ], [ 19.168904993435085, 48.708876567866753 ], [ 19.16887491, 48.70890811 ], [ 19.16868693, 48.70899268 ], [ 19.16863985697211, 48.708999239658603 ], [ 19.168450194030385, 48.709051406045248 ], [ 19.16837348, 48.7090783 ], [ 19.16801644, 48.70930969 ], [ 19.16789091, 48.70934772 ], [ 19.16774189, 48.70935213 ], [ 19.16756173, 48.70948849 ], [ 19.16742897, 48.70954239 ], [ 19.16704643, 48.70980679 ], [ 19.16697908838287, 48.709853152973814 ], [ 19.16693495170837, 48.709926725159804 ], [ 19.16683318, 48.7101291 ], [ 19.166735702155862, 48.710258857684558 ], [ 19.1667142, 48.7102947 ], [ 19.166705707752282, 48.710298784750982 ], [ 19.16670185, 48.71030392 ], [ 19.16628121, 48.71050693 ], [ 19.166269451354871, 48.710514046369084 ], [ 19.166152746535463, 48.710596832248079 ], [ 19.16607138, 48.710677 ], [ 19.165991618340332, 48.710713167755131 ], [ 19.165570092587192, 48.711163338163047 ], [ 19.16553374, 48.71121876 ], [ 19.165488452628374, 48.711250525940514 ], [ 19.1653969, 48.7113483 ], [ 19.165387562414463, 48.711354107640688 ], [ 19.16538465, 48.71135753 ], [ 19.165380708077446, 48.711358370790556 ], [ 19.164818744063471, 48.711707892094516 ], [ 19.16470094, 48.71179202 ], [ 19.164522652377599, 48.711893704405767 ], [ 19.164513865575316, 48.711901789203345 ], [ 19.16450065, 48.71192792 ], [ 19.16449155, 48.71194587 ], [ 19.163889391031706, 48.712476372552359 ], [ 19.1638548, 48.7125082 ], [ 19.16384976172511, 48.712511286004457 ], [ 19.16384289, 48.71251734 ], [ 19.163816076091159, 48.712531918863661 ], [ 19.163465664881564, 48.712746549977972 ], [ 19.16343690863291, 48.71276586159621 ], [ 19.163314713054696, 48.712878493781524 ], [ 19.16318624, 48.7130262 ], [ 19.163033487351619, 48.71313844303878 ], [ 19.1628374, 48.7134287 ], [ 19.162828485667202, 48.713433435660541 ], [ 19.16282521, 48.71343864 ], [ 19.162728410554525, 48.713486599679968 ], [ 19.162490409787555, 48.713613035484642 ], [ 19.162483090319622, 48.713618100721604 ], [ 19.1623279, 48.7140001 ], [ 19.162314582602125, 48.714010764872683 ], [ 19.16218688, 48.71414859 ], [ 19.16204877, 48.71422568 ], [ 19.161846043026834, 48.714385981935621 ], [ 19.1618173, 48.714409 ], [ 19.161772176947359, 48.714527268906842 ], [ 19.16168141, 48.71482809 ], [ 19.16164208, 48.71492355 ], [ 19.161598821479298, 48.714981638912931 ], [ 19.1614331, 48.715416 ], [ 19.161384175303599, 48.715761208181839 ], [ 19.16139516, 48.71587367 ], [ 19.161357366055107, 48.715950371786512 ], [ 19.1613544, 48.7159713 ], [ 19.161326560760418, 48.716001721629823 ], [ 19.16117914, 48.71619583 ], [ 19.1610007232477, 48.716357784092111 ], [ 19.1609911, 48.7163683 ], [ 19.160985594064407, 48.71637151729324 ], [ 19.16097886, 48.71637763 ], [ 19.16084295, 48.71647151 ], [ 19.16065362, 48.71656772 ], [ 19.15975237, 48.71682647 ], [ 19.15951337, 48.71694639 ], [ 19.15936715, 48.71699242 ], [ 19.15925038, 48.71701283 ], [ 19.15796563, 48.71711835 ], [ 19.15748247, 48.71703959 ], [ 19.15705185, 48.71705135 ], [ 19.15680152, 48.71699891 ], [ 19.15587148, 48.71676111 ], [ 19.15574716, 48.71684879 ], [ 19.155740635577185, 48.716853383709861 ], [ 19.155037478532012, 48.717352378970162 ], [ 19.15490065, 48.71747542 ], [ 19.15458605, 48.71767369 ], [ 19.15433542, 48.71776958 ], [ 19.15394836, 48.71786418 ], [ 19.15385039, 48.71781301 ], [ 19.153685872846065, 48.717814234559 ], [ 19.15330594936292, 48.717837337582836 ], [ 19.153267313547236, 48.7178464267379 ], [ 19.1532705, 48.7179468 ], [ 19.15325795336712, 48.717948281366311 ], [ 19.15325819, 48.71795649 ], [ 19.15320115, 48.71796316 ], [ 19.153194240298376, 48.717955803894021 ], [ 19.153139373078677, 48.717962282002659 ], [ 19.15314619, 48.71796956 ], [ 19.15304896, 48.71798092 ], [ 19.15258663, 48.71826039 ], [ 19.15192381, 48.71866102 ], [ 19.15103077, 48.71860942 ], [ 19.15040802, 48.71852963 ], [ 19.15013576, 48.71855592 ], [ 19.149997386503543, 48.718583179082422 ], [ 19.149909055571541, 48.718604865307682 ], [ 19.14957314, 48.71869417 ], [ 19.14900895, 48.7189604 ], [ 19.14858985, 48.71908767 ], [ 19.1477787640465, 48.719559142916346 ], [ 19.1473466, 48.7201591 ], [ 19.147337388941807, 48.720164272385048 ], [ 19.14733436, 48.72016848 ], [ 19.14635055, 48.72072129 ], [ 19.14625095, 48.72079854 ], [ 19.146189879314434, 48.720845850958447 ], [ 19.1461185, 48.7209013 ], [ 19.146118213819999, 48.720901369628294 ], [ 19.14610657, 48.72091039 ], [ 19.14571177, 48.72100683 ], [ 19.14551262, 48.72105546 ], [ 19.14440574, 48.72164296 ], [ 19.14365346, 48.72204419 ], [ 19.14338674, 48.72220384 ], [ 19.14328122, 48.722267 ], [ 19.142619546753519, 48.722664828648114 ], [ 19.1422814, 48.7229692 ], [ 19.1421144, 48.7232281 ], [ 19.142105502882703, 48.723232479741164 ], [ 19.14210212, 48.72323772 ], [ 19.141933667811291, 48.723320036944713 ], [ 19.1419565, 48.7235619 ], [ 19.1418411, 48.7237083 ], [ 19.141837013003023, 48.723707373768391 ], [ 19.14182877, 48.72371782 ], [ 19.141765110111553, 48.723702861418452 ], [ 19.1415286, 48.7241663 ], [ 19.1415886, 48.7242076 ], [ 19.1412263, 48.7249012 ], [ 19.141216531625126, 48.72490597750528 ], [ 19.14121416, 48.72491052 ], [ 19.140909723345086, 48.725059894836662 ], [ 19.1408146, 48.7256496 ], [ 19.140803943503983, 48.725649749378867 ], [ 19.14080253, 48.7256585 ], [ 19.14060308, 48.72568529 ], [ 19.13849765, 48.72570415 ], [ 19.13822705, 48.72569216 ], [ 19.13822027, 48.72569182 ], [ 19.13818262, 48.7256897 ], [ 19.1381696, 48.72568905 ], [ 19.138135935558125, 48.725687165833563 ], [ 19.137915131698474, 48.725690264378287 ], [ 19.13754423, 48.72570448 ], [ 19.13752497, 48.72570488 ], [ 19.13744926539928, 48.725706430970654 ], [ 19.1374331, 48.7268631 ], [ 19.137424, 48.7275104 ], [ 19.137412057595473, 48.727517275099849 ], [ 19.13741215, 48.72751951 ], [ 19.1374036, 48.72752405 ], [ 19.1373665, 48.72754359 ], [ 19.137364638247064, 48.72754457385318 ], [ 19.1371624, 48.727661 ], [ 19.137150775405878, 48.72766504347284 ], [ 19.13715043, 48.72767065 ], [ 19.13713678000228, 48.727669911602753 ], [ 19.137102223937166, 48.727681931507213 ], [ 19.13701508, 48.72772259 ], [ 19.13701248, 48.72772264 ], [ 19.13698312446208, 48.727723358802471 ], [ 19.136973649916406, 48.727726654407263 ], [ 19.13696587, 48.72773099 ], [ 19.1368367, 48.72780308 ], [ 19.13682288, 48.72781078 ], [ 19.13680482, 48.72780655 ], [ 19.13677787, 48.72780008 ], [ 19.13671533, 48.72783857 ], [ 19.13671373, 48.72783949 ], [ 19.136589890423057, 48.72791565535384 ], [ 19.136265797342681, 48.728118252975655 ], [ 19.13622953, 48.7281455 ], [ 19.13620632, 48.72816275 ], [ 19.13619827, 48.72816885 ], [ 19.13618197, 48.72817797 ], [ 19.13616437, 48.72818783 ], [ 19.13606751950514, 48.728242200757251 ], [ 19.135925490305027, 48.728330986294232 ], [ 19.13585352, 48.72837812 ], [ 19.1357785, 48.72841843 ], [ 19.13570957, 48.72845543 ], [ 19.13568592, 48.72846815 ], [ 19.1355517, 48.72854026 ], [ 19.13548714, 48.72858082 ], [ 19.13545063, 48.72860363 ], [ 19.13542128, 48.72862212 ], [ 19.13541717, 48.72862471 ], [ 19.13539059, 48.72863197 ], [ 19.13538325, 48.72863422 ], [ 19.13529497, 48.72866152 ], [ 19.1352814, 48.72866581 ], [ 19.13526741, 48.72867017 ], [ 19.13526111, 48.72866679 ], [ 19.13514921, 48.72860617 ], [ 19.13511322813752, 48.728586670039718 ], [ 19.134950371900366, 48.728514117198415 ], [ 19.13486812, 48.72849238 ], [ 19.13477572, 48.72848611 ], [ 19.13464357, 48.72849266 ], [ 19.134590193933963, 48.728502788700588 ], [ 19.134337053718276, 48.728578141752223 ], [ 19.1342697, 48.72860336 ], [ 19.13426768, 48.72860074 ], [ 19.1342557, 48.7285849 ], [ 19.13421159, 48.72857109 ], [ 19.13410768, 48.72853873 ], [ 19.13404052, 48.72851774 ], [ 19.133982187473567, 48.72851042060153 ], [ 19.133809396690438, 48.728514625006348 ], [ 19.13370403, 48.72852666 ], [ 19.13365016, 48.72853888 ], [ 19.13256547, 48.72879622 ], [ 19.13249516, 48.72881286 ], [ 19.13207397, 48.72891283 ], [ 19.13198797, 48.72893077 ], [ 19.13195244, 48.72893876 ], [ 19.13176069, 48.72898665 ], [ 19.131723246813497, 48.728999675552792 ], [ 19.131362968936251, 48.729166666910118 ], [ 19.131344759682598, 48.729177771984325 ], [ 19.1294314, 48.7309377 ], [ 19.12942261212828, 48.730944179127626 ], [ 19.12941926, 48.73094728 ], [ 19.129399652939647, 48.730961106492757 ], [ 19.129294508315997, 48.731038627587466 ], [ 19.12928918, 48.73104295 ], [ 19.12928722, 48.73104457 ], [ 19.1291888, 48.731117 ], [ 19.12890778, 48.73132398 ], [ 19.12884355, 48.73137131 ], [ 19.128588145734714, 48.731559415038689 ], [ 19.12758518929245, 48.73229887539955 ], [ 19.127511118217395, 48.732353760944953 ], [ 19.1275182, 48.7324552 ], [ 19.127506136773498, 48.732463956575096 ], [ 19.12750622, 48.73246513 ], [ 19.12740346, 48.73253969 ], [ 19.12739708, 48.73254424 ], [ 19.12688791, 48.73291356 ], [ 19.12674338, 48.73291607 ], [ 19.12648805, 48.73311638 ], [ 19.126395926029655, 48.73317620298792 ], [ 19.1260752, 48.7334165 ], [ 19.1264997, 48.7345145 ], [ 19.1265013, 48.7350949 ], [ 19.1261357, 48.7356201 ], [ 19.1255866, 48.736072 ], [ 19.1253697, 48.7361174 ], [ 19.1250534, 48.7361393 ], [ 19.1246452, 48.7361948 ], [ 19.1244232, 48.7362571 ], [ 19.12426, 48.736284 ], [ 19.1240456, 48.7363277 ], [ 19.1238339, 48.7363547 ], [ 19.1243013, 48.7374534 ], [ 19.1203844, 48.7388778 ], [ 19.119586425045107, 48.738033749587409 ], [ 19.11957386, 48.73804304 ], [ 19.119370633642326, 48.738132484938774 ], [ 19.119206950740079, 48.738207867551054 ], [ 19.119030630428888, 48.738292179103688 ], [ 19.119009, 48.7384841 ], [ 19.1188854, 48.7385919 ], [ 19.118883291621927, 48.738592620718919 ], [ 19.11887331, 48.73860136 ], [ 19.11863488, 48.73869012 ], [ 19.118568113858672, 48.738700359733393 ], [ 19.118476624094559, 48.738731634201862 ], [ 19.11838579580056, 48.738767457440638 ], [ 19.1183172, 48.7389831 ], [ 19.1182207, 48.739056 ], [ 19.118220508830085, 48.739055989022354 ], [ 19.11820867, 48.73906495 ], [ 19.11816158, 48.7390775 ], [ 19.11808178, 48.73907175 ], [ 19.11794412, 48.73904952 ], [ 19.1178491, 48.73892271 ], [ 19.11780829, 48.73890986 ], [ 19.1177456, 48.73889143 ], [ 19.117703090487062, 48.73889277783929 ], [ 19.117565603630222, 48.73901917356153 ], [ 19.11754606, 48.73904029 ], [ 19.117523520013961, 48.739057862271082 ], [ 19.1175225, 48.7390588 ], [ 19.117521858749971, 48.739059157399716 ], [ 19.11751017, 48.73906827 ], [ 19.11724685, 48.73923246 ], [ 19.11719116, 48.73926668 ], [ 19.11705171, 48.73932426 ], [ 19.11698552, 48.73933677 ], [ 19.11672208, 48.7393332 ], [ 19.11645505, 48.7393529 ], [ 19.116420716203272, 48.739358030701723 ], [ 19.116139672101514, 48.739446679598835 ], [ 19.11601911, 48.73949051 ], [ 19.11591253, 48.7395057 ], [ 19.11574473, 48.7395185 ], [ 19.11568445, 48.73950533 ], [ 19.11563675, 48.73947988 ], [ 19.11552826, 48.73942879 ], [ 19.11547296, 48.73939809 ], [ 19.11543245, 48.73938139 ], [ 19.11540929, 48.73938475 ], [ 19.11536285, 48.7393939 ], [ 19.115279508712106, 48.739425402540121 ], [ 19.1153065, 48.7395532 ], [ 19.115288409233472, 48.739572171514538 ], [ 19.11523709, 48.73966067 ], [ 19.11511547, 48.7397498 ], [ 19.11495269, 48.7397917 ], [ 19.11474429, 48.73983189 ], [ 19.11455553, 48.73985519 ], [ 19.11433977, 48.73986408 ], [ 19.114121753497344, 48.739878433103684 ], [ 19.1140824, 48.7399267 ], [ 19.1149245, 48.7416172 ], [ 19.1174314, 48.7409788 ], [ 19.1176805, 48.7415175 ], [ 19.1156217, 48.74197 ], [ 19.1154963, 48.7424058 ], [ 19.115557, 48.742491 ], [ 19.115540625462103, 48.742494831231816 ], [ 19.11554495, 48.7425009 ], [ 19.11546952, 48.74251917 ], [ 19.11524156, 48.74257426 ], [ 19.11489516, 48.74265903 ], [ 19.11488239, 48.74266218 ], [ 19.11471927, 48.74269623 ], [ 19.11447487, 48.74275077 ], [ 19.11443436, 48.7427641 ], [ 19.11423593, 48.74282931 ], [ 19.11405648, 48.74288834 ], [ 19.11400307, 48.74290481 ], [ 19.11390108, 48.74296858 ], [ 19.11374655, 48.74304841 ], [ 19.11372903, 48.74306341 ], [ 19.11351379, 48.74318199 ], [ 19.113477560580908, 48.74319280134371 ], [ 19.113290919179803, 48.743296202244309 ], [ 19.11326329, 48.74331452 ], [ 19.113148185834387, 48.743351848752901 ], [ 19.113075275168857, 48.743378813956582 ], [ 19.11305437, 48.74338687 ], [ 19.11292178, 48.74344028 ], [ 19.11277857, 48.7434754 ], [ 19.11278068, 48.74347965 ], [ 19.11249673, 48.74354387 ], [ 19.11249056, 48.74354411 ], [ 19.11247274, 48.74354494 ], [ 19.112183556990928, 48.743594571126479 ], [ 19.111852728698082, 48.743666645994971 ], [ 19.111729015276765, 48.743699208729446 ], [ 19.11182241381222, 48.743773868423119 ], [ 19.11184824, 48.74379016 ], [ 19.11185448, 48.74379408 ], [ 19.11185639, 48.74379526 ], [ 19.11190985, 48.74382902 ], [ 19.11198603, 48.74388726 ], [ 19.1120493, 48.74393783 ], [ 19.11210347, 48.74397975 ], [ 19.11217661, 48.74403712 ], [ 19.11225786, 48.74410247 ], [ 19.11235371, 48.74417964 ], [ 19.11241502, 48.74423074 ], [ 19.11250761, 48.74430793 ], [ 19.11255629, 48.74434767 ], [ 19.11264788, 48.74442282 ], [ 19.11273833, 48.7444972 ], [ 19.11278536, 48.74453587 ], [ 19.11287694, 48.74461111 ], [ 19.11289727, 48.7446279 ], [ 19.11291773, 48.7446447 ], [ 19.11300061, 48.74471247 ], [ 19.11309536, 48.74478985 ], [ 19.113128496515667, 48.744817907647843 ], [ 19.113413293197315, 48.745045564675934 ], [ 19.11341577, 48.74504696 ], [ 19.113429982940279, 48.745058905903306 ], [ 19.1139031, 48.7454371 ], [ 19.1140286, 48.7457105 ], [ 19.114252510786521, 48.745728936495851 ], [ 19.11446793, 48.74573693 ], [ 19.11511857, 48.74579836 ], [ 19.1151635, 48.74580257 ], [ 19.11526348, 48.74581202 ], [ 19.115266840887116, 48.745812454994365 ], [ 19.115503, 48.7458319 ], [ 19.1157196, 48.7459419 ], [ 19.1158099, 48.7461065 ], [ 19.1159462, 48.7469384 ], [ 19.1161996, 48.7472429 ], [ 19.1162224, 48.7477267 ], [ 19.116210332306633, 48.74773548547013 ], [ 19.11621036, 48.74773565 ], [ 19.115915952215524, 48.747950032255922 ], [ 19.1153387, 48.7486163 ], [ 19.115328111070692, 48.748623907772753 ], [ 19.11532689, 48.74862535 ], [ 19.1150144, 48.74884987 ], [ 19.1149341, 48.74890749 ], [ 19.114910890264241, 48.748924179096122 ], [ 19.114587645158565, 48.749481651302666 ], [ 19.11458171, 48.74949664 ], [ 19.11455378, 48.74955189 ], [ 19.11442539, 48.74980545 ], [ 19.114275435368814, 48.750020091877147 ], [ 19.1142487, 48.7500662 ], [ 19.1146628, 48.7503245 ], [ 19.116330412376264, 48.749209373193949 ], [ 19.11633433, 48.74920639 ], [ 19.11638238553769, 48.74917461891512 ], [ 19.116584, 48.7490398 ], [ 19.117034721517115, 48.748836226015172 ], [ 19.11703493, 48.74883613 ], [ 19.117035293201067, 48.748835967806997 ], [ 19.1176908, 48.7485399 ], [ 19.1189191, 48.7482038 ], [ 19.11943287292905, 48.748088507066242 ], [ 19.11974217, 48.74801497 ], [ 19.119918265991206, 48.747979582701028 ], [ 19.1210474, 48.7477262 ], [ 19.1217666, 48.7489611 ], [ 19.121751651402132, 48.748965598451242 ], [ 19.12175471, 48.74897042 ], [ 19.12173048, 48.74897734 ], [ 19.121418700398419, 48.749065792721467 ], [ 19.121408914523208, 48.749068737565047 ], [ 19.121080953418957, 48.749173237400534 ], [ 19.1210141, 48.7492509 ], [ 19.1210157, 48.7493627 ], [ 19.1210477, 48.7493765 ], [ 19.1213299, 48.7493355 ], [ 19.1221742, 48.7493973 ], [ 19.1226661, 48.7494984 ], [ 19.1227471, 48.7495565 ], [ 19.1228457, 48.7494869 ], [ 19.1232277, 48.749666 ], [ 19.1242914, 48.7503249 ], [ 19.1251163, 48.7507072 ], [ 19.1254376, 48.7510659 ], [ 19.1260625, 48.7512456 ], [ 19.1262964, 48.7513573 ], [ 19.126525649202392, 48.751543671650467 ], [ 19.12659887, 48.75159741 ], [ 19.126652524286797, 48.751646816693658 ], [ 19.1268471, 48.751805 ], [ 19.127081, 48.7519068 ], [ 19.1279822, 48.7526323 ], [ 19.128042016169534, 48.752653183323382 ], [ 19.12809551, 48.75266199 ], [ 19.12831196786188, 48.752747430222371 ], [ 19.1286851, 48.7528777 ], [ 19.1288406, 48.752883 ], [ 19.1294798, 48.7527242 ], [ 19.129817331690443, 48.7526782059862 ], [ 19.12995093, 48.75265708 ], [ 19.129998451521409, 48.752653525553988 ], [ 19.13013, 48.7526356 ], [ 19.13013297755657, 48.752634530431394 ], [ 19.13018669, 48.75259837 ], [ 19.13024243, 48.7525939 ], [ 19.130296030113552, 48.752575960294621 ], [ 19.130484486900478, 48.752508264700076 ], [ 19.13038215, 48.75239518 ], [ 19.1301988, 48.75244881 ], [ 19.13018381, 48.75238223 ], [ 19.13043908, 48.75216261 ], [ 19.13045358, 48.75215142 ], [ 19.1306624, 48.75199055 ], [ 19.1308539, 48.75183812 ], [ 19.13114159, 48.75160918 ], [ 19.13122595, 48.75154201 ], [ 19.13169541, 48.75116827 ], [ 19.13178231, 48.75109915 ], [ 19.13184315, 48.75105074 ], [ 19.13196902, 48.75095044 ], [ 19.132291068223882, 48.75069414520754 ], [ 19.1323378, 48.7506567 ], [ 19.132348834984015, 48.750659056477133 ], [ 19.13235678, 48.75065646 ], [ 19.13239558, 48.75066793 ], [ 19.132409206275412, 48.750671948527327 ], [ 19.13340882401689, 48.750885412937272 ], [ 19.13384432, 48.75052683 ], [ 19.13489748, 48.74965943 ], [ 19.135135808402897, 48.749510618892153 ], [ 19.135779450087991, 48.748997907665121 ], [ 19.13581772, 48.74896665 ], [ 19.135820006618232, 48.748965601198869 ], [ 19.1358298, 48.7489578 ], [ 19.1364996, 48.7486502 ], [ 19.1369275, 48.7488371 ], [ 19.1378223, 48.7489072 ], [ 19.1388366, 48.7489154 ], [ 19.1385618, 48.7500608 ], [ 19.1385015, 48.7508435 ], [ 19.1386596, 48.7519902 ], [ 19.1386621, 48.752008 ], [ 19.1392919, 48.7544525 ], [ 19.140883, 48.7543967 ], [ 19.1410668, 48.7544646 ], [ 19.141183428836936, 48.754470545358387 ], [ 19.14123761, 48.75446925 ], [ 19.14137172, 48.75447738 ], [ 19.14153646, 48.7544873 ], [ 19.141542374507353, 48.754488843240004 ], [ 19.1416043, 48.754492 ], [ 19.1414896, 48.7549609 ], [ 19.1417936, 48.7553165 ], [ 19.1419733, 48.7553929 ], [ 19.142378001608293, 48.755101154491285 ], [ 19.14239196, 48.75508739 ] ] ] } }
]
}
