{
"type": "FeatureCollection",
"name": "gis",
"crs": { "type": "name", "properties": { "name": "urn:ogc:def:crs:OGC:1.3:CRS84" } },
"features": [
{ "type": "Feature", "properties": { "@featureType": "CadastralParcel", "areaValue": { "value": 5591, "@uom": "m2" }, "beginLifespanVersion": { "@nilReason": "http://inspire.ec.europa.eu/codelist/VoidReasonValue/Unpopulated", "@nil": "true" }, "endLifespanVersion": { "@nilReason": "http://inspire.ec.europa.eu/codelist/VoidReasonValue/Unpopulated", "@nil": "true" }, "inspireId": { "@dataType": "Identifier", "localId": "852899_842.C", "namespace": "SK.ESKN.CP", "versionId": "20260703T05:07:11" }, "label": "842", "nationalCadastralReference": "852899_842.C", "referencePoint": { "type": "Point", "coordinates": [ 21.34606594, 48.75798094 ] }, "validFrom": "2026-06-30T16:00:00Z", "validTo": { "@nilReason": "http://inspire.ec.europa.eu/codelist/VoidReasonValue/Unpopulated", "@nil": "true" }, "administrativeUnit": { "@href": "#auAdmUnitS.1533" } }, "geometry": { "type": "Polygon", "coordinates": [ [ [ 21.34518671, 48.7577771 ], [ 21.34531458, 48.75779463 ], [ 21.34539446, 48.75781108 ], [ 21.34548057, 48.75782808 ], [ 21.3455749, 48.75784631 ], [ 21.34566654, 48.75786599 ], [ 21.3457331, 48.75789996 ], [ 21.34579968, 48.75792167 ], [ 21.34587831, 48.75794448 ], [ 21.34600356, 48.75801793 ], [ 21.34608856, 48.75807873 ], [ 21.3461845, 48.75814265 ], [ 21.34624858, 48.75818698 ], [ 21.34629973, 48.75822318 ], [ 21.34633727, 48.75824556 ], [ 21.34635519, 48.75825627 ], [ 21.3465309, 48.75833637 ], [ 21.34658079, 48.75835543 ], [ 21.34665243, 48.75838279 ], [ 21.34671919, 48.75839992 ], [ 21.34677653, 48.75841551 ], [ 21.34687555, 48.758431 ], [ 21.34697515, 48.75844192 ], [ 21.34700826, 48.75844742 ], [ 21.34697316, 48.75840153 ], [ 21.34702784, 48.75838265 ], [ 21.34702602, 48.75837936 ], [ 21.34704114, 48.75837333 ], [ 21.34706261, 48.75837596 ], [ 21.34706344, 48.75837184 ], [ 21.34703791, 48.75836684 ], [ 21.34701938, 48.75837295 ], [ 21.34696712, 48.7583034 ], [ 21.34698565, 48.7582973 ], [ 21.34699326, 48.75828556 ], [ 21.34699005, 48.75828087 ], [ 21.34698131, 48.75829114 ], [ 21.34696384, 48.75829763 ], [ 21.34691455, 48.75831542 ], [ 21.34690299, 48.75831921 ], [ 21.3468471, 48.75830817 ], [ 21.3467316, 48.75826715 ], [ 21.3466135, 48.75822443 ], [ 21.34644455, 48.75815885 ], [ 21.34636676, 48.75809809 ], [ 21.3462461, 48.75801739 ], [ 21.34602752, 48.75787173 ], [ 21.34600131, 48.75785491 ], [ 21.3457764, 48.75777937 ], [ 21.34530355, 48.75765242 ], [ 21.34521424, 48.75762452 ], [ 21.34486076, 48.75761478 ], [ 21.34451211, 48.75760014 ], [ 21.34419596, 48.75758819 ], [ 21.34395634, 48.75757404 ], [ 21.34360169, 48.75755364 ], [ 21.34327717, 48.75753468 ], [ 21.34306833, 48.7575382 ], [ 21.3424336, 48.75749207 ], [ 21.34179541, 48.75749814 ], [ 21.34168078, 48.75749595 ], [ 21.34164162, 48.75749315 ], [ 21.34156846, 48.75744449 ], [ 21.34155575, 48.75747678 ], [ 21.34151899, 48.7575675 ], [ 21.34151302, 48.75758299 ], [ 21.34181688, 48.75761537 ], [ 21.34208077, 48.75763286 ], [ 21.34232292, 48.75764583 ], [ 21.34240255, 48.75765021 ], [ 21.34271976, 48.75766454 ], [ 21.34279287, 48.75766674 ], [ 21.3429412, 48.75766788 ], [ 21.34309194, 48.7576618 ], [ 21.34316461, 48.75765643 ], [ 21.34330963, 48.75765044 ], [ 21.34340283, 48.75764551 ], [ 21.34350427, 48.75764145 ], [ 21.3435727, 48.75763838 ], [ 21.34370927, 48.75764231 ], [ 21.34379435, 48.75764857 ], [ 21.34394459, 48.75765957 ], [ 21.34403326, 48.75766702 ], [ 21.34413574, 48.75767361 ], [ 21.34420849, 48.75768103 ], [ 21.34428988, 48.75768942 ], [ 21.34437394, 48.75769654 ], [ 21.34443672, 48.75769843 ], [ 21.34451812, 48.75770466 ], [ 21.34471655, 48.75771973 ], [ 21.34479707, 48.75772891 ], [ 21.34482794, 48.75773146 ], [ 21.34490216, 48.75773918 ], [ 21.34494905, 48.75774438 ], [ 21.34506814, 48.75775894 ], [ 21.34509979, 48.75776395 ], [ 21.34514183, 48.75777035 ], [ 21.34518671, 48.7577771 ] ] ] } },
{ "type": "Feature", "properties": { "@featureType": "CadastralParcel", "areaValue": { "value": 619, "@uom": "m2" }, "beginLifespanVersion": { "@nilReason": "http://inspire.ec.europa.eu/codelist/VoidReasonValue/Unpopulated", "@nil": "true" }, "endLifespanVersion": { "@nilReason": "http://inspire.ec.europa.eu/codelist/VoidReasonValue/Unpopulated", "@nil": "true" }, "inspireId": { "@dataType": "Identifier", "localId": "852899_258/12.C", "namespace": "SK.ESKN.CP", "versionId": "20260703T05:07:11" }, "label": "258/12", "nationalCadastralReference": "852899_258/12.C", "referencePoint": { "type": "Point", "coordinates": [ 21.34374956, 48.75688738 ] }, "validFrom": "2026-06-30T16:00:00Z", "validTo": { "@nilReason": "http://inspire.ec.europa.eu/codelist/VoidReasonValue/Unpopulated", "@nil": "true" }, "administrativeUnit": { "@href": "#auAdmUnitS.1533" } }, "geometry": { "type": "Polygon", "coordinates": [ [ [ 21.34335246, 48.75688274 ], [ 21.34338636, 48.756869 ], [ 21.34342614, 48.75686867 ], [ 21.34377127, 48.75692831 ], [ 21.34419902, 48.75700231 ], [ 21.34429805, 48.75701943 ], [ 21.34430712, 48.75699648 ], [ 21.34432559, 48.75694977 ], [ 21.34422965, 48.7569332 ], [ 21.3442061, 48.75692916 ], [ 21.34418496, 48.75691592 ], [ 21.34417098, 48.75689353 ], [ 21.34408136, 48.75687805 ], [ 21.34405535, 48.75689203 ], [ 21.34402405, 48.75689766 ], [ 21.34380284, 48.7568594 ], [ 21.34347103, 48.75680205 ], [ 21.34343414, 48.75678807 ], [ 21.34341344, 48.7567625 ], [ 21.34335246, 48.75688274 ] ] ] } },
{ "type": "Feature", "properties": { "@featureType": "CadastralParcel", "areaValue": { "value": 491, "@uom": "m2" }, "beginLifespanVersion": { "@nilReason": "http://inspire.ec.europa.eu/codelist/VoidReasonValue/Unpopulated", "@nil": "true" }, "endLifespanVersion": { "@nilReason": "http://inspire.ec.europa.eu/codelist/VoidReasonValue/Unpopulated", "@nil": "true" }, "inspireId": { "@dataType": "Identifier", "localId": "852899_253/1.C", "namespace": "SK.ESKN.CP", "versionId": "20260703T05:07:11" }, "label": "253/1", "nationalCadastralReference": "852899_253/1.C", "referencePoint": { "type": "Point", "coordinates": [ 21.34289965, 48.75732847 ] }, "validFrom": "2026-06-30T16:00:00Z", "validTo": { "@nilReason": "http://inspire.ec.europa.eu/codelist/VoidReasonValue/Unpopulated", "@nil": "true" }, "administrativeUnit": { "@href": "#auAdmUnitS.1533" } }, "geometry": { "type": "Polygon", "coordinates": [ [ [ 21.34304121, 48.75721258 ], [ 21.34282439, 48.75717778 ], [ 21.3428177, 48.75729263 ], [ 21.3428137, 48.75740405 ], [ 21.3429347, 48.75741256 ], [ 21.34293748, 48.75738797 ], [ 21.34296042, 48.75738911 ], [ 21.34296485, 48.75736431 ], [ 21.34304121, 48.75721258 ] ] ] } },
{ "type": "Feature", "properties": { "@featureType": "CadastralParcel", "areaValue": { "value": 991, "@uom": "m2" }, "beginLifespanVersion": { "@nilReason": "http://inspire.ec.europa.eu/codelist/VoidReasonValue/Unpopulated", "@nil": "true" }, "endLifespanVersion": { "@nilReason": "http://inspire.ec.europa.eu/codelist/VoidReasonValue/Unpopulated", "@nil": "true" }, "inspireId": { "@dataType": "Identifier", "localId": "852899_847/2.C", "namespace": "SK.ESKN.CP", "versionId": "20260703T05:07:11" }, "label": "847/2", "nationalCadastralReference": "852899_847/2.C", "referencePoint": { "type": "Point", "coordinates": [ 21.34158198, 48.75738597 ] }, "validFrom": "2026-06-30T16:00:00Z", "validTo": { "@nilReason": "http://inspire.ec.europa.eu/codelist/VoidReasonValue/Unpopulated", "@nil": "true" }, "administrativeUnit": { "@href": "#auAdmUnitS.1533" } }, "geometry": { "type": "Polygon", "coordinates": [ [ [ 21.34411537, 48.7575069 ], [ 21.34355893, 48.75748456 ], [ 21.34312116, 48.75742555 ], [ 21.34309121, 48.75742348 ], [ 21.34295598, 48.75741401 ], [ 21.3429347, 48.75741256 ], [ 21.3428137, 48.75740405 ], [ 21.34277989, 48.75740465 ], [ 21.34253785, 48.7574078 ], [ 21.3421904, 48.75741336 ], [ 21.3416729, 48.75740289 ], [ 21.34153141, 48.75734786 ], [ 21.3415501, 48.75730989 ], [ 21.3415602, 48.75730164 ], [ 21.34155362, 48.75729631 ], [ 21.34154323, 48.75730095 ], [ 21.34152193, 48.75734514 ], [ 21.34144761, 48.75732318 ], [ 21.34146079, 48.75729198 ], [ 21.34145176, 48.75727875 ], [ 21.34144429, 48.7572805 ], [ 21.34144727, 48.75729058 ], [ 21.34143266, 48.75732075 ], [ 21.34085511, 48.75724726 ], [ 21.34077732, 48.75724185 ], [ 21.34078749, 48.75727412 ], [ 21.34112615, 48.75731313 ], [ 21.34135935, 48.75733934 ], [ 21.34142206, 48.75734411 ], [ 21.34140349, 48.75738442 ], [ 21.34139614, 48.75738834 ], [ 21.34139957, 48.75739394 ], [ 21.34141648, 48.75738751 ], [ 21.34143768, 48.75734665 ], [ 21.34150689, 48.75737376 ], [ 21.34149453, 48.75739905 ], [ 21.34150254, 48.75741513 ], [ 21.34150909, 48.75741299 ], [ 21.34150532, 48.75740045 ], [ 21.34151705, 48.75738046 ], [ 21.34158515, 48.75740187 ], [ 21.3416706, 48.75743235 ], [ 21.34172675, 48.75744341 ], [ 21.3423305, 48.75744711 ], [ 21.34277324, 48.75744775 ], [ 21.34302392, 48.75748114 ], [ 21.34356246, 48.75750448 ], [ 21.34392672, 48.75752562 ], [ 21.34410433, 48.75753079 ], [ 21.34411537, 48.7575069 ] ] ] } },
{ "type": "Feature", "properties": { "@featureType": "CadastralParcel", "areaValue": { "value": 2228, "@uom": "m2" }, "beginLifespanVersion": { "@nilReason": "http://inspire.ec.europa.eu/codelist/VoidReasonValue/Unpopulated", "@nil": "true" }, "endLifespanVersion": { "@nilReason": "http://inspire.ec.europa.eu/codelist/VoidReasonValue/Unpopulated", "@nil": "true" }, "inspireId": { "@dataType": "Identifier", "localId": "852899_282/10.C", "namespace": "SK.ESKN.CP", "versionId": "20260703T05:07:11" }, "label": "282/10", "nationalCadastralReference": "852899_282/10.C", "referencePoint": { "type": "Point", "coordinates": [ 21.34348824, 48.75644927 ] }, "validFrom": "2026-06-30T16:00:00Z", "validTo": { "@nilReason": "http://inspire.ec.europa.eu/codelist/VoidReasonValue/Unpopulated", "@nil": "true" }, "administrativeUnit": { "@href": "#auAdmUnitS.1533" } }, "geometry": { "type": "Polygon", "coordinates": [ [ [ 21.34295598, 48.75741401 ], [ 21.34309121, 48.75742348 ], [ 21.34312116, 48.75742555 ], [ 21.34312597, 48.75739725 ], [ 21.34309693, 48.75739584 ], [ 21.34310302, 48.75737459 ], [ 21.3431744, 48.75723397 ], [ 21.34327949, 48.75702674 ], [ 21.34334426, 48.75689906 ], [ 21.34335246, 48.75688274 ], [ 21.34341344, 48.7567625 ], [ 21.34348501, 48.75662098 ], [ 21.3435339, 48.7565101 ], [ 21.34357718, 48.75641157 ], [ 21.34363432, 48.75628194 ], [ 21.34368243, 48.75617248 ], [ 21.34373394, 48.75605538 ], [ 21.34378462, 48.75594033 ], [ 21.34383644, 48.7558226 ], [ 21.34388342, 48.75571572 ], [ 21.34389955, 48.75567921 ], [ 21.34393634, 48.75559578 ], [ 21.34396266, 48.7555359 ], [ 21.34383205, 48.75551081 ], [ 21.34376801, 48.75565571 ], [ 21.34370464, 48.75579883 ], [ 21.34365271, 48.75591628 ], [ 21.34360125, 48.75603266 ], [ 21.34354823, 48.75614819 ], [ 21.34349846, 48.75625778 ], [ 21.3434424, 48.7563877 ], [ 21.34339961, 48.75648697 ], [ 21.34335164, 48.75659824 ], [ 21.34327915, 48.75673928 ], [ 21.34321033, 48.75687657 ], [ 21.34314675, 48.75700294 ], [ 21.34304121, 48.75721258 ], [ 21.34296485, 48.75736431 ], [ 21.34296042, 48.75738911 ], [ 21.34293748, 48.75738797 ], [ 21.3429347, 48.75741256 ], [ 21.34295598, 48.75741401 ] ] ] } },
{ "type": "Feature", "properties": { "@featureType": "CadastralParcel", "areaValue": { "value": 470, "@uom": "m2" }, "beginLifespanVersion": { "@nilReason": "http://inspire.ec.europa.eu/codelist/VoidReasonValue/Unpopulated", "@nil": "true" }, "endLifespanVersion": { "@nilReason": "http://inspire.ec.europa.eu/codelist/VoidReasonValue/Unpopulated", "@nil": "true" }, "inspireId": { "@dataType": "Identifier", "localId": "852899_282/9.C", "namespace": "SK.ESKN.CP", "versionId": "20260703T05:07:11" }, "label": "282/9", "nationalCadastralReference": "852899_282/9.C", "referencePoint": { "type": "Point", "coordinates": [ 21.34424938, 48.75570974 ] }, "validFrom": "2026-06-30T16:00:00Z", "validTo": { "@nilReason": "http://inspire.ec.europa.eu/codelist/VoidReasonValue/Unpopulated", "@nil": "true" }, "administrativeUnit": { "@href": "#auAdmUnitS.1533" } }, "geometry": { "type": "Polygon", "coordinates": [ [ [ 21.34389955, 48.75567921 ], [ 21.34482729, 48.75584155 ], [ 21.34485001, 48.75578651 ], [ 21.34481275, 48.75577981 ], [ 21.34451649, 48.75572632 ], [ 21.34433292, 48.75569316 ], [ 21.34399268, 48.75563178 ], [ 21.34395751, 48.75561856 ], [ 21.34393634, 48.75559578 ], [ 21.34389955, 48.75567921 ] ] ] } },
{ "type": "Feature", "properties": { "@featureType": "CadastralParcel", "areaValue": { "value": 154, "@uom": "m2" }, "beginLifespanVersion": { "@nilReason": "http://inspire.ec.europa.eu/codelist/VoidReasonValue/Unpopulated", "@nil": "true" }, "endLifespanVersion": { "@nilReason": "http://inspire.ec.europa.eu/codelist/VoidReasonValue/Unpopulated", "@nil": "true" }, "inspireId": { "@dataType": "Identifier", "localId": "852899_281/8.C", "namespace": "SK.ESKN.CP", "versionId": "20260703T05:07:11" }, "label": "281/8", "nationalCadastralReference": "852899_281/8.C", "referencePoint": { "type": "Point", "coordinates": [ 21.34429719, 48.75575494 ] }, "validFrom": "2026-06-30T16:00:00Z", "validTo": { "@nilReason": "http://inspire.ec.europa.eu/codelist/VoidReasonValue/Unpopulated", "@nil": "true" }, "administrativeUnit": { "@href": "#auAdmUnitS.1533" } }, "geometry": { "type": "Polygon", "coordinates": [ [ [ 21.34389955, 48.75567921 ], [ 21.34388342, 48.75571572 ], [ 21.34391821, 48.75570083 ], [ 21.34395977, 48.75570037 ], [ 21.34447927, 48.75579416 ], [ 21.34452056, 48.75580162 ], [ 21.34455285, 48.75582906 ], [ 21.34455458, 48.75586512 ], [ 21.34462411, 48.75587765 ], [ 21.3446533, 48.7558472 ], [ 21.34470225, 48.75583436 ], [ 21.3448214, 48.75585587 ], [ 21.34482729, 48.75584155 ], [ 21.34389955, 48.75567921 ] ] ] } },
{ "type": "Feature", "properties": { "@featureType": "CadastralParcel", "areaValue": { "value": 988, "@uom": "m2" }, "beginLifespanVersion": { "@nilReason": "http://inspire.ec.europa.eu/codelist/VoidReasonValue/Unpopulated", "@nil": "true" }, "endLifespanVersion": { "@nilReason": "http://inspire.ec.europa.eu/codelist/VoidReasonValue/Unpopulated", "@nil": "true" }, "inspireId": { "@dataType": "Identifier", "localId": "852899_247.C", "namespace": "SK.ESKN.CP", "versionId": "20260703T05:07:11" }, "label": "247", "nationalCadastralReference": "852899_247.C", "referencePoint": { "type": "Point", "coordinates": [ 21.34239094, 48.75748661 ] }, "validFrom": "2026-06-30T16:00:00Z", "validTo": { "@nilReason": "http://inspire.ec.europa.eu/codelist/VoidReasonValue/Unpopulated", "@nil": "true" }, "administrativeUnit": { "@href": "#auAdmUnitS.1533" } }, "geometry": { "type": "Polygon", "coordinates": [ [ [ 21.34395634, 48.75757404 ], [ 21.34392672, 48.75752562 ], [ 21.34356246, 48.75750448 ], [ 21.34302392, 48.75748114 ], [ 21.34277324, 48.75744775 ], [ 21.3423305, 48.75744711 ], [ 21.34172675, 48.75744341 ], [ 21.3416706, 48.75743235 ], [ 21.34158515, 48.75740187 ], [ 21.34158103, 48.75741228 ], [ 21.34156846, 48.75744449 ], [ 21.34164162, 48.75749315 ], [ 21.34168078, 48.75749595 ], [ 21.34179541, 48.75749814 ], [ 21.3424336, 48.75749207 ], [ 21.34306833, 48.7575382 ], [ 21.34327717, 48.75753468 ], [ 21.34360169, 48.75755364 ], [ 21.34395634, 48.75757404 ] ] ] } },
{ "type": "Feature", "properties": { "@featureType": "CadastralParcel", "areaValue": { "value": 260, "@uom": "m2" }, "beginLifespanVersion": { "@nilReason": "http://inspire.ec.europa.eu/codelist/VoidReasonValue/Unpopulated", "@nil": "true" }, "endLifespanVersion": { "@nilReason": "http://inspire.ec.europa.eu/codelist/VoidReasonValue/Unpopulated", "@nil": "true" }, "inspireId": { "@dataType": "Identifier", "localId": "852899_1382.E", "namespace": "SK.ESKN.CP", "versionId": "20260703T05:07:11" }, "label": "1382", "nationalCadastralReference": "852899_1382.E", "referencePoint": { "type": "Point", "coordinates": [ 21.34298475, 48.75746374 ] }, "validFrom": "2026-06-30T16:00:00Z", "validTo": { "@nilReason": "http://inspire.ec.europa.eu/codelist/VoidReasonValue/Unpopulated", "@nil": "true" }, "administrativeUnit": { "@href": "#auAdmUnitS.1533" } }, "geometry": { "type": "Polygon", "coordinates": [ [ [ 21.34236738, 48.7574375 ], [ 21.34158515, 48.75740187 ], [ 21.3416399, 48.75742143 ], [ 21.34183141, 48.75744404 ], [ 21.3423305, 48.75744711 ], [ 21.34277324, 48.75744775 ], [ 21.34302392, 48.75748114 ], [ 21.34356246, 48.75750448 ], [ 21.34364749, 48.75750938 ], [ 21.34364679, 48.75749783 ], [ 21.34325508, 48.75747973 ], [ 21.3428146, 48.75744036 ], [ 21.34236738, 48.7574375 ] ] ] } },
{ "type": "Feature", "properties": { "@featureType": "CadastralParcel", "areaValue": { "value": 910, "@uom": "m2" }, "beginLifespanVersion": { "@nilReason": "http://inspire.ec.europa.eu/codelist/VoidReasonValue/Unpopulated", "@nil": "true" }, "endLifespanVersion": { "@nilReason": "http://inspire.ec.europa.eu/codelist/VoidReasonValue/Unpopulated", "@nil": "true" }, "inspireId": { "@dataType": "Identifier", "localId": "852899_1384.E", "namespace": "SK.ESKN.CP", "versionId": "20260703T05:07:11" }, "label": "1384", "nationalCadastralReference": "852899_1384.E", "referencePoint": { "type": "Point", "coordinates": [ 21.34202487, 48.75739483 ] }, "validFrom": "2026-06-30T16:00:00Z", "validTo": { "@nilReason": "http://inspire.ec.europa.eu/codelist/VoidReasonValue/Unpopulated", "@nil": "true" }, "administrativeUnit": { "@href": "#auAdmUnitS.1533" } }, "geometry": { "type": "Polygon", "coordinates": [ [ [ 21.34144727, 48.75729058 ], [ 21.34140525, 48.75738655 ], [ 21.3415019, 48.75740269 ], [ 21.34158515, 48.75740187 ], [ 21.34236738, 48.7574375 ], [ 21.3428146, 48.75744036 ], [ 21.34325508, 48.75747973 ], [ 21.34364679, 48.75749783 ], [ 21.34364486, 48.75746654 ], [ 21.34355136, 48.75744626 ], [ 21.34312116, 48.75742555 ], [ 21.3428137, 48.75740405 ], [ 21.34277989, 48.75740465 ], [ 21.3424623, 48.75738779 ], [ 21.34203742, 48.75736509 ], [ 21.34180104, 48.75735733 ], [ 21.34160348, 48.75735318 ], [ 21.3415501, 48.75730989 ], [ 21.3415602, 48.75730164 ], [ 21.34155362, 48.75729631 ], [ 21.34154323, 48.75730095 ], [ 21.34152193, 48.75734514 ], [ 21.34144761, 48.75732318 ], [ 21.34146079, 48.75729198 ], [ 21.34145176, 48.75727875 ], [ 21.34144429, 48.7572805 ], [ 21.34144727, 48.75729058 ] ] ] } }
]
}
