{
"type": "FeatureCollection",
"name": "gis",
"crs": { "type": "name", "properties": { "name": "urn:ogc:def:crs:OGC:1.3:CRS84" } },
"features": [
{ "type": "Feature", "properties": { "@featureType": "CadastralZoning", "beginLifespanVersion": { "@nilReason": "http://inspire.ec.europa.eu/codelist/VoidReasonValue/Unpopulated", "@nil": "true" }, "endLifespanVersion": { "@nilReason": "http://inspire.ec.europa.eu/codelist/VoidReasonValue/Unpopulated", "@nil": "true" }, "estimatedAccuracy": { "value": -1, "@uom": "m" }, "inspireId": { "@dataType": "Identifier", "localId": "847411", "namespace": "SK.ESKN.CP", "versionId": "20260703T04:07:40" }, "label": "Podkonice", "level": { "@href": "http://inspire.ec.europa.eu/codelist/CadastralZoningLevelValue/3rdOrder" }, "levelName": { "value": "Katastrálne územie", "@locale": "sk" }, "name_1": { "@dataType": "name", "GeographicalName": { "@dataType": "GeographicalName", "language": "SLK", "nativeness": { "@href": "http://inspire.ec.europa.eu/codelist/NativenessValue/endonym", "@title": "endonym" }, "nameStatus": { "@href": "http://inspire.ec.europa.eu/codelist/NameStatusValue/official", "@title": "official" }, "sourceOfName": { "@nilReason": "http://inspire.ec.europa.eu/codelist/VoidReasonValue/Unpopulated", "@nil": "true" }, "pronunciation": { "@dataType": "pronunciation", "@nilReason": "http://inspire.ec.europa.eu/codelist/VoidReasonValue/Unpopulated", "@nil": "true" }, "spelling": { "@dataType": "SpellingOfName", "text": "Podkonice", "script": "LATN" } } }, "nationalCadastalZoningReference": "847411", "validFrom": "2026-06-30T16:00:00Z", "validTo": { "@nilReason": "http://inspire.ec.europa.eu/codelist/VoidReasonValue/Unpopulated", "@nil": "true" }, "place_id": 188446133, "osm_type": "relation", "osm_id": 2265311, "place_rank": 16, "category": "boundary", "type": "administrative", "importance": 0.46737209724776524, "addresstype": "municipality", "name_2": "Podkonice", "display_name": "Podkonice, okres Banská Bystrica, Banskobystrický kraj, Slovensko" }, "geometry": { "type": "Polygon", "coordinates": [ [ [ 19.24622171, 48.85940938 ], [ 19.24629303, 48.85912211 ], [ 19.24653742, 48.85823355 ], [ 19.24656814563199, 48.858035638347488 ], [ 19.246625399227042, 48.857456637726749 ], [ 19.24663081, 48.85698586 ], [ 19.24670373, 48.85654962 ], [ 19.246714986305697, 48.856550651402195 ], [ 19.246716, 48.8565404 ], [ 19.2492033, 48.8567673 ], [ 19.2515812, 48.85666 ], [ 19.252941, 48.856112 ], [ 19.253188810421889, 48.855971636202135 ], [ 19.25333945, 48.85588605 ], [ 19.253339775469286, 48.855886127177797 ], [ 19.25334, 48.855886 ], [ 19.25366600860168, 48.855963486102425 ], [ 19.25437501, 48.85613161 ], [ 19.254676833689533, 48.856166495278806 ], [ 19.25483, 48.856184 ], [ 19.255842, 48.856266 ], [ 19.258981, 48.856373 ], [ 19.25949, 48.856413 ], [ 19.260845, 48.856887 ], [ 19.261278177033056, 48.857118625721697 ], [ 19.26166661, 48.85732565 ], [ 19.26261666, 48.85794753 ], [ 19.262970368087444, 48.858187852261921 ], [ 19.26394, 48.858846 ], [ 19.264312280818906, 48.859318060335987 ], [ 19.264481175625814, 48.859532013116358 ], [ 19.265271, 48.859591 ], [ 19.266788552497253, 48.859214010030705 ], [ 19.266853168039898, 48.859197932928282 ], [ 19.266893103913912, 48.859181992858396 ], [ 19.26825091, 48.85863977 ], [ 19.268271001852419, 48.858633601355599 ], [ 19.2687027, 48.8584955 ], [ 19.269194904714229, 48.85834994268162 ], [ 19.26921514, 48.85834373 ], [ 19.26985758, 48.85829768 ], [ 19.270096490392262, 48.858310000607887 ], [ 19.270316, 48.858321 ], [ 19.274211, 48.859171 ], [ 19.275500902868455, 48.859375915699026 ], [ 19.27638866, 48.85951688 ], [ 19.27707296, 48.85960075 ], [ 19.27723016248385, 48.8595991162031 ], [ 19.277657, 48.859594 ], [ 19.278453256327886, 48.859799257186744 ], [ 19.27855711, 48.85982594 ], [ 19.278677294588309, 48.859849599778009 ], [ 19.279867, 48.860083 ], [ 19.280791294544397, 48.860264485571129 ], [ 19.28123715, 48.86035164 ], [ 19.28184787, 48.86042491 ], [ 19.281856562109049, 48.860427742550556 ], [ 19.281976, 48.860466 ], [ 19.283111, 48.860744 ], [ 19.283510060925344, 48.86080881364326 ], [ 19.28503174, 48.86105581 ], [ 19.28548421781251, 48.86094637143939 ], [ 19.286121, 48.860792 ], [ 19.286596432185686, 48.860583449074852 ], [ 19.28671556, 48.86053108 ], [ 19.286715755693677, 48.860531107166302 ], [ 19.286716, 48.860531 ], [ 19.288024, 48.860712 ], [ 19.2888, 48.86067 ], [ 19.28973, 48.860651 ], [ 19.29028, 48.860304 ], [ 19.290372966976062, 48.860190245377119 ], [ 19.29044025, 48.86010743 ], [ 19.290440818253643, 48.860107222385295 ], [ 19.290441, 48.860107 ], [ 19.291351, 48.859774 ], [ 19.292212, 48.859701 ], [ 19.292831, 48.859589 ], [ 19.295631, 48.859679 ], [ 19.295677353356925, 48.859582040610846 ], [ 19.29619572, 48.85848219 ], [ 19.29631983, 48.85785336 ], [ 19.29642864, 48.85646756 ], [ 19.29627495, 48.85634525 ], [ 19.29617571, 48.85608912 ], [ 19.29599898, 48.85558548 ], [ 19.29550497, 48.85507811 ], [ 19.29438798, 48.85413069 ], [ 19.29416378, 48.85359538 ], [ 19.293774130276987, 48.853421663039576 ], [ 19.293087031848884, 48.853140819537096 ], [ 19.29286136, 48.85306286 ], [ 19.29230238, 48.85314747 ], [ 19.291709646101673, 48.853572174816151 ], [ 19.2917297, 48.8536648 ], [ 19.2923681, 48.8535974 ], [ 19.2920133, 48.8539996 ], [ 19.2921586, 48.8541587 ], [ 19.2926844, 48.8542821 ], [ 19.2926355, 48.8545287 ], [ 19.292623970840456, 48.854534189113224 ], [ 19.29262324, 48.85453786 ], [ 19.29239552, 48.85464671 ], [ 19.291885004796207, 48.854442362297206 ], [ 19.2918062, 48.8547504 ], [ 19.2924372, 48.8550343 ], [ 19.2924815, 48.8552112 ], [ 19.2927421, 48.8552168 ], [ 19.293481370160034, 48.854986431968825 ], [ 19.29358449, 48.85469845 ], [ 19.293591769876898, 48.854701734471568 ], [ 19.2935965, 48.8546885 ], [ 19.2938369, 48.8547971 ], [ 19.2937894, 48.8549074 ], [ 19.2938706, 48.854963 ], [ 19.2944944, 48.8549107 ], [ 19.2958766, 48.8567892 ], [ 19.2958295, 48.8571892 ], [ 19.295982, 48.8582515 ], [ 19.295968054705266, 48.858248313787961 ], [ 19.29596991, 48.85826122 ], [ 19.29466674, 48.85796321 ], [ 19.2922014, 48.85779696 ], [ 19.2912458, 48.85795997 ], [ 19.29061501, 48.8584202 ], [ 19.28992651, 48.85845172 ], [ 19.28823954, 48.8581286 ], [ 19.286945431275903, 48.858303819636227 ], [ 19.2869114, 48.8592941 ], [ 19.28689932491671, 48.859298727555156 ], [ 19.28689914, 48.85930412 ], [ 19.2858982, 48.85968755 ], [ 19.28536504, 48.85961233 ], [ 19.284083668360406, 48.859431394569434 ], [ 19.2840559, 48.860158 ], [ 19.284044420276576, 48.860157067451553 ], [ 19.28404404, 48.86016714 ], [ 19.28360294, 48.86013212 ], [ 19.28275952, 48.86014301 ], [ 19.28224677, 48.86013448 ], [ 19.28159972, 48.86016154 ], [ 19.28117112, 48.86015326 ], [ 19.28058673, 48.86014742 ], [ 19.2782008, 48.85968992 ], [ 19.27788903, 48.85940509 ], [ 19.27681465, 48.85877982 ], [ 19.27629776, 48.85826946 ], [ 19.27552249, 48.85791261 ], [ 19.27503359, 48.85780683 ], [ 19.27465041, 48.85803009 ], [ 19.2736745, 48.85810145 ], [ 19.27304981, 48.85800762 ], [ 19.27229075, 48.85781014 ], [ 19.27222512, 48.85722801 ], [ 19.27219188, 48.85698044 ], [ 19.26928972, 48.85590626 ], [ 19.26858941, 48.85587775 ], [ 19.26867769, 48.85578723 ], [ 19.26850305, 48.85562257 ], [ 19.2685556, 48.85542366 ], [ 19.2684453, 48.85532855 ], [ 19.26898951, 48.85425762 ], [ 19.26861338, 48.8541519 ], [ 19.268476006519489, 48.854113281103423 ], [ 19.2677071, 48.8554491 ], [ 19.267701255116506, 48.855447255404137 ], [ 19.26769504, 48.85545805 ], [ 19.267006499656727, 48.855241280108963 ], [ 19.2669151, 48.8553444 ], [ 19.266912185351988, 48.855343403483474 ], [ 19.26690291, 48.85535388 ], [ 19.26636601, 48.85517082 ], [ 19.26580833, 48.85489749 ], [ 19.26575827, 48.85437427 ], [ 19.265192, 48.85415778 ], [ 19.26466878, 48.85387942 ], [ 19.26429673, 48.85331114 ], [ 19.2637863, 48.85283791 ], [ 19.26354174, 48.85218919 ], [ 19.26322045, 48.85137799 ], [ 19.26205574, 48.85112711 ], [ 19.26128234, 48.85090856 ], [ 19.26081708, 48.85074416 ], [ 19.26049436, 48.85034712 ], [ 19.260328, 48.8500411 ], [ 19.26148214, 48.84778109 ], [ 19.26150393, 48.8477385 ], [ 19.26241776, 48.84594887 ], [ 19.26243954, 48.84590628 ], [ 19.26317933, 48.8444575 ], [ 19.263191504793802, 48.844447886429336 ], [ 19.2631916, 48.8444477 ], [ 19.263328301555308, 48.844339512317063 ], [ 19.26328183, 48.84420843 ], [ 19.26321988, 48.84403331 ], [ 19.26320436, 48.84398947 ], [ 19.26200207, 48.8405931 ], [ 19.26141318, 48.83892917 ], [ 19.26128441, 48.83878285 ], [ 19.26105312, 48.83881401 ], [ 19.26091959, 48.83883193 ], [ 19.26031689, 48.83915232 ], [ 19.25971341, 48.83922742 ], [ 19.25901845, 48.83898314 ], [ 19.25854276, 48.83904653 ], [ 19.25794186, 48.8391267 ], [ 19.25698213, 48.8392573 ], [ 19.25575011, 48.83930417 ], [ 19.25487324, 48.83930547 ], [ 19.25424781, 48.83907867 ], [ 19.25376986, 48.83877819 ], [ 19.2531555, 48.83860458 ], [ 19.25211652, 48.83844016 ], [ 19.2510223, 48.83794908 ], [ 19.25046652, 48.83770299 ], [ 19.24993309, 48.83736969 ], [ 19.24914, 48.83698086 ], [ 19.24823841, 48.83678615 ], [ 19.24803319, 48.83624118 ], [ 19.2478915, 48.83578133 ], [ 19.2483084, 48.83509387 ], [ 19.24824645, 48.83490693 ], [ 19.24817365, 48.83468728 ], [ 19.24778779, 48.83431448 ], [ 19.24782678, 48.83404991 ], [ 19.24802444, 48.83365981 ], [ 19.2481321, 48.83323389 ], [ 19.24814329, 48.83318953 ], [ 19.24819925, 48.83296779 ], [ 19.248211379051828, 48.832958482976835 ], [ 19.2482114, 48.8329584 ], [ 19.248323360229293, 48.832872470749201 ], [ 19.24854483, 48.83243334 ], [ 19.24828916, 48.83226285 ], [ 19.24824427, 48.83214644 ], [ 19.24795057, 48.83201973 ], [ 19.247825, 48.8317832 ], [ 19.24750675, 48.83158588 ], [ 19.247529326225237, 48.831582223476588 ], [ 19.247519, 48.8315758 ], [ 19.2481241, 48.8314777 ], [ 19.2485698, 48.8311646 ], [ 19.2488814, 48.8311097 ], [ 19.2491816, 48.8309966 ], [ 19.249855410392204, 48.830670376207735 ], [ 19.24969245, 48.83044958 ], [ 19.249706531453853, 48.830442921426432 ], [ 19.2497046, 48.8304403 ], [ 19.250190418167776, 48.830155759120146 ], [ 19.250190262866031, 48.829942933607882 ], [ 19.25015543380297, 48.829347265771126 ], [ 19.25013274, 48.8291748 ], [ 19.24991025, 48.82878355 ], [ 19.24997115, 48.8286084 ], [ 19.249983523148476, 48.828598719647424 ], [ 19.2499836, 48.8285985 ], [ 19.250362123424015, 48.828302514994277 ], [ 19.25041148, 48.8282639 ], [ 19.250411555683318, 48.828263861620073 ], [ 19.2504234, 48.8282546 ], [ 19.2505519, 48.8281885 ], [ 19.25090311968162, 48.828301342066176 ], [ 19.25119821, 48.82805352 ], [ 19.251198267636969, 48.828053673273637 ], [ 19.2512105, 48.8280434 ], [ 19.2512596, 48.8281754 ], [ 19.2517629, 48.8279753 ], [ 19.2521525, 48.828072 ], [ 19.2521069, 48.8281893 ], [ 19.2526134, 48.8282712 ], [ 19.252954903936942, 48.828062535470664 ], [ 19.25309007, 48.82779253 ], [ 19.253102571972804, 48.827782438190731 ], [ 19.253467, 48.8274882 ], [ 19.25394384495462, 48.827573687806471 ], [ 19.25389613, 48.82721075 ], [ 19.25372464, 48.82699049 ], [ 19.25306309, 48.8268595 ], [ 19.25275467, 48.8269229 ], [ 19.2526446, 48.82675979 ], [ 19.25199764, 48.82684276 ], [ 19.25182768, 48.82688046 ], [ 19.25121095, 48.82693944 ], [ 19.25048402, 48.8270317 ], [ 19.24970191, 48.82710669 ], [ 19.24943499, 48.82711338 ], [ 19.24933379, 48.82700228 ], [ 19.24949405, 48.82673021 ], [ 19.24931734, 48.82664856 ], [ 19.24916327, 48.82647846 ], [ 19.24912014, 48.8264202 ], [ 19.249087252446266, 48.826375812340409 ], [ 19.249080770200408, 48.826368788941046 ], [ 19.24898206, 48.82628451 ], [ 19.24906656, 48.82616514 ], [ 19.24922778, 48.82604848 ], [ 19.249230910006244, 48.826047456876637 ], [ 19.2492397, 48.826039 ], [ 19.2494145, 48.825982 ], [ 19.2496535, 48.8259982 ], [ 19.250094726266571, 48.825860206534131 ], [ 19.25012655, 48.82579535 ], [ 19.25011977, 48.82572821 ], [ 19.25006171, 48.82553957 ], [ 19.24915639, 48.82574459 ], [ 19.24903997, 48.82566368 ], [ 19.2488489, 48.8256156 ], [ 19.24885777, 48.82556508 ], [ 19.248868294237255, 48.825565028556717 ], [ 19.24887, 48.8255556 ], [ 19.2490891, 48.8255539 ], [ 19.2493073, 48.8254673 ], [ 19.2501939, 48.8252973 ], [ 19.2507842, 48.825258 ], [ 19.2514718, 48.8252505 ], [ 19.2525879, 48.8254701 ], [ 19.252661991661807, 48.825451037478416 ], [ 19.25268543, 48.82544338 ], [ 19.25277589, 48.82540951 ], [ 19.25282095, 48.82539969 ], [ 19.25287932, 48.8253869 ], [ 19.253092011924995, 48.82534040059501 ], [ 19.2532813, 48.8252917 ], [ 19.254861527869405, 48.825045456273969 ], [ 19.25501211, 48.82501596 ], [ 19.255166950921595, 48.824997862814918 ], [ 19.255365642241109, 48.824966901146794 ], [ 19.25549327, 48.82482905 ], [ 19.25549783344772, 48.824827469122141 ], [ 19.2555052, 48.8248195 ], [ 19.2560925, 48.8246157 ], [ 19.2568959, 48.8245967 ], [ 19.2572211, 48.8245245 ], [ 19.2575394, 48.8243405 ], [ 19.257716360445588, 48.824316414842208 ], [ 19.25785494, 48.82429199 ], [ 19.25855327, 48.82420101 ], [ 19.258683396590754, 48.824184796626255 ], [ 19.2594181, 48.8240848 ], [ 19.2598144, 48.8239754 ], [ 19.2602125, 48.8239237 ], [ 19.2608019, 48.8235 ], [ 19.2611192, 48.8233351 ], [ 19.2613479, 48.8233754 ], [ 19.262284, 48.8232074 ], [ 19.2626697, 48.8231931 ], [ 19.2629629, 48.823045 ], [ 19.2634537, 48.8231002 ], [ 19.263572784319678, 48.823087809153712 ], [ 19.26374257, 48.82305952 ], [ 19.264242918171867, 48.823018081035222 ], [ 19.2646608, 48.8229746 ], [ 19.2653944, 48.8229716 ], [ 19.2662524, 48.822801 ], [ 19.2665302, 48.8225978 ], [ 19.2669257, 48.8225504 ], [ 19.2672967, 48.8225817 ], [ 19.2677817, 48.8225566 ], [ 19.2681582, 48.8224023 ], [ 19.2691096, 48.8224356 ], [ 19.2697693, 48.8221879 ], [ 19.2702581, 48.822059 ], [ 19.2707529, 48.8220063 ], [ 19.2710476, 48.8217895 ], [ 19.2715888, 48.8216395 ], [ 19.2717939, 48.8216867 ], [ 19.2722732, 48.821589 ], [ 19.2732049, 48.821502 ], [ 19.2738269, 48.8213921 ], [ 19.2743404, 48.8215915 ], [ 19.2750885, 48.8215901 ], [ 19.2760847, 48.821381 ], [ 19.276724559186931, 48.821190538584908 ], [ 19.27716566, 48.82061242 ], [ 19.277171457048695, 48.820610849573946 ], [ 19.2771776, 48.8206028 ], [ 19.2783854, 48.8202753 ], [ 19.278847030773044, 48.820008745141436 ], [ 19.2789222, 48.81984717 ], [ 19.278931205106755, 48.81984417172098 ], [ 19.2789344, 48.8198373 ], [ 19.279317543933768, 48.819710048929437 ], [ 19.27942546, 48.81961191 ], [ 19.280052548953609, 48.819229959643927 ], [ 19.280080035850872, 48.819211975004364 ], [ 19.27964685, 48.81904311 ], [ 19.279659381922393, 48.819033510108703 ], [ 19.2796591, 48.8190334 ], [ 19.280228876144864, 48.818597054926194 ], [ 19.28033827, 48.81846765 ], [ 19.28044072, 48.81815697 ], [ 19.280452333593452, 48.818149319374378 ], [ 19.280453, 48.8181473 ], [ 19.281013430240879, 48.817778105230623 ], [ 19.28075503, 48.81765809 ], [ 19.2808775, 48.81753773 ], [ 19.280879780047311, 48.817537745247655 ], [ 19.2808895, 48.8175282 ], [ 19.280990279334663, 48.817528845430324 ], [ 19.28112169, 48.81717976 ], [ 19.281132385691382, 48.817173759965641 ], [ 19.2811338, 48.81717 ], [ 19.281967929138194, 48.816702081130444 ], [ 19.28213802, 48.81638093 ], [ 19.28224417, 48.8161606 ], [ 19.28205709, 48.81606146 ], [ 19.28232558, 48.81566858 ], [ 19.28221469, 48.81555957 ], [ 19.282239629789771, 48.815562433297494 ], [ 19.2822268, 48.8155498 ], [ 19.282421105061278, 48.8155722641227 ], [ 19.28251148, 48.81534387 ], [ 19.28251971790835, 48.815344608791705 ], [ 19.2825238, 48.8153343 ], [ 19.282717818499052, 48.815351635912187 ], [ 19.28263098, 48.81525042 ], [ 19.28270579, 48.81519089 ], [ 19.2826438, 48.81513382 ], [ 19.28246231, 48.81517019 ], [ 19.28221829, 48.81490602 ], [ 19.28203482, 48.81496033 ], [ 19.28189551, 48.81473725 ], [ 19.2817839, 48.81475894 ], [ 19.28120327, 48.8142036 ], [ 19.28116522, 48.814053 ], [ 19.281178412698704, 48.814047798226376 ], [ 19.2811773, 48.8140434 ], [ 19.2816057, 48.8138745 ], [ 19.2821573, 48.8140092 ], [ 19.2828142, 48.8140589 ], [ 19.282839, 48.8142041 ], [ 19.283017, 48.8143256 ], [ 19.283209074209399, 48.814290319052347 ], [ 19.28339852, 48.81410603 ], [ 19.283400891237054, 48.814105757173984 ], [ 19.2834105, 48.8140964 ], [ 19.28368575371023, 48.81406477764456 ], [ 19.28379606, 48.8139673 ], [ 19.283797190469912, 48.813967354211648 ], [ 19.2838081, 48.8139577 ], [ 19.2842293, 48.8139779 ], [ 19.284436139836721, 48.813855667866143 ], [ 19.28444196, 48.81355645 ], [ 19.284453854444209, 48.813559151456275 ], [ 19.2844541, 48.8135468 ], [ 19.284905875333166, 48.813649566915451 ], [ 19.28501583, 48.8135524 ], [ 19.28534186, 48.81326426 ], [ 19.285342408770887, 48.813264531006844 ], [ 19.2853542, 48.8132541 ], [ 19.285503391319367, 48.813328597636477 ], [ 19.28574238, 48.81302991 ], [ 19.28565951, 48.81298265 ], [ 19.28567298, 48.81296202 ], [ 19.2857447, 48.8128523 ], [ 19.28586527, 48.81268441 ], [ 19.28594721, 48.81256743 ], [ 19.28595921149148, 48.81255742781147 ], [ 19.2859593, 48.8125573 ], [ 19.286311393526059, 48.812212850670292 ], [ 19.28632969, 48.81219281 ], [ 19.28615876, 48.81212691 ], [ 19.28609792, 48.81205564 ], [ 19.286111546372677, 48.8120466403874 ], [ 19.2861103, 48.8120459 ], [ 19.286255889737607, 48.811951308020092 ], [ 19.28627663, 48.81193761 ], [ 19.286298636523934, 48.811923534749667 ], [ 19.28646893111366, 48.8118128916324 ], [ 19.28650915, 48.81171504 ], [ 19.2865485, 48.8116576 ], [ 19.28674079, 48.81149802 ], [ 19.286741231797112, 48.81149818033078 ], [ 19.286753, 48.8114884 ], [ 19.2869036, 48.8115431 ], [ 19.287039708508335, 48.811683973795276 ], [ 19.28712075, 48.81160974 ], [ 19.28736566, 48.81141977 ], [ 19.28769639, 48.81114817 ], [ 19.28796188, 48.81092239 ], [ 19.28806097, 48.81084933 ], [ 19.28814169, 48.81078936 ], [ 19.28817815, 48.81072465 ], [ 19.28833561, 48.81058748 ], [ 19.28840311, 48.81053472 ], [ 19.28837724, 48.81038497 ], [ 19.28850743, 48.81027976 ], [ 19.28863286, 48.81019921 ], [ 19.28878748, 48.81010031 ], [ 19.288830187838439, 48.81007113866162 ], [ 19.289051953033375, 48.80991801113484 ], [ 19.289092104580345, 48.809876048410111 ], [ 19.289173274675871, 48.809784554208051 ], [ 19.28926974, 48.80967204 ], [ 19.28928163, 48.80957865 ], [ 19.28932744, 48.8094263 ], [ 19.28935474, 48.80933563 ], [ 19.28950788, 48.8091556 ], [ 19.28952194, 48.80913572 ], [ 19.28964959, 48.80895537 ], [ 19.28977159, 48.80883651 ], [ 19.28990818, 48.80871645 ], [ 19.28997612, 48.80856642 ], [ 19.29015829, 48.80841916 ], [ 19.29028634, 48.80820402 ], [ 19.29025949, 48.80802952 ], [ 19.29012061, 48.80801629 ], [ 19.29000536, 48.8077729 ], [ 19.28973315, 48.80768339 ], [ 19.28976807, 48.80758038 ], [ 19.289808439041302, 48.807579188000751 ], [ 19.289918675689673, 48.807414611464665 ], [ 19.28995258, 48.80735587 ], [ 19.289957764364853, 48.807356254476709 ], [ 19.2899647, 48.8073459 ], [ 19.290146497236698, 48.807359906242077 ], [ 19.29017235, 48.80721049 ], [ 19.29022674, 48.8070508 ], [ 19.290236776589762, 48.807048986364777 ], [ 19.2902388, 48.8070411 ], [ 19.290434564959149, 48.807005599062805 ], [ 19.29030296, 48.80671343 ], [ 19.290317642671106, 48.806708628963385 ], [ 19.2903152, 48.8067032 ], [ 19.2904347, 48.8066471 ], [ 19.290536755577271, 48.806829851330001 ], [ 19.29060473, 48.80692662 ], [ 19.29069717, 48.80707685 ], [ 19.290749820533382, 48.807211387598244 ], [ 19.2907981071595, 48.807297854652568 ], [ 19.290846104169393, 48.80718223482377 ], [ 19.290861499685796, 48.80713847144947 ], [ 19.29086413, 48.80710667 ], [ 19.29082982, 48.80700133 ], [ 19.290806963927562, 48.806915829359973 ], [ 19.290739717828608, 48.806740701598898 ], [ 19.29070075, 48.80667992 ], [ 19.29060607, 48.8065973 ], [ 19.29051612, 48.80643673 ], [ 19.29025249, 48.8062443 ], [ 19.29003392, 48.80611517 ], [ 19.28978841, 48.80591559 ], [ 19.28969842, 48.80584248 ], [ 19.289713402351463, 48.805834466579071 ], [ 19.2897107, 48.8058325 ], [ 19.289751558716937, 48.805811031860593 ], [ 19.28977085, 48.80552098 ], [ 19.28957848, 48.8055784 ], [ 19.289593, 48.80541012 ], [ 19.28967732, 48.80485096 ], [ 19.28957389, 48.80455846 ], [ 19.28957264, 48.80455488 ], [ 19.28955588, 48.80450737 ], [ 19.2895166, 48.80439639 ], [ 19.28950577, 48.80436575 ], [ 19.289520243725335, 48.80436252935062 ], [ 19.2895178, 48.8043556 ], [ 19.289702803165589, 48.804314540623963 ], [ 19.289707651852734, 48.804277858235352 ], [ 19.289643354468236, 48.803919757524469 ], [ 19.28959367, 48.80372057 ], [ 19.28968962, 48.80339867 ], [ 19.289699351733464, 48.803397688941509 ], [ 19.2897018, 48.8033895 ], [ 19.289797919721693, 48.803379697422152 ], [ 19.289849, 48.80318404 ], [ 19.28980037, 48.80268452 ], [ 19.289824371325089, 48.802620505711829 ], [ 19.289926345150629, 48.802158869356184 ], [ 19.28994478, 48.8020305 ], [ 19.289954635257551, 48.802030799807056 ], [ 19.2899568, 48.802021 ], [ 19.2900263738216, 48.802023463541914 ], [ 19.290002188843761, 48.801630001366505 ], [ 19.289987483482122, 48.801471353368157 ], [ 19.28993758, 48.80125561 ], [ 19.289938136800615, 48.800938979364815 ], [ 19.289937698358571, 48.800934249256528 ], [ 19.28990337, 48.800708 ], [ 19.28993381, 48.80047926 ], [ 19.28991495, 48.80022949 ], [ 19.28999038, 48.79985323 ], [ 19.29004245, 48.79965492 ], [ 19.29010737, 48.79937309 ], [ 19.29025589, 48.79911061 ], [ 19.290286337692681, 48.799083810629291 ], [ 19.290702376314044, 48.798691555939513 ], [ 19.29071762, 48.79867548 ], [ 19.29081074, 48.79851106 ], [ 19.290580432334963, 48.798592586397859 ], [ 19.289983402994782, 48.798818007072427 ], [ 19.28992099, 48.7988466 ], [ 19.29008739, 48.79851193 ], [ 19.29026568, 48.79831759 ], [ 19.2903328, 48.79799205 ], [ 19.29035318, 48.79789348 ], [ 19.290363867058524, 48.797890188169362 ], [ 19.2903651, 48.7978842 ], [ 19.2910881793442, 48.797661327682384 ], [ 19.291103284644674, 48.797555469148698 ], [ 19.291132382766694, 48.796807461320149 ], [ 19.29112189, 48.79678274 ], [ 19.28996756, 48.79670642 ], [ 19.289657829621831, 48.796642008216452 ], [ 19.289236140638092, 48.796570202068068 ], [ 19.2891101, 48.79656028 ], [ 19.28876539, 48.79666684 ], [ 19.28849362, 48.79673046 ], [ 19.2881759, 48.79672785 ], [ 19.28747255, 48.79673201 ], [ 19.28719648, 48.79641851 ], [ 19.28714239, 48.79643747 ], [ 19.28693883, 48.79650895 ], [ 19.28673332, 48.7963918 ], [ 19.28611556, 48.79620077 ], [ 19.28531934, 48.79607512 ], [ 19.28491792, 48.79595849 ], [ 19.28358906, 48.79561883 ], [ 19.28296974, 48.79544214 ], [ 19.28183979, 48.79495691 ], [ 19.28054985, 48.79432936 ], [ 19.28021886, 48.79428246 ], [ 19.27977844, 48.79410505 ], [ 19.2779564, 48.7938264 ], [ 19.27725742, 48.79377498 ], [ 19.27597812, 48.79391352 ], [ 19.2747123, 48.79403123 ], [ 19.2739744, 48.7940643 ], [ 19.27334761, 48.79401795 ], [ 19.2729467, 48.79394791 ], [ 19.27223702, 48.7938239 ], [ 19.27216431, 48.79381121 ], [ 19.27197377, 48.79377788 ], [ 19.27148531, 48.79347433 ], [ 19.27145874, 48.79345781 ], [ 19.27104896, 48.79320322 ], [ 19.27040363, 48.79297832 ], [ 19.26958497, 48.79262967 ], [ 19.26878399, 48.79226923 ], [ 19.26832298, 48.79202523 ], [ 19.26770222, 48.79212251 ], [ 19.26747577, 48.79209313 ], [ 19.267339322380217, 48.791963350872912 ], [ 19.267285510109787, 48.79191994357074 ], [ 19.26702115, 48.79172563 ], [ 19.2671055, 48.79158559 ], [ 19.26671617, 48.79148877 ], [ 19.26632149, 48.79124615 ], [ 19.266075060870307, 48.791053909850824 ], [ 19.26571424118152, 48.790818559350143 ], [ 19.26560179, 48.79075047 ], [ 19.26549816, 48.79068777 ], [ 19.26542601, 48.79064399 ], [ 19.26535028, 48.79059815 ], [ 19.26554037, 48.78995085 ], [ 19.26564637, 48.78967012 ], [ 19.26571905, 48.78955549 ], [ 19.26560718, 48.7894933 ], [ 19.2654396, 48.78958983 ], [ 19.265027065425123, 48.78947914160652 ], [ 19.264706268811103, 48.78940287106073 ], [ 19.26463107, 48.78939762 ], [ 19.26459316, 48.78925873 ], [ 19.26412624, 48.78908116 ], [ 19.2640199, 48.78877207 ], [ 19.2638725, 48.78834397 ], [ 19.26313125, 48.78803686 ], [ 19.26274595, 48.7879669 ], [ 19.26277465, 48.78779335 ], [ 19.26225001, 48.78767521 ], [ 19.2619241, 48.78749991 ], [ 19.26148026, 48.78716897 ], [ 19.26108119, 48.78687139 ], [ 19.26084284, 48.78687343 ], [ 19.26078409, 48.78682461 ], [ 19.26075316, 48.78656072 ], [ 19.26057872, 48.78655863 ], [ 19.26002587, 48.78636247 ], [ 19.26026647, 48.78502781 ], [ 19.26008843, 48.78457486 ], [ 19.26003482, 48.78443864 ], [ 19.25927639, 48.7843498 ], [ 19.25793732, 48.78431681 ], [ 19.25703613, 48.78419483 ], [ 19.25590561, 48.78387106 ], [ 19.25530105, 48.78379511 ], [ 19.25435742, 48.7836807 ], [ 19.254227, 48.78372734 ], [ 19.25383535, 48.78377455 ], [ 19.25353684, 48.7834752 ], [ 19.25333422, 48.783506 ], [ 19.25334813, 48.78334301 ], [ 19.25299468, 48.78327664 ], [ 19.25293746, 48.78326594 ], [ 19.25287864, 48.7832549 ], [ 19.2528645, 48.78325196 ], [ 19.25275713, 48.78322965 ], [ 19.25265481, 48.78320848 ], [ 19.25257344, 48.78319157 ], [ 19.252627263287842, 48.783055269999473 ], [ 19.252757313600565, 48.782659700298282 ], [ 19.25277278, 48.78258531 ], [ 19.25220964, 48.78266815 ], [ 19.2522965, 48.78222779 ], [ 19.25224844, 48.78213169 ], [ 19.252210052540089, 48.781711472989898 ], [ 19.252184479119759, 48.781579712053201 ], [ 19.25212165, 48.781328 ], [ 19.25146909, 48.7815287 ], [ 19.2512671, 48.7815415 ], [ 19.25115754, 48.78145866 ], [ 19.25092559, 48.78143394 ], [ 19.25020941, 48.78145708 ], [ 19.25018599, 48.78139733 ], [ 19.24969519, 48.78128257 ], [ 19.24960225, 48.78114823 ], [ 19.24944775, 48.78112635 ], [ 19.249269780595451, 48.780782362791669 ], [ 19.249236989006096, 48.780724562782133 ], [ 19.24921144, 48.78069419 ], [ 19.24918504, 48.78066271 ], [ 19.24912496, 48.78068903 ], [ 19.24897643, 48.78072063 ], [ 19.248958409561482, 48.780723982241291 ], [ 19.248800818259721, 48.780763454663642 ], [ 19.24875551, 48.7807812 ], [ 19.24865276, 48.78086028 ], [ 19.24856878, 48.78088553 ], [ 19.248383315110527, 48.780983062045543 ], [ 19.2483065, 48.7811721 ], [ 19.248328400773833, 48.781228928305914 ], [ 19.24835008, 48.78125928 ], [ 19.24837957, 48.78130101 ], [ 19.248381584608833, 48.781366930153169 ], [ 19.2483951, 48.781402 ], [ 19.248382932367903, 48.781411030269645 ], [ 19.24838294, 48.78141128 ], [ 19.24832603, 48.78148049 ], [ 19.24824978, 48.78153082 ], [ 19.248195439131916, 48.781550179322153 ], [ 19.248060723762777, 48.781650159014085 ], [ 19.24799436, 48.7817257 ], [ 19.247890517930127, 48.781776478132848 ], [ 19.2475283, 48.7820453 ], [ 19.247522215174019, 48.782048435880789 ], [ 19.24751631, 48.78205456 ], [ 19.24738955, 48.78212247 ], [ 19.247313738733293, 48.782155876466099 ], [ 19.247128303479354, 48.782251442526949 ], [ 19.247106077864718, 48.782265587874704 ], [ 19.2470777, 48.7823131 ], [ 19.247098596448414, 48.782352059841138 ], [ 19.24712195, 48.78237312 ], [ 19.24716035, 48.78244044 ], [ 19.247161790781568, 48.782469880876135 ], [ 19.2471758, 48.782496 ], [ 19.247163496041672, 48.782504726096761 ], [ 19.24716353, 48.78250542 ], [ 19.24708762, 48.78255893 ], [ 19.246917954632849, 48.782578108301621 ], [ 19.246574902077928, 48.782631323459597 ], [ 19.2464056, 48.78266287 ], [ 19.24634151725439, 48.782674816504851 ], [ 19.246401, 48.7830537 ], [ 19.2462124, 48.7832407 ], [ 19.246203696453506, 48.78324659397537 ], [ 19.2462001, 48.78325015 ], [ 19.245626584363073, 48.783638750495101 ], [ 19.245555463463596, 48.783717515229569 ], [ 19.24549502, 48.78378815 ], [ 19.245469108552928, 48.783813151275496 ], [ 19.245092022686023, 48.784230765062674 ], [ 19.24503049, 48.78430647 ], [ 19.24499525, 48.7843549 ], [ 19.244892187442058, 48.784452077926318 ], [ 19.2448807, 48.7844648 ], [ 19.2447121, 48.7847316 ], [ 19.2446006, 48.7850283 ], [ 19.2438332, 48.7863236 ], [ 19.2434305, 48.7871428 ], [ 19.2429698, 48.7875882 ], [ 19.243025854763001, 48.787884110993851 ], [ 19.24304733, 48.78795632 ], [ 19.24305088, 48.78798706 ], [ 19.243060424686121, 48.788066604322864 ], [ 19.2431433, 48.7885041 ], [ 19.2431494, 48.7886688 ], [ 19.243136839729988, 48.788668404683925 ], [ 19.24313718, 48.78867826 ], [ 19.243080865790219, 48.788676411117699 ], [ 19.2432223, 48.7896924 ], [ 19.243208463433316, 48.789693490018919 ], [ 19.24321043, 48.78970192 ], [ 19.24310395302658, 48.789710447653334 ], [ 19.2431914, 48.7898296 ], [ 19.2431133, 48.7899859 ], [ 19.2431228, 48.7903808 ], [ 19.2429031, 48.7907581 ], [ 19.242895718709576, 48.79075957649475 ], [ 19.24289137, 48.79076704 ], [ 19.2403957, 48.79126707 ], [ 19.239151038201733, 48.792115540134667 ], [ 19.2393456, 48.7922385 ], [ 19.2387801, 48.7927126 ], [ 19.2387005, 48.792914 ], [ 19.2382422, 48.7933371 ], [ 19.238241145183189, 48.793336700197429 ], [ 19.23823004, 48.79334696 ], [ 19.23799048134498, 48.793255709453796 ], [ 19.237018, 48.7943192 ], [ 19.23701474370154, 48.794318576181922 ], [ 19.2370059, 48.79432889 ], [ 19.23680158, 48.79428952 ], [ 19.23675081649662, 48.794318541474816 ], [ 19.2367947, 48.7946016 ], [ 19.2364212, 48.795191 ], [ 19.236207934008007, 48.795443726315895 ], [ 19.23591243, 48.79580108 ], [ 19.235812590672445, 48.795912219504977 ], [ 19.2357586, 48.7959762 ], [ 19.235749502535754, 48.795982448185931 ], [ 19.23574677, 48.79598549 ], [ 19.235733685765183, 48.795993311226525 ], [ 19.2351379, 48.7964025 ], [ 19.235136871560037, 48.796402889696516 ], [ 19.23512582, 48.79641199 ], [ 19.234123406924297, 48.796786911762872 ], [ 19.233523323868535, 48.797014295261938 ], [ 19.2327847927838, 48.797298801750998 ], [ 19.2326054, 48.7976449 ], [ 19.2321561, 48.7980761 ], [ 19.232149416190378, 48.798080288281781 ], [ 19.2321442, 48.79808529 ], [ 19.231909, 48.79826751 ], [ 19.23158443, 48.79843593 ], [ 19.2314753, 48.79834182 ], [ 19.23022905, 48.79835578 ], [ 19.22957607, 48.79847979 ], [ 19.22938486, 48.79858045 ], [ 19.2292286, 48.79855557 ], [ 19.22846016, 48.79890203 ], [ 19.228438433414333, 48.798897673662367 ], [ 19.228244184692191, 48.798930789682629 ], [ 19.22817624, 48.79895004 ], [ 19.22782409, 48.79909007 ], [ 19.22760534, 48.79917063 ], [ 19.227180448803818, 48.799311628996584 ], [ 19.226260862678394, 48.799650404320744 ], [ 19.22619725, 48.79967924 ], [ 19.225854986135076, 48.79974257351558 ], [ 19.225781208967327, 48.799757810104573 ], [ 19.22558336, 48.79980991 ], [ 19.2254152, 48.79984062 ], [ 19.2248061, 48.80014807 ], [ 19.224737894772765, 48.800159861169114 ], [ 19.224434706584358, 48.800240886691455 ], [ 19.22431557, 48.8002803 ], [ 19.223993195650106, 48.800358878273691 ], [ 19.223800991376262, 48.800410243901645 ], [ 19.22361714, 48.80047269 ], [ 19.22338286, 48.80053689 ], [ 19.22319779, 48.80058581 ], [ 19.22289227, 48.80065973 ], [ 19.222473548597986, 48.800911544710587 ], [ 19.2211705, 48.8036124 ], [ 19.220638, 48.80414 ], [ 19.220634624912741, 48.8041415203055 ], [ 19.22062596, 48.80415011 ], [ 19.219891241557026, 48.804480516976689 ], [ 19.219820012105863, 48.804791223102157 ], [ 19.21972967, 48.80524841 ], [ 19.21967582, 48.80544418 ], [ 19.219643046209221, 48.805563156441337 ], [ 19.2195951, 48.8057723 ], [ 19.2191209, 48.8064223 ], [ 19.2186345, 48.8069308 ], [ 19.218529387022059, 48.80714371163387 ], [ 19.21815698, 48.80796101 ], [ 19.218027360228181, 48.80816059220394 ], [ 19.2176443, 48.8089365 ], [ 19.2169758, 48.8098349 ], [ 19.2168039, 48.8103767 ], [ 19.2163965, 48.8108371 ], [ 19.2162379, 48.8118158 ], [ 19.2162708, 48.8123358 ], [ 19.2160963, 48.8127445 ], [ 19.216086407117388, 48.812748947198003 ], [ 19.21608399, 48.8127546 ], [ 19.215352615221427, 48.81308337510837 ], [ 19.2150508, 48.814088 ], [ 19.2147464, 48.8144552 ], [ 19.214692619114722, 48.814498243649318 ], [ 19.21428001, 48.81482895 ], [ 19.21376986, 48.81494936 ], [ 19.21327062, 48.81525507 ], [ 19.21301227, 48.81541331 ], [ 19.212854167189278, 48.815510130099405 ], [ 19.2125246, 48.8160607 ], [ 19.212154659936509, 48.816430937490779 ], [ 19.21213629, 48.81645584 ], [ 19.21203622, 48.81655251 ], [ 19.211948901993047, 48.816636860861117 ], [ 19.2119027, 48.8166831 ], [ 19.2115192, 48.8171626 ], [ 19.21151098326537, 48.817167070086406 ], [ 19.21150689, 48.81717218 ], [ 19.211192680524189, 48.817343573168067 ], [ 19.210912, 48.8178287 ], [ 19.210902795997676, 48.817833030877345 ], [ 19.2108999, 48.81783803 ], [ 19.210519834254786, 48.818016974809339 ], [ 19.2104338, 48.8181504 ], [ 19.2104703, 48.8184226 ], [ 19.210444135694463, 48.818465546515512 ], [ 19.21039624, 48.81858248 ], [ 19.21025452044594, 48.818776784060127 ], [ 19.2102274, 48.8188213 ], [ 19.2100489, 48.8193096 ], [ 19.2097831, 48.8197296 ], [ 19.2096703, 48.8201739 ], [ 19.2098248, 48.820569 ], [ 19.2100668, 48.8209178 ], [ 19.210360027333135, 48.821495979084418 ], [ 19.21043402, 48.82163355 ], [ 19.2104531630991, 48.821679622100632 ], [ 19.2105416, 48.821854 ], [ 19.2104406, 48.8222244 ], [ 19.2104714, 48.8225483 ], [ 19.2107032, 48.8230102 ], [ 19.2109061, 48.8231668 ], [ 19.2109666, 48.8233433 ], [ 19.2109659, 48.8236803 ], [ 19.211122, 48.8240193 ], [ 19.2110314, 48.8242256 ], [ 19.210997991921619, 48.824895957623113 ], [ 19.21098769, 48.82521861 ], [ 19.210974509959339, 48.825367140438246 ], [ 19.2109599, 48.8256603 ], [ 19.2112267, 48.8261367 ], [ 19.2116792, 48.8265283 ], [ 19.2127764, 48.8276941 ], [ 19.2146635, 48.8287607 ], [ 19.2162103, 48.8292798 ], [ 19.2164578, 48.8292389 ], [ 19.216666, 48.8292738 ], [ 19.2167986, 48.8295743 ], [ 19.2172929, 48.8299094 ], [ 19.2182087, 48.8311768 ], [ 19.2187734, 48.8329953 ], [ 19.2190366, 48.8328075 ], [ 19.2192142, 48.8327675 ], [ 19.219512783120379, 48.832783633007324 ], [ 19.21953672, 48.83278411 ], [ 19.21957583786471, 48.832787039973702 ], [ 19.2200674, 48.8328136 ], [ 19.2202295, 48.8332248 ], [ 19.22007, 48.8340445 ], [ 19.2206013, 48.83499 ], [ 19.2206644, 48.8352748 ], [ 19.2206543, 48.8361412 ], [ 19.2208618, 48.8367195 ], [ 19.2211424, 48.8375015 ], [ 19.2213959, 48.8379692 ], [ 19.2214636, 48.839883 ], [ 19.2212219, 48.8406918 ], [ 19.2209681, 48.8409658 ], [ 19.220956970344581, 48.840973922597762 ], [ 19.22095587, 48.84097511 ], [ 19.220371048815945, 48.841401624365844 ], [ 19.2202052, 48.8418046 ], [ 19.220174, 48.8421043 ], [ 19.2218266, 48.8434263 ], [ 19.2223791, 48.8440506 ], [ 19.2229452, 48.8449458 ], [ 19.2230543, 48.8455317 ], [ 19.223040620191661, 48.845533386551715 ], [ 19.223042, 48.84554079 ], [ 19.22297873330022, 48.845549453880217 ], [ 19.2211434, 48.8473452 ], [ 19.2203052, 48.8497987 ], [ 19.2198534, 48.8506527 ], [ 19.2193573, 48.8511572 ], [ 19.219347607412931, 48.851164163019085 ], [ 19.21934522, 48.85116659 ], [ 19.218876227049979, 48.851503795131173 ], [ 19.2188485, 48.8516252 ], [ 19.2200782, 48.851713 ], [ 19.2234043, 48.8519518 ], [ 19.225729, 48.8525503 ], [ 19.2265629, 48.8529504 ], [ 19.2273389, 48.8535943 ], [ 19.2293408, 48.8545535 ], [ 19.230987, 48.8551426 ], [ 19.2324195, 48.8557776 ], [ 19.234521, 48.8569444 ], [ 19.2353303, 48.8572417 ], [ 19.2357762, 48.8575011 ], [ 19.236300304187708, 48.857689457676472 ], [ 19.23659951, 48.85778907 ], [ 19.236795980527823, 48.85786759867571 ], [ 19.2371527, 48.8579958 ], [ 19.2377944, 48.8585488 ], [ 19.238318957071247, 48.858790923497097 ], [ 19.23892718, 48.85905436 ], [ 19.239350976522726, 48.85926727997451 ], [ 19.2409852, 48.8600216 ], [ 19.2420336, 48.8602999 ], [ 19.2431436, 48.8606589 ], [ 19.2435706, 48.8609083 ], [ 19.2446032, 48.8609322 ], [ 19.245309885104685, 48.86059915311121 ], [ 19.24622171, 48.85940938 ] ] ] } }
]
}
