{
"type": "FeatureCollection",
"name": "gis",
"crs": { "type": "name", "properties": { "name": "urn:ogc:def:crs:OGC:1.3:CRS84" } },
"features": [
{ "type": "Feature", "properties": { "@featureType": "CadastralZoning", "beginLifespanVersion": { "@nilReason": "http://inspire.ec.europa.eu/codelist/VoidReasonValue/Unpopulated", "@nil": "true" }, "endLifespanVersion": { "@nilReason": "http://inspire.ec.europa.eu/codelist/VoidReasonValue/Unpopulated", "@nil": "true" }, "estimatedAccuracy": { "value": -1, "@uom": "m" }, "inspireId": { "@dataType": "Identifier", "localId": "802506", "namespace": "SK.ESKN.CP", "versionId": "20260703T04:07:40" }, "label": "Beluša", "level": { "@href": "http://inspire.ec.europa.eu/codelist/CadastralZoningLevelValue/3rdOrder" }, "levelName": { "value": "Katastrálne územie", "@locale": "sk" }, "name": { "@dataType": "name", "GeographicalName": { "@dataType": "GeographicalName", "language": "SLK", "nativeness": { "@href": "http://inspire.ec.europa.eu/codelist/NativenessValue/endonym", "@title": "endonym" }, "nameStatus": { "@href": "http://inspire.ec.europa.eu/codelist/NameStatusValue/official", "@title": "official" }, "sourceOfName": { "@nilReason": "http://inspire.ec.europa.eu/codelist/VoidReasonValue/Unpopulated", "@nil": "true" }, "pronunciation": { "@dataType": "pronunciation", "@nilReason": "http://inspire.ec.europa.eu/codelist/VoidReasonValue/Unpopulated", "@nil": "true" }, "spelling": { "@dataType": "SpellingOfName", "text": "Beluša", "script": "LATN" } } }, "nationalCadastalZoningReference": "802506", "validFrom": "2026-06-30T16:00:00Z", "validTo": { "@nilReason": "http://inspire.ec.europa.eu/codelist/VoidReasonValue/Unpopulated", "@nil": "true" } }, "geometry": { "type": "MultiPolygon", "coordinates": [ [ [ [ 18.38275195, 49.10320881 ], [ 18.38273278, 49.10260381 ], [ 18.38272302, 49.10202505 ], [ 18.3827238, 49.10187799 ], [ 18.38320544, 49.10189488 ], [ 18.38388527, 49.10195552 ], [ 18.38417305, 49.10192907 ], [ 18.38451226, 49.10178923 ], [ 18.38493969, 49.10191546 ], [ 18.38540134, 49.10202996 ], [ 18.38621282, 49.10214969 ], [ 18.38651929, 49.10218094 ], [ 18.38687085, 49.10227408 ], [ 18.38815427, 49.10215906 ], [ 18.38894214, 49.10203804 ], [ 18.38940729, 49.10188278 ], [ 18.38969827, 49.10169775 ], [ 18.39017477, 49.10153004 ], [ 18.39073309, 49.1014785 ], [ 18.39096371, 49.10132143 ], [ 18.39120619, 49.10119715 ], [ 18.39168296, 49.10102187 ], [ 18.3920306, 49.10075415 ], [ 18.39278208, 49.10037163 ], [ 18.39338838, 49.09989198 ], [ 18.39350905, 49.09979362 ], [ 18.3939699, 49.099418 ], [ 18.39401234, 49.09914221 ], [ 18.39420965, 49.0990249 ], [ 18.39436378, 49.09898696 ], [ 18.39464195, 49.09904578 ], [ 18.39500939, 49.09895964 ], [ 18.3953962, 49.09904793 ], [ 18.39555619, 49.09902106 ], [ 18.39568305, 49.09909595 ], [ 18.39605421, 49.09914664 ], [ 18.39656878, 49.09910267 ], [ 18.39676206, 49.09885942 ], [ 18.39674207, 49.09865977 ], [ 18.3965785, 49.0983335 ], [ 18.3964199, 49.09812698 ], [ 18.39646932, 49.09812205 ], [ 18.39603207, 49.09726974 ], [ 18.39587923, 49.09708583 ], [ 18.3955651, 49.09696998 ], [ 18.39530835, 49.09651436 ], [ 18.39526012, 49.0961869 ], [ 18.39514569, 49.09589655 ], [ 18.3950797, 49.09556828 ], [ 18.39534449, 49.09537809 ], [ 18.39542787, 49.09520718 ], [ 18.39569556, 49.09500821 ], [ 18.39580874, 49.09483958 ], [ 18.39587234, 49.09454231 ], [ 18.3959341, 49.09409459 ], [ 18.39586034, 49.09408257 ], [ 18.39577875, 49.09406081 ], [ 18.39554846, 49.09401566 ], [ 18.39465555, 49.09389003 ], [ 18.39462387, 49.09378251 ], [ 18.39358449, 49.09371239 ], [ 18.39360165, 49.09355631 ], [ 18.39343656, 49.09352352 ], [ 18.39215811, 49.09324773 ], [ 18.39147791, 49.09291168 ], [ 18.39002243, 49.0929347 ], [ 18.38915274, 49.09289695 ], [ 18.389071, 49.09294052 ], [ 18.38898632, 49.09298564 ], [ 18.38873037, 49.09312198 ], [ 18.38526892, 49.09120926 ], [ 18.38430755, 49.09082796 ], [ 18.38404986, 49.09073208 ], [ 18.38343006, 49.09044102 ], [ 18.38317671, 49.09032209 ], [ 18.38281284, 49.09015119 ], [ 18.38241907, 49.08992014 ], [ 18.38065692, 49.08888644 ], [ 18.37915944, 49.08849988 ], [ 18.37857095, 49.0883246 ], [ 18.37777619, 49.08810781 ], [ 18.37716392, 49.08748556 ], [ 18.37562354, 49.08639145 ], [ 18.37483827, 49.08583367 ], [ 18.37466788, 49.08565236 ], [ 18.37317911, 49.08452967 ], [ 18.37289204, 49.08432636 ], [ 18.3718091, 49.08382185 ], [ 18.37133979, 49.08358168 ], [ 18.37129384, 49.08361514 ], [ 18.37126417, 49.08364173 ], [ 18.37096234, 49.08336756 ], [ 18.37017318, 49.08245908 ], [ 18.37005101, 49.0823346 ], [ 18.36974321, 49.08224537 ], [ 18.36948231, 49.08214088 ], [ 18.36916589, 49.08203113 ], [ 18.36869923, 49.08167793 ], [ 18.36815364, 49.0816769 ], [ 18.36803273, 49.08150005 ], [ 18.36784001, 49.08147209 ], [ 18.36770457, 49.08133333 ], [ 18.36660022, 49.08035115 ], [ 18.36540364, 49.08040061 ], [ 18.3649679, 49.08041723 ], [ 18.36492668, 49.08042893 ], [ 18.36430089, 49.08060663 ], [ 18.36416189, 49.08044555 ], [ 18.36283822, 49.07992755 ], [ 18.36099514, 49.07859514 ], [ 18.3601872, 49.07824274 ], [ 18.35928459, 49.07794904 ], [ 18.35742247, 49.07700252 ], [ 18.35523377, 49.07565373 ], [ 18.35253543, 49.07435986 ], [ 18.35029951, 49.07331013 ], [ 18.35118678, 49.07263646 ], [ 18.35155778, 49.07223822 ], [ 18.35171328, 49.07187055 ], [ 18.35142872, 49.07158094 ], [ 18.35191535, 49.07059188 ], [ 18.35228453, 49.07025752 ], [ 18.35244868, 49.06991741 ], [ 18.35297494, 49.06937503 ], [ 18.35317989, 49.06905714 ], [ 18.35201296, 49.06909267 ], [ 18.35123697, 49.06907708 ], [ 18.35005495, 49.06907203 ], [ 18.34954779, 49.06904779 ], [ 18.3491694, 49.06900501 ], [ 18.34821727, 49.06887191 ], [ 18.34707684, 49.06879173 ], [ 18.3458059, 49.06874361 ], [ 18.34529111, 49.06879645 ], [ 18.34442137, 49.06899697 ], [ 18.34408979, 49.06905426 ], [ 18.34373261, 49.06910335 ], [ 18.34343683, 49.06914405 ], [ 18.34340872, 49.06910755 ], [ 18.34336559, 49.06905136 ], [ 18.34334465, 49.06902419 ], [ 18.34335479, 49.06894904 ], [ 18.34340452, 49.06882158 ], [ 18.34375092, 49.06793436 ], [ 18.34377024, 49.06788481 ], [ 18.34419448, 49.06679823 ], [ 18.3442697, 49.06660541 ], [ 18.34431721, 49.06657152 ], [ 18.34433917, 49.06655577 ], [ 18.34437501, 49.06653034 ], [ 18.3444445, 49.06648052 ], [ 18.34605885, 49.06593865 ], [ 18.34821253, 49.0652237 ], [ 18.35075565, 49.0644015 ], [ 18.35105508, 49.06430467 ], [ 18.35251424, 49.06431968 ], [ 18.35253201, 49.06426932 ], [ 18.35253393, 49.06426401 ], [ 18.3529395, 49.06311501 ], [ 18.35295233, 49.06307845 ], [ 18.3529705, 49.06302712 ], [ 18.3529885, 49.06297605 ], [ 18.35301042, 49.06291373 ], [ 18.35303097, 49.06285568 ], [ 18.35303669, 49.06282522 ], [ 18.35304699, 49.06277101 ], [ 18.35306771, 49.0626617 ], [ 18.35307812, 49.0626066 ], [ 18.35309001, 49.06254327 ], [ 18.35310979, 49.06243906 ], [ 18.35313119, 49.06232554 ], [ 18.35331355, 49.06136156 ], [ 18.35482489, 49.06073371 ], [ 18.35685999, 49.05983778 ], [ 18.35782293, 49.05968706 ], [ 18.35837684, 49.05953456 ], [ 18.35986183, 49.05910563 ], [ 18.36012765, 49.05896025 ], [ 18.36047843, 49.05872909 ], [ 18.36150251, 49.05836497 ], [ 18.3626801, 49.05793278 ], [ 18.36362824, 49.05761531 ], [ 18.36431573, 49.05691971 ], [ 18.36453733, 49.05678369 ], [ 18.36480976, 49.05670293 ], [ 18.36582405, 49.05518079 ], [ 18.36620827, 49.05468227 ], [ 18.36623369, 49.05464912 ], [ 18.36704764, 49.05359297 ], [ 18.36723305, 49.05410191 ], [ 18.36744885, 49.05430056 ], [ 18.36904313, 49.05477134 ], [ 18.36927192, 49.05471259 ], [ 18.36934862, 49.05465865 ], [ 18.3695097, 49.05413326 ], [ 18.36953097, 49.05408968 ], [ 18.36960067, 49.05402082 ], [ 18.36969233, 49.05396808 ], [ 18.36984525, 49.05395781 ], [ 18.37019447, 49.05407697 ], [ 18.37028581, 49.0540576 ], [ 18.37039429, 49.05401066 ], [ 18.37046751, 49.05395292 ], [ 18.37051295, 49.05388045 ], [ 18.37052783, 49.05379482 ], [ 18.37059103, 49.05350142 ], [ 18.37059098, 49.05342191 ], [ 18.37067983, 49.05335358 ], [ 18.37085217, 49.05320749 ], [ 18.37101948, 49.05306735 ], [ 18.37107566, 49.05303627 ], [ 18.37111062, 49.0529856 ], [ 18.37113123, 49.05286609 ], [ 18.37114973, 49.05276721 ], [ 18.37120943, 49.05267686 ], [ 18.37127741, 49.05258615 ], [ 18.37147001, 49.05241809 ], [ 18.37162856, 49.05230435 ], [ 18.37184597, 49.05217612 ], [ 18.37197884, 49.05213911 ], [ 18.3722608, 49.05204271 ], [ 18.37245933, 49.0519682 ], [ 18.37271661, 49.05185553 ], [ 18.37293553, 49.05175806 ], [ 18.37324311, 49.05162157 ], [ 18.37385311, 49.05141301 ], [ 18.3742991, 49.05116229 ], [ 18.37450167, 49.0510649 ], [ 18.3746682, 49.05094457 ], [ 18.37483615, 49.05079182 ], [ 18.37494397, 49.05064548 ], [ 18.37502617, 49.05053598 ], [ 18.3754183, 49.04993021 ], [ 18.37549875, 49.04991004 ], [ 18.37649207, 49.05005571 ], [ 18.37683832, 49.05022341 ], [ 18.37733652, 49.0504983 ], [ 18.37774931, 49.05079027 ], [ 18.37845051, 49.05128987 ], [ 18.38046906, 49.0517041 ], [ 18.38068765, 49.05174901 ], [ 18.38152134, 49.05184866 ], [ 18.38234793, 49.05182202 ], [ 18.38543254, 49.05204323 ], [ 18.38561985, 49.05215209 ], [ 18.38641038, 49.05199996 ], [ 18.38634713, 49.05171434 ], [ 18.38651692, 49.05115594 ], [ 18.3863453, 49.05103405 ], [ 18.3863598, 49.0507994 ], [ 18.38627812, 49.05053315 ], [ 18.38615368, 49.05030704 ], [ 18.38619659, 49.05013867 ], [ 18.3864509, 49.04992374 ], [ 18.3867152, 49.04981803 ], [ 18.38699874, 49.04970246 ], [ 18.3859691, 49.04900383 ], [ 18.38526719, 49.04852761 ], [ 18.38437031, 49.04791909 ], [ 18.38428671, 49.04786237 ], [ 18.38380586, 49.04746746 ], [ 18.38362454, 49.04731859 ], [ 18.38388232, 49.04698799 ], [ 18.38395483, 49.04689491 ], [ 18.38416197, 49.04662926 ], [ 18.38439806, 49.04632633 ], [ 18.38453202, 49.04615463 ], [ 18.38462787, 49.04603162 ], [ 18.3847035, 49.04593457 ], [ 18.38474323, 49.04585826 ], [ 18.38482313, 49.04570449 ], [ 18.38485726, 49.0456387 ], [ 18.3851272, 49.04535967 ], [ 18.38522631, 49.04525724 ], [ 18.3853216, 49.04515883 ], [ 18.38552401, 49.04491919 ], [ 18.38561402, 49.04481273 ], [ 18.3858535, 49.04452921 ], [ 18.38632937, 49.04396587 ], [ 18.38640126, 49.04388079 ], [ 18.38657501, 49.04372194 ], [ 18.38700981, 49.04332427 ], [ 18.38707719, 49.04323154 ], [ 18.38718977, 49.04307652 ], [ 18.38729403, 49.04293286 ], [ 18.38768382, 49.04272085 ], [ 18.38830887, 49.04214367 ], [ 18.38834206, 49.04181684 ], [ 18.38875655, 49.04115379 ], [ 18.38949216, 49.04000399 ], [ 18.38999157, 49.03938383 ], [ 18.39079443, 49.0385085 ], [ 18.39176938, 49.03739372 ], [ 18.39422051, 49.03636704 ], [ 18.39419248, 49.03626243 ], [ 18.3941767, 49.03620352 ], [ 18.39416063, 49.0361437 ], [ 18.39414078, 49.0360695 ], [ 18.39398208, 49.03547699 ], [ 18.39396769, 49.03542331 ], [ 18.3939482, 49.03535057 ], [ 18.39388322, 49.03510818 ], [ 18.39377605, 49.03470786 ], [ 18.3934624, 49.03344145 ], [ 18.39330229, 49.03282802 ], [ 18.39330253, 49.03279509 ], [ 18.39330697, 49.03208338 ], [ 18.39331236, 49.03124123 ], [ 18.39331322, 49.03110943 ], [ 18.39353109, 49.03064682 ], [ 18.39357278, 49.03055835 ], [ 18.39363446, 49.03042739 ], [ 18.39400426, 49.02994234 ], [ 18.39402886, 49.02990996 ], [ 18.39422539, 49.02920078 ], [ 18.3944837, 49.02901341 ], [ 18.39473931, 49.02882778 ], [ 18.39500489, 49.02863512 ], [ 18.39519223, 49.02849913 ], [ 18.39535471, 49.02835698 ], [ 18.39550835, 49.02822273 ], [ 18.39567468, 49.02807718 ], [ 18.39596236, 49.02782556 ], [ 18.39614043, 49.02766983 ], [ 18.3961729, 49.02764139 ], [ 18.39667446, 49.02724469 ], [ 18.39700327, 49.02698469 ], [ 18.39703901, 49.02695643 ], [ 18.39727436, 49.02677031 ], [ 18.39806211, 49.02618252 ], [ 18.39869144, 49.02566781 ], [ 18.3990795, 49.02541759 ], [ 18.39964094, 49.0250555 ], [ 18.39968088, 49.02502974 ], [ 18.4008208, 49.02429449 ], [ 18.40108564, 49.02403753 ], [ 18.40133271, 49.02366226 ], [ 18.40193848, 49.02297204 ], [ 18.40207678, 49.02265301 ], [ 18.40253839, 49.0222418 ], [ 18.40320237, 49.02148261 ], [ 18.40387049, 49.0210016 ], [ 18.40446932, 49.02069724 ], [ 18.4042271, 49.02019921 ], [ 18.40240274, 49.01932655 ], [ 18.4017957, 49.0181847 ], [ 18.40192194, 49.01552934 ], [ 18.40195535, 49.01482826 ], [ 18.40131085, 49.01332605 ], [ 18.40299686, 49.01182752 ], [ 18.40235405, 49.0108371 ], [ 18.40071969, 49.00937297 ], [ 18.39947009, 49.00891113 ], [ 18.39874287, 49.00854809 ], [ 18.3976701, 49.00801264 ], [ 18.39652234, 49.00773059 ], [ 18.39464267, 49.00785014 ], [ 18.39065453, 49.00838601 ], [ 18.38988946, 49.00770908 ], [ 18.3894307, 49.00806627 ], [ 18.3859165, 49.00870319 ], [ 18.38213046, 49.00875362 ], [ 18.38111953, 49.00898839 ], [ 18.38034305, 49.00916868 ], [ 18.37838787, 49.01009873 ], [ 18.3769572, 49.01087563 ], [ 18.37511674, 49.0115954 ], [ 18.37401823, 49.01228511 ], [ 18.37363032, 49.01249546 ], [ 18.37280293, 49.01308564 ], [ 18.37210454, 49.01358372 ], [ 18.37111603, 49.01390311 ], [ 18.37107396, 49.01393254 ], [ 18.37100692, 49.01398006 ], [ 18.37099131, 49.01399156 ], [ 18.36996489, 49.01459789 ], [ 18.36990596, 49.0146623 ], [ 18.36984797, 49.01471312 ], [ 18.36967412, 49.01507229 ], [ 18.36939534, 49.01564861 ], [ 18.3685842, 49.01709098 ], [ 18.36700513, 49.01549945 ], [ 18.36643253, 49.01518749 ], [ 18.3659202, 49.01494135 ], [ 18.36538236, 49.01474946 ], [ 18.36472566, 49.01470058 ], [ 18.36433212, 49.01471248 ], [ 18.36378053, 49.01492874 ], [ 18.36325623, 49.01508108 ], [ 18.36253279, 49.01537972 ], [ 18.36241366, 49.01587603 ], [ 18.36172823, 49.01621812 ], [ 18.36102503, 49.0164287 ], [ 18.36048099, 49.01655738 ], [ 18.36015746, 49.01663382 ], [ 18.35986321, 49.01670341 ], [ 18.35942491, 49.01666325 ], [ 18.35932292, 49.01673807 ], [ 18.35809216, 49.01700674 ], [ 18.35787947, 49.01675995 ], [ 18.35768209, 49.0168955 ], [ 18.35718516, 49.01717904 ], [ 18.35649418, 49.0172744 ], [ 18.35629971, 49.01730127 ], [ 18.35621332, 49.01730611 ], [ 18.35618706, 49.01730762 ], [ 18.35614752, 49.01730984 ], [ 18.35604399, 49.0173157 ], [ 18.35603846, 49.01731602 ], [ 18.3557976, 49.01771728 ], [ 18.35550838, 49.01829236 ], [ 18.35529852, 49.01869895 ], [ 18.35512519, 49.01894469 ], [ 18.35509745, 49.01897888 ], [ 18.3550731, 49.01901768 ], [ 18.35480893, 49.01929742 ], [ 18.35449788, 49.01974908 ], [ 18.35435754, 49.01999539 ], [ 18.35407287, 49.0205275 ], [ 18.35365242, 49.02126204 ], [ 18.3532757, 49.02179378 ], [ 18.35305803, 49.02204164 ], [ 18.35280721, 49.02230705 ], [ 18.3524502, 49.0227381 ], [ 18.35237016, 49.02300411 ], [ 18.35232665, 49.02319436 ], [ 18.35226252, 49.02353482 ], [ 18.35210097, 49.02379221 ], [ 18.35189205, 49.02408595 ], [ 18.35153033, 49.02449589 ], [ 18.35081933, 49.02482611 ], [ 18.35007837, 49.02514067 ], [ 18.35008705, 49.02515108 ], [ 18.34993026, 49.02520252 ], [ 18.34954231, 49.02530224 ], [ 18.34931846, 49.02547438 ], [ 18.34930943, 49.02548904 ], [ 18.34930371, 49.02549829 ], [ 18.34920251, 49.02566231 ], [ 18.34913222, 49.02588238 ], [ 18.34915211, 49.02613322 ], [ 18.34930805, 49.02635176 ], [ 18.34933929, 49.0264064 ], [ 18.34908692, 49.0267876 ], [ 18.34875668, 49.0272935 ], [ 18.34847436, 49.02770462 ], [ 18.34804233, 49.02798914 ], [ 18.34755892, 49.02828883 ], [ 18.34634417, 49.0283852 ], [ 18.34536752, 49.02845516 ], [ 18.3448514, 49.02869977 ], [ 18.34415651, 49.02912752 ], [ 18.34349757, 49.02939392 ], [ 18.34253667, 49.02942683 ], [ 18.34118907, 49.02966915 ], [ 18.33966407, 49.02973366 ], [ 18.33847614, 49.02963289 ], [ 18.33778793, 49.02946333 ], [ 18.33775228, 49.02945565 ], [ 18.33771242, 49.02955153 ], [ 18.33766467, 49.029666 ], [ 18.33738709, 49.03007573 ], [ 18.33722304, 49.03048207 ], [ 18.33716611, 49.03086363 ], [ 18.33716648, 49.0310484 ], [ 18.33714723, 49.03112818 ], [ 18.33707044, 49.03131955 ], [ 18.33706322, 49.03154929 ], [ 18.33705648, 49.03175929 ], [ 18.33727417, 49.03226515 ], [ 18.33684849, 49.0324786 ], [ 18.33699685, 49.0327703 ], [ 18.33726395, 49.03329535 ], [ 18.33727041, 49.03330798 ], [ 18.33692121, 49.03346497 ], [ 18.3369171, 49.03367909 ], [ 18.33690969, 49.03405972 ], [ 18.33712315, 49.03463222 ], [ 18.33723648, 49.03496455 ], [ 18.33719628, 49.03518396 ], [ 18.33724551, 49.03541866 ], [ 18.33750955, 49.03577549 ], [ 18.33752901, 49.03605997 ], [ 18.33709588, 49.03678663 ], [ 18.33628951, 49.03775593 ], [ 18.33612482, 49.03812668 ], [ 18.33549108, 49.03929968 ], [ 18.33523127, 49.04026708 ], [ 18.33568976, 49.04064481 ], [ 18.33547457, 49.04094423 ], [ 18.33547853, 49.04123281 ], [ 18.33505725, 49.04164794 ], [ 18.33475602, 49.04212296 ], [ 18.33464075, 49.04246389 ], [ 18.33440598, 49.04311473 ], [ 18.33444297, 49.04373755 ], [ 18.33329538, 49.0443095 ], [ 18.33157803, 49.04546596 ], [ 18.3316199, 49.04549358 ], [ 18.3318527, 49.04571654 ], [ 18.33153109, 49.04602633 ], [ 18.33026669, 49.04698611 ], [ 18.33045103, 49.0471412 ], [ 18.32963837, 49.04784 ], [ 18.32930282, 49.04818935 ], [ 18.32886766, 49.04871281 ], [ 18.32847528, 49.04897197 ], [ 18.32835484, 49.04939573 ], [ 18.32801065, 49.04966218 ], [ 18.32809244, 49.04993048 ], [ 18.32781636, 49.04997459 ], [ 18.32766044, 49.04999943 ], [ 18.32763674, 49.05000324 ], [ 18.32744849, 49.05018854 ], [ 18.32744484, 49.05044222 ], [ 18.32753389, 49.05061535 ], [ 18.32778831, 49.05087699 ], [ 18.3278283, 49.05091804 ], [ 18.32749151, 49.05112633 ], [ 18.3272365, 49.0513319 ], [ 18.32678887, 49.05165367 ], [ 18.3264458, 49.05191026 ], [ 18.32623413, 49.05206853 ], [ 18.32602361, 49.05216178 ], [ 18.3257392, 49.05222229 ], [ 18.32549113, 49.052225 ], [ 18.32541258, 49.05221554 ], [ 18.32536458, 49.05220978 ], [ 18.32504396, 49.05217891 ], [ 18.32453213, 49.05227351 ], [ 18.32447671, 49.05228791 ], [ 18.32411352, 49.052382 ], [ 18.32409135, 49.05238771 ], [ 18.32385888, 49.05244796 ], [ 18.32379184, 49.05251595 ], [ 18.32368262, 49.05258086 ], [ 18.32358409, 49.0526248 ], [ 18.32339928, 49.05273682 ], [ 18.32320806, 49.05285273 ], [ 18.32257358, 49.05320453 ], [ 18.32241388, 49.05327536 ], [ 18.32224718, 49.05329968 ], [ 18.32221509, 49.05330781 ], [ 18.32201972, 49.05335723 ], [ 18.3218198, 49.05347662 ], [ 18.32155897, 49.05353528 ], [ 18.32093513, 49.05346221 ], [ 18.32072922, 49.05341294 ], [ 18.32009219, 49.05315808 ], [ 18.31952708, 49.05303252 ], [ 18.31944073, 49.053008 ], [ 18.31928736, 49.05296447 ], [ 18.31928236, 49.05296284 ], [ 18.31902424, 49.05288103 ], [ 18.31876555, 49.0527889 ], [ 18.31844617, 49.05269671 ], [ 18.31817356, 49.05272654 ], [ 18.31803803, 49.05274132 ], [ 18.31720493, 49.05295262 ], [ 18.31625151, 49.05317566 ], [ 18.31600651, 49.05323294 ], [ 18.3157638, 49.05325984 ], [ 18.31561978, 49.05324905 ], [ 18.3151677, 49.05340978 ], [ 18.31490295, 49.05342561 ], [ 18.31474489, 49.05343515 ], [ 18.31423439, 49.0535213 ], [ 18.31416528, 49.05353321 ], [ 18.31387392, 49.05358364 ], [ 18.31380079, 49.05361375 ], [ 18.31376157, 49.05360279 ], [ 18.31368649, 49.05358458 ], [ 18.31366018, 49.05359683 ], [ 18.31356164, 49.05364283 ], [ 18.31355581, 49.05364647 ], [ 18.31332228, 49.05359744 ], [ 18.31327797, 49.05356752 ], [ 18.31294938, 49.05364979 ], [ 18.3126342, 49.05370593 ], [ 18.3124241, 49.05377987 ], [ 18.31227673, 49.0538318 ], [ 18.31227167, 49.05383377 ], [ 18.31225085, 49.0538418 ], [ 18.31200809, 49.05393873 ], [ 18.31103463, 49.05434726 ], [ 18.31090623, 49.05439582 ], [ 18.31084984, 49.05441766 ], [ 18.31054906, 49.05454995 ], [ 18.31057031, 49.05457236 ], [ 18.31057756, 49.05457998 ], [ 18.31060882, 49.05461315 ], [ 18.31061534, 49.05462001 ], [ 18.310629, 49.05463432 ], [ 18.31054572, 49.0546717 ], [ 18.31052516, 49.05468093 ], [ 18.31042103, 49.05472769 ], [ 18.31039769, 49.05473821 ], [ 18.30796122, 49.05583205 ], [ 18.30731562, 49.05610553 ], [ 18.30722736, 49.05615482 ], [ 18.30697251, 49.05627805 ], [ 18.30632509, 49.05656649 ], [ 18.30601851, 49.05670414 ], [ 18.30476459, 49.05726707 ], [ 18.30464223, 49.05732193 ], [ 18.30453283, 49.05737427 ], [ 18.30448802, 49.05737247 ], [ 18.30435612, 49.05745414 ], [ 18.30430869, 49.05747566 ], [ 18.30417707, 49.05753514 ], [ 18.30412045, 49.05756075 ], [ 18.30408075, 49.05757873 ], [ 18.30372572, 49.05773929 ], [ 18.30360678, 49.05779316 ], [ 18.30356928, 49.0578101 ], [ 18.30345487, 49.05786179 ], [ 18.30334119, 49.05790802 ], [ 18.3033063, 49.057926 ], [ 18.30325757, 49.05795106 ], [ 18.30310537, 49.05801994 ], [ 18.30199586, 49.05848582 ], [ 18.30190491, 49.05852403 ], [ 18.30161023, 49.05860385 ], [ 18.30141001, 49.05864169 ], [ 18.30121135, 49.05863584 ], [ 18.30049436, 49.05885166 ], [ 18.30020388, 49.05889074 ], [ 18.29920999, 49.05902437 ], [ 18.29806303, 49.05917853 ], [ 18.29786243, 49.05920551 ], [ 18.29779896, 49.05921403 ], [ 18.29492835, 49.0599636 ], [ 18.29480677, 49.05999539 ], [ 18.29446696, 49.06008411 ], [ 18.29434326, 49.06011641 ], [ 18.29384078, 49.0602476 ], [ 18.29255585, 49.06058312 ], [ 18.29225299, 49.06066219 ], [ 18.29174311, 49.0607953 ], [ 18.2916649, 49.06077889 ], [ 18.29152748, 49.06075003 ], [ 18.29156094, 49.06086835 ], [ 18.29159179, 49.06097722 ], [ 18.29162814, 49.06110608 ], [ 18.29167184, 49.06112163 ], [ 18.29152798, 49.06130324 ], [ 18.29268796, 49.06326893 ], [ 18.29359268, 49.06461216 ], [ 18.2936929, 49.06475581 ], [ 18.29442344, 49.06588877 ], [ 18.29496061, 49.06674666 ], [ 18.29505612, 49.06689915 ], [ 18.29519353, 49.06715265 ], [ 18.29526191, 49.06720136 ], [ 18.29525318, 49.06721982 ], [ 18.29518696, 49.06725996 ], [ 18.29519924, 49.06727004 ], [ 18.29526766, 49.06729844 ], [ 18.29548461, 49.06738863 ], [ 18.29576958, 49.06750079 ], [ 18.29615378, 49.06765148 ], [ 18.29657505, 49.06773385 ], [ 18.29727306, 49.067804 ], [ 18.2974801, 49.06782485 ], [ 18.29883483, 49.06666591 ], [ 18.29920819, 49.0666194 ], [ 18.29928735, 49.06660959 ], [ 18.29953338, 49.06657894 ], [ 18.30053384, 49.0668863 ], [ 18.30163892, 49.06722579 ], [ 18.30262424, 49.06748408 ], [ 18.30268852, 49.06750097 ], [ 18.30308874, 49.06760587 ], [ 18.30378914, 49.06778947 ], [ 18.30384537, 49.06781447 ], [ 18.30420998, 49.06797657 ], [ 18.30372107, 49.0686974 ], [ 18.30342548, 49.06922783 ], [ 18.30324216, 49.06976961 ], [ 18.30318693, 49.0703066 ], [ 18.30327899, 49.07078219 ], [ 18.30340165, 49.07119902 ], [ 18.3036729, 49.07164361 ], [ 18.30409425, 49.07212769 ], [ 18.30463889, 49.07251218 ], [ 18.30549551, 49.07296638 ], [ 18.30599906, 49.07319909 ], [ 18.30609029, 49.07324122 ], [ 18.30617349, 49.07327965 ], [ 18.30711087, 49.07377953 ], [ 18.3076162, 49.07418346 ], [ 18.3085088, 49.07501294 ], [ 18.30907715, 49.07563801 ], [ 18.30941317, 49.07612287 ], [ 18.30985609, 49.07684206 ], [ 18.31022675, 49.07767327 ], [ 18.31084907, 49.07839712 ], [ 18.31114484, 49.07886635 ], [ 18.31141434, 49.07928401 ], [ 18.3122523, 49.08045029 ], [ 18.31333115, 49.08145498 ], [ 18.31333458, 49.08145815 ], [ 18.31372505, 49.08182177 ], [ 18.31412989, 49.08252825 ], [ 18.31429991, 49.08289032 ], [ 18.31434124, 49.0829782 ], [ 18.31500696, 49.08439544 ], [ 18.31533141, 49.08497015 ], [ 18.31544676, 49.0858807 ], [ 18.31559973, 49.08593747 ], [ 18.315724, 49.08598361 ], [ 18.31587055, 49.08603804 ], [ 18.31593178, 49.0860607 ], [ 18.31629186, 49.08619443 ], [ 18.31632726, 49.08620752 ], [ 18.31641679, 49.08624079 ], [ 18.31647171, 49.0862612 ], [ 18.31666035, 49.08633116 ], [ 18.31749257, 49.08653478 ], [ 18.31750137, 49.0865369 ], [ 18.31751987, 49.08654145 ], [ 18.31759272, 49.08655926 ], [ 18.3176376, 49.08657026 ], [ 18.3176753, 49.08657941 ], [ 18.31820295, 49.08670854 ], [ 18.3182425, 49.08671825 ], [ 18.31828752, 49.08672917 ], [ 18.31836316, 49.08674776 ], [ 18.3184159, 49.08676064 ], [ 18.31843854, 49.08676615 ], [ 18.31845772, 49.08677084 ], [ 18.31848715, 49.08677808 ], [ 18.31849527, 49.08678007 ], [ 18.31852711, 49.08678781 ], [ 18.31853555, 49.08678946 ], [ 18.31856475, 49.08679525 ], [ 18.31859732, 49.08680159 ], [ 18.31865426, 49.08681281 ], [ 18.31871737, 49.0868252 ], [ 18.31871898, 49.08682556 ], [ 18.31874914, 49.0868314 ], [ 18.31881854, 49.08684504 ], [ 18.31885686, 49.0868526 ], [ 18.31888513, 49.08685816 ], [ 18.31890229, 49.08686146 ], [ 18.31891514, 49.08686408 ], [ 18.31895468, 49.0868718 ], [ 18.31898536, 49.08687785 ], [ 18.31949239, 49.08697739 ], [ 18.31993873, 49.08706505 ], [ 18.32060482, 49.08719579 ], [ 18.32217404, 49.08750718 ], [ 18.32299251, 49.08766775 ], [ 18.32373505, 49.08781313 ], [ 18.32374886, 49.0878158 ], [ 18.32376815, 49.08781959 ], [ 18.32387001, 49.08783946 ], [ 18.32394358, 49.08785387 ], [ 18.32402826, 49.08787053 ], [ 18.3241604, 49.08789634 ], [ 18.32432952, 49.08792946 ], [ 18.32440414, 49.0879442 ], [ 18.32441955, 49.08794723 ], [ 18.32462548, 49.08798791 ], [ 18.32472348, 49.08800992 ], [ 18.32474044, 49.08801376 ], [ 18.32487434, 49.08802703 ], [ 18.32494516, 49.08800446 ], [ 18.32499739, 49.08796091 ], [ 18.32510141, 49.08775879 ], [ 18.32511734, 49.08770065 ], [ 18.32513298, 49.08757066 ], [ 18.32517617, 49.08742109 ], [ 18.32526006, 49.08731893 ], [ 18.32529172, 49.08729101 ], [ 18.3253628, 49.08727802 ], [ 18.32542495, 49.08725759 ], [ 18.32583823, 49.08728344 ], [ 18.32614666, 49.08729448 ], [ 18.32628781, 49.08729958 ], [ 18.32641473, 49.08730525 ], [ 18.32656551, 49.08731982 ], [ 18.32669675, 49.08732392 ], [ 18.3267571, 49.08732902 ], [ 18.3271336, 49.08736092 ], [ 18.32727807, 49.08738273 ], [ 18.32743886, 49.08740698 ], [ 18.32757279, 49.08742324 ], [ 18.32773854, 49.08746852 ], [ 18.3279742, 49.08751303 ], [ 18.32814635, 49.08755245 ], [ 18.32840165, 49.08762243 ], [ 18.32866409, 49.08767981 ], [ 18.32871021, 49.08769078 ], [ 18.32896911, 49.08774787 ], [ 18.32930951, 49.08781331 ], [ 18.32935874, 49.08782473 ], [ 18.32961742, 49.0878846 ], [ 18.33027913, 49.08803769 ], [ 18.33046433, 49.08808461 ], [ 18.33138728, 49.08830646 ], [ 18.33161423, 49.08835255 ], [ 18.33241783, 49.08855707 ], [ 18.33272551, 49.08865343 ], [ 18.33276304, 49.0886586 ], [ 18.33276403, 49.08867219 ], [ 18.33381079, 49.08886034 ], [ 18.33388394, 49.08888546 ], [ 18.33411972, 49.08896615 ], [ 18.33443564, 49.08907434 ], [ 18.33462025, 49.08913854 ], [ 18.33483246, 49.08921241 ], [ 18.3356127, 49.08941605 ], [ 18.33676921, 49.0894881 ], [ 18.33682257, 49.0894984 ], [ 18.337695, 49.0896662 ], [ 18.33802517, 49.08970686 ], [ 18.33863289, 49.08989731 ], [ 18.33924352, 49.09024362 ], [ 18.33988198, 49.09043867 ], [ 18.34025099, 49.09051479 ], [ 18.34042083, 49.09054991 ], [ 18.34058666, 49.09058409 ], [ 18.3406568, 49.09061977 ], [ 18.34129117, 49.09094311 ], [ 18.34182828, 49.09113358 ], [ 18.34196259, 49.09116184 ], [ 18.34201704, 49.09117327 ], [ 18.34207617, 49.09118569 ], [ 18.34231243, 49.09123534 ], [ 18.34242935, 49.09125992 ], [ 18.34260982, 49.09129789 ], [ 18.34267029, 49.09131056 ], [ 18.34278652, 49.09134684 ], [ 18.34291651, 49.09138731 ], [ 18.34300369, 49.09141447 ], [ 18.34310104, 49.09144481 ], [ 18.34340907, 49.09154089 ], [ 18.34366308, 49.09162006 ], [ 18.34441743, 49.09180342 ], [ 18.3450254, 49.09183943 ], [ 18.34515864, 49.09184732 ], [ 18.34552984, 49.09193844 ], [ 18.34775898, 49.09220607 ], [ 18.34832018, 49.09232745 ], [ 18.34984978, 49.09265836 ], [ 18.35066553, 49.09299519 ], [ 18.35070378, 49.09300978 ], [ 18.35116927, 49.09318809 ], [ 18.35202215, 49.09364602 ], [ 18.35313898, 49.09399927 ], [ 18.35314281, 49.09400047 ], [ 18.35358578, 49.09417454 ], [ 18.35365064, 49.09420008 ], [ 18.35447342, 49.09452338 ], [ 18.35479442, 49.09465653 ], [ 18.35563404, 49.09500485 ], [ 18.35575756, 49.09505614 ], [ 18.35601922, 49.09516467 ], [ 18.35712604, 49.09561821 ], [ 18.35792652, 49.09600378 ], [ 18.35805486, 49.09606562 ], [ 18.35897477, 49.09642471 ], [ 18.35965149, 49.09687169 ], [ 18.35993426, 49.09705846 ], [ 18.36043024, 49.09724276 ], [ 18.36056282, 49.09729202 ], [ 18.36095277, 49.09745876 ], [ 18.36112587, 49.09753275 ], [ 18.36127822, 49.09760883 ], [ 18.36158319, 49.09776109 ], [ 18.36186545, 49.09796787 ], [ 18.3620918, 49.09810104 ], [ 18.36226669, 49.09818352 ], [ 18.36237581, 49.09824528 ], [ 18.36252154, 49.09834184 ], [ 18.36272752, 49.09847839 ], [ 18.36301825, 49.09863988 ], [ 18.36334515, 49.09882143 ], [ 18.36392347, 49.09917725 ], [ 18.3645003, 49.09947442 ], [ 18.36547847, 49.09977369 ], [ 18.36557447, 49.0997636 ], [ 18.36609613, 49.0997087 ], [ 18.36630633, 49.09971579 ], [ 18.36636449, 49.09969854 ], [ 18.36675896, 49.09966759 ], [ 18.36689572, 49.09965688 ], [ 18.3682157, 49.09952056 ], [ 18.3694684, 49.09973743 ], [ 18.3698917, 49.09984092 ], [ 18.3709503, 49.10009977 ], [ 18.37154758, 49.10019714 ], [ 18.37233263, 49.10032516 ], [ 18.37250314, 49.10038003 ], [ 18.37256159, 49.1003989 ], [ 18.3732279, 49.10061336 ], [ 18.3734401, 49.10068164 ], [ 18.37395845, 49.10088282 ], [ 18.37448715, 49.10108791 ], [ 18.37462656, 49.10114205 ], [ 18.37518848, 49.10140511 ], [ 18.37560796, 49.10160142 ], [ 18.37666098, 49.10230736 ], [ 18.37674296, 49.10236236 ], [ 18.3768223, 49.1024155 ], [ 18.37713158, 49.10248466 ], [ 18.37741696, 49.10254843 ], [ 18.37748129, 49.10256012 ], [ 18.37945887, 49.10291892 ], [ 18.37971258, 49.10296504 ], [ 18.3797933, 49.10297963 ], [ 18.37986261, 49.10299223 ], [ 18.38006622, 49.10302917 ], [ 18.38145818, 49.10325118 ], [ 18.38217217, 49.10341932 ], [ 18.38280158, 49.10352057 ], [ 18.38275195, 49.10320881 ] ] ] ] } },
{ "type": "Feature", "properties": { "@featureType": "CadastralZoning", "beginLifespanVersion": { "@nilReason": "http://inspire.ec.europa.eu/codelist/VoidReasonValue/Unpopulated", "@nil": "true" }, "endLifespanVersion": { "@nilReason": "http://inspire.ec.europa.eu/codelist/VoidReasonValue/Unpopulated", "@nil": "true" }, "estimatedAccuracy": { "value": -1, "@uom": "m" }, "inspireId": { "@dataType": "Identifier", "localId": "869619", "namespace": "SK.ESKN.CP", "versionId": "20260703T04:07:40" }, "label": "Visolaje", "level": { "@href": "http://inspire.ec.europa.eu/codelist/CadastralZoningLevelValue/3rdOrder" }, "levelName": { "value": "Katastrálne územie", "@locale": "sk" }, "name": { "@dataType": "name", "GeographicalName": { "@dataType": "GeographicalName", "language": "SLK", "nativeness": { "@href": "http://inspire.ec.europa.eu/codelist/NativenessValue/endonym", "@title": "endonym" }, "nameStatus": { "@href": "http://inspire.ec.europa.eu/codelist/NameStatusValue/official", "@title": "official" }, "sourceOfName": { "@nilReason": "http://inspire.ec.europa.eu/codelist/VoidReasonValue/Unpopulated", "@nil": "true" }, "pronunciation": { "@dataType": "pronunciation", "@nilReason": "http://inspire.ec.europa.eu/codelist/VoidReasonValue/Unpopulated", "@nil": "true" }, "spelling": { "@dataType": "SpellingOfName", "text": "Visolaje", "script": "LATN" } } }, "nationalCadastalZoningReference": "869619", "validFrom": "2026-06-30T16:00:00Z", "validTo": { "@nilReason": "http://inspire.ec.europa.eu/codelist/VoidReasonValue/Unpopulated", "@nil": "true" } }, "geometry": { "type": "MultiPolygon", "coordinates": [ [ [ [ 18.38947031, 49.09244374 ], [ 18.38966637, 49.09190194 ], [ 18.38969909, 49.09172227 ], [ 18.38985036, 49.09066294 ], [ 18.38985623, 49.09046978 ], [ 18.38969626, 49.09011608 ], [ 18.38966737, 49.09005221 ], [ 18.38942663, 49.08955613 ], [ 18.38934004, 49.08937769 ], [ 18.38921336, 49.08904199 ], [ 18.38923357, 49.08896812 ], [ 18.38959465, 49.0888636 ], [ 18.38919615, 49.08803415 ], [ 18.3892478, 49.08697382 ], [ 18.38984613, 49.08563579 ], [ 18.38985225, 49.08557746 ], [ 18.38985747, 49.0855283 ], [ 18.38999531, 49.08421202 ], [ 18.39014218, 49.08381757 ], [ 18.3903215, 49.08366877 ], [ 18.39038301, 49.08361776 ], [ 18.39046848, 49.08344345 ], [ 18.39070906, 49.08295258 ], [ 18.39077316, 49.08281192 ], [ 18.39089336, 49.08271904 ], [ 18.3911775, 49.08249871 ], [ 18.39130508, 49.08230453 ], [ 18.39058329, 49.08153207 ], [ 18.3901265, 49.08071285 ], [ 18.39036631, 49.0803712 ], [ 18.39055467, 49.08017128 ], [ 18.39088522, 49.08002689 ], [ 18.39059276, 49.07984056 ], [ 18.39072994, 49.07924451 ], [ 18.39163107, 49.07850309 ], [ 18.39247029, 49.07813006 ], [ 18.3918382, 49.07757403 ], [ 18.39173977, 49.07709117 ], [ 18.39174992, 49.07592991 ], [ 18.3918995, 49.07485101 ], [ 18.39211848, 49.07440813 ], [ 18.39364084, 49.07302151 ], [ 18.39406789, 49.07250812 ], [ 18.39442956, 49.0713131 ], [ 18.39453926, 49.07031212 ], [ 18.39462249, 49.07010673 ], [ 18.39467637, 49.06997381 ], [ 18.3946944, 49.06992968 ], [ 18.3946956, 49.06992668 ], [ 18.39470756, 49.06989666 ], [ 18.39472436, 49.06985572 ], [ 18.39473746, 49.06982323 ], [ 18.39473903, 49.06981953 ], [ 18.39474369, 49.06980039 ], [ 18.39476537, 49.06971062 ], [ 18.39477189, 49.06968337 ], [ 18.3947821, 49.06964134 ], [ 18.39476276, 49.06960047 ], [ 18.39473796, 49.06956146 ], [ 18.39473155, 49.06955145 ], [ 18.39472549, 49.069542 ], [ 18.39471474, 49.06952516 ], [ 18.39470137, 49.06950411 ], [ 18.39466833, 49.06945228 ], [ 18.39452779, 49.06941715 ], [ 18.39431604, 49.06936435 ], [ 18.39424404, 49.06934637 ], [ 18.39410802, 49.06931239 ], [ 18.39410415, 49.06929548 ], [ 18.39405957, 49.06909817 ], [ 18.39398041, 49.06904712 ], [ 18.39386713, 49.06897415 ], [ 18.39347651, 49.06882958 ], [ 18.39316945, 49.06875742 ], [ 18.39298719, 49.06871465 ], [ 18.39288115, 49.06867935 ], [ 18.39265524, 49.06860419 ], [ 18.39260236, 49.06863844 ], [ 18.39259051, 49.06864618 ], [ 18.39255291, 49.06867054 ], [ 18.39240319, 49.06858183 ], [ 18.39239412, 49.06857645 ], [ 18.39224708, 49.06848933 ], [ 18.39230127, 49.06838395 ], [ 18.39230533, 49.06837587 ], [ 18.39232326, 49.06834104 ], [ 18.39230622, 49.06823315 ], [ 18.39227771, 49.06805297 ], [ 18.39218552, 49.06802323 ], [ 18.39195121, 49.06800608 ], [ 18.39253214, 49.06766215 ], [ 18.39274906, 49.06736661 ], [ 18.39437626, 49.06795056 ], [ 18.39493722, 49.06788517 ], [ 18.39540794, 49.06710816 ], [ 18.3960953, 49.06630931 ], [ 18.39652104, 49.06640591 ], [ 18.3971109, 49.06669733 ], [ 18.39819209, 49.06627884 ], [ 18.39896163, 49.06570716 ], [ 18.39900308, 49.06568058 ], [ 18.39901597, 49.06566685 ], [ 18.39905224, 49.06563999 ], [ 18.39893039, 49.06557277 ], [ 18.39878191, 49.06537052 ], [ 18.39891499, 49.06513603 ], [ 18.39902243, 49.0650373 ], [ 18.39880564, 49.0649179 ], [ 18.39878565, 49.06482745 ], [ 18.39875469, 49.0647048 ], [ 18.39858129, 49.06460044 ], [ 18.39847488, 49.0644664 ], [ 18.39831279, 49.06440237 ], [ 18.39817594, 49.06433432 ], [ 18.39795339, 49.06419565 ], [ 18.39785089, 49.06410604 ], [ 18.39778506, 49.06405186 ], [ 18.39762563, 49.06395639 ], [ 18.39748785, 49.06390634 ], [ 18.39734216, 49.06389646 ], [ 18.3971589, 49.06385833 ], [ 18.39701196, 49.06377258 ], [ 18.39664504, 49.06365659 ], [ 18.39608151, 49.06331545 ], [ 18.39493058, 49.06284177 ], [ 18.3944206, 49.06268273 ], [ 18.39352515, 49.06224106 ], [ 18.39292928, 49.06178522 ], [ 18.39239807, 49.06085692 ], [ 18.39231413, 49.0605919 ], [ 18.39230136, 49.06055122 ], [ 18.39229968, 49.06054616 ], [ 18.39228424, 49.06049738 ], [ 18.39226843, 49.06044723 ], [ 18.39235033, 49.06020405 ], [ 18.39238818, 49.0601446 ], [ 18.39239474, 49.06008278 ], [ 18.3922518, 49.05993931 ], [ 18.39214825, 49.05989449 ], [ 18.39196712, 49.05992433 ], [ 18.39106498, 49.06035224 ], [ 18.39087677, 49.06044152 ], [ 18.39087022, 49.06044224 ], [ 18.39075688, 49.06045437 ], [ 18.390653, 49.06046548 ], [ 18.39055595, 49.06047589 ], [ 18.39053924, 49.06047767 ], [ 18.39036299, 49.06041718 ], [ 18.39011873, 49.06033333 ], [ 18.39002491, 49.06038272 ], [ 18.38988587, 49.06045587 ], [ 18.38985511, 49.06055533 ], [ 18.38984825, 49.06057769 ], [ 18.38984014, 49.06060873 ], [ 18.38983745, 49.06062221 ], [ 18.38983122, 49.06065363 ], [ 18.38980783, 49.06077155 ], [ 18.38947649, 49.06102138 ], [ 18.38938988, 49.06084998 ], [ 18.38928145, 49.06063568 ], [ 18.38923918, 49.06058839 ], [ 18.38921469, 49.06056095 ], [ 18.38920721, 49.06055611 ], [ 18.38917642, 49.06052318 ], [ 18.38916096, 49.06050671 ], [ 18.38910716, 49.06045084 ], [ 18.3888187, 49.06024613 ], [ 18.3887637, 49.06020716 ], [ 18.388735, 49.06017398 ], [ 18.38867076, 49.06011925 ], [ 18.38836343, 49.05986368 ], [ 18.38819395, 49.05965212 ], [ 18.38816201, 49.0596314 ], [ 18.38788581, 49.05945209 ], [ 18.38716406, 49.05907551 ], [ 18.38715482, 49.05903312 ], [ 18.38711025, 49.05883066 ], [ 18.38717371, 49.05866813 ], [ 18.38724377, 49.05848837 ], [ 18.38724686, 49.0584547 ], [ 18.38726028, 49.05831078 ], [ 18.38715231, 49.05810688 ], [ 18.38709573, 49.05800004 ], [ 18.38708567, 49.05798107 ], [ 18.38705718, 49.05777427 ], [ 18.38704304, 49.0576716 ], [ 18.38711139, 49.05732785 ], [ 18.38711326, 49.05731857 ], [ 18.38720795, 49.05702845 ], [ 18.38722308, 49.05698227 ], [ 18.38720668, 49.05686946 ], [ 18.38713564, 49.05638035 ], [ 18.38732506, 49.05607753 ], [ 18.38756189, 49.05569422 ], [ 18.38795486, 49.05540378 ], [ 18.3882502, 49.05524148 ], [ 18.38836782, 49.0551768 ], [ 18.3884634, 49.05512435 ], [ 18.38836183, 49.05497224 ], [ 18.38835315, 49.05476834 ], [ 18.38837515, 49.05440362 ], [ 18.38837878, 49.05434218 ], [ 18.38835593, 49.05429028 ], [ 18.38833689, 49.05424717 ], [ 18.38831998, 49.05420887 ], [ 18.38827053, 49.05409675 ], [ 18.38820217, 49.05394161 ], [ 18.38819417, 49.05392366 ], [ 18.3881982, 49.05384636 ], [ 18.38820444, 49.05372939 ], [ 18.38803727, 49.05359945 ], [ 18.38777343, 49.05350377 ], [ 18.38746576, 49.0532405 ], [ 18.38744346, 49.05318963 ], [ 18.38736825, 49.05301732 ], [ 18.38707742, 49.0528474 ], [ 18.38699161, 49.05266034 ], [ 18.38688999, 49.05256427 ], [ 18.38686009, 49.05253626 ], [ 18.38680435, 49.0524838 ], [ 18.38650345, 49.05220105 ], [ 18.38647228, 49.05215086 ], [ 18.38641038, 49.05199996 ], [ 18.38561985, 49.05215209 ], [ 18.38543254, 49.05204323 ], [ 18.38234793, 49.05182202 ], [ 18.38152134, 49.05184866 ], [ 18.38068765, 49.05174901 ], [ 18.38046906, 49.0517041 ], [ 18.37845051, 49.05128987 ], [ 18.37774931, 49.05079027 ], [ 18.37733652, 49.0504983 ], [ 18.37683832, 49.05022341 ], [ 18.37649207, 49.05005571 ], [ 18.37549875, 49.04991004 ], [ 18.3754183, 49.04993021 ], [ 18.37502617, 49.05053598 ], [ 18.37494397, 49.05064548 ], [ 18.37483615, 49.05079182 ], [ 18.3746682, 49.05094457 ], [ 18.37450167, 49.0510649 ], [ 18.3742991, 49.05116229 ], [ 18.37385311, 49.05141301 ], [ 18.37324311, 49.05162157 ], [ 18.37293553, 49.05175806 ], [ 18.37271661, 49.05185553 ], [ 18.37245933, 49.0519682 ], [ 18.3722608, 49.05204271 ], [ 18.37197884, 49.05213911 ], [ 18.37184597, 49.05217612 ], [ 18.37162856, 49.05230435 ], [ 18.37147001, 49.05241809 ], [ 18.37127741, 49.05258615 ], [ 18.37120943, 49.05267686 ], [ 18.37114973, 49.05276721 ], [ 18.37113123, 49.05286609 ], [ 18.37111062, 49.0529856 ], [ 18.37107566, 49.05303627 ], [ 18.37101948, 49.05306735 ], [ 18.37085217, 49.05320749 ], [ 18.37067983, 49.05335358 ], [ 18.37059098, 49.05342191 ], [ 18.37059103, 49.05350142 ], [ 18.37052783, 49.05379482 ], [ 18.37051295, 49.05388045 ], [ 18.37046751, 49.05395292 ], [ 18.37039429, 49.05401066 ], [ 18.37028581, 49.0540576 ], [ 18.37019447, 49.05407697 ], [ 18.36984525, 49.05395781 ], [ 18.36969233, 49.05396808 ], [ 18.36960067, 49.05402082 ], [ 18.36953097, 49.05408968 ], [ 18.3695097, 49.05413326 ], [ 18.36934862, 49.05465865 ], [ 18.36927192, 49.05471259 ], [ 18.36904313, 49.05477134 ], [ 18.36744885, 49.05430056 ], [ 18.36723305, 49.05410191 ], [ 18.36704764, 49.05359297 ], [ 18.36623369, 49.05464912 ], [ 18.36620827, 49.05468227 ], [ 18.36582405, 49.05518079 ], [ 18.36480976, 49.05670293 ], [ 18.36453733, 49.05678369 ], [ 18.36431573, 49.05691971 ], [ 18.36362824, 49.05761531 ], [ 18.3626801, 49.05793278 ], [ 18.36150251, 49.05836497 ], [ 18.36047843, 49.05872909 ], [ 18.36012765, 49.05896025 ], [ 18.35986183, 49.05910563 ], [ 18.35837684, 49.05953456 ], [ 18.35782293, 49.05968706 ], [ 18.35685999, 49.05983778 ], [ 18.35482489, 49.06073371 ], [ 18.35331355, 49.06136156 ], [ 18.35313119, 49.06232554 ], [ 18.35310979, 49.06243906 ], [ 18.35309001, 49.06254327 ], [ 18.35307812, 49.0626066 ], [ 18.35306771, 49.0626617 ], [ 18.35304699, 49.06277101 ], [ 18.35303669, 49.06282522 ], [ 18.35303097, 49.06285568 ], [ 18.35301042, 49.06291373 ], [ 18.3529885, 49.06297605 ], [ 18.3529705, 49.06302712 ], [ 18.35295233, 49.06307845 ], [ 18.3529395, 49.06311501 ], [ 18.35253393, 49.06426401 ], [ 18.35253201, 49.06426932 ], [ 18.35251424, 49.06431968 ], [ 18.35105508, 49.06430467 ], [ 18.35075565, 49.0644015 ], [ 18.34821253, 49.0652237 ], [ 18.34605885, 49.06593865 ], [ 18.3444445, 49.06648052 ], [ 18.34437501, 49.06653034 ], [ 18.34433917, 49.06655577 ], [ 18.34431721, 49.06657152 ], [ 18.3442697, 49.06660541 ], [ 18.34419448, 49.06679823 ], [ 18.34377024, 49.06788481 ], [ 18.34375092, 49.06793436 ], [ 18.34340452, 49.06882158 ], [ 18.34335479, 49.06894904 ], [ 18.34334465, 49.06902419 ], [ 18.34336559, 49.06905136 ], [ 18.34340872, 49.06910755 ], [ 18.34343683, 49.06914405 ], [ 18.34373261, 49.06910335 ], [ 18.34408979, 49.06905426 ], [ 18.34442137, 49.06899697 ], [ 18.34529111, 49.06879645 ], [ 18.3458059, 49.06874361 ], [ 18.34707684, 49.06879173 ], [ 18.34821727, 49.06887191 ], [ 18.3491694, 49.06900501 ], [ 18.34954779, 49.06904779 ], [ 18.35005495, 49.06907203 ], [ 18.35123697, 49.06907708 ], [ 18.35201296, 49.06909267 ], [ 18.35317989, 49.06905714 ], [ 18.35297494, 49.06937503 ], [ 18.35244868, 49.06991741 ], [ 18.35228453, 49.07025752 ], [ 18.35191535, 49.07059188 ], [ 18.35142872, 49.07158094 ], [ 18.35171328, 49.07187055 ], [ 18.35155778, 49.07223822 ], [ 18.35118678, 49.07263646 ], [ 18.35029951, 49.07331013 ], [ 18.35253543, 49.07435986 ], [ 18.35523377, 49.07565373 ], [ 18.35742247, 49.07700252 ], [ 18.35928459, 49.07794904 ], [ 18.3601872, 49.07824274 ], [ 18.36099514, 49.07859514 ], [ 18.36283822, 49.07992755 ], [ 18.36416189, 49.08044555 ], [ 18.36430089, 49.08060663 ], [ 18.36492668, 49.08042893 ], [ 18.3649679, 49.08041723 ], [ 18.36540364, 49.08040061 ], [ 18.36660022, 49.08035115 ], [ 18.36770457, 49.08133333 ], [ 18.36784001, 49.08147209 ], [ 18.36803273, 49.08150005 ], [ 18.36815364, 49.0816769 ], [ 18.36869923, 49.08167793 ], [ 18.36916589, 49.08203113 ], [ 18.36948231, 49.08214088 ], [ 18.36974321, 49.08224537 ], [ 18.37005101, 49.0823346 ], [ 18.37017318, 49.08245908 ], [ 18.37096234, 49.08336756 ], [ 18.37126417, 49.08364173 ], [ 18.37129384, 49.08361514 ], [ 18.37133979, 49.08358168 ], [ 18.3718091, 49.08382185 ], [ 18.37289204, 49.08432636 ], [ 18.37317911, 49.08452967 ], [ 18.37466788, 49.08565236 ], [ 18.37483827, 49.08583367 ], [ 18.37562354, 49.08639145 ], [ 18.37716392, 49.08748556 ], [ 18.37777619, 49.08810781 ], [ 18.37857095, 49.0883246 ], [ 18.37915944, 49.08849988 ], [ 18.38065692, 49.08888644 ], [ 18.38241907, 49.08992014 ], [ 18.38281284, 49.09015119 ], [ 18.38317671, 49.09032209 ], [ 18.38343006, 49.09044102 ], [ 18.38404986, 49.09073208 ], [ 18.38430755, 49.09082796 ], [ 18.38526892, 49.09120926 ], [ 18.38873037, 49.09312198 ], [ 18.38947031, 49.09244374 ] ] ] ] } },
{ "type": "Feature", "properties": { "@featureType": "CadastralZoning", "beginLifespanVersion": { "@nilReason": "http://inspire.ec.europa.eu/codelist/VoidReasonValue/Unpopulated", "@nil": "true" }, "endLifespanVersion": { "@nilReason": "http://inspire.ec.europa.eu/codelist/VoidReasonValue/Unpopulated", "@nil": "true" }, "estimatedAccuracy": { "value": -1, "@uom": "m" }, "inspireId": { "@dataType": "Identifier", "localId": "816400", "namespace": "SK.ESKN.CP", "versionId": "20260703T04:07:40" }, "label": "Hloža-Podhorie", "level": { "@href": "http://inspire.ec.europa.eu/codelist/CadastralZoningLevelValue/3rdOrder" }, "levelName": { "value": "Katastrálne územie", "@locale": "sk" }, "name": { "@dataType": "name", "GeographicalName": { "@dataType": "GeographicalName", "language": "SLK", "nativeness": { "@href": "http://inspire.ec.europa.eu/codelist/NativenessValue/endonym", "@title": "endonym" }, "nameStatus": { "@href": "http://inspire.ec.europa.eu/codelist/NameStatusValue/official", "@title": "official" }, "sourceOfName": { "@nilReason": "http://inspire.ec.europa.eu/codelist/VoidReasonValue/Unpopulated", "@nil": "true" }, "pronunciation": { "@dataType": "pronunciation", "@nilReason": "http://inspire.ec.europa.eu/codelist/VoidReasonValue/Unpopulated", "@nil": "true" }, "spelling": { "@dataType": "SpellingOfName", "text": "Hloža-Podhorie", "script": "LATN" } } }, "nationalCadastalZoningReference": "816400", "validFrom": "2026-06-30T16:00:00Z", "validTo": { "@nilReason": "http://inspire.ec.europa.eu/codelist/VoidReasonValue/Unpopulated", "@nil": "true" } }, "geometry": { "type": "MultiPolygon", "coordinates": [ [ [ [ 18.29225299, 49.06066219 ], [ 18.29255585, 49.06058312 ], [ 18.29384078, 49.0602476 ], [ 18.29434326, 49.06011641 ], [ 18.29446696, 49.06008411 ], [ 18.29480677, 49.05999539 ], [ 18.29492835, 49.0599636 ], [ 18.29779896, 49.05921403 ], [ 18.29786243, 49.05920551 ], [ 18.29806303, 49.05917853 ], [ 18.29920999, 49.05902437 ], [ 18.30020388, 49.05889074 ], [ 18.30049436, 49.05885166 ], [ 18.30121135, 49.05863584 ], [ 18.30141001, 49.05864169 ], [ 18.30161023, 49.05860385 ], [ 18.30190491, 49.05852403 ], [ 18.30199586, 49.05848582 ], [ 18.30310537, 49.05801994 ], [ 18.30325757, 49.05795106 ], [ 18.3033063, 49.057926 ], [ 18.30334119, 49.05790802 ], [ 18.30345487, 49.05786179 ], [ 18.30356928, 49.0578101 ], [ 18.30360678, 49.05779316 ], [ 18.30372572, 49.05773929 ], [ 18.30408075, 49.05757873 ], [ 18.30412045, 49.05756075 ], [ 18.30417707, 49.05753514 ], [ 18.30430869, 49.05747566 ], [ 18.30435612, 49.05745414 ], [ 18.30448802, 49.05737247 ], [ 18.30453283, 49.05737427 ], [ 18.30464223, 49.05732193 ], [ 18.30476459, 49.05726707 ], [ 18.30601851, 49.05670414 ], [ 18.30632509, 49.05656649 ], [ 18.30697251, 49.05627805 ], [ 18.30722736, 49.05615482 ], [ 18.30731562, 49.05610553 ], [ 18.30796122, 49.05583205 ], [ 18.31039769, 49.05473821 ], [ 18.31042103, 49.05472769 ], [ 18.31052516, 49.05468093 ], [ 18.31054572, 49.0546717 ], [ 18.310629, 49.05463432 ], [ 18.31061534, 49.05462001 ], [ 18.31060882, 49.05461315 ], [ 18.31057756, 49.05457998 ], [ 18.31057031, 49.05457236 ], [ 18.31054906, 49.05454995 ], [ 18.31084984, 49.05441766 ], [ 18.31090623, 49.05439582 ], [ 18.31103463, 49.05434726 ], [ 18.31200809, 49.05393873 ], [ 18.31225085, 49.0538418 ], [ 18.31227167, 49.05383377 ], [ 18.31227673, 49.0538318 ], [ 18.3124241, 49.05377987 ], [ 18.3126342, 49.05370593 ], [ 18.31294938, 49.05364979 ], [ 18.31327797, 49.05356752 ], [ 18.31332228, 49.05359744 ], [ 18.31355581, 49.05364647 ], [ 18.31356164, 49.05364283 ], [ 18.31366018, 49.05359683 ], [ 18.31368649, 49.05358458 ], [ 18.31376157, 49.05360279 ], [ 18.31380079, 49.05361375 ], [ 18.31387392, 49.05358364 ], [ 18.31416528, 49.05353321 ], [ 18.31423439, 49.0535213 ], [ 18.31474489, 49.05343515 ], [ 18.31490295, 49.05342561 ], [ 18.3151677, 49.05340978 ], [ 18.31561978, 49.05324905 ], [ 18.3157638, 49.05325984 ], [ 18.31600651, 49.05323294 ], [ 18.31625151, 49.05317566 ], [ 18.31720493, 49.05295262 ], [ 18.31803803, 49.05274132 ], [ 18.31817356, 49.05272654 ], [ 18.31844617, 49.05269671 ], [ 18.31876555, 49.0527889 ], [ 18.31902424, 49.05288103 ], [ 18.31928236, 49.05296284 ], [ 18.31928736, 49.05296447 ], [ 18.31944073, 49.053008 ], [ 18.31952708, 49.05303252 ], [ 18.32009219, 49.05315808 ], [ 18.32072922, 49.05341294 ], [ 18.32093513, 49.05346221 ], [ 18.32155897, 49.05353528 ], [ 18.3218198, 49.05347662 ], [ 18.32201972, 49.05335723 ], [ 18.32221509, 49.05330781 ], [ 18.32224718, 49.05329968 ], [ 18.32241388, 49.05327536 ], [ 18.32257358, 49.05320453 ], [ 18.32320806, 49.05285273 ], [ 18.32339928, 49.05273682 ], [ 18.32358409, 49.0526248 ], [ 18.32368262, 49.05258086 ], [ 18.32379184, 49.05251595 ], [ 18.32385888, 49.05244796 ], [ 18.32409135, 49.05238771 ], [ 18.32411352, 49.052382 ], [ 18.32447671, 49.05228791 ], [ 18.32453213, 49.05227351 ], [ 18.32504396, 49.05217891 ], [ 18.32536458, 49.05220978 ], [ 18.32541258, 49.05221554 ], [ 18.32549113, 49.052225 ], [ 18.3257392, 49.05222229 ], [ 18.32602361, 49.05216178 ], [ 18.32623413, 49.05206853 ], [ 18.3264458, 49.05191026 ], [ 18.32678887, 49.05165367 ], [ 18.3272365, 49.0513319 ], [ 18.32749151, 49.05112633 ], [ 18.3278283, 49.05091804 ], [ 18.32778831, 49.05087699 ], [ 18.32753389, 49.05061535 ], [ 18.32744484, 49.05044222 ], [ 18.32744849, 49.05018854 ], [ 18.32763674, 49.05000324 ], [ 18.32766044, 49.04999943 ], [ 18.32781636, 49.04997459 ], [ 18.32809244, 49.04993048 ], [ 18.32801065, 49.04966218 ], [ 18.32835484, 49.04939573 ], [ 18.32847528, 49.04897197 ], [ 18.32886766, 49.04871281 ], [ 18.32930282, 49.04818935 ], [ 18.32963837, 49.04784 ], [ 18.33045103, 49.0471412 ], [ 18.33026669, 49.04698611 ], [ 18.33153109, 49.04602633 ], [ 18.3318527, 49.04571654 ], [ 18.3316199, 49.04549358 ], [ 18.33157803, 49.04546596 ], [ 18.33329538, 49.0443095 ], [ 18.33444297, 49.04373755 ], [ 18.33440598, 49.04311473 ], [ 18.33464075, 49.04246389 ], [ 18.33475602, 49.04212296 ], [ 18.33505725, 49.04164794 ], [ 18.33547853, 49.04123281 ], [ 18.33547457, 49.04094423 ], [ 18.33568976, 49.04064481 ], [ 18.33523127, 49.04026708 ], [ 18.33549108, 49.03929968 ], [ 18.33612482, 49.03812668 ], [ 18.33628951, 49.03775593 ], [ 18.33709588, 49.03678663 ], [ 18.33752901, 49.03605997 ], [ 18.33750955, 49.03577549 ], [ 18.33724551, 49.03541866 ], [ 18.33719628, 49.03518396 ], [ 18.33723648, 49.03496455 ], [ 18.33712315, 49.03463222 ], [ 18.33690969, 49.03405972 ], [ 18.3369171, 49.03367909 ], [ 18.33692121, 49.03346497 ], [ 18.33727041, 49.03330798 ], [ 18.33726395, 49.03329535 ], [ 18.33699685, 49.0327703 ], [ 18.33684849, 49.0324786 ], [ 18.33727417, 49.03226515 ], [ 18.33705648, 49.03175929 ], [ 18.33706322, 49.03154929 ], [ 18.33707044, 49.03131955 ], [ 18.33714723, 49.03112818 ], [ 18.33716648, 49.0310484 ], [ 18.33716611, 49.03086363 ], [ 18.33722304, 49.03048207 ], [ 18.33738709, 49.03007573 ], [ 18.33766467, 49.029666 ], [ 18.33771242, 49.02955153 ], [ 18.33775228, 49.02945565 ], [ 18.33778793, 49.02946333 ], [ 18.33847614, 49.02963289 ], [ 18.33966407, 49.02973366 ], [ 18.34118907, 49.02966915 ], [ 18.34253667, 49.02942683 ], [ 18.34349757, 49.02939392 ], [ 18.34415651, 49.02912752 ], [ 18.3448514, 49.02869977 ], [ 18.34536752, 49.02845516 ], [ 18.34634417, 49.0283852 ], [ 18.34755892, 49.02828883 ], [ 18.34804233, 49.02798914 ], [ 18.34847436, 49.02770462 ], [ 18.34875668, 49.0272935 ], [ 18.34908692, 49.0267876 ], [ 18.34933929, 49.0264064 ], [ 18.34930805, 49.02635176 ], [ 18.34915211, 49.02613322 ], [ 18.34913222, 49.02588238 ], [ 18.34920251, 49.02566231 ], [ 18.34930371, 49.02549829 ], [ 18.34930943, 49.02548904 ], [ 18.34931846, 49.02547438 ], [ 18.34954231, 49.02530224 ], [ 18.34993026, 49.02520252 ], [ 18.35008705, 49.02515108 ], [ 18.35007837, 49.02514067 ], [ 18.35081933, 49.02482611 ], [ 18.35153033, 49.02449589 ], [ 18.35189205, 49.02408595 ], [ 18.35210097, 49.02379221 ], [ 18.35226252, 49.02353482 ], [ 18.35232665, 49.02319436 ], [ 18.35237016, 49.02300411 ], [ 18.3524502, 49.0227381 ], [ 18.35280721, 49.02230705 ], [ 18.35305803, 49.02204164 ], [ 18.3532757, 49.02179378 ], [ 18.35365242, 49.02126204 ], [ 18.35407287, 49.0205275 ], [ 18.35435754, 49.01999539 ], [ 18.35449788, 49.01974908 ], [ 18.35480893, 49.01929742 ], [ 18.3550731, 49.01901768 ], [ 18.35509745, 49.01897888 ], [ 18.35512519, 49.01894469 ], [ 18.35529852, 49.01869895 ], [ 18.35550838, 49.01829236 ], [ 18.3557976, 49.01771728 ], [ 18.35603846, 49.01731602 ], [ 18.35604399, 49.0173157 ], [ 18.35614752, 49.01730984 ], [ 18.35618706, 49.01730762 ], [ 18.35621332, 49.01730611 ], [ 18.35629971, 49.01730127 ], [ 18.35649418, 49.0172744 ], [ 18.35718516, 49.01717904 ], [ 18.35768209, 49.0168955 ], [ 18.35787947, 49.01675995 ], [ 18.35809216, 49.01700674 ], [ 18.35932292, 49.01673807 ], [ 18.35942491, 49.01666325 ], [ 18.35986321, 49.01670341 ], [ 18.36015746, 49.01663382 ], [ 18.36048099, 49.01655738 ], [ 18.36102503, 49.0164287 ], [ 18.36172823, 49.01621812 ], [ 18.36241366, 49.01587603 ], [ 18.36253279, 49.01537972 ], [ 18.36325623, 49.01508108 ], [ 18.36378053, 49.01492874 ], [ 18.36433212, 49.01471248 ], [ 18.36472566, 49.01470058 ], [ 18.36538236, 49.01474946 ], [ 18.3659202, 49.01494135 ], [ 18.36643253, 49.01518749 ], [ 18.36700513, 49.01549945 ], [ 18.3685842, 49.01709098 ], [ 18.36939534, 49.01564861 ], [ 18.36967412, 49.01507229 ], [ 18.36984797, 49.01471312 ], [ 18.36990596, 49.0146623 ], [ 18.36996489, 49.01459789 ], [ 18.37099131, 49.01399156 ], [ 18.37100692, 49.01398006 ], [ 18.37107396, 49.01393254 ], [ 18.37111603, 49.01390311 ], [ 18.37210454, 49.01358372 ], [ 18.37280293, 49.01308564 ], [ 18.37363032, 49.01249546 ], [ 18.37401823, 49.01228511 ], [ 18.37511674, 49.0115954 ], [ 18.3769572, 49.01087563 ], [ 18.37838787, 49.01009873 ], [ 18.38034305, 49.00916868 ], [ 18.38111953, 49.00898839 ], [ 18.38213046, 49.00875362 ], [ 18.3859165, 49.00870319 ], [ 18.3894307, 49.00806627 ], [ 18.38988946, 49.00770908 ], [ 18.39120221, 49.00633158 ], [ 18.38995663, 49.00572942 ], [ 18.38942333, 49.00513774 ], [ 18.38827874, 49.00386773 ], [ 18.38675526, 49.00217722 ], [ 18.38658045, 49.0018325 ], [ 18.38635689, 49.00141234 ], [ 18.38593507, 49.00083017 ], [ 18.38556324, 49.00043569 ], [ 18.38520407, 49.00007405 ], [ 18.38699796, 48.99799412 ], [ 18.38696613, 48.99798134 ], [ 18.38684586, 48.99796302 ], [ 18.38679428, 48.99794066 ], [ 18.38717849, 48.99761129 ], [ 18.38760588, 48.99680114 ], [ 18.38753236, 48.9964912 ], [ 18.38785437, 48.99647759 ], [ 18.3882141, 48.99610905 ], [ 18.38820586, 48.99558641 ], [ 18.38875909, 48.99531418 ], [ 18.38864584, 48.9952412 ], [ 18.38847898, 48.995135 ], [ 18.38843474, 48.99510565 ], [ 18.38725786, 48.99423235 ], [ 18.38634486, 48.99318518 ], [ 18.38550699, 48.99273141 ], [ 18.38548044, 48.99214331 ], [ 18.38506117, 48.99178238 ], [ 18.38459634, 48.99164391 ], [ 18.38413494, 48.99135166 ], [ 18.38411987, 48.9910086 ], [ 18.38308182, 48.98999956 ], [ 18.38287698, 48.98945777 ], [ 18.38278632, 48.98921113 ], [ 18.3814844, 48.98831384 ], [ 18.37953779, 48.98758048 ], [ 18.37942065, 48.9875209 ], [ 18.37813036, 48.98683052 ], [ 18.37535986, 48.99031603 ], [ 18.37526694, 48.99043288 ], [ 18.37466406, 48.99119135 ], [ 18.37289526, 48.99341617 ], [ 18.37179001, 48.99476035 ], [ 18.37057185, 48.99624173 ], [ 18.36932986, 48.9977521 ], [ 18.36821857, 48.99961901 ], [ 18.36790091, 49.00010148 ], [ 18.36782546, 49.00015377 ], [ 18.3669864, 49.00086755 ], [ 18.36629405, 49.00160294 ], [ 18.3647446, 49.00350451 ], [ 18.36378064, 49.00406365 ], [ 18.36328577, 49.00452197 ], [ 18.36317487, 49.00455964 ], [ 18.36306825, 49.00457689 ], [ 18.36296736, 49.00461043 ], [ 18.36282085, 49.00468385 ], [ 18.36276361, 49.00469907 ], [ 18.36324565, 49.00531566 ], [ 18.36327186, 49.00533372 ], [ 18.36376781, 49.00567636 ], [ 18.36384372, 49.00572283 ], [ 18.36431128, 49.00600901 ], [ 18.36453823, 49.00611625 ], [ 18.3647247, 49.00623206 ], [ 18.36384357, 49.00671324 ], [ 18.36364734, 49.00679029 ], [ 18.3633708, 49.00698064 ], [ 18.36332102, 49.00699862 ], [ 18.3628436, 49.00712641 ], [ 18.3625254, 49.0071556 ], [ 18.36093216, 49.00677078 ], [ 18.35962643, 49.00654711 ], [ 18.35876954, 49.00628124 ], [ 18.35597796, 49.00541521 ], [ 18.35590764, 49.0055935 ], [ 18.35504308, 49.0062093 ], [ 18.3545345, 49.00608081 ], [ 18.35386474, 49.00660829 ], [ 18.35363336, 49.00766882 ], [ 18.3541233, 49.00784726 ], [ 18.3543031, 49.00787427 ], [ 18.35494803, 49.00797112 ], [ 18.35508355, 49.00799151 ], [ 18.35606858, 49.00810219 ], [ 18.35693226, 49.00849319 ], [ 18.35669954, 49.00929869 ], [ 18.35657895, 49.0097156 ], [ 18.35629774, 49.00980567 ], [ 18.35624057, 49.00991918 ], [ 18.35579133, 49.01019716 ], [ 18.35510413, 49.01005337 ], [ 18.35337838, 49.00985943 ], [ 18.35347775, 49.01010045 ], [ 18.35329902, 49.01013415 ], [ 18.35326956, 49.01019026 ], [ 18.35325051, 49.0102262 ], [ 18.35279398, 49.01018743 ], [ 18.35266599, 49.01016395 ], [ 18.3523265, 49.01010166 ], [ 18.35205186, 49.01014498 ], [ 18.35197858, 49.01012067 ], [ 18.35176046, 49.01004819 ], [ 18.3514945, 49.00982133 ], [ 18.35132851, 49.00967984 ], [ 18.3509564, 49.00931555 ], [ 18.35070854, 49.00911109 ], [ 18.34994104, 49.00940989 ], [ 18.34914655, 49.00991016 ], [ 18.34875993, 49.01040091 ], [ 18.34785688, 49.01061758 ], [ 18.34778584, 49.01064502 ], [ 18.34746312, 49.01076949 ], [ 18.34721861, 49.01088533 ], [ 18.346263, 49.01091936 ], [ 18.34599639, 49.01137511 ], [ 18.34634465, 49.01190893 ], [ 18.34761762, 49.01236466 ], [ 18.34766606, 49.01255798 ], [ 18.34786785, 49.01272178 ], [ 18.34909113, 49.01270198 ], [ 18.349625, 49.01369326 ], [ 18.35015104, 49.01466984 ], [ 18.34945184, 49.01472066 ], [ 18.34887299, 49.01469905 ], [ 18.34888473, 49.01477497 ], [ 18.3475938, 49.01461808 ], [ 18.34714323, 49.01473152 ], [ 18.34671972, 49.01482661 ], [ 18.34644007, 49.01425638 ], [ 18.3453237, 49.01456661 ], [ 18.34564171, 49.01487175 ], [ 18.34569646, 49.0149694 ], [ 18.34577522, 49.01510954 ], [ 18.34611165, 49.01570858 ], [ 18.3460164, 49.01597744 ], [ 18.34415733, 49.01587294 ], [ 18.34278037, 49.01579548 ], [ 18.34111905, 49.01561869 ], [ 18.34067562, 49.01552393 ], [ 18.33949942, 49.01527246 ], [ 18.33729418, 49.01523052 ], [ 18.33555847, 49.01476149 ], [ 18.33538019, 49.01489861 ], [ 18.33103731, 49.01823828 ], [ 18.32728843, 49.02112077 ], [ 18.32661138, 49.0216413 ], [ 18.3260343, 49.02204153 ], [ 18.32392797, 49.0235023 ], [ 18.32359912, 49.02377339 ], [ 18.32356963, 49.02379764 ], [ 18.32335833, 49.0239718 ], [ 18.32036265, 49.02654087 ], [ 18.32025533, 49.02663286 ], [ 18.31958179, 49.0269337 ], [ 18.31818158, 49.02778906 ], [ 18.31686422, 49.02857036 ], [ 18.31592519, 49.0288754 ], [ 18.31588507, 49.0288884 ], [ 18.31554502, 49.02899882 ], [ 18.31544371, 49.02902644 ], [ 18.31507442, 49.0292669 ], [ 18.31447694, 49.02947405 ], [ 18.31415592, 49.02953626 ], [ 18.31385693, 49.02960629 ], [ 18.31357985, 49.02986167 ], [ 18.31312494, 49.03047052 ], [ 18.31262537, 49.03110502 ], [ 18.31224341, 49.03170045 ], [ 18.31197848, 49.03192348 ], [ 18.3118266, 49.03245846 ], [ 18.31162965, 49.0328512 ], [ 18.31120726, 49.03336999 ], [ 18.31045566, 49.03412236 ], [ 18.31005053, 49.03430429 ], [ 18.30958735, 49.03426653 ], [ 18.30881467, 49.03509208 ], [ 18.30807005, 49.03615026 ], [ 18.30679189, 49.03710218 ], [ 18.30661634, 49.03723283 ], [ 18.30652528, 49.03730073 ], [ 18.30503138, 49.03841524 ], [ 18.30415004, 49.03909981 ], [ 18.30356582, 49.03946859 ], [ 18.30304291, 49.03979867 ], [ 18.30073521, 49.04125527 ], [ 18.30057013, 49.04134536 ], [ 18.30051286, 49.04137607 ], [ 18.30045132, 49.0414069 ], [ 18.30057029, 49.04154871 ], [ 18.30078923, 49.04180951 ], [ 18.30101929, 49.04197011 ], [ 18.30134887, 49.04229958 ], [ 18.30158801, 49.04257189 ], [ 18.3022198, 49.04313859 ], [ 18.30249265, 49.04334293 ], [ 18.30293966, 49.04372287 ], [ 18.30330168, 49.04408918 ], [ 18.30369881, 49.04443996 ], [ 18.30453663, 49.04534513 ], [ 18.30449014, 49.04535209 ], [ 18.30445783, 49.04536724 ], [ 18.30437541, 49.04539708 ], [ 18.30369749, 49.04568866 ], [ 18.30290671, 49.04602877 ], [ 18.30270935, 49.04611361 ], [ 18.30267764, 49.04612726 ], [ 18.3025834, 49.04616772 ], [ 18.30253322, 49.04618927 ], [ 18.30245075, 49.04622479 ], [ 18.30210352, 49.04634597 ], [ 18.30184676, 49.04643559 ], [ 18.30166261, 49.04653282 ], [ 18.30159502, 49.04656052 ], [ 18.30075023, 49.04690705 ], [ 18.30068753, 49.04691832 ], [ 18.30062363, 49.04695137 ], [ 18.30058327, 49.04697555 ], [ 18.29758545, 49.04793262 ], [ 18.29724175, 49.04804234 ], [ 18.2969356, 49.04815363 ], [ 18.29658622, 49.04828063 ], [ 18.29638701, 49.04835308 ], [ 18.29610119, 49.04845694 ], [ 18.29613895, 49.04849914 ], [ 18.29620413, 49.04867646 ], [ 18.29642512, 49.04930202 ], [ 18.29648894, 49.04940236 ], [ 18.29651631, 49.04962332 ], [ 18.29651018, 49.04966828 ], [ 18.29642876, 49.04969457 ], [ 18.29611887, 49.04978389 ], [ 18.29600416, 49.04981697 ], [ 18.29464458, 49.05020903 ], [ 18.29366324, 49.05049196 ], [ 18.29246991, 49.04872611 ], [ 18.29013771, 49.04968367 ], [ 18.29008737, 49.04974645 ], [ 18.2900536, 49.0497885 ], [ 18.29001491, 49.04983669 ], [ 18.28955402, 49.05041083 ], [ 18.28922249, 49.05082385 ], [ 18.28905475, 49.05103282 ], [ 18.28893521, 49.05118178 ], [ 18.28715051, 49.05188538 ], [ 18.28476429, 49.0525637 ], [ 18.28465702, 49.05260169 ], [ 18.28403388, 49.05246781 ], [ 18.28468507, 49.05272765 ], [ 18.28477422, 49.05276327 ], [ 18.28524698, 49.05295194 ], [ 18.28630103, 49.05337222 ], [ 18.28754488, 49.05403452 ], [ 18.28755403, 49.0540465 ], [ 18.2876646, 49.05418424 ], [ 18.28774208, 49.05428085 ], [ 18.2878876, 49.05446225 ], [ 18.28854116, 49.05527684 ], [ 18.28878392, 49.05557501 ], [ 18.28913132, 49.05600173 ], [ 18.28930016, 49.0562118 ], [ 18.28942189, 49.05636722 ], [ 18.28957037, 49.05654807 ], [ 18.28987424, 49.05692956 ], [ 18.29010175, 49.05721531 ], [ 18.29027655, 49.05757771 ], [ 18.29029787, 49.05762169 ], [ 18.29036425, 49.05775928 ], [ 18.29053469, 49.05812034 ], [ 18.29095188, 49.05903468 ], [ 18.29132067, 49.05981993 ], [ 18.291441, 49.06009784 ], [ 18.29147575, 49.06017787 ], [ 18.29174311, 49.0607953 ], [ 18.29225299, 49.06066219 ] ] ] ] } }
]
}
