{
"type": "FeatureCollection",
"name": "gis",
"crs": { "type": "name", "properties": { "name": "urn:ogc:def:crs:OGC:1.3:CRS84" } },
"features": [
{ "type": "Feature", "properties": { "@featureType": "CadastralZoning", "beginLifespanVersion": { "@nilReason": "http://inspire.ec.europa.eu/codelist/VoidReasonValue/Unpopulated", "@nil": "true" }, "endLifespanVersion": { "@nilReason": "http://inspire.ec.europa.eu/codelist/VoidReasonValue/Unpopulated", "@nil": "true" }, "estimatedAccuracy": { "value": -1, "@uom": "m" }, "inspireId": { "@dataType": "Identifier", "localId": "861871", "namespace": "SK.ESKN.CP", "versionId": "20260703T04:07:40" }, "label": "Šumiac", "level": { "@href": "http://inspire.ec.europa.eu/codelist/CadastralZoningLevelValue/3rdOrder" }, "levelName": { "value": "Katastrálne územie", "@locale": "sk" }, "name_1": { "@dataType": "name", "GeographicalName": { "@dataType": "GeographicalName", "language": "SLK", "nativeness": { "@href": "http://inspire.ec.europa.eu/codelist/NativenessValue/endonym", "@title": "endonym" }, "nameStatus": { "@href": "http://inspire.ec.europa.eu/codelist/NameStatusValue/official", "@title": "official" }, "sourceOfName": { "@nilReason": "http://inspire.ec.europa.eu/codelist/VoidReasonValue/Unpopulated", "@nil": "true" }, "pronunciation": { "@dataType": "pronunciation", "@nilReason": "http://inspire.ec.europa.eu/codelist/VoidReasonValue/Unpopulated", "@nil": "true" }, "spelling": { "@dataType": "SpellingOfName", "text": "Šumiac", "script": "LATN" } } }, "nationalCadastalZoningReference": "861871", "validFrom": "2026-06-30T16:00:00Z", "validTo": { "@nilReason": "http://inspire.ec.europa.eu/codelist/VoidReasonValue/Unpopulated", "@nil": "true" }, "place_id": 189643122, "osm_type": "relation", "osm_id": 18402719, "place_rank": 18, "category": "natural", "type": "mountain_range", "importance": 0.16005402838178071, "addresstype": "mountain_range", "name_2": "Kráľova hoľa", "display_name": "Kráľova hoľa, okres Poprad, Prešovský kraj, Slovensko" }, "geometry": { "type": "Polygon", "coordinates": [ [ [ 20.0915939, 48.89638439 ], [ 20.09294226, 48.8960952 ], [ 20.09395548, 48.89587926 ], [ 20.09520383, 48.89561145 ], [ 20.09648265, 48.89554869 ], [ 20.09752771, 48.89549845 ], [ 20.09849243, 48.89545087 ], [ 20.09941706, 48.89540543 ], [ 20.10057108, 48.89537781 ], [ 20.10180246, 48.89532829 ], [ 20.10286813, 48.89528542 ], [ 20.10390936, 48.89527434 ], [ 20.10428422, 48.89527268 ], [ 20.1050443, 48.8951849 ], [ 20.10603536, 48.89507048 ], [ 20.10646444, 48.89502381 ], [ 20.10702884, 48.89495787 ], [ 20.10731238, 48.89492734 ], [ 20.10753807, 48.89489734 ], [ 20.10813943, 48.89483929 ], [ 20.1086441, 48.89478073 ], [ 20.10910863, 48.89472756 ], [ 20.10989942, 48.89463857 ], [ 20.11115733, 48.89449785 ], [ 20.11202603, 48.89439976 ], [ 20.11272583, 48.89429146 ], [ 20.11312212, 48.89422856 ], [ 20.11399037, 48.89410881 ], [ 20.11512438, 48.89394697 ], [ 20.11623084, 48.89379176 ], [ 20.11724938, 48.89364719 ], [ 20.1182078, 48.89351287 ], [ 20.11932919, 48.89335553 ], [ 20.11965285, 48.89330786 ], [ 20.12012743, 48.8932638 ], [ 20.1212374, 48.89316417 ], [ 20.122443, 48.89306185 ], [ 20.1236358, 48.8929561 ], [ 20.12440931, 48.89288902 ], [ 20.12514767, 48.89282383 ], [ 20.12613447, 48.89273629 ], [ 20.12697329, 48.89266336 ], [ 20.12781209, 48.89259205 ], [ 20.12864573, 48.89251891 ], [ 20.12968032, 48.89242714 ], [ 20.12998159, 48.8924025 ], [ 20.13088486, 48.89229036 ], [ 20.13189612, 48.8921688 ], [ 20.13276429, 48.89206512 ], [ 20.13335083, 48.89199824 ], [ 20.13348378, 48.89197912 ], [ 20.13416624, 48.89189468 ], [ 20.13472596, 48.89182373 ], [ 20.13495659, 48.89179451 ], [ 20.13592505, 48.8916746 ], [ 20.13658507, 48.89159176 ], [ 20.13752392, 48.89149334 ], [ 20.13888962, 48.89134498 ], [ 20.14019261, 48.89120515 ], [ 20.14151329, 48.89106322 ], [ 20.14276128, 48.89092996 ], [ 20.14354221, 48.89084692 ], [ 20.14471495, 48.89072051 ], [ 20.14561638, 48.89062287 ], [ 20.14631693, 48.89054179 ], [ 20.1476153, 48.89039385 ], [ 20.1485659, 48.890286 ], [ 20.14892369, 48.8902454 ], [ 20.1497625, 48.89014942 ], [ 20.15063157, 48.89005133 ], [ 20.15186223, 48.88991134 ], [ 20.15335675, 48.88973854 ], [ 20.15425857, 48.88963625 ], [ 20.15526843, 48.8895211 ], [ 20.15610002, 48.88942767 ], [ 20.15692669, 48.88933413 ], [ 20.15806721, 48.88920215 ], [ 20.15779611, 48.88901662 ], [ 20.15718696, 48.88857339 ], [ 20.15652895, 48.88809439 ], [ 20.15586347, 48.88761203 ], [ 20.1552902, 48.88719483 ], [ 20.15508291, 48.88704484 ], [ 20.15497954, 48.88697355 ], [ 20.15467293, 48.88675567 ], [ 20.15396171, 48.88624839 ], [ 20.15343353, 48.8858712 ], [ 20.15311027, 48.88564156 ], [ 20.15293326, 48.88551585 ], [ 20.15273535, 48.88537533 ], [ 20.15196225, 48.88482265 ], [ 20.1512562, 48.88432051 ], [ 20.1505013, 48.88378261 ], [ 20.1497851, 48.88327248 ], [ 20.14913055, 48.8828062 ], [ 20.1484452, 48.88231722 ], [ 20.14784743, 48.88188998 ], [ 20.14779615, 48.88186259 ], [ 20.14797615, 48.88166155 ], [ 20.1484699, 48.8811136 ], [ 20.14891495, 48.88061927 ], [ 20.14936257, 48.88012657 ], [ 20.14978089, 48.87966404 ], [ 20.15031335, 48.87907242 ], [ 20.15078517, 48.87855123 ], [ 20.15125438, 48.87803003 ], [ 20.15159729, 48.8776496 ], [ 20.15200586, 48.87720037 ], [ 20.15240213, 48.87676289 ], [ 20.15277159, 48.87635226 ], [ 20.15329664, 48.87576907 ], [ 20.15351297, 48.8755293 ], [ 20.15400958, 48.87507893 ], [ 20.15455786, 48.87458812 ], [ 20.15504474, 48.87415114 ], [ 20.15555857, 48.8736856 ], [ 20.15562582, 48.87362461 ], [ 20.15574199, 48.87351919 ], [ 20.15596111, 48.87331981 ], [ 20.15605247, 48.87323448 ], [ 20.15620571, 48.87310047 ], [ 20.15676135, 48.87259174 ], [ 20.1571194, 48.87226515 ], [ 20.15727018, 48.87212816 ], [ 20.15778635, 48.87165459 ], [ 20.15808281, 48.87138679 ], [ 20.1579911, 48.87082998 ], [ 20.1579114, 48.87035889 ], [ 20.1578768, 48.87015594 ], [ 20.15776209, 48.86945378 ], [ 20.15764485, 48.86875989 ], [ 20.15753636, 48.86811897 ], [ 20.15744819, 48.86759338 ], [ 20.157422, 48.86743682 ], [ 20.15734195, 48.86695778 ], [ 20.15724383, 48.86638783 ], [ 20.15723646, 48.866345 ], [ 20.15714889, 48.86586611 ], [ 20.15697112, 48.86553693 ], [ 20.15656592, 48.86477341 ], [ 20.15620796, 48.86411026 ], [ 20.15585794, 48.86346032 ], [ 20.15561684, 48.86297469 ], [ 20.15527396, 48.86230981 ], [ 20.15497066, 48.86173211 ], [ 20.15484418, 48.86131986 ], [ 20.15495851, 48.86087884 ], [ 20.15509873, 48.86034994 ], [ 20.15519663, 48.85996529 ], [ 20.1552272, 48.85986084 ], [ 20.155276, 48.85968054 ], [ 20.15532914, 48.85952844 ], [ 20.1553482, 48.85945244 ], [ 20.15546867, 48.85906879 ], [ 20.15559381, 48.85866867 ], [ 20.15571462, 48.85831972 ], [ 20.15590069, 48.85778213 ], [ 20.15603441, 48.85746767 ], [ 20.15624849, 48.85695788 ], [ 20.1564235, 48.8563656 ], [ 20.15645663, 48.8562217 ], [ 20.15647514, 48.85610433 ], [ 20.15652335, 48.85577849 ], [ 20.15655239, 48.85552387 ], [ 20.15659442, 48.85511868 ], [ 20.15665787, 48.85481094 ], [ 20.15677044, 48.85425155 ], [ 20.15681794, 48.85406291 ], [ 20.15692956, 48.85361097 ], [ 20.15698628, 48.85336269 ], [ 20.15705389, 48.85317216 ], [ 20.15715251, 48.85287241 ], [ 20.15720353, 48.8525794 ], [ 20.15719583, 48.85239574 ], [ 20.15718165, 48.85210793 ], [ 20.157157540656414, 48.851512060554803 ], [ 20.1543029, 48.851397 ], [ 20.152593, 48.851257 ], [ 20.1508545, 48.850263 ], [ 20.1501341, 48.8487417 ], [ 20.147717, 48.8469386 ], [ 20.1448296, 48.8444058 ], [ 20.1416905, 48.8434262 ], [ 20.1377001, 48.8423409 ], [ 20.1344955, 48.8420691 ], [ 20.132659, 48.8421368 ], [ 20.1306757, 48.8426249 ], [ 20.1287318, 48.8426882 ], [ 20.1232617, 48.8424663 ], [ 20.1209169, 48.8433659 ], [ 20.1163723, 48.8436076 ], [ 20.1138723, 48.8438613 ], [ 20.1119416, 48.8437827 ], [ 20.1102586, 48.8433589 ], [ 20.1087834, 48.8430146 ], [ 20.1043859, 48.8428354 ], [ 20.1038297, 48.8430259 ], [ 20.1003113, 48.8438063 ], [ 20.0997762, 48.8449215 ], [ 20.0987048, 48.8460148 ], [ 20.097599, 48.846325 ], [ 20.0960774, 48.8464761 ], [ 20.094569, 48.8464855 ], [ 20.0924978, 48.8467562 ], [ 20.0912648, 48.8472744 ], [ 20.0886581, 48.8486602 ], [ 20.0874316, 48.8491075 ], [ 20.0859299, 48.849046 ], [ 20.0836165, 48.8484539 ], [ 20.0809282, 48.8484148 ], [ 20.0800375, 48.8498707 ], [ 20.0784824, 48.8503756 ], [ 20.0682918, 48.8499575 ], [ 20.0671657, 48.8504797 ], [ 20.0654494, 48.8504092 ], [ 20.0626404, 48.850507 ], [ 20.0614337, 48.8507416 ], [ 20.0603545, 48.8519053 ], [ 20.0586114, 48.8521179 ], [ 20.0515315, 48.8518263 ], [ 20.0478642, 48.8518883 ], [ 20.046597, 48.8527599 ], [ 20.0457053, 48.8530785 ], [ 20.045644306311647, 48.853068550489553 ], [ 20.04565748, 48.85308649 ], [ 20.04558987, 48.85314434 ], [ 20.04579492, 48.85353793 ], [ 20.04569534, 48.85367943 ], [ 20.04579927, 48.85393269 ], [ 20.04599047, 48.85407484 ], [ 20.04595672, 48.85412697 ], [ 20.04608407, 48.85417638 ], [ 20.04610709, 48.85424185 ], [ 20.04622876, 48.85428066 ], [ 20.04629402, 48.85437148 ], [ 20.04623629, 48.85442587 ], [ 20.04635523, 48.85451079 ], [ 20.04669931, 48.85489849 ], [ 20.04670925, 48.85500676 ], [ 20.04697124, 48.85525357 ], [ 20.04708753, 48.85526423 ], [ 20.04722953, 48.85531046 ], [ 20.04724933, 48.85539832 ], [ 20.04744645, 48.85543204 ], [ 20.04779383, 48.85578509 ], [ 20.04790539, 48.85579375 ], [ 20.04797934, 48.85584186 ], [ 20.04802543, 48.85585124 ], [ 20.0486959, 48.85598812 ], [ 20.04896822, 48.85595169 ], [ 20.04922014, 48.85598498 ], [ 20.04930171, 48.85591238 ], [ 20.04944732, 48.85591767 ], [ 20.04960338, 48.85589915 ], [ 20.05006863, 48.85592925 ], [ 20.05041172, 48.85586933 ], [ 20.05084252, 48.85587242 ], [ 20.0510592, 48.85593902 ], [ 20.05151259, 48.85601071 ], [ 20.05228768, 48.85631317 ], [ 20.0523042, 48.8563262 ], [ 20.05260478, 48.85656386 ], [ 20.05299249, 48.85673221 ], [ 20.05314073, 48.8568424 ], [ 20.05330568, 48.85703004 ], [ 20.05341616, 48.85708614 ], [ 20.05342673, 48.85718083 ], [ 20.05374223, 48.85743982 ], [ 20.05416575, 48.85803207 ], [ 20.05465301, 48.85852377 ], [ 20.05502501, 48.85881645 ], [ 20.05536349, 48.8590926 ], [ 20.05572936, 48.85932321 ], [ 20.05667703, 48.85986793 ], [ 20.05709362, 48.86014136 ], [ 20.05733341, 48.86025269 ], [ 20.05738939, 48.8602787 ], [ 20.05748801, 48.86040846 ], [ 20.05796812, 48.86069621 ], [ 20.05817349, 48.8608755 ], [ 20.0582076, 48.86109524 ], [ 20.05825955, 48.86112927 ], [ 20.05831408, 48.86116495 ], [ 20.05841514, 48.86130787 ], [ 20.05850923, 48.86135419 ], [ 20.05868733, 48.86155173 ], [ 20.05900059, 48.8617325 ], [ 20.05922689, 48.86208476 ], [ 20.05946617, 48.86225644 ], [ 20.06013695, 48.86273783 ], [ 20.06031319, 48.86286429 ], [ 20.06051505, 48.86291756 ], [ 20.06078342, 48.86290014 ], [ 20.06097076, 48.86291497 ], [ 20.06112592, 48.8629018 ], [ 20.06139007, 48.86288564 ], [ 20.06150228, 48.86284133 ], [ 20.06181837, 48.86271197 ], [ 20.06201646, 48.86265056 ], [ 20.06216915, 48.86248141 ], [ 20.06230607, 48.86240982 ], [ 20.06234995, 48.86237324 ], [ 20.06237767, 48.86235014 ], [ 20.06269755, 48.86218642 ], [ 20.06295468, 48.86202769 ], [ 20.06322144, 48.86195784 ], [ 20.06343195, 48.86188487 ], [ 20.06363844, 48.86187336 ], [ 20.06369679, 48.86183827 ], [ 20.06381927, 48.86183701 ], [ 20.06417579, 48.86179274 ], [ 20.06441395, 48.86182182 ], [ 20.06458807, 48.86189548 ], [ 20.0650178, 48.86196388 ], [ 20.06517266, 48.8620189 ], [ 20.06527136, 48.86212199 ], [ 20.0655617, 48.8622116 ], [ 20.06575902, 48.86234198 ], [ 20.066173, 48.86239207 ], [ 20.06640066, 48.86249045 ], [ 20.06730856, 48.86255409 ], [ 20.0674738, 48.86259467 ], [ 20.06771471, 48.86256276 ], [ 20.06806195, 48.86252567 ], [ 20.06827609, 48.86254159 ], [ 20.06854731, 48.86250254 ], [ 20.06896177, 48.86249263 ], [ 20.06923713, 48.86254143 ], [ 20.06953411, 48.86259409 ], [ 20.06980773, 48.86299413 ], [ 20.06921252, 48.86388181 ], [ 20.0691232, 48.86409449 ], [ 20.06897, 48.86412603 ], [ 20.06885577, 48.86426704 ], [ 20.06869259, 48.86431449 ], [ 20.06798777, 48.86516207 ], [ 20.06820349, 48.86748357 ], [ 20.07027207, 48.8698582 ], [ 20.07159891, 48.87138104 ], [ 20.07193858, 48.8717709 ], [ 20.07222781, 48.87370488 ], [ 20.07225165, 48.87380831 ], [ 20.07331334, 48.87843262 ], [ 20.07380992, 48.88059541 ], [ 20.07620473, 48.88280911 ], [ 20.08156537, 48.88776366 ], [ 20.08642011, 48.88907229 ], [ 20.09005544, 48.89672139 ], [ 20.09049067, 48.89661989 ], [ 20.0915939, 48.89638439 ] ] ] } }
]
}
