{
"type": "FeatureCollection",
"name": "gis",
"crs": { "type": "name", "properties": { "name": "urn:ogc:def:crs:OGC:1.3:CRS84" } },
"features": [
{ "type": "Feature", "properties": { "@featureType": "CadastralZoning", "beginLifespanVersion": { "@nilReason": "http://inspire.ec.europa.eu/codelist/VoidReasonValue/Unpopulated", "@nil": "true" }, "endLifespanVersion": { "@nilReason": "http://inspire.ec.europa.eu/codelist/VoidReasonValue/Unpopulated", "@nil": "true" }, "estimatedAccuracy": { "value": -1, "@uom": "m" }, "inspireId": { "@dataType": "Identifier", "localId": "819298", "namespace": "SK.ESKN.CP", "versionId": "20260703T04:07:40" }, "label": "Hriňová", "level": { "@href": "http://inspire.ec.europa.eu/codelist/CadastralZoningLevelValue/3rdOrder" }, "levelName": { "value": "Katastrálne územie", "@locale": "sk" }, "name": { "@dataType": "name", "GeographicalName": { "@dataType": "GeographicalName", "language": "SLK", "nativeness": { "@href": "http://inspire.ec.europa.eu/codelist/NativenessValue/endonym", "@title": "endonym" }, "nameStatus": { "@href": "http://inspire.ec.europa.eu/codelist/NameStatusValue/official", "@title": "official" }, "sourceOfName": { "@nilReason": "http://inspire.ec.europa.eu/codelist/VoidReasonValue/Unpopulated", "@nil": "true" }, "pronunciation": { "@dataType": "pronunciation", "@nilReason": "http://inspire.ec.europa.eu/codelist/VoidReasonValue/Unpopulated", "@nil": "true" }, "spelling": { "@dataType": "SpellingOfName", "text": "Hriňová", "script": "LATN" } } }, "nationalCadastalZoningReference": "819298", "validFrom": "2026-06-30T16:00:00Z", "validTo": { "@nilReason": "http://inspire.ec.europa.eu/codelist/VoidReasonValue/Unpopulated", "@nil": "true" } }, "geometry": { "type": "MultiPolygon", "coordinates": [ [ [ [ 19.52302431, 48.66094731 ], [ 19.52384588, 48.66102126 ], [ 19.52540651, 48.66090318 ], [ 19.5263391, 48.66085393 ], [ 19.52737159, 48.66081098 ], [ 19.52854286, 48.66068127 ], [ 19.52890641, 48.66066895 ], [ 19.5305101, 48.66075283 ], [ 19.53117391, 48.66079324 ], [ 19.53221562, 48.66114058 ], [ 19.53313186, 48.66138018 ], [ 19.53388006, 48.66142048 ], [ 19.53448936, 48.66143178 ], [ 19.53605568, 48.66146473 ], [ 19.53736461, 48.66146548 ], [ 19.53880319, 48.66148496 ], [ 19.53990958, 48.66098489 ], [ 19.54016803, 48.66079841 ], [ 19.54061091, 48.6603082 ], [ 19.54123726, 48.65956758 ], [ 19.54195574, 48.65910668 ], [ 19.54304965, 48.65887123 ], [ 19.54386575, 48.6586637 ], [ 19.54450089, 48.65853667 ], [ 19.54565017, 48.65843914 ], [ 19.54651184, 48.65831247 ], [ 19.54691525, 48.65827253 ], [ 19.54826854, 48.65814465 ], [ 19.55055918, 48.65791958 ], [ 19.55107717, 48.6577922 ], [ 19.5518917, 48.65772842 ], [ 19.55225797, 48.65768054 ], [ 19.55312293, 48.65762637 ], [ 19.55395929, 48.6573739 ], [ 19.55518829, 48.65640251 ], [ 19.55609444, 48.65554129 ], [ 19.55630808, 48.65524212 ], [ 19.55639006, 48.65556012 ], [ 19.55674564, 48.65598043 ], [ 19.55705904, 48.65614206 ], [ 19.55797372, 48.65661352 ], [ 19.55834008, 48.65680245 ], [ 19.56020779, 48.6578926 ], [ 19.56141306, 48.65819143 ], [ 19.56256056, 48.65864671 ], [ 19.56364352, 48.65887105 ], [ 19.56438752, 48.65879315 ], [ 19.56567205, 48.65858936 ], [ 19.56651862, 48.65839785 ], [ 19.56687602, 48.65777023 ], [ 19.56783693, 48.65708208 ], [ 19.56840609, 48.65608739 ], [ 19.56897665, 48.65556217 ], [ 19.5698846, 48.65507387 ], [ 19.57217139, 48.65458191 ], [ 19.57358111, 48.65460452 ], [ 19.57825406, 48.65434631 ], [ 19.5810621, 48.65354076 ], [ 19.58350776, 48.6530368 ], [ 19.584485, 48.65326993 ], [ 19.58500649, 48.65329644 ], [ 19.58640962, 48.65336782 ], [ 19.58688843, 48.65329007 ], [ 19.58776519, 48.65283025 ], [ 19.58911086, 48.65250107 ], [ 19.5902703, 48.65215558 ], [ 19.59029697, 48.65214769 ], [ 19.59191458, 48.6528613 ], [ 19.59227973, 48.65307729 ], [ 19.59311785, 48.65357311 ], [ 19.59430036, 48.65290717 ], [ 19.59590025, 48.65232281 ], [ 19.59663777, 48.65205339 ], [ 19.59862822, 48.65160589 ], [ 19.59911408, 48.65144638 ], [ 19.59974863, 48.65128567 ], [ 19.60165317, 48.65064718 ], [ 19.60272482, 48.64997126 ], [ 19.60347778, 48.64941575 ], [ 19.60412827, 48.64812605 ], [ 19.60365438, 48.64765474 ], [ 19.60355556, 48.64755642 ], [ 19.60373646, 48.64749873 ], [ 19.60448527, 48.6472597 ], [ 19.60601116, 48.64704029 ], [ 19.60663196, 48.64653078 ], [ 19.60757337, 48.64580638 ], [ 19.60799749, 48.64563791 ], [ 19.60806076, 48.64561274 ], [ 19.60897779, 48.64524843 ], [ 19.61009501, 48.6452012 ], [ 19.61324122, 48.6454111 ], [ 19.6141388, 48.64528539 ], [ 19.61468432, 48.64514519 ], [ 19.61577815, 48.64523774 ], [ 19.61641833, 48.64554163 ], [ 19.61718122, 48.64582167 ], [ 19.61799507, 48.6459596 ], [ 19.61831101, 48.64601318 ], [ 19.61894207, 48.64603711 ], [ 19.61926965, 48.6458572 ], [ 19.62077143, 48.64503254 ], [ 19.62086801, 48.64498362 ], [ 19.62093887, 48.64492021 ], [ 19.62109437, 48.6447812 ], [ 19.6211552, 48.6447268 ], [ 19.62140373, 48.64447679 ], [ 19.62206271, 48.64374096 ], [ 19.62271536, 48.64328068 ], [ 19.6231447, 48.64309382 ], [ 19.62352035, 48.64293032 ], [ 19.6259351, 48.64296072 ], [ 19.6260766, 48.64290076 ], [ 19.62614358, 48.64287241 ], [ 19.62691447, 48.6425981 ], [ 19.62747212, 48.64239475 ], [ 19.62756882, 48.64235909 ], [ 19.62790153, 48.64225322 ], [ 19.62830644, 48.64215159 ], [ 19.62862872, 48.64208897 ], [ 19.62897568, 48.64204161 ], [ 19.62952413, 48.64185748 ], [ 19.6303407, 48.64187709 ], [ 19.63209283, 48.64236335 ], [ 19.63288529, 48.64240457 ], [ 19.63376792, 48.64182687 ], [ 19.63460773, 48.64157887 ], [ 19.63800464, 48.6426333 ], [ 19.63808585, 48.6426585 ], [ 19.63873068, 48.64271881 ], [ 19.64110113, 48.64241382 ], [ 19.64138096, 48.64240559 ], [ 19.64267651, 48.64256169 ], [ 19.6432137, 48.64264498 ], [ 19.64421477, 48.64301227 ], [ 19.64425987, 48.64298365 ], [ 19.64428083, 48.64297026 ], [ 19.64419502, 48.64291159 ], [ 19.64441739, 48.64277367 ], [ 19.64462841, 48.64259386 ], [ 19.64482439, 48.64248396 ], [ 19.6452128, 48.64235178 ], [ 19.64537458, 48.64230606 ], [ 19.64557306, 48.64226865 ], [ 19.6457802, 48.64216258 ], [ 19.64591876, 48.64192912 ], [ 19.64603779, 48.64180674 ], [ 19.64617428, 48.64171444 ], [ 19.64635974, 48.64160091 ], [ 19.64634836, 48.64157254 ], [ 19.6465927, 48.6414804 ], [ 19.64663509, 48.64132132 ], [ 19.64666367, 48.6412175 ], [ 19.64666897, 48.64116969 ], [ 19.64666148, 48.64112996 ], [ 19.64665059, 48.64102103 ], [ 19.64663828, 48.64091402 ], [ 19.64668468, 48.64087536 ], [ 19.64668627, 48.64079466 ], [ 19.64670149, 48.64066455 ], [ 19.6467763, 48.640412 ], [ 19.64675785, 48.64041153 ], [ 19.6468252, 48.6402505 ], [ 19.64684379, 48.6401566 ], [ 19.64689598, 48.63997091 ], [ 19.64690281, 48.63976596 ], [ 19.64687172, 48.63939985 ], [ 19.6468647, 48.6393661 ], [ 19.64688132, 48.63922893 ], [ 19.64681155, 48.63837566 ], [ 19.64680575, 48.638209 ], [ 19.64683326, 48.63795351 ], [ 19.64679239, 48.63756605 ], [ 19.64674212, 48.63666967 ], [ 19.64674049, 48.63664174 ], [ 19.64673484, 48.63654017 ], [ 19.6459775, 48.63475466 ], [ 19.64572012, 48.63437387 ], [ 19.64548494, 48.63402607 ], [ 19.64539291, 48.63397389 ], [ 19.64442255, 48.63342392 ], [ 19.64285748, 48.63279959 ], [ 19.64229935, 48.63268407 ], [ 19.64161294, 48.63264587 ], [ 19.64108021, 48.63261433 ], [ 19.64036471, 48.63227203 ], [ 19.640231, 48.63223645 ], [ 19.63982577, 48.63212725 ], [ 19.63928974, 48.63207616 ], [ 19.63909052, 48.6319473 ], [ 19.63865466, 48.63165004 ], [ 19.63810961, 48.63111781 ], [ 19.63774526, 48.63083945 ], [ 19.63730257, 48.63037411 ], [ 19.6371232, 48.63002511 ], [ 19.6371113, 48.6299091 ], [ 19.63710621, 48.62986056 ], [ 19.63709647, 48.62976583 ], [ 19.63699143, 48.62958469 ], [ 19.63692475, 48.62934903 ], [ 19.63702589, 48.62861171 ], [ 19.6371412, 48.62812499 ], [ 19.63740689, 48.62781344 ], [ 19.63752706, 48.62760422 ], [ 19.63760925, 48.62730514 ], [ 19.63787196, 48.62678909 ], [ 19.6380497, 48.6262118 ], [ 19.63808623, 48.62586063 ], [ 19.63796879, 48.6252777 ], [ 19.63779802, 48.62489277 ], [ 19.63775788, 48.62480145 ], [ 19.63757968, 48.62439616 ], [ 19.63751525, 48.62412797 ], [ 19.63774949, 48.62378083 ], [ 19.63833981, 48.62318174 ], [ 19.63884937, 48.62279751 ], [ 19.63911942, 48.62256647 ], [ 19.63939199, 48.62218338 ], [ 19.63962445, 48.62179893 ], [ 19.63973028, 48.62134857 ], [ 19.63972473, 48.621193 ], [ 19.6398067, 48.62102722 ], [ 19.63988092, 48.62078448 ], [ 19.63992756, 48.62051633 ], [ 19.63996213, 48.62045623 ], [ 19.6400921, 48.62023204 ], [ 19.64011389, 48.62014008 ], [ 19.64027356, 48.61989406 ], [ 19.64073514, 48.61955039 ], [ 19.64114429, 48.61911711 ], [ 19.64168549, 48.61881101 ], [ 19.64205115, 48.61850233 ], [ 19.64220275, 48.61817292 ], [ 19.64226717, 48.61796858 ], [ 19.6420793, 48.61748372 ], [ 19.64202415, 48.61707028 ], [ 19.64223563, 48.6164972 ], [ 19.64217858, 48.61633211 ], [ 19.64189482, 48.61613445 ], [ 19.6411091, 48.61575392 ], [ 19.64067877, 48.61567866 ], [ 19.63985353, 48.61557795 ], [ 19.63981675, 48.61557341 ], [ 19.63852424, 48.61541568 ], [ 19.6382529, 48.61480644 ], [ 19.63812038, 48.61405652 ], [ 19.63746096, 48.61369103 ], [ 19.63708264, 48.61316819 ], [ 19.63686964, 48.61270625 ], [ 19.63729709, 48.61253603 ], [ 19.63803849, 48.61221797 ], [ 19.63850346, 48.61201843 ], [ 19.63904833, 48.61147949 ], [ 19.63942074, 48.61121997 ], [ 19.63949319, 48.6111696 ], [ 19.63968862, 48.61103336 ], [ 19.63978735, 48.61094803 ], [ 19.63992145, 48.61083192 ], [ 19.64004658, 48.61072371 ], [ 19.64015741, 48.61062774 ], [ 19.64042111, 48.61039965 ], [ 19.64050232, 48.61032209 ], [ 19.64091295, 48.60992944 ], [ 19.64103847, 48.60980944 ], [ 19.64130989, 48.60952707 ], [ 19.64147589, 48.60935426 ], [ 19.64176214, 48.60912079 ], [ 19.64185469, 48.60904536 ], [ 19.64276181, 48.60873022 ], [ 19.6438799, 48.60834182 ], [ 19.64412329, 48.60803556 ], [ 19.64406822, 48.60766512 ], [ 19.64359998, 48.60734468 ], [ 19.64343269, 48.60651947 ], [ 19.64343211, 48.60617312 ], [ 19.64343196, 48.60608955 ], [ 19.6434318, 48.60594369 ], [ 19.64355335, 48.60577203 ], [ 19.6436145, 48.6056859 ], [ 19.64379436, 48.60543186 ], [ 19.64396307, 48.60519373 ], [ 19.64399691, 48.60514594 ], [ 19.64407511, 48.60434584 ], [ 19.64446309, 48.60359591 ], [ 19.64468527, 48.60260659 ], [ 19.64316574, 48.6028628 ], [ 19.64288378, 48.60287814 ], [ 19.64281284, 48.60288198 ], [ 19.64203092, 48.60292448 ], [ 19.64132528, 48.60308075 ], [ 19.64093111, 48.60296934 ], [ 19.63963923, 48.60203081 ], [ 19.63812425, 48.60115046 ], [ 19.63808431, 48.60112504 ], [ 19.63783728, 48.60096788 ], [ 19.63737659, 48.6005906 ], [ 19.63679382, 48.60026947 ], [ 19.63581616, 48.59957628 ], [ 19.63545262, 48.59900857 ], [ 19.63529311, 48.5985028 ], [ 19.63510274, 48.59815104 ], [ 19.6346419, 48.59762582 ], [ 19.63447199, 48.59663829 ], [ 19.63575358, 48.59549195 ], [ 19.63653184, 48.59483689 ], [ 19.63693084, 48.59425705 ], [ 19.63624227, 48.59366009 ], [ 19.63579679, 48.59310329 ], [ 19.63540551, 48.59251233 ], [ 19.63538797, 48.59248585 ], [ 19.63527148, 48.59253793 ], [ 19.63518732, 48.59257551 ], [ 19.63483255, 48.59273421 ], [ 19.63431283, 48.59296299 ], [ 19.63354161, 48.59329753 ], [ 19.63326108, 48.59340936 ], [ 19.63306528, 48.59348734 ], [ 19.63298268, 48.5935203 ], [ 19.63269661, 48.59363441 ], [ 19.63262464, 48.59366307 ], [ 19.63180878, 48.59399396 ], [ 19.63145126, 48.59413828 ], [ 19.63143665, 48.5941442 ], [ 19.63136202, 48.59417626 ], [ 19.63109646, 48.59429039 ], [ 19.63099468, 48.59433411 ], [ 19.63026142, 48.5946332 ], [ 19.63016289, 48.59467301 ], [ 19.62998865, 48.59474348 ], [ 19.62940739, 48.59497821 ], [ 19.62898815, 48.59514913 ], [ 19.62859768, 48.59530836 ], [ 19.62858165, 48.59531494 ], [ 19.62856052, 48.59532354 ], [ 19.62864407, 48.59537148 ], [ 19.62939849, 48.59580416 ], [ 19.62958213, 48.5961787 ], [ 19.62992211, 48.59687193 ], [ 19.62949974, 48.59709968 ], [ 19.62947671, 48.59711216 ], [ 19.62933277, 48.5978727 ], [ 19.62932592, 48.59790908 ], [ 19.62924913, 48.59826276 ], [ 19.62920799, 48.59845183 ], [ 19.62865502, 48.59876004 ], [ 19.62853494, 48.598827 ], [ 19.62850375, 48.59884353 ], [ 19.62844352, 48.59887561 ], [ 19.62823897, 48.59898428 ], [ 19.62821927, 48.59899475 ], [ 19.62804864, 48.59908548 ], [ 19.62792085, 48.59915336 ], [ 19.62784489, 48.59915065 ], [ 19.6275088, 48.59913863 ], [ 19.62740738, 48.59913495 ], [ 19.62720376, 48.59907303 ], [ 19.6270626, 48.59903014 ], [ 19.62666839, 48.59891039 ], [ 19.62661765, 48.59889493 ], [ 19.6264464, 48.59888576 ], [ 19.62631434, 48.59887871 ], [ 19.62618431, 48.59887176 ], [ 19.62607199, 48.59886578 ], [ 19.62605599, 48.59885478 ], [ 19.62597068, 48.59879612 ], [ 19.6257163, 48.59862102 ], [ 19.62565549, 48.59863747 ], [ 19.62533917, 48.59872279 ], [ 19.62501363, 48.59881058 ], [ 19.62452097, 48.59875758 ], [ 19.62419397, 48.59888343 ], [ 19.62368524, 48.59906228 ], [ 19.6234493, 48.59901069 ], [ 19.6232902, 48.59897583 ], [ 19.62328648, 48.59897503 ], [ 19.62321245, 48.59894554 ], [ 19.62320322, 48.59896261 ], [ 19.62315249, 48.59905686 ], [ 19.62273535, 48.59915123 ], [ 19.62218546, 48.59927556 ], [ 19.62215847, 48.59928165 ], [ 19.62156222, 48.59913633 ], [ 19.62140484, 48.59909794 ], [ 19.62132767, 48.59907912 ], [ 19.62129554, 48.59895138 ], [ 19.62090531, 48.5989121 ], [ 19.62054521, 48.59887581 ], [ 19.62017136, 48.59888216 ], [ 19.61958182, 48.59889246 ], [ 19.61940728, 48.59889538 ], [ 19.61921707, 48.59885649 ], [ 19.61903483, 48.59881931 ], [ 19.61887536, 48.59878677 ], [ 19.6184498, 48.59869982 ], [ 19.61826946, 48.59863757 ], [ 19.61820134, 48.59861412 ], [ 19.61794854, 48.59852696 ], [ 19.61748522, 48.59836718 ], [ 19.6174101, 48.59855975 ], [ 19.61729173, 48.59850554 ], [ 19.61722125, 48.59847323 ], [ 19.61669936, 48.59823408 ], [ 19.61621732, 48.59801323 ], [ 19.61614308, 48.59797922 ], [ 19.61590699, 48.59806265 ], [ 19.61568895, 48.59805918 ], [ 19.61550685, 48.59805634 ], [ 19.6154618, 48.59805566 ], [ 19.61537116, 48.59804101 ], [ 19.61526743, 48.59802423 ], [ 19.61515807, 48.59800657 ], [ 19.61505848, 48.59799044 ], [ 19.61490381, 48.59796541 ], [ 19.61442399, 48.59793837 ], [ 19.61419573, 48.59788098 ], [ 19.61376332, 48.59777225 ], [ 19.61371575, 48.59776171 ], [ 19.61311236, 48.59762802 ], [ 19.61282164, 48.59758465 ], [ 19.61266489, 48.59756133 ], [ 19.61179897, 48.59749074 ], [ 19.61165584, 48.59747903 ], [ 19.61123896, 48.59724731 ], [ 19.61118355, 48.59721649 ], [ 19.61102222, 48.59712688 ], [ 19.61100323, 48.59711196 ], [ 19.6109206, 48.59704728 ], [ 19.61077974, 48.59693705 ], [ 19.6106278, 48.59681821 ], [ 19.6105414, 48.59675056 ], [ 19.61044129, 48.59667228 ], [ 19.61037437, 48.59661994 ], [ 19.61028647, 48.59648768 ], [ 19.61021113, 48.59637465 ], [ 19.6101297, 48.59625215 ], [ 19.61008509, 48.59615746 ], [ 19.60985591, 48.59567102 ], [ 19.60984575, 48.59564955 ], [ 19.60956221, 48.59537168 ], [ 19.60947591, 48.59528718 ], [ 19.60934336, 48.59515839 ], [ 19.60931766, 48.59513343 ], [ 19.60916102, 48.5949812 ], [ 19.60890078, 48.59463803 ], [ 19.60865781, 48.59428032 ], [ 19.60867232, 48.59412367 ], [ 19.60871825, 48.59362761 ], [ 19.60886646, 48.59316358 ], [ 19.60914565, 48.59300595 ], [ 19.60925197, 48.59294614 ], [ 19.60964735, 48.59272382 ], [ 19.60970476, 48.59269153 ], [ 19.60983703, 48.59261712 ], [ 19.61017394, 48.59242938 ], [ 19.6101861, 48.59242082 ], [ 19.6102654, 48.59236735 ], [ 19.6103301, 48.59232368 ], [ 19.61081914, 48.59223685 ], [ 19.61044341, 48.59217999 ], [ 19.60986094, 48.59209193 ], [ 19.60982655, 48.59208677 ], [ 19.60978644, 48.59208035 ], [ 19.60975288, 48.59207505 ], [ 19.6094744, 48.59219818 ], [ 19.60908952, 48.59241891 ], [ 19.60870533, 48.5924481 ], [ 19.60826885, 48.5926077 ], [ 19.60814275, 48.59265382 ], [ 19.6077655, 48.5926433 ], [ 19.60749138, 48.59263565 ], [ 19.60740615, 48.59263323 ], [ 19.60692863, 48.59253694 ], [ 19.60591549, 48.59220118 ], [ 19.60503164, 48.59196529 ], [ 19.60406555, 48.59176398 ], [ 19.60316487, 48.59107064 ], [ 19.6026754, 48.59029833 ], [ 19.60218976, 48.59009122 ], [ 19.60177393, 48.59016781 ], [ 19.60066638, 48.59079814 ], [ 19.60047648, 48.59120193 ], [ 19.60024408, 48.59220589 ], [ 19.60025792, 48.59283186 ], [ 19.60021686, 48.59283865 ], [ 19.60013639, 48.59285203 ], [ 19.60000074, 48.59287463 ], [ 19.59995194, 48.59288269 ], [ 19.5999352, 48.59288554 ], [ 19.59989275, 48.59289263 ], [ 19.59988155, 48.59289446 ], [ 19.59962399, 48.5929529 ], [ 19.5995083, 48.59275969 ], [ 19.59929556, 48.59240468 ], [ 19.59921951, 48.59202361 ], [ 19.59920052, 48.59192845 ], [ 19.59907199, 48.59167408 ], [ 19.5988535, 48.59153156 ], [ 19.59861158, 48.59138183 ], [ 19.59862331, 48.59134586 ], [ 19.59863728, 48.59130268 ], [ 19.59864261, 48.59128652 ], [ 19.59865593, 48.59124565 ], [ 19.59866848, 48.59120701 ], [ 19.59848233, 48.59119107 ], [ 19.59835221, 48.59117994 ], [ 19.59818949, 48.59116605 ], [ 19.59818309, 48.59099367 ], [ 19.59788106, 48.59101421 ], [ 19.59786072, 48.59110722 ], [ 19.597705, 48.59106769 ], [ 19.59758586, 48.59094753 ], [ 19.59788145, 48.59076813 ], [ 19.59799482, 48.59069936 ], [ 19.5983631, 48.59054769 ], [ 19.59835927, 48.5905321 ], [ 19.59834499, 48.5904743 ], [ 19.59832947, 48.5904114 ], [ 19.59830082, 48.59029525 ], [ 19.59814326, 48.58965725 ], [ 19.59797549, 48.58887202 ], [ 19.59796825, 48.58883816 ], [ 19.59796549, 48.58882541 ], [ 19.59795784, 48.58874159 ], [ 19.597953, 48.58868701 ], [ 19.59787529, 48.5878298 ], [ 19.59786959, 48.58776653 ], [ 19.5971848, 48.58696295 ], [ 19.59662135, 48.58635041 ], [ 19.59630763, 48.58582241 ], [ 19.59602796, 48.5848738 ], [ 19.59567577, 48.58358798 ], [ 19.59553548, 48.58311753 ], [ 19.59552308, 48.58306522 ], [ 19.59523105, 48.58183263 ], [ 19.59518757, 48.58185102 ], [ 19.59517791, 48.58185509 ], [ 19.59513218, 48.58187438 ], [ 19.59511328, 48.58188235 ], [ 19.5951039, 48.58188634 ], [ 19.5947524, 48.58206157 ], [ 19.59473937, 48.58237333 ], [ 19.59444595, 48.58252677 ], [ 19.59365148, 48.58294039 ], [ 19.59344831, 48.58304212 ], [ 19.59343943, 48.58304659 ], [ 19.59334486, 48.58309394 ], [ 19.59327596, 48.58312831 ], [ 19.59327038, 48.58313103 ], [ 19.59321105, 48.58316088 ], [ 19.59281041, 48.58289214 ], [ 19.59266588, 48.58294047 ], [ 19.59199702, 48.5831639 ], [ 19.5915682, 48.58327584 ], [ 19.59174609, 48.58358321 ], [ 19.59195953, 48.58382794 ], [ 19.59153124, 48.58391104 ], [ 19.59109941, 48.58395081 ], [ 19.59061133, 48.58399577 ], [ 19.59060492, 48.58399737 ], [ 19.59056034, 48.58400805 ], [ 19.58981069, 48.58418858 ], [ 19.58959563, 48.58423172 ], [ 19.5892636, 48.58429837 ], [ 19.5891222, 48.58432682 ], [ 19.58891437, 48.58439075 ], [ 19.58867915, 48.58446848 ], [ 19.58841995, 48.58455611 ], [ 19.58841675, 48.58455552 ], [ 19.58803931, 48.58478147 ], [ 19.58796079, 48.58482855 ], [ 19.58775116, 48.58495189 ], [ 19.58734669, 48.58449563 ], [ 19.58698706, 48.58430753 ], [ 19.58665604, 48.58413443 ], [ 19.58609665, 48.58408192 ], [ 19.58572044, 48.5841224 ], [ 19.58564776, 48.58413018 ], [ 19.58515889, 48.58418274 ], [ 19.58481536, 48.58406234 ], [ 19.58475622, 48.58404162 ], [ 19.58472151, 48.58399893 ], [ 19.58466065, 48.58392395 ], [ 19.58485801, 48.58389174 ], [ 19.5846552, 48.58346963 ], [ 19.58455316, 48.58326873 ], [ 19.58445687, 48.58307918 ], [ 19.58436226, 48.58290233 ], [ 19.58422415, 48.58264426 ], [ 19.58421801, 48.58263271 ], [ 19.58405369, 48.58232467 ], [ 19.58402672, 48.58227413 ], [ 19.58397757, 48.58218184 ], [ 19.58397119, 48.58217001 ], [ 19.58390082, 48.58202933 ], [ 19.5837601, 48.58174796 ], [ 19.58372138, 48.58167048 ], [ 19.58368021, 48.58159306 ], [ 19.58353531, 48.58132061 ], [ 19.5834219, 48.58110747 ], [ 19.58341666, 48.58109768 ], [ 19.58339432, 48.58105492 ], [ 19.58337731, 48.58102242 ], [ 19.58336312, 48.58099536 ], [ 19.5833621, 48.58099342 ], [ 19.58318165, 48.58064831 ], [ 19.58317447, 48.58063365 ], [ 19.58296771, 48.58027239 ], [ 19.58279465, 48.58046643 ], [ 19.58178717, 48.58025168 ], [ 19.58141098, 48.58022011 ], [ 19.58125555, 48.58020699 ], [ 19.58110415, 48.58019432 ], [ 19.58066699, 48.58005738 ], [ 19.58055027, 48.57998147 ], [ 19.58052149, 48.57996285 ], [ 19.58048598, 48.57993969 ], [ 19.58047433, 48.57993546 ], [ 19.58006771, 48.57978964 ], [ 19.5796282, 48.5797083 ], [ 19.57957177, 48.57970482 ], [ 19.57856313, 48.57964324 ], [ 19.5782738, 48.57962563 ], [ 19.57797614, 48.57904709 ], [ 19.5780913, 48.57903305 ], [ 19.57816351, 48.57880944 ], [ 19.57640483, 48.57869127 ], [ 19.57635515, 48.5785518 ], [ 19.57634768, 48.57853082 ], [ 19.5760821, 48.57848345 ], [ 19.57611831, 48.57841452 ], [ 19.57615182, 48.57835069 ], [ 19.57612498, 48.5781863 ], [ 19.5760719, 48.57786196 ], [ 19.57601564, 48.57751728 ], [ 19.57600081, 48.57742573 ], [ 19.5759041, 48.57700862 ], [ 19.5758995, 48.57698217 ], [ 19.57579726, 48.57638505 ], [ 19.57579605, 48.57637833 ], [ 19.57571591, 48.5760203 ], [ 19.57567512, 48.57583841 ], [ 19.57563397, 48.5756547 ], [ 19.57551922, 48.57531862 ], [ 19.57533964, 48.57429193 ], [ 19.57525639, 48.57386696 ], [ 19.57524619, 48.5738225 ], [ 19.57518471, 48.57355322 ], [ 19.57516339, 48.57348887 ], [ 19.57516015, 48.57347952 ], [ 19.57514391, 48.57343037 ], [ 19.57512777, 48.57338168 ], [ 19.57509961, 48.57329683 ], [ 19.57507776, 48.57321668 ], [ 19.57505806, 48.57314456 ], [ 19.57504958, 48.57311361 ], [ 19.57503578, 48.57306331 ], [ 19.57502396, 48.57299904 ], [ 19.57499994, 48.57286903 ], [ 19.57497962, 48.57275839 ], [ 19.57496885, 48.57269975 ], [ 19.57493706, 48.57258571 ], [ 19.57487525, 48.57236419 ], [ 19.57481299, 48.57201589 ], [ 19.57473589, 48.5717257 ], [ 19.57509609, 48.57174187 ], [ 19.57526779, 48.57165803 ], [ 19.57535321, 48.57161631 ], [ 19.57538537, 48.57150518 ], [ 19.57539501, 48.57139771 ], [ 19.57542014, 48.57126787 ], [ 19.57544382, 48.57117962 ], [ 19.57544096, 48.57104994 ], [ 19.57544013, 48.57101204 ], [ 19.57543867, 48.57094743 ], [ 19.57548894, 48.57072183 ], [ 19.5755442, 48.57068541 ], [ 19.57570297, 48.57058069 ], [ 19.57570735, 48.57057259 ], [ 19.57583441, 48.57033733 ], [ 19.57584468, 48.57031824 ], [ 19.57585543, 48.57029836 ], [ 19.57585795, 48.5702937 ], [ 19.57586634, 48.5702783 ], [ 19.57556728, 48.57017676 ], [ 19.57541937, 48.57007959 ], [ 19.57543715, 48.5698608 ], [ 19.57545037, 48.56969914 ], [ 19.57547392, 48.56964098 ], [ 19.57562319, 48.56923987 ], [ 19.57554665, 48.56914479 ], [ 19.57524263, 48.56911622 ], [ 19.57512614, 48.56910522 ], [ 19.5747957, 48.56906941 ], [ 19.57421854, 48.56900123 ], [ 19.5742155, 48.56897297 ], [ 19.57420901, 48.56891363 ], [ 19.57419271, 48.56876296 ], [ 19.57419149, 48.56875245 ], [ 19.57416996, 48.56860101 ], [ 19.57416446, 48.56856236 ], [ 19.57415651, 48.56850538 ], [ 19.57414949, 48.5683647 ], [ 19.57414718, 48.5683188 ], [ 19.57414123, 48.56820187 ], [ 19.57414111, 48.56820042 ], [ 19.57413926, 48.56817762 ], [ 19.57413742, 48.56815608 ], [ 19.57443591, 48.56770454 ], [ 19.57472116, 48.56727313 ], [ 19.57472518, 48.56726709 ], [ 19.57474098, 48.56724311 ], [ 19.57489718, 48.56700711 ], [ 19.5750913, 48.56671325 ], [ 19.57509275, 48.56671106 ], [ 19.57509936, 48.566701 ], [ 19.57519191, 48.56654187 ], [ 19.5750519, 48.56640396 ], [ 19.57503293, 48.56638515 ], [ 19.57500163, 48.56635433 ], [ 19.57499953, 48.56635225 ], [ 19.5748445, 48.56619941 ], [ 19.57480641, 48.56616197 ], [ 19.57435892, 48.56576562 ], [ 19.57399043, 48.56543788 ], [ 19.5736635, 48.5651535 ], [ 19.57324984, 48.56531942 ], [ 19.57318476, 48.56534322 ], [ 19.57268965, 48.56552435 ], [ 19.57264734, 48.56550799 ], [ 19.57236563, 48.56535873 ], [ 19.57207111, 48.56547979 ], [ 19.57176307, 48.56565269 ], [ 19.57175826, 48.56575145 ], [ 19.57127555, 48.56594134 ], [ 19.57085297, 48.56630175 ], [ 19.57071671, 48.56632825 ], [ 19.57067166, 48.56633701 ], [ 19.57003757, 48.56648158 ], [ 19.56927694, 48.56662694 ], [ 19.56907542, 48.56670761 ], [ 19.56891259, 48.56677283 ], [ 19.56818918, 48.56718647 ], [ 19.56808243, 48.56731861 ], [ 19.56772052, 48.56685971 ], [ 19.56765585, 48.56684287 ], [ 19.56756379, 48.56681892 ], [ 19.56749449, 48.56680088 ], [ 19.56682886, 48.56662757 ], [ 19.56658326, 48.56666835 ], [ 19.56581135, 48.56679659 ], [ 19.56544542, 48.56681502 ], [ 19.56508289, 48.56683333 ], [ 19.56480275, 48.56610257 ], [ 19.5639189, 48.56552585 ], [ 19.56359634, 48.56541184 ], [ 19.5633759, 48.56517638 ], [ 19.56299489, 48.56496603 ], [ 19.56280334, 48.56471134 ], [ 19.56243642, 48.56447522 ], [ 19.56218308, 48.56424276 ], [ 19.56203701, 48.56401187 ], [ 19.56194029, 48.56376224 ], [ 19.56176934, 48.56358656 ], [ 19.56159631, 48.56317585 ], [ 19.56172345, 48.56309603 ], [ 19.56195073, 48.56283129 ], [ 19.56238513, 48.56247506 ], [ 19.56253522, 48.56235202 ], [ 19.56277155, 48.56192552 ], [ 19.56324119, 48.56191518 ], [ 19.5637365, 48.56136188 ], [ 19.56403441, 48.56098047 ], [ 19.56404882, 48.56096202 ], [ 19.56404254, 48.56094018 ], [ 19.56403495, 48.56091378 ], [ 19.56401044, 48.5608281 ], [ 19.56393876, 48.56057799 ], [ 19.56366161, 48.55995356 ], [ 19.56384503, 48.55980626 ], [ 19.56392533, 48.55974187 ], [ 19.56398095, 48.55967185 ], [ 19.5641534, 48.5594549 ], [ 19.56419901, 48.55939758 ], [ 19.56423087, 48.55935748 ], [ 19.56450633, 48.55892798 ], [ 19.56502949, 48.55885176 ], [ 19.5650443, 48.55873785 ], [ 19.56505013, 48.55869223 ], [ 19.56505644, 48.55864321 ], [ 19.56505741, 48.5586364 ], [ 19.56505886, 48.55862511 ], [ 19.56506103, 48.55860808 ], [ 19.56506163, 48.5586036 ], [ 19.56506471, 48.55857922 ], [ 19.5650714, 48.55852778 ], [ 19.56507911, 48.55846791 ], [ 19.56527739, 48.55844435 ], [ 19.56550302, 48.55841762 ], [ 19.56587868, 48.55837295 ], [ 19.56602003, 48.55835616 ], [ 19.56602249, 48.55828929 ], [ 19.56602579, 48.5582038 ], [ 19.56603173, 48.55804577 ], [ 19.56603849, 48.55786803 ], [ 19.5660441, 48.55771846 ], [ 19.5660683, 48.55768684 ], [ 19.56613569, 48.55759878 ], [ 19.5661764, 48.55754547 ], [ 19.5662804, 48.55740959 ], [ 19.56634812, 48.55732101 ], [ 19.56647976, 48.55714907 ], [ 19.5664931, 48.55712525 ], [ 19.56671059, 48.5567371 ], [ 19.56676996, 48.55672638 ], [ 19.56717971, 48.55665271 ], [ 19.56790905, 48.55650656 ], [ 19.56780852, 48.55626469 ], [ 19.56825422, 48.55615994 ], [ 19.56841081, 48.5561231 ], [ 19.56846259, 48.55611096 ], [ 19.56862828, 48.55594454 ], [ 19.56869255, 48.55587996 ], [ 19.56867034, 48.55578122 ], [ 19.56862193, 48.55556707 ], [ 19.56859177, 48.55541929 ], [ 19.5685469, 48.55519853 ], [ 19.56854222, 48.5551756 ], [ 19.56884174, 48.55483293 ], [ 19.56903466, 48.55461214 ], [ 19.56907224, 48.55456923 ], [ 19.56874095, 48.55453732 ], [ 19.56941921, 48.55378068 ], [ 19.56944773, 48.55375314 ], [ 19.56951083, 48.55369202 ], [ 19.56974902, 48.55346148 ], [ 19.57000426, 48.55321442 ], [ 19.57057466, 48.55266217 ], [ 19.57053782, 48.55258657 ], [ 19.57053369, 48.55257799 ], [ 19.57049392, 48.55249658 ], [ 19.57046772, 48.55244282 ], [ 19.57045327, 48.55241331 ], [ 19.57043917, 48.55238427 ], [ 19.5704366, 48.55237893 ], [ 19.57042182, 48.55234859 ], [ 19.57037388, 48.55225039 ], [ 19.57035171, 48.55220493 ], [ 19.57032405, 48.55214823 ], [ 19.57031891, 48.55214141 ], [ 19.57029131, 48.55210508 ], [ 19.57027291, 48.55208089 ], [ 19.57025774, 48.55206091 ], [ 19.57021246, 48.55200123 ], [ 19.57019825, 48.55198246 ], [ 19.57014531, 48.55191279 ], [ 19.57001482, 48.55174123 ], [ 19.57009796, 48.55165965 ], [ 19.57020607, 48.55166604 ], [ 19.57033706, 48.55160351 ], [ 19.57040393, 48.55144051 ], [ 19.5704719, 48.55141882 ], [ 19.57043211, 48.55140835 ], [ 19.57025711, 48.55136231 ], [ 19.57014409, 48.55133263 ], [ 19.56980437, 48.55124336 ], [ 19.56923098, 48.55069961 ], [ 19.56898938, 48.55062402 ], [ 19.56884551, 48.55057894 ], [ 19.56882209, 48.55057165 ], [ 19.56880644, 48.55056679 ], [ 19.5686214, 48.55050884 ], [ 19.56803024, 48.55032378 ], [ 19.5680234, 48.55032167 ], [ 19.56773725, 48.55033004 ], [ 19.56732621, 48.55034208 ], [ 19.56730305, 48.55034273 ], [ 19.5672662, 48.55041786 ], [ 19.56678047, 48.55094042 ], [ 19.56614286, 48.55130386 ], [ 19.56609149, 48.55133316 ], [ 19.56599621, 48.55135107 ], [ 19.56572683, 48.55140185 ], [ 19.56556146, 48.55143305 ], [ 19.5653101, 48.55148042 ], [ 19.56516682, 48.55150416 ], [ 19.56454827, 48.55160658 ], [ 19.56412718, 48.55161851 ], [ 19.56401496, 48.55162167 ], [ 19.56360478, 48.55158469 ], [ 19.5632717, 48.55150878 ], [ 19.56284337, 48.5514112 ], [ 19.56241852, 48.55134822 ], [ 19.56205306, 48.55134222 ], [ 19.56176056, 48.55141952 ], [ 19.56104486, 48.55160871 ], [ 19.56050109, 48.55177935 ], [ 19.55996505, 48.55194755 ], [ 19.55943096, 48.55203804 ], [ 19.55937714, 48.55205414 ], [ 19.55896508, 48.55217645 ], [ 19.55866616, 48.5521834 ], [ 19.5585152, 48.55218695 ], [ 19.55773422, 48.55219788 ], [ 19.5571937, 48.55224433 ], [ 19.55708053, 48.55225402 ], [ 19.55660892, 48.55248403 ], [ 19.55648638, 48.55248851 ], [ 19.55622998, 48.55249795 ], [ 19.55528378, 48.55243268 ], [ 19.55521826, 48.55242815 ], [ 19.55482752, 48.55231126 ], [ 19.55455202, 48.55222885 ], [ 19.5533611, 48.55230624 ], [ 19.55304699, 48.55233521 ], [ 19.5516906, 48.55246026 ], [ 19.55161501, 48.55246625 ], [ 19.55088352, 48.55249744 ], [ 19.55055925, 48.55248437 ], [ 19.54966479, 48.55245695 ], [ 19.54860643, 48.55230174 ], [ 19.54839771, 48.55234355 ], [ 19.54832704, 48.55233625 ], [ 19.54799799, 48.55223876 ], [ 19.54642327, 48.55211564 ], [ 19.54617342, 48.55209606 ], [ 19.54504974, 48.55241418 ], [ 19.54410365, 48.55292923 ], [ 19.54339625, 48.55329196 ], [ 19.54336197, 48.5533095 ], [ 19.54227438, 48.55386717 ], [ 19.54161951, 48.55431065 ], [ 19.54133439, 48.55444693 ], [ 19.54122732, 48.55449177 ], [ 19.54102201, 48.55457763 ], [ 19.54053711, 48.55478046 ], [ 19.54034882, 48.55485925 ], [ 19.54019618, 48.5549231 ], [ 19.5400821, 48.55493228 ], [ 19.54001198, 48.55493798 ], [ 19.53996308, 48.55494196 ], [ 19.53984175, 48.55495171 ], [ 19.53957714, 48.55481171 ], [ 19.53926609, 48.55464704 ], [ 19.53924422, 48.5546445 ], [ 19.53902004, 48.55461824 ], [ 19.53889446, 48.55460355 ], [ 19.53870476, 48.5545813 ], [ 19.5381298, 48.55455649 ], [ 19.53782981, 48.55454351 ], [ 19.53739298, 48.55461746 ], [ 19.53724947, 48.55457543 ], [ 19.53637742, 48.55431996 ], [ 19.5358001, 48.55411986 ], [ 19.53573982, 48.55409897 ], [ 19.53546906, 48.5541599 ], [ 19.53521204, 48.55374573 ], [ 19.53457958, 48.55322197 ], [ 19.53418383, 48.55311433 ], [ 19.53395526, 48.55305216 ], [ 19.53381432, 48.55306767 ], [ 19.53372763, 48.55307729 ], [ 19.53339816, 48.55304374 ], [ 19.53280505, 48.55298345 ], [ 19.53134928, 48.5528253 ], [ 19.53050309, 48.55273343 ], [ 19.53027457, 48.55267603 ], [ 19.52983831, 48.55256642 ], [ 19.52855984, 48.55224511 ], [ 19.52831002, 48.55220313 ], [ 19.52784709, 48.55212528 ], [ 19.52770368, 48.55218773 ], [ 19.52742653, 48.55230848 ], [ 19.52710116, 48.55245018 ], [ 19.52589691, 48.55296608 ], [ 19.52569467, 48.55303781 ], [ 19.52562698, 48.55306182 ], [ 19.52453779, 48.55317318 ], [ 19.52433644, 48.55320005 ], [ 19.52323341, 48.55326839 ], [ 19.52265613, 48.55336447 ], [ 19.52248807, 48.55339251 ], [ 19.52195723, 48.55348082 ], [ 19.52187762, 48.5534941 ], [ 19.52137771, 48.55351648 ], [ 19.52134169, 48.55352329 ], [ 19.52034532, 48.55371165 ], [ 19.51985726, 48.5537142 ], [ 19.51980078, 48.55370889 ], [ 19.51941068, 48.55367205 ], [ 19.51857977, 48.55320215 ], [ 19.51825013, 48.55300293 ], [ 19.51803556, 48.5528734 ], [ 19.51786469, 48.55275571 ], [ 19.51768889, 48.55263454 ], [ 19.51751939, 48.55272949 ], [ 19.51736662, 48.55281503 ], [ 19.5172584, 48.55285773 ], [ 19.5171829, 48.55288751 ], [ 19.51708814, 48.55292488 ], [ 19.51695683, 48.5529767 ], [ 19.51680518, 48.55304642 ], [ 19.51669318, 48.55309795 ], [ 19.51660986, 48.55313621 ], [ 19.51658829, 48.55315937 ], [ 19.51651243, 48.55324053 ], [ 19.51643736, 48.55332072 ], [ 19.51641182, 48.55334803 ], [ 19.51635721, 48.55340655 ], [ 19.51631867, 48.55344777 ], [ 19.51628777, 48.55348087 ], [ 19.5161951, 48.55357991 ], [ 19.51615473, 48.55362312 ], [ 19.51613881, 48.55363501 ], [ 19.51609253, 48.55366984 ], [ 19.51576577, 48.55397859 ], [ 19.51574274, 48.55399745 ], [ 19.51563879, 48.55408235 ], [ 19.51549073, 48.55420326 ], [ 19.5154123, 48.55426744 ], [ 19.51524568, 48.55440354 ], [ 19.51523053, 48.55441591 ], [ 19.5151606, 48.55446894 ], [ 19.51509614, 48.5545178 ], [ 19.51495585, 48.55462411 ], [ 19.51488564, 48.5546773 ], [ 19.51479772, 48.55474392 ], [ 19.51471689, 48.5548051 ], [ 19.51458353, 48.55490623 ], [ 19.51450446, 48.55496613 ], [ 19.51447216, 48.55502937 ], [ 19.51438827, 48.55519363 ], [ 19.51436521, 48.55523873 ], [ 19.51410889, 48.55576024 ], [ 19.51391329, 48.55616754 ], [ 19.51380477, 48.5563569 ], [ 19.51377634, 48.55640652 ], [ 19.51371169, 48.55651939 ], [ 19.5135955, 48.55672218 ], [ 19.51360318, 48.55702338 ], [ 19.51360909, 48.55725211 ], [ 19.51361216, 48.55729408 ], [ 19.51368463, 48.55747863 ], [ 19.51363271, 48.55778087 ], [ 19.51329652, 48.55784621 ], [ 19.51224785, 48.55789622 ], [ 19.51121156, 48.55776973 ], [ 19.51058808, 48.55764248 ], [ 19.51016879, 48.55751473 ], [ 19.50977147, 48.55739369 ], [ 19.5096804, 48.55736595 ], [ 19.50943834, 48.55739362 ], [ 19.50943775, 48.55740567 ], [ 19.50943607, 48.55743985 ], [ 19.50946401, 48.55748938 ], [ 19.50946937, 48.55752244 ], [ 19.50947488, 48.55756705 ], [ 19.50946545, 48.55763495 ], [ 19.50944333, 48.55766972 ], [ 19.50928136, 48.55773138 ], [ 19.50909469, 48.55780966 ], [ 19.50889542, 48.55789286 ], [ 19.50872108, 48.55796621 ], [ 19.50864387, 48.55799284 ], [ 19.50843468, 48.55808117 ], [ 19.50829275, 48.55814601 ], [ 19.50810105, 48.55822433 ], [ 19.50787674, 48.55830276 ], [ 19.5075378, 48.55842782 ], [ 19.50731406, 48.55855911 ], [ 19.50705522, 48.5586922 ], [ 19.50677407, 48.55885022 ], [ 19.50657494, 48.5589501 ], [ 19.50622116, 48.55910007 ], [ 19.50592951, 48.55920018 ], [ 19.50588207, 48.55921358 ], [ 19.50560757, 48.55927066 ], [ 19.50539234, 48.55926639 ], [ 19.50528961, 48.55924361 ], [ 19.50525492, 48.55925066 ], [ 19.50523979, 48.55925374 ], [ 19.50504406, 48.55929013 ], [ 19.50434329, 48.55942044 ], [ 19.50360414, 48.55955528 ], [ 19.50308782, 48.55943962 ], [ 19.50219564, 48.55924444 ], [ 19.50205544, 48.55923831 ], [ 19.50097432, 48.55918935 ], [ 19.50040238, 48.55901123 ], [ 19.49904491, 48.55857172 ], [ 19.49859099, 48.55845441 ], [ 19.49832019, 48.55838444 ], [ 19.497969, 48.55828992 ], [ 19.49714924, 48.55811798 ], [ 19.4965803, 48.55800959 ], [ 19.49646415, 48.55761978 ], [ 19.4963969, 48.55738362 ], [ 19.49638626, 48.55726529 ], [ 19.49638079, 48.55720491 ], [ 19.49638024, 48.55719848 ], [ 19.49632759, 48.55691268 ], [ 19.49636321, 48.55671076 ], [ 19.49607885, 48.55652846 ], [ 19.49613764, 48.55639424 ], [ 19.49616372, 48.55624696 ], [ 19.49579397, 48.55603852 ], [ 19.49582281, 48.55591273 ], [ 19.49575617, 48.55575097 ], [ 19.49556543, 48.55564955 ], [ 19.49538896, 48.55555581 ], [ 19.49498391, 48.55532274 ], [ 19.49470656, 48.55537994 ], [ 19.49449195, 48.55542417 ], [ 19.49392486, 48.55553087 ], [ 19.49325899, 48.55577362 ], [ 19.49281287, 48.55598392 ], [ 19.49222725, 48.55625121 ], [ 19.49167899, 48.55651834 ], [ 19.49117593, 48.55681011 ], [ 19.49050105, 48.55720524 ], [ 19.48984352, 48.55758378 ], [ 19.48939206, 48.55778768 ], [ 19.48912308, 48.55794442 ], [ 19.48900354, 48.55801948 ], [ 19.48881677, 48.5581345 ], [ 19.48866474, 48.55821625 ], [ 19.48850271, 48.55830142 ], [ 19.48834316, 48.55838489 ], [ 19.48823591, 48.55843996 ], [ 19.4882211, 48.55846325 ], [ 19.48820139, 48.55850462 ], [ 19.48836689, 48.55853357 ], [ 19.48896152, 48.55867773 ], [ 19.48931336, 48.55883317 ], [ 19.48959807, 48.55904174 ], [ 19.48968917, 48.55915046 ], [ 19.4897801, 48.55924916 ], [ 19.48972741, 48.55927358 ], [ 19.48954579, 48.55937063 ], [ 19.48944996, 48.55942037 ], [ 19.48930155, 48.55949607 ], [ 19.48910093, 48.55959297 ], [ 19.48897567, 48.55965135 ], [ 19.48875011, 48.55976196 ], [ 19.48861898, 48.55984765 ], [ 19.48859905, 48.55986025 ], [ 19.48853286, 48.5599019 ], [ 19.48850363, 48.55992029 ], [ 19.48823877, 48.56009182 ], [ 19.48814213, 48.56016217 ], [ 19.48792367, 48.56031494 ], [ 19.48787923, 48.56035129 ], [ 19.48760648, 48.56057583 ], [ 19.48747072, 48.56068871 ], [ 19.48732319, 48.56080502 ], [ 19.48715881, 48.56093172 ], [ 19.48679022, 48.56118544 ], [ 19.48675456, 48.56121579 ], [ 19.48669242, 48.56126799 ], [ 19.48665335, 48.56130107 ], [ 19.48614964, 48.56168077 ], [ 19.48612618, 48.56169844 ], [ 19.48605818, 48.56173026 ], [ 19.48603085, 48.56174856 ], [ 19.48595691, 48.56179669 ], [ 19.48593854, 48.56180864 ], [ 19.48573436, 48.5619701 ], [ 19.48563214, 48.56204172 ], [ 19.4854976, 48.56213004 ], [ 19.48534561, 48.56223839 ], [ 19.48511608, 48.56237351 ], [ 19.48508114, 48.5623919 ], [ 19.48496138, 48.56245207 ], [ 19.4849164, 48.56246386 ], [ 19.48480381, 48.56249596 ], [ 19.48474575, 48.5624334 ], [ 19.48466244, 48.56234623 ], [ 19.48463462, 48.56230996 ], [ 19.48461457, 48.56229523 ], [ 19.48459451, 48.56228709 ], [ 19.48457433, 48.56227885 ], [ 19.48445408, 48.56228445 ], [ 19.48435377, 48.56227348 ], [ 19.48432854, 48.56227573 ], [ 19.48423367, 48.56228404 ], [ 19.48414363, 48.56229942 ], [ 19.48407656, 48.56231461 ], [ 19.48401908, 48.56232132 ], [ 19.48397395, 48.56232806 ], [ 19.48381391, 48.56235804 ], [ 19.48368893, 48.56238136 ], [ 19.48365642, 48.56238958 ], [ 19.48362139, 48.56239463 ], [ 19.48345632, 48.56242465 ], [ 19.4833988, 48.56243297 ], [ 19.48336632, 48.56243958 ], [ 19.48330845, 48.56244483 ], [ 19.48319874, 48.5624547 ], [ 19.48310377, 48.56246147 ], [ 19.48299369, 48.56246329 ], [ 19.48294112, 48.56246338 ], [ 19.48271096, 48.56243565 ], [ 19.48262603, 48.5624308 ], [ 19.48249585, 48.56242106 ], [ 19.48222834, 48.56238177 ], [ 19.48218083, 48.56238019 ], [ 19.48204814, 48.56236718 ], [ 19.48190559, 48.56233432 ], [ 19.48188349, 48.56232491 ], [ 19.48184802, 48.56230965 ], [ 19.48181558, 48.5622966 ], [ 19.48176582, 48.56227644 ], [ 19.48167892, 48.56224139 ], [ 19.48166041, 48.56223395 ], [ 19.48165612, 48.56223212 ], [ 19.48160579, 48.56220968 ], [ 19.48155183, 48.56218554 ], [ 19.48146258, 48.56214578 ], [ 19.48144584, 48.56213833 ], [ 19.48139783, 48.56211699 ], [ 19.48137127, 48.56210746 ], [ 19.48129328, 48.56207931 ], [ 19.48125768, 48.56206657 ], [ 19.48124264, 48.56206109 ], [ 19.48123739, 48.56205932 ], [ 19.48121964, 48.5620538 ], [ 19.48108014, 48.56201009 ], [ 19.48104259, 48.56200681 ], [ 19.48092519, 48.56199432 ], [ 19.48087496, 48.56198892 ], [ 19.48080261, 48.56200657 ], [ 19.48069986, 48.56203164 ], [ 19.48069261, 48.56203337 ], [ 19.48064996, 48.56204374 ], [ 19.48044985, 48.56202092 ], [ 19.48042958, 48.56201727 ], [ 19.48039786, 48.56201156 ], [ 19.48001966, 48.56194386 ], [ 19.47976726, 48.5621193 ], [ 19.47936238, 48.56240232 ], [ 19.47908812, 48.56220043 ], [ 19.47908473, 48.56219784 ], [ 19.47887123, 48.56202257 ], [ 19.47873424, 48.56191 ], [ 19.47872937, 48.56190598 ], [ 19.4786319, 48.5619441 ], [ 19.47850442, 48.56198722 ], [ 19.47826184, 48.5620734 ], [ 19.4782344, 48.56208502 ], [ 19.47808935, 48.56213642 ], [ 19.47794187, 48.56218123 ], [ 19.47781942, 48.56222431 ], [ 19.47771815, 48.56226242 ], [ 19.47766949, 48.56228072 ], [ 19.4775494, 48.56232211 ], [ 19.477407, 48.56237021 ], [ 19.47723692, 48.5624283 ], [ 19.47719546, 48.56243511 ], [ 19.47709931, 48.56233066 ], [ 19.47697819, 48.56219908 ], [ 19.47680884, 48.56203668 ], [ 19.4766028, 48.56185643 ], [ 19.47627988, 48.56157519 ], [ 19.47615506, 48.56147219 ], [ 19.47603583, 48.56136649 ], [ 19.47596111, 48.56130486 ], [ 19.4759134, 48.5613232 ], [ 19.47590088, 48.56128358 ], [ 19.47582828, 48.5611813 ], [ 19.47573579, 48.56109378 ], [ 19.47534043, 48.56078212 ], [ 19.47520778, 48.56067488 ], [ 19.4750827, 48.56055772 ], [ 19.47505518, 48.56051479 ], [ 19.47501018, 48.56051648 ], [ 19.47500665, 48.56051389 ], [ 19.47500589, 48.5605134 ], [ 19.47499556, 48.56050571 ], [ 19.47495009, 48.56047195 ], [ 19.47490762, 48.56044067 ], [ 19.47483998, 48.56036477 ], [ 19.47474988, 48.56026239 ], [ 19.47469739, 48.56020631 ], [ 19.47463484, 48.56013371 ], [ 19.47458721, 48.56009083 ], [ 19.47454968, 48.5600578 ], [ 19.47421184, 48.55977405 ], [ 19.47417685, 48.55974267 ], [ 19.47394952, 48.5599198 ], [ 19.47373971, 48.56009188 ], [ 19.47362727, 48.56009034 ], [ 19.47357221, 48.56003423 ], [ 19.47347461, 48.55991546 ], [ 19.4731668, 48.55962003 ], [ 19.47274391, 48.55925045 ], [ 19.47260894, 48.55931179 ], [ 19.4725464, 48.55926226 ], [ 19.47254136, 48.559211 ], [ 19.47251886, 48.55916812 ], [ 19.47246625, 48.55914665 ], [ 19.47243621, 48.55911865 ], [ 19.4723737, 48.55910222 ], [ 19.47238876, 48.55906253 ], [ 19.47248117, 48.55901445 ], [ 19.47267852, 48.55891671 ], [ 19.472864, 48.55880787 ], [ 19.4729192, 48.55877519 ], [ 19.47296474, 48.55875035 ], [ 19.47293973, 48.55867075 ], [ 19.47292781, 48.55859203 ], [ 19.47287815, 48.55840896 ], [ 19.47284772, 48.55827528 ], [ 19.47280756, 48.55815143 ], [ 19.47278741, 48.5580671 ], [ 19.47273483, 48.55798622 ], [ 19.47265969, 48.55788878 ], [ 19.47252187, 48.55768402 ], [ 19.47249187, 48.55764277 ], [ 19.47235173, 48.55757188 ], [ 19.47221921, 48.55749439 ], [ 19.47219917, 48.55748219 ], [ 19.47191898, 48.55731128 ], [ 19.47179141, 48.55724864 ], [ 19.47166885, 48.55719262 ], [ 19.47147873, 48.55709857 ], [ 19.47131366, 48.5570129 ], [ 19.47101852, 48.55686781 ], [ 19.47099594, 48.55684629 ], [ 19.47095826, 48.55671579 ], [ 19.47091057, 48.55661827 ], [ 19.47063562, 48.55657897 ], [ 19.47052537, 48.55645023 ], [ 19.47005726, 48.5559268 ], [ 19.47004211, 48.55590689 ], [ 19.47000939, 48.5557731 ], [ 19.46998433, 48.55569539 ], [ 19.46981927, 48.55561621 ], [ 19.46968922, 48.55555525 ], [ 19.46959668, 48.5555339 ], [ 19.46955408, 48.55545122 ], [ 19.46954896, 48.55540329 ], [ 19.46949878, 48.55531909 ], [ 19.46945622, 48.55526951 ], [ 19.46937624, 48.55521674 ], [ 19.46928116, 48.55517057 ], [ 19.46917101, 48.55512442 ], [ 19.46906611, 48.55509149 ], [ 19.46889098, 48.55499579 ], [ 19.46876821, 48.55488017 ], [ 19.46865063, 48.55475136 ], [ 19.46850022, 48.55452338 ], [ 19.46844514, 48.55444571 ], [ 19.46839504, 48.55439289 ], [ 19.46826483, 48.55429883 ], [ 19.46811722, 48.55417664 ], [ 19.46802699, 48.55404613 ], [ 19.46794692, 48.5539801 ], [ 19.46787675, 48.55389749 ], [ 19.46783172, 48.55385455 ], [ 19.46770642, 48.55369094 ], [ 19.4676036, 48.55352405 ], [ 19.46756341, 48.55341994 ], [ 19.46741549, 48.55315555 ], [ 19.46736533, 48.55304809 ], [ 19.46734506, 48.55294058 ], [ 19.46733736, 48.55285791 ], [ 19.46738216, 48.55276687 ], [ 19.46746201, 48.55268079 ], [ 19.46740938, 48.55263786 ], [ 19.46734687, 48.552628 ], [ 19.46727442, 48.55263635 ], [ 19.46696224, 48.55273107 ], [ 19.46686487, 48.55273618 ], [ 19.46680483, 48.55271968 ], [ 19.46648466, 48.55260099 ], [ 19.46634701, 48.55248873 ], [ 19.46626186, 48.55243094 ], [ 19.46618162, 48.55228051 ], [ 19.46619929, 48.5522624 ], [ 19.46623646, 48.55222419 ], [ 19.46615127, 48.55209364 ], [ 19.46612363, 48.55203907 ], [ 19.46605862, 48.55199123 ], [ 19.46602098, 48.55195161 ], [ 19.46601332, 48.55187381 ], [ 19.46600068, 48.55179938 ], [ 19.46596287, 48.55166383 ], [ 19.46592278, 48.55157288 ], [ 19.465825, 48.55147537 ], [ 19.46571242, 48.55137131 ], [ 19.46560481, 48.55129868 ], [ 19.46540133, 48.55145067 ], [ 19.46538526, 48.55146272 ], [ 19.46530782, 48.55148102 ], [ 19.46519782, 48.55145146 ], [ 19.46512531, 48.55142833 ], [ 19.46485765, 48.55131785 ], [ 19.46459009, 48.55122063 ], [ 19.46447479, 48.55107687 ], [ 19.46412759, 48.5511484 ], [ 19.46406686, 48.55118208 ], [ 19.46405272, 48.5511899 ], [ 19.46403415, 48.55131922 ], [ 19.46403061, 48.55134376 ], [ 19.46393567, 48.55134393 ], [ 19.46384316, 48.55136216 ], [ 19.46373092, 48.55139875 ], [ 19.46353343, 48.55137088 ], [ 19.4634684, 48.55136812 ], [ 19.46334592, 48.55136286 ], [ 19.46330136, 48.55152992 ], [ 19.4632929, 48.55159579 ], [ 19.46328172, 48.55168218 ], [ 19.46329193, 48.55181284 ], [ 19.4633148, 48.5519368 ], [ 19.4633184, 48.55195031 ], [ 19.46335764, 48.55210054 ], [ 19.46343284, 48.55223441 ], [ 19.46353303, 48.55235665 ], [ 19.46366323, 48.55249047 ], [ 19.46352339, 48.55254526 ], [ 19.46337113, 48.55261488 ], [ 19.46329129, 48.55265966 ], [ 19.46325885, 48.55267618 ], [ 19.46307206, 48.55277819 ], [ 19.46306167, 48.55278392 ], [ 19.46303926, 48.5527955 ], [ 19.46292669, 48.55274274 ], [ 19.4628216, 48.5527015 ], [ 19.46262158, 48.55263069 ], [ 19.46257159, 48.5526142 ], [ 19.46243405, 48.5525664 ], [ 19.46237907, 48.55254824 ], [ 19.46229153, 48.55251693 ], [ 19.4622466, 48.55249879 ], [ 19.46211908, 48.55245263 ], [ 19.4620492, 48.55249571 ], [ 19.46189701, 48.55260176 ], [ 19.46172236, 48.55272759 ], [ 19.46155517, 48.55285349 ], [ 19.46136814, 48.55300255 ], [ 19.46119855, 48.55314989 ], [ 19.46110129, 48.55324759 ], [ 19.46108122, 48.5532691 ], [ 19.46076965, 48.55360176 ], [ 19.460503, 48.55390127 ], [ 19.46039545, 48.55387164 ], [ 19.46034064, 48.55392624 ], [ 19.46031318, 48.5539676 ], [ 19.46028336, 48.55403374 ], [ 19.46026592, 48.55409333 ], [ 19.4602263, 48.55424051 ], [ 19.46020896, 48.55435294 ], [ 19.4601992, 48.55445545 ], [ 19.46018233, 48.554829 ], [ 19.46037548, 48.55529826 ], [ 19.46039849, 48.5556056 ], [ 19.46037648, 48.55589822 ], [ 19.46032934, 48.55610483 ], [ 19.4601819, 48.55606198 ], [ 19.45997707, 48.55608533 ], [ 19.45993213, 48.55610189 ], [ 19.45985485, 48.55614165 ], [ 19.4597077, 48.55632186 ], [ 19.45963049, 48.55642771 ], [ 19.45955807, 48.55653189 ], [ 19.45950585, 48.55666081 ], [ 19.45947856, 48.55675177 ], [ 19.45947106, 48.55680462 ], [ 19.45944827, 48.55686847 ], [ 19.45943861, 48.5568956 ], [ 19.45941635, 48.55695831 ], [ 19.45960135, 48.55704411 ], [ 19.45955408, 48.55716083 ], [ 19.45953168, 48.55721595 ], [ 19.45952542, 48.55724685 ], [ 19.4595243, 48.5572523 ], [ 19.45951666, 48.55736031 ], [ 19.45951449, 48.55739114 ], [ 19.45951226, 48.55757117 ], [ 19.45953231, 48.55764225 ], [ 19.45953976, 48.55766035 ], [ 19.45954922, 48.55768523 ], [ 19.45957748, 48.55775948 ], [ 19.45958499, 48.55778093 ], [ 19.45949383, 48.55796078 ], [ 19.45948781, 48.55797267 ], [ 19.45945796, 48.55804043 ], [ 19.45946043, 48.55809662 ], [ 19.45945306, 48.55812134 ], [ 19.45943189, 48.55821222 ], [ 19.45936357, 48.55850466 ], [ 19.45932137, 48.55867489 ], [ 19.45929153, 48.55885661 ], [ 19.4592918, 48.55903496 ], [ 19.45931937, 48.55916706 ], [ 19.45933187, 48.55916701 ], [ 19.45937373, 48.55934126 ], [ 19.45966305, 48.55934872 ], [ 19.45969232, 48.55942635 ], [ 19.45962105, 48.5594773 ], [ 19.45946335, 48.55957877 ], [ 19.45914943, 48.55964697 ], [ 19.45902073, 48.55967721 ], [ 19.45888133, 48.55970713 ], [ 19.45873032, 48.55973002 ], [ 19.45885051, 48.5597917 ], [ 19.45893798, 48.55984943 ], [ 19.45899801, 48.55989559 ], [ 19.45900549, 48.55991217 ], [ 19.45902307, 48.55997322 ], [ 19.45902056, 48.56000457 ], [ 19.45902075, 48.56008878 ], [ 19.45906829, 48.56020929 ], [ 19.4591534, 48.56033804 ], [ 19.45917593, 48.56041897 ], [ 19.45930097, 48.56061702 ], [ 19.45934608, 48.56065663 ], [ 19.45946603, 48.56066808 ], [ 19.45950849, 48.56071091 ], [ 19.45955343, 48.56075718 ], [ 19.45957604, 48.56079511 ], [ 19.4595727, 48.56085869 ], [ 19.4595699, 48.56091212 ], [ 19.45956619, 48.56098173 ], [ 19.45956371, 48.56101803 ], [ 19.45959873, 48.56107079 ], [ 19.45969369, 48.56111038 ], [ 19.45972372, 48.56112188 ], [ 19.45982113, 48.56111524 ], [ 19.45982367, 48.56123743 ], [ 19.45984135, 48.56130011 ], [ 19.46010359, 48.56130819 ], [ 19.46017625, 48.56155077 ], [ 19.46025119, 48.56156391 ], [ 19.4603137, 48.56165473 ], [ 19.46044383, 48.5617817 ], [ 19.46063617, 48.56187398 ], [ 19.46072372, 48.56195154 ], [ 19.46079126, 48.56208849 ], [ 19.46085638, 48.56220729 ], [ 19.4608814, 48.56225191 ], [ 19.4609264, 48.56230801 ], [ 19.46098633, 48.5623475 ], [ 19.46106637, 48.56240362 ], [ 19.46112136, 48.5624564 ], [ 19.46118887, 48.56249101 ], [ 19.46123135, 48.56251571 ], [ 19.46136635, 48.56264931 ], [ 19.46135136, 48.56266259 ], [ 19.46131144, 48.56267912 ], [ 19.46113654, 48.56276337 ], [ 19.46088431, 48.56285439 ], [ 19.46066704, 48.56292052 ], [ 19.46091685, 48.56302432 ], [ 19.46107193, 48.56316453 ], [ 19.46075472, 48.56334962 ], [ 19.46064742, 48.56345866 ], [ 19.46058751, 48.56351645 ], [ 19.46053255, 48.56358908 ], [ 19.46051508, 48.56361549 ], [ 19.46044273, 48.56371129 ], [ 19.46040012, 48.56375573 ], [ 19.46039524, 48.56376083 ], [ 19.46037398, 48.56378075 ], [ 19.46051204, 48.56388799 ], [ 19.46049281, 48.56389773 ], [ 19.46042776, 48.56393734 ], [ 19.46029296, 48.56401994 ], [ 19.46021802, 48.56406955 ], [ 19.46007022, 48.56415687 ], [ 19.45982049, 48.56432175 ], [ 19.45957063, 48.56448004 ], [ 19.45952633, 48.56450205 ], [ 19.45954972, 48.56453641 ], [ 19.45951694, 48.5647151 ], [ 19.45951156, 48.56475181 ], [ 19.45951062, 48.56475808 ], [ 19.45952081, 48.56486197 ], [ 19.45952917, 48.56487795 ], [ 19.4595679, 48.56495216 ], [ 19.45961025, 48.56504745 ], [ 19.45964867, 48.56518231 ], [ 19.45966455, 48.56531585 ], [ 19.45968717, 48.56551525 ], [ 19.45967423, 48.56587862 ], [ 19.45958511, 48.5658979 ], [ 19.45944383, 48.56592106 ], [ 19.45930129, 48.56618696 ], [ 19.45922742, 48.56640737 ], [ 19.45920531, 48.56646476 ], [ 19.45899894, 48.56700113 ], [ 19.45897271, 48.56708204 ], [ 19.45892517, 48.56722822 ], [ 19.45888127, 48.56745156 ], [ 19.45885691, 48.56756736 ], [ 19.45887394, 48.56764641 ], [ 19.45885076, 48.56771268 ], [ 19.45881126, 48.56781884 ], [ 19.45872862, 48.56780002 ], [ 19.4584881, 48.56774688 ], [ 19.45842054, 48.56773065 ], [ 19.45833315, 48.56770917 ], [ 19.458221, 48.56768429 ], [ 19.45811623, 48.56766281 ], [ 19.45799398, 48.56763456 ], [ 19.45792263, 48.56762069 ], [ 19.45786673, 48.56760978 ], [ 19.45760971, 48.56755343 ], [ 19.45748971, 48.5676526 ], [ 19.45735021, 48.56751527 ], [ 19.45713307, 48.56755815 ], [ 19.45704821, 48.56756807 ], [ 19.45672103, 48.56763403 ], [ 19.45662112, 48.56766543 ], [ 19.45651894, 48.56764389 ], [ 19.45649142, 48.56765875 ], [ 19.45648747, 48.56766262 ], [ 19.45647639, 48.56767364 ], [ 19.45642897, 48.56769676 ], [ 19.45635385, 48.56778269 ], [ 19.45621383, 48.56794637 ], [ 19.45626477, 48.56813745 ], [ 19.45630549, 48.56829028 ], [ 19.4563202, 48.56842584 ], [ 19.4563252, 48.5684478 ], [ 19.4563701, 48.56864328 ], [ 19.45639453, 48.56874991 ], [ 19.45640443, 48.56879626 ], [ 19.45631702, 48.56880444 ], [ 19.45603758, 48.56878779 ], [ 19.45578542, 48.56878937 ], [ 19.45574798, 48.56879267 ], [ 19.45572295, 48.56879429 ], [ 19.4556836, 48.56880544 ], [ 19.45567057, 48.56880916 ], [ 19.45565829, 48.56881607 ], [ 19.45563311, 48.56883058 ], [ 19.45560551, 48.56884877 ], [ 19.45554047, 48.56893309 ], [ 19.45547546, 48.56897604 ], [ 19.455453, 48.56902394 ], [ 19.45543548, 48.56907515 ], [ 19.45543268, 48.56920412 ], [ 19.45541211, 48.56928277 ], [ 19.45539247, 48.56935786 ], [ 19.45538462, 48.56952807 ], [ 19.45538448, 48.56965374 ], [ 19.45540357, 48.56972613 ], [ 19.45541923, 48.569786 ], [ 19.45546167, 48.56978934 ], [ 19.45544642, 48.56989348 ], [ 19.45548364, 48.57001909 ], [ 19.45548353, 48.57006372 ], [ 19.45547818, 48.57027696 ], [ 19.45548061, 48.57038607 ], [ 19.45551774, 48.57056632 ], [ 19.45553255, 48.57064067 ], [ 19.45533279, 48.57068355 ], [ 19.4552397, 48.57105543 ], [ 19.45522936, 48.57132479 ], [ 19.45512698, 48.57133966 ], [ 19.45504448, 48.57135276 ], [ 19.45501989, 48.57135278 ], [ 19.45508112, 48.57152487 ], [ 19.45517478, 48.57170893 ], [ 19.45525824, 48.57183282 ], [ 19.45537946, 48.57196452 ], [ 19.45540308, 48.57195958 ], [ 19.45541506, 48.57195672 ], [ 19.4555255, 48.57192996 ], [ 19.45566778, 48.57189368 ], [ 19.45568522, 48.57190856 ], [ 19.45573991, 48.57206555 ], [ 19.45581463, 48.57220779 ], [ 19.45587179, 48.57238636 ], [ 19.45575436, 48.57239449 ], [ 19.45574928, 48.5724937 ], [ 19.45580388, 48.57265402 ], [ 19.45584138, 48.57269373 ], [ 19.45589369, 48.57274495 ], [ 19.45599323, 48.57294668 ], [ 19.45606285, 48.57311528 ], [ 19.45608518, 48.57323271 ], [ 19.45617246, 48.57335011 ], [ 19.4561973, 48.57340798 ], [ 19.45620973, 48.57346248 ], [ 19.45623447, 48.57357651 ], [ 19.45611952, 48.57370863 ], [ 19.4561243, 48.57379297 ], [ 19.45611924, 48.5738343 ], [ 19.45609923, 48.57385906 ], [ 19.45612422, 48.57389377 ], [ 19.45609673, 48.57391854 ], [ 19.45611408, 48.57397146 ], [ 19.45656103, 48.57392055 ], [ 19.45672089, 48.5739107 ], [ 19.45702553, 48.57386803 ], [ 19.45712292, 48.57387465 ], [ 19.45720024, 48.57386816 ], [ 19.45764477, 48.57378747 ], [ 19.45764463, 48.57391315 ], [ 19.45766436, 48.57402054 ], [ 19.45771668, 48.57417427 ], [ 19.45773902, 48.57424041 ], [ 19.4577612, 48.5744388 ], [ 19.45771357, 48.57458578 ], [ 19.45765597, 48.57471139 ], [ 19.45762339, 48.57483032 ], [ 19.45761584, 48.57487333 ], [ 19.45743351, 48.57490287 ], [ 19.45741314, 48.57529122 ], [ 19.45740803, 48.57540359 ], [ 19.45743779, 48.57550613 ], [ 19.45744278, 48.57557056 ], [ 19.457455, 48.57573089 ], [ 19.45749226, 48.57591267 ], [ 19.45750457, 48.57599529 ], [ 19.45759674, 48.57626141 ], [ 19.45768383, 48.57646147 ], [ 19.45778592, 48.57666485 ], [ 19.45781336, 48.57671112 ], [ 19.45794299, 48.57692769 ], [ 19.4580427, 48.57711121 ], [ 19.45806766, 48.57712446 ], [ 19.45792522, 48.57714414 ], [ 19.45770302, 48.57721004 ], [ 19.45764308, 48.57722816 ], [ 19.45773775, 48.57738359 ], [ 19.45775577, 48.57741355 ], [ 19.45777265, 48.57744148 ], [ 19.45779003, 48.57747619 ], [ 19.45786255, 48.57747786 ], [ 19.45789991, 48.57745481 ], [ 19.45790993, 48.57748458 ], [ 19.4579232, 48.5775081 ], [ 19.45794736, 48.5775507 ], [ 19.45798963, 48.57763002 ], [ 19.45808706, 48.57765819 ], [ 19.45807703, 48.57767972 ], [ 19.45807455, 48.57769286 ], [ 19.45810687, 48.57771609 ], [ 19.45812737, 48.57773932 ], [ 19.45816098, 48.5777902 ], [ 19.45822379, 48.57779755 ], [ 19.45825345, 48.57780101 ], [ 19.45829214, 48.5778552 ], [ 19.45831823, 48.57788851 ], [ 19.45833833, 48.57791424 ], [ 19.4583993, 48.57796324 ], [ 19.45842402, 48.57800055 ], [ 19.45844066, 48.57802558 ], [ 19.45848923, 48.57807635 ], [ 19.45853313, 48.57809282 ], [ 19.4585496, 48.578099 ], [ 19.45860809, 48.57814969 ], [ 19.45870596, 48.57817364 ], [ 19.45882765, 48.5782601 ], [ 19.45889388, 48.57832233 ], [ 19.45904496, 48.57839041 ], [ 19.4590499, 48.57849766 ], [ 19.45914129, 48.57856621 ], [ 19.45913933, 48.57870649 ], [ 19.45918912, 48.57881502 ], [ 19.45917544, 48.57887614 ], [ 19.45920141, 48.57892216 ], [ 19.45922121, 48.57902766 ], [ 19.4592157, 48.57911684 ], [ 19.45925998, 48.57920555 ], [ 19.45930149, 48.57927285 ], [ 19.45927278, 48.57933092 ], [ 19.45915642, 48.57937634 ], [ 19.45902468, 48.57939887 ], [ 19.45898277, 48.57941738 ], [ 19.45909255, 48.57965087 ], [ 19.4591436, 48.57981544 ], [ 19.45917278, 48.57989776 ], [ 19.45918663, 48.57996197 ], [ 19.45921569, 48.58003275 ], [ 19.45926678, 48.58009175 ], [ 19.45930762, 48.58013594 ], [ 19.45927546, 48.58014445 ], [ 19.45904543, 48.58023541 ], [ 19.45837383, 48.58021445 ], [ 19.45843863, 48.58032612 ], [ 19.45857286, 48.58053794 ], [ 19.45870377, 48.58071183 ], [ 19.45880346, 48.58081998 ], [ 19.45891547, 48.58092473 ], [ 19.45908315, 48.58106698 ], [ 19.45925353, 48.58122233 ], [ 19.45978358, 48.5815086 ], [ 19.45997329, 48.58163411 ], [ 19.4601676, 48.58185865 ], [ 19.46021231, 48.58196892 ], [ 19.46026268, 48.58211047 ], [ 19.46025586, 48.58214017 ], [ 19.46023027, 48.58222788 ], [ 19.46022891, 48.58240614 ], [ 19.46022747, 48.58245566 ], [ 19.4601828, 48.58282737 ], [ 19.46026605, 48.58311389 ], [ 19.46037671, 48.58339692 ], [ 19.46037204, 48.58341789 ], [ 19.46039449, 48.58342146 ], [ 19.46056301, 48.58344825 ], [ 19.46072018, 48.5834654 ], [ 19.46085824, 48.58347058 ], [ 19.46109734, 48.58348398 ], [ 19.46135181, 48.58352289 ], [ 19.46134739, 48.58353765 ], [ 19.46140394, 48.58386729 ], [ 19.46142497, 48.58404209 ], [ 19.46151993, 48.58429382 ], [ 19.46158925, 48.58451947 ], [ 19.46178397, 48.58477368 ], [ 19.46183443, 48.58492849 ], [ 19.46184426, 48.58504227 ], [ 19.46184823, 48.58512152 ], [ 19.46182365, 48.58525868 ], [ 19.46177111, 48.58537632 ], [ 19.46176432, 48.58541603 ], [ 19.46173879, 48.58550698 ], [ 19.46171753, 48.58556658 ], [ 19.4617194, 48.58566566 ], [ 19.46177521, 48.58570973 ], [ 19.46174304, 48.58584536 ], [ 19.46177206, 48.58605642 ], [ 19.4618496, 48.58631995 ], [ 19.46168809, 48.58635264 ], [ 19.4612289, 48.58646042 ], [ 19.46107282, 48.58651121 ], [ 19.46094406, 48.58656183 ], [ 19.4608488, 48.58659137 ], [ 19.46075817, 48.58661942 ], [ 19.46054525, 48.58669875 ], [ 19.46030262, 48.58679157 ], [ 19.46017885, 48.58683881 ], [ 19.46016302, 48.58684583 ], [ 19.4600527, 48.58689433 ], [ 19.4598529, 48.58700492 ], [ 19.45972911, 48.58708435 ], [ 19.45972386, 48.58708771 ], [ 19.45969543, 48.58710595 ], [ 19.45966101, 48.58712805 ], [ 19.4595957, 48.58716991 ], [ 19.45959264, 48.58717184 ], [ 19.45952745, 48.58721379 ], [ 19.45952526, 48.58721522 ], [ 19.45949071, 48.58723732 ], [ 19.45947382, 48.58725691 ], [ 19.45990519, 48.58736564 ], [ 19.4601625, 48.58745364 ], [ 19.46043723, 48.58755679 ], [ 19.46074767, 48.58768973 ], [ 19.46102868, 48.58779524 ], [ 19.46119342, 48.58784881 ], [ 19.46138068, 48.58787972 ], [ 19.46161177, 48.58787661 ], [ 19.46193757, 48.58785816 ], [ 19.46212529, 48.5878744 ], [ 19.4623714, 48.58785521 ], [ 19.46261335, 48.5878059 ], [ 19.46277372, 48.58778146 ], [ 19.46298669, 48.58776208 ], [ 19.46319901, 48.58776927 ], [ 19.46333277, 48.58778696 ], [ 19.46351542, 48.5878575 ], [ 19.46364367, 48.5879246 ], [ 19.46393867, 48.58815472 ], [ 19.46391998, 48.58816187 ], [ 19.46386461, 48.58839343 ], [ 19.46424525, 48.58927685 ], [ 19.4642496, 48.58933718 ], [ 19.4642646, 48.58954723 ], [ 19.46427555, 48.58969929 ], [ 19.46429554, 48.58979543 ], [ 19.46435212, 48.59006853 ], [ 19.46443622, 48.5902973 ], [ 19.46447418, 48.59046379 ], [ 19.46441254, 48.59050554 ], [ 19.4643258, 48.59067145 ], [ 19.46435971, 48.59075038 ], [ 19.46436166, 48.59099642 ], [ 19.4642664, 48.59124153 ], [ 19.4642503, 48.59131273 ], [ 19.46425146, 48.59133514 ], [ 19.46426338, 48.5914062 ], [ 19.46430082, 48.59157627 ], [ 19.46442486, 48.59181807 ], [ 19.46432714, 48.59188222 ], [ 19.46424745, 48.59188653 ], [ 19.46397961, 48.59183871 ], [ 19.46376781, 48.59175194 ], [ 19.46366178, 48.59170202 ], [ 19.46355308, 48.59165043 ], [ 19.46345393, 48.59158054 ], [ 19.46337792, 48.59153345 ], [ 19.46316226, 48.59148824 ], [ 19.46307219, 48.59147115 ], [ 19.46258541, 48.59134632 ], [ 19.46237752, 48.59129191 ], [ 19.46198173, 48.59118953 ], [ 19.46169666, 48.59114397 ], [ 19.46131033, 48.59115373 ], [ 19.46102861, 48.59102394 ], [ 19.46095792, 48.59097665 ], [ 19.46073122, 48.59044686 ], [ 19.46061274, 48.59024137 ], [ 19.4604256, 48.58996551 ], [ 19.4603607, 48.58983401 ], [ 19.46026347, 48.58969605 ], [ 19.46020622, 48.58970149 ], [ 19.45982804, 48.58975247 ], [ 19.45971605, 48.58989871 ], [ 19.4592799, 48.59031843 ], [ 19.45911446, 48.59040728 ], [ 19.45888627, 48.5904702 ], [ 19.4587488, 48.59059524 ], [ 19.45866873, 48.59071475 ], [ 19.45868002, 48.59092111 ], [ 19.45868344, 48.5909722 ], [ 19.45866995, 48.59105326 ], [ 19.45865488, 48.59117887 ], [ 19.45864477, 48.59131273 ], [ 19.45864223, 48.59135976 ], [ 19.45861797, 48.59163992 ], [ 19.45860297, 48.59181232 ], [ 19.4585918, 48.59194334 ], [ 19.45857364, 48.59217366 ], [ 19.45855279, 48.59223192 ], [ 19.45840108, 48.59284648 ], [ 19.45835983, 48.59314333 ], [ 19.45826746, 48.59383143 ], [ 19.458148, 48.59386724 ], [ 19.45803038, 48.59390242 ], [ 19.45804297, 48.5939965 ], [ 19.45811497, 48.59407505 ], [ 19.45823006, 48.59426379 ], [ 19.4583255, 48.59446614 ], [ 19.45842075, 48.59466009 ], [ 19.45853346, 48.5948572 ], [ 19.45864123, 48.59505102 ], [ 19.4586164, 48.5950596 ], [ 19.45862389, 48.59506842 ], [ 19.45878975, 48.59526557 ], [ 19.45889121, 48.59537651 ], [ 19.45896434, 48.59544321 ], [ 19.45901037, 48.59550134 ], [ 19.45906888, 48.5955982 ], [ 19.45909197, 48.59568429 ], [ 19.45915745, 48.59579616 ], [ 19.45921958, 48.59586397 ], [ 19.45922573, 48.59592908 ], [ 19.4593246, 48.59608894 ], [ 19.45937832, 48.59623354 ], [ 19.45948036, 48.59634801 ], [ 19.45960084, 48.59648346 ], [ 19.45977736, 48.59658266 ], [ 19.45996276, 48.59664034 ], [ 19.46006838, 48.59677888 ], [ 19.46017742, 48.59692226 ], [ 19.46020065, 48.59703009 ], [ 19.46030295, 48.59713836 ], [ 19.46031341, 48.59720773 ], [ 19.46040158, 48.59729659 ], [ 19.46039171, 48.5973898 ], [ 19.46048746, 48.59748162 ], [ 19.4606489, 48.59758589 ], [ 19.46068998, 48.59764848 ], [ 19.46085654, 48.5977519 ], [ 19.46092672, 48.59791574 ], [ 19.46108451, 48.59805707 ], [ 19.46120764, 48.59815729 ], [ 19.46124322, 48.59820637 ], [ 19.4613248, 48.59833188 ], [ 19.46146668, 48.59838862 ], [ 19.46158154, 48.5985669 ], [ 19.46169955, 48.59868735 ], [ 19.46192401, 48.5988691 ], [ 19.46197649, 48.59895494 ], [ 19.46204886, 48.59908922 ], [ 19.46209701, 48.59914412 ], [ 19.46230525, 48.59938796 ], [ 19.46252041, 48.59951384 ], [ 19.46267277, 48.59960388 ], [ 19.46275275, 48.59968685 ], [ 19.46287973, 48.59972766 ], [ 19.4629453, 48.59981059 ], [ 19.46314208, 48.59988936 ], [ 19.4632456, 48.6000388 ], [ 19.46328587, 48.60014372 ], [ 19.46333258, 48.60018277 ], [ 19.46340314, 48.60018903 ], [ 19.46358737, 48.60024765 ], [ 19.46366978, 48.6002615 ], [ 19.46391863, 48.60038002 ], [ 19.46394184, 48.60044448 ], [ 19.46407651, 48.60055272 ], [ 19.46414501, 48.60055149 ], [ 19.46423649, 48.60059263 ], [ 19.46438524, 48.60063976 ], [ 19.46443191, 48.60068422 ], [ 19.46441709, 48.60069579 ], [ 19.4643732, 48.60072774 ], [ 19.46412457, 48.60092424 ], [ 19.46348823, 48.60142643 ], [ 19.46288359, 48.60190007 ], [ 19.46266648, 48.60206964 ], [ 19.46248361, 48.6022124 ], [ 19.46228848, 48.60236695 ], [ 19.46213246, 48.60249113 ], [ 19.46191313, 48.60266744 ], [ 19.46178149, 48.60277319 ], [ 19.46164972, 48.60287235 ], [ 19.4615475, 48.60295955 ], [ 19.46144733, 48.60303512 ], [ 19.46127427, 48.60317122 ], [ 19.46104004, 48.60335089 ], [ 19.46081552, 48.60352228 ], [ 19.46098728, 48.60369996 ], [ 19.46102423, 48.60377209 ], [ 19.46110667, 48.6039576 ], [ 19.46122027, 48.604103 ], [ 19.46150527, 48.60422302 ], [ 19.46167434, 48.60430167 ], [ 19.4619775, 48.60444788 ], [ 19.46215027, 48.60465851 ], [ 19.46222771, 48.60475651 ], [ 19.46234009, 48.60485569 ], [ 19.46249845, 48.6049855 ], [ 19.46269132, 48.60514496 ], [ 19.46316478, 48.60554964 ], [ 19.46340799, 48.60528653 ], [ 19.46326232, 48.6050741 ], [ 19.4636037, 48.60499561 ], [ 19.46362457, 48.6049808 ], [ 19.46384711, 48.60482934 ], [ 19.4644764, 48.60487559 ], [ 19.46442943, 48.60498015 ], [ 19.4643678, 48.60514371 ], [ 19.46469474, 48.60517589 ], [ 19.46515441, 48.60530007 ], [ 19.46541306, 48.60513108 ], [ 19.46567758, 48.60517495 ], [ 19.46592717, 48.60520073 ], [ 19.46602689, 48.60518725 ], [ 19.46617159, 48.60516874 ], [ 19.46679024, 48.60519862 ], [ 19.46696529, 48.60527736 ], [ 19.46711506, 48.60530345 ], [ 19.46711315, 48.60541398 ], [ 19.46725835, 48.60551919 ], [ 19.46737921, 48.6057466 ], [ 19.46736606, 48.60575131 ], [ 19.46731434, 48.60576991 ], [ 19.46724465, 48.60579641 ], [ 19.46726613, 48.60660819 ], [ 19.4673437, 48.60665751 ], [ 19.4672021, 48.60677001 ], [ 19.46707122, 48.60703935 ], [ 19.4671292, 48.60714149 ], [ 19.4672871, 48.60730283 ], [ 19.46744454, 48.60736181 ], [ 19.46761117, 48.60727229 ], [ 19.46779792, 48.60719434 ], [ 19.46804692, 48.60710631 ], [ 19.46815931, 48.60715553 ], [ 19.46822694, 48.60721142 ], [ 19.46821492, 48.60728903 ], [ 19.46817373, 48.60752675 ], [ 19.46803652, 48.60752703 ], [ 19.46807737, 48.60772169 ], [ 19.46825265, 48.60784335 ], [ 19.46849229, 48.6078939 ], [ 19.46859893, 48.60778806 ], [ 19.46870594, 48.60773011 ], [ 19.46883589, 48.60777267 ], [ 19.46885594, 48.60779903 ], [ 19.46886853, 48.60781882 ], [ 19.46910822, 48.6078727 ], [ 19.46924552, 48.60790371 ], [ 19.46950301, 48.60803352 ], [ 19.46954604, 48.60815876 ], [ 19.46961926, 48.60833022 ], [ 19.46956736, 48.60842112 ], [ 19.46950031, 48.60847408 ], [ 19.46942131, 48.60863097 ], [ 19.46940448, 48.60877462 ], [ 19.46932282, 48.60889361 ], [ 19.46910964, 48.60915317 ], [ 19.46905011, 48.60921594 ], [ 19.468991, 48.60934157 ], [ 19.46897131, 48.60939277 ], [ 19.46896155, 48.60944388 ], [ 19.4689597, 48.60958083 ], [ 19.46894012, 48.60965025 ], [ 19.46881344, 48.60975281 ], [ 19.46860892, 48.60973518 ], [ 19.46840427, 48.60971754 ], [ 19.46825462, 48.60971455 ], [ 19.46805299, 48.6097827 ], [ 19.46811895, 48.61000863 ], [ 19.46812982, 48.61017692 ], [ 19.46814291, 48.61030889 ], [ 19.46814628, 48.61046078 ], [ 19.46813709, 48.61060929 ], [ 19.46810563, 48.61081401 ], [ 19.46810649, 48.61096912 ], [ 19.46810724, 48.61111106 ], [ 19.46797333, 48.6112599 ], [ 19.46779982, 48.61146829 ], [ 19.46778006, 48.61149306 ], [ 19.46772046, 48.61156422 ], [ 19.46773104, 48.6116582 ], [ 19.46771653, 48.61174903 ], [ 19.46759538, 48.61195725 ], [ 19.46741595, 48.61199406 ], [ 19.46709359, 48.61186943 ], [ 19.46686803, 48.61212751 ], [ 19.46662372, 48.61217104 ], [ 19.46642852, 48.61251483 ], [ 19.46621981, 48.61265739 ], [ 19.46652525, 48.6128777 ], [ 19.46674539, 48.61300091 ], [ 19.46694348, 48.61318855 ], [ 19.46691128, 48.61324475 ], [ 19.4668918, 48.61332733 ], [ 19.46674322, 48.61352742 ], [ 19.46665439, 48.61369602 ], [ 19.46660823, 48.6139189 ], [ 19.46653125, 48.61399998 ], [ 19.4662743, 48.61398423 ], [ 19.46609182, 48.61392525 ], [ 19.46595181, 48.61384147 ], [ 19.46563837, 48.61400746 ], [ 19.46570006, 48.6140527 ], [ 19.46587381, 48.61418007 ], [ 19.46557043, 48.61436907 ], [ 19.46512523, 48.61412935 ], [ 19.46467721, 48.61386489 ], [ 19.46438383, 48.61357688 ], [ 19.46402181, 48.61371491 ], [ 19.46387346, 48.61377147 ], [ 19.46327522, 48.6138509 ], [ 19.46303787, 48.61377728 ], [ 19.46299224, 48.61376136 ], [ 19.46281785, 48.6137004 ], [ 19.46267607, 48.61376683 ], [ 19.46262924, 48.61388419 ], [ 19.46257386, 48.61425414 ], [ 19.46241476, 48.61436853 ], [ 19.46196747, 48.61422301 ], [ 19.46156682, 48.61395686 ], [ 19.46133733, 48.61397078 ], [ 19.46059407, 48.61400458 ], [ 19.46056383, 48.61395512 ], [ 19.46053352, 48.61389087 ], [ 19.46048816, 48.61380184 ], [ 19.46045523, 48.6137161 ], [ 19.46039187, 48.61353139 ], [ 19.46019612, 48.61332573 ], [ 19.45977155, 48.61372661 ], [ 19.4596748, 48.61380947 ], [ 19.45911605, 48.61430498 ], [ 19.45879743, 48.61449389 ], [ 19.45842755, 48.61472503 ], [ 19.4580024, 48.61510812 ], [ 19.45756975, 48.61549131 ], [ 19.45743687, 48.61559421 ], [ 19.4570332, 48.61590797 ], [ 19.45669379, 48.61619012 ], [ 19.45615491, 48.61662984 ], [ 19.45564569, 48.61705264 ], [ 19.45557934, 48.61710769 ], [ 19.45546026, 48.61722394 ], [ 19.45508835, 48.6175867 ], [ 19.45473975, 48.61792322 ], [ 19.45451901, 48.6181568 ], [ 19.45410261, 48.61844923 ], [ 19.45380694, 48.61865849 ], [ 19.45321717, 48.61909537 ], [ 19.45249291, 48.61970647 ], [ 19.45201174, 48.62003608 ], [ 19.45144129, 48.62050722 ], [ 19.45101696, 48.62077916 ], [ 19.45050861, 48.62119937 ], [ 19.45038179, 48.62131661 ], [ 19.45035134, 48.62134467 ], [ 19.44991856, 48.62174469 ], [ 19.44921129, 48.62218995 ], [ 19.44888156, 48.62249146 ], [ 19.44826659, 48.62300739 ], [ 19.44758982, 48.62364521 ], [ 19.44679371, 48.62428989 ], [ 19.44629039, 48.62472348 ], [ 19.44578497, 48.62526895 ], [ 19.44526453, 48.62579811 ], [ 19.44437601, 48.6263264 ], [ 19.44383782, 48.62671408 ], [ 19.44352278, 48.62695496 ], [ 19.44318056, 48.62724036 ], [ 19.44281891, 48.62754217 ], [ 19.44274266, 48.62760947 ], [ 19.44366553, 48.62818949 ], [ 19.44369606, 48.62824772 ], [ 19.44390332, 48.62845251 ], [ 19.44394861, 48.62849727 ], [ 19.44397866, 48.6285268 ], [ 19.44406776, 48.6286149 ], [ 19.44445835, 48.62907312 ], [ 19.44457028, 48.62927399 ], [ 19.44556717, 48.6297929 ], [ 19.44574438, 48.62988512 ], [ 19.44722499, 48.63052533 ], [ 19.44726842, 48.63054412 ], [ 19.44750367, 48.63064581 ], [ 19.44771966, 48.6307392 ], [ 19.44814918, 48.63140749 ], [ 19.44880155, 48.63185907 ], [ 19.44884476, 48.63188894 ], [ 19.44858549, 48.63215272 ], [ 19.44850142, 48.63220785 ], [ 19.4482156, 48.63239511 ], [ 19.44819575, 48.63328584 ], [ 19.44830264, 48.63404635 ], [ 19.44818442, 48.6347107 ], [ 19.44824279, 48.63491538 ], [ 19.44833204, 48.63522879 ], [ 19.44879697, 48.63562825 ], [ 19.44881692, 48.63564153 ], [ 19.44932555, 48.63597929 ], [ 19.45009336, 48.63610168 ], [ 19.4510847, 48.63627632 ], [ 19.45131116, 48.63631628 ], [ 19.45185727, 48.63656012 ], [ 19.45214105, 48.63668678 ], [ 19.45310751, 48.63739812 ], [ 19.45439299, 48.63830825 ], [ 19.45457676, 48.63848524 ], [ 19.45463008, 48.6385365 ], [ 19.45469993, 48.63860386 ], [ 19.45553466, 48.6394073 ], [ 19.45637624, 48.64037335 ], [ 19.4569358, 48.6406039 ], [ 19.45722738, 48.64072406 ], [ 19.45809293, 48.64124673 ], [ 19.45872943, 48.64199223 ], [ 19.45911392, 48.64236897 ], [ 19.45912705, 48.6423786 ], [ 19.45919406, 48.64242788 ], [ 19.45979548, 48.64286954 ], [ 19.46027492, 48.64303873 ], [ 19.4606492, 48.64317076 ], [ 19.4613115, 48.64364787 ], [ 19.4624846, 48.64437597 ], [ 19.46350295, 48.64452092 ], [ 19.46446956, 48.64465859 ], [ 19.46477886, 48.64485961 ], [ 19.46488563, 48.64484582 ], [ 19.46527131, 48.64479597 ], [ 19.46613325, 48.64484942 ], [ 19.46638047, 48.64486471 ], [ 19.46691944, 48.64493215 ], [ 19.46695269, 48.64494316 ], [ 19.46698858, 48.64495502 ], [ 19.4680893, 48.64531924 ], [ 19.46822308, 48.64551803 ], [ 19.4684043, 48.64578142 ], [ 19.46841301, 48.64579418 ], [ 19.46862724, 48.64610562 ], [ 19.46888871, 48.64676375 ], [ 19.46881809, 48.64699244 ], [ 19.46874367, 48.64723393 ], [ 19.46900016, 48.64745863 ], [ 19.47020306, 48.64834399 ], [ 19.47115653, 48.64898965 ], [ 19.47117112, 48.64899835 ], [ 19.47150216, 48.64919504 ], [ 19.47230207, 48.64937249 ], [ 19.47239154, 48.64939233 ], [ 19.47299791, 48.64946108 ], [ 19.47375429, 48.64959088 ], [ 19.47508351, 48.65015154 ], [ 19.4752027, 48.65020179 ], [ 19.47564555, 48.65045424 ], [ 19.47611897, 48.65072397 ], [ 19.4768128, 48.65119848 ], [ 19.47690468, 48.65126126 ], [ 19.47697129, 48.65130681 ], [ 19.47748813, 48.65166023 ], [ 19.47848728, 48.65201674 ], [ 19.47871114, 48.65210142 ], [ 19.47922312, 48.65229503 ], [ 19.4797512, 48.65249461 ], [ 19.48086699, 48.65261038 ], [ 19.48121053, 48.65275371 ], [ 19.48224586, 48.65318551 ], [ 19.48329886, 48.65393322 ], [ 19.48449134, 48.65475464 ], [ 19.48565366, 48.65502308 ], [ 19.48608683, 48.65517487 ], [ 19.48654597, 48.65533579 ], [ 19.48679768, 48.65536188 ], [ 19.48782081, 48.65531191 ], [ 19.48902853, 48.65507304 ], [ 19.48994905, 48.65495466 ], [ 19.49001389, 48.6549463 ], [ 19.49025489, 48.65491527 ], [ 19.49123688, 48.65485525 ], [ 19.49217438, 48.65471383 ], [ 19.49297132, 48.65447304 ], [ 19.49353743, 48.65433065 ], [ 19.49425525, 48.65429805 ], [ 19.4952301, 48.6544709 ], [ 19.49643675, 48.65457594 ], [ 19.49737526, 48.65475412 ], [ 19.49817274, 48.65515503 ], [ 19.49849517, 48.65531716 ], [ 19.49859984, 48.65586598 ], [ 19.49979796, 48.65671147 ], [ 19.50056278, 48.6567497 ], [ 19.50155869, 48.65681086 ], [ 19.50295475, 48.65708992 ], [ 19.50394657, 48.65725076 ], [ 19.50446129, 48.65765497 ], [ 19.50476357, 48.65783049 ], [ 19.50564477, 48.65834195 ], [ 19.50656326, 48.65840211 ], [ 19.50713925, 48.65874413 ], [ 19.50896015, 48.65909131 ], [ 19.50928619, 48.65914584 ], [ 19.51042164, 48.65897653 ], [ 19.51105572, 48.65882573 ], [ 19.51244677, 48.65862347 ], [ 19.51347046, 48.6584168 ], [ 19.51461665, 48.65852191 ], [ 19.51551628, 48.65840145 ], [ 19.51590304, 48.65853088 ], [ 19.51600304, 48.65914285 ], [ 19.51658956, 48.65965489 ], [ 19.51751529, 48.66016488 ], [ 19.51853197, 48.66061116 ], [ 19.51921097, 48.66087899 ], [ 19.52128669, 48.66119568 ], [ 19.52302431, 48.66094731 ] ] ] ] } }
]
}
