{
"type": "FeatureCollection",
"name": "gis",
"crs": { "type": "name", "properties": { "name": "urn:ogc:def:crs:OGC:1.3:CRS84" } },
"features": [
{ "type": "Feature", "properties": { "@featureType": "CadastralParcel", "areaValue": { "value": 110433, "@uom": "m2" }, "beginLifespanVersion": { "@nilReason": "http://inspire.ec.europa.eu/codelist/VoidReasonValue/Unpopulated", "@nil": "true" }, "endLifespanVersion": { "@nilReason": "http://inspire.ec.europa.eu/codelist/VoidReasonValue/Unpopulated", "@nil": "true" }, "inspireId": { "@dataType": "Identifier", "localId": "802107_876/1.C", "namespace": "SK.ESKN.CP", "versionId": "20260703T04:07:52" }, "label": "876/1", "nationalCadastralReference": "802107_876/1.C", "referencePoint": { "type": "Point", "coordinates": [ 18.91014235, 48.64099316 ] }, "validFrom": "2026-06-30T16:00:00Z", "validTo": { "@nilReason": "http://inspire.ec.europa.eu/codelist/VoidReasonValue/Unpopulated", "@nil": "true" }, "administrativeUnit": { "@href": "#auAdmUnitS.2816" } }, "geometry": { "type": "Polygon", "coordinates": [ [ [ 18.91200159, 48.6340926 ], [ 18.9116626, 48.63415168 ], [ 18.91165923, 48.63416305 ], [ 18.91165954, 48.63420466 ], [ 18.91168444, 48.63428613 ], [ 18.91172959, 48.63439696 ], [ 18.9117432, 48.63443194 ], [ 18.91176384, 48.63451374 ], [ 18.91177268, 48.63455108 ], [ 18.91177181, 48.63457016 ], [ 18.91174924, 48.63459552 ], [ 18.91175484, 48.6346373 ], [ 18.91175852, 48.63467448 ], [ 18.9117622, 48.63471634 ], [ 18.91176546, 48.63475827 ], [ 18.9117713, 48.63484219 ], [ 18.91178954, 48.6349015 ], [ 18.91178997, 48.63494202 ], [ 18.91177872, 48.63501379 ], [ 18.91177273, 48.6351127 ], [ 18.91176845, 48.63519358 ], [ 18.91176439, 48.63522945 ], [ 18.91175951, 48.63526537 ], [ 18.91175295, 48.63530635 ], [ 18.91174015, 48.63533312 ], [ 18.91172285, 48.63536118 ], [ 18.9117302, 48.63545781 ], [ 18.91172925, 48.63549032 ], [ 18.91170914, 48.63555523 ], [ 18.91169875, 48.63559637 ], [ 18.91168973, 48.63562577 ], [ 18.91167657, 48.63568363 ], [ 18.91167269, 48.63577148 ], [ 18.91167413, 48.63581034 ], [ 18.9116624, 48.63590716 ], [ 18.91153542, 48.63649951 ], [ 18.91145284, 48.63688558 ], [ 18.91139887, 48.63713872 ], [ 18.91132149, 48.63739183 ], [ 18.9112062, 48.63759203 ], [ 18.91116931, 48.63765607 ], [ 18.91113214, 48.63772019 ], [ 18.91096275, 48.63801295 ], [ 18.91069786, 48.63852506 ], [ 18.9100075, 48.63989462 ], [ 18.90988641, 48.64028973 ], [ 18.9098429, 48.64057434 ], [ 18.90982483, 48.64075788 ], [ 18.9098181, 48.6409329 ], [ 18.90983762, 48.64105342 ], [ 18.90988072, 48.64135747 ], [ 18.90993261, 48.64171211 ], [ 18.91010763, 48.642294 ], [ 18.91021271, 48.64248946 ], [ 18.91077987, 48.64289476 ], [ 18.91085956, 48.64292456 ], [ 18.91119306, 48.64325723 ], [ 18.91131895, 48.64339711 ], [ 18.91151806, 48.64365919 ], [ 18.91156955, 48.64373806 ], [ 18.91171726, 48.64396016 ], [ 18.91186811, 48.64416131 ], [ 18.91209428, 48.64449703 ], [ 18.91220613, 48.64481281 ], [ 18.91227436, 48.64493935 ], [ 18.91239924, 48.64516821 ], [ 18.91267444, 48.6455364 ], [ 18.91293152, 48.64604321 ], [ 18.91316131, 48.64620033 ], [ 18.91377916, 48.64654173 ], [ 18.91396458, 48.64663938 ], [ 18.91437478, 48.64680441 ], [ 18.91436711, 48.64690143 ], [ 18.91441333, 48.64695784 ], [ 18.91479148, 48.64704067 ], [ 18.91498451, 48.64696497 ], [ 18.91512921, 48.64700578 ], [ 18.91536322, 48.64711413 ], [ 18.91566904, 48.64717637 ], [ 18.91634834, 48.647231 ], [ 18.91683932, 48.6473455 ], [ 18.91693601, 48.64737319 ], [ 18.91736128, 48.64746519 ], [ 18.91772763, 48.64759548 ], [ 18.91788107, 48.64765008 ], [ 18.91797024, 48.64767216 ], [ 18.9184561, 48.64779216 ], [ 18.9186623, 48.64780996 ], [ 18.9190076, 48.64783967 ], [ 18.9195597, 48.6477049 ], [ 18.91961662, 48.64775139 ], [ 18.91978838, 48.64784842 ], [ 18.9200913, 48.64790762 ], [ 18.92037426, 48.64785213 ], [ 18.92063443, 48.64776102 ], [ 18.9207661, 48.64762796 ], [ 18.92088208, 48.64751023 ], [ 18.92095722, 48.64745897 ], [ 18.92120534, 48.64737076 ], [ 18.9214274, 48.64728076 ], [ 18.92153686, 48.6472364 ], [ 18.92192625, 48.64702842 ], [ 18.92245064, 48.64664695 ], [ 18.92259652, 48.64650045 ], [ 18.92275165, 48.6463482 ], [ 18.92261241, 48.64629443 ], [ 18.9224664, 48.64623805 ], [ 18.92243857, 48.64627469 ], [ 18.92235638, 48.64641778 ], [ 18.92228341, 48.64653563 ], [ 18.92202552, 48.6467693 ], [ 18.92166257, 48.6469817 ], [ 18.92129725, 48.64717017 ], [ 18.92102723, 48.64725933 ], [ 18.92056069, 48.64741338 ], [ 18.92041606, 48.64743952 ], [ 18.91998691, 48.647517 ], [ 18.91969539, 48.64749312 ], [ 18.91959762, 48.64749685 ], [ 18.91952516, 48.64756593 ], [ 18.91913119, 48.64744713 ], [ 18.91902508, 48.64741507 ], [ 18.9185533, 48.6473482 ], [ 18.91828944, 48.6473555 ], [ 18.91825997, 48.64736193 ], [ 18.91819207, 48.64737685 ], [ 18.91809279, 48.64735506 ], [ 18.91764459, 48.64725305 ], [ 18.91730882, 48.64714065 ], [ 18.91707063, 48.64704833 ], [ 18.91670811, 48.64700997 ], [ 18.91644798, 48.64695503 ], [ 18.91622816, 48.64691867 ], [ 18.91601688, 48.64678253 ], [ 18.9157826, 48.64665207 ], [ 18.91555316, 48.64661071 ], [ 18.91533897, 48.64661008 ], [ 18.91519388, 48.6466564 ], [ 18.91506881, 48.64663049 ], [ 18.91503227, 48.64666127 ], [ 18.91490985, 48.64666743 ], [ 18.91462936, 48.6465318 ], [ 18.91406072, 48.64626888 ], [ 18.91381693, 48.64598007 ], [ 18.91376858, 48.64585572 ], [ 18.91367646, 48.6456971 ], [ 18.91349071, 48.64549164 ], [ 18.91311847, 48.64525368 ], [ 18.91295776, 48.64493774 ], [ 18.91286604, 48.64472799 ], [ 18.91281635, 48.64447079 ], [ 18.91277282, 48.6442692 ], [ 18.91243533, 48.64371434 ], [ 18.91222076, 48.64350288 ], [ 18.91211663, 48.64345631 ], [ 18.9119452, 48.64328802 ], [ 18.91187554, 48.64308293 ], [ 18.91178581, 48.64299821 ], [ 18.91147499, 48.6429394 ], [ 18.91114111, 48.64259823 ], [ 18.91087614, 48.64231157 ], [ 18.91073633, 48.64206272 ], [ 18.91041725, 48.64149743 ], [ 18.91043079, 48.64114551 ], [ 18.91048471, 48.64083004 ], [ 18.91062542, 48.64058361 ], [ 18.91058336, 48.6405709 ], [ 18.91029981, 48.64048497 ], [ 18.91044569, 48.64026073 ], [ 18.91047655, 48.64021451 ], [ 18.91073503, 48.64025404 ], [ 18.91075308, 48.64025677 ], [ 18.9107861, 48.64016889 ], [ 18.91097889, 48.63996709 ], [ 18.91120908, 48.63979463 ], [ 18.91135831, 48.63969531 ], [ 18.91161823, 48.63927333 ], [ 18.91170107, 48.63899092 ], [ 18.91218943, 48.63823681 ], [ 18.91235279, 48.63777559 ], [ 18.91207196, 48.63773176 ], [ 18.91205672, 48.63772935 ], [ 18.91201422, 48.63772275 ], [ 18.91203298, 48.63765074 ], [ 18.91205224, 48.63757686 ], [ 18.9120813, 48.63746686 ], [ 18.91210116, 48.63739247 ], [ 18.91213627, 48.63725635 ], [ 18.9121583, 48.63717855 ], [ 18.91216604, 48.63714142 ], [ 18.91219122, 48.63714371 ], [ 18.91221735, 48.63714613 ], [ 18.91223888, 48.63705162 ], [ 18.91235813, 48.63706307 ], [ 18.91253633, 48.63708016 ], [ 18.91254544, 48.6370302 ], [ 18.91268565, 48.63620012 ], [ 18.91264736, 48.63604688 ], [ 18.91235929, 48.63489531 ], [ 18.91233835, 48.63465889 ], [ 18.91228157, 48.63445311 ], [ 18.91234969, 48.63424183 ], [ 18.91227041, 48.6340458 ], [ 18.91201422, 48.63409046 ], [ 18.91200159, 48.6340926 ] ], [ [ 18.91179244, 48.63579495 ], [ 18.9117873, 48.6357411 ], [ 18.91183571, 48.63573917 ], [ 18.91184069, 48.63579319 ], [ 18.91179244, 48.63579495 ] ], [ [ 18.9118769, 48.63606656 ], [ 18.91194028, 48.63606811 ], [ 18.91193588, 48.6361441 ], [ 18.91192705, 48.63614401 ], [ 18.91187274, 48.63614284 ], [ 18.9118769, 48.63606656 ] ], [ [ 18.91154891, 48.63713822 ], [ 18.91157274, 48.63704969 ], [ 18.91163863, 48.63695881 ], [ 18.91166878, 48.63681973 ], [ 18.91165805, 48.6367066 ], [ 18.91168084, 48.63667819 ], [ 18.91186967, 48.63670097 ], [ 18.91183993, 48.63686217 ], [ 18.91181065, 48.63702637 ], [ 18.91179163, 48.63702494 ], [ 18.91178812, 48.63703631 ], [ 18.91177957, 48.63707574 ], [ 18.9117617, 48.63715754 ], [ 18.91178082, 48.63715925 ], [ 18.91176918, 48.63721223 ], [ 18.91177053, 48.63721239 ], [ 18.91175397, 48.63728641 ], [ 18.91175236, 48.63728624 ], [ 18.91174078, 48.63733868 ], [ 18.91168482, 48.6373331 ], [ 18.91169663, 48.63728094 ], [ 18.91159871, 48.63727104 ], [ 18.91161514, 48.63719683 ], [ 18.91161649, 48.63719699 ], [ 18.91162985, 48.63714554 ], [ 18.91154891, 48.63713822 ] ], [ [ 18.91153441, 48.63734829 ], [ 18.91154439, 48.63730721 ], [ 18.91163832, 48.63731754 ], [ 18.91162832, 48.63735879 ], [ 18.91153441, 48.63734829 ] ], [ [ 18.91163415, 48.63761383 ], [ 18.91166961, 48.63750037 ], [ 18.91171806, 48.63750737 ], [ 18.91168265, 48.63762047 ], [ 18.91163415, 48.63761383 ] ], [ [ 18.91197403, 48.6381083 ], [ 18.91189434, 48.63809491 ], [ 18.91191423, 48.63804235 ], [ 18.91199417, 48.63805593 ], [ 18.91197403, 48.6381083 ] ], [ [ 18.9119731, 48.635763 ], [ 18.91186025, 48.63576902 ], [ 18.9118565, 48.63573825 ], [ 18.91187047, 48.63573753 ], [ 18.91186459, 48.63569005 ], [ 18.91196402, 48.63568469 ], [ 18.9119731, 48.635763 ] ] ] } },
{ "type": "Feature", "properties": { "@featureType": "CadastralParcel", "areaValue": { "value": 157, "@uom": "m2" }, "beginLifespanVersion": { "@nilReason": "http://inspire.ec.europa.eu/codelist/VoidReasonValue/Unpopulated", "@nil": "true" }, "endLifespanVersion": { "@nilReason": "http://inspire.ec.europa.eu/codelist/VoidReasonValue/Unpopulated", "@nil": "true" }, "inspireId": { "@dataType": "Identifier", "localId": "802107_876/5.C", "namespace": "SK.ESKN.CP", "versionId": "20260703T04:07:52" }, "label": "876/5", "nationalCadastralReference": "802107_876/5.C", "referencePoint": { "type": "Point", "coordinates": [ 18.91210323, 48.63744847 ] }, "validFrom": "2026-06-30T16:00:00Z", "validTo": { "@nilReason": "http://inspire.ec.europa.eu/codelist/VoidReasonValue/Unpopulated", "@nil": "true" }, "administrativeUnit": { "@href": "#auAdmUnitS.2816" } }, "geometry": { "type": "Polygon", "coordinates": [ [ [ 18.91205672, 48.63772935 ], [ 18.91211091, 48.637493 ], [ 18.91212412, 48.63743009 ], [ 18.91213244, 48.63739967 ], [ 18.91216408, 48.63726174 ], [ 18.91218273, 48.63718025 ], [ 18.9121583, 48.63717855 ], [ 18.91213627, 48.63725635 ], [ 18.91210116, 48.63739247 ], [ 18.9120813, 48.63746686 ], [ 18.91205224, 48.63757686 ], [ 18.91203298, 48.63765074 ], [ 18.91201422, 48.63772275 ], [ 18.91205672, 48.63772935 ] ] ] } },
{ "type": "Feature", "properties": { "@featureType": "CadastralParcel", "areaValue": { "value": 363, "@uom": "m2" }, "beginLifespanVersion": { "@nilReason": "http://inspire.ec.europa.eu/codelist/VoidReasonValue/Unpopulated", "@nil": "true" }, "endLifespanVersion": { "@nilReason": "http://inspire.ec.europa.eu/codelist/VoidReasonValue/Unpopulated", "@nil": "true" }, "inspireId": { "@dataType": "Identifier", "localId": "802107_876/3.C", "namespace": "SK.ESKN.CP", "versionId": "20260703T04:07:52" }, "label": "876/3", "nationalCadastralReference": "802107_876/3.C", "referencePoint": { "type": "Point", "coordinates": [ 18.91242192, 48.63715569 ] }, "validFrom": "2026-06-30T16:00:00Z", "validTo": { "@nilReason": "http://inspire.ec.europa.eu/codelist/VoidReasonValue/Unpopulated", "@nil": "true" }, "administrativeUnit": { "@href": "#auAdmUnitS.2816" } }, "geometry": { "type": "Polygon", "coordinates": [ [ [ 18.91250859, 48.63724291 ], [ 18.91253107, 48.63710884 ], [ 18.91253633, 48.63708016 ], [ 18.91235813, 48.63706307 ], [ 18.91223888, 48.63705162 ], [ 18.91221735, 48.63714613 ], [ 18.91219122, 48.63714371 ], [ 18.91218273, 48.63718025 ], [ 18.91221622, 48.63718252 ], [ 18.91220828, 48.63720971 ], [ 18.9123241, 48.63722252 ], [ 18.91250859, 48.63724291 ] ], [ [ 18.9123175, 48.63717076 ], [ 18.91225608, 48.63716526 ], [ 18.91227548, 48.63707262 ], [ 18.91233676, 48.63707821 ], [ 18.9123175, 48.63717076 ] ] ] } },
{ "type": "Feature", "properties": { "@featureType": "CadastralParcel", "areaValue": { "value": 44593, "@uom": "m2" }, "beginLifespanVersion": { "@nilReason": "http://inspire.ec.europa.eu/codelist/VoidReasonValue/Unpopulated", "@nil": "true" }, "endLifespanVersion": { "@nilReason": "http://inspire.ec.europa.eu/codelist/VoidReasonValue/Unpopulated", "@nil": "true" }, "inspireId": { "@dataType": "Identifier", "localId": "811939_539/1.C", "namespace": "SK.ESKN.CP", "versionId": "20260703T04:07:40" }, "label": "539/1", "nationalCadastralReference": "811939_539/1.C", "referencePoint": { "type": "Point", "coordinates": [ 18.927102, 48.66892704 ] }, "validFrom": "2026-06-30T16:00:00Z", "validTo": { "@nilReason": "http://inspire.ec.europa.eu/codelist/VoidReasonValue/Unpopulated", "@nil": "true" }, "administrativeUnit": { "@href": "#auAdmUnitS.2914" } }, "geometry": { "type": "Polygon", "coordinates": [ [ [ 18.9312594, 48.67304514 ], [ 18.93132374, 48.67302489 ], [ 18.931372, 48.67300697 ], [ 18.93147192, 48.67297465 ], [ 18.93175346, 48.67308196 ], [ 18.9320399, 48.67322543 ], [ 18.93221541, 48.67309622 ], [ 18.9322507, 48.67310199 ], [ 18.93226682, 48.67307233 ], [ 18.93228364, 48.67304144 ], [ 18.93224962, 48.67303068 ], [ 18.93217411, 48.67277073 ], [ 18.93195629, 48.67265314 ], [ 18.93135127, 48.67262886 ], [ 18.93102515, 48.67260956 ], [ 18.93044868, 48.67204534 ], [ 18.93043085, 48.67191093 ], [ 18.93042723, 48.67188359 ], [ 18.93009994, 48.67179504 ], [ 18.92944996, 48.6712376 ], [ 18.92890456, 48.67062671 ], [ 18.92842907, 48.67025129 ], [ 18.92832305, 48.67002198 ], [ 18.92800745, 48.66983678 ], [ 18.92796113, 48.66973194 ], [ 18.92758563, 48.6693133 ], [ 18.92713741, 48.66876509 ], [ 18.92653837, 48.66798537 ], [ 18.9265944, 48.66795333 ], [ 18.92652351, 48.66790036 ], [ 18.92648926, 48.66791728 ], [ 18.92631345, 48.66783205 ], [ 18.92629076, 48.66775692 ], [ 18.92608673, 48.66760666 ], [ 18.92507488, 48.66710282 ], [ 18.92397361, 48.66648912 ], [ 18.92320348, 48.66599494 ], [ 18.92229019, 48.66537182 ], [ 18.92171378, 48.66458817 ], [ 18.92151188, 48.6645504 ], [ 18.92139901, 48.66452928 ], [ 18.92130973, 48.66451253 ], [ 18.92150819, 48.66534319 ], [ 18.9223837, 48.66597376 ], [ 18.92330603, 48.66656388 ], [ 18.92416696, 48.66710158 ], [ 18.9249364, 48.66748874 ], [ 18.92579941, 48.66792253 ], [ 18.92606671, 48.66800911 ], [ 18.92637034, 48.66822545 ], [ 18.92658779, 48.66843702 ], [ 18.92672924, 48.66868592 ], [ 18.92707182, 48.66908899 ], [ 18.9268499, 48.66927625 ], [ 18.92752433, 48.66987348 ], [ 18.92771178, 48.66982165 ], [ 18.92774638, 48.66984958 ], [ 18.92766521, 48.67007481 ], [ 18.92769636, 48.67020467 ], [ 18.92795929, 48.67034631 ], [ 18.92832493, 48.67041311 ], [ 18.92899988, 48.67107854 ], [ 18.92949461, 48.67173619 ], [ 18.9296019, 48.67202591 ], [ 18.9297498, 48.67218475 ], [ 18.9298033, 48.67224215 ], [ 18.93060663, 48.6726282 ], [ 18.93074008, 48.6729658 ], [ 18.93087401, 48.67285674 ], [ 18.93099619, 48.67273996 ], [ 18.93117037, 48.67281363 ], [ 18.93125398, 48.67285932 ], [ 18.93125692, 48.67286091 ], [ 18.93136109, 48.67289032 ], [ 18.93129622, 48.6729911 ], [ 18.9312594, 48.67304514 ] ] ] } },
{ "type": "Feature", "properties": { "@featureType": "CadastralParcel", "areaValue": { "value": 88764, "@uom": "m2" }, "beginLifespanVersion": { "@nilReason": "http://inspire.ec.europa.eu/codelist/VoidReasonValue/Unpopulated", "@nil": "true" }, "endLifespanVersion": { "@nilReason": "http://inspire.ec.europa.eu/codelist/VoidReasonValue/Unpopulated", "@nil": "true" }, "inspireId": { "@dataType": "Identifier", "localId": "828882_3336.C", "namespace": "SK.ESKN.CP", "versionId": "20260703T04:07:03" }, "label": "3336", "nationalCadastralReference": "828882_3336.C", "referencePoint": { "type": "Point", "coordinates": [ 18.9278026, 48.68487199 ] }, "validFrom": "2026-06-30T16:00:00Z", "validTo": { "@nilReason": "http://inspire.ec.europa.eu/codelist/VoidReasonValue/Unpopulated", "@nil": "true" }, "administrativeUnit": { "@href": "#auAdmUnitS.1014" } }, "geometry": { "type": "Polygon", "coordinates": [ [ [ 18.92660036, 48.68741003 ], [ 18.92676391, 48.68710612 ], [ 18.92728247, 48.68644884 ], [ 18.92767086, 48.6857885 ], [ 18.92789508, 48.68518191 ], [ 18.92803223, 48.6846092 ], [ 18.92813667, 48.68440889 ], [ 18.92808324, 48.6841396 ], [ 18.928188, 48.68397971 ], [ 18.9282424, 48.68378324 ], [ 18.92836728, 48.68348953 ], [ 18.92834555, 48.68325209 ], [ 18.92821543, 48.68297915 ], [ 18.92820474, 48.6824768 ], [ 18.92818473, 48.68229222 ], [ 18.92812245, 48.68214074 ], [ 18.92798724, 48.68182523 ], [ 18.92770903, 48.68132733 ], [ 18.92750938, 48.68109818 ], [ 18.92771329, 48.68073536 ], [ 18.92776411, 48.68052527 ], [ 18.92797874, 48.68037281 ], [ 18.92810856, 48.6801231 ], [ 18.92809924, 48.67969407 ], [ 18.92817036, 48.67939643 ], [ 18.92809859, 48.67925159 ], [ 18.92866043, 48.67913413 ], [ 18.92889622, 48.67876176 ], [ 18.9292249, 48.67861242 ], [ 18.92973974, 48.67853693 ], [ 18.92985087, 48.67851258 ], [ 18.93043876, 48.67845309 ], [ 18.93073625, 48.67844604 ], [ 18.93111623, 48.67833793 ], [ 18.93157644, 48.67814923 ], [ 18.93197201, 48.67824948 ], [ 18.93218887, 48.6781747 ], [ 18.93240691, 48.67817845 ], [ 18.93289197, 48.67803359 ], [ 18.93304575, 48.67775913 ], [ 18.93355916, 48.67763854 ], [ 18.93424316, 48.67734924 ], [ 18.93465276, 48.67714576 ], [ 18.93487172, 48.67724328 ], [ 18.93504735, 48.67724279 ], [ 18.93497052, 48.6771961 ], [ 18.93492891, 48.67709503 ], [ 18.93524912, 48.67674473 ], [ 18.93505513, 48.67670874 ], [ 18.93503395, 48.67668592 ], [ 18.93497631, 48.67666511 ], [ 18.93488095, 48.67665708 ], [ 18.93470627, 48.67668801 ], [ 18.93458993, 48.67665897 ], [ 18.93444512, 48.67662289 ], [ 18.93429795, 48.67657089 ], [ 18.93411693, 48.67656389 ], [ 18.93388462, 48.67680521 ], [ 18.93335745, 48.67706139 ], [ 18.93282166, 48.67745451 ], [ 18.93235361, 48.6777479 ], [ 18.93055639, 48.67800873 ], [ 18.92966185, 48.67813515 ], [ 18.92885867, 48.67838676 ], [ 18.92863876, 48.67831028 ], [ 18.92817584, 48.67863757 ], [ 18.92812991, 48.67881517 ], [ 18.92757339, 48.679082 ], [ 18.92720003, 48.67946583 ], [ 18.92696901, 48.6799512 ], [ 18.92688284, 48.68040339 ], [ 18.92714397, 48.68104394 ], [ 18.92736329, 48.6813531 ], [ 18.92745902, 48.68162059 ], [ 18.92725982, 48.68164313 ], [ 18.92727996, 48.68190936 ], [ 18.92732954, 48.68206686 ], [ 18.9275027, 48.68234796 ], [ 18.927738, 48.68231959 ], [ 18.92792107, 48.682881 ], [ 18.92782862, 48.68323185 ], [ 18.92793083, 48.68354188 ], [ 18.92798047, 48.68369307 ], [ 18.92789318, 48.68398925 ], [ 18.92780432, 48.68406309 ], [ 18.92758091, 48.68423693 ], [ 18.92764336, 48.6842726 ], [ 18.92759495, 48.68439785 ], [ 18.92773497, 48.68456729 ], [ 18.92755047, 48.68513478 ], [ 18.92739941, 48.6856375 ], [ 18.92730786, 48.68594203 ], [ 18.9270971, 48.68620465 ], [ 18.92644177, 48.68684311 ], [ 18.9262076, 48.68701333 ], [ 18.9260515, 48.68701544 ], [ 18.92599185, 48.687224 ], [ 18.92594988, 48.68751573 ], [ 18.92594794, 48.68773537 ], [ 18.92581023, 48.68829966 ], [ 18.9257128, 48.68882822 ], [ 18.92579416, 48.68917804 ], [ 18.92618154, 48.68942961 ], [ 18.92613348, 48.68968134 ], [ 18.92682434, 48.69036995 ], [ 18.92700784, 48.69046224 ], [ 18.92716313, 48.69085688 ], [ 18.92705491, 48.69117346 ], [ 18.92712061, 48.69165859 ], [ 18.92739041, 48.69163731 ], [ 18.92755452, 48.69158311 ], [ 18.92744029, 48.69149482 ], [ 18.9274111, 48.69133412 ], [ 18.92761217, 48.69131807 ], [ 18.92767171, 48.69131336 ], [ 18.92773909, 48.69168384 ], [ 18.92769058, 48.69168389 ], [ 18.92768459, 48.69168385 ], [ 18.92762561, 48.69163817 ], [ 18.92763177, 48.69170676 ], [ 18.92747512, 48.69199939 ], [ 18.92763424, 48.69234489 ], [ 18.92744999, 48.69272911 ], [ 18.92717039, 48.69308508 ], [ 18.92710417, 48.69313878 ], [ 18.92715179, 48.69320707 ], [ 18.9272964, 48.69321835 ], [ 18.92757862, 48.69292394 ], [ 18.92776156, 48.69264781 ], [ 18.92796412, 48.6920227 ], [ 18.92795984, 48.6915961 ], [ 18.92803855, 48.69150893 ], [ 18.92780905, 48.69088047 ], [ 18.92753474, 48.69034524 ], [ 18.9270944, 48.6901469 ], [ 18.92677874, 48.68969985 ], [ 18.92633823, 48.68934084 ], [ 18.9262369, 48.6889439 ], [ 18.92625486, 48.68867232 ], [ 18.9261519, 48.68839897 ], [ 18.92612865, 48.68803345 ], [ 18.92624778, 48.68784399 ], [ 18.92636716, 48.68754269 ], [ 18.92660036, 48.68741003 ] ] ] } },
{ "type": "Feature", "properties": { "@featureType": "CadastralParcel", "areaValue": { "value": 356, "@uom": "m2" }, "beginLifespanVersion": { "@nilReason": "http://inspire.ec.europa.eu/codelist/VoidReasonValue/Unpopulated", "@nil": "true" }, "endLifespanVersion": { "@nilReason": "http://inspire.ec.europa.eu/codelist/VoidReasonValue/Unpopulated", "@nil": "true" }, "inspireId": { "@dataType": "Identifier", "localId": "828882_2439.C", "namespace": "SK.ESKN.CP", "versionId": "20260703T04:07:03" }, "label": "2439", "nationalCadastralReference": "828882_2439.C", "referencePoint": { "type": "Point", "coordinates": [ 18.93337395, 48.70853991 ] }, "validFrom": "2026-06-30T16:00:00Z", "validTo": { "@nilReason": "http://inspire.ec.europa.eu/codelist/VoidReasonValue/Unpopulated", "@nil": "true" }, "administrativeUnit": { "@href": "#auAdmUnitS.1014" } }, "geometry": { "type": "Polygon", "coordinates": [ [ [ 18.9335463, 48.70861075 ], [ 18.93356545, 48.70856924 ], [ 18.93359964, 48.70849468 ], [ 18.93345699, 48.70851057 ], [ 18.93294149, 48.70845725 ], [ 18.93293239, 48.70849548 ], [ 18.9335463, 48.70861075 ] ] ] } },
{ "type": "Feature", "properties": { "@featureType": "CadastralParcel", "areaValue": { "value": 272620, "@uom": "m2" }, "beginLifespanVersion": { "@nilReason": "http://inspire.ec.europa.eu/codelist/VoidReasonValue/Unpopulated", "@nil": "true" }, "endLifespanVersion": { "@nilReason": "http://inspire.ec.europa.eu/codelist/VoidReasonValue/Unpopulated", "@nil": "true" }, "inspireId": { "@dataType": "Identifier", "localId": "828882_3335.C", "namespace": "SK.ESKN.CP", "versionId": "20260703T04:07:03" }, "label": "3335", "nationalCadastralReference": "828882_3335.C", "referencePoint": { "type": "Point", "coordinates": [ 18.92246398, 48.71491787 ] }, "validFrom": "2026-06-30T16:00:00Z", "validTo": { "@nilReason": "http://inspire.ec.europa.eu/codelist/VoidReasonValue/Unpopulated", "@nil": "true" }, "administrativeUnit": { "@href": "#auAdmUnitS.1014" } }, "geometry": { "type": "Polygon", "coordinates": [ [ [ 18.92508143, 48.7241405 ], [ 18.92539789, 48.72353033 ], [ 18.92584296, 48.72328006 ], [ 18.92589169, 48.72325269 ], [ 18.92592393, 48.72323459 ], [ 18.92542834, 48.72305977 ], [ 18.92535051, 48.72292084 ], [ 18.92547389, 48.72281585 ], [ 18.92550417, 48.72279006 ], [ 18.9255399, 48.72275969 ], [ 18.92511984, 48.72223144 ], [ 18.92473456, 48.72160873 ], [ 18.92430738, 48.72136316 ], [ 18.92303654, 48.72062025 ], [ 18.9229499, 48.72056963 ], [ 18.92296475, 48.72017558 ], [ 18.92272937, 48.71977521 ], [ 18.92288706, 48.71963093 ], [ 18.92304694, 48.71913795 ], [ 18.92239631, 48.71877973 ], [ 18.92238697, 48.71836874 ], [ 18.92237693, 48.7179312 ], [ 18.92247682, 48.71744642 ], [ 18.92247348, 48.71632666 ], [ 18.92239723, 48.71596682 ], [ 18.9225198, 48.71576256 ], [ 18.92246152, 48.71556149 ], [ 18.92270448, 48.71519499 ], [ 18.92272872, 48.7150133 ], [ 18.92255969, 48.71466477 ], [ 18.92278791, 48.71412577 ], [ 18.92276278, 48.71389536 ], [ 18.92309389, 48.71351858 ], [ 18.92296417, 48.71293871 ], [ 18.92346382, 48.71260681 ], [ 18.92403409, 48.71205087 ], [ 18.92410211, 48.71182108 ], [ 18.92485754, 48.71137988 ], [ 18.92522935, 48.71101726 ], [ 18.92558615, 48.71048448 ], [ 18.92610189, 48.70962021 ], [ 18.9262167, 48.70922081 ], [ 18.92659586, 48.70913576 ], [ 18.92676772, 48.70891066 ], [ 18.92721906, 48.70869075 ], [ 18.92793997, 48.70865177 ], [ 18.92796769, 48.70873419 ], [ 18.92845513, 48.70840121 ], [ 18.92904957, 48.7081298 ], [ 18.92961188, 48.70805771 ], [ 18.92995812, 48.70816229 ], [ 18.9303038, 48.70812693 ], [ 18.93163674, 48.70846208 ], [ 18.93155766, 48.70853119 ], [ 18.93202695, 48.70846435 ], [ 18.93229552, 48.70863774 ], [ 18.93277425, 48.70870019 ], [ 18.93303239, 48.70906697 ], [ 18.9333741, 48.70923733 ], [ 18.93371867, 48.70923131 ], [ 18.93422569, 48.70918226 ], [ 18.93457969, 48.7095966 ], [ 18.93548574, 48.70958066 ], [ 18.93544804, 48.70953932 ], [ 18.93511326, 48.70917277 ], [ 18.93552822, 48.70920245 ], [ 18.93566435, 48.70927517 ], [ 18.93673911, 48.70984945 ], [ 18.93711128, 48.70937542 ], [ 18.93721363, 48.70904005 ], [ 18.93799278, 48.70875873 ], [ 18.9387917, 48.70862797 ], [ 18.93953626, 48.70858128 ], [ 18.94067218, 48.70854565 ], [ 18.94172102, 48.70894745 ], [ 18.9427903, 48.70966283 ], [ 18.94371786, 48.71023088 ], [ 18.94487266, 48.71059404 ], [ 18.94625865, 48.71066554 ], [ 18.94742415, 48.71045925 ], [ 18.94813339, 48.71051119 ], [ 18.94870896, 48.71027354 ], [ 18.94909033, 48.71013874 ], [ 18.94913509, 48.71012298 ], [ 18.94916964, 48.71011076 ], [ 18.94930542, 48.70971575 ], [ 18.94932867, 48.70964829 ], [ 18.94934103, 48.70961239 ], [ 18.94976299, 48.70886864 ], [ 18.94990642, 48.70802609 ], [ 18.94984489, 48.70754525 ], [ 18.94955332, 48.70701977 ], [ 18.94935291, 48.70672993 ], [ 18.94857716, 48.70614098 ], [ 18.94775154, 48.70582963 ], [ 18.94685974, 48.70560448 ], [ 18.94601262, 48.70553061 ], [ 18.94531961, 48.70555172 ], [ 18.94451705, 48.7056441 ], [ 18.9435302, 48.70576125 ], [ 18.94218805, 48.70579649 ], [ 18.94092926, 48.70595377 ], [ 18.93997781, 48.70571794 ], [ 18.93955085, 48.70578444 ], [ 18.93871096, 48.7056427 ], [ 18.93802188, 48.70550612 ], [ 18.93766806, 48.70556598 ], [ 18.93726063, 48.70542403 ], [ 18.93715827, 48.70531543 ], [ 18.93690548, 48.7052253 ], [ 18.93685314, 48.70520666 ], [ 18.93664497, 48.70513244 ], [ 18.93566996, 48.70514324 ], [ 18.93527261, 48.70519185 ], [ 18.93433672, 48.70518858 ], [ 18.93354814, 48.70510723 ], [ 18.93293023, 48.70503479 ], [ 18.93213285, 48.70490148 ], [ 18.93093701, 48.70453797 ], [ 18.93066017, 48.70431662 ], [ 18.9300686, 48.70406889 ], [ 18.92936012, 48.70374744 ], [ 18.92919272, 48.7035821 ], [ 18.9287462, 48.70332708 ], [ 18.92835543, 48.70313967 ], [ 18.92825916, 48.70327321 ], [ 18.928099, 48.70349521 ], [ 18.92874425, 48.70370096 ], [ 18.92949023, 48.70415982 ], [ 18.92966043, 48.70417276 ], [ 18.93045461, 48.70468009 ], [ 18.93135701, 48.7051068 ], [ 18.93237915, 48.70531691 ], [ 18.93385526, 48.70548157 ], [ 18.93513829, 48.70555472 ], [ 18.93549694, 48.70597002 ], [ 18.93551747, 48.7059938 ], [ 18.93553391, 48.70601286 ], [ 18.93612797, 48.705909 ], [ 18.9361595, 48.70589103 ], [ 18.93632525, 48.70579613 ], [ 18.93646939, 48.70571365 ], [ 18.93698327, 48.70565449 ], [ 18.93764062, 48.70569492 ], [ 18.9383955, 48.70582358 ], [ 18.93886541, 48.70597206 ], [ 18.93968205, 48.70615312 ], [ 18.93992318, 48.70626501 ], [ 18.94000514, 48.70624701 ], [ 18.94022097, 48.70619949 ], [ 18.94045442, 48.70620076 ], [ 18.94131091, 48.70655568 ], [ 18.94158303, 48.70654549 ], [ 18.9418459, 48.70652706 ], [ 18.94299254, 48.70629838 ], [ 18.9442436, 48.70609982 ], [ 18.94527116, 48.70592331 ], [ 18.94645243, 48.70591898 ], [ 18.9470057, 48.70614889 ], [ 18.94733651, 48.70616954 ], [ 18.94767633, 48.70632235 ], [ 18.94786865, 48.70642055 ], [ 18.94816524, 48.70664855 ], [ 18.94849677, 48.70693948 ], [ 18.94872022, 48.70713551 ], [ 18.94922919, 48.70732228 ], [ 18.94931353, 48.70789051 ], [ 18.94931505, 48.70790087 ], [ 18.94933698, 48.70804857 ], [ 18.94932039, 48.70817355 ], [ 18.94918049, 48.70886042 ], [ 18.94902099, 48.70910314 ], [ 18.94880358, 48.70933171 ], [ 18.94878216, 48.70934478 ], [ 18.94876059, 48.70935794 ], [ 18.94870088, 48.7093944 ], [ 18.94869487, 48.70939797 ], [ 18.94861639, 48.70944584 ], [ 18.94860445, 48.70945939 ], [ 18.94862532, 48.70948851 ], [ 18.94849687, 48.70952886 ], [ 18.94833971, 48.70976322 ], [ 18.94827291, 48.70982539 ], [ 18.94771345, 48.70997032 ], [ 18.94732817, 48.71018907 ], [ 18.94738468, 48.710371 ], [ 18.94624223, 48.71058767 ], [ 18.94492312, 48.71051535 ], [ 18.94380681, 48.71017282 ], [ 18.94287825, 48.7095947 ], [ 18.94179908, 48.7088717 ], [ 18.94068329, 48.70843635 ], [ 18.94035019, 48.70823056 ], [ 18.93909547, 48.70819797 ], [ 18.93809991, 48.70834016 ], [ 18.93729663, 48.70816699 ], [ 18.93607278, 48.70863513 ], [ 18.93515406, 48.70863608 ], [ 18.93458236, 48.70877816 ], [ 18.93400869, 48.70860299 ], [ 18.9340471, 48.70851331 ], [ 18.93393543, 48.7085113 ], [ 18.93392267, 48.70853545 ], [ 18.93385291, 48.70866836 ], [ 18.93380304, 48.70865896 ], [ 18.9336626, 48.70863257 ], [ 18.9335463, 48.70861075 ], [ 18.93293239, 48.70849548 ], [ 18.93294149, 48.70845725 ], [ 18.93345699, 48.70851057 ], [ 18.93359964, 48.70849468 ], [ 18.93374486, 48.70844149 ], [ 18.93375874, 48.70840783 ], [ 18.932865, 48.70829278 ], [ 18.93270168, 48.70785634 ], [ 18.93241844, 48.70782977 ], [ 18.93222164, 48.70810763 ], [ 18.93197176, 48.70826227 ], [ 18.93161663, 48.70816492 ], [ 18.93080747, 48.70804579 ], [ 18.93005936, 48.70771077 ], [ 18.92944168, 48.70784858 ], [ 18.92887645, 48.70778115 ], [ 18.92805244, 48.70778221 ], [ 18.92730536, 48.70787496 ], [ 18.92684865, 48.70809775 ], [ 18.9265262, 48.70825507 ], [ 18.92614224, 48.7084326 ], [ 18.92605227, 48.70865432 ], [ 18.92603158, 48.70870548 ], [ 18.92569167, 48.70900046 ], [ 18.92541096, 48.70938722 ], [ 18.92526718, 48.70998088 ], [ 18.92480736, 48.71088201 ], [ 18.92459077, 48.71115731 ], [ 18.92385572, 48.71165621 ], [ 18.9236287, 48.71186324 ], [ 18.92324898, 48.71218612 ], [ 18.92296877, 48.71247611 ], [ 18.92279991, 48.71270677 ], [ 18.92248013, 48.71298897 ], [ 18.92259013, 48.71317907 ], [ 18.92249108, 48.71340717 ], [ 18.92241137, 48.71369137 ], [ 18.92250858, 48.71384744 ], [ 18.92229323, 48.71451293 ], [ 18.92232343, 48.71482243 ], [ 18.92212376, 48.71506703 ], [ 18.92208398, 48.71525451 ], [ 18.92221408, 48.71544518 ], [ 18.92160244, 48.71575997 ], [ 18.92211857, 48.71610346 ], [ 18.92196557, 48.7168582 ], [ 18.92203323, 48.71722274 ], [ 18.92212391, 48.71755121 ], [ 18.92202127, 48.71795565 ], [ 18.92213768, 48.71836374 ], [ 18.92209387, 48.71866033 ], [ 18.9219593, 48.71876421 ], [ 18.92190648, 48.71864118 ], [ 18.92156576, 48.71873603 ], [ 18.92158749, 48.71910517 ], [ 18.92205551, 48.71953514 ], [ 18.92212394, 48.71971589 ], [ 18.92220515, 48.72011721 ], [ 18.92237364, 48.72037262 ], [ 18.92282149, 48.7208039 ], [ 18.92324277, 48.72105196 ], [ 18.92350135, 48.72162129 ], [ 18.92352195, 48.72166673 ], [ 18.92354038, 48.72170727 ], [ 18.92371595, 48.72188475 ], [ 18.92440966, 48.72227376 ], [ 18.92473763, 48.72266713 ], [ 18.92444694, 48.72305925 ], [ 18.92442655, 48.72308671 ], [ 18.92441635, 48.72310053 ], [ 18.92471705, 48.72336803 ], [ 18.92466105, 48.72364299 ], [ 18.92474941, 48.72388429 ], [ 18.92460339, 48.72406399 ], [ 18.9247546, 48.72417347 ], [ 18.92403493, 48.72490075 ], [ 18.9229402, 48.72541434 ], [ 18.92159515, 48.72566427 ], [ 18.92023883, 48.72556406 ], [ 18.91978377, 48.72550657 ], [ 18.91964458, 48.72502281 ], [ 18.9195438, 48.72504173 ], [ 18.91963397, 48.72543052 ], [ 18.91915429, 48.72527579 ], [ 18.91805294, 48.72532005 ], [ 18.91762737, 48.72552781 ], [ 18.91707933, 48.72562638 ], [ 18.91619944, 48.72584252 ], [ 18.9158942, 48.72607863 ], [ 18.9157718, 48.72606442 ], [ 18.91580075, 48.72619562 ], [ 18.91587365, 48.72652553 ], [ 18.9158737, 48.72652625 ], [ 18.91592489, 48.72675754 ], [ 18.91593525, 48.72675058 ], [ 18.91626235, 48.72653155 ], [ 18.91703625, 48.72619831 ], [ 18.91728476, 48.72589578 ], [ 18.91770503, 48.72583234 ], [ 18.9179145, 48.7257655 ], [ 18.91835361, 48.72579972 ], [ 18.91909349, 48.72603191 ], [ 18.91945784, 48.72580432 ], [ 18.9197684, 48.72559129 ], [ 18.92020147, 48.725627 ], [ 18.92155501, 48.72573121 ], [ 18.9218155, 48.72568854 ], [ 18.9230047, 48.72549351 ], [ 18.92411644, 48.72495336 ], [ 18.92488438, 48.72421908 ], [ 18.92508143, 48.7241405 ] ], [ [ 18.92437199, 48.72181928 ], [ 18.92445355, 48.72189824 ], [ 18.92449765, 48.72186504 ], [ 18.92450645, 48.72187488 ], [ 18.92458632, 48.72196484 ], [ 18.92457703, 48.72196851 ], [ 18.92458738, 48.72197445 ], [ 18.92461579, 48.72201135 ], [ 18.92456967, 48.72202685 ], [ 18.92454125, 48.72199004 ], [ 18.92452785, 48.72198457 ], [ 18.92444595, 48.72201457 ], [ 18.92440904, 48.72203532 ], [ 18.92422713, 48.72187591 ], [ 18.92437199, 48.72181928 ] ], [ [ 18.94838026, 48.71018652 ], [ 18.94841876, 48.71017306 ], [ 18.94841228, 48.71016785 ], [ 18.94835175, 48.71011994 ], [ 18.94834077, 48.71011126 ], [ 18.9483143, 48.71008926 ], [ 18.94840373, 48.71004457 ], [ 18.94844813, 48.71001788 ], [ 18.94848609, 48.70999501 ], [ 18.94852234, 48.7100185 ], [ 18.94866211, 48.71010924 ], [ 18.94858175, 48.7101709 ], [ 18.94855462, 48.71020722 ], [ 18.94851019, 48.71023301 ], [ 18.94849222, 48.7102164 ], [ 18.94844218, 48.71024118 ], [ 18.94838026, 48.71018652 ] ], [ [ 18.93579797, 48.70554486 ], [ 18.9358079, 48.70545039 ], [ 18.93581193, 48.70541117 ], [ 18.93581315, 48.70539951 ], [ 18.93623597, 48.70541768 ], [ 18.93626881, 48.70546798 ], [ 18.93632731, 48.70555765 ], [ 18.93624449, 48.7055573 ], [ 18.93579797, 48.70554486 ] ] ] } },
{ "type": "Feature", "properties": { "@featureType": "CadastralParcel", "areaValue": { "value": 136, "@uom": "m2" }, "beginLifespanVersion": { "@nilReason": "http://inspire.ec.europa.eu/codelist/VoidReasonValue/Unpopulated", "@nil": "true" }, "endLifespanVersion": { "@nilReason": "http://inspire.ec.europa.eu/codelist/VoidReasonValue/Unpopulated", "@nil": "true" }, "inspireId": { "@dataType": "Identifier", "localId": "828882_2908/2.C", "namespace": "SK.ESKN.CP", "versionId": "20260703T04:07:03" }, "label": "2908/2", "nationalCadastralReference": "828882_2908/2.C", "referencePoint": { "type": "Point", "coordinates": [ 18.92769117, 48.69154184 ] }, "validFrom": "2026-06-30T16:00:00Z", "validTo": { "@nilReason": "http://inspire.ec.europa.eu/codelist/VoidReasonValue/Unpopulated", "@nil": "true" }, "administrativeUnit": { "@href": "#auAdmUnitS.1014" } }, "geometry": { "type": "Polygon", "coordinates": [ [ [ 18.92767171, 48.69131336 ], [ 18.92761217, 48.69131807 ], [ 18.92762409, 48.69135485 ], [ 18.92763321, 48.6913537 ], [ 18.92765648, 48.69144383 ], [ 18.92765248, 48.69144425 ], [ 18.92765976, 48.69147403 ], [ 18.92765535, 48.69147453 ], [ 18.92768282, 48.69160916 ], [ 18.92769058, 48.69168389 ], [ 18.92773909, 48.69168384 ], [ 18.92767171, 48.69131336 ] ] ] } },
{ "type": "Feature", "properties": { "@featureType": "CadastralParcel", "areaValue": { "value": 67221, "@uom": "m2" }, "beginLifespanVersion": { "@nilReason": "http://inspire.ec.europa.eu/codelist/VoidReasonValue/Unpopulated", "@nil": "true" }, "endLifespanVersion": { "@nilReason": "http://inspire.ec.europa.eu/codelist/VoidReasonValue/Unpopulated", "@nil": "true" }, "inspireId": { "@dataType": "Identifier", "localId": "828882_2306/1.C", "namespace": "SK.ESKN.CP", "versionId": "20260703T04:07:03" }, "label": "2306/1", "nationalCadastralReference": "828882_2306/1.C", "referencePoint": { "type": "Point", "coordinates": [ 18.92430864, 48.69828818 ] }, "validFrom": "2026-06-30T16:00:00Z", "validTo": { "@nilReason": "http://inspire.ec.europa.eu/codelist/VoidReasonValue/Unpopulated", "@nil": "true" }, "administrativeUnit": { "@href": "#auAdmUnitS.1014" } }, "geometry": { "type": "Polygon", "coordinates": [ [ [ 18.92407192, 48.70019371 ], [ 18.92420017, 48.70031835 ], [ 18.92421877, 48.70033644 ], [ 18.92427639, 48.70039261 ], [ 18.92428043, 48.70039652 ], [ 18.92475179, 48.70085488 ], [ 18.92478071, 48.70088848 ], [ 18.92480976, 48.70092208 ], [ 18.92489171, 48.70101729 ], [ 18.9249199, 48.70105012 ], [ 18.92529456, 48.70137635 ], [ 18.92572133, 48.70171498 ], [ 18.92639718, 48.70211932 ], [ 18.92641399, 48.70212938 ], [ 18.92700356, 48.70259234 ], [ 18.92757219, 48.703014 ], [ 18.92793447, 48.70332163 ], [ 18.928099, 48.70349521 ], [ 18.92825916, 48.70327321 ], [ 18.92835543, 48.70313967 ], [ 18.92815997, 48.70300925 ], [ 18.92802799, 48.70296083 ], [ 18.92752752, 48.70255285 ], [ 18.92691271, 48.70214038 ], [ 18.9264499, 48.70191879 ], [ 18.92607611, 48.70161651 ], [ 18.92590223, 48.70118141 ], [ 18.925556, 48.70053127 ], [ 18.92529038, 48.70038219 ], [ 18.92525074, 48.70028527 ], [ 18.92515837, 48.70007398 ], [ 18.92470964, 48.69926327 ], [ 18.92459816, 48.6986919 ], [ 18.92456288, 48.69786835 ], [ 18.92452294, 48.69761193 ], [ 18.92464159, 48.69760754 ], [ 18.9246833, 48.69754212 ], [ 18.92465951, 48.69744023 ], [ 18.92460664, 48.69735274 ], [ 18.92456701, 48.69735837 ], [ 18.92447443, 48.69689586 ], [ 18.92454539, 48.69682733 ], [ 18.92496239, 48.69642464 ], [ 18.92495982, 48.69642441 ], [ 18.92512519, 48.69626393 ], [ 18.92488926, 48.69609887 ], [ 18.92465187, 48.69615617 ], [ 18.92470514, 48.69606644 ], [ 18.92478341, 48.69572542 ], [ 18.92478775, 48.69550862 ], [ 18.92486201, 48.69552153 ], [ 18.92487047, 48.69549689 ], [ 18.92488976, 48.69544258 ], [ 18.92496737, 48.69522267 ], [ 18.92517652, 48.69493688 ], [ 18.9252381, 48.69485299 ], [ 18.92561116, 48.69450434 ], [ 18.92606405, 48.69435641 ], [ 18.926498, 48.69402764 ], [ 18.92664778, 48.69391417 ], [ 18.92692059, 48.69360475 ], [ 18.92717074, 48.69334695 ], [ 18.92720762, 48.69330888 ], [ 18.9272964, 48.69321835 ], [ 18.92715179, 48.69320707 ], [ 18.92710417, 48.69313878 ], [ 18.9269981, 48.69321282 ], [ 18.92662869, 48.69347093 ], [ 18.92613225, 48.69365587 ], [ 18.92608225, 48.69367451 ], [ 18.92581452, 48.69377355 ], [ 18.92568808, 48.69375364 ], [ 18.92513631, 48.69427572 ], [ 18.92480915, 48.69486828 ], [ 18.92462673, 48.69533918 ], [ 18.92453344, 48.69532827 ], [ 18.92452579, 48.69535413 ], [ 18.92449556, 48.69537495 ], [ 18.92432202, 48.69537454 ], [ 18.92417213, 48.69545148 ], [ 18.92393036, 48.6958239 ], [ 18.92383432, 48.69602077 ], [ 18.92389604, 48.69603602 ], [ 18.92381492, 48.69622526 ], [ 18.92380855, 48.69624017 ], [ 18.92378551, 48.69629393 ], [ 18.92370357, 48.69634448 ], [ 18.92364911, 48.6963592 ], [ 18.9236078, 48.69636646 ], [ 18.92360722, 48.69636905 ], [ 18.92358607, 48.69647422 ], [ 18.92363624, 48.69646939 ], [ 18.92368525, 48.69650474 ], [ 18.92367884, 48.69672983 ], [ 18.92353147, 48.69672228 ], [ 18.92347295, 48.69698755 ], [ 18.9234607, 48.69704338 ], [ 18.92344542, 48.69818276 ], [ 18.9234521, 48.69824922 ], [ 18.92351081, 48.69883936 ], [ 18.92357878, 48.69899709 ], [ 18.92390095, 48.69932677 ], [ 18.92400183, 48.69991302 ], [ 18.92407192, 48.70019371 ] ], [ [ 18.92384585, 48.69833136 ], [ 18.92383795, 48.69816687 ], [ 18.92382006, 48.69779522 ], [ 18.92383945, 48.69779486 ], [ 18.92383593, 48.6977154 ], [ 18.92398071, 48.69771253 ], [ 18.92398373, 48.6977788 ], [ 18.92401109, 48.69777786 ], [ 18.92403027, 48.69816301 ], [ 18.92403834, 48.69832714 ], [ 18.92384585, 48.69833136 ] ], [ [ 18.92369126, 48.69783048 ], [ 18.92363275, 48.69783209 ], [ 18.92362965, 48.69778277 ], [ 18.92368816, 48.69778116 ], [ 18.92369126, 48.69783048 ] ], [ [ 18.92397485, 48.6971306 ], [ 18.92396572, 48.69730783 ], [ 18.92395388, 48.69754211 ], [ 18.92389964, 48.69754096 ], [ 18.92383876, 48.69753956 ], [ 18.92379443, 48.69753882 ], [ 18.92380645, 48.69730419 ], [ 18.92383239, 48.69730488 ], [ 18.92384094, 48.69712789 ], [ 18.92397485, 48.6971306 ] ], [ [ 18.92407542, 48.69670016 ], [ 18.92406799, 48.69673577 ], [ 18.92404978, 48.6968392 ], [ 18.92401385, 48.69705223 ], [ 18.92398304, 48.69705236 ], [ 18.92384711, 48.69704477 ], [ 18.92385933, 48.6969542 ], [ 18.92380534, 48.69695099 ], [ 18.92381327, 48.69674438 ], [ 18.92407542, 48.69670016 ] ], [ [ 18.92460512, 48.69648284 ], [ 18.92471942, 48.69650285 ], [ 18.92470255, 48.69654582 ], [ 18.92471804, 48.69654851 ], [ 18.92470143, 48.69659042 ], [ 18.92470043, 48.69659316 ], [ 18.92468419, 48.69663418 ], [ 18.92466883, 48.6966315 ], [ 18.9246514, 48.69667571 ], [ 18.92453622, 48.69665502 ], [ 18.92453749, 48.69665238 ], [ 18.92455772, 48.69660164 ], [ 18.9245839, 48.69653623 ], [ 18.92460399, 48.69648557 ], [ 18.92460512, 48.69648284 ] ], [ [ 18.92412509, 48.69647449 ], [ 18.92399696, 48.69646441 ], [ 18.92400173, 48.6964376 ], [ 18.92413, 48.69644768 ], [ 18.92412509, 48.69647449 ] ], [ [ 18.9247128, 48.69642313 ], [ 18.9246787, 48.69641985 ], [ 18.92468387, 48.69639784 ], [ 18.92471796, 48.69640112 ], [ 18.9247128, 48.69642313 ] ], [ [ 18.92478594, 48.69630907 ], [ 18.92477462, 48.69636162 ], [ 18.92461341, 48.6963466 ], [ 18.92462429, 48.6962943 ], [ 18.92478594, 48.69630907 ] ], [ [ 18.92411755, 48.69617518 ], [ 18.92408236, 48.69637146 ], [ 18.92394212, 48.69636112 ], [ 18.92397754, 48.69616413 ], [ 18.92411755, 48.69617518 ] ], [ [ 18.9241465, 48.69586329 ], [ 18.92419863, 48.69573084 ], [ 18.92426809, 48.69574279 ], [ 18.92427998, 48.69584974 ], [ 18.92427949, 48.6958563 ], [ 18.92420339, 48.69613673 ], [ 18.92394695, 48.69612161 ], [ 18.92400344, 48.69595528 ], [ 18.92408929, 48.69588292 ], [ 18.9241465, 48.69586329 ] ] ] } },
{ "type": "Feature", "properties": { "@featureType": "CadastralParcel", "areaValue": { "value": 18440, "@uom": "m2" }, "beginLifespanVersion": { "@nilReason": "http://inspire.ec.europa.eu/codelist/VoidReasonValue/Unpopulated", "@nil": "true" }, "endLifespanVersion": { "@nilReason": "http://inspire.ec.europa.eu/codelist/VoidReasonValue/Unpopulated", "@nil": "true" }, "inspireId": { "@dataType": "Identifier", "localId": "829021_314/1.C", "namespace": "SK.ESKN.CP", "versionId": "20260703T04:07:53" }, "label": "314/1", "nationalCadastralReference": "829021_314/1.C", "referencePoint": { "type": "Point", "coordinates": [ 18.90510171, 48.73827248 ] }, "validFrom": "2026-06-30T16:00:00Z", "validTo": { "@nilReason": "http://inspire.ec.europa.eu/codelist/VoidReasonValue/Unpopulated", "@nil": "true" }, "administrativeUnit": { "@href": "#auAdmUnitS.1525" } }, "geometry": { "type": "Polygon", "coordinates": [ [ [ 18.90438491, 48.7397987 ], [ 18.90439293, 48.7397605 ], [ 18.90447564, 48.73928577 ], [ 18.90484583, 48.73874479 ], [ 18.90493404, 48.73875202 ], [ 18.90494483, 48.73873787 ], [ 18.90500897, 48.73865384 ], [ 18.90501961, 48.73863987 ], [ 18.90504039, 48.73861847 ], [ 18.90531039, 48.73833863 ], [ 18.90544237, 48.73820171 ], [ 18.90560989, 48.73805831 ], [ 18.90563361, 48.73802462 ], [ 18.90605927, 48.73766166 ], [ 18.90641848, 48.73752567 ], [ 18.90650414, 48.73757318 ], [ 18.90678625, 48.73749222 ], [ 18.90673186, 48.73744198 ], [ 18.90670251, 48.73732826 ], [ 18.90669343, 48.73729289 ], [ 18.90669963, 48.73729005 ], [ 18.90706378, 48.73712003 ], [ 18.90750313, 48.73704948 ], [ 18.90783602, 48.73699593 ], [ 18.90804156, 48.73697482 ], [ 18.90807883, 48.73697096 ], [ 18.90860432, 48.73689616 ], [ 18.90921511, 48.73680915 ], [ 18.90926239, 48.73689203 ], [ 18.90971537, 48.73686575 ], [ 18.90972744, 48.7368651 ], [ 18.90966902, 48.73674926 ], [ 18.90965276, 48.73671695 ], [ 18.90962741, 48.73663419 ], [ 18.90956028, 48.73663688 ], [ 18.90939628, 48.73664336 ], [ 18.90905338, 48.73670785 ], [ 18.909, 48.73670602 ], [ 18.90880618, 48.73669932 ], [ 18.90864061, 48.73669362 ], [ 18.90746419, 48.73679194 ], [ 18.90746853, 48.73681426 ], [ 18.90735956, 48.73682473 ], [ 18.90735995, 48.73683422 ], [ 18.90709941, 48.73689292 ], [ 18.90699351, 48.73672729 ], [ 18.90659818, 48.73712482 ], [ 18.90639019, 48.73710062 ], [ 18.90629998, 48.7372128 ], [ 18.90626589, 48.7372465 ], [ 18.90619826, 48.73728245 ], [ 18.90580545, 48.73757701 ], [ 18.90525328, 48.7379582 ], [ 18.904891, 48.73820633 ], [ 18.90460632, 48.7385114 ], [ 18.90459677, 48.73852534 ], [ 18.90450239, 48.73860213 ], [ 18.90449269, 48.73861625 ], [ 18.90429022, 48.73885175 ], [ 18.90382918, 48.73933936 ], [ 18.90364896, 48.73958394 ], [ 18.9032805, 48.73944767 ], [ 18.90327929, 48.73947656 ], [ 18.90311999, 48.73971834 ], [ 18.9032478, 48.73962405 ], [ 18.90336931, 48.73964616 ], [ 18.90375468, 48.7397511 ], [ 18.90380802, 48.73976259 ], [ 18.9038099, 48.73975818 ], [ 18.90387801, 48.73977051 ], [ 18.90387519, 48.73977713 ], [ 18.90392587, 48.73978803 ], [ 18.90399571, 48.73980307 ], [ 18.90417183, 48.7398491 ], [ 18.90433046, 48.73986175 ], [ 18.90437536, 48.73984403 ], [ 18.90438491, 48.7397987 ] ], [ [ 18.9038504, 48.73953745 ], [ 18.90390375, 48.7395558 ], [ 18.90387737, 48.73959233 ], [ 18.90382218, 48.73957335 ], [ 18.9038504, 48.73953745 ] ] ] } },
{ "type": "Feature", "properties": { "@featureType": "CadastralParcel", "areaValue": { "value": 1275, "@uom": "m2" }, "beginLifespanVersion": { "@nilReason": "http://inspire.ec.europa.eu/codelist/VoidReasonValue/Unpopulated", "@nil": "true" }, "endLifespanVersion": { "@nilReason": "http://inspire.ec.europa.eu/codelist/VoidReasonValue/Unpopulated", "@nil": "true" }, "inspireId": { "@dataType": "Identifier", "localId": "829021_317.C", "namespace": "SK.ESKN.CP", "versionId": "20260703T04:07:53" }, "label": "317", "nationalCadastralReference": "829021_317.C", "referencePoint": { "type": "Point", "coordinates": [ 18.90721801, 48.73731448 ] }, "validFrom": "2026-06-30T16:00:00Z", "validTo": { "@nilReason": "http://inspire.ec.europa.eu/codelist/VoidReasonValue/Unpopulated", "@nil": "true" }, "administrativeUnit": { "@href": "#auAdmUnitS.1525" } }, "geometry": { "type": "Polygon", "coordinates": [ [ [ 18.90695529, 48.73757414 ], [ 18.90729327, 48.73733891 ], [ 18.9073383, 48.73737703 ], [ 18.90750984, 48.73717837 ], [ 18.90750313, 48.73704948 ], [ 18.90706378, 48.73712003 ], [ 18.90669963, 48.73729005 ], [ 18.90677064, 48.73727177 ], [ 18.90685536, 48.73724825 ], [ 18.90695052, 48.7372497 ], [ 18.90702537, 48.73727889 ], [ 18.90706981, 48.73736515 ], [ 18.90705792, 48.73739909 ], [ 18.90694492, 48.73748927 ], [ 18.90695529, 48.73757414 ] ] ] } },
{ "type": "Feature", "properties": { "@featureType": "CadastralParcel", "areaValue": { "value": 479, "@uom": "m2" }, "beginLifespanVersion": { "@nilReason": "http://inspire.ec.europa.eu/codelist/VoidReasonValue/Unpopulated", "@nil": "true" }, "endLifespanVersion": { "@nilReason": "http://inspire.ec.europa.eu/codelist/VoidReasonValue/Unpopulated", "@nil": "true" }, "inspireId": { "@dataType": "Identifier", "localId": "829021_254/1.C", "namespace": "SK.ESKN.CP", "versionId": "20260703T04:07:53" }, "label": "254/1", "nationalCadastralReference": "829021_254/1.C", "referencePoint": { "type": "Point", "coordinates": [ 18.90234107, 48.74366851 ] }, "validFrom": "2026-06-30T16:00:00Z", "validTo": { "@nilReason": "http://inspire.ec.europa.eu/codelist/VoidReasonValue/Unpopulated", "@nil": "true" }, "administrativeUnit": { "@href": "#auAdmUnitS.1525" } }, "geometry": { "type": "Polygon", "coordinates": [ [ [ 18.90238166, 48.74383475 ], [ 18.90248996, 48.74340598 ], [ 18.90246465, 48.74340315 ], [ 18.90243603, 48.74351453 ], [ 18.9022954, 48.74349946 ], [ 18.9023234, 48.7433876 ], [ 18.90230118, 48.7433852 ], [ 18.90227369, 48.74349735 ], [ 18.9022448, 48.74382249 ], [ 18.90238166, 48.74383475 ] ] ] } },
{ "type": "Feature", "properties": { "@featureType": "CadastralParcel", "areaValue": { "value": 1030, "@uom": "m2" }, "beginLifespanVersion": { "@nilReason": "http://inspire.ec.europa.eu/codelist/VoidReasonValue/Unpopulated", "@nil": "true" }, "endLifespanVersion": { "@nilReason": "http://inspire.ec.europa.eu/codelist/VoidReasonValue/Unpopulated", "@nil": "true" }, "inspireId": { "@dataType": "Identifier", "localId": "829021_252.C", "namespace": "SK.ESKN.CP", "versionId": "20260703T04:07:53" }, "label": "252", "nationalCadastralReference": "829021_252.C", "referencePoint": { "type": "Point", "coordinates": [ 18.90148702, 48.74293254 ] }, "validFrom": "2026-06-30T16:00:00Z", "validTo": { "@nilReason": "http://inspire.ec.europa.eu/codelist/VoidReasonValue/Unpopulated", "@nil": "true" }, "administrativeUnit": { "@href": "#auAdmUnitS.1525" } }, "geometry": { "type": "Polygon", "coordinates": [ [ [ 18.90153402, 48.74288757 ], [ 18.90149201, 48.74287017 ], [ 18.90137583, 48.74276308 ], [ 18.90132771, 48.7429476 ], [ 18.90143927, 48.7429767 ], [ 18.90170006, 48.74304159 ], [ 18.90202837, 48.74304032 ], [ 18.90212156, 48.74306793 ], [ 18.90218918, 48.74308791 ], [ 18.90225224, 48.74309566 ], [ 18.90227981, 48.74310131 ], [ 18.90234519, 48.74311477 ], [ 18.90237469, 48.74298784 ], [ 18.90251081, 48.74300294 ], [ 18.9025167, 48.74297249 ], [ 18.90224237, 48.74294153 ], [ 18.90208013, 48.74292355 ], [ 18.90186061, 48.74296829 ], [ 18.90167396, 48.74294563 ], [ 18.90153402, 48.74288757 ] ] ] } },
{ "type": "Feature", "properties": { "@featureType": "CadastralParcel", "areaValue": { "value": 337, "@uom": "m2" }, "beginLifespanVersion": { "@nilReason": "http://inspire.ec.europa.eu/codelist/VoidReasonValue/Unpopulated", "@nil": "true" }, "endLifespanVersion": { "@nilReason": "http://inspire.ec.europa.eu/codelist/VoidReasonValue/Unpopulated", "@nil": "true" }, "inspireId": { "@dataType": "Identifier", "localId": "829021_269.C", "namespace": "SK.ESKN.CP", "versionId": "20260703T04:07:53" }, "label": "269", "nationalCadastralReference": "829021_269.C", "referencePoint": { "type": "Point", "coordinates": [ 18.90261379, 48.74101947 ] }, "validFrom": "2026-06-30T16:00:00Z", "validTo": { "@nilReason": "http://inspire.ec.europa.eu/codelist/VoidReasonValue/Unpopulated", "@nil": "true" }, "administrativeUnit": { "@href": "#auAdmUnitS.1525" } }, "geometry": { "type": "Polygon", "coordinates": [ [ [ 18.90263657, 48.74105767 ], [ 18.90278694, 48.74108379 ], [ 18.9027694, 48.74102173 ], [ 18.90274824, 48.74101721 ], [ 18.9027616, 48.74097081 ], [ 18.90212275, 48.74095587 ], [ 18.90207293, 48.74102827 ], [ 18.90228587, 48.74098608 ], [ 18.9025656, 48.74103715 ], [ 18.90263657, 48.74105767 ] ] ] } },
{ "type": "Feature", "properties": { "@featureType": "CadastralParcel", "areaValue": { "value": 30125, "@uom": "m2" }, "beginLifespanVersion": { "@nilReason": "http://inspire.ec.europa.eu/codelist/VoidReasonValue/Unpopulated", "@nil": "true" }, "endLifespanVersion": { "@nilReason": "http://inspire.ec.europa.eu/codelist/VoidReasonValue/Unpopulated", "@nil": "true" }, "inspireId": { "@dataType": "Identifier", "localId": "829021_678.C", "namespace": "SK.ESKN.CP", "versionId": "20260703T04:07:53" }, "label": "678", "nationalCadastralReference": "829021_678.C", "referencePoint": { "type": "Point", "coordinates": [ 18.91506948, 48.73145942 ] }, "validFrom": "2026-06-30T16:00:00Z", "validTo": { "@nilReason": "http://inspire.ec.europa.eu/codelist/VoidReasonValue/Unpopulated", "@nil": "true" }, "administrativeUnit": { "@href": "#auAdmUnitS.1525" } }, "geometry": { "type": "Polygon", "coordinates": [ [ [ 18.91593271, 48.72679321 ], [ 18.91592539, 48.72676027 ], [ 18.91592489, 48.72675754 ], [ 18.9158737, 48.72652625 ], [ 18.91587365, 48.72652553 ], [ 18.91580075, 48.72619562 ], [ 18.9157718, 48.72606442 ], [ 18.9157407, 48.72616349 ], [ 18.91575573, 48.72628315 ], [ 18.91564524, 48.72657128 ], [ 18.91540724, 48.72696788 ], [ 18.91526601, 48.72704805 ], [ 18.91501269, 48.72751954 ], [ 18.91472467, 48.72782509 ], [ 18.91460132, 48.72814368 ], [ 18.91457303, 48.72826419 ], [ 18.9144691, 48.72826093 ], [ 18.91404123, 48.72830647 ], [ 18.91396657, 48.72849802 ], [ 18.91406128, 48.72872785 ], [ 18.91445232, 48.72882222 ], [ 18.91443641, 48.72888941 ], [ 18.91449178, 48.72919434 ], [ 18.91459183, 48.72959167 ], [ 18.91478624, 48.73006113 ], [ 18.91481193, 48.73023879 ], [ 18.91485459, 48.73053477 ], [ 18.91487655, 48.73059407 ], [ 18.91500844, 48.73087902 ], [ 18.91493056, 48.73147893 ], [ 18.9145986, 48.73143991 ], [ 18.91438213, 48.73170132 ], [ 18.91419062, 48.73174021 ], [ 18.91406927, 48.73182401 ], [ 18.91400647, 48.73203187 ], [ 18.91403063, 48.73207938 ], [ 18.91410499, 48.73183216 ], [ 18.91420419, 48.73176057 ], [ 18.91438877, 48.73173657 ], [ 18.91451507, 48.73177236 ], [ 18.91431652, 48.73252926 ], [ 18.91413068, 48.73287721 ], [ 18.91368631, 48.73359753 ], [ 18.91337022, 48.73412371 ], [ 18.91296224, 48.73475442 ], [ 18.91289728, 48.73488405 ], [ 18.91284029, 48.73499803 ], [ 18.91272066, 48.73518458 ], [ 18.91267689, 48.73523808 ], [ 18.91247988, 48.73547865 ], [ 18.91224698, 48.73569961 ], [ 18.91221332, 48.7356785 ], [ 18.91212933, 48.73562828 ], [ 18.91216011, 48.73570427 ], [ 18.91185366, 48.73589071 ], [ 18.91180099, 48.73595854 ], [ 18.91152401, 48.73615181 ], [ 18.91124149, 48.73626198 ], [ 18.91097556, 48.73636561 ], [ 18.91088426, 48.736457 ], [ 18.9108289, 48.73646967 ], [ 18.91057791, 48.73653889 ], [ 18.9101657, 48.7366526 ], [ 18.90965276, 48.73671695 ], [ 18.90966902, 48.73674926 ], [ 18.90972744, 48.7368651 ], [ 18.91045166, 48.73680744 ], [ 18.91081957, 48.73675063 ], [ 18.91116008, 48.73662268 ], [ 18.91129929, 48.73649605 ], [ 18.91181468, 48.73623851 ], [ 18.91202214, 48.73620675 ], [ 18.91225676, 48.73603513 ], [ 18.91229726, 48.73594204 ], [ 18.91243055, 48.73579255 ], [ 18.91238594, 48.73577764 ], [ 18.91258291, 48.7355874 ], [ 18.91281234, 48.73527966 ], [ 18.91308853, 48.73484506 ], [ 18.913525, 48.73423773 ], [ 18.91382473, 48.73367083 ], [ 18.91393274, 48.73351932 ], [ 18.91416159, 48.73322454 ], [ 18.91430276, 48.73294827 ], [ 18.91451076, 48.73274181 ], [ 18.91474532, 48.73250993 ], [ 18.91496528, 48.73196492 ], [ 18.91514584, 48.7319647 ], [ 18.91504692, 48.73174865 ], [ 18.91526317, 48.73135517 ], [ 18.91532075, 48.73110564 ], [ 18.91524112, 48.73094497 ], [ 18.91547355, 48.73079407 ], [ 18.91526237, 48.73053519 ], [ 18.91500113, 48.73007863 ], [ 18.91481028, 48.72965672 ], [ 18.91467866, 48.72876986 ], [ 18.91479098, 48.72838585 ], [ 18.91493752, 48.72806016 ], [ 18.91503706, 48.72782721 ], [ 18.91514529, 48.72763765 ], [ 18.91539514, 48.72732392 ], [ 18.9157008, 48.72692583 ], [ 18.91593271, 48.72679321 ] ] ] } },
{ "type": "Feature", "properties": { "@featureType": "CadastralParcel", "areaValue": { "value": 33331, "@uom": "m2" }, "beginLifespanVersion": { "@nilReason": "http://inspire.ec.europa.eu/codelist/VoidReasonValue/Unpopulated", "@nil": "true" }, "endLifespanVersion": { "@nilReason": "http://inspire.ec.europa.eu/codelist/VoidReasonValue/Unpopulated", "@nil": "true" }, "inspireId": { "@dataType": "Identifier", "localId": "829021_671/1.C", "namespace": "SK.ESKN.CP", "versionId": "20260703T04:07:53" }, "label": "671/1", "nationalCadastralReference": "829021_671/1.C", "referencePoint": { "type": "Point", "coordinates": [ 18.90295579, 48.74814384 ] }, "validFrom": "2026-06-30T16:00:00Z", "validTo": { "@nilReason": "http://inspire.ec.europa.eu/codelist/VoidReasonValue/Unpopulated", "@nil": "true" }, "administrativeUnit": { "@href": "#auAdmUnitS.1525" } }, "geometry": { "type": "Polygon", "coordinates": [ [ [ 18.90255373, 48.74794522 ], [ 18.90269552, 48.74819912 ], [ 18.90317967, 48.74909931 ], [ 18.90360099, 48.749926 ], [ 18.90420948, 48.75066776 ], [ 18.90439249, 48.75064269 ], [ 18.90453362, 48.75062341 ], [ 18.90464269, 48.75061458 ], [ 18.90423556, 48.74976562 ], [ 18.90411512, 48.7494366 ], [ 18.90368548, 48.74897716 ], [ 18.90321783, 48.74808855 ], [ 18.90313767, 48.7478279 ], [ 18.90299999, 48.74785502 ], [ 18.90297859, 48.74780494 ], [ 18.90312334, 48.74778143 ], [ 18.90297573, 48.74730173 ], [ 18.90279345, 48.74661531 ], [ 18.90283098, 48.74656988 ], [ 18.90269192, 48.74618235 ], [ 18.90257054, 48.74592192 ], [ 18.90262921, 48.74555916 ], [ 18.90227415, 48.74554887 ], [ 18.90169861, 48.74553213 ], [ 18.90172706, 48.74610773 ], [ 18.90174719, 48.74657764 ], [ 18.90174624, 48.74661476 ], [ 18.90173175, 48.74716227 ], [ 18.90203598, 48.74753474 ], [ 18.90233247, 48.74793486 ], [ 18.90252978, 48.74789943 ], [ 18.90255373, 48.74794522 ] ], [ [ 18.90231626, 48.74695054 ], [ 18.90230686, 48.7469202 ], [ 18.90236602, 48.74691241 ], [ 18.90237516, 48.74694256 ], [ 18.90231626, 48.74695054 ] ], [ [ 18.90199535, 48.74621117 ], [ 18.90195271, 48.74604923 ], [ 18.90204093, 48.74603906 ], [ 18.90208251, 48.74620076 ], [ 18.90199535, 48.74621117 ] ], [ [ 18.90201899, 48.74627472 ], [ 18.90202219, 48.74624403 ], [ 18.9020797, 48.74624671 ], [ 18.90207638, 48.74627739 ], [ 18.90201899, 48.74627472 ] ] ] } },
{ "type": "Feature", "properties": { "@featureType": "CadastralParcel", "areaValue": { "value": 2932, "@uom": "m2" }, "beginLifespanVersion": { "@nilReason": "http://inspire.ec.europa.eu/codelist/VoidReasonValue/Unpopulated", "@nil": "true" }, "endLifespanVersion": { "@nilReason": "http://inspire.ec.europa.eu/codelist/VoidReasonValue/Unpopulated", "@nil": "true" }, "inspireId": { "@dataType": "Identifier", "localId": "829021_265/6.C", "namespace": "SK.ESKN.CP", "versionId": "20260703T04:07:53" }, "label": "265/6", "nationalCadastralReference": "829021_265/6.C", "referencePoint": { "type": "Point", "coordinates": [ 18.90280284, 48.74061739 ] }, "validFrom": "2026-06-30T16:00:00Z", "validTo": { "@nilReason": "http://inspire.ec.europa.eu/codelist/VoidReasonValue/Unpopulated", "@nil": "true" }, "administrativeUnit": { "@href": "#auAdmUnitS.1525" } }, "geometry": { "type": "Polygon", "coordinates": [ [ [ 18.90231476, 48.74070973 ], [ 18.90318177, 48.74095017 ], [ 18.90324518, 48.74072593 ], [ 18.90324026, 48.74066795 ], [ 18.90321241, 48.74060311 ], [ 18.90317254, 48.74054766 ], [ 18.90312178, 48.74048281 ], [ 18.90303739, 48.74041516 ], [ 18.90268702, 48.74030714 ], [ 18.90261695, 48.74033241 ], [ 18.90237561, 48.74063167 ], [ 18.90231476, 48.74070973 ] ] ] } },
{ "type": "Feature", "properties": { "@featureType": "CadastralParcel", "areaValue": { "value": 2756, "@uom": "m2" }, "beginLifespanVersion": { "@nilReason": "http://inspire.ec.europa.eu/codelist/VoidReasonValue/Unpopulated", "@nil": "true" }, "endLifespanVersion": { "@nilReason": "http://inspire.ec.europa.eu/codelist/VoidReasonValue/Unpopulated", "@nil": "true" }, "inspireId": { "@dataType": "Identifier", "localId": "829021_265/8.C", "namespace": "SK.ESKN.CP", "versionId": "20260703T04:07:53" }, "label": "265/8", "nationalCadastralReference": "829021_265/8.C", "referencePoint": { "type": "Point", "coordinates": [ 18.90201253, 48.74389486 ] }, "validFrom": "2026-06-30T16:00:00Z", "validTo": { "@nilReason": "http://inspire.ec.europa.eu/codelist/VoidReasonValue/Unpopulated", "@nil": "true" }, "administrativeUnit": { "@href": "#auAdmUnitS.1525" } }, "geometry": { "type": "Polygon", "coordinates": [ [ [ 18.90212156, 48.74306793 ], [ 18.90202837, 48.74304032 ], [ 18.90201301, 48.74320019 ], [ 18.90186466, 48.74412699 ], [ 18.90182017, 48.74449553 ], [ 18.90179689, 48.74479489 ], [ 18.90189411, 48.74479979 ], [ 18.90199011, 48.74480463 ], [ 18.90201799, 48.74469845 ], [ 18.90205733, 48.74451321 ], [ 18.90210668, 48.74437746 ], [ 18.90211311, 48.74434595 ], [ 18.90210622, 48.74432791 ], [ 18.90203124, 48.74423233 ], [ 18.90202189, 48.74420632 ], [ 18.90201802, 48.74413116 ], [ 18.90209516, 48.74395048 ], [ 18.90215131, 48.74383925 ], [ 18.9022086, 48.74359404 ], [ 18.90222404, 48.74348813 ], [ 18.90207219, 48.74347338 ], [ 18.90212156, 48.74306793 ] ] ] } },
{ "type": "Feature", "properties": { "@featureType": "CadastralParcel", "areaValue": { "value": 421, "@uom": "m2" }, "beginLifespanVersion": { "@nilReason": "http://inspire.ec.europa.eu/codelist/VoidReasonValue/Unpopulated", "@nil": "true" }, "endLifespanVersion": { "@nilReason": "http://inspire.ec.europa.eu/codelist/VoidReasonValue/Unpopulated", "@nil": "true" }, "inspireId": { "@dataType": "Identifier", "localId": "829021_265/9.C", "namespace": "SK.ESKN.CP", "versionId": "20260703T04:07:53" }, "label": "265/9", "nationalCadastralReference": "829021_265/9.C", "referencePoint": { "type": "Point", "coordinates": [ 18.90213231, 48.74327514 ] }, "validFrom": "2026-06-30T16:00:00Z", "validTo": { "@nilReason": "http://inspire.ec.europa.eu/codelist/VoidReasonValue/Unpopulated", "@nil": "true" }, "administrativeUnit": { "@href": "#auAdmUnitS.1525" } }, "geometry": { "type": "Polygon", "coordinates": [ [ [ 18.90227981, 48.74310131 ], [ 18.90225224, 48.74309566 ], [ 18.90220016, 48.74327907 ], [ 18.90213643, 48.7432712 ], [ 18.90218918, 48.74308791 ], [ 18.90212156, 48.74306793 ], [ 18.90207219, 48.74347338 ], [ 18.90222404, 48.74348813 ], [ 18.90224163, 48.74336726 ], [ 18.90228186, 48.74314886 ], [ 18.90227981, 48.74310131 ] ] ] } },
{ "type": "Feature", "properties": { "@featureType": "CadastralParcel", "areaValue": { "value": 49277, "@uom": "m2" }, "beginLifespanVersion": { "@nilReason": "http://inspire.ec.europa.eu/codelist/VoidReasonValue/Unpopulated", "@nil": "true" }, "endLifespanVersion": { "@nilReason": "http://inspire.ec.europa.eu/codelist/VoidReasonValue/Unpopulated", "@nil": "true" }, "inspireId": { "@dataType": "Identifier", "localId": "829021_265/3.C", "namespace": "SK.ESKN.CP", "versionId": "20260703T04:07:53" }, "label": "265/3", "nationalCadastralReference": "829021_265/3.C", "referencePoint": { "type": "Point", "coordinates": [ 18.90301666, 48.74257471 ] }, "validFrom": "2026-06-30T16:00:00Z", "validTo": { "@nilReason": "http://inspire.ec.europa.eu/codelist/VoidReasonValue/Unpopulated", "@nil": "true" }, "administrativeUnit": { "@href": "#auAdmUnitS.1525" } }, "geometry": { "type": "Polygon", "coordinates": [ [ [ 18.90169861, 48.74553213 ], [ 18.90227415, 48.74554887 ], [ 18.90262921, 48.74555916 ], [ 18.90267777, 48.74536393 ], [ 18.90278152, 48.74492627 ], [ 18.90287379, 48.74457127 ], [ 18.90281757, 48.74456568 ], [ 18.90287428, 48.74434985 ], [ 18.90294095, 48.74409204 ], [ 18.90296204, 48.74402394 ], [ 18.90310527, 48.74403887 ], [ 18.90326484, 48.74405175 ], [ 18.9032779, 48.74407642 ], [ 18.90333914, 48.7441473 ], [ 18.90338113, 48.74412312 ], [ 18.90324181, 48.74391328 ], [ 18.9032765, 48.74351781 ], [ 18.90335336, 48.74299884 ], [ 18.90340581, 48.74249035 ], [ 18.90355464, 48.74191131 ], [ 18.90371622, 48.74131082 ], [ 18.90408383, 48.74040032 ], [ 18.90433839, 48.74001965 ], [ 18.90437536, 48.73984403 ], [ 18.90433046, 48.73986175 ], [ 18.90417183, 48.7398491 ], [ 18.90399571, 48.73980307 ], [ 18.90392587, 48.73978803 ], [ 18.90387519, 48.73977713 ], [ 18.90385912, 48.7398141 ], [ 18.90381481, 48.73980587 ], [ 18.90380936, 48.73981858 ], [ 18.90379672, 48.73981595 ], [ 18.9038067, 48.7397913 ], [ 18.90380685, 48.73979121 ], [ 18.90374567, 48.73978023 ], [ 18.9037531, 48.7397623 ], [ 18.90380438, 48.73977151 ], [ 18.90380802, 48.73976259 ], [ 18.90375468, 48.7397511 ], [ 18.90336931, 48.73964616 ], [ 18.9032478, 48.73962405 ], [ 18.90342647, 48.73968906 ], [ 18.90344948, 48.73969746 ], [ 18.9034882, 48.73971153 ], [ 18.90375934, 48.73981015 ], [ 18.90369888, 48.73994425 ], [ 18.90354196, 48.74029583 ], [ 18.90350233, 48.74038833 ], [ 18.90343411, 48.74053737 ], [ 18.90303739, 48.74041516 ], [ 18.90312178, 48.74048281 ], [ 18.90317254, 48.74054766 ], [ 18.90321241, 48.74060311 ], [ 18.90324026, 48.74066795 ], [ 18.90324518, 48.74072593 ], [ 18.90318177, 48.74095017 ], [ 18.90231476, 48.74070973 ], [ 18.90212275, 48.74095587 ], [ 18.9027616, 48.74097081 ], [ 18.90310895, 48.74100119 ], [ 18.90306572, 48.741122 ], [ 18.90302323, 48.7412563 ], [ 18.90297267, 48.74140119 ], [ 18.90275764, 48.7413648 ], [ 18.90271663, 48.74134231 ], [ 18.90272214, 48.74122803 ], [ 18.90259365, 48.7412107 ], [ 18.90260783, 48.74118284 ], [ 18.90261813, 48.74115089 ], [ 18.90263657, 48.74105767 ], [ 18.9025656, 48.74103715 ], [ 18.90250317, 48.74114607 ], [ 18.90235883, 48.74129985 ], [ 18.90225255, 48.74135826 ], [ 18.90198984, 48.74160483 ], [ 18.90186081, 48.74180477 ], [ 18.90171125, 48.74218993 ], [ 18.90162971, 48.74236984 ], [ 18.90161916, 48.7425434 ], [ 18.9016076, 48.74281846 ], [ 18.90153402, 48.74288757 ], [ 18.90167396, 48.74294563 ], [ 18.90186061, 48.74296829 ], [ 18.90208013, 48.74292355 ], [ 18.90184135, 48.74289415 ], [ 18.90184076, 48.74285154 ], [ 18.90182765, 48.74283662 ], [ 18.90183516, 48.74279704 ], [ 18.90185562, 48.74278538 ], [ 18.90186766, 48.74275947 ], [ 18.90194002, 48.74275886 ], [ 18.90202812, 48.74276131 ], [ 18.90205364, 48.74276578 ], [ 18.90206501, 48.74278278 ], [ 18.90211434, 48.74278784 ], [ 18.90212138, 48.7427569 ], [ 18.90216034, 48.74276079 ], [ 18.90215756, 48.74275073 ], [ 18.90216549, 48.7427192 ], [ 18.90223376, 48.74272668 ], [ 18.90235731, 48.74247008 ], [ 18.9025036, 48.74244963 ], [ 18.90253708, 48.74236078 ], [ 18.90268911, 48.74237508 ], [ 18.90262791, 48.74260602 ], [ 18.90261131, 48.74267309 ], [ 18.90258644, 48.74277338 ], [ 18.90256773, 48.74285144 ], [ 18.90254234, 48.74295621 ], [ 18.90252027, 48.74295364 ], [ 18.9025167, 48.74297249 ], [ 18.90251081, 48.74300294 ], [ 18.90252978, 48.74300509 ], [ 18.90249609, 48.74313064 ], [ 18.90234519, 48.74311477 ], [ 18.90232263, 48.74315014 ], [ 18.90228221, 48.74337015 ], [ 18.90224912, 48.74359748 ], [ 18.90219107, 48.74384562 ], [ 18.90213418, 48.74395843 ], [ 18.90205897, 48.74413444 ], [ 18.90206254, 48.74420272 ], [ 18.90206973, 48.74422285 ], [ 18.90214459, 48.74431825 ], [ 18.9021545, 48.74434428 ], [ 18.90214688, 48.74438241 ], [ 18.90209739, 48.74451824 ], [ 18.90205829, 48.74470259 ], [ 18.9020331, 48.74480675 ], [ 18.90201077, 48.74492963 ], [ 18.90206641, 48.74493546 ], [ 18.90206169, 48.74498384 ], [ 18.90203644, 48.74510946 ], [ 18.9020042, 48.74523653 ], [ 18.90185763, 48.74524073 ], [ 18.90173842, 48.74524417 ], [ 18.90169861, 48.74553213 ] ], [ [ 18.90238166, 48.74383475 ], [ 18.9022448, 48.74382249 ], [ 18.90227369, 48.74349735 ], [ 18.90230118, 48.7433852 ], [ 18.9023234, 48.7433876 ], [ 18.9023295, 48.74336239 ], [ 18.90247094, 48.74337858 ], [ 18.90246465, 48.74340315 ], [ 18.90248996, 48.74340598 ], [ 18.90238166, 48.74383475 ] ] ] } }
]
}
