{
"type": "FeatureCollection",
"name": "gis",
"crs": { "type": "name", "properties": { "name": "urn:ogc:def:crs:OGC:1.3:CRS84" } },
"features": [
{ "type": "Feature", "properties": { "@featureType": "CadastralParcel", "areaValue": { "value": 3278, "@uom": "m2" }, "beginLifespanVersion": { "@nilReason": "http://inspire.ec.europa.eu/codelist/VoidReasonValue/Unpopulated", "@nil": "true" }, "endLifespanVersion": { "@nilReason": "http://inspire.ec.europa.eu/codelist/VoidReasonValue/Unpopulated", "@nil": "true" }, "inspireId": { "@dataType": "Identifier", "localId": "854964_4411.C", "namespace": "SK.ESKN.CP", "versionId": "20260703T05:07:36" }, "label": "4411", "nationalCadastralReference": "854964_4411.C", "referencePoint": { "type": "Point", "coordinates": [ 17.38776555, 48.21931825 ] }, "validFrom": "2026-06-30T16:00:00Z", "validTo": { "@nilReason": "http://inspire.ec.europa.eu/codelist/VoidReasonValue/Unpopulated", "@nil": "true" }, "administrativeUnit": { "@href": "#auAdmUnitS.2029" } }, "geometry": { "type": "Polygon", "coordinates": [ [ [ 17.38617596, 48.21844691 ], [ 17.38616124, 48.21836544 ], [ 17.38602492, 48.21837018 ], [ 17.38604417, 48.21846695 ], [ 17.38609523, 48.21851727 ], [ 17.38738375, 48.21917825 ], [ 17.38870315, 48.21985488 ], [ 17.3895057, 48.22026643 ], [ 17.38952154, 48.22027461 ], [ 17.38957927, 48.22019786 ], [ 17.38947966, 48.22014202 ], [ 17.38919162, 48.21999419 ], [ 17.38912759, 48.21996137 ], [ 17.38891648, 48.21985335 ], [ 17.38879531, 48.2197914 ], [ 17.38870079, 48.2197424 ], [ 17.38853653, 48.21965804 ], [ 17.38829025, 48.21953163 ], [ 17.38810622, 48.21943721 ], [ 17.38788522, 48.21932384 ], [ 17.38786346, 48.21931266 ], [ 17.38770045, 48.21922901 ], [ 17.38701757, 48.21887866 ], [ 17.38685759, 48.21879647 ], [ 17.38649484, 48.21861032 ], [ 17.38617596, 48.21844691 ] ] ] } },
{ "type": "Feature", "properties": { "@featureType": "CadastralParcel", "areaValue": { "value": 7158, "@uom": "m2" }, "beginLifespanVersion": { "@nilReason": "http://inspire.ec.europa.eu/codelist/VoidReasonValue/Unpopulated", "@nil": "true" }, "endLifespanVersion": { "@nilReason": "http://inspire.ec.europa.eu/codelist/VoidReasonValue/Unpopulated", "@nil": "true" }, "inspireId": { "@dataType": "Identifier", "localId": "854964_5550/4.C", "namespace": "SK.ESKN.CP", "versionId": "20260703T05:07:36" }, "label": "5550/4", "nationalCadastralReference": "854964_5550/4.C", "referencePoint": { "type": "Point", "coordinates": [ 17.36301614, 48.23271496 ] }, "validFrom": "2026-06-30T16:00:00Z", "validTo": { "@nilReason": "http://inspire.ec.europa.eu/codelist/VoidReasonValue/Unpopulated", "@nil": "true" }, "administrativeUnit": { "@href": "#auAdmUnitS.2029" } }, "geometry": { "type": "Polygon", "coordinates": [ [ [ 17.36861102, 48.23391314 ], [ 17.36858601, 48.23392876 ], [ 17.36856121, 48.23394196 ], [ 17.36853021, 48.23395511 ], [ 17.36849441, 48.23396587 ], [ 17.3684539, 48.23397371 ], [ 17.36841206, 48.23397865 ], [ 17.36837272, 48.23397942 ], [ 17.36834116, 48.2339779 ], [ 17.36829939, 48.23397218 ], [ 17.3682657, 48.23396483 ], [ 17.36821784, 48.23394904 ], [ 17.36817473, 48.23392661 ], [ 17.36801422, 48.23381653 ], [ 17.36799238, 48.23380498 ], [ 17.36795684, 48.23379181 ], [ 17.36791757, 48.23378382 ], [ 17.36787715, 48.23378181 ], [ 17.3674728, 48.23380162 ], [ 17.36743196, 48.23380157 ], [ 17.36737854, 48.23379599 ], [ 17.36732771, 48.23378381 ], [ 17.36728124, 48.23376586 ], [ 17.36723818, 48.23374316 ], [ 17.36721597, 48.23373041 ], [ 17.36635172, 48.23323008 ], [ 17.36632992, 48.23322287 ], [ 17.36630642, 48.23321989 ], [ 17.36628604, 48.23322144 ], [ 17.36626432, 48.23322752 ], [ 17.36624718, 48.23323553 ], [ 17.36623982, 48.23324056 ], [ 17.36623863, 48.23324681 ], [ 17.36624501, 48.23325219 ], [ 17.36627802, 48.23327152 ], [ 17.36628621, 48.23327287 ], [ 17.3662935, 48.23327019 ], [ 17.36633007, 48.23324213 ], [ 17.36696555, 48.23360993 ], [ 17.36692059, 48.23364539 ], [ 17.3669132, 48.2336543 ], [ 17.36691185, 48.23366443 ], [ 17.36691643, 48.23367376 ], [ 17.3669269, 48.23368168 ], [ 17.36689711, 48.23370404 ], [ 17.36662019, 48.23354386 ], [ 17.36661274, 48.23354301 ], [ 17.36660608, 48.23354601 ], [ 17.36656969, 48.23357462 ], [ 17.36605095, 48.2332741 ], [ 17.36603872, 48.23326707 ], [ 17.36600058, 48.23324496 ], [ 17.36605269, 48.233205 ], [ 17.36609492, 48.23322972 ], [ 17.36610537, 48.2332304 ], [ 17.36611116, 48.2332278 ], [ 17.36619102, 48.23316652 ], [ 17.36622392, 48.23313587 ], [ 17.36622711, 48.23313165 ], [ 17.36622845, 48.23312623 ], [ 17.36622604, 48.23311956 ], [ 17.36621978, 48.23311427 ], [ 17.36621126, 48.23310875 ], [ 17.36618444, 48.23309335 ], [ 17.3661807, 48.2330912 ], [ 17.36616577, 48.23308417 ], [ 17.3661464, 48.23307694 ], [ 17.36613038, 48.23307273 ], [ 17.36610795, 48.23306891 ], [ 17.36609229, 48.2330678 ], [ 17.36606779, 48.23306791 ], [ 17.3660497, 48.23306953 ], [ 17.36602821, 48.23307309 ], [ 17.36601004, 48.23307805 ], [ 17.36599183, 48.23308508 ], [ 17.36597851, 48.23309198 ], [ 17.36596223, 48.23310338 ], [ 17.36547294, 48.23348016 ], [ 17.36544439, 48.23349962 ], [ 17.36542372, 48.23351327 ], [ 17.36538446, 48.23353654 ], [ 17.36531883, 48.23356902 ], [ 17.36524862, 48.23359678 ], [ 17.36518835, 48.23361759 ], [ 17.36514821, 48.23362942 ], [ 17.36511188, 48.23363735 ], [ 17.36507731, 48.23364249 ], [ 17.36503179, 48.23364665 ], [ 17.36500377, 48.23364771 ], [ 17.36496313, 48.23364722 ], [ 17.36491788, 48.23364679 ], [ 17.36484126, 48.23364448 ], [ 17.36477415, 48.23363819 ], [ 17.36474893, 48.23363492 ], [ 17.36470811, 48.23362736 ], [ 17.36467509, 48.23361915 ], [ 17.36463342, 48.2336063 ], [ 17.36457329, 48.23358565 ], [ 17.36453812, 48.23357178 ], [ 17.36450465, 48.23355657 ], [ 17.36446165, 48.23353433 ], [ 17.36310097, 48.23274764 ], [ 17.36308193, 48.23273456 ], [ 17.36306481, 48.23272033 ], [ 17.36305148, 48.23270699 ], [ 17.36303703, 48.23268933 ], [ 17.36302706, 48.2326743 ], [ 17.36301724, 48.2326555 ], [ 17.36301361, 48.23264523 ], [ 17.36300939, 48.23262878 ], [ 17.3630077, 48.23261358 ], [ 17.36300795, 48.23259254 ], [ 17.36301036, 48.23257607 ], [ 17.36301578, 48.23255664 ], [ 17.36302339, 48.23253978 ], [ 17.36303392, 48.2325224 ], [ 17.36304838, 48.2325041 ], [ 17.3630615, 48.23249113 ], [ 17.36307833, 48.23247696 ], [ 17.36404832, 48.23172765 ], [ 17.36407011, 48.23171091 ], [ 17.36409942, 48.23169186 ], [ 17.36413124, 48.23167497 ], [ 17.3641656, 48.23166023 ], [ 17.36420217, 48.2316479 ], [ 17.36424267, 48.23163736 ], [ 17.36427933, 48.23163081 ], [ 17.36431882, 48.23162626 ], [ 17.36436009, 48.23162426 ], [ 17.36439166, 48.23162479 ], [ 17.36441618, 48.23162639 ], [ 17.36444164, 48.23162897 ], [ 17.36448126, 48.23163544 ], [ 17.36451986, 48.2316443 ], [ 17.3645567, 48.23165593 ], [ 17.36460299, 48.23167513 ], [ 17.36462476, 48.23168623 ], [ 17.36518076, 48.23200645 ], [ 17.36571384, 48.23231515 ], [ 17.36635452, 48.23268519 ], [ 17.36636977, 48.23269649 ], [ 17.36638205, 48.23270958 ], [ 17.36638964, 48.23272147 ], [ 17.36639475, 48.23273554 ], [ 17.36639613, 48.23275379 ], [ 17.36639324, 48.23276797 ], [ 17.36638563, 48.23278392 ], [ 17.36637535, 48.2327968 ], [ 17.36635867, 48.23281098 ], [ 17.36634913, 48.23282065 ], [ 17.36633872, 48.23283443 ], [ 17.36633346, 48.23284638 ], [ 17.36633014, 48.23286071 ], [ 17.36632946, 48.23286997 ], [ 17.3663305, 48.23287944 ], [ 17.36633282, 48.23288763 ], [ 17.36633812, 48.23290036 ], [ 17.36634811, 48.23291249 ], [ 17.36636005, 48.2329224 ], [ 17.366377, 48.23293128 ], [ 17.36638643, 48.23293524 ], [ 17.36639357, 48.23293823 ], [ 17.36640915, 48.23294269 ], [ 17.36642618, 48.23294552 ], [ 17.3664412, 48.23294641 ], [ 17.36645621, 48.23294459 ], [ 17.36646818, 48.23294041 ], [ 17.36647872, 48.23293405 ], [ 17.36660312, 48.23283926 ], [ 17.3672655, 48.23322193 ], [ 17.36721887, 48.23325764 ], [ 17.36805778, 48.23374266 ], [ 17.36806843, 48.23374842 ], [ 17.36827102, 48.23384924 ], [ 17.36828642, 48.23385675 ], [ 17.36830338, 48.23386464 ], [ 17.36832036, 48.23387063 ], [ 17.3683458, 48.23387609 ], [ 17.36837276, 48.23387858 ], [ 17.36840031, 48.23387794 ], [ 17.36842587, 48.23387428 ], [ 17.36844578, 48.23386944 ], [ 17.36846274, 48.23386359 ], [ 17.36848461, 48.23385282 ], [ 17.36849518, 48.23384619 ], [ 17.36846938, 48.23383122 ], [ 17.36845552, 48.23384089 ], [ 17.36845431, 48.23384171 ], [ 17.36843595, 48.23384982 ], [ 17.36840234, 48.23385765 ], [ 17.36836682, 48.23385912 ], [ 17.36833204, 48.23385368 ], [ 17.36830104, 48.2338419 ], [ 17.36808196, 48.23372997 ], [ 17.36788528, 48.23361291 ], [ 17.36759983, 48.23344902 ], [ 17.367268, 48.23325652 ], [ 17.36731479, 48.23322063 ], [ 17.36664688, 48.23283228 ], [ 17.36632705, 48.23262719 ], [ 17.36628147, 48.23260044 ], [ 17.36582636, 48.23234845 ], [ 17.36586058, 48.23232349 ], [ 17.36582793, 48.23230454 ], [ 17.3642979, 48.2314203 ], [ 17.36277333, 48.23259769 ], [ 17.3628087, 48.23261844 ], [ 17.36423206, 48.23345541 ], [ 17.3642759, 48.23348115 ], [ 17.36420408, 48.23353364 ], [ 17.36421339, 48.23354121 ], [ 17.36435023, 48.23361803 ], [ 17.36436242, 48.23362254 ], [ 17.36437639, 48.23362318 ], [ 17.36438933, 48.23361978 ], [ 17.36439885, 48.23361299 ], [ 17.36444043, 48.23356556 ], [ 17.36444785, 48.23356108 ], [ 17.36445725, 48.2335588 ], [ 17.36446734, 48.23355919 ], [ 17.36447621, 48.2335623 ], [ 17.36449251, 48.23357105 ], [ 17.36453666, 48.23359192 ], [ 17.36459681, 48.23361429 ], [ 17.36467149, 48.23363906 ], [ 17.36475386, 48.23365756 ], [ 17.36483889, 48.2336699 ], [ 17.36492552, 48.23367404 ], [ 17.36501231, 48.23367158 ], [ 17.36553344, 48.23359608 ], [ 17.36607281, 48.23351798 ], [ 17.36611815, 48.23351037 ], [ 17.3661397, 48.23350826 ], [ 17.36616462, 48.23349326 ], [ 17.36626582, 48.23341558 ], [ 17.36656295, 48.23358738 ], [ 17.36660704, 48.2335533 ], [ 17.36689706, 48.23372102 ], [ 17.36701602, 48.23362922 ], [ 17.36731192, 48.23380022 ], [ 17.36732721, 48.23380293 ], [ 17.36733755, 48.23380433 ], [ 17.3673756, 48.23380963 ], [ 17.36742424, 48.23381552 ], [ 17.3674733, 48.23381945 ], [ 17.36777877, 48.23381721 ], [ 17.36781506, 48.23381697 ], [ 17.36785124, 48.23381924 ], [ 17.36788681, 48.23382392 ], [ 17.3679216, 48.23383108 ], [ 17.36795464, 48.23384101 ], [ 17.36798612, 48.23385319 ], [ 17.36801555, 48.2338674 ], [ 17.36804266, 48.23388364 ], [ 17.36814579, 48.23395337 ], [ 17.36817267, 48.23396741 ], [ 17.36820131, 48.23397968 ], [ 17.36823172, 48.23398998 ], [ 17.36826333, 48.23399856 ], [ 17.36829607, 48.23400495 ], [ 17.36832955, 48.23400913 ], [ 17.36836329, 48.23401142 ], [ 17.36839733, 48.23401175 ], [ 17.36843133, 48.23400955 ], [ 17.36846481, 48.23400541 ], [ 17.36849752, 48.23399906 ], [ 17.3685293, 48.23399084 ], [ 17.36855964, 48.23398035 ], [ 17.36858835, 48.23396813 ], [ 17.36861515, 48.23395417 ], [ 17.36864029, 48.23393864 ], [ 17.36864706, 48.23393393 ], [ 17.36861102, 48.23391314 ] ], [ [ 17.36430591, 48.23349874 ], [ 17.36438579, 48.23354436 ], [ 17.3643647, 48.23356088 ], [ 17.36428493, 48.23351544 ], [ 17.36430591, 48.23349874 ] ], [ [ 17.36431646, 48.23159158 ], [ 17.36421473, 48.23153269 ], [ 17.36430274, 48.23146472 ], [ 17.36440462, 48.23152353 ], [ 17.36438221, 48.23154077 ], [ 17.36431646, 48.23159158 ] ] ] } },
{ "type": "Feature", "properties": { "@featureType": "CadastralParcel", "areaValue": { "value": 22499, "@uom": "m2" }, "beginLifespanVersion": { "@nilReason": "http://inspire.ec.europa.eu/codelist/VoidReasonValue/Unpopulated", "@nil": "true" }, "endLifespanVersion": { "@nilReason": "http://inspire.ec.europa.eu/codelist/VoidReasonValue/Unpopulated", "@nil": "true" }, "inspireId": { "@dataType": "Identifier", "localId": "854964_5550/2.C", "namespace": "SK.ESKN.CP", "versionId": "20260703T05:07:36" }, "label": "5550/2", "nationalCadastralReference": "854964_5550/2.C", "referencePoint": { "type": "Point", "coordinates": [ 17.36352532, 48.2328023 ] }, "validFrom": "2026-06-30T16:00:00Z", "validTo": { "@nilReason": "http://inspire.ec.europa.eu/codelist/VoidReasonValue/Unpopulated", "@nil": "true" }, "administrativeUnit": { "@href": "#auAdmUnitS.2029" } }, "geometry": { "type": "Polygon", "coordinates": [ [ [ 17.36858601, 48.23392876 ], [ 17.36861102, 48.23391314 ], [ 17.36849518, 48.23384619 ], [ 17.36848461, 48.23385282 ], [ 17.36846274, 48.23386359 ], [ 17.36844578, 48.23386944 ], [ 17.36842587, 48.23387428 ], [ 17.36840031, 48.23387794 ], [ 17.36837276, 48.23387858 ], [ 17.3683458, 48.23387609 ], [ 17.36832036, 48.23387063 ], [ 17.36830338, 48.23386464 ], [ 17.36828642, 48.23385675 ], [ 17.36827102, 48.23384924 ], [ 17.36806843, 48.23374842 ], [ 17.36805778, 48.23374266 ], [ 17.36721887, 48.23325764 ], [ 17.3672655, 48.23322193 ], [ 17.36660312, 48.23283926 ], [ 17.36647872, 48.23293405 ], [ 17.36646818, 48.23294041 ], [ 17.36645621, 48.23294459 ], [ 17.3664412, 48.23294641 ], [ 17.36642618, 48.23294552 ], [ 17.36640915, 48.23294269 ], [ 17.36639357, 48.23293823 ], [ 17.36638643, 48.23293524 ], [ 17.366377, 48.23293128 ], [ 17.36636005, 48.2329224 ], [ 17.36634811, 48.23291249 ], [ 17.36633812, 48.23290036 ], [ 17.36633282, 48.23288763 ], [ 17.3663305, 48.23287944 ], [ 17.36632946, 48.23286997 ], [ 17.36633014, 48.23286071 ], [ 17.36633346, 48.23284638 ], [ 17.36633872, 48.23283443 ], [ 17.36634913, 48.23282065 ], [ 17.36635867, 48.23281098 ], [ 17.36637535, 48.2327968 ], [ 17.36638563, 48.23278392 ], [ 17.36639324, 48.23276797 ], [ 17.36639613, 48.23275379 ], [ 17.36639475, 48.23273554 ], [ 17.36638964, 48.23272147 ], [ 17.36638205, 48.23270958 ], [ 17.36636977, 48.23269649 ], [ 17.36635452, 48.23268519 ], [ 17.36571384, 48.23231515 ], [ 17.36518076, 48.23200645 ], [ 17.36462476, 48.23168623 ], [ 17.36460299, 48.23167513 ], [ 17.3645567, 48.23165593 ], [ 17.36451986, 48.2316443 ], [ 17.36448126, 48.23163544 ], [ 17.36444164, 48.23162897 ], [ 17.36441618, 48.23162639 ], [ 17.36439166, 48.23162479 ], [ 17.36436009, 48.23162426 ], [ 17.36431882, 48.23162626 ], [ 17.36427933, 48.23163081 ], [ 17.36424267, 48.23163736 ], [ 17.36420217, 48.2316479 ], [ 17.3641656, 48.23166023 ], [ 17.36413124, 48.23167497 ], [ 17.36409942, 48.23169186 ], [ 17.36407011, 48.23171091 ], [ 17.36404832, 48.23172765 ], [ 17.36307833, 48.23247696 ], [ 17.3630615, 48.23249113 ], [ 17.36304838, 48.2325041 ], [ 17.36303392, 48.2325224 ], [ 17.36302339, 48.23253978 ], [ 17.36301578, 48.23255664 ], [ 17.36301036, 48.23257607 ], [ 17.36300795, 48.23259254 ], [ 17.3630077, 48.23261358 ], [ 17.36300939, 48.23262878 ], [ 17.36301361, 48.23264523 ], [ 17.36301724, 48.2326555 ], [ 17.36302706, 48.2326743 ], [ 17.36303703, 48.23268933 ], [ 17.36305148, 48.23270699 ], [ 17.36306481, 48.23272033 ], [ 17.36308193, 48.23273456 ], [ 17.36310097, 48.23274764 ], [ 17.36446165, 48.23353433 ], [ 17.36450465, 48.23355657 ], [ 17.36453812, 48.23357178 ], [ 17.36457329, 48.23358565 ], [ 17.36463342, 48.2336063 ], [ 17.36467509, 48.23361915 ], [ 17.36470811, 48.23362736 ], [ 17.36474893, 48.23363492 ], [ 17.36477415, 48.23363819 ], [ 17.36484126, 48.23364448 ], [ 17.36491788, 48.23364679 ], [ 17.36496313, 48.23364722 ], [ 17.36500377, 48.23364771 ], [ 17.36503179, 48.23364665 ], [ 17.36507731, 48.23364249 ], [ 17.36511188, 48.23363735 ], [ 17.36514821, 48.23362942 ], [ 17.36518835, 48.23361759 ], [ 17.36524862, 48.23359678 ], [ 17.36531883, 48.23356902 ], [ 17.36538446, 48.23353654 ], [ 17.36542372, 48.23351327 ], [ 17.36544439, 48.23349962 ], [ 17.36547294, 48.23348016 ], [ 17.36596223, 48.23310338 ], [ 17.36597851, 48.23309198 ], [ 17.36599183, 48.23308508 ], [ 17.36601004, 48.23307805 ], [ 17.36602821, 48.23307309 ], [ 17.3660497, 48.23306953 ], [ 17.36606779, 48.23306791 ], [ 17.36609229, 48.2330678 ], [ 17.36610795, 48.23306891 ], [ 17.36613038, 48.23307273 ], [ 17.3661464, 48.23307694 ], [ 17.36616577, 48.23308417 ], [ 17.3661807, 48.2330912 ], [ 17.36618444, 48.23309335 ], [ 17.36621126, 48.23310875 ], [ 17.36621978, 48.23311427 ], [ 17.36622604, 48.23311956 ], [ 17.36622845, 48.23312623 ], [ 17.36622711, 48.23313165 ], [ 17.36622392, 48.23313587 ], [ 17.36619102, 48.23316652 ], [ 17.36611116, 48.2332278 ], [ 17.36610537, 48.2332304 ], [ 17.36609492, 48.23322972 ], [ 17.36605269, 48.233205 ], [ 17.36600058, 48.23324496 ], [ 17.36603872, 48.23326707 ], [ 17.36605095, 48.2332741 ], [ 17.36656969, 48.23357462 ], [ 17.36660608, 48.23354601 ], [ 17.36661274, 48.23354301 ], [ 17.36662019, 48.23354386 ], [ 17.36689711, 48.23370404 ], [ 17.3669269, 48.23368168 ], [ 17.36691643, 48.23367376 ], [ 17.36691185, 48.23366443 ], [ 17.3669132, 48.2336543 ], [ 17.36692059, 48.23364539 ], [ 17.36696555, 48.23360993 ], [ 17.36633007, 48.23324213 ], [ 17.3662935, 48.23327019 ], [ 17.36628621, 48.23327287 ], [ 17.36627802, 48.23327152 ], [ 17.36624501, 48.23325219 ], [ 17.36623863, 48.23324681 ], [ 17.36623982, 48.23324056 ], [ 17.36624718, 48.23323553 ], [ 17.36626432, 48.23322752 ], [ 17.36628604, 48.23322144 ], [ 17.36630642, 48.23321989 ], [ 17.36632992, 48.23322287 ], [ 17.36635172, 48.23323008 ], [ 17.36721597, 48.23373041 ], [ 17.36723818, 48.23374316 ], [ 17.36728124, 48.23376586 ], [ 17.36732771, 48.23378381 ], [ 17.36737854, 48.23379599 ], [ 17.36743196, 48.23380157 ], [ 17.3674728, 48.23380162 ], [ 17.36787715, 48.23378181 ], [ 17.36791757, 48.23378382 ], [ 17.36795684, 48.23379181 ], [ 17.36799238, 48.23380498 ], [ 17.36801422, 48.23381653 ], [ 17.36817473, 48.23392661 ], [ 17.36821784, 48.23394904 ], [ 17.3682657, 48.23396483 ], [ 17.36829939, 48.23397218 ], [ 17.36834116, 48.2339779 ], [ 17.36837272, 48.23397942 ], [ 17.36841206, 48.23397865 ], [ 17.3684539, 48.23397371 ], [ 17.36849441, 48.23396587 ], [ 17.36853021, 48.23395511 ], [ 17.36856121, 48.23394196 ], [ 17.36858601, 48.23392876 ] ], [ [ 17.36625564, 48.2329583 ], [ 17.36629786, 48.23298212 ], [ 17.36631011, 48.23298898 ], [ 17.36632201, 48.23299915 ], [ 17.36632665, 48.23301084 ], [ 17.36632468, 48.23302337 ], [ 17.36631575, 48.23303354 ], [ 17.36630122, 48.23304135 ], [ 17.3662833, 48.23304451 ], [ 17.36626783, 48.23304305 ], [ 17.36625525, 48.23303934 ], [ 17.36624235, 48.23303235 ], [ 17.36622822, 48.23302076 ], [ 17.36621697, 48.233008 ], [ 17.36620748, 48.23299157 ], [ 17.36620341, 48.23297874 ], [ 17.36622373, 48.23297393 ], [ 17.36623906, 48.23296806 ], [ 17.36625564, 48.2329583 ] ], [ [ 17.36596871, 48.23284428 ], [ 17.36529121, 48.23336724 ], [ 17.3653048, 48.23337509 ], [ 17.36514222, 48.23350053 ], [ 17.36511004, 48.23352536 ], [ 17.36509677, 48.2335356 ], [ 17.36505736, 48.23351287 ], [ 17.36504395, 48.2335232 ], [ 17.36501079, 48.23350395 ], [ 17.36503579, 48.23348471 ], [ 17.36503167, 48.23348236 ], [ 17.36499593, 48.2335112 ], [ 17.36496014, 48.23349051 ], [ 17.36499739, 48.2334625 ], [ 17.36450712, 48.23317911 ], [ 17.36447103, 48.23320566 ], [ 17.36443829, 48.23318635 ], [ 17.3644732, 48.23315953 ], [ 17.36423493, 48.23302176 ], [ 17.36420805, 48.23304178 ], [ 17.36418907, 48.23303105 ], [ 17.36421188, 48.23301384 ], [ 17.36418978, 48.23300128 ], [ 17.36416787, 48.23301882 ], [ 17.36413198, 48.23299795 ], [ 17.36415492, 48.23298074 ], [ 17.36413296, 48.23296819 ], [ 17.36411075, 48.23298589 ], [ 17.36407511, 48.23296513 ], [ 17.36409951, 48.2329463 ], [ 17.36407868, 48.23293437 ], [ 17.36405445, 48.23295293 ], [ 17.36401777, 48.23293191 ], [ 17.3640419, 48.23291307 ], [ 17.36402118, 48.23290123 ], [ 17.36399693, 48.23291998 ], [ 17.36395261, 48.23289385 ], [ 17.36394347, 48.23290084 ], [ 17.36391037, 48.23288214 ], [ 17.36393263, 48.23286498 ], [ 17.36387914, 48.2328341 ], [ 17.36389241, 48.23282385 ], [ 17.36366387, 48.23269169 ], [ 17.3636373, 48.23271236 ], [ 17.36361896, 48.23270185 ], [ 17.36364309, 48.23268301 ], [ 17.36362212, 48.23267107 ], [ 17.363598, 48.23268982 ], [ 17.36356149, 48.23266854 ], [ 17.36358598, 48.23265008 ], [ 17.3635653, 48.23263798 ], [ 17.36354096, 48.23265635 ], [ 17.36352265, 48.23264567 ], [ 17.36354903, 48.23262534 ], [ 17.3633216, 48.23249389 ], [ 17.36330847, 48.23250414 ], [ 17.36327306, 48.23248366 ], [ 17.3632862, 48.2324734 ], [ 17.36325877, 48.23245751 ], [ 17.36413232, 48.23178294 ], [ 17.36415975, 48.23179874 ], [ 17.36417288, 48.23178857 ], [ 17.36420854, 48.23180916 ], [ 17.3641954, 48.23181942 ], [ 17.36476684, 48.23214969 ], [ 17.36477973, 48.23213924 ], [ 17.36483371, 48.23217052 ], [ 17.36485572, 48.23215325 ], [ 17.36488824, 48.23217219 ], [ 17.36487928, 48.23217892 ], [ 17.36496293, 48.23222732 ], [ 17.36493617, 48.23224753 ], [ 17.36534788, 48.23248548 ], [ 17.36538359, 48.23245781 ], [ 17.36541626, 48.23247667 ], [ 17.36538043, 48.23250423 ], [ 17.36587294, 48.23278895 ], [ 17.36590849, 48.23276145 ], [ 17.36594115, 48.2327804 ], [ 17.36590562, 48.2328078 ], [ 17.36596871, 48.23284428 ] ] ] } },
{ "type": "Feature", "properties": { "@featureType": "CadastralParcel", "areaValue": { "value": 1655, "@uom": "m2" }, "beginLifespanVersion": { "@nilReason": "http://inspire.ec.europa.eu/codelist/VoidReasonValue/Unpopulated", "@nil": "true" }, "endLifespanVersion": { "@nilReason": "http://inspire.ec.europa.eu/codelist/VoidReasonValue/Unpopulated", "@nil": "true" }, "inspireId": { "@dataType": "Identifier", "localId": "854964_5550/3.C", "namespace": "SK.ESKN.CP", "versionId": "20260703T05:07:36" }, "label": "5550/3", "nationalCadastralReference": "854964_5550/3.C", "referencePoint": { "type": "Point", "coordinates": [ 17.36702886, 48.23302646 ] }, "validFrom": "2026-06-30T16:00:00Z", "validTo": { "@nilReason": "http://inspire.ec.europa.eu/codelist/VoidReasonValue/Unpopulated", "@nil": "true" }, "administrativeUnit": { "@href": "#auAdmUnitS.2029" } }, "geometry": { "type": "Polygon", "coordinates": [ [ [ 17.36845552, 48.23384089 ], [ 17.36846938, 48.23383122 ], [ 17.36840054, 48.23379148 ], [ 17.36747033, 48.23325385 ], [ 17.36586058, 48.23232349 ], [ 17.36582636, 48.23234845 ], [ 17.36628147, 48.23260044 ], [ 17.36632705, 48.23262719 ], [ 17.36664688, 48.23283228 ], [ 17.36731479, 48.23322063 ], [ 17.367268, 48.23325652 ], [ 17.36759983, 48.23344902 ], [ 17.36788528, 48.23361291 ], [ 17.36808196, 48.23372997 ], [ 17.36830104, 48.2338419 ], [ 17.36833204, 48.23385368 ], [ 17.36836682, 48.23385912 ], [ 17.36840234, 48.23385765 ], [ 17.36843595, 48.23384982 ], [ 17.36845431, 48.23384171 ], [ 17.36845552, 48.23384089 ] ] ] } },
{ "type": "Feature", "properties": { "@featureType": "CadastralParcel", "areaValue": { "value": 1693, "@uom": "m2" }, "beginLifespanVersion": { "@nilReason": "http://inspire.ec.europa.eu/codelist/VoidReasonValue/Unpopulated", "@nil": "true" }, "endLifespanVersion": { "@nilReason": "http://inspire.ec.europa.eu/codelist/VoidReasonValue/Unpopulated", "@nil": "true" }, "inspireId": { "@dataType": "Identifier", "localId": "854964_5372.C", "namespace": "SK.ESKN.CP", "versionId": "20260703T05:07:36" }, "label": "5372", "nationalCadastralReference": "854964_5372.C", "referencePoint": { "type": "Point", "coordinates": [ 17.37928205, 48.22373952 ] }, "validFrom": "2026-06-30T16:00:00Z", "validTo": { "@nilReason": "http://inspire.ec.europa.eu/codelist/VoidReasonValue/Unpopulated", "@nil": "true" }, "administrativeUnit": { "@href": "#auAdmUnitS.2029" } }, "geometry": { "type": "Polygon", "coordinates": [ [ [ 17.37868325, 48.22405783 ], [ 17.37902394, 48.22388934 ], [ 17.37987283, 48.22367734 ], [ 17.38024899, 48.2236111 ], [ 17.38082185, 48.22351018 ], [ 17.38105843, 48.22347187 ], [ 17.38153055, 48.22337729 ], [ 17.37990702, 48.22362481 ], [ 17.37943306, 48.22367833 ], [ 17.37924442, 48.22371155 ], [ 17.3789423, 48.22372461 ], [ 17.3789382, 48.22375443 ], [ 17.3789339, 48.22378659 ], [ 17.37849882, 48.22401424 ], [ 17.37860046, 48.22409869 ], [ 17.37868325, 48.22405783 ] ] ] } },
{ "type": "Feature", "properties": { "@featureType": "CadastralParcel", "areaValue": { "value": 13555, "@uom": "m2" }, "beginLifespanVersion": { "@nilReason": "http://inspire.ec.europa.eu/codelist/VoidReasonValue/Unpopulated", "@nil": "true" }, "endLifespanVersion": { "@nilReason": "http://inspire.ec.europa.eu/codelist/VoidReasonValue/Unpopulated", "@nil": "true" }, "inspireId": { "@dataType": "Identifier", "localId": "854964_3938/1.C", "namespace": "SK.ESKN.CP", "versionId": "20260703T05:07:36" }, "label": "3938/1", "nationalCadastralReference": "854964_3938/1.C", "referencePoint": { "type": "Point", "coordinates": [ 17.39683028, 48.21492917 ] }, "validFrom": "2026-06-30T16:00:00Z", "validTo": { "@nilReason": "http://inspire.ec.europa.eu/codelist/VoidReasonValue/Unpopulated", "@nil": "true" }, "administrativeUnit": { "@href": "#auAdmUnitS.2029" } }, "geometry": { "type": "Polygon", "coordinates": [ [ [ 17.39293282, 48.21800745 ], [ 17.39314597, 48.21784226 ], [ 17.39321617, 48.21778928 ], [ 17.39332041, 48.21771159 ], [ 17.3933975, 48.21764939 ], [ 17.39361722, 48.21747532 ], [ 17.39367085, 48.21743219 ], [ 17.39379803, 48.21733621 ], [ 17.39386884, 48.21727821 ], [ 17.39437774, 48.21689411 ], [ 17.39446408, 48.21683062 ], [ 17.39454907, 48.21676523 ], [ 17.39473589, 48.21662199 ], [ 17.39495796, 48.21653635 ], [ 17.39528, 48.21628744 ], [ 17.39579325, 48.21588456 ], [ 17.39580686, 48.2158728 ], [ 17.39583268, 48.21585063 ], [ 17.39590707, 48.21578653 ], [ 17.39592735, 48.21576897 ], [ 17.39598488, 48.21571941 ], [ 17.39613123, 48.21560136 ], [ 17.39621766, 48.21553164 ], [ 17.3962635, 48.21549459 ], [ 17.39643514, 48.21535615 ], [ 17.3966071, 48.21521736 ], [ 17.39677964, 48.21507825 ], [ 17.39695113, 48.21493989 ], [ 17.39702332, 48.21488342 ], [ 17.39723411, 48.21471852 ], [ 17.39725725, 48.21470078 ], [ 17.39727551, 48.21468679 ], [ 17.39739972, 48.2145917 ], [ 17.39749059, 48.21452208 ], [ 17.39756822, 48.21446262 ], [ 17.39767949, 48.21437744 ], [ 17.39774313, 48.21432864 ], [ 17.39786307, 48.21423679 ], [ 17.39792655, 48.21418816 ], [ 17.39808454, 48.21406716 ], [ 17.39821482, 48.21396659 ], [ 17.39825885, 48.21393259 ], [ 17.39838821, 48.21383268 ], [ 17.39843575, 48.21379602 ], [ 17.39847536, 48.21376544 ], [ 17.39861083, 48.21366078 ], [ 17.39868656, 48.21360228 ], [ 17.39874293, 48.21355879 ], [ 17.39875299, 48.21355095 ], [ 17.39888539, 48.2134488 ], [ 17.39906366, 48.21331115 ], [ 17.39926402, 48.21315641 ], [ 17.39953401, 48.21331397 ], [ 17.39955653, 48.21325228 ], [ 17.3993239, 48.21311016 ], [ 17.39972944, 48.21279178 ], [ 17.39983376, 48.21280327 ], [ 17.39992913, 48.21263979 ], [ 17.40040495, 48.21227141 ], [ 17.40043483, 48.21224824 ], [ 17.4004362, 48.21224724 ], [ 17.40054717, 48.21216122 ], [ 17.40063511, 48.21209313 ], [ 17.400761, 48.21199561 ], [ 17.40078207, 48.21198 ], [ 17.40080375, 48.21196397 ], [ 17.40088801, 48.2119016 ], [ 17.40093014, 48.21187046 ], [ 17.4008729, 48.2118708 ], [ 17.40070959, 48.21187172 ], [ 17.40066711, 48.21187194 ], [ 17.40041602, 48.21206394 ], [ 17.40027422, 48.21217226 ], [ 17.40025457, 48.21218743 ], [ 17.40011489, 48.21229416 ], [ 17.40009722, 48.21230774 ], [ 17.39997336, 48.21240241 ], [ 17.39984524, 48.21250032 ], [ 17.39974054, 48.21258133 ], [ 17.39970883, 48.21260592 ], [ 17.39964985, 48.21265159 ], [ 17.3994895, 48.21277578 ], [ 17.39939364, 48.21284995 ], [ 17.39929791, 48.21292413 ], [ 17.39918436, 48.21301206 ], [ 17.39911303, 48.21306732 ], [ 17.39897182, 48.21317613 ], [ 17.39893504, 48.213204 ], [ 17.3988332, 48.21328293 ], [ 17.39870733, 48.21338027 ], [ 17.39857883, 48.21347978 ], [ 17.39848616, 48.21355154 ], [ 17.39843404, 48.21359188 ], [ 17.39842824, 48.21359638 ], [ 17.39830295, 48.21369339 ], [ 17.39806121, 48.21388058 ], [ 17.39791825, 48.21399117 ], [ 17.39789188, 48.21401159 ], [ 17.39778561, 48.21409313 ], [ 17.3977148, 48.21414752 ], [ 17.39767748, 48.21417626 ], [ 17.39750939, 48.21430527 ], [ 17.39735973, 48.21442012 ], [ 17.39720304, 48.21454047 ], [ 17.39710711, 48.2146141 ], [ 17.39679893, 48.21485072 ], [ 17.39670954, 48.21491844 ], [ 17.39649365, 48.2150859 ], [ 17.39631771, 48.21522235 ], [ 17.3960541, 48.21542673 ], [ 17.39594875, 48.21550841 ], [ 17.39593899, 48.215516 ], [ 17.39593107, 48.21552208 ], [ 17.39575314, 48.21566011 ], [ 17.39560721, 48.2157743 ], [ 17.39549049, 48.21586437 ], [ 17.39532289, 48.21599368 ], [ 17.39522047, 48.21607284 ], [ 17.39511716, 48.21615258 ], [ 17.39500897, 48.21623607 ], [ 17.3948924, 48.21632605 ], [ 17.39477278, 48.21641837 ], [ 17.39472912, 48.21645257 ], [ 17.39471835, 48.21646064 ], [ 17.3945259, 48.21661191 ], [ 17.39451719, 48.21661875 ], [ 17.39446614, 48.21665907 ], [ 17.39432037, 48.21677398 ], [ 17.39412892, 48.21692216 ], [ 17.39390375, 48.21709651 ], [ 17.39367371, 48.21727461 ], [ 17.3936667, 48.21728002 ], [ 17.39350508, 48.21740529 ], [ 17.39347186, 48.21743096 ], [ 17.39335219, 48.21752363 ], [ 17.39331286, 48.21755405 ], [ 17.39325814, 48.21759638 ], [ 17.39305795, 48.21775149 ], [ 17.39292654, 48.21785325 ], [ 17.39277881, 48.21796767 ], [ 17.39280453, 48.21797297 ], [ 17.39285217, 48.21798285 ], [ 17.39293282, 48.21800745 ] ] ] } },
{ "type": "Feature", "properties": { "@featureType": "CadastralParcel", "areaValue": { "value": 107, "@uom": "m2" }, "beginLifespanVersion": { "@nilReason": "http://inspire.ec.europa.eu/codelist/VoidReasonValue/Unpopulated", "@nil": "true" }, "endLifespanVersion": { "@nilReason": "http://inspire.ec.europa.eu/codelist/VoidReasonValue/Unpopulated", "@nil": "true" }, "inspireId": { "@dataType": "Identifier", "localId": "854964_3938/2.C", "namespace": "SK.ESKN.CP", "versionId": "20260703T05:07:36" }, "label": "3938/2", "nationalCadastralReference": "854964_3938/2.C", "referencePoint": { "type": "Point", "coordinates": [ 17.3926866, 48.21803228 ] }, "validFrom": "2026-06-30T16:00:00Z", "validTo": { "@nilReason": "http://inspire.ec.europa.eu/codelist/VoidReasonValue/Unpopulated", "@nil": "true" }, "administrativeUnit": { "@href": "#auAdmUnitS.2029" } }, "geometry": { "type": "Polygon", "coordinates": [ [ [ 17.39280453, 48.21797297 ], [ 17.39277881, 48.21796767 ], [ 17.39267484, 48.21793053 ], [ 17.39265009, 48.21791952 ], [ 17.39264645, 48.2180916 ], [ 17.39280453, 48.21797297 ] ] ] } },
{ "type": "Feature", "properties": { "@featureType": "CadastralParcel", "areaValue": { "value": 3631, "@uom": "m2" }, "beginLifespanVersion": { "@nilReason": "http://inspire.ec.europa.eu/codelist/VoidReasonValue/Unpopulated", "@nil": "true" }, "endLifespanVersion": { "@nilReason": "http://inspire.ec.europa.eu/codelist/VoidReasonValue/Unpopulated", "@nil": "true" }, "inspireId": { "@dataType": "Identifier", "localId": "854964_4010/1.C", "namespace": "SK.ESKN.CP", "versionId": "20260703T05:07:36" }, "label": "4010/1", "nationalCadastralReference": "854964_4010/1.C", "referencePoint": { "type": "Point", "coordinates": [ 17.39317332, 48.21753884 ] }, "validFrom": "2026-06-30T16:00:00Z", "validTo": { "@nilReason": "http://inspire.ec.europa.eu/codelist/VoidReasonValue/Unpopulated", "@nil": "true" }, "administrativeUnit": { "@href": "#auAdmUnitS.2029" } }, "geometry": { "type": "Polygon", "coordinates": [ [ [ 17.39267484, 48.21793053 ], [ 17.39277881, 48.21796767 ], [ 17.39292654, 48.21785325 ], [ 17.39305795, 48.21775149 ], [ 17.39325814, 48.21759638 ], [ 17.39331286, 48.21755405 ], [ 17.39335219, 48.21752363 ], [ 17.39347186, 48.21743096 ], [ 17.39350508, 48.21740529 ], [ 17.3936667, 48.21728002 ], [ 17.39367371, 48.21727461 ], [ 17.39390375, 48.21709651 ], [ 17.39361678, 48.21709505 ], [ 17.39333385, 48.21709368 ], [ 17.39318753, 48.2170929 ], [ 17.39302608, 48.21709204 ], [ 17.39301703, 48.21709199 ], [ 17.39262914, 48.21709 ], [ 17.39261563, 48.21708993 ], [ 17.39261593, 48.21709989 ], [ 17.3926187, 48.21719938 ], [ 17.39261978, 48.2172383 ], [ 17.39262441, 48.21740469 ], [ 17.39262546, 48.21741605 ], [ 17.39264941, 48.21766583 ], [ 17.39265049, 48.21767702 ], [ 17.39266832, 48.21786315 ], [ 17.39267484, 48.21793053 ] ], [ [ 17.39268015, 48.21770904 ], [ 17.39267656, 48.21766417 ], [ 17.3926695, 48.21766443 ], [ 17.39263266, 48.2171992 ], [ 17.39298642, 48.21718677 ], [ 17.39302301, 48.21765189 ], [ 17.39288532, 48.21765682 ], [ 17.39288683, 48.21767707 ], [ 17.39280881, 48.21767985 ], [ 17.39281062, 48.21770445 ], [ 17.39268015, 48.21770904 ] ], [ [ 17.39379527, 48.21716163 ], [ 17.39377087, 48.21714721 ], [ 17.39380522, 48.21712126 ], [ 17.39382963, 48.21713559 ], [ 17.39379527, 48.21716163 ] ] ] } },
{ "type": "Feature", "properties": { "@featureType": "CadastralParcel", "areaValue": { "value": 1918, "@uom": "m2" }, "beginLifespanVersion": { "@nilReason": "http://inspire.ec.europa.eu/codelist/VoidReasonValue/Unpopulated", "@nil": "true" }, "endLifespanVersion": { "@nilReason": "http://inspire.ec.europa.eu/codelist/VoidReasonValue/Unpopulated", "@nil": "true" }, "inspireId": { "@dataType": "Identifier", "localId": "854964_4222/3.C", "namespace": "SK.ESKN.CP", "versionId": "20260703T05:07:36" }, "label": "4222/3", "nationalCadastralReference": "854964_4222/3.C", "referencePoint": { "type": "Point", "coordinates": [ 17.39255622, 48.21818983 ] }, "validFrom": "2026-06-30T16:00:00Z", "validTo": { "@nilReason": "http://inspire.ec.europa.eu/codelist/VoidReasonValue/Unpopulated", "@nil": "true" }, "administrativeUnit": { "@href": "#auAdmUnitS.2029" } }, "geometry": { "type": "Polygon", "coordinates": [ [ [ 17.39296735, 48.21812744 ], [ 17.3928585, 48.21811356 ], [ 17.39293591, 48.21805012 ], [ 17.39293282, 48.21800745 ], [ 17.39285217, 48.21798285 ], [ 17.39280453, 48.21797297 ], [ 17.39264645, 48.2180916 ], [ 17.39265009, 48.21791952 ], [ 17.39261595, 48.21790419 ], [ 17.39253954, 48.21790526 ], [ 17.39245336, 48.21790651 ], [ 17.39245614, 48.21795413 ], [ 17.39246541, 48.21811467 ], [ 17.39223827, 48.21799702 ], [ 17.39218627, 48.21803276 ], [ 17.39208724, 48.21810066 ], [ 17.39206951, 48.21811279 ], [ 17.39233418, 48.21825222 ], [ 17.39233729, 48.21826146 ], [ 17.3923272, 48.21829442 ], [ 17.39231077, 48.21832362 ], [ 17.39233273, 48.21830842 ], [ 17.3923523, 48.21832253 ], [ 17.39243294, 48.21838047 ], [ 17.3924512, 48.21839802 ], [ 17.39249866, 48.2183675 ], [ 17.39253237, 48.21836626 ], [ 17.39259249, 48.21837868 ], [ 17.39261292, 48.21836836 ], [ 17.39274816, 48.21832097 ], [ 17.39276989, 48.21830179 ], [ 17.39296735, 48.21812744 ] ] ] } },
{ "type": "Feature", "properties": { "@featureType": "CadastralParcel", "areaValue": { "value": 29607, "@uom": "m2" }, "beginLifespanVersion": { "@nilReason": "http://inspire.ec.europa.eu/codelist/VoidReasonValue/Unpopulated", "@nil": "true" }, "endLifespanVersion": { "@nilReason": "http://inspire.ec.europa.eu/codelist/VoidReasonValue/Unpopulated", "@nil": "true" }, "inspireId": { "@dataType": "Identifier", "localId": "854964_5550/1.C", "namespace": "SK.ESKN.CP", "versionId": "20260703T05:07:36" }, "label": "5550/1", "nationalCadastralReference": "854964_5550/1.C", "referencePoint": { "type": "Point", "coordinates": [ 17.36615088, 48.23408122 ] }, "validFrom": "2026-06-30T16:00:00Z", "validTo": { "@nilReason": "http://inspire.ec.europa.eu/codelist/VoidReasonValue/Unpopulated", "@nil": "true" }, "administrativeUnit": { "@href": "#auAdmUnitS.2029" } }, "geometry": { "type": "Polygon", "coordinates": [ [ [ 17.36852026, 48.23431917 ], [ 17.36868404, 48.23419841 ], [ 17.36882369, 48.23409929 ], [ 17.36887078, 48.23406315 ], [ 17.36864706, 48.23393393 ], [ 17.36864029, 48.23393864 ], [ 17.36861515, 48.23395417 ], [ 17.36858835, 48.23396813 ], [ 17.36855964, 48.23398035 ], [ 17.3685293, 48.23399084 ], [ 17.36849752, 48.23399906 ], [ 17.36846481, 48.23400541 ], [ 17.36843133, 48.23400955 ], [ 17.36839733, 48.23401175 ], [ 17.36836329, 48.23401142 ], [ 17.36832955, 48.23400913 ], [ 17.36829607, 48.23400495 ], [ 17.36826333, 48.23399856 ], [ 17.36823172, 48.23398998 ], [ 17.36820131, 48.23397968 ], [ 17.36817267, 48.23396741 ], [ 17.36814579, 48.23395337 ], [ 17.36804266, 48.23388364 ], [ 17.36801555, 48.2338674 ], [ 17.36798612, 48.23385319 ], [ 17.36795464, 48.23384101 ], [ 17.3679216, 48.23383108 ], [ 17.36788681, 48.23382392 ], [ 17.36785124, 48.23381924 ], [ 17.36781506, 48.23381697 ], [ 17.36777877, 48.23381721 ], [ 17.3674733, 48.23381945 ], [ 17.36742424, 48.23381552 ], [ 17.3673756, 48.23380963 ], [ 17.36733755, 48.23380433 ], [ 17.36732721, 48.23380293 ], [ 17.36731192, 48.23380022 ], [ 17.36701602, 48.23362922 ], [ 17.36689706, 48.23372102 ], [ 17.36660704, 48.2335533 ], [ 17.36656295, 48.23358738 ], [ 17.36626582, 48.23341558 ], [ 17.36616462, 48.23349326 ], [ 17.3661397, 48.23350826 ], [ 17.36611815, 48.23351037 ], [ 17.36607281, 48.23351798 ], [ 17.36553344, 48.23359608 ], [ 17.36501231, 48.23367158 ], [ 17.36492552, 48.23367404 ], [ 17.36483889, 48.2336699 ], [ 17.36475386, 48.23365756 ], [ 17.36467149, 48.23363906 ], [ 17.36459681, 48.23361429 ], [ 17.36453666, 48.23359192 ], [ 17.36449251, 48.23357105 ], [ 17.36447621, 48.2335623 ], [ 17.36446734, 48.23355919 ], [ 17.36445725, 48.2335588 ], [ 17.36444785, 48.23356108 ], [ 17.36444043, 48.23356556 ], [ 17.36439885, 48.23361299 ], [ 17.36438933, 48.23361978 ], [ 17.36437639, 48.23362318 ], [ 17.36436242, 48.23362254 ], [ 17.36435023, 48.23361803 ], [ 17.36421339, 48.23354121 ], [ 17.36420408, 48.23353364 ], [ 17.36336663, 48.23414543 ], [ 17.36338349, 48.23415223 ], [ 17.36348475, 48.23419591 ], [ 17.36359909, 48.23422047 ], [ 17.36371326, 48.23424719 ], [ 17.36382862, 48.23427128 ], [ 17.36394571, 48.23429187 ], [ 17.36406465, 48.23430725 ], [ 17.36419178, 48.23431656 ], [ 17.36443112, 48.23432166 ], [ 17.3645575, 48.23432225 ], [ 17.36468466, 48.23431386 ], [ 17.36481339, 48.23430213 ], [ 17.36489674, 48.23429268 ], [ 17.36495377, 48.23428015 ], [ 17.3653449, 48.23420291 ], [ 17.36554243, 48.23418322 ], [ 17.36574346, 48.2341756 ], [ 17.3659409, 48.23420352 ], [ 17.36613162, 48.23425242 ], [ 17.36631169, 48.234313 ], [ 17.3664939, 48.23437932 ], [ 17.36669688, 48.23446634 ], [ 17.3668323, 48.23452617 ], [ 17.36716653, 48.23468856 ], [ 17.36736764, 48.234745 ], [ 17.36754638, 48.23476212 ], [ 17.36758872, 48.2347648 ], [ 17.36774518, 48.23473374 ], [ 17.36778629, 48.23471899 ], [ 17.36811122, 48.23455916 ], [ 17.36852026, 48.23431917 ] ], [ [ 17.36628538, 48.23353126 ], [ 17.36622882, 48.23349819 ], [ 17.36625869, 48.23347529 ], [ 17.36631526, 48.23350827 ], [ 17.36628538, 48.23353126 ] ] ] } },
{ "type": "Feature", "properties": { "@featureType": "CadastralParcel", "areaValue": { "value": 23741, "@uom": "m2" }, "beginLifespanVersion": { "@nilReason": "http://inspire.ec.europa.eu/codelist/VoidReasonValue/Unpopulated", "@nil": "true" }, "endLifespanVersion": { "@nilReason": "http://inspire.ec.europa.eu/codelist/VoidReasonValue/Unpopulated", "@nil": "true" }, "inspireId": { "@dataType": "Identifier", "localId": "854964_5374/1.C", "namespace": "SK.ESKN.CP", "versionId": "20260703T05:07:36" }, "label": "5374/1", "nationalCadastralReference": "854964_5374/1.C", "referencePoint": { "type": "Point", "coordinates": [ 17.38010313, 48.22230387 ] }, "validFrom": "2026-06-30T16:00:00Z", "validTo": { "@nilReason": "http://inspire.ec.europa.eu/codelist/VoidReasonValue/Unpopulated", "@nil": "true" }, "administrativeUnit": { "@href": "#auAdmUnitS.2029" } }, "geometry": { "type": "Polygon", "coordinates": [ [ [ 17.38261543, 48.22296995 ], [ 17.37808199, 48.22115225 ], [ 17.37758308, 48.22163778 ], [ 17.38148616, 48.22319547 ], [ 17.38261543, 48.22296995 ] ] ] } },
{ "type": "Feature", "properties": { "@featureType": "CadastralParcel", "areaValue": { "value": 4295, "@uom": "m2" }, "beginLifespanVersion": { "@nilReason": "http://inspire.ec.europa.eu/codelist/VoidReasonValue/Unpopulated", "@nil": "true" }, "endLifespanVersion": { "@nilReason": "http://inspire.ec.europa.eu/codelist/VoidReasonValue/Unpopulated", "@nil": "true" }, "inspireId": { "@dataType": "Identifier", "localId": "854964_4227/1.C", "namespace": "SK.ESKN.CP", "versionId": "20260703T05:07:36" }, "label": "4227/1", "nationalCadastralReference": "854964_4227/1.C", "referencePoint": { "type": "Point", "coordinates": [ 17.38524427, 48.21601834 ] }, "validFrom": "2026-06-30T16:00:00Z", "validTo": { "@nilReason": "http://inspire.ec.europa.eu/codelist/VoidReasonValue/Unpopulated", "@nil": "true" }, "administrativeUnit": { "@href": "#auAdmUnitS.2029" } }, "geometry": { "type": "Polygon", "coordinates": [ [ [ 17.38547486, 48.21695526 ], [ 17.38532347, 48.21608649 ], [ 17.38536226, 48.21539388 ], [ 17.38542711, 48.214831 ], [ 17.38542798, 48.2148232 ], [ 17.38528126, 48.21475308 ], [ 17.3852752, 48.21475015 ], [ 17.38510786, 48.21543139 ], [ 17.38515057, 48.21592538 ], [ 17.38515275, 48.2159502 ], [ 17.38517741, 48.2161478 ], [ 17.38525809, 48.21663081 ], [ 17.38518962, 48.21669592 ], [ 17.38517547, 48.21670945 ], [ 17.38510645, 48.21682738 ], [ 17.38522209, 48.21716837 ], [ 17.38559342, 48.21713849 ], [ 17.38547486, 48.21695526 ] ] ] } },
{ "type": "Feature", "properties": { "@featureType": "CadastralParcel", "areaValue": { "value": 124, "@uom": "m2" }, "beginLifespanVersion": { "@nilReason": "http://inspire.ec.europa.eu/codelist/VoidReasonValue/Unpopulated", "@nil": "true" }, "endLifespanVersion": { "@nilReason": "http://inspire.ec.europa.eu/codelist/VoidReasonValue/Unpopulated", "@nil": "true" }, "inspireId": { "@dataType": "Identifier", "localId": "854964_4227/4.C", "namespace": "SK.ESKN.CP", "versionId": "20260703T05:07:36" }, "label": "4227/4", "nationalCadastralReference": "854964_4227/4.C", "referencePoint": { "type": "Point", "coordinates": [ 17.38567961, 48.22187832 ] }, "validFrom": "2026-06-30T16:00:00Z", "validTo": { "@nilReason": "http://inspire.ec.europa.eu/codelist/VoidReasonValue/Unpopulated", "@nil": "true" }, "administrativeUnit": { "@href": "#auAdmUnitS.2029" } }, "geometry": { "type": "Polygon", "coordinates": [ [ [ 17.38572745, 48.22182371 ], [ 17.38573306, 48.22181214 ], [ 17.38579149, 48.2216909 ], [ 17.38579188, 48.22169011 ], [ 17.38578076, 48.22168568 ], [ 17.3855557, 48.2220393 ], [ 17.3856122, 48.2220626 ], [ 17.38561511, 48.22205655 ], [ 17.3856747, 48.22193294 ], [ 17.38572745, 48.22182371 ] ] ] } },
{ "type": "Feature", "properties": { "@featureType": "CadastralParcel", "areaValue": { "value": 110, "@uom": "m2" }, "beginLifespanVersion": { "@nilReason": "http://inspire.ec.europa.eu/codelist/VoidReasonValue/Unpopulated", "@nil": "true" }, "endLifespanVersion": { "@nilReason": "http://inspire.ec.europa.eu/codelist/VoidReasonValue/Unpopulated", "@nil": "true" }, "inspireId": { "@dataType": "Identifier", "localId": "854964_4227/5.C", "namespace": "SK.ESKN.CP", "versionId": "20260703T05:07:36" }, "label": "4227/5", "nationalCadastralReference": "854964_4227/5.C", "referencePoint": { "type": "Point", "coordinates": [ 17.38540466, 48.21778321 ] }, "validFrom": "2026-06-30T16:00:00Z", "validTo": { "@nilReason": "http://inspire.ec.europa.eu/codelist/VoidReasonValue/Unpopulated", "@nil": "true" }, "administrativeUnit": { "@href": "#auAdmUnitS.2029" } }, "geometry": { "type": "Polygon", "coordinates": [ [ [ 17.38547518, 48.21809799 ], [ 17.38540269, 48.21770046 ], [ 17.38532793, 48.21748025 ], [ 17.38540891, 48.21786596 ], [ 17.385447, 48.218091 ], [ 17.38547518, 48.21809799 ] ] ] } },
{ "type": "Feature", "properties": { "@featureType": "CadastralParcel", "areaValue": { "value": 322, "@uom": "m2" }, "beginLifespanVersion": { "@nilReason": "http://inspire.ec.europa.eu/codelist/VoidReasonValue/Unpopulated", "@nil": "true" }, "endLifespanVersion": { "@nilReason": "http://inspire.ec.europa.eu/codelist/VoidReasonValue/Unpopulated", "@nil": "true" }, "inspireId": { "@dataType": "Identifier", "localId": "854964_4415/1.C", "namespace": "SK.ESKN.CP", "versionId": "20260703T05:07:36" }, "label": "4415/1", "nationalCadastralReference": "854964_4415/1.C", "referencePoint": { "type": "Point", "coordinates": [ 17.38572075, 48.22217748 ] }, "validFrom": "2026-06-30T16:00:00Z", "validTo": { "@nilReason": "http://inspire.ec.europa.eu/codelist/VoidReasonValue/Unpopulated", "@nil": "true" }, "administrativeUnit": { "@href": "#auAdmUnitS.2029" } }, "geometry": { "type": "Polygon", "coordinates": [ [ [ 17.38599752, 48.22221751 ], [ 17.38587006, 48.22216627 ], [ 17.38575325, 48.2221328 ], [ 17.38559816, 48.22208834 ], [ 17.3855367, 48.22218869 ], [ 17.38576604, 48.22225897 ], [ 17.38599752, 48.22221751 ] ] ] } },
{ "type": "Feature", "properties": { "@featureType": "CadastralParcel", "areaValue": { "value": 6189, "@uom": "m2" }, "beginLifespanVersion": { "@nilReason": "http://inspire.ec.europa.eu/codelist/VoidReasonValue/Unpopulated", "@nil": "true" }, "endLifespanVersion": { "@nilReason": "http://inspire.ec.europa.eu/codelist/VoidReasonValue/Unpopulated", "@nil": "true" }, "inspireId": { "@dataType": "Identifier", "localId": "854964_5138.C", "namespace": "SK.ESKN.CP", "versionId": "20260703T05:07:36" }, "label": "5138", "nationalCadastralReference": "854964_5138.C", "referencePoint": { "type": "Point", "coordinates": [ 17.36786178, 48.23521294 ] }, "validFrom": "2026-06-30T16:00:00Z", "validTo": { "@nilReason": "http://inspire.ec.europa.eu/codelist/VoidReasonValue/Unpopulated", "@nil": "true" }, "administrativeUnit": { "@href": "#auAdmUnitS.2029" } }, "geometry": { "type": "Polygon", "coordinates": [ [ [ 17.36708334, 48.23556687 ], [ 17.36659313, 48.23599682 ], [ 17.36646157, 48.23611363 ], [ 17.36669968, 48.23621479 ], [ 17.3667212, 48.23622668 ], [ 17.36685329, 48.23632677 ], [ 17.36685051, 48.23630237 ], [ 17.36686619, 48.23627294 ], [ 17.36692437, 48.23622579 ], [ 17.3670957, 48.23608681 ], [ 17.36722278, 48.23598398 ], [ 17.36771589, 48.23553045 ], [ 17.36846649, 48.23489542 ], [ 17.36835271, 48.23478768 ], [ 17.36831481, 48.23475185 ], [ 17.3682136, 48.23465613 ], [ 17.3681965, 48.23463992 ], [ 17.36810859, 48.23480315 ], [ 17.3672571, 48.23553586 ], [ 17.36708334, 48.23556687 ] ] ] } },
{ "type": "Feature", "properties": { "@featureType": "CadastralParcel", "areaValue": { "value": 6109, "@uom": "m2" }, "beginLifespanVersion": { "@nilReason": "http://inspire.ec.europa.eu/codelist/VoidReasonValue/Unpopulated", "@nil": "true" }, "endLifespanVersion": { "@nilReason": "http://inspire.ec.europa.eu/codelist/VoidReasonValue/Unpopulated", "@nil": "true" }, "inspireId": { "@dataType": "Identifier", "localId": "854964_5562/1.C", "namespace": "SK.ESKN.CP", "versionId": "20260703T05:07:36" }, "label": "5562/1", "nationalCadastralReference": "854964_5562/1.C", "referencePoint": { "type": "Point", "coordinates": [ 17.37158968, 48.22810528 ] }, "validFrom": "2026-06-30T16:00:00Z", "validTo": { "@nilReason": "http://inspire.ec.europa.eu/codelist/VoidReasonValue/Unpopulated", "@nil": "true" }, "administrativeUnit": { "@href": "#auAdmUnitS.2029" } }, "geometry": { "type": "Polygon", "coordinates": [ [ [ 17.36595604, 48.23221208 ], [ 17.36598783, 48.23223052 ], [ 17.36664009, 48.23175407 ], [ 17.36673324, 48.23168607 ], [ 17.36681685, 48.23162503 ], [ 17.36688987, 48.23157162 ], [ 17.36693562, 48.23153819 ], [ 17.36714875, 48.23138244 ], [ 17.36741656, 48.2311868 ], [ 17.36827951, 48.23055632 ], [ 17.36882237, 48.23015972 ], [ 17.36885146, 48.2301384 ], [ 17.36895703, 48.23006127 ], [ 17.36934904, 48.2297748 ], [ 17.37013213, 48.22920253 ], [ 17.37017453, 48.2291716 ], [ 17.37051728, 48.22892121 ], [ 17.37060271, 48.22885876 ], [ 17.37072054, 48.22877276 ], [ 17.37100029, 48.22856831 ], [ 17.3712779, 48.22836553 ], [ 17.37155326, 48.22816423 ], [ 17.37177196, 48.2280045 ], [ 17.37182665, 48.22796443 ], [ 17.37183119, 48.22796111 ], [ 17.37193856, 48.22788274 ], [ 17.37336318, 48.22702691 ], [ 17.37413666, 48.22656215 ], [ 17.3741417, 48.22655914 ], [ 17.37492406, 48.22608899 ], [ 17.37514642, 48.22595949 ], [ 17.37645984, 48.22522043 ], [ 17.37658496, 48.22515008 ], [ 17.37739949, 48.22469168 ], [ 17.37770328, 48.22454166 ], [ 17.37770866, 48.22453903 ], [ 17.37817104, 48.22431072 ], [ 17.37860046, 48.22409869 ], [ 17.37849882, 48.22401424 ], [ 17.3784415, 48.22404646 ], [ 17.37828351, 48.22413545 ], [ 17.37824843, 48.2241552 ], [ 17.37818742, 48.22418953 ], [ 17.37812081, 48.22422701 ], [ 17.37802783, 48.22427931 ], [ 17.37790522, 48.22434829 ], [ 17.37789401, 48.2243546 ], [ 17.3777288, 48.22444763 ], [ 17.37765453, 48.22448941 ], [ 17.37765291, 48.22449029 ], [ 17.37763169, 48.22450228 ], [ 17.37759751, 48.22452146 ], [ 17.37757466, 48.22453434 ], [ 17.37756008, 48.22454251 ], [ 17.37753708, 48.22455547 ], [ 17.37750172, 48.22457529 ], [ 17.3774133, 48.22462509 ], [ 17.37710632, 48.22479786 ], [ 17.37702393, 48.22484425 ], [ 17.37684679, 48.22494391 ], [ 17.37680258, 48.22496876 ], [ 17.3766698, 48.22504348 ], [ 17.37658122, 48.22509336 ], [ 17.37649266, 48.22514314 ], [ 17.37635986, 48.22521796 ], [ 17.37631565, 48.22524281 ], [ 17.37613851, 48.22534247 ], [ 17.3759615, 48.22544213 ], [ 17.37591715, 48.22546706 ], [ 17.37578436, 48.22554179 ], [ 17.37569622, 48.22559142 ], [ 17.37561457, 48.22563741 ], [ 17.37560941, 48.22564032 ], [ 17.37560735, 48.22564145 ], [ 17.37560426, 48.22564315 ], [ 17.37558156, 48.22565594 ], [ 17.37543022, 48.22574102 ], [ 17.37533266, 48.22579591 ], [ 17.37525321, 48.22584068 ], [ 17.37512161, 48.22591467 ], [ 17.3750538, 48.22595289 ], [ 17.37502727, 48.22596878 ], [ 17.37491432, 48.22603639 ], [ 17.37480788, 48.22610019 ], [ 17.37470885, 48.2261595 ], [ 17.3745916, 48.22622972 ], [ 17.37450399, 48.22628219 ], [ 17.37439281, 48.22634875 ], [ 17.37401983, 48.22657222 ], [ 17.37396066, 48.22660775 ], [ 17.37392019, 48.22663203 ], [ 17.37390818, 48.2266392 ], [ 17.37283892, 48.22728134 ], [ 17.37205149, 48.2277544 ], [ 17.37201783, 48.22777461 ], [ 17.37189104, 48.22785081 ], [ 17.37162545, 48.22804633 ], [ 17.37066173, 48.22875599 ], [ 17.37064219, 48.22877025 ], [ 17.37054682, 48.22884055 ], [ 17.37052651, 48.22885549 ], [ 17.37049254, 48.22888056 ], [ 17.37029879, 48.22902322 ], [ 17.3688376, 48.23009918 ], [ 17.36857442, 48.23029287 ], [ 17.36686412, 48.23155168 ], [ 17.36679119, 48.23160537 ], [ 17.36660168, 48.23174487 ], [ 17.36648692, 48.23182926 ], [ 17.36595604, 48.23221208 ] ] ] } }
]
}
