{
"type": "FeatureCollection",
"name": "gis",
"crs": { "type": "name", "properties": { "name": "urn:ogc:def:crs:OGC:1.3:CRS84" } },
"features": [
{ "type": "Feature", "properties": { "@featureType": "CadastralZoning", "beginLifespanVersion": { "@nilReason": "http://inspire.ec.europa.eu/codelist/VoidReasonValue/Unpopulated", "@nil": "true" }, "endLifespanVersion": { "@nilReason": "http://inspire.ec.europa.eu/codelist/VoidReasonValue/Unpopulated", "@nil": "true" }, "estimatedAccuracy": { "value": -1, "@uom": "m" }, "inspireId": { "@dataType": "Identifier", "localId": "872563", "namespace": "SK.ESKN.CP", "versionId": "20260703T04:07:40" }, "label": "Závadka nad Hronom", "level": { "@href": "http://inspire.ec.europa.eu/codelist/CadastralZoningLevelValue/3rdOrder" }, "levelName": { "value": "Katastrálne územie", "@locale": "sk" }, "name_1": { "@dataType": "name", "GeographicalName": { "@dataType": "GeographicalName", "language": "SLK", "nativeness": { "@href": "http://inspire.ec.europa.eu/codelist/NativenessValue/endonym", "@title": "endonym" }, "nameStatus": { "@href": "http://inspire.ec.europa.eu/codelist/NameStatusValue/official", "@title": "official" }, "sourceOfName": { "@nilReason": "http://inspire.ec.europa.eu/codelist/VoidReasonValue/Unpopulated", "@nil": "true" }, "pronunciation": { "@dataType": "pronunciation", "@nilReason": "http://inspire.ec.europa.eu/codelist/VoidReasonValue/Unpopulated", "@nil": "true" }, "spelling": { "@dataType": "SpellingOfName", "text": "Závadka nad Hronom", "script": "LATN" } } }, "nationalCadastalZoningReference": "872563", "validFrom": "2026-06-30T16:00:00Z", "validTo": { "@nilReason": "http://inspire.ec.europa.eu/codelist/VoidReasonValue/Unpopulated", "@nil": "true" }, "place_id": 419247262, "osm_type": "relation", "osm_id": 2265935, "place_rank": 22, "category": "place", "type": "cadastral_community", "importance": 0.10672018844892039, "addresstype": "cadastral_community", "name_2": "Závadka nad Hronom", "display_name": "Závadka nad Hronom, okres Brezno, Banskobystrický kraj, 976 67, Slovensko" }, "geometry": { "type": "Polygon", "coordinates": [ [ [ 19.92944376, 48.90561638 ], [ 19.930620789290831, 48.905961361525733 ], [ 19.931221, 48.906137 ], [ 19.933276849639917, 48.906738955974333 ], [ 19.9335711, 48.90580082 ], [ 19.93415128, 48.90395138 ], [ 19.93471756, 48.90214605 ], [ 19.934727325981296, 48.902141389722765 ], [ 19.9347289, 48.9021364 ], [ 19.935907, 48.9015746 ], [ 19.93659118473014, 48.901310796443852 ], [ 19.93662909, 48.90125692 ], [ 19.936634394412852, 48.901255869650427 ], [ 19.9366405, 48.9012472 ], [ 19.9379894, 48.9009798 ], [ 19.938733540882634, 48.900476054159554 ], [ 19.93887187, 48.89997055 ], [ 19.93889466, 48.89993997 ], [ 19.93896738, 48.89982435 ], [ 19.93901679, 48.89965747 ], [ 19.93890458, 48.8989503 ], [ 19.93879961, 48.89878547 ], [ 19.93849814, 48.89860045 ], [ 19.93821918, 48.89824409 ], [ 19.93686429, 48.89684313 ], [ 19.93686825, 48.89679806 ], [ 19.93690138, 48.89641873 ], [ 19.93658643, 48.89625458 ], [ 19.93625831, 48.8956348 ], [ 19.93628797, 48.8951899 ], [ 19.93667017, 48.8944105 ], [ 19.93740278, 48.89343952 ], [ 19.93729618, 48.89280593 ], [ 19.93720548, 48.89279697 ], [ 19.93732772, 48.89235417 ], [ 19.93723046, 48.89206089 ], [ 19.93715925, 48.89170887 ], [ 19.93697735, 48.89138931 ], [ 19.93683149692097, 48.890960916302987 ], [ 19.936736862823551, 48.890709294446296 ], [ 19.93642851, 48.88992953 ], [ 19.93559647, 48.88900552 ], [ 19.935578793325366, 48.888855180897579 ], [ 19.935513219482182, 48.88854401094099 ], [ 19.93547338, 48.88841953 ], [ 19.93579755, 48.88681025 ], [ 19.93613826, 48.88589321 ], [ 19.93643827, 48.88529697 ], [ 19.93688894, 48.88469547 ], [ 19.93718673, 48.8839262 ], [ 19.93722909, 48.88370369 ], [ 19.937540694368096, 48.882989716694915 ], [ 19.937705560412823, 48.882552787361064 ], [ 19.93775379, 48.88240377 ], [ 19.93795002, 48.88204303 ], [ 19.93828375, 48.88171279 ], [ 19.938291007612332, 48.881707938522105 ], [ 19.9382955, 48.8817035 ], [ 19.938315265576001, 48.881691722862037 ], [ 19.93859657, 48.88150368 ], [ 19.93884456, 48.88135716 ], [ 19.93887447, 48.88135158 ], [ 19.938923798949254, 48.88132913380872 ], [ 19.938949717554095, 48.881313690444713 ], [ 19.938959455202706, 48.881293087659223 ], [ 19.938962977792141, 48.881144208407697 ], [ 19.93895279, 48.88109355 ], [ 19.93908357, 48.88095669 ], [ 19.93861985, 48.88050304 ], [ 19.93815046, 48.88017837 ], [ 19.93823711, 48.8800063 ], [ 19.93800023, 48.8798341 ], [ 19.93806808, 48.87961212 ], [ 19.93799262, 48.87939005 ], [ 19.93806555, 48.87924102 ], [ 19.93825499, 48.87900507 ], [ 19.93830485, 48.87871782 ], [ 19.93841466, 48.8779098 ], [ 19.93870169, 48.87754794 ], [ 19.93914938, 48.87711851 ], [ 19.93966591, 48.8764384 ], [ 19.93967369, 48.87640187 ], [ 19.93971968, 48.87626999 ], [ 19.93995839, 48.87593006 ], [ 19.94016738, 48.87572188 ], [ 19.94016924, 48.87571962 ], [ 19.940211304704469, 48.875631762156907 ], [ 19.940552020052426, 48.874757756727064 ], [ 19.94059186, 48.87463544 ], [ 19.94064416, 48.87417626 ], [ 19.94070196, 48.87393097 ], [ 19.94074629, 48.8736908 ], [ 19.94078452, 48.87344865 ], [ 19.94078719, 48.87313219 ], [ 19.94078495, 48.87282562 ], [ 19.94047278, 48.87251155 ], [ 19.94034296, 48.87210759 ], [ 19.94035208975453, 48.871797636054204 ], [ 19.940348550739706, 48.871405945758084 ], [ 19.94033428, 48.87111083 ], [ 19.94057275, 48.87076602 ], [ 19.94084125, 48.87045951 ], [ 19.94077426, 48.87016697 ], [ 19.94079412, 48.86988043 ], [ 19.94057988, 48.86972171 ], [ 19.94031893, 48.8696897 ], [ 19.93999573, 48.86950097 ], [ 19.93953373, 48.86932224 ], [ 19.93955968, 48.8691532 ], [ 19.93916571, 48.8689111 ], [ 19.93884969, 48.86863004 ], [ 19.93833935, 48.86780764 ], [ 19.93780926, 48.86746076 ], [ 19.93754061, 48.86716339 ], [ 19.93730302, 48.86663871 ], [ 19.93694371, 48.86612547 ], [ 19.93674036, 48.8658661 ], [ 19.93635853, 48.86579906 ], [ 19.93599146, 48.86562928 ], [ 19.93602146, 48.8649372 ], [ 19.93574825, 48.86472353 ], [ 19.93525474, 48.8647125 ], [ 19.93470098, 48.86419915 ], [ 19.93487033, 48.86382773 ], [ 19.93451721, 48.86371702 ], [ 19.93420375, 48.86358753 ], [ 19.93415192, 48.86357831 ], [ 19.93362806, 48.86304846 ], [ 19.933600535596803, 48.862901555474515 ], [ 19.933495941744937, 48.862535159692264 ], [ 19.93344665, 48.86241422 ], [ 19.93351454, 48.86211719 ], [ 19.9334121, 48.8620159 ], [ 19.93331552, 48.86180085 ], [ 19.9331704, 48.86162999 ], [ 19.93299571, 48.86144427 ], [ 19.93282646, 48.86124481 ], [ 19.93264564, 48.86103648 ], [ 19.932549865252295, 48.86071190282302 ], [ 19.93253148539463, 48.860658166003198 ], [ 19.93240353, 48.86032704 ], [ 19.932416000192266, 48.860320524241992 ], [ 19.932415, 48.8603176 ], [ 19.932444675015009, 48.860301981571048 ], [ 19.93213019, 48.86019815 ], [ 19.93205598, 48.85972326 ], [ 19.931805719576801, 48.859397244558316 ], [ 19.931640754683052, 48.859197838531067 ], [ 19.9314479, 48.85898825 ], [ 19.93137994, 48.85883443 ], [ 19.931395737797413, 48.858834006307553 ], [ 19.9313916, 48.8588246 ], [ 19.931749143090379, 48.858814845312772 ], [ 19.93168643, 48.8582365 ], [ 19.93168842, 48.85775889 ], [ 19.93177907, 48.8572824 ], [ 19.931788971802039, 48.857280962849259 ], [ 19.9317906, 48.8572724 ], [ 19.931908136120846, 48.857256237660998 ], [ 19.93189414, 48.85719724 ], [ 19.93190578615129, 48.857188303623865 ], [ 19.9319055, 48.8571871 ], [ 19.932014035798201, 48.85708876160114 ], [ 19.93201593, 48.85708641 ], [ 19.93202289, 48.85701047 ], [ 19.93207342, 48.85696413 ], [ 19.932089419418883, 48.856953748792286 ], [ 19.932252494681002, 48.856812075404065 ], [ 19.93225551, 48.8568089 ], [ 19.93224731, 48.8566795 ], [ 19.932259566211801, 48.85667678241164 ], [ 19.9322591, 48.8566693 ], [ 19.932391550209967, 48.856640300375076 ], [ 19.93241535, 48.85652701 ], [ 19.932460639233835, 48.856477063673211 ], [ 19.932483121924161, 48.856415739539557 ], [ 19.93249608, 48.85635795 ], [ 19.932506697909499, 48.856351433317535 ], [ 19.9325077, 48.8563487 ], [ 19.932569487195313, 48.856310618912282 ], [ 19.93255982, 48.85621772 ], [ 19.932572099454529, 48.856215087563818 ], [ 19.9325714, 48.8562083 ], [ 19.932775762128706, 48.856164154039014 ], [ 19.93272183, 48.85601613 ], [ 19.932733701850097, 48.856006107665316 ], [ 19.932760928675311, 48.855952679181406 ], [ 19.93275874, 48.85591442 ], [ 19.93282052, 48.85576618 ], [ 19.932831, 48.85574544 ], [ 19.93292619, 48.85561457 ], [ 19.93290685, 48.85550705 ], [ 19.932918954914971, 48.855500473375237 ], [ 19.9329184, 48.8554974 ], [ 19.933035451756748, 48.85543367789878 ], [ 19.93303548, 48.85537641 ], [ 19.9330807, 48.85531993 ], [ 19.93311663, 48.85523683 ], [ 19.933124252158734, 48.855236489448636 ], [ 19.9331281, 48.855227 ], [ 19.933372850271546, 48.855199189604463 ], [ 19.93333869, 48.85512835 ], [ 19.93335542, 48.85504741 ], [ 19.9333979, 48.85498261 ], [ 19.93345595, 48.85489387 ], [ 19.933462862565214, 48.854891416708007 ], [ 19.9334676, 48.8548842 ], [ 19.933771954690805, 48.854692234268683 ], [ 19.93373762, 48.85446953 ], [ 19.93373701, 48.85446599 ], [ 19.93373678, 48.85446417 ], [ 19.93373638, 48.85446127 ], [ 19.93373358, 48.85444367 ], [ 19.93373721, 48.85432605 ], [ 19.93373785, 48.85430958 ], [ 19.93373834, 48.85429185 ], [ 19.93374903, 48.85428167 ], [ 19.93376273, 48.85426855 ], [ 19.93376131, 48.85426768 ], [ 19.9336983, 48.85423023 ], [ 19.93356594, 48.854194 ], [ 19.93345718, 48.85412848 ], [ 19.93344751, 48.85410852 ], [ 19.93343785, 48.85408846 ], [ 19.93343318, 48.8540789 ], [ 19.93341370396606, 48.854038175457674 ], [ 19.933392727963621, 48.854007781006651 ], [ 19.93334447, 48.85395736 ], [ 19.93334162, 48.85395436 ], [ 19.93332575, 48.85393783 ], [ 19.93304558, 48.85385714 ], [ 19.93304195, 48.85375939 ], [ 19.933053775484609, 48.853751301362237 ], [ 19.9330537, 48.8537493 ], [ 19.9331284, 48.8536984 ], [ 19.9332808, 48.8536914 ], [ 19.9335229, 48.8538796 ], [ 19.933715, 48.8538719 ], [ 19.934234857666397, 48.853759093732904 ], [ 19.93426538, 48.85375099 ], [ 19.93444848, 48.8537062 ], [ 19.93448751, 48.85369667 ], [ 19.934589896844752, 48.853682052175245 ], [ 19.9347012, 48.8536579 ], [ 19.935124217408411, 48.853675855064161 ], [ 19.93512792, 48.85363659 ], [ 19.93513125, 48.85360087 ], [ 19.935142565015095, 48.853595375627826 ], [ 19.935143, 48.8535909 ], [ 19.9353097, 48.8535102 ], [ 19.93534904964131, 48.85350696819097 ], [ 19.9354186, 48.85348937 ], [ 19.935517098980959, 48.853493166200536 ], [ 19.9356007, 48.8534863 ], [ 19.935653244704255, 48.853513635593529 ], [ 19.93568017, 48.85352106 ], [ 19.935697988143382, 48.853536912696001 ], [ 19.9357539, 48.853566 ], [ 19.93575960214973, 48.853650592687146 ], [ 19.93576648, 48.85368007 ], [ 19.935764575430408, 48.853724372436325 ], [ 19.9357715, 48.8538271 ], [ 19.935978628890275, 48.853937936933143 ], [ 19.93607005, 48.85397144 ], [ 19.936158324841248, 48.854034094200621 ], [ 19.9362628, 48.85409 ], [ 19.936610338497129, 48.854210832277921 ], [ 19.93664001, 48.85396767 ], [ 19.9365843, 48.85380563 ], [ 19.93660963806936, 48.853731944444974 ], [ 19.936643685330882, 48.853576064090923 ], [ 19.93664457, 48.85355459 ], [ 19.93664595, 48.85352203 ], [ 19.936663993395868, 48.853499172439463 ], [ 19.93681092763488, 48.853202017379985 ], [ 19.93682931, 48.85315075 ], [ 19.93683199, 48.85310058 ], [ 19.93683727, 48.85300393 ], [ 19.9368416, 48.85292265 ], [ 19.93686687, 48.85271699 ], [ 19.93751397, 48.85086299 ], [ 19.93932836, 48.84918481 ], [ 19.93983497, 48.84846041 ], [ 19.93983878, 48.84845489 ], [ 19.9403034, 48.84759724 ], [ 19.94149431, 48.84629939 ], [ 19.94275588, 48.84470551 ], [ 19.94338117, 48.84414759 ], [ 19.9436409, 48.84391587 ], [ 19.944013895324812, 48.843630812722068 ], [ 19.944411344507795, 48.84329139741061 ], [ 19.94441123, 48.84329089 ], [ 19.944413034898893, 48.843289953843367 ], [ 19.9444227, 48.8432817 ], [ 19.9449563, 48.8430044 ], [ 19.947764862253273, 48.842451091231204 ], [ 19.94767019, 48.84134785 ], [ 19.94805204, 48.83980416 ], [ 19.94806993, 48.83975607 ], [ 19.94810889, 48.83964552 ], [ 19.9484322, 48.83833131 ], [ 19.94839871, 48.83775173 ], [ 19.94901115, 48.83633292 ], [ 19.949021422382479, 48.836326223730254 ], [ 19.9490229, 48.8363228 ], [ 19.949952549188971, 48.835717430950197 ], [ 19.950067649688243, 48.835380557182823 ], [ 19.950191203252409, 48.83498938078079 ], [ 19.95035534, 48.83444274 ], [ 19.95111952, 48.83367427 ], [ 19.951127879111162, 48.833667340279092 ], [ 19.9511311, 48.8336641 ], [ 19.9519267, 48.8330049 ], [ 19.952857806764154, 48.832453796210103 ], [ 19.952924926716872, 48.832390834891179 ], [ 19.954679026719131, 48.830697668148417 ], [ 19.95474527, 48.83063207 ], [ 19.954753075936861, 48.830626191224283 ], [ 19.9547569, 48.8306225 ], [ 19.956157909962307, 48.829567303301772 ], [ 19.956302005693452, 48.829231049174105 ], [ 19.956688322761526, 48.828277658285316 ], [ 19.95676978, 48.82805749 ], [ 19.95756976, 48.82689625 ], [ 19.95814598, 48.82566341 ], [ 19.95791149, 48.82432742 ], [ 19.95768933, 48.82371215 ], [ 19.9572633, 48.82304576 ], [ 19.95749481, 48.82206127 ], [ 19.95558971, 48.82184906 ], [ 19.95487335, 48.820839 ], [ 19.95474061, 48.82037517 ], [ 19.95476652, 48.81983693 ], [ 19.95526963, 48.81863752 ], [ 19.95624661, 48.81723196 ], [ 19.95693337, 48.81654663 ], [ 19.956937658354537, 48.81654479023215 ], [ 19.956961, 48.8165215 ], [ 19.959513589453874, 48.814830792833256 ], [ 19.95983538, 48.8135518 ], [ 19.95966305, 48.8128997 ], [ 19.95921841, 48.8117651 ], [ 19.95947316, 48.81107474 ], [ 19.959483955181572, 48.811067219057897 ], [ 19.9594847, 48.8110652 ], [ 19.96010549478866, 48.810632841413259 ], [ 19.9603658, 48.81032578 ], [ 19.96063442, 48.81000204 ], [ 19.960642153344409, 48.809996909997452 ], [ 19.9606461, 48.8099922 ], [ 19.961528702006099, 48.809389683890018 ], [ 19.96203147, 48.80865827 ], [ 19.96277472722829, 48.808025018019386 ], [ 19.962798646250533, 48.808004632276436 ], [ 19.96344141, 48.80733575 ], [ 19.96466097, 48.80581481 ], [ 19.96563537, 48.80438394 ], [ 19.96583744, 48.80361745 ], [ 19.96636287, 48.80296647 ], [ 19.966368311318583, 48.802964669144103 ], [ 19.9663741, 48.8029575 ], [ 19.9671441, 48.8027026 ], [ 19.9674429, 48.8026531 ], [ 19.967627455081079, 48.802573032086599 ], [ 19.96786188, 48.80246562 ], [ 19.968383456519508, 48.802245046222687 ], [ 19.9687708, 48.802077 ], [ 19.9702544, 48.8017947 ], [ 19.97224, 48.8013373 ], [ 19.9734528, 48.8005828 ], [ 19.975971700019286, 48.800022402975237 ], [ 19.97597966, 48.79950932 ], [ 19.97586121, 48.79938639 ], [ 19.97570593, 48.79932302 ], [ 19.97571777, 48.79922394 ], [ 19.9757307, 48.79909941 ], [ 19.97554093, 48.79854905 ], [ 19.97537493, 48.79835745 ], [ 19.975390919216043, 48.798352990920527 ], [ 19.9753866, 48.798348 ], [ 19.975580987246389, 48.798293920230876 ], [ 19.97542971, 48.79773364 ], [ 19.97517348, 48.79705894 ], [ 19.97472598, 48.79662167 ], [ 19.974743408844155, 48.796617874658267 ], [ 19.9747374, 48.796612 ], [ 19.9751176, 48.79653 ], [ 19.975251, 48.7969558 ], [ 19.976948986618396, 48.79794583678774 ], [ 19.97698712, 48.79679411 ], [ 19.97698352, 48.79675918 ], [ 19.9766651, 48.7951346 ], [ 19.97666151, 48.79508687 ], [ 19.97658677, 48.79462686 ], [ 19.97662128, 48.7940605 ], [ 19.97679081, 48.79350846 ], [ 19.97667938, 48.79283848 ], [ 19.97652228, 48.79252452 ], [ 19.97647014, 48.79227091 ], [ 19.97644987, 48.79221924 ], [ 19.976463986607612, 48.792217447402059 ], [ 19.9764613, 48.7922102 ], [ 19.9769847, 48.7921432 ], [ 19.977237131239868, 48.792026383913083 ], [ 19.97677117, 48.79195273 ], [ 19.9767032, 48.79192771 ], [ 19.97698298, 48.7896403 ], [ 19.97714494, 48.78881751 ], [ 19.977052908333082, 48.78536397270328 ], [ 19.975881, 48.785015 ], [ 19.974316, 48.785499 ], [ 19.973091, 48.785454 ], [ 19.971296, 48.781023 ], [ 19.966652, 48.782048 ], [ 19.965833367132763, 48.782228099230792 ], [ 19.96570266, 48.78225692 ], [ 19.965702414002703, 48.782256908919408 ], [ 19.965702, 48.782257 ], [ 19.965679861359973, 48.782255893067997 ], [ 19.96564183, 48.78225418 ], [ 19.964461695662774, 48.782204712566134 ], [ 19.964277, 48.782197 ], [ 19.964343979280368, 48.781718148129904 ], [ 19.961446973957539, 48.781993538936128 ], [ 19.958351, 48.782288 ], [ 19.952813422438386, 48.781888616674166 ], [ 19.95011487, 48.78169407 ], [ 19.94860279, 48.78161324 ], [ 19.94372220986406, 48.781471203344672 ], [ 19.942717, 48.781442 ], [ 19.942335269841468, 48.782005570884166 ], [ 19.94187131, 48.78269119 ], [ 19.941404175467692, 48.783173534973294 ], [ 19.940623314813099, 48.783980674592229 ], [ 19.94084941, 48.78420133 ], [ 19.93911341, 48.78676628 ], [ 19.93891403, 48.78683535 ], [ 19.93879902, 48.78687519 ], [ 19.93871464, 48.78690442 ], [ 19.93860871, 48.78691391 ], [ 19.93853331, 48.78692073 ], [ 19.93747855, 48.78701536 ], [ 19.93192569, 48.78920201 ], [ 19.93185961, 48.78922805 ], [ 19.92645402, 48.79135635 ], [ 19.923876, 48.79237118 ], [ 19.92307261, 48.79253429 ], [ 19.91939371, 48.79328127 ], [ 19.91909887, 48.79334113 ], [ 19.91550989, 48.79406964 ], [ 19.912390875395204, 48.796107122516339 ], [ 19.912599, 48.796374 ], [ 19.911517, 48.7986789 ], [ 19.9116555, 48.7999859 ], [ 19.9164193, 48.8023509 ], [ 19.9162419, 48.8030249 ], [ 19.916262, 48.8036038 ], [ 19.9167373, 48.8042243 ], [ 19.9168974, 48.8049296 ], [ 19.9174303, 48.8059896 ], [ 19.9175613, 48.8101497 ], [ 19.916245, 48.8115233 ], [ 19.916239396237, 48.811526662558627 ], [ 19.91623337, 48.81153295 ], [ 19.914748739279979, 48.812423274230689 ], [ 19.8998362, 48.8266309 ], [ 19.899826349047771, 48.826629796687278 ], [ 19.89982468, 48.82664104 ], [ 19.89864024, 48.82650823 ], [ 19.89850118, 48.82649267 ], [ 19.89744122, 48.8263738 ], [ 19.89722615, 48.82634968 ], [ 19.896791429234469, 48.826702105262036 ], [ 19.8973249, 48.8275208 ], [ 19.8970839259343, 48.828140769115599 ], [ 19.89700342, 48.8284331 ], [ 19.896929977863827, 48.82853684098675 ], [ 19.8968645, 48.8287053 ], [ 19.8972598, 48.8288461 ], [ 19.8968518, 48.8294495 ], [ 19.8964897, 48.8298035 ], [ 19.896001, 48.830747 ], [ 19.8963115, 48.8313888 ], [ 19.8967005, 48.8325408 ], [ 19.896688133606016, 48.832548759614198 ], [ 19.89668861, 48.83255017 ], [ 19.896466169050516, 48.83269423359522 ], [ 19.8965346, 48.8333132 ], [ 19.8961845, 48.8336351 ], [ 19.8961877, 48.8353938 ], [ 19.8959893, 48.8366773 ], [ 19.8963793, 48.8373518 ], [ 19.8972986, 48.8382853 ], [ 19.8979171, 48.8398562 ], [ 19.8981099, 48.8414842 ], [ 19.8980993, 48.8421192 ], [ 19.8978808, 48.8428173 ], [ 19.8978672, 48.844014 ], [ 19.8972293, 48.844745 ], [ 19.897348, 48.8452975 ], [ 19.8972842, 48.8455179 ], [ 19.8976021, 48.8462761 ], [ 19.8976535, 48.8466466 ], [ 19.8971692, 48.8482493 ], [ 19.8969728, 48.8506605 ], [ 19.8970348, 48.8507577 ], [ 19.897014429843029, 48.85075385851809 ], [ 19.89702293, 48.85076727 ], [ 19.896895045835041, 48.850743283609297 ], [ 19.8968921, 48.8507687 ], [ 19.896965335720537, 48.850894363314204 ], [ 19.89696986, 48.85089523 ], [ 19.896971597148013, 48.850905107138701 ], [ 19.896991, 48.8509384 ], [ 19.8969929, 48.8527442 ], [ 19.8966469, 48.8533602 ], [ 19.896526431824061, 48.85352083566854 ], [ 19.89603855, 48.85419607 ], [ 19.89560154, 48.85480351 ], [ 19.895267511060208, 48.855199516174558 ], [ 19.8952421, 48.8552334 ], [ 19.895234186789661, 48.855239023580438 ], [ 19.89523047, 48.85524343 ], [ 19.89473961, 48.85560679 ], [ 19.894276505385562, 48.855921167707628 ], [ 19.8939782, 48.8566013 ], [ 19.8938458, 48.8571464 ], [ 19.8939117, 48.8580122 ], [ 19.8950471, 48.8591792 ], [ 19.8952143, 48.8594453 ], [ 19.8960028, 48.8598868 ], [ 19.89654799852012, 48.860150330400131 ], [ 19.89669175, 48.86021592 ], [ 19.896801244507486, 48.860272740887176 ], [ 19.8972292, 48.8604796 ], [ 19.897515761717163, 48.860677320975114 ], [ 19.89768497, 48.86078431 ], [ 19.897853771328098, 48.860910539810256 ], [ 19.898183, 48.8611377 ], [ 19.8986375, 48.861978 ], [ 19.8988306, 48.8628976 ], [ 19.8989087, 48.8630103 ], [ 19.8988612, 48.8632032 ], [ 19.8989931, 48.8635962 ], [ 19.8989857, 48.8638551 ], [ 19.8996698, 48.8651312 ], [ 19.9000394, 48.8653441 ], [ 19.9001747, 48.8656324 ], [ 19.900143447797607, 48.865756433612376 ], [ 19.9000822, 48.8661148 ], [ 19.899935901801506, 48.866580141308347 ], [ 19.8999023, 48.8667135 ], [ 19.9000287, 48.8671999 ], [ 19.9000177, 48.8680004 ], [ 19.9002027, 48.8687653 ], [ 19.9001581, 48.8692579 ], [ 19.9013424, 48.869288 ], [ 19.901586602492959, 48.869317620875904 ], [ 19.90174216, 48.86932962 ], [ 19.902073242495387, 48.869376648541618 ], [ 19.9026013, 48.8694407 ], [ 19.9029648, 48.8695182 ], [ 19.903994734780415, 48.869902328671266 ], [ 19.90400317, 48.8699051 ], [ 19.904020761105446, 48.869912035555473 ], [ 19.9046655, 48.8701525 ], [ 19.9052229, 48.8715753 ], [ 19.9060026, 48.8717255 ], [ 19.9062434, 48.8719272 ], [ 19.9086307, 48.8728859 ], [ 19.9086759, 48.873592 ], [ 19.9086091, 48.8739505 ], [ 19.9081811, 48.8749294 ], [ 19.9082524, 48.8755813 ], [ 19.9084937, 48.8759723 ], [ 19.9081174, 48.8763234 ], [ 19.9077862, 48.8771712 ], [ 19.9082245, 48.8773926 ], [ 19.9083581, 48.8774096 ], [ 19.9083451, 48.8776488 ], [ 19.9088789, 48.8783069 ], [ 19.90928599344949, 48.878291160402391 ], [ 19.90945716, 48.87828069 ], [ 19.90947631, 48.87828187 ], [ 19.909495102760772, 48.878283075535343 ], [ 19.9096031, 48.8782789 ], [ 19.909753715486307, 48.878337807554551 ], [ 19.90982348, 48.87835329 ], [ 19.909871147380265, 48.878383736601215 ], [ 19.91027099982853, 48.878540123772858 ], [ 19.91031201, 48.87854984 ], [ 19.910340118758768, 48.878567157029885 ], [ 19.9104177, 48.8785975 ], [ 19.9104629, 48.8786806 ], [ 19.9112988, 48.8793501 ], [ 19.911390995475564, 48.879469139636505 ], [ 19.91142474, 48.87950482 ], [ 19.91143752338095, 48.87952921487242 ], [ 19.9114901, 48.8795971 ], [ 19.911558664221701, 48.87964991571878 ], [ 19.91163168, 48.87968888 ], [ 19.911816870481601, 48.879848814632432 ], [ 19.9120317, 48.8800143 ], [ 19.912338002648593, 48.880555333782546 ], [ 19.91247365, 48.88078122 ], [ 19.912484147526015, 48.88081347492561 ], [ 19.912508592588583, 48.880856653150566 ], [ 19.91264758, 48.88107409 ], [ 19.912647687084895, 48.881102340942753 ], [ 19.9126591, 48.8811225 ], [ 19.9132332, 48.8816954 ], [ 19.9132103, 48.8822159 ], [ 19.9133238, 48.88241 ], [ 19.913208642410577, 48.882640785800874 ], [ 19.91320676, 48.88265683 ], [ 19.913187645755798, 48.882682864918834 ], [ 19.913171914536431, 48.882714391647362 ], [ 19.91310776, 48.88291262 ], [ 19.91306094, 48.88294992 ], [ 19.913028150137368, 48.883002507976826 ], [ 19.9130057, 48.8830475 ], [ 19.912989279528723, 48.883261947785208 ], [ 19.9129961, 48.883287 ], [ 19.91298265279584, 48.883348491476056 ], [ 19.912971095301693, 48.883499429837144 ], [ 19.91297892, 48.88353184 ], [ 19.912965638326433, 48.883570696747746 ], [ 19.9129505, 48.8837684 ], [ 19.9127681, 48.8841886 ], [ 19.9128584, 48.8842793 ], [ 19.9127839, 48.8844891 ], [ 19.912774418504242, 48.884493030011292 ], [ 19.91277245, 48.88449859 ], [ 19.912648116443258, 48.88455044975376 ], [ 19.9127234, 48.8846914 ], [ 19.9126204, 48.8852222 ], [ 19.912707, 48.8853148 ], [ 19.9128163, 48.8856473 ], [ 19.9128012, 48.8857987 ], [ 19.9131445, 48.8867483 ], [ 19.9133773, 48.8870114 ], [ 19.9133475, 48.887097 ], [ 19.9135595, 48.8874631 ], [ 19.913665727554726, 48.887862844303442 ], [ 19.91366708, 48.8878659 ], [ 19.913667254200089, 48.887868589213873 ], [ 19.9136836, 48.8879301 ], [ 19.9138891, 48.8883219 ], [ 19.9139096, 48.8886146 ], [ 19.9140235, 48.8887388 ], [ 19.9140507, 48.8888672 ], [ 19.9141289, 48.8895666 ], [ 19.914165186203515, 48.889622334281803 ], [ 19.91421915, 48.88967397 ], [ 19.914212082751956, 48.889694365665441 ], [ 19.9145446, 48.8902051 ], [ 19.9147017, 48.8907117 ], [ 19.9150483, 48.8909823 ], [ 19.915011, 48.89109 ], [ 19.915169508061343, 48.891222258519896 ], [ 19.91518601, 48.89123415 ], [ 19.915190196066884, 48.891239520512563 ], [ 19.9155128, 48.8915087 ], [ 19.915567033518077, 48.891704079725379 ], [ 19.9156099, 48.89182481 ], [ 19.915610001841145, 48.891858875863626 ], [ 19.915622, 48.8919021 ], [ 19.915723344604213, 48.892060406383017 ], [ 19.91586411, 48.89224525 ], [ 19.915943492845717, 48.892404291211513 ], [ 19.91602, 48.8925238 ], [ 19.916028232941315, 48.892606153843268 ], [ 19.91606704, 48.89274597 ], [ 19.916050497278079, 48.892828863277153 ], [ 19.9160537, 48.8928609 ], [ 19.9161631, 48.8929354 ], [ 19.9161267, 48.8931545 ], [ 19.9162292, 48.8932379 ], [ 19.9163215, 48.8936202 ], [ 19.916337839273865, 48.89365392593708 ], [ 19.91635008, 48.89366427 ], [ 19.916352955351794, 48.893685127072295 ], [ 19.9165087, 48.8940066 ], [ 19.9164856, 48.8942839 ], [ 19.9165761, 48.8943654 ], [ 19.916572470280965, 48.894477389795497 ], [ 19.91657845, 48.89455051 ], [ 19.916567613000609, 48.894627254241975 ], [ 19.916558941320453, 48.894894806545032 ], [ 19.9165828, 48.89495459 ], [ 19.916550593834014, 48.895152356314142 ], [ 19.9165481, 48.8952293 ], [ 19.9166505, 48.8954501 ], [ 19.9167556, 48.8959321 ], [ 19.9167106, 48.8961004 ], [ 19.916873, 48.8965567 ], [ 19.9170449, 48.8973795 ], [ 19.917127, 48.8980397 ], [ 19.9170794, 48.8984724 ], [ 19.9174671, 48.8995275 ], [ 19.9174318, 48.9000035 ], [ 19.91713, 48.9012377 ], [ 19.9171755, 48.9012848 ], [ 19.9170476, 48.9015317 ], [ 19.9173693, 48.9075324 ], [ 19.916973530862084, 48.908324886680191 ], [ 19.916952372016393, 48.908368003428727 ], [ 19.918471, 48.908382 ], [ 19.918790411389853, 48.90838022302426 ], [ 19.91918964, 48.90837739 ], [ 19.9210999, 48.90877979 ], [ 19.92150444300502, 48.908864995939098 ], [ 19.922530661260357, 48.909080928723746 ], [ 19.922599322816414, 48.90881132582463 ], [ 19.922701, 48.90841 ], [ 19.923868, 48.907223 ], [ 19.924708, 48.906329 ], [ 19.925835, 48.906112 ], [ 19.928436, 48.90522 ], [ 19.928935675107368, 48.905416796644467 ], [ 19.92944376, 48.90561638 ] ] ] } }
]
}
