{
"type": "FeatureCollection",
"name": "gis",
"crs": { "type": "name", "properties": { "name": "urn:ogc:def:crs:OGC:1.3:CRS84" } },
"features": [
{ "type": "Feature", "properties": { "@featureType": "CadastralParcel", "areaValue": { "value": 10735, "@uom": "m2" }, "beginLifespanVersion": { "@nilReason": "http://inspire.ec.europa.eu/codelist/VoidReasonValue/Unpopulated", "@nil": "true" }, "endLifespanVersion": { "@nilReason": "http://inspire.ec.europa.eu/codelist/VoidReasonValue/Unpopulated", "@nil": "true" }, "inspireId": { "@dataType": "Identifier", "localId": "845884_325/1.C", "namespace": "SK.ESKN.CP", "versionId": "20260703T04:07:23" }, "label": "325/1", "nationalCadastralReference": "845884_325/1.C", "referencePoint": { "type": "Point", "coordinates": [ 20.9368483, 48.58606006 ] }, "validFrom": "2026-06-30T16:00:00Z", "validTo": { "@nilReason": "http://inspire.ec.europa.eu/codelist/VoidReasonValue/Unpopulated", "@nil": "true" }, "administrativeUnit": { "@href": "#auAdmUnitS.448" } }, "geometry": { "type": "Polygon", "coordinates": [ [ [ 20.93738881, 48.58510867 ], [ 20.93733746, 48.58522067 ], [ 20.93710497, 48.58529657 ], [ 20.93689565, 48.58551283 ], [ 20.93653851, 48.58565656 ], [ 20.93637178, 48.58586616 ], [ 20.93626964, 48.58592007 ], [ 20.93611786, 48.58628326 ], [ 20.9371209, 48.58636323 ], [ 20.93822123, 48.58675707 ], [ 20.93851415, 48.58684737 ], [ 20.93864104, 48.58670956 ], [ 20.93845566, 48.58668259 ], [ 20.93816062, 48.5865969 ], [ 20.9379029, 48.5865221 ], [ 20.9376931, 48.58646126 ], [ 20.93753859, 48.58638049 ], [ 20.93746461, 48.58620005 ], [ 20.93752811, 48.58577363 ], [ 20.93757533, 48.5854623 ], [ 20.93754925, 48.58533156 ], [ 20.93754467, 48.58529214 ], [ 20.93748739, 48.58515063 ], [ 20.93738881, 48.58510867 ] ] ] } },
{ "type": "Feature", "properties": { "@featureType": "CadastralParcel", "areaValue": { "value": 179002, "@uom": "m2" }, "beginLifespanVersion": { "@nilReason": "http://inspire.ec.europa.eu/codelist/VoidReasonValue/Unpopulated", "@nil": "true" }, "endLifespanVersion": { "@nilReason": "http://inspire.ec.europa.eu/codelist/VoidReasonValue/Unpopulated", "@nil": "true" }, "inspireId": { "@dataType": "Identifier", "localId": "845884_324.C", "namespace": "SK.ESKN.CP", "versionId": "20260703T04:07:23" }, "label": "324", "nationalCadastralReference": "845884_324.C", "referencePoint": { "type": "Point", "coordinates": [ 20.94144603, 48.58435562 ] }, "validFrom": "2026-06-30T16:00:00Z", "validTo": { "@nilReason": "http://inspire.ec.europa.eu/codelist/VoidReasonValue/Unpopulated", "@nil": "true" }, "administrativeUnit": { "@href": "#auAdmUnitS.448" } }, "geometry": { "type": "Polygon", "coordinates": [ [ [ 20.9374056, 48.58507196 ], [ 20.93752282, 48.58512931 ], [ 20.93757781, 48.58524581 ], [ 20.93760725, 48.58536468 ], [ 20.93762562, 48.58545958 ], [ 20.93757531, 48.58574227 ], [ 20.93755171, 48.58591374 ], [ 20.93750902, 48.58619434 ], [ 20.93757668, 48.586367 ], [ 20.93772637, 48.58643816 ], [ 20.93833672, 48.5866104 ], [ 20.93845726, 48.58664572 ], [ 20.93859936, 48.58667249 ], [ 20.93878442, 48.58670188 ], [ 20.93889156, 48.58672071 ], [ 20.93900862, 48.58674654 ], [ 20.93935019, 48.58685379 ], [ 20.93962761, 48.58693907 ], [ 20.93967549, 48.5869342 ], [ 20.93996429, 48.5868692 ], [ 20.94009074, 48.58670165 ], [ 20.94021593, 48.58659655 ], [ 20.94044563, 48.58649866 ], [ 20.94053509, 48.58646485 ], [ 20.94097083, 48.58633682 ], [ 20.9412753, 48.58626036 ], [ 20.94175382, 48.58614962 ], [ 20.94221034, 48.58603912 ], [ 20.94277607, 48.58585477 ], [ 20.9433618, 48.58566622 ], [ 20.94423097, 48.58542032 ], [ 20.94438113, 48.585379 ], [ 20.94481843, 48.58527109 ], [ 20.94524226, 48.58516533 ], [ 20.9447258, 48.5843072 ], [ 20.94411477, 48.58330154 ], [ 20.94386207, 48.58288815 ], [ 20.94264367, 48.58276774 ], [ 20.94211491, 48.58270903 ], [ 20.9420143, 48.58268475 ], [ 20.94128816, 48.58262127 ], [ 20.94136576, 48.5816986 ], [ 20.94129214, 48.58173835 ], [ 20.94120953, 48.58179617 ], [ 20.94118324, 48.58204194 ], [ 20.94122202, 48.58220894 ], [ 20.94104407, 48.58226417 ], [ 20.94073103, 48.58278942 ], [ 20.94003382, 48.58317384 ], [ 20.93870519, 48.58370354 ], [ 20.93866012, 48.58374254 ], [ 20.93880569, 48.5838267 ], [ 20.93873343, 48.5839017 ], [ 20.93842445, 48.5839309 ], [ 20.93842179, 48.58410731 ], [ 20.93817755, 48.58426566 ], [ 20.93811537, 48.58440404 ], [ 20.93761381, 48.58478514 ], [ 20.93746299, 48.58494665 ], [ 20.9374056, 48.58507196 ] ] ] } },
{ "type": "Feature", "properties": { "@featureType": "CadastralParcel", "areaValue": { "value": 155020, "@uom": "m2" }, "beginLifespanVersion": { "@nilReason": "http://inspire.ec.europa.eu/codelist/VoidReasonValue/Unpopulated", "@nil": "true" }, "endLifespanVersion": { "@nilReason": "http://inspire.ec.europa.eu/codelist/VoidReasonValue/Unpopulated", "@nil": "true" }, "inspireId": { "@dataType": "Identifier", "localId": "845884_326/1.C", "namespace": "SK.ESKN.CP", "versionId": "20260703T04:07:23" }, "label": "326/1", "nationalCadastralReference": "845884_326/1.C", "referencePoint": { "type": "Point", "coordinates": [ 20.94311445, 48.58738212 ] }, "validFrom": "2026-06-30T16:00:00Z", "validTo": { "@nilReason": "http://inspire.ec.europa.eu/codelist/VoidReasonValue/Unpopulated", "@nil": "true" }, "administrativeUnit": { "@href": "#auAdmUnitS.448" } }, "geometry": { "type": "Polygon", "coordinates": [ [ [ 20.93851415, 48.58684737 ], [ 20.93973029, 48.58723754 ], [ 20.93957267, 48.58752669 ], [ 20.94046121, 48.5876894 ], [ 20.94130233, 48.58792921 ], [ 20.94194807, 48.58821574 ], [ 20.9424967, 48.58838976 ], [ 20.94264084, 48.58842721 ], [ 20.94293097, 48.58853452 ], [ 20.9435692, 48.5887971 ], [ 20.943905, 48.58889307 ], [ 20.94468744, 48.58908774 ], [ 20.94494467, 48.58911252 ], [ 20.94523237, 48.58915418 ], [ 20.94561861, 48.58925806 ], [ 20.94617767, 48.58934218 ], [ 20.94655214, 48.58938703 ], [ 20.94721193, 48.58950479 ], [ 20.94791978, 48.58961876 ], [ 20.9453072, 48.58526567 ], [ 20.94528798, 48.58523657 ], [ 20.94526451, 48.58520102 ], [ 20.94439648, 48.58540716 ], [ 20.94352011, 48.58564958 ], [ 20.94298471, 48.58581551 ], [ 20.94223657, 48.58606522 ], [ 20.94155644, 48.58622617 ], [ 20.94103204, 48.58635275 ], [ 20.94052624, 48.58650409 ], [ 20.94023035, 48.58663693 ], [ 20.94013499, 48.58671223 ], [ 20.94000668, 48.5868953 ], [ 20.93963824, 48.58697572 ], [ 20.93894066, 48.5867601 ], [ 20.9388151, 48.58673893 ], [ 20.93864104, 48.58670956 ], [ 20.93851415, 48.58684737 ] ] ] } }
]
}
