{
"type": "FeatureCollection",
"name": "gis",
"crs": { "type": "name", "properties": { "name": "urn:ogc:def:crs:OGC:1.3:CRS84" } },
"features": [
{ "type": "Feature", "properties": { "@featureType": "CadastralZoning", "beginLifespanVersion": { "@nilReason": "http://inspire.ec.europa.eu/codelist/VoidReasonValue/Unpopulated", "@nil": "true" }, "endLifespanVersion": { "@nilReason": "http://inspire.ec.europa.eu/codelist/VoidReasonValue/Unpopulated", "@nil": "true" }, "estimatedAccuracy": { "value": -1, "@uom": "m" }, "inspireId": { "@dataType": "Identifier", "localId": "826120", "namespace": "SK.ESKN.CP", "versionId": "20261005T06:10:45" }, "label": "Konrádovce", "level": { "@href": "http://inspire.ec.europa.eu/codelist/CadastralZoningLevelValue/3rdOrder" }, "levelName": { "value": "Katastrálne územie", "@locale": "sk" }, "name": { "@dataType": "name", "GeographicalName": { "@dataType": "GeographicalName", "language": "SLK", "nativeness": { "@href": "http://inspire.ec.europa.eu/codelist/NativenessValue/endonym", "@title": "endonym" }, "nameStatus": { "@href": "http://inspire.ec.europa.eu/codelist/NameStatusValue/official", "@title": "official" }, "sourceOfName": { "@nilReason": "http://inspire.ec.europa.eu/codelist/VoidReasonValue/Unpopulated", "@nil": "true" }, "pronunciation": { "@dataType": "pronunciation", "@nilReason": "http://inspire.ec.europa.eu/codelist/VoidReasonValue/Unpopulated", "@nil": "true" }, "spelling": { "@dataType": "SpellingOfName", "text": "Konrádovce", "script": "LATN" } } }, "nationalCadastalZoningReference": "826120", "validFrom": "2026-09-30T16:00:00Z", "validTo": { "@nilReason": "http://inspire.ec.europa.eu/codelist/VoidReasonValue/Unpopulated", "@nil": "true" } }, "geometry": { "type": "MultiPolygon", "coordinates": [ [ [ [ 19.91010331, 48.31620197 ], [ 19.91148931, 48.31578091 ], [ 19.91311812, 48.31570146 ], [ 19.91375932, 48.31556341 ], [ 19.91601466, 48.31548664 ], [ 19.91843477, 48.31602919 ], [ 19.91954484, 48.31604107 ], [ 19.92070577, 48.316058 ], [ 19.92151018, 48.31626792 ], [ 19.92233631, 48.31654014 ], [ 19.92197312, 48.31634209 ], [ 19.92193056, 48.31629575 ], [ 19.92191161, 48.31627511 ], [ 19.92124802, 48.31552011 ], [ 19.92074397, 48.31495795 ], [ 19.92069261, 48.3149006 ], [ 19.92043646, 48.31440484 ], [ 19.92013117, 48.3136449 ], [ 19.91988497, 48.31285658 ], [ 19.91979234, 48.31250509 ], [ 19.91923995, 48.31162047 ], [ 19.9191436, 48.31146628 ], [ 19.91842051, 48.31068212 ], [ 19.91839495, 48.31065435 ], [ 19.91832941, 48.31057872 ], [ 19.91770946, 48.3099064 ], [ 19.91700375, 48.3093966 ], [ 19.91674051, 48.3092065 ], [ 19.91598111, 48.30862184 ], [ 19.91560267, 48.30833046 ], [ 19.91529864, 48.30792727 ], [ 19.91527637, 48.30793406 ], [ 19.91447951, 48.30709777 ], [ 19.91429539, 48.30675001 ], [ 19.91421459, 48.30650907 ], [ 19.91421023, 48.30624599 ], [ 19.91412536, 48.30591402 ], [ 19.9140952, 48.30558503 ], [ 19.91428853, 48.30514189 ], [ 19.91432296, 48.30512669 ], [ 19.91430298, 48.30511529 ], [ 19.91440145, 48.30507482 ], [ 19.91503679, 48.30485179 ], [ 19.91521369, 48.30476277 ], [ 19.91530341, 48.30465459 ], [ 19.9152809, 48.30463163 ], [ 19.91532144, 48.30450666 ], [ 19.91537124, 48.30435297 ], [ 19.91522063, 48.30395609 ], [ 19.91519875, 48.30392514 ], [ 19.91515643, 48.30386528 ], [ 19.91502148, 48.30367456 ], [ 19.91492495, 48.30353802 ], [ 19.91481161, 48.30336985 ], [ 19.91464497, 48.30312252 ], [ 19.91457759, 48.30303392 ], [ 19.91420943, 48.30254948 ], [ 19.91394079, 48.30219593 ], [ 19.91380192, 48.30200531 ], [ 19.91346301, 48.30153987 ], [ 19.91384579, 48.3012614 ], [ 19.91403443, 48.30116117 ], [ 19.91423108, 48.30108714 ], [ 19.91450746, 48.30099598 ], [ 19.91477634, 48.30086062 ], [ 19.91508934, 48.30065567 ], [ 19.91534735, 48.30039618 ], [ 19.91561149, 48.30013047 ], [ 19.91582562, 48.29981187 ], [ 19.91605097, 48.29953512 ], [ 19.91682821, 48.29887161 ], [ 19.91686203, 48.29884304 ], [ 19.91731296, 48.29846232 ], [ 19.9178855, 48.29811195 ], [ 19.91798591, 48.29799918 ], [ 19.9179909, 48.29799363 ], [ 19.91873157, 48.2973937 ], [ 19.91920035, 48.29710376 ], [ 19.91936217, 48.29693532 ], [ 19.91984019, 48.29660396 ], [ 19.92032919, 48.29652749 ], [ 19.92167952, 48.29651415 ], [ 19.9220146, 48.29647362 ], [ 19.92265407, 48.29627913 ], [ 19.92292344, 48.2961972 ], [ 19.92349301, 48.29602594 ], [ 19.92370825, 48.29595486 ], [ 19.92397057, 48.29586191 ], [ 19.9240078, 48.29585115 ], [ 19.92411171, 48.29582118 ], [ 19.92426274, 48.29577871 ], [ 19.92453941, 48.29565591 ], [ 19.92485321, 48.29551631 ], [ 19.92515698, 48.29537016 ], [ 19.92530816, 48.29529804 ], [ 19.92587664, 48.29502686 ], [ 19.92596695, 48.29498377 ], [ 19.92656933, 48.29476731 ], [ 19.92671873, 48.29471368 ], [ 19.9271832, 48.29455349 ], [ 19.92746314, 48.29445696 ], [ 19.92773059, 48.29432033 ], [ 19.92786041, 48.29425397 ], [ 19.92831183, 48.29403139 ], [ 19.92839831, 48.29398877 ], [ 19.9286225, 48.29384821 ], [ 19.92877781, 48.29378925 ], [ 19.92893976, 48.29372723 ], [ 19.92917648, 48.2936658 ], [ 19.92940186, 48.29361127 ], [ 19.93017579, 48.29347017 ], [ 19.92969178, 48.2931745 ], [ 19.92926007, 48.29291089 ], [ 19.92915162, 48.29284479 ], [ 19.92909238, 48.29279791 ], [ 19.92906025, 48.29277662 ], [ 19.92899578, 48.29272934 ], [ 19.92894693, 48.29269382 ], [ 19.92889894, 48.2926577 ], [ 19.92885754, 48.2926261 ], [ 19.92882488, 48.29259919 ], [ 19.92878686, 48.29257458 ], [ 19.92875628, 48.29254984 ], [ 19.92872471, 48.29252704 ], [ 19.92868399, 48.29249962 ], [ 19.92866257, 48.29248221 ], [ 19.92864291, 48.29246758 ], [ 19.92855401, 48.29240321 ], [ 19.92845798, 48.29233583 ], [ 19.92842054, 48.29230377 ], [ 19.92839604, 48.2922819 ], [ 19.92832976, 48.29222671 ], [ 19.92829605, 48.2921966 ], [ 19.92823205, 48.29214159 ], [ 19.92816359, 48.29208531 ], [ 19.92808061, 48.29201696 ], [ 19.92803257, 48.29197723 ], [ 19.92799833, 48.29194846 ], [ 19.92794946, 48.29190753 ], [ 19.9278898, 48.29188605 ], [ 19.92731119, 48.29171925 ], [ 19.92725244, 48.29170232 ], [ 19.92719684, 48.29168642 ], [ 19.92718068, 48.29168176 ], [ 19.92662112, 48.29152055 ], [ 19.92658682, 48.2915107 ], [ 19.92651934, 48.29148068 ], [ 19.92581683, 48.29125549 ], [ 19.92506786, 48.29103317 ], [ 19.92502789, 48.29102191 ], [ 19.92429165, 48.29081482 ], [ 19.92395559, 48.29073536 ], [ 19.92360039, 48.29068635 ], [ 19.9232143, 48.29063412 ], [ 19.92299413, 48.2906374 ], [ 19.92226911, 48.29065068 ], [ 19.9221916, 48.29065205 ], [ 19.92208162, 48.29065392 ], [ 19.92193429, 48.29059488 ], [ 19.92180503, 48.29061611 ], [ 19.92138172, 48.29068692 ], [ 19.92118004, 48.29065656 ], [ 19.9210573, 48.29063805 ], [ 19.92097428, 48.29063206 ], [ 19.92078557, 48.29061848 ], [ 19.92064064, 48.2906987 ], [ 19.92060934, 48.29070123 ], [ 19.9205602, 48.29070525 ], [ 19.9203228, 48.29072464 ], [ 19.92025493, 48.29072263 ], [ 19.91993588, 48.29071058 ], [ 19.91970472, 48.29070455 ], [ 19.9196178, 48.29067171 ], [ 19.91886635, 48.29053162 ], [ 19.91812404, 48.29042156 ], [ 19.91751723, 48.29041483 ], [ 19.91743265, 48.29043067 ], [ 19.91725791, 48.29046139 ], [ 19.91671969, 48.29034818 ], [ 19.91610814, 48.29029671 ], [ 19.91591394, 48.29017897 ], [ 19.91586219, 48.29017215 ], [ 19.91545261, 48.29010601 ], [ 19.91505424, 48.2899403 ], [ 19.91466596, 48.28958999 ], [ 19.91433509, 48.28922134 ], [ 19.91386751, 48.28892747 ], [ 19.91355736, 48.28873346 ], [ 19.91351437, 48.28870728 ], [ 19.9132441, 48.28836014 ], [ 19.91286532, 48.28826746 ], [ 19.9123603, 48.28826272 ], [ 19.91162489, 48.2883575 ], [ 19.91130441, 48.28839133 ], [ 19.91094307, 48.28838248 ], [ 19.91050982, 48.28832242 ], [ 19.91021866, 48.28826224 ], [ 19.90975481, 48.28824925 ], [ 19.90941058, 48.28816669 ], [ 19.90884794, 48.28796542 ], [ 19.90835422, 48.28788563 ], [ 19.90722931, 48.28765163 ], [ 19.90685525, 48.28720223 ], [ 19.90667881, 48.2868629 ], [ 19.90647624, 48.2864781 ], [ 19.90617326, 48.28582401 ], [ 19.9061095, 48.28580892 ], [ 19.90607332, 48.28580034 ], [ 19.90566182, 48.28570279 ], [ 19.90561813, 48.28569235 ], [ 19.9055533, 48.28567704 ], [ 19.90488944, 48.28595555 ], [ 19.90404318, 48.28616214 ], [ 19.90346279, 48.28625155 ], [ 19.90281096, 48.28627939 ], [ 19.90207098, 48.28624386 ], [ 19.9008459, 48.28605641 ], [ 19.90031979, 48.2861667 ], [ 19.89910398, 48.28642143 ], [ 19.89830018, 48.28683674 ], [ 19.89762274, 48.28740736 ], [ 19.89701168, 48.28801202 ], [ 19.89659003, 48.28849145 ], [ 19.89602674, 48.28874703 ], [ 19.89593112, 48.28879041 ], [ 19.89573733, 48.28887831 ], [ 19.89565934, 48.28891254 ], [ 19.89558797, 48.28894389 ], [ 19.89555243, 48.28895957 ], [ 19.89537288, 48.28903845 ], [ 19.89377087, 48.28953452 ], [ 19.89273791, 48.28964016 ], [ 19.8920782, 48.28997772 ], [ 19.89152217, 48.29016636 ], [ 19.89113809, 48.2902932 ], [ 19.89056455, 48.29032218 ], [ 19.89039063, 48.29019914 ], [ 19.89002391, 48.29041441 ], [ 19.88882748, 48.29084247 ], [ 19.88810566, 48.29117526 ], [ 19.88794796, 48.29153726 ], [ 19.8879391, 48.29186998 ], [ 19.8881478, 48.29214847 ], [ 19.88833234, 48.29239472 ], [ 19.8886526, 48.29301356 ], [ 19.88871221, 48.29348434 ], [ 19.88853384, 48.29384085 ], [ 19.88802487, 48.29453162 ], [ 19.8872366, 48.29483451 ], [ 19.88643914, 48.29507877 ], [ 19.88577077, 48.29513654 ], [ 19.8844891, 48.29474946 ], [ 19.88387811, 48.29540508 ], [ 19.88342481, 48.29578558 ], [ 19.88339342, 48.29580838 ], [ 19.88233528, 48.29657735 ], [ 19.88187949, 48.29655568 ], [ 19.88091165, 48.2967401 ], [ 19.8805358, 48.2965446 ], [ 19.88039334, 48.29698412 ], [ 19.88053334, 48.29809576 ], [ 19.88024165, 48.30065522 ], [ 19.8803642, 48.30183118 ], [ 19.88029012, 48.30284111 ], [ 19.88031979, 48.3042281 ], [ 19.88021609, 48.30642021 ], [ 19.88025328, 48.30749866 ], [ 19.88075543, 48.31007736 ], [ 19.88066085, 48.3109476 ], [ 19.88089857, 48.31094408 ], [ 19.88098477, 48.31094276 ], [ 19.88221617, 48.31092446 ], [ 19.88303279, 48.31104119 ], [ 19.8845814, 48.31135894 ], [ 19.88575369, 48.31172596 ], [ 19.8863845, 48.31197435 ], [ 19.88828273, 48.31300696 ], [ 19.88957578, 48.31342241 ], [ 19.88985108, 48.31351089 ], [ 19.8899076, 48.31351612 ], [ 19.89081478, 48.31391203 ], [ 19.89220277, 48.31456424 ], [ 19.89316087, 48.31497341 ], [ 19.89517937, 48.31509369 ], [ 19.89668053, 48.31528927 ], [ 19.89689884, 48.3151067 ], [ 19.89787994, 48.31528123 ], [ 19.89910736, 48.31533296 ], [ 19.90045255, 48.31532224 ], [ 19.90168703, 48.31554414 ], [ 19.90182675, 48.31556925 ], [ 19.9022374, 48.31564306 ], [ 19.90252312, 48.31556251 ], [ 19.9027884, 48.31547685 ], [ 19.9032209, 48.31545597 ], [ 19.90430694, 48.31547597 ], [ 19.90507465, 48.31560504 ], [ 19.90621106, 48.31567018 ], [ 19.90688306, 48.31597465 ], [ 19.90753878, 48.31624075 ], [ 19.90804918, 48.31645166 ], [ 19.91010331, 48.31620197 ] ] ] ] } },
{ "type": "Feature", "properties": { "@featureType": "CadastralZoning", "beginLifespanVersion": { "@nilReason": "http://inspire.ec.europa.eu/codelist/VoidReasonValue/Unpopulated", "@nil": "true" }, "endLifespanVersion": { "@nilReason": "http://inspire.ec.europa.eu/codelist/VoidReasonValue/Unpopulated", "@nil": "true" }, "estimatedAccuracy": { "value": -1, "@uom": "m" }, "inspireId": { "@dataType": "Identifier", "localId": "816558", "namespace": "SK.ESKN.CP", "versionId": "20261005T06:10:45" }, "label": "Hodejov", "level": { "@href": "http://inspire.ec.europa.eu/codelist/CadastralZoningLevelValue/3rdOrder" }, "levelName": { "value": "Katastrálne územie", "@locale": "sk" }, "name": { "@dataType": "name", "GeographicalName": { "@dataType": "GeographicalName", "language": "SLK", "nativeness": { "@href": "http://inspire.ec.europa.eu/codelist/NativenessValue/endonym", "@title": "endonym" }, "nameStatus": { "@href": "http://inspire.ec.europa.eu/codelist/NameStatusValue/official", "@title": "official" }, "sourceOfName": { "@nilReason": "http://inspire.ec.europa.eu/codelist/VoidReasonValue/Unpopulated", "@nil": "true" }, "pronunciation": { "@dataType": "pronunciation", "@nilReason": "http://inspire.ec.europa.eu/codelist/VoidReasonValue/Unpopulated", "@nil": "true" }, "spelling": { "@dataType": "SpellingOfName", "text": "Hodejov", "script": "LATN" } } }, "nationalCadastalZoningReference": "816558", "validFrom": "2026-09-30T16:00:00Z", "validTo": { "@nilReason": "http://inspire.ec.europa.eu/codelist/VoidReasonValue/Unpopulated", "@nil": "true" } }, "geometry": { "type": "MultiPolygon", "coordinates": [ [ [ [ 19.94629661, 48.32592716 ], [ 19.94719681, 48.32549795 ], [ 19.94882053, 48.3250462 ], [ 19.95076729, 48.32468523 ], [ 19.95119792, 48.324111 ], [ 19.95153087, 48.32342762 ], [ 19.95237838, 48.32290267 ], [ 19.95360844, 48.32239039 ], [ 19.95367837, 48.32237264 ], [ 19.9537002, 48.32235924 ], [ 19.95383729, 48.32227513 ], [ 19.95395165, 48.3222507 ], [ 19.954135, 48.32221137 ], [ 19.95449709, 48.32201417 ], [ 19.95475192, 48.3216583 ], [ 19.95488863, 48.32147495 ], [ 19.9554191, 48.32097931 ], [ 19.9561835, 48.32072072 ], [ 19.95716504, 48.32005211 ], [ 19.95810807, 48.31967034 ], [ 19.95827992, 48.31959284 ], [ 19.958506, 48.31949079 ], [ 19.95870031, 48.31940595 ], [ 19.95917859, 48.3191533 ], [ 19.95977938, 48.31888701 ], [ 19.95999807, 48.31879014 ], [ 19.96009616, 48.31863452 ], [ 19.96022436, 48.31843954 ], [ 19.96094891, 48.31770618 ], [ 19.96158276, 48.31711018 ], [ 19.96192178, 48.31689207 ], [ 19.96211408, 48.31676578 ], [ 19.96264786, 48.31642526 ], [ 19.96331601, 48.31593678 ], [ 19.96372777, 48.31568399 ], [ 19.96470659, 48.31568617 ], [ 19.96499648, 48.31568685 ], [ 19.96518547, 48.31568721 ], [ 19.96528078, 48.31564133 ], [ 19.96590726, 48.31531013 ], [ 19.96620307, 48.3151538 ], [ 19.96651832, 48.31503867 ], [ 19.96717387, 48.31488435 ], [ 19.96730765, 48.31485298 ], [ 19.96745207, 48.3148191 ], [ 19.96749529, 48.31480786 ], [ 19.96754069, 48.3147923 ], [ 19.9676441, 48.31475488 ], [ 19.96771091, 48.31473149 ], [ 19.96787179, 48.31467523 ], [ 19.96804264, 48.31461632 ], [ 19.96813794, 48.31458044 ], [ 19.96877074, 48.31440668 ], [ 19.96920022, 48.31429214 ], [ 19.96982957, 48.31418428 ], [ 19.97013795, 48.31412977 ], [ 19.97069584, 48.31403302 ], [ 19.97127208, 48.31393651 ], [ 19.97180466, 48.31385869 ], [ 19.97259245, 48.31373834 ], [ 19.9728706, 48.31369182 ], [ 19.97340528, 48.3136103 ], [ 19.97408263, 48.31350751 ], [ 19.97422562, 48.31348573 ], [ 19.97450914, 48.3134424 ], [ 19.97494282, 48.31335173 ], [ 19.97515546, 48.31334758 ], [ 19.976123, 48.31333295 ], [ 19.97675368, 48.31352882 ], [ 19.97715289, 48.31365549 ], [ 19.97806879, 48.3137149 ], [ 19.97850789, 48.3137589 ], [ 19.97880268, 48.31378742 ], [ 19.97926921, 48.31397344 ], [ 19.97956716, 48.31403129 ], [ 19.97960588, 48.31402481 ], [ 19.9797674, 48.31400416 ], [ 19.98032395, 48.31386306 ], [ 19.98064166, 48.31376133 ], [ 19.98087729, 48.31360503 ], [ 19.98118466, 48.31349132 ], [ 19.98161646, 48.3135396 ], [ 19.98192533, 48.31357637 ], [ 19.98254255, 48.31359418 ], [ 19.98282421, 48.31360591 ], [ 19.98285926, 48.31360388 ], [ 19.9832071, 48.31359453 ], [ 19.98345185, 48.31358379 ], [ 19.98366362, 48.31357751 ], [ 19.98387875, 48.31353019 ], [ 19.98406359, 48.31348592 ], [ 19.98449741, 48.3130223 ], [ 19.98488688, 48.31322892 ], [ 19.98507843, 48.3133302 ], [ 19.98537487, 48.31348782 ], [ 19.98591998, 48.31351807 ], [ 19.98671185, 48.31341689 ], [ 19.98733051, 48.31333994 ], [ 19.98778801, 48.31328402 ], [ 19.98805025, 48.31325121 ], [ 19.98863829, 48.313178 ], [ 19.98972473, 48.31304626 ], [ 19.99029389, 48.31297675 ], [ 19.99077454, 48.31292035 ], [ 19.99166, 48.3128221 ], [ 19.99233925, 48.31274569 ], [ 19.99266601, 48.31212793 ], [ 19.99263537, 48.31193675 ], [ 19.99284041, 48.31158971 ], [ 19.99309179, 48.31158157 ], [ 19.99359449, 48.31156593 ], [ 19.99364373, 48.31156665 ], [ 19.99370794, 48.31156765 ], [ 19.99438706, 48.31159216 ], [ 19.99481102, 48.31173017 ], [ 19.99510611, 48.31182815 ], [ 19.99529933, 48.31180367 ], [ 19.995492, 48.31177918 ], [ 19.99598849, 48.31186041 ], [ 19.99653168, 48.31194928 ], [ 19.99658909, 48.3119636 ], [ 19.99673396, 48.31198602 ], [ 19.99683291, 48.31213366 ], [ 19.99685854, 48.31216403 ], [ 19.99714848, 48.31259441 ], [ 19.99723177, 48.3127221 ], [ 19.99739374, 48.31296468 ], [ 19.9980686, 48.31308992 ], [ 19.99868032, 48.31320421 ], [ 19.99878535, 48.31322359 ], [ 19.9993299, 48.31332396 ], [ 20.00005688, 48.31345823 ], [ 20.00087439, 48.313217 ], [ 20.00123266, 48.31311458 ], [ 20.00156583, 48.3130631 ], [ 20.00217702, 48.31284913 ], [ 20.00246647, 48.31276426 ], [ 20.00323188, 48.31253236 ], [ 20.00385242, 48.31242069 ], [ 20.00411144, 48.31239753 ], [ 20.00439246, 48.31236313 ], [ 20.00452628, 48.31237381 ], [ 20.00487196, 48.31240134 ], [ 20.0049721, 48.31242538 ], [ 20.0054256, 48.31252279 ], [ 20.00558605, 48.312539 ], [ 20.0059916, 48.312585 ], [ 20.00632905, 48.31264381 ], [ 20.00679941, 48.31273876 ], [ 20.00682206, 48.3127407 ], [ 20.00699938, 48.31275573 ], [ 20.00755458, 48.31297501 ], [ 20.00760722, 48.31300408 ], [ 20.00786931, 48.3131428 ], [ 20.00837928, 48.31327609 ], [ 20.00844032, 48.31329209 ], [ 20.00871913, 48.3133368 ], [ 20.00895943, 48.31333735 ], [ 20.00938188, 48.31328032 ], [ 20.01081259, 48.31309031 ], [ 20.01129926, 48.31302705 ], [ 20.01141712, 48.31308508 ], [ 20.01167348, 48.31304864 ], [ 20.01189744, 48.3130476 ], [ 20.01213658, 48.3130846 ], [ 20.01283554, 48.31306378 ], [ 20.01289773, 48.31306324 ], [ 20.012946, 48.31306283 ], [ 20.01362574, 48.31313537 ], [ 20.013977, 48.31317545 ], [ 20.0140679, 48.31317143 ], [ 20.01423788, 48.3131683 ], [ 20.0144051, 48.31316298 ], [ 20.01480498, 48.31315166 ], [ 20.01523917, 48.31320775 ], [ 20.01593971, 48.31328034 ], [ 20.01685159, 48.31326798 ], [ 20.01734119, 48.3134485 ], [ 20.01856242, 48.31375299 ], [ 20.01896638, 48.31386754 ], [ 20.01941258, 48.31402847 ], [ 20.01955946, 48.31408547 ], [ 20.01958207, 48.31405496 ], [ 20.01961383, 48.31401043 ], [ 20.02037761, 48.31293971 ], [ 20.02108948, 48.31177012 ], [ 20.02114689, 48.31116118 ], [ 20.02131635, 48.3093709 ], [ 20.02111436, 48.30848703 ], [ 20.02103462, 48.30836563 ], [ 20.02094819, 48.30831524 ], [ 20.02087634, 48.30820039 ], [ 20.02059384, 48.30820079 ], [ 20.02071772, 48.30728661 ], [ 20.02090304, 48.30663915 ], [ 20.0213065, 48.30507038 ], [ 20.02138565, 48.30477812 ], [ 20.02089749, 48.30448845 ], [ 20.02142747, 48.30325681 ], [ 20.02143872, 48.30323205 ], [ 20.02144818, 48.30322046 ], [ 20.02151417, 48.30314086 ], [ 20.02152598, 48.30312595 ], [ 20.02153066, 48.30311929 ], [ 20.02182661, 48.30185665 ], [ 20.02185215, 48.3017576 ], [ 20.02186816, 48.3016924 ], [ 20.02203148, 48.30102851 ], [ 20.02176074, 48.30096614 ], [ 20.02146898, 48.30093047 ], [ 20.02073576, 48.30073776 ], [ 20.0206157, 48.30070614 ], [ 20.02044211, 48.30066056 ], [ 20.02045338, 48.300488 ], [ 20.02042763, 48.30012357 ], [ 20.02023754, 48.29993788 ], [ 20.01980596, 48.29967627 ], [ 20.01923154, 48.29967757 ], [ 20.01902034, 48.29871175 ], [ 20.01886774, 48.29847951 ], [ 20.01876955, 48.2982948 ], [ 20.01858142, 48.29794662 ], [ 20.01843961, 48.29769879 ], [ 20.0180638, 48.29725144 ], [ 20.01791534, 48.29687221 ], [ 20.0179086, 48.29685489 ], [ 20.01789716, 48.29682585 ], [ 20.01788922, 48.29681271 ], [ 20.0178665, 48.29679004 ], [ 20.01779612, 48.29671869 ], [ 20.01771459, 48.29663515 ], [ 20.01686866, 48.29576829 ], [ 20.01685225, 48.29572885 ], [ 20.01663549, 48.29522635 ], [ 20.01656463, 48.29464897 ], [ 20.01662591, 48.29414833 ], [ 20.0166628, 48.29396054 ], [ 20.01653481, 48.29343474 ], [ 20.01644879, 48.29315699 ], [ 20.01638067, 48.29293712 ], [ 20.0163796, 48.2929141 ], [ 20.0160678, 48.29291956 ], [ 20.01580243, 48.29292382 ], [ 20.0158015, 48.29290081 ], [ 20.01576179, 48.29289941 ], [ 20.0157524, 48.29285008 ], [ 20.0155428, 48.29208302 ], [ 20.01537448, 48.291408 ], [ 20.01525773, 48.29096801 ], [ 20.01515011, 48.29044405 ], [ 20.01512886, 48.29033015 ], [ 20.01507658, 48.29004976 ], [ 20.01506665, 48.28996616 ], [ 20.01506484, 48.28993671 ], [ 20.01506066, 48.28986651 ], [ 20.01505862, 48.28983227 ], [ 20.01504381, 48.28958284 ], [ 20.01503696, 48.28946504 ], [ 20.01506341, 48.2890015 ], [ 20.01517741, 48.28837006 ], [ 20.01522107, 48.28809055 ], [ 20.01522731, 48.2868809 ], [ 20.01520315, 48.28659313 ], [ 20.01519528, 48.28649908 ], [ 20.01518765, 48.28640819 ], [ 20.01500666, 48.28670212 ], [ 20.01484987, 48.28695705 ], [ 20.01483856, 48.28697532 ], [ 20.01481969, 48.28700354 ], [ 20.01452956, 48.28741652 ], [ 20.01437165, 48.28751154 ], [ 20.01415258, 48.28756216 ], [ 20.01411746, 48.28756943 ], [ 20.01407656, 48.28757789 ], [ 20.01397272, 48.2875993 ], [ 20.01369972, 48.28771768 ], [ 20.01361833, 48.28775301 ], [ 20.0133057, 48.28789496 ], [ 20.01330018, 48.28792195 ], [ 20.01329608, 48.2879425 ], [ 20.0132941, 48.28795206 ], [ 20.01327771, 48.28803275 ], [ 20.01300299, 48.28817214 ], [ 20.01252789, 48.28832564 ], [ 20.01218189, 48.28841617 ], [ 20.0108311, 48.28849363 ], [ 20.00984126, 48.2884182 ], [ 20.00960627, 48.28843418 ], [ 20.00936193, 48.28846346 ], [ 20.00892478, 48.28863674 ], [ 20.00843938, 48.28884486 ], [ 20.00823353, 48.28897254 ], [ 20.00788466, 48.28909907 ], [ 20.00686164, 48.28947019 ], [ 20.0066675, 48.28951402 ], [ 20.00659878, 48.28959674 ], [ 20.00649451, 48.28965985 ], [ 20.00579977, 48.28996647 ], [ 20.00544168, 48.29013316 ], [ 20.00481911, 48.29019922 ], [ 20.00448897, 48.29013025 ], [ 20.00422626, 48.29007088 ], [ 20.00385162, 48.29000707 ], [ 20.0036951, 48.28987296 ], [ 20.00352929, 48.28975702 ], [ 20.00320209, 48.28963708 ], [ 20.00295812, 48.28954957 ], [ 20.0026895, 48.28946706 ], [ 20.00242342, 48.28951469 ], [ 20.00217627, 48.28941073 ], [ 20.00203104, 48.28931441 ], [ 20.00186853, 48.2892807 ], [ 20.00146435, 48.28909533 ], [ 20.00109901, 48.28894755 ], [ 20.00085926, 48.28880397 ], [ 20.00066552, 48.28869091 ], [ 20.00046908, 48.28857629 ], [ 20.0003424, 48.28850228 ], [ 20.00034698, 48.28849238 ], [ 20.0004371, 48.28825646 ], [ 20.00110834, 48.28786291 ], [ 20.00118677, 48.28776186 ], [ 20.00131831, 48.28748056 ], [ 20.00139738, 48.28732988 ], [ 20.0013448, 48.28724908 ], [ 20.00138177, 48.28703255 ], [ 20.00141661, 48.28689695 ], [ 20.00149959, 48.28677771 ], [ 20.00165526, 48.28655392 ], [ 20.00194575, 48.28633799 ], [ 20.00214634, 48.28618026 ], [ 20.00233291, 48.2859795 ], [ 20.00252148, 48.28583172 ], [ 20.00256007, 48.2857307 ], [ 20.00256336, 48.28568443 ], [ 20.00256286, 48.28567125 ], [ 20.00195961, 48.28569341 ], [ 20.00173448, 48.28572232 ], [ 20.00131852, 48.28584573 ], [ 20.00118126, 48.28588645 ], [ 20.00108476, 48.28590166 ], [ 20.00080345, 48.28594487 ], [ 20.00050174, 48.28599118 ], [ 20.00034567, 48.28601515 ], [ 20.00018969, 48.28603389 ], [ 19.99953436, 48.28611404 ], [ 19.99939515, 48.28613106 ], [ 19.99882243, 48.28617441 ], [ 19.99850146, 48.28616736 ], [ 19.99806078, 48.28615238 ], [ 19.99774617, 48.28611379 ], [ 19.99730352, 48.28611539 ], [ 19.99706427, 48.28617072 ], [ 19.99673808, 48.28623302 ], [ 19.99659753, 48.28625989 ], [ 19.9963732, 48.28629882 ], [ 19.99634465, 48.28630375 ], [ 19.99602408, 48.28635934 ], [ 19.9957705, 48.28636351 ], [ 19.99556874, 48.28642366 ], [ 19.99532458, 48.2864823 ], [ 19.99510275, 48.28653755 ], [ 19.99478524, 48.28670052 ], [ 19.99468319, 48.28676857 ], [ 19.99452274, 48.28687157 ], [ 19.99429045, 48.28719105 ], [ 19.99408473, 48.28749238 ], [ 19.99405043, 48.28764774 ], [ 19.99404132, 48.28788067 ], [ 19.99397187, 48.28810475 ], [ 19.99382348, 48.28835542 ], [ 19.99377564, 48.28841423 ], [ 19.99358654, 48.28864695 ], [ 19.99343051, 48.28871877 ], [ 19.99314869, 48.28881276 ], [ 19.9930064, 48.2888565 ], [ 19.99240953, 48.28907011 ], [ 19.99168402, 48.28907101 ], [ 19.99119885, 48.28907215 ], [ 19.99005861, 48.2890475 ], [ 19.98969769, 48.28906272 ], [ 19.98937678, 48.28908755 ], [ 19.98844561, 48.28908965 ], [ 19.98788909, 48.28905009 ], [ 19.98763869, 48.28904329 ], [ 19.98682734, 48.28892698 ], [ 19.98677431, 48.28891943 ], [ 19.98654016, 48.28883401 ], [ 19.98635489, 48.28880265 ], [ 19.98580679, 48.2887099 ], [ 19.98543836, 48.28866765 ], [ 19.98472603, 48.28875729 ], [ 19.98435748, 48.28871494 ], [ 19.98420609, 48.28864671 ], [ 19.98405196, 48.28857188 ], [ 19.98376046, 48.28841076 ], [ 19.98348303, 48.28835306 ], [ 19.98301757, 48.28830309 ], [ 19.98244096, 48.2882604 ], [ 19.98237876, 48.28825416 ], [ 19.98226952, 48.28824981 ], [ 19.98218726, 48.28823876 ], [ 19.98210081, 48.28824754 ], [ 19.98200939, 48.28825457 ], [ 19.98194017, 48.28825831 ], [ 19.98189568, 48.28826184 ], [ 19.98171355, 48.28829414 ], [ 19.98160034, 48.28831449 ], [ 19.98146261, 48.28833994 ], [ 19.98131488, 48.2883655 ], [ 19.98103831, 48.28845094 ], [ 19.98096725, 48.28847109 ], [ 19.98074684, 48.28853818 ], [ 19.98058444, 48.28857033 ], [ 19.98052795, 48.28858218 ], [ 19.98045577, 48.28857435 ], [ 19.98031627, 48.28855871 ], [ 19.98021274, 48.28850999 ], [ 19.98016445, 48.28848812 ], [ 19.97998293, 48.28840599 ], [ 19.97992235, 48.28837837 ], [ 19.97981381, 48.28833124 ], [ 19.97970537, 48.28828583 ], [ 19.97954693, 48.28823081 ], [ 19.97939843, 48.28818064 ], [ 19.97920037, 48.28813043 ], [ 19.97907003, 48.28809806 ], [ 19.978907, 48.28805592 ], [ 19.97888682, 48.28804939 ], [ 19.97822162, 48.28772697 ], [ 19.97794494, 48.28756638 ], [ 19.97743759, 48.28728119 ], [ 19.97719781, 48.28717983 ], [ 19.97639973, 48.28689612 ], [ 19.97544274, 48.28682646 ], [ 19.97439488, 48.28651412 ], [ 19.97378604, 48.28638323 ], [ 19.97359559, 48.28627169 ], [ 19.9735167, 48.28622239 ], [ 19.97330314, 48.28609113 ], [ 19.97305208, 48.28602623 ], [ 19.97291146, 48.28598557 ], [ 19.97274208, 48.28593784 ], [ 19.97269789, 48.28592542 ], [ 19.97233254, 48.2857916 ], [ 19.97211555, 48.28570498 ], [ 19.97190582, 48.28561164 ], [ 19.9716295, 48.28546745 ], [ 19.97155598, 48.28542981 ], [ 19.97138488, 48.28530657 ], [ 19.9711731, 48.28515538 ], [ 19.97093573, 48.28498787 ], [ 19.97054477, 48.28470191 ], [ 19.97045277, 48.28463285 ], [ 19.97027375, 48.28449647 ], [ 19.97011391, 48.28434009 ], [ 19.97001775, 48.28423534 ], [ 19.9699321, 48.28414222 ], [ 19.96984462, 48.28404703 ], [ 19.96977728, 48.28397289 ], [ 19.96956485, 48.28374074 ], [ 19.96953403, 48.28371275 ], [ 19.96947131, 48.283627 ], [ 19.96943195, 48.28357099 ], [ 19.9693925, 48.28351164 ], [ 19.96937388, 48.2834803 ], [ 19.96928549, 48.28337489 ], [ 19.96924674, 48.28333368 ], [ 19.96920543, 48.28329254 ], [ 19.96915209, 48.28326135 ], [ 19.96911363, 48.28322854 ], [ 19.96906273, 48.28319727 ], [ 19.96901164, 48.2831595 ], [ 19.96889662, 48.28307568 ], [ 19.96885834, 48.28304945 ], [ 19.96875322, 48.28296226 ], [ 19.96864045, 48.28287185 ], [ 19.96852781, 48.28278137 ], [ 19.96849676, 48.28275013 ], [ 19.96847858, 48.28272701 ], [ 19.96842963, 48.28268095 ], [ 19.96838048, 48.28262993 ], [ 19.96828741, 48.28253117 ], [ 19.96826685, 48.28250885 ], [ 19.96824334, 48.28248343 ], [ 19.96815016, 48.28238296 ], [ 19.96806187, 48.2822808 ], [ 19.96800777, 48.2822265 ], [ 19.96797593, 48.28217378 ], [ 19.96789137, 48.28210179 ], [ 19.96784861, 48.28213404 ], [ 19.9673727, 48.28249198 ], [ 19.96726844, 48.28254749 ], [ 19.96688481, 48.28275317 ], [ 19.96644368, 48.28295586 ], [ 19.96609619, 48.28319309 ], [ 19.96570722, 48.28332022 ], [ 19.96550643, 48.28342083 ], [ 19.96469195, 48.28383009 ], [ 19.96412474, 48.28419072 ], [ 19.96370477, 48.28442468 ], [ 19.96320937, 48.2847925 ], [ 19.96275872, 48.2849134 ], [ 19.96234643, 48.28508793 ], [ 19.96202814, 48.28542354 ], [ 19.9615006, 48.28581099 ], [ 19.96110836, 48.2859961 ], [ 19.96093687, 48.2861814 ], [ 19.96078811, 48.28634225 ], [ 19.9605883, 48.28655834 ], [ 19.96030554, 48.28686391 ], [ 19.96023302, 48.2869559 ], [ 19.95958809, 48.28784286 ], [ 19.95958094, 48.28785274 ], [ 19.95957953, 48.28785475 ], [ 19.95956092, 48.28788 ], [ 19.95953191, 48.28791933 ], [ 19.9594913, 48.28797275 ], [ 19.9594862, 48.28797948 ], [ 19.95948198, 48.28798551 ], [ 19.95946694, 48.28800723 ], [ 19.95944579, 48.28803643 ], [ 19.95942027, 48.2880731 ], [ 19.95939302, 48.28811106 ], [ 19.95936755, 48.28814728 ], [ 19.9593558, 48.28816283 ], [ 19.95933555, 48.28818972 ], [ 19.95930367, 48.28822937 ], [ 19.95914924, 48.2884354 ], [ 19.95908408, 48.28852239 ], [ 19.95925904, 48.2886177 ], [ 19.95971703, 48.28887879 ], [ 19.96051603, 48.28930235 ], [ 19.96159283, 48.28984064 ], [ 19.96263302, 48.29040187 ], [ 19.96347415, 48.29084153 ], [ 19.96346507, 48.29086457 ], [ 19.96345352, 48.29088932 ], [ 19.96344657, 48.29090416 ], [ 19.96373871, 48.29102138 ], [ 19.96377526, 48.291036 ], [ 19.96384667, 48.29106463 ], [ 19.96387836, 48.29108076 ], [ 19.96415282, 48.29122048 ], [ 19.96454159, 48.29149131 ], [ 19.96471075, 48.29160952 ], [ 19.96492675, 48.29172928 ], [ 19.96523828, 48.29189815 ], [ 19.96532023, 48.29199184 ], [ 19.96568347, 48.29231539 ], [ 19.96570352, 48.29233165 ], [ 19.96606683, 48.29265024 ], [ 19.96660423, 48.2931033 ], [ 19.96660772, 48.29316725 ], [ 19.96661074, 48.29322055 ], [ 19.96661444, 48.29328659 ], [ 19.96661568, 48.29330899 ], [ 19.96661898, 48.29336789 ], [ 19.96699999, 48.2936893 ], [ 19.96703625, 48.29371986 ], [ 19.96765529, 48.29424189 ], [ 19.9685909, 48.29488595 ], [ 19.96910776, 48.29513976 ], [ 19.96972493, 48.29531888 ], [ 19.97048448, 48.2953502 ], [ 19.97169473, 48.29537016 ], [ 19.97243793, 48.29541871 ], [ 19.97314997, 48.29541573 ], [ 19.97221656, 48.29570104 ], [ 19.97013676, 48.29634363 ], [ 19.9698011, 48.29644601 ], [ 19.96862003, 48.29680847 ], [ 19.96822854, 48.29694245 ], [ 19.96771027, 48.2971299 ], [ 19.9668011, 48.29739827 ], [ 19.96589409, 48.29766518 ], [ 19.9657718, 48.29769838 ], [ 19.96544171, 48.29779459 ], [ 19.96543157, 48.29779749 ], [ 19.96326266, 48.29842644 ], [ 19.96250694, 48.29865028 ], [ 19.96194439, 48.29881447 ], [ 19.9613638, 48.29897932 ], [ 19.96134242, 48.29898535 ], [ 19.96071867, 48.29916937 ], [ 19.96008502, 48.29935513 ], [ 19.9594588, 48.29954083 ], [ 19.95914613, 48.29963398 ], [ 19.95850717, 48.29982427 ], [ 19.95845577, 48.29983921 ], [ 19.9577563, 48.30005631 ], [ 19.95722408, 48.30023204 ], [ 19.9570987, 48.30027339 ], [ 19.95554997, 48.30074248 ], [ 19.95526138, 48.30083366 ], [ 19.95474046, 48.30100264 ], [ 19.95384514, 48.3012843 ], [ 19.95367756, 48.30133746 ], [ 19.95357351, 48.30137043 ], [ 19.95321436, 48.3014833 ], [ 19.95306702, 48.30152957 ], [ 19.95259976, 48.30167541 ], [ 19.94995274, 48.3024934 ], [ 19.94975961, 48.30255664 ], [ 19.94901573, 48.30278811 ], [ 19.94896443, 48.30280476 ], [ 19.94832346, 48.30300952 ], [ 19.94786831, 48.30315271 ], [ 19.94752099, 48.30326588 ], [ 19.94671345, 48.30351724 ], [ 19.94579213, 48.30431071 ], [ 19.94575326, 48.3043442 ], [ 19.94572611, 48.30434421 ], [ 19.94562242, 48.3043479 ], [ 19.94561012, 48.30434792 ], [ 19.94549655, 48.30435326 ], [ 19.94466361, 48.30434767 ], [ 19.94424577, 48.30434085 ], [ 19.94387107, 48.30429261 ], [ 19.94300166, 48.30406988 ], [ 19.94212648, 48.30398217 ], [ 19.94206959, 48.30398236 ], [ 19.94158807, 48.3039592 ], [ 19.94100681, 48.30405075 ], [ 19.94077664, 48.30413934 ], [ 19.93986527, 48.30452637 ], [ 19.9394858, 48.30464491 ], [ 19.93930934, 48.30468893 ], [ 19.93860226, 48.3048654 ], [ 19.93863747, 48.30492089 ], [ 19.93723671, 48.30541137 ], [ 19.93633114, 48.30572752 ], [ 19.93570024, 48.30617841 ], [ 19.93510947, 48.30650375 ], [ 19.93489276, 48.30670241 ], [ 19.93439099, 48.30702659 ], [ 19.93401336, 48.30722405 ], [ 19.93397889, 48.30725106 ], [ 19.93362668, 48.30752702 ], [ 19.93328216, 48.30800725 ], [ 19.93331124, 48.30844163 ], [ 19.93325954, 48.30858056 ], [ 19.93297538, 48.30898767 ], [ 19.93286224, 48.30931196 ], [ 19.93277524, 48.30961448 ], [ 19.93220412, 48.31028889 ], [ 19.93164745, 48.31078034 ], [ 19.93135958, 48.31112177 ], [ 19.9311755, 48.31123782 ], [ 19.93059888, 48.31146272 ], [ 19.92969652, 48.31166368 ], [ 19.92950564, 48.31170563 ], [ 19.92838189, 48.31193407 ], [ 19.92852514, 48.31227672 ], [ 19.92854813, 48.31233412 ], [ 19.92907756, 48.31359164 ], [ 19.92910047, 48.3136457 ], [ 19.93037058, 48.3167516 ], [ 19.9307849, 48.31779762 ], [ 19.92992359, 48.31882174 ], [ 19.9304203, 48.32156984 ], [ 19.93235104, 48.3225226 ], [ 19.93382147, 48.32289103 ], [ 19.9350678, 48.32312361 ], [ 19.9355269, 48.32355959 ], [ 19.93586137, 48.32387768 ], [ 19.93591586, 48.32392949 ], [ 19.93659151, 48.32439886 ], [ 19.93750955, 48.32503647 ], [ 19.93767718, 48.32515286 ], [ 19.93939435, 48.32634556 ], [ 19.94016596, 48.32659424 ], [ 19.94241141, 48.32675183 ], [ 19.94389647, 48.32742924 ], [ 19.94629661, 48.32592716 ] ] ] ] } }
]
}
