{
"type": "FeatureCollection",
"name": "gis",
"crs": { "type": "name", "properties": { "name": "urn:ogc:def:crs:OGC:1.3:CRS84" } },
"features": [
{ "type": "Feature", "properties": { "@featureType": "CadastralParcel", "areaValue": { "value": 1476, "@uom": "m2" }, "beginLifespanVersion": { "@nilReason": "http://inspire.ec.europa.eu/codelist/VoidReasonValue/Unpopulated", "@nil": "true" }, "endLifespanVersion": { "@nilReason": "http://inspire.ec.europa.eu/codelist/VoidReasonValue/Unpopulated", "@nil": "true" }, "inspireId": { "@dataType": "Identifier", "localId": "843857_184/4.C", "namespace": "SK.ESKN.CP", "versionId": "20260703T05:07:37" }, "label": "184/4", "nationalCadastralReference": "843857_184/4.C", "referencePoint": { "type": "Point", "coordinates": [ 21.05436734, 48.78323829 ] }, "validFrom": "2026-06-30T16:00:00Z", "validTo": { "@nilReason": "http://inspire.ec.europa.eu/codelist/VoidReasonValue/Unpopulated", "@nil": "true" }, "administrativeUnit": { "@href": "#auAdmUnitS.1710" } }, "geometry": { "type": "Polygon", "coordinates": [ [ [ 21.05408269, 48.7835644 ], [ 21.05452604, 48.78317044 ], [ 21.05437744, 48.78305853 ], [ 21.05419478, 48.78292094 ], [ 21.05409855, 48.78293788 ], [ 21.05393187, 48.78303149 ], [ 21.05381804, 48.78313456 ], [ 21.05380122, 48.78314986 ], [ 21.05378572, 48.78316403 ], [ 21.05382669, 48.78317194 ], [ 21.05384534, 48.78318309 ], [ 21.05390025, 48.78321594 ], [ 21.05391955, 48.78333884 ], [ 21.054058, 48.78322181 ], [ 21.05410919, 48.78317854 ], [ 21.05412562, 48.78316467 ], [ 21.05432068, 48.78325477 ], [ 21.05401132, 48.7835094 ], [ 21.05405274, 48.78353677 ], [ 21.05408269, 48.7835644 ] ] ] } }
]
}
