{
"type": "FeatureCollection",
"name": "gis",
"crs": { "type": "name", "properties": { "name": "urn:ogc:def:crs:OGC:1.3:CRS84" } },
"features": [
{ "type": "Feature", "properties": { "@featureType": "CadastralParcel", "areaValue": { "value": 10517, "@uom": "m2" }, "beginLifespanVersion": { "@nilReason": "http://inspire.ec.europa.eu/codelist/VoidReasonValue/Unpopulated", "@nil": "true" }, "endLifespanVersion": { "@nilReason": "http://inspire.ec.europa.eu/codelist/VoidReasonValue/Unpopulated", "@nil": "true" }, "inspireId": { "@dataType": "Identifier", "localId": "860131_217/1.C", "namespace": "SK.ESKN.CP", "versionId": "20260703T04:07:50" }, "label": "217/1", "nationalCadastralReference": "860131_217/1.C", "referencePoint": { "type": "Point", "coordinates": [ 20.40560456, 48.43883033 ] }, "validFrom": "2026-06-30T16:00:00Z", "validTo": { "@nilReason": "http://inspire.ec.europa.eu/codelist/VoidReasonValue/Unpopulated", "@nil": "true" }, "administrativeUnit": { "@href": "#auAdmUnitS.1834" } }, "geometry": { "type": "Polygon", "coordinates": [ [ [ 20.40672218, 48.43835354 ], [ 20.40645538, 48.43820336 ], [ 20.4041284, 48.43930711 ], [ 20.40448943, 48.43961921 ], [ 20.40472706, 48.43982458 ], [ 20.40672218, 48.43835354 ] ] ] } },
{ "type": "Feature", "properties": { "@featureType": "CadastralParcel", "areaValue": { "value": 54568, "@uom": "m2" }, "beginLifespanVersion": { "@nilReason": "http://inspire.ec.europa.eu/codelist/VoidReasonValue/Unpopulated", "@nil": "true" }, "endLifespanVersion": { "@nilReason": "http://inspire.ec.europa.eu/codelist/VoidReasonValue/Unpopulated", "@nil": "true" }, "inspireId": { "@dataType": "Identifier", "localId": "860131_230.C", "namespace": "SK.ESKN.CP", "versionId": "20260703T04:07:50" }, "label": "230", "nationalCadastralReference": "860131_230.C", "referencePoint": { "type": "Point", "coordinates": [ 20.41031146, 48.44059842 ] }, "validFrom": "2026-06-30T16:00:00Z", "validTo": { "@nilReason": "http://inspire.ec.europa.eu/codelist/VoidReasonValue/Unpopulated", "@nil": "true" }, "administrativeUnit": { "@href": "#auAdmUnitS.1834" } }, "geometry": { "type": "Polygon", "coordinates": [ [ [ 20.40756768, 48.44099293 ], [ 20.40822496, 48.44116533 ], [ 20.40842381, 48.44124064 ], [ 20.40877925, 48.44140882 ], [ 20.40918554, 48.44155742 ], [ 20.40953854, 48.44161343 ], [ 20.41059708, 48.44159494 ], [ 20.41120181, 48.44164441 ], [ 20.41153649, 48.44164169 ], [ 20.41184891, 48.44157722 ], [ 20.41233374, 48.44151369 ], [ 20.4124477, 48.44149699 ], [ 20.41255445, 48.44148235 ], [ 20.41265299, 48.44145623 ], [ 20.41269825, 48.44144959 ], [ 20.4128566, 48.44135676 ], [ 20.41279408, 48.44130796 ], [ 20.41275834, 48.44121587 ], [ 20.41276208, 48.44118691 ], [ 20.41279108, 48.44113983 ], [ 20.41279705, 48.44098213 ], [ 20.41278565, 48.44081241 ], [ 20.41276304, 48.44065335 ], [ 20.41273615, 48.44054349 ], [ 20.41268709, 48.44043169 ], [ 20.41254868, 48.44019349 ], [ 20.41251015, 48.44012886 ], [ 20.41245042, 48.44002152 ], [ 20.412321, 48.439806 ], [ 20.41194931, 48.43996388 ], [ 20.4118062, 48.44007774 ], [ 20.4115963, 48.44014832 ], [ 20.41112065, 48.44026995 ], [ 20.41078332, 48.44028932 ], [ 20.41048919, 48.44034594 ], [ 20.41014458, 48.44045539 ], [ 20.40982155, 48.44038648 ], [ 20.40908907, 48.44024281 ], [ 20.40892592, 48.44014924 ], [ 20.40884529, 48.43993812 ], [ 20.40900411, 48.43975738 ], [ 20.40886134, 48.43951648 ], [ 20.40876772, 48.43944396 ], [ 20.40756768, 48.44099293 ] ] ] } },
{ "type": "Feature", "properties": { "@featureType": "CadastralParcel", "areaValue": { "value": 56593, "@uom": "m2" }, "beginLifespanVersion": { "@nilReason": "http://inspire.ec.europa.eu/codelist/VoidReasonValue/Unpopulated", "@nil": "true" }, "endLifespanVersion": { "@nilReason": "http://inspire.ec.europa.eu/codelist/VoidReasonValue/Unpopulated", "@nil": "true" }, "inspireId": { "@dataType": "Identifier", "localId": "860131_237.C", "namespace": "SK.ESKN.CP", "versionId": "20260703T04:07:50" }, "label": "237", "nationalCadastralReference": "860131_237.C", "referencePoint": { "type": "Point", "coordinates": [ 20.41438403, 48.43849869 ] }, "validFrom": "2026-06-30T16:00:00Z", "validTo": { "@nilReason": "http://inspire.ec.europa.eu/codelist/VoidReasonValue/Unpopulated", "@nil": "true" }, "administrativeUnit": { "@href": "#auAdmUnitS.1834" } }, "geometry": { "type": "Polygon", "coordinates": [ [ [ 20.41672727, 48.4364171 ], [ 20.41582292, 48.4357222 ], [ 20.41570852, 48.4359142 ], [ 20.41564754, 48.43601474 ], [ 20.41556255, 48.43613616 ], [ 20.41550355, 48.43624821 ], [ 20.41548991, 48.43633679 ], [ 20.41549859, 48.43638496 ], [ 20.41565055, 48.43656224 ], [ 20.41569216, 48.43665384 ], [ 20.41566916, 48.43673629 ], [ 20.41542204, 48.43701301 ], [ 20.41570122, 48.4369567 ], [ 20.41591018, 48.4369405 ], [ 20.41600311, 48.43664794 ], [ 20.41598585, 48.43642863 ], [ 20.41608783, 48.43639696 ], [ 20.41626841, 48.43645191 ], [ 20.41627906, 48.43657737 ], [ 20.4163364, 48.43667642 ], [ 20.41630081, 48.43679793 ], [ 20.41649951, 48.43683601 ], [ 20.41652015, 48.43683996 ], [ 20.41652066, 48.43687151 ], [ 20.41652236, 48.43698626 ], [ 20.41640583, 48.43717467 ], [ 20.41617695, 48.43727696 ], [ 20.41549014, 48.43745941 ], [ 20.41523502, 48.43744438 ], [ 20.41523395, 48.43745506 ], [ 20.41511203, 48.437562 ], [ 20.41489581, 48.43773216 ], [ 20.41450097, 48.43811807 ], [ 20.41436503, 48.43819312 ], [ 20.41419192, 48.4382798 ], [ 20.41398706, 48.43832832 ], [ 20.41378175, 48.43843034 ], [ 20.41362094, 48.43859227 ], [ 20.41352346, 48.43872636 ], [ 20.41338239, 48.43895554 ], [ 20.41322507, 48.43918796 ], [ 20.41316804, 48.4393318 ], [ 20.41308665, 48.4394848 ], [ 20.41302082, 48.43953659 ], [ 20.41287225, 48.43966503 ], [ 20.41279188, 48.43975491 ], [ 20.41266453, 48.43995389 ], [ 20.4126127, 48.44004397 ], [ 20.41258073, 48.44014869 ], [ 20.41259265, 48.44019392 ], [ 20.4127256, 48.44042326 ], [ 20.4127758, 48.44053753 ], [ 20.41280327, 48.44064994 ], [ 20.41282616, 48.44081055 ], [ 20.41283676, 48.44098014 ], [ 20.41284904, 48.44113818 ], [ 20.41289288, 48.44118996 ], [ 20.41291301, 48.44126217 ], [ 20.41295696, 48.44129404 ], [ 20.41307004, 48.44120803 ], [ 20.41325172, 48.44101636 ], [ 20.41329398, 48.4410006 ], [ 20.41356548, 48.44074139 ], [ 20.41374802, 48.44051958 ], [ 20.41411466, 48.44029979 ], [ 20.41441779, 48.44013459 ], [ 20.41413724, 48.43970571 ], [ 20.41394062, 48.43953284 ], [ 20.41405542, 48.43947518 ], [ 20.41425691, 48.43940635 ], [ 20.41435159, 48.43946512 ], [ 20.41440989, 48.43957348 ], [ 20.41441882, 48.43977328 ], [ 20.41457035, 48.4397355 ], [ 20.4145745, 48.43973449 ], [ 20.41468754, 48.43973469 ], [ 20.41469729, 48.4397347 ], [ 20.41484078, 48.43967409 ], [ 20.41488646, 48.43965476 ], [ 20.41490192, 48.43964824 ], [ 20.41500494, 48.43969688 ], [ 20.41501733, 48.43972574 ], [ 20.41518226, 48.43958342 ], [ 20.41537711, 48.43940532 ], [ 20.41556324, 48.43923247 ], [ 20.41573728, 48.43903988 ], [ 20.41578348, 48.43898328 ], [ 20.41539501, 48.43874953 ], [ 20.41527433, 48.43866417 ], [ 20.41505967, 48.43852142 ], [ 20.41504872, 48.43847596 ], [ 20.4151055, 48.43840039 ], [ 20.41532538, 48.43829424 ], [ 20.41551336, 48.43818282 ], [ 20.41567217, 48.43803919 ], [ 20.41574311, 48.43793786 ], [ 20.41596412, 48.43771094 ], [ 20.41616305, 48.43755273 ], [ 20.41637894, 48.43771102 ], [ 20.4164921, 48.43769257 ], [ 20.41653082, 48.43756613 ], [ 20.41667169, 48.43749199 ], [ 20.41709218, 48.43724255 ], [ 20.4173557, 48.43707646 ], [ 20.41736501, 48.4370706 ], [ 20.41742819, 48.43707266 ], [ 20.41760193, 48.43707843 ], [ 20.41672727, 48.4364171 ] ] ] } },
{ "type": "Feature", "properties": { "@featureType": "CadastralParcel", "areaValue": { "value": 39863, "@uom": "m2" }, "beginLifespanVersion": { "@nilReason": "http://inspire.ec.europa.eu/codelist/VoidReasonValue/Unpopulated", "@nil": "true" }, "endLifespanVersion": { "@nilReason": "http://inspire.ec.europa.eu/codelist/VoidReasonValue/Unpopulated", "@nil": "true" }, "inspireId": { "@dataType": "Identifier", "localId": "860131_204.C", "namespace": "SK.ESKN.CP", "versionId": "20260703T04:07:50" }, "label": "204", "nationalCadastralReference": "860131_204.C", "referencePoint": { "type": "Point", "coordinates": [ 20.40483965, 48.43815656 ] }, "validFrom": "2026-06-30T16:00:00Z", "validTo": { "@nilReason": "http://inspire.ec.europa.eu/codelist/VoidReasonValue/Unpopulated", "@nil": "true" }, "administrativeUnit": { "@href": "#auAdmUnitS.1834" } }, "geometry": { "type": "Polygon", "coordinates": [ [ [ 20.40585549, 48.43797874 ], [ 20.40546995, 48.43795948 ], [ 20.40529573, 48.43788287 ], [ 20.40466134, 48.43770159 ], [ 20.40418048, 48.43752208 ], [ 20.40399811, 48.4374847 ], [ 20.40329261, 48.43717005 ], [ 20.40310534, 48.43729491 ], [ 20.40290135, 48.43721029 ], [ 20.40270371, 48.43702791 ], [ 20.40250261, 48.43697863 ], [ 20.40238793, 48.43708772 ], [ 20.40215375, 48.43707005 ], [ 20.40210303, 48.43696837 ], [ 20.40180233, 48.43699165 ], [ 20.40168763, 48.43718182 ], [ 20.40155861, 48.4371973 ], [ 20.40138997, 48.43704107 ], [ 20.40085742, 48.43724244 ], [ 20.40052669, 48.43728573 ], [ 20.40044047, 48.43757313 ], [ 20.40070361, 48.43758481 ], [ 20.40097245, 48.43755733 ], [ 20.40120197, 48.43765023 ], [ 20.40173501, 48.43755365 ], [ 20.40197104, 48.43753301 ], [ 20.40209073, 48.43755781 ], [ 20.40239888, 48.43764959 ], [ 20.40275487, 48.43769258 ], [ 20.40288846, 48.43778962 ], [ 20.40322107, 48.43804532 ], [ 20.40342248, 48.43825452 ], [ 20.4033913, 48.43843404 ], [ 20.40332954, 48.43846697 ], [ 20.40329589, 48.43848487 ], [ 20.40329407, 48.43849173 ], [ 20.40327303, 48.43856867 ], [ 20.40333786, 48.43869973 ], [ 20.40335041, 48.43880751 ], [ 20.40359051, 48.43893153 ], [ 20.40369622, 48.43894281 ], [ 20.40374393, 48.43906672 ], [ 20.4035943, 48.43922258 ], [ 20.40371632, 48.43929539 ], [ 20.40376886, 48.43919579 ], [ 20.40381111, 48.43915363 ], [ 20.40395611, 48.4392066 ], [ 20.40402208, 48.43926851 ], [ 20.40405341, 48.43934269 ], [ 20.4041284, 48.43930711 ], [ 20.40645538, 48.43820336 ], [ 20.40640943, 48.43817745 ], [ 20.40629284, 48.43813567 ], [ 20.40585549, 48.43797874 ] ], [ [ 20.40240895, 48.43759457 ], [ 20.40230537, 48.43753391 ], [ 20.40235385, 48.43746227 ], [ 20.40242615, 48.437291 ], [ 20.40235425, 48.43726778 ], [ 20.40234631, 48.43721125 ], [ 20.40283686, 48.43733069 ], [ 20.40259887, 48.43749378 ], [ 20.40240895, 48.43759457 ] ] ] } }
]
}
