{
"type": "FeatureCollection",
"name": "gis",
"crs": { "type": "name", "properties": { "name": "urn:ogc:def:crs:OGC:1.3:CRS84" } },
"features": [
{ "type": "Feature", "properties": { "@featureType": "CadastralParcel", "areaValue": { "value": 1222, "@uom": "m2" }, "beginLifespanVersion": { "@nilReason": "http://inspire.ec.europa.eu/codelist/VoidReasonValue/Unpopulated", "@nil": "true" }, "endLifespanVersion": { "@nilReason": "http://inspire.ec.europa.eu/codelist/VoidReasonValue/Unpopulated", "@nil": "true" }, "inspireId": { "@dataType": "Identifier", "localId": "801381_978.C", "namespace": "SK.ESKN.CP", "versionId": "20260703T06:07:38" }, "label": "978", "nationalCadastralReference": "801381_978.C", "referencePoint": { "type": "Point", "coordinates": [ 19.130234, 48.67818691 ] }, "validFrom": "2026-06-30T16:00:00Z", "validTo": { "@nilReason": "http://inspire.ec.europa.eu/codelist/VoidReasonValue/Unpopulated", "@nil": "true" }, "administrativeUnit": { "@href": "#auAdmUnitS.2183" } }, "geometry": { "type": "Polygon", "coordinates": [ [ [ 19.13048732, 48.67821789 ], [ 19.13131922, 48.67825585 ], [ 19.13183592, 48.67824485 ], [ 19.13198081, 48.67825336 ], [ 19.13198131, 48.67824536 ], [ 19.13198229, 48.67823179 ], [ 19.13198289, 48.6782228 ], [ 19.1318692, 48.67821538 ], [ 19.13183783, 48.67821338 ], [ 19.13183695, 48.67822236 ], [ 19.1313318, 48.67821552 ], [ 19.13104523, 48.67820254 ], [ 19.13085025, 48.67819371 ], [ 19.13054768, 48.67818011 ], [ 19.13049524, 48.67817779 ], [ 19.13044781, 48.67817572 ], [ 19.13011648, 48.67816115 ], [ 19.12990589, 48.67815191 ], [ 19.12985155, 48.6781495 ], [ 19.12959976, 48.6781385 ], [ 19.12951236, 48.67813463 ], [ 19.12947606, 48.67813283 ], [ 19.1294116, 48.67812956 ], [ 19.12938629, 48.67812822 ], [ 19.12923963, 48.67812088 ], [ 19.12920753, 48.67811929 ], [ 19.12904354, 48.678111 ], [ 19.12904276, 48.678118 ], [ 19.128979, 48.67811575 ], [ 19.12897596, 48.67815239 ], [ 19.12951275, 48.67817586 ], [ 19.13048732, 48.67821789 ] ] ] } },
{ "type": "Feature", "properties": { "@featureType": "CadastralParcel", "areaValue": { "value": 572, "@uom": "m2" }, "beginLifespanVersion": { "@nilReason": "http://inspire.ec.europa.eu/codelist/VoidReasonValue/Unpopulated", "@nil": "true" }, "endLifespanVersion": { "@nilReason": "http://inspire.ec.europa.eu/codelist/VoidReasonValue/Unpopulated", "@nil": "true" }, "inspireId": { "@dataType": "Identifier", "localId": "801381_979/5.C", "namespace": "SK.ESKN.CP", "versionId": "20260703T06:07:38" }, "label": "979/5", "nationalCadastralReference": "801381_979/5.C", "referencePoint": { "type": "Point", "coordinates": [ 19.13766627, 48.67845981 ] }, "validFrom": "2026-06-30T16:00:00Z", "validTo": { "@nilReason": "http://inspire.ec.europa.eu/codelist/VoidReasonValue/Unpopulated", "@nil": "true" }, "administrativeUnit": { "@href": "#auAdmUnitS.2183" } }, "geometry": { "type": "Polygon", "coordinates": [ [ [ 19.13831875, 48.67850355 ], [ 19.13831963, 48.67849449 ], [ 19.13832333, 48.67845562 ], [ 19.1383242, 48.67844664 ], [ 19.13701262, 48.67842231 ], [ 19.13701188, 48.67843129 ], [ 19.13700929, 48.67846399 ], [ 19.13700887, 48.67846767 ], [ 19.13729026, 48.67847958 ], [ 19.13831875, 48.67850355 ] ] ] } },
{ "type": "Feature", "properties": { "@featureType": "CadastralParcel", "areaValue": { "value": 871, "@uom": "m2" }, "beginLifespanVersion": { "@nilReason": "http://inspire.ec.europa.eu/codelist/VoidReasonValue/Unpopulated", "@nil": "true" }, "endLifespanVersion": { "@nilReason": "http://inspire.ec.europa.eu/codelist/VoidReasonValue/Unpopulated", "@nil": "true" }, "inspireId": { "@dataType": "Identifier", "localId": "801381_979/1.C", "namespace": "SK.ESKN.CP", "versionId": "20260703T06:07:38" }, "label": "979/1", "nationalCadastralReference": "801381_979/1.C", "referencePoint": { "type": "Point", "coordinates": [ 19.13409068, 48.67834877 ] }, "validFrom": "2026-06-30T16:00:00Z", "validTo": { "@nilReason": "http://inspire.ec.europa.eu/codelist/VoidReasonValue/Unpopulated", "@nil": "true" }, "administrativeUnit": { "@href": "#auAdmUnitS.2183" } }, "geometry": { "type": "Polygon", "coordinates": [ [ [ 19.13256553, 48.67828775 ], [ 19.13262635, 48.67829671 ], [ 19.13434014, 48.67837739 ], [ 19.13551373, 48.6784238 ], [ 19.13623207, 48.67844348 ], [ 19.13567038, 48.67841746 ], [ 19.13567263, 48.67839268 ], [ 19.1356735, 48.67838371 ], [ 19.13552761, 48.67837921 ], [ 19.13521592, 48.67836914 ], [ 19.13521518, 48.67837812 ], [ 19.13521351, 48.67839662 ], [ 19.1348342, 48.67837636 ], [ 19.13444822, 48.6783573 ], [ 19.13444868, 48.67835326 ], [ 19.13444955, 48.67834428 ], [ 19.13437655, 48.67834194 ], [ 19.13262353, 48.67826491 ], [ 19.13259544, 48.67826281 ], [ 19.1325679, 48.67826072 ], [ 19.13250124, 48.67825644 ], [ 19.13250049, 48.67826551 ], [ 19.13250007, 48.67827045 ], [ 19.13239805, 48.67826577 ], [ 19.13239737, 48.67827782 ], [ 19.13256553, 48.67828775 ] ] ] } },
{ "type": "Feature", "properties": { "@featureType": "CadastralParcel", "areaValue": { "value": 444, "@uom": "m2" }, "beginLifespanVersion": { "@nilReason": "http://inspire.ec.europa.eu/codelist/VoidReasonValue/Unpopulated", "@nil": "true" }, "endLifespanVersion": { "@nilReason": "http://inspire.ec.europa.eu/codelist/VoidReasonValue/Unpopulated", "@nil": "true" }, "inspireId": { "@dataType": "Identifier", "localId": "801381_979/3.C", "namespace": "SK.ESKN.CP", "versionId": "20260703T06:07:38" }, "label": "979/3", "nationalCadastralReference": "801381_979/3.C", "referencePoint": { "type": "Point", "coordinates": [ 19.13644212, 48.6784268 ] }, "validFrom": "2026-06-30T16:00:00Z", "validTo": { "@nilReason": "http://inspire.ec.europa.eu/codelist/VoidReasonValue/Unpopulated", "@nil": "true" }, "administrativeUnit": { "@href": "#auAdmUnitS.2183" } }, "geometry": { "type": "Polygon", "coordinates": [ [ [ 19.1356735, 48.67838371 ], [ 19.13567263, 48.67839268 ], [ 19.13567038, 48.67841746 ], [ 19.13623207, 48.67844348 ], [ 19.13681573, 48.67845949 ], [ 19.13700887, 48.67846767 ], [ 19.13700929, 48.67846399 ], [ 19.13701188, 48.67843129 ], [ 19.13701262, 48.67842231 ], [ 19.13681026, 48.67841855 ], [ 19.1356735, 48.67838371 ] ] ] } }
]
}
