{
"type": "FeatureCollection",
"name": "gis",
"crs": { "type": "name", "properties": { "name": "urn:ogc:def:crs:OGC:1.3:CRS84" } },
"features": [
{ "type": "Feature", "properties": { "@featureType": "CadastralParcel", "areaValue": { "value": 3778, "@uom": "m2" }, "beginLifespanVersion": { "@nilReason": "http://inspire.ec.europa.eu/codelist/VoidReasonValue/Unpopulated", "@nil": "true" }, "endLifespanVersion": { "@nilReason": "http://inspire.ec.europa.eu/codelist/VoidReasonValue/Unpopulated", "@nil": "true" }, "inspireId": { "@dataType": "Identifier", "localId": "866725_551/42.C", "namespace": "SK.ESKN.CP", "versionId": "20260703T05:07:03" }, "label": "551/42", "nationalCadastralReference": "866725_551/42.C", "referencePoint": { "type": "Point", "coordinates": [ 21.29700933, 48.63871359 ] }, "validFrom": "2026-06-30T16:00:00Z", "validTo": { "@nilReason": "http://inspire.ec.europa.eu/codelist/VoidReasonValue/Unpopulated", "@nil": "true" }, "administrativeUnit": { "@href": "#auAdmUnitS.910" } }, "geometry": { "type": "Polygon", "coordinates": [ [ [ 21.29737855, 48.63847903 ], [ 21.29757605, 48.63811073 ], [ 21.29755657, 48.63810365 ], [ 21.29738035, 48.638032 ], [ 21.29734299, 48.63803788 ], [ 21.29700979, 48.63839437 ], [ 21.29681057, 48.63864495 ], [ 21.29647635, 48.63923639 ], [ 21.29647409, 48.63925316 ], [ 21.29675858, 48.63931715 ], [ 21.29677482, 48.63930432 ], [ 21.29706292, 48.63878223 ], [ 21.29718934, 48.63881608 ], [ 21.29737855, 48.63847903 ] ] ] } },
{ "type": "Feature", "properties": { "@featureType": "CadastralParcel", "areaValue": { "value": 5816, "@uom": "m2" }, "beginLifespanVersion": { "@nilReason": "http://inspire.ec.europa.eu/codelist/VoidReasonValue/Unpopulated", "@nil": "true" }, "endLifespanVersion": { "@nilReason": "http://inspire.ec.europa.eu/codelist/VoidReasonValue/Unpopulated", "@nil": "true" }, "inspireId": { "@dataType": "Identifier", "localId": "866725_551/43.C", "namespace": "SK.ESKN.CP", "versionId": "20260703T05:07:03" }, "label": "551/43", "nationalCadastralReference": "866725_551/43.C", "referencePoint": { "type": "Point", "coordinates": [ 21.29670713, 48.63870002 ] }, "validFrom": "2026-06-30T16:00:00Z", "validTo": { "@nilReason": "http://inspire.ec.europa.eu/codelist/VoidReasonValue/Unpopulated", "@nil": "true" }, "administrativeUnit": { "@href": "#auAdmUnitS.910" } }, "geometry": { "type": "Polygon", "coordinates": [ [ [ 21.29755657, 48.63810365 ], [ 21.29757605, 48.63811073 ], [ 21.29775091, 48.6381746 ], [ 21.29792816, 48.63823936 ], [ 21.29811388, 48.63830716 ], [ 21.29829472, 48.63837311 ], [ 21.29849965, 48.63844798 ], [ 21.29872076, 48.63852866 ], [ 21.29896335, 48.63861684 ], [ 21.29900985, 48.6385303 ], [ 21.29876237, 48.63844017 ], [ 21.2985153, 48.63835014 ], [ 21.2981821, 48.63822885 ], [ 21.29784917, 48.63810757 ], [ 21.29767098, 48.63804269 ], [ 21.29763932, 48.63801751 ], [ 21.29763549, 48.6379848 ], [ 21.2977927, 48.63774824 ], [ 21.29775885, 48.637731 ], [ 21.29769286, 48.63769738 ], [ 21.29747805, 48.63799457 ], [ 21.29739516, 48.63795593 ], [ 21.29702333, 48.63778285 ], [ 21.29697221, 48.63783413 ], [ 21.29726348, 48.63795271 ], [ 21.29723322, 48.63798536 ], [ 21.29705169, 48.63818102 ], [ 21.29689528, 48.63834945 ], [ 21.29675329, 48.63852544 ], [ 21.29669069, 48.63860302 ], [ 21.29660307, 48.6387551 ], [ 21.29649908, 48.63893945 ], [ 21.29643244, 48.63905751 ], [ 21.29635168, 48.63920079 ], [ 21.29617149, 48.63945304 ], [ 21.29611339, 48.63953426 ], [ 21.29642746, 48.63963382 ], [ 21.29650498, 48.63967554 ], [ 21.2965245, 48.63964093 ], [ 21.29656905, 48.63960412 ], [ 21.29688256, 48.63934507 ], [ 21.29714093, 48.63890058 ], [ 21.29777091, 48.63906741 ], [ 21.29789647, 48.63910187 ], [ 21.29801898, 48.63913542 ], [ 21.29817011, 48.63921242 ], [ 21.29822126, 48.63912936 ], [ 21.29810478, 48.63906989 ], [ 21.29806988, 48.63905208 ], [ 21.29783237, 48.63898845 ], [ 21.2978009, 48.63898001 ], [ 21.29718934, 48.63881608 ], [ 21.29706292, 48.63878223 ], [ 21.29677482, 48.63930432 ], [ 21.29675858, 48.63931715 ], [ 21.29647559, 48.6395494 ], [ 21.2962939, 48.6394918 ], [ 21.29647409, 48.63925316 ], [ 21.29647635, 48.63923639 ], [ 21.29681057, 48.63864495 ], [ 21.29700979, 48.63839437 ], [ 21.29734299, 48.63803788 ], [ 21.29738035, 48.638032 ], [ 21.29755657, 48.63810365 ] ] ] } }
]
}
