{
"type": "FeatureCollection",
"name": "gis",
"crs": { "type": "name", "properties": { "name": "urn:ogc:def:crs:OGC:1.3:CRS84" } },
"features": [
{ "type": "Feature", "properties": { "@featureType": "CadastralParcel", "areaValue": { "value": 25787, "@uom": "m2" }, "beginLifespanVersion": { "@nilReason": "http://inspire.ec.europa.eu/codelist/VoidReasonValue/Unpopulated", "@nil": "true" }, "endLifespanVersion": { "@nilReason": "http://inspire.ec.europa.eu/codelist/VoidReasonValue/Unpopulated", "@nil": "true" }, "inspireId": { "@dataType": "Identifier", "localId": "821527_599.C", "namespace": "SK.ESKN.CP", "versionId": "20260703T06:07:36" }, "label": "599", "nationalCadastralReference": "821527_599.C", "referencePoint": { "type": "Point", "coordinates": [ 21.95980678, 48.55177111 ] }, "validFrom": "2026-06-30T16:00:00Z", "validTo": { "@nilReason": "http://inspire.ec.europa.eu/codelist/VoidReasonValue/Unpopulated", "@nil": "true" }, "administrativeUnit": { "@href": "#auAdmUnitS.1158" } }, "geometry": { "type": "Polygon", "coordinates": [ [ [ 21.96202462, 48.55212407 ], [ 21.96426193, 48.55266508 ], [ 21.96436423, 48.55269228 ], [ 21.96448912, 48.55272535 ], [ 21.96877187, 48.55375512 ], [ 21.97045758, 48.55415596 ], [ 21.97044811, 48.55413646 ], [ 21.97042357, 48.55408582 ], [ 21.97077548, 48.55418013 ], [ 21.970755, 48.55420932 ], [ 21.97074543, 48.55422277 ], [ 21.97119588, 48.55432952 ], [ 21.97127869, 48.55434912 ], [ 21.97128757, 48.55433584 ], [ 21.97130414, 48.55431123 ], [ 21.97134648, 48.55432722 ], [ 21.97133332, 48.5543467 ], [ 21.97132431, 48.55435988 ], [ 21.97134933, 48.55436572 ], [ 21.97194022, 48.55450412 ], [ 21.97189286, 48.55446875 ], [ 21.97170989, 48.55435711 ], [ 21.97165127, 48.5543292 ], [ 21.97139536, 48.55424411 ], [ 21.97136312, 48.55423152 ], [ 21.97100043, 48.55413846 ], [ 21.96961297, 48.55381929 ], [ 21.96814774, 48.55347098 ], [ 21.96700596, 48.55318794 ], [ 21.96618859, 48.55299393 ], [ 21.96484741, 48.55266541 ], [ 21.964234, 48.55250886 ], [ 21.96403407, 48.55246276 ], [ 21.96361789, 48.55236665 ], [ 21.96291745, 48.55220073 ], [ 21.96204366, 48.55199809 ], [ 21.96041424, 48.55178393 ], [ 21.96021898, 48.55175828 ], [ 21.95964024, 48.55168447 ], [ 21.9587059, 48.5515703 ], [ 21.95742433, 48.55141147 ], [ 21.95452776, 48.55104585 ], [ 21.95315276, 48.55076585 ], [ 21.95231053, 48.55067732 ], [ 21.95152664, 48.55063345 ], [ 21.95149476, 48.55063625 ], [ 21.95149273, 48.5506362 ], [ 21.95147997, 48.55063651 ], [ 21.94951493, 48.55077939 ], [ 21.94927755, 48.55075816 ], [ 21.94914281, 48.55067199 ], [ 21.9486922, 48.55015583 ], [ 21.94850611, 48.54992348 ], [ 21.94794425, 48.54926594 ], [ 21.94764288, 48.54903466 ], [ 21.94760422, 48.5490733 ], [ 21.94756295, 48.5491151 ], [ 21.94809674, 48.54956711 ], [ 21.94851664, 48.5500987 ], [ 21.94865192, 48.55027821 ], [ 21.94907099, 48.55072186 ], [ 21.94934552, 48.55085292 ], [ 21.9493513, 48.55089446 ], [ 21.94954577, 48.55090742 ], [ 21.95145353, 48.55075618 ], [ 21.95223009, 48.55078367 ], [ 21.95312496, 48.55087621 ], [ 21.95436149, 48.55113566 ], [ 21.95624984, 48.55138256 ], [ 21.95752647, 48.5515519 ], [ 21.95765575, 48.55156709 ], [ 21.95974364, 48.55182664 ], [ 21.96202462, 48.55212407 ] ] ] } },
{ "type": "Feature", "properties": { "@featureType": "CadastralParcel", "areaValue": { "value": 9038, "@uom": "m2" }, "beginLifespanVersion": { "@nilReason": "http://inspire.ec.europa.eu/codelist/VoidReasonValue/Unpopulated", "@nil": "true" }, "endLifespanVersion": { "@nilReason": "http://inspire.ec.europa.eu/codelist/VoidReasonValue/Unpopulated", "@nil": "true" }, "inspireId": { "@dataType": "Identifier", "localId": "821527_604/1.C", "namespace": "SK.ESKN.CP", "versionId": "20260703T06:07:36" }, "label": "604/1", "nationalCadastralReference": "821527_604/1.C", "referencePoint": { "type": "Point", "coordinates": [ 21.94959872, 48.55358499 ] }, "validFrom": "2026-06-30T16:00:00Z", "validTo": { "@nilReason": "http://inspire.ec.europa.eu/codelist/VoidReasonValue/Unpopulated", "@nil": "true" }, "administrativeUnit": { "@href": "#auAdmUnitS.1158" } }, "geometry": { "type": "Polygon", "coordinates": [ [ [ 21.951898, 48.55619603 ], [ 21.95218752, 48.55616132 ], [ 21.95224577, 48.55595623 ], [ 21.95120527, 48.5558506 ], [ 21.95072992, 48.5556095 ], [ 21.95046718, 48.5553369 ], [ 21.95003736, 48.5548309 ], [ 21.94993128, 48.55458813 ], [ 21.94976272, 48.55395293 ], [ 21.94973702, 48.5537821 ], [ 21.94959236, 48.55299792 ], [ 21.94958489, 48.55295273 ], [ 21.94944457, 48.55230492 ], [ 21.94944496, 48.55181984 ], [ 21.94947893, 48.55139292 ], [ 21.94954577, 48.55090742 ], [ 21.9493513, 48.55089446 ], [ 21.94938413, 48.55118328 ], [ 21.94928458, 48.55177713 ], [ 21.94921951, 48.55229588 ], [ 21.94929476, 48.55278573 ], [ 21.94944079, 48.55338788 ], [ 21.94957267, 48.55385206 ], [ 21.94960943, 48.55411956 ], [ 21.94971649, 48.55442391 ], [ 21.94980541, 48.55468245 ], [ 21.94997718, 48.55494063 ], [ 21.9504619, 48.55558786 ], [ 21.95087358, 48.55591413 ], [ 21.95105418, 48.55580867 ], [ 21.95124341, 48.55589286 ], [ 21.9513653, 48.55592623 ], [ 21.95206246, 48.55604984 ], [ 21.95190339, 48.55608412 ], [ 21.95176748, 48.55613319 ], [ 21.95165812, 48.55618491 ], [ 21.95184872, 48.55627616 ], [ 21.951898, 48.55619603 ] ] ] } },
{ "type": "Feature", "properties": { "@featureType": "CadastralParcel", "areaValue": { "value": 66258, "@uom": "m2" }, "beginLifespanVersion": { "@nilReason": "http://inspire.ec.europa.eu/codelist/VoidReasonValue/Unpopulated", "@nil": "true" }, "endLifespanVersion": { "@nilReason": "http://inspire.ec.europa.eu/codelist/VoidReasonValue/Unpopulated", "@nil": "true" }, "inspireId": { "@dataType": "Identifier", "localId": "821527_292/8.C", "namespace": "SK.ESKN.CP", "versionId": "20260703T06:07:36" }, "label": "292/8", "nationalCadastralReference": "821527_292/8.C", "referencePoint": { "type": "Point", "coordinates": [ 21.93517388, 48.55754855 ] }, "validFrom": "2026-06-30T16:00:00Z", "validTo": { "@nilReason": "http://inspire.ec.europa.eu/codelist/VoidReasonValue/Unpopulated", "@nil": "true" }, "administrativeUnit": { "@href": "#auAdmUnitS.1158" } }, "geometry": { "type": "Polygon", "coordinates": [ [ [ 21.93405772, 48.55800425 ], [ 21.93294011, 48.55925273 ], [ 21.93320529, 48.55940528 ], [ 21.93333243, 48.55947957 ], [ 21.93360784, 48.55964309 ], [ 21.93386184, 48.55979203 ], [ 21.93396031, 48.55984851 ], [ 21.93430695, 48.56004667 ], [ 21.93490431, 48.56042554 ], [ 21.9351188, 48.56056358 ], [ 21.93581022, 48.56099314 ], [ 21.93646498, 48.56128345 ], [ 21.93663045, 48.56142539 ], [ 21.93672322, 48.5615035 ], [ 21.93714899, 48.56104844 ], [ 21.93485071, 48.56008849 ], [ 21.93482824, 48.55985942 ], [ 21.93548916, 48.55859919 ], [ 21.93569705, 48.55731822 ], [ 21.9365213, 48.55692897 ], [ 21.93672277, 48.55650527 ], [ 21.93651663, 48.55613739 ], [ 21.93664595, 48.55573537 ], [ 21.93701154, 48.55517449 ], [ 21.93777426, 48.55474129 ], [ 21.93840519, 48.5548797 ], [ 21.93924573, 48.55507511 ], [ 21.94065316, 48.553782 ], [ 21.94028106, 48.55363839 ], [ 21.93967677, 48.55436151 ], [ 21.93925073, 48.55460364 ], [ 21.93870198, 48.55452426 ], [ 21.93838147, 48.55453422 ], [ 21.9383088, 48.55425799 ], [ 21.9382425, 48.55404132 ], [ 21.9380957, 48.55373848 ], [ 21.93802784, 48.55367323 ], [ 21.93781003, 48.55395343 ], [ 21.93773505, 48.55405595 ], [ 21.93741176, 48.55447416 ], [ 21.93729116, 48.55464223 ], [ 21.93712268, 48.55485364 ], [ 21.93700316, 48.55502164 ], [ 21.93682116, 48.55526556 ], [ 21.936758, 48.55534857 ], [ 21.93667224, 48.55544992 ], [ 21.93650337, 48.55567032 ], [ 21.93608538, 48.55619902 ], [ 21.93605588, 48.55628135 ], [ 21.93550195, 48.5572208 ], [ 21.93516888, 48.5572128 ], [ 21.93514564, 48.55724237 ], [ 21.93434389, 48.55777888 ], [ 21.93405772, 48.55800425 ] ], [ [ 21.93504025, 48.56050248 ], [ 21.9351523, 48.56042547 ], [ 21.93517534, 48.5604399 ], [ 21.93521029, 48.56046184 ], [ 21.93525074, 48.56048716 ], [ 21.93514149, 48.5605628 ], [ 21.93504025, 48.56050248 ] ], [ [ 21.9367147, 48.56115787 ], [ 21.93661653, 48.56108655 ], [ 21.93671615, 48.56102776 ], [ 21.9368137, 48.56110041 ], [ 21.9367147, 48.56115787 ] ] ] } },
{ "type": "Feature", "properties": { "@featureType": "CadastralParcel", "areaValue": { "value": 1228, "@uom": "m2" }, "beginLifespanVersion": { "@nilReason": "http://inspire.ec.europa.eu/codelist/VoidReasonValue/Unpopulated", "@nil": "true" }, "endLifespanVersion": { "@nilReason": "http://inspire.ec.europa.eu/codelist/VoidReasonValue/Unpopulated", "@nil": "true" }, "inspireId": { "@dataType": "Identifier", "localId": "821527_292/10.C", "namespace": "SK.ESKN.CP", "versionId": "20260703T06:07:36" }, "label": "292/10", "nationalCadastralReference": "821527_292/10.C", "referencePoint": { "type": "Point", "coordinates": [ 21.93821657, 48.56025531 ] }, "validFrom": "2026-06-30T16:00:00Z", "validTo": { "@nilReason": "http://inspire.ec.europa.eu/codelist/VoidReasonValue/Unpopulated", "@nil": "true" }, "administrativeUnit": { "@href": "#auAdmUnitS.1158" } }, "geometry": { "type": "Polygon", "coordinates": [ [ [ 21.93846764, 48.56051614 ], [ 21.93869462, 48.56048259 ], [ 21.93869394, 48.56040401 ], [ 21.93810765, 48.56010661 ], [ 21.93792526, 48.5600691 ], [ 21.93775373, 48.56008837 ], [ 21.93846764, 48.56051614 ] ] ] } }
]
}
