{
"type": "FeatureCollection",
"name": "gis",
"crs": { "type": "name", "properties": { "name": "urn:ogc:def:crs:OGC:1.3:CRS84" } },
"features": [
{ "type": "Feature", "properties": { "@featureType": "CadastralParcel", "areaValue": { "value": 859, "@uom": "m2" }, "beginLifespanVersion": { "@nilReason": "http://inspire.ec.europa.eu/codelist/VoidReasonValue/Unpopulated", "@nil": "true" }, "endLifespanVersion": { "@nilReason": "http://inspire.ec.europa.eu/codelist/VoidReasonValue/Unpopulated", "@nil": "true" }, "inspireId": { "@dataType": "Identifier", "localId": "867471_666.C", "namespace": "SK.ESKN.CP", "versionId": "20260703T07:07:10" }, "label": "666", "nationalCadastralReference": "867471_666.C", "referencePoint": { "type": "Point", "coordinates": [ 19.38276531, 49.35189557 ] }, "validFrom": "2026-06-30T16:00:00Z", "validTo": { "@nilReason": "http://inspire.ec.europa.eu/codelist/VoidReasonValue/Unpopulated", "@nil": "true" }, "administrativeUnit": { "@href": "#auAdmUnitS.1905" } }, "geometry": { "type": "Polygon", "coordinates": [ [ [ 19.38316781, 49.35233334 ], [ 19.38320057, 49.35230881 ], [ 19.38322242, 49.35227927 ], [ 19.38322963, 49.35224986 ], [ 19.38322223, 49.35221904 ], [ 19.38320684, 49.3521957 ], [ 19.38318935, 49.35218019 ], [ 19.38301767, 49.35207159 ], [ 19.3828572, 49.35194621 ], [ 19.38270879, 49.35183184 ], [ 19.38253697, 49.35169538 ], [ 19.38239931, 49.35158999 ], [ 19.38226002, 49.35148425 ], [ 19.38210818, 49.35136459 ], [ 19.3819624, 49.35125269 ], [ 19.38179948, 49.35113467 ], [ 19.38156625, 49.35101104 ], [ 19.38151581, 49.35099399 ], [ 19.38146669, 49.35098891 ], [ 19.38141601, 49.35099304 ], [ 19.38137094, 49.35100771 ], [ 19.38141602, 49.350998 ], [ 19.38146696, 49.35099902 ], [ 19.38151117, 49.35101496 ], [ 19.38154076, 49.35103085 ], [ 19.38171997, 49.35112601 ], [ 19.38177254, 49.35115388 ], [ 19.38192656, 49.35126625 ], [ 19.38193141, 49.35126982 ], [ 19.38207664, 49.35138178 ], [ 19.38211744, 49.35141379 ], [ 19.38222967, 49.35150186 ], [ 19.38230375, 49.35155769 ], [ 19.38236763, 49.35160592 ], [ 19.38250143, 49.35171005 ], [ 19.38250461, 49.35171254 ], [ 19.38267424, 49.35184493 ], [ 19.38282594, 49.35196332 ], [ 19.38284374, 49.35197731 ], [ 19.38298674, 49.35208945 ], [ 19.38303044, 49.35211645 ], [ 19.38316168, 49.35219729 ], [ 19.38318395, 49.35222582 ], [ 19.38318974, 49.35225756 ], [ 19.38317322, 49.35228879 ], [ 19.38314129, 49.35231326 ], [ 19.38279443, 49.3524683 ], [ 19.38256769, 49.35256961 ], [ 19.3823553, 49.35266456 ], [ 19.38209708, 49.35277991 ], [ 19.38206723, 49.35278916 ], [ 19.38202023, 49.35279121 ], [ 19.38197398, 49.35278256 ], [ 19.38198, 49.35278555 ], [ 19.38203086, 49.35279873 ], [ 19.38208144, 49.35280064 ], [ 19.38212729, 49.35279394 ], [ 19.38216076, 49.35278315 ], [ 19.38316781, 49.35233334 ] ] ] } },
{ "type": "Feature", "properties": { "@featureType": "CadastralParcel", "areaValue": { "value": 903, "@uom": "m2" }, "beginLifespanVersion": { "@nilReason": "http://inspire.ec.europa.eu/codelist/VoidReasonValue/Unpopulated", "@nil": "true" }, "endLifespanVersion": { "@nilReason": "http://inspire.ec.europa.eu/codelist/VoidReasonValue/Unpopulated", "@nil": "true" }, "inspireId": { "@dataType": "Identifier", "localId": "867471_664.C", "namespace": "SK.ESKN.CP", "versionId": "20260703T07:07:10" }, "label": "664", "nationalCadastralReference": "867471_664.C", "referencePoint": { "type": "Point", "coordinates": [ 19.38137825, 49.35231703 ] }, "validFrom": "2026-06-30T16:00:00Z", "validTo": { "@nilReason": "http://inspire.ec.europa.eu/codelist/VoidReasonValue/Unpopulated", "@nil": "true" }, "administrativeUnit": { "@href": "#auAdmUnitS.1905" } }, "geometry": { "type": "Polygon", "coordinates": [ [ [ 19.38188, 49.3527826 ], [ 19.38189934, 49.35280892 ], [ 19.38190542, 49.35284049 ], [ 19.38189829, 49.35287297 ], [ 19.38187435, 49.35290259 ], [ 19.38183843, 49.35292706 ], [ 19.38216076, 49.35278315 ], [ 19.38212729, 49.35279394 ], [ 19.38208144, 49.35280064 ], [ 19.38203086, 49.35279873 ], [ 19.38198, 49.35278555 ], [ 19.38197398, 49.35278256 ], [ 19.38193627, 49.35276395 ], [ 19.38183182, 49.35267407 ], [ 19.38165788, 49.35252417 ], [ 19.38149831, 49.35238684 ], [ 19.38133609, 49.35224722 ], [ 19.38124452, 49.35216831 ], [ 19.38121526, 49.35214315 ], [ 19.38115193, 49.35208864 ], [ 19.38097836, 49.35193929 ], [ 19.38080013, 49.35178585 ], [ 19.38068597, 49.35168759 ], [ 19.38067019, 49.35166153 ], [ 19.38066901, 49.35163181 ], [ 19.38068214, 49.35160385 ], [ 19.38064056, 49.35164347 ], [ 19.3804798, 49.35184061 ], [ 19.38053048, 49.35179727 ], [ 19.38056922, 49.35178249 ], [ 19.38062472, 49.35177462 ], [ 19.3806841, 49.35178054 ], [ 19.38073128, 49.35179707 ], [ 19.3807546, 49.35181357 ], [ 19.38188, 49.3527826 ] ] ] } },
{ "type": "Feature", "properties": { "@featureType": "CadastralParcel", "areaValue": { "value": 771, "@uom": "m2" }, "beginLifespanVersion": { "@nilReason": "http://inspire.ec.europa.eu/codelist/VoidReasonValue/Unpopulated", "@nil": "true" }, "endLifespanVersion": { "@nilReason": "http://inspire.ec.europa.eu/codelist/VoidReasonValue/Unpopulated", "@nil": "true" }, "inspireId": { "@dataType": "Identifier", "localId": "867471_663.C", "namespace": "SK.ESKN.CP", "versionId": "20260703T07:07:10" }, "label": "663", "nationalCadastralReference": "867471_663.C", "referencePoint": { "type": "Point", "coordinates": [ 19.38230077, 49.35274388 ] }, "validFrom": "2026-06-30T16:00:00Z", "validTo": { "@nilReason": "http://inspire.ec.europa.eu/codelist/VoidReasonValue/Unpopulated", "@nil": "true" }, "administrativeUnit": { "@href": "#auAdmUnitS.1905" } }, "geometry": { "type": "Polygon", "coordinates": [ [ [ 19.38138029, 49.35317724 ], [ 19.38149851, 49.35312461 ], [ 19.38166649, 49.35304968 ], [ 19.38194339, 49.35292627 ], [ 19.38218852, 49.35281707 ], [ 19.38244104, 49.35270461 ], [ 19.38267573, 49.35260006 ], [ 19.38290811, 49.3524964 ], [ 19.38332541, 49.35231048 ], [ 19.38341606, 49.35227008 ], [ 19.38337902, 49.35223896 ], [ 19.38316781, 49.35233334 ], [ 19.38216076, 49.35278315 ], [ 19.38183843, 49.35292706 ], [ 19.38134335, 49.35314532 ], [ 19.38138029, 49.35317724 ] ] ] } },
{ "type": "Feature", "properties": { "@featureType": "CadastralParcel", "areaValue": { "value": 124, "@uom": "m2" }, "beginLifespanVersion": { "@nilReason": "http://inspire.ec.europa.eu/codelist/VoidReasonValue/Unpopulated", "@nil": "true" }, "endLifespanVersion": { "@nilReason": "http://inspire.ec.europa.eu/codelist/VoidReasonValue/Unpopulated", "@nil": "true" }, "inspireId": { "@dataType": "Identifier", "localId": "867471_661.C", "namespace": "SK.ESKN.CP", "versionId": "20260703T07:07:10" }, "label": "661", "nationalCadastralReference": "867471_661.C", "referencePoint": { "type": "Point", "coordinates": [ 19.38362178, 49.35211419 ] }, "validFrom": "2026-06-30T16:00:00Z", "validTo": { "@nilReason": "http://inspire.ec.europa.eu/codelist/VoidReasonValue/Unpopulated", "@nil": "true" }, "administrativeUnit": { "@href": "#auAdmUnitS.1905" } }, "geometry": { "type": "Polygon", "coordinates": [ [ [ 19.38381697, 49.35204337 ], [ 19.38385442, 49.35200617 ], [ 19.38381185, 49.35195749 ], [ 19.38382024, 49.35197798 ], [ 19.38381422, 49.35200024 ], [ 19.38379504, 49.35202044 ], [ 19.38342658, 49.35218502 ], [ 19.38338106, 49.35219876 ], [ 19.383334, 49.35219883 ], [ 19.38332997, 49.35219783 ], [ 19.38333718, 49.35220384 ], [ 19.38338031, 49.35221072 ], [ 19.38342699, 49.35220784 ], [ 19.38347157, 49.35219766 ], [ 19.38381697, 49.35204337 ] ] ] } },
{ "type": "Feature", "properties": { "@featureType": "CadastralParcel", "areaValue": { "value": 14, "@uom": "m2" }, "beginLifespanVersion": { "@nilReason": "http://inspire.ec.europa.eu/codelist/VoidReasonValue/Unpopulated", "@nil": "true" }, "endLifespanVersion": { "@nilReason": "http://inspire.ec.europa.eu/codelist/VoidReasonValue/Unpopulated", "@nil": "true" }, "inspireId": { "@dataType": "Identifier", "localId": "867471_660.C", "namespace": "SK.ESKN.CP", "versionId": "20260703T07:07:10" }, "label": "660", "nationalCadastralReference": "867471_660.C", "referencePoint": { "type": "Point", "coordinates": [ 19.38338644, 49.35222484 ] }, "validFrom": "2026-06-30T16:00:00Z", "validTo": { "@nilReason": "http://inspire.ec.europa.eu/codelist/VoidReasonValue/Unpopulated", "@nil": "true" }, "administrativeUnit": { "@href": "#auAdmUnitS.1905" } }, "geometry": { "type": "Polygon", "coordinates": [ [ [ 19.38344763, 49.35220835 ], [ 19.38347157, 49.35219766 ], [ 19.38342699, 49.35220784 ], [ 19.38338031, 49.35221072 ], [ 19.38333718, 49.35220384 ], [ 19.38337902, 49.35223896 ], [ 19.38344763, 49.35220835 ] ] ] } },
{ "type": "Feature", "properties": { "@featureType": "CadastralParcel", "areaValue": { "value": 197, "@uom": "m2" }, "beginLifespanVersion": { "@nilReason": "http://inspire.ec.europa.eu/codelist/VoidReasonValue/Unpopulated", "@nil": "true" }, "endLifespanVersion": { "@nilReason": "http://inspire.ec.europa.eu/codelist/VoidReasonValue/Unpopulated", "@nil": "true" }, "inspireId": { "@dataType": "Identifier", "localId": "867471_659.C", "namespace": "SK.ESKN.CP", "versionId": "20260703T07:07:10" }, "label": "659", "nationalCadastralReference": "867471_659.C", "referencePoint": { "type": "Point", "coordinates": [ 19.38365722, 49.35213865 ] }, "validFrom": "2026-06-30T16:00:00Z", "validTo": { "@nilReason": "http://inspire.ec.europa.eu/codelist/VoidReasonValue/Unpopulated", "@nil": "true" }, "administrativeUnit": { "@href": "#auAdmUnitS.1905" } }, "geometry": { "type": "Polygon", "coordinates": [ [ [ 19.38384309, 49.35207965 ], [ 19.383875, 49.35207176 ], [ 19.38391212, 49.35207177 ], [ 19.38393016, 49.35207586 ], [ 19.38388141, 49.35203708 ], [ 19.38385442, 49.35200617 ], [ 19.38381697, 49.35204337 ], [ 19.38347157, 49.35219766 ], [ 19.38344763, 49.35220835 ], [ 19.38337902, 49.35223896 ], [ 19.38341606, 49.35227008 ], [ 19.38384309, 49.35207965 ] ] ] } },
{ "type": "Feature", "properties": { "@featureType": "CadastralParcel", "areaValue": { "value": 2565, "@uom": "m2" }, "beginLifespanVersion": { "@nilReason": "http://inspire.ec.europa.eu/codelist/VoidReasonValue/Unpopulated", "@nil": "true" }, "endLifespanVersion": { "@nilReason": "http://inspire.ec.europa.eu/codelist/VoidReasonValue/Unpopulated", "@nil": "true" }, "inspireId": { "@dataType": "Identifier", "localId": "867471_561.C", "namespace": "SK.ESKN.CP", "versionId": "20260703T07:07:10" }, "label": "561", "nationalCadastralReference": "867471_561.C", "referencePoint": { "type": "Point", "coordinates": [ 19.38348946, 49.35158026 ] }, "validFrom": "2026-06-30T16:00:00Z", "validTo": { "@nilReason": "http://inspire.ec.europa.eu/codelist/VoidReasonValue/Unpopulated", "@nil": "true" }, "administrativeUnit": { "@href": "#auAdmUnitS.1905" } }, "geometry": { "type": "Polygon", "coordinates": [ [ [ 19.38385442, 49.35200617 ], [ 19.38388141, 49.35203708 ], [ 19.38393016, 49.35207586 ], [ 19.38402702, 49.35215312 ], [ 19.38407033, 49.35219002 ], [ 19.38413258, 49.35224304 ], [ 19.38429307, 49.35239601 ], [ 19.38436998, 49.3524626 ], [ 19.38442239, 49.35251092 ], [ 19.38445057, 49.35254226 ], [ 19.38461773, 49.3527278 ], [ 19.38470058, 49.3526792 ], [ 19.38456185, 49.3525304 ], [ 19.38453294, 49.35249939 ], [ 19.38446062, 49.35244257 ], [ 19.38436027, 49.35235686 ], [ 19.38435647, 49.35235371 ], [ 19.38431215, 49.3523109 ], [ 19.38430716, 49.35230607 ], [ 19.38420716, 49.35221081 ], [ 19.38416441, 49.35217006 ], [ 19.38419022, 49.35215864 ], [ 19.3841758, 49.35214535 ], [ 19.38414681, 49.35211885 ], [ 19.38406538, 49.35204438 ], [ 19.38399906, 49.35198829 ], [ 19.38379505, 49.35181554 ], [ 19.38382493, 49.35179836 ], [ 19.38374625, 49.35175945 ], [ 19.38373542, 49.35176507 ], [ 19.38364908, 49.35167992 ], [ 19.38350826, 49.35153139 ], [ 19.38350321, 49.3515334 ], [ 19.38333499, 49.35137034 ], [ 19.38322652, 49.35128569 ], [ 19.38317153, 49.35123193 ], [ 19.38310576, 49.35117712 ], [ 19.38307574, 49.3511512 ], [ 19.38299171, 49.35107914 ], [ 19.3829372, 49.35103234 ], [ 19.38290831, 49.35100746 ], [ 19.38274327, 49.35087979 ], [ 19.38270068, 49.350844 ], [ 19.38264316, 49.35079571 ], [ 19.3826146, 49.35077167 ], [ 19.38252347, 49.35069503 ], [ 19.3824282, 49.35060198 ], [ 19.38241612, 49.35059132 ], [ 19.38246543, 49.35056306 ], [ 19.38235167, 49.35049277 ], [ 19.38238987, 49.35046642 ], [ 19.38236982, 49.35045043 ], [ 19.38223616, 49.35043727 ], [ 19.38221107, 49.35043835 ], [ 19.38218168, 49.3504396 ], [ 19.38219211, 49.35044892 ], [ 19.38210422, 49.35048431 ], [ 19.38220681, 49.3505191 ], [ 19.38230995, 49.35061712 ], [ 19.38236017, 49.3506602 ], [ 19.38250156, 49.350782 ], [ 19.38264296, 49.35090379 ], [ 19.38278434, 49.35102567 ], [ 19.3828391, 49.35107266 ], [ 19.38292474, 49.35114651 ], [ 19.38305227, 49.35126135 ], [ 19.38308923, 49.35129192 ], [ 19.38313519, 49.35133228 ], [ 19.38318451, 49.35137478 ], [ 19.38326364, 49.35143994 ], [ 19.38334943, 49.35151362 ], [ 19.38339935, 49.35155823 ], [ 19.38344932, 49.35160229 ], [ 19.38349301, 49.35164074 ], [ 19.38353212, 49.35169584 ], [ 19.38361124, 49.35177254 ], [ 19.38363697, 49.35179979 ], [ 19.38365476, 49.35181757 ], [ 19.3836942, 49.35185195 ], [ 19.38374487, 49.35189596 ], [ 19.38379603, 49.35193935 ], [ 19.38381185, 49.35195749 ], [ 19.38385442, 49.35200617 ] ] ] } },
{ "type": "Feature", "properties": { "@featureType": "CadastralParcel", "areaValue": { "value": 1003, "@uom": "m2" }, "beginLifespanVersion": { "@nilReason": "http://inspire.ec.europa.eu/codelist/VoidReasonValue/Unpopulated", "@nil": "true" }, "endLifespanVersion": { "@nilReason": "http://inspire.ec.europa.eu/codelist/VoidReasonValue/Unpopulated", "@nil": "true" }, "inspireId": { "@dataType": "Identifier", "localId": "867471_667.C", "namespace": "SK.ESKN.CP", "versionId": "20260703T07:07:10" }, "label": "667", "nationalCadastralReference": "867471_667.C", "referencePoint": { "type": "Point", "coordinates": [ 19.38249235, 49.35163033 ] }, "validFrom": "2026-06-30T16:00:00Z", "validTo": { "@nilReason": "http://inspire.ec.europa.eu/codelist/VoidReasonValue/Unpopulated", "@nil": "true" }, "administrativeUnit": { "@href": "#auAdmUnitS.1905" } }, "geometry": { "type": "Polygon", "coordinates": [ [ [ 19.3828572, 49.35194621 ], [ 19.38301767, 49.35207159 ], [ 19.38318935, 49.35218019 ], [ 19.38320684, 49.3521957 ], [ 19.38322223, 49.35221904 ], [ 19.38322963, 49.35224986 ], [ 19.38322242, 49.35227927 ], [ 19.38320057, 49.35230881 ], [ 19.38316781, 49.35233334 ], [ 19.38337902, 49.35223896 ], [ 19.38333718, 49.35220384 ], [ 19.38332999, 49.3522027 ], [ 19.38328915, 49.35218745 ], [ 19.38320883, 49.35213188 ], [ 19.38313152, 49.35208546 ], [ 19.38310432, 49.35206914 ], [ 19.38306522, 49.35204559 ], [ 19.38290824, 49.35192362 ], [ 19.38279423, 49.35183537 ], [ 19.38275823, 49.35180746 ], [ 19.38258507, 49.35167067 ], [ 19.3824453, 49.35156302 ], [ 19.38230895, 49.35145949 ], [ 19.38215789, 49.35134031 ], [ 19.38200585, 49.3512237 ], [ 19.38190924, 49.3511506 ], [ 19.38184736, 49.35110815 ], [ 19.38166238, 49.35101019 ], [ 19.38163043, 49.3509932 ], [ 19.38160098, 49.35097723 ], [ 19.38157504, 49.350957 ], [ 19.38155812, 49.3509325 ], [ 19.38155566, 49.3509057 ], [ 19.38156627, 49.35088059 ], [ 19.38134447, 49.35102135 ], [ 19.38137094, 49.35100771 ], [ 19.38141601, 49.35099304 ], [ 19.38146669, 49.35098891 ], [ 19.38151581, 49.35099399 ], [ 19.38156625, 49.35101104 ], [ 19.38179948, 49.35113467 ], [ 19.3819624, 49.35125269 ], [ 19.38210818, 49.35136459 ], [ 19.38226002, 49.35148425 ], [ 19.38239931, 49.35158999 ], [ 19.38253697, 49.35169538 ], [ 19.38270879, 49.35183184 ], [ 19.3828572, 49.35194621 ] ] ] } }
]
}
