{
"type": "FeatureCollection",
"name": "gis",
"crs": { "type": "name", "properties": { "name": "urn:ogc:def:crs:OGC:1.3:CRS84" } },
"features": [
{ "type": "Feature", "properties": { "@featureType": "CadastralParcel", "areaValue": { "value": 209, "@uom": "m2" }, "beginLifespanVersion": { "@nilReason": "http://inspire.ec.europa.eu/codelist/VoidReasonValue/Unpopulated", "@nil": "true" }, "endLifespanVersion": { "@nilReason": "http://inspire.ec.europa.eu/codelist/VoidReasonValue/Unpopulated", "@nil": "true" }, "inspireId": { "@dataType": "Identifier", "localId": "840319_4835/42.C", "namespace": "SK.ESKN.CP", "versionId": "20260703T04:07:18" }, "label": "4835/42", "nationalCadastralReference": "840319_4835/42.C", "referencePoint": { "type": "Point", "coordinates": [ 18.07923311, 48.33399317 ] }, "validFrom": "2026-06-30T16:00:00Z", "validTo": { "@nilReason": "http://inspire.ec.europa.eu/codelist/VoidReasonValue/Unpopulated", "@nil": "true" }, "administrativeUnit": { "@href": "#auAdmUnitS.1810" } }, "geometry": { "type": "Polygon", "coordinates": [ [ [ 18.07935847, 48.33405633 ], [ 18.07933534, 48.33403573 ], [ 18.07932328, 48.33402455 ], [ 18.07931444, 48.33400344 ], [ 18.07932285, 48.3339829 ], [ 18.07933526, 48.33397307 ], [ 18.07925204, 48.33389511 ], [ 18.07911282, 48.33396364 ], [ 18.0792754, 48.33410172 ], [ 18.07935847, 48.33405633 ] ] ] } },
{ "type": "Feature", "properties": { "@featureType": "CadastralParcel", "areaValue": { "value": 256, "@uom": "m2" }, "beginLifespanVersion": { "@nilReason": "http://inspire.ec.europa.eu/codelist/VoidReasonValue/Unpopulated", "@nil": "true" }, "endLifespanVersion": { "@nilReason": "http://inspire.ec.europa.eu/codelist/VoidReasonValue/Unpopulated", "@nil": "true" }, "inspireId": { "@dataType": "Identifier", "localId": "840319_4832/12.C", "namespace": "SK.ESKN.CP", "versionId": "20260703T04:07:18" }, "label": "4832/12", "nationalCadastralReference": "840319_4832/12.C", "referencePoint": { "type": "Point", "coordinates": [ 18.07915212, 48.33403268 ] }, "validFrom": "2026-06-30T16:00:00Z", "validTo": { "@nilReason": "http://inspire.ec.europa.eu/codelist/VoidReasonValue/Unpopulated", "@nil": "true" }, "administrativeUnit": { "@href": "#auAdmUnitS.1810" } }, "geometry": { "type": "Polygon", "coordinates": [ [ [ 18.0792754, 48.33410172 ], [ 18.07911282, 48.33396364 ], [ 18.07925204, 48.33389511 ], [ 18.07921533, 48.33386053 ], [ 18.07907452, 48.33392978 ], [ 18.07895267, 48.33382562 ], [ 18.07889763, 48.33385668 ], [ 18.07922605, 48.33412869 ], [ 18.0792754, 48.33410172 ] ] ] } },
{ "type": "Feature", "properties": { "@featureType": "CadastralParcel", "areaValue": { "value": 10, "@uom": "m2" }, "beginLifespanVersion": { "@nilReason": "http://inspire.ec.europa.eu/codelist/VoidReasonValue/Unpopulated", "@nil": "true" }, "endLifespanVersion": { "@nilReason": "http://inspire.ec.europa.eu/codelist/VoidReasonValue/Unpopulated", "@nil": "true" }, "inspireId": { "@dataType": "Identifier", "localId": "840319_4829/26.C", "namespace": "SK.ESKN.CP", "versionId": "20260703T04:07:18" }, "label": "4829/26", "nationalCadastralReference": "840319_4829/26.C", "referencePoint": { "type": "Point", "coordinates": [ 18.07906143, 48.3339942 ] }, "validFrom": "2026-06-30T16:00:00Z", "validTo": { "@nilReason": "http://inspire.ec.europa.eu/codelist/VoidReasonValue/Unpopulated", "@nil": "true" }, "administrativeUnit": { "@href": "#auAdmUnitS.1810" } }, "geometry": { "type": "Polygon", "coordinates": [ [ [ 18.07922605, 48.33412869 ], [ 18.07889763, 48.33385668 ], [ 18.07889235, 48.33385971 ], [ 18.07922605, 48.33412869 ] ] ] } },
{ "type": "Feature", "properties": { "@featureType": "CadastralParcel", "areaValue": { "value": 1147, "@uom": "m2" }, "beginLifespanVersion": { "@nilReason": "http://inspire.ec.europa.eu/codelist/VoidReasonValue/Unpopulated", "@nil": "true" }, "endLifespanVersion": { "@nilReason": "http://inspire.ec.europa.eu/codelist/VoidReasonValue/Unpopulated", "@nil": "true" }, "inspireId": { "@dataType": "Identifier", "localId": "840319_4829/23.C", "namespace": "SK.ESKN.CP", "versionId": "20260703T04:07:18" }, "label": "4829/23", "nationalCadastralReference": "840319_4829/23.C", "referencePoint": { "type": "Point", "coordinates": [ 18.07984345, 48.33466553 ] }, "validFrom": "2026-06-30T16:00:00Z", "validTo": { "@nilReason": "http://inspire.ec.europa.eu/codelist/VoidReasonValue/Unpopulated", "@nil": "true" }, "administrativeUnit": { "@href": "#auAdmUnitS.1810" } }, "geometry": { "type": "Polygon", "coordinates": [ [ [ 18.08133348, 48.33594673 ], [ 18.08134437, 48.3359443 ], [ 18.08139138, 48.3359319 ], [ 18.08140737, 48.3359277 ], [ 18.08138899, 48.3359203 ], [ 18.07922605, 48.33412869 ], [ 18.07889235, 48.33385971 ], [ 18.07889763, 48.33385668 ], [ 18.07888885, 48.33384939 ], [ 18.0788548, 48.33386824 ], [ 18.07948044, 48.33438404 ], [ 18.08014506, 48.33494702 ], [ 18.0807746, 48.3354755 ], [ 18.08133348, 48.33594673 ] ] ] } },
{ "type": "Feature", "properties": { "@featureType": "CadastralParcel", "areaValue": { "value": 4619, "@uom": "m2" }, "beginLifespanVersion": { "@nilReason": "http://inspire.ec.europa.eu/codelist/VoidReasonValue/Unpopulated", "@nil": "true" }, "endLifespanVersion": { "@nilReason": "http://inspire.ec.europa.eu/codelist/VoidReasonValue/Unpopulated", "@nil": "true" }, "inspireId": { "@dataType": "Identifier", "localId": "840319_4805/42.C", "namespace": "SK.ESKN.CP", "versionId": "20260703T04:07:18" }, "label": "4805/42", "nationalCadastralReference": "840319_4805/42.C", "referencePoint": { "type": "Point", "coordinates": [ 18.07980006, 48.33469652 ] }, "validFrom": "2026-06-30T16:00:00Z", "validTo": { "@nilReason": "http://inspire.ec.europa.eu/codelist/VoidReasonValue/Unpopulated", "@nil": "true" }, "administrativeUnit": { "@href": "#auAdmUnitS.1810" } }, "geometry": { "type": "Polygon", "coordinates": [ [ [ 18.08017255, 48.33504498 ], [ 18.08030324, 48.33515299 ], [ 18.08038598, 48.33522135 ], [ 18.08053975, 48.33534834 ], [ 18.08058871, 48.33538346 ], [ 18.08076094, 48.33550702 ], [ 18.0807837, 48.33552326 ], [ 18.08082055, 48.33555478 ], [ 18.08088623, 48.33561084 ], [ 18.08106397, 48.33576235 ], [ 18.08126662, 48.33593529 ], [ 18.08128159, 48.3359582 ], [ 18.08133348, 48.33594673 ], [ 18.0807746, 48.3354755 ], [ 18.08014506, 48.33494702 ], [ 18.07948044, 48.33438404 ], [ 18.0788548, 48.33386824 ], [ 18.07838289, 48.33348168 ], [ 18.07774745, 48.33295111 ], [ 18.07772953, 48.33293615 ], [ 18.07769875, 48.33296097 ], [ 18.07769673, 48.33295986 ], [ 18.07767174, 48.33297879 ], [ 18.07764742, 48.33299974 ], [ 18.0776144, 48.33302822 ], [ 18.07745907, 48.33316189 ], [ 18.0774603, 48.33316593 ], [ 18.07745767, 48.33317146 ], [ 18.07745059, 48.3331799 ], [ 18.07742987, 48.33319826 ], [ 18.07744938, 48.3332135 ], [ 18.07748943, 48.33323311 ], [ 18.07754033, 48.33326076 ], [ 18.07759584, 48.33328526 ], [ 18.07770457, 48.33333528 ], [ 18.07780697, 48.33339008 ], [ 18.07798923, 48.33349411 ], [ 18.07799358, 48.33349093 ], [ 18.07805843, 48.33344411 ], [ 18.0781134, 48.33340438 ], [ 18.07836859, 48.33358123 ], [ 18.07861656, 48.33376254 ], [ 18.07855688, 48.33379694 ], [ 18.07846554, 48.33384951 ], [ 18.07849173, 48.33386442 ], [ 18.07853882, 48.33389627 ], [ 18.07858852, 48.33392683 ], [ 18.07860893, 48.33393932 ], [ 18.07861302, 48.33393713 ], [ 18.07863736, 48.33395671 ], [ 18.07866453, 48.33397339 ], [ 18.07872025, 48.33401677 ], [ 18.07872955, 48.33402933 ], [ 18.07873076, 48.33404475 ], [ 18.07871646, 48.33406367 ], [ 18.07868093, 48.3340855 ], [ 18.07872223, 48.33411918 ], [ 18.07880765, 48.33418869 ], [ 18.07892679, 48.33412358 ], [ 18.0792234, 48.33436797 ], [ 18.07930016, 48.3343242 ], [ 18.07930672, 48.3343207 ], [ 18.07945016, 48.33443878 ], [ 18.07944342, 48.33444262 ], [ 18.07944757, 48.33444603 ], [ 18.08017255, 48.33504498 ] ] ] } },
{ "type": "Feature", "properties": { "@featureType": "CadastralParcel", "areaValue": { "value": 1493, "@uom": "m2" }, "beginLifespanVersion": { "@nilReason": "http://inspire.ec.europa.eu/codelist/VoidReasonValue/Unpopulated", "@nil": "true" }, "endLifespanVersion": { "@nilReason": "http://inspire.ec.europa.eu/codelist/VoidReasonValue/Unpopulated", "@nil": "true" }, "inspireId": { "@dataType": "Identifier", "localId": "840319_4805/3.C", "namespace": "SK.ESKN.CP", "versionId": "20260703T04:07:18" }, "label": "4805/3", "nationalCadastralReference": "840319_4805/3.C", "referencePoint": { "type": "Point", "coordinates": [ 18.07801894, 48.33456157 ] }, "validFrom": "2026-06-30T16:00:00Z", "validTo": { "@nilReason": "http://inspire.ec.europa.eu/codelist/VoidReasonValue/Unpopulated", "@nil": "true" }, "administrativeUnit": { "@href": "#auAdmUnitS.1810" } }, "geometry": { "type": "Polygon", "coordinates": [ [ [ 18.07867582, 48.33426072 ], [ 18.07880765, 48.33418869 ], [ 18.07872223, 48.33411918 ], [ 18.0786139, 48.33417834 ], [ 18.07840527, 48.33429233 ], [ 18.07819663, 48.33440633 ], [ 18.07798799, 48.33452033 ], [ 18.07775846, 48.33464583 ], [ 18.07770901, 48.33460526 ], [ 18.077491, 48.33475102 ], [ 18.07744211, 48.33478371 ], [ 18.07730882, 48.33487281 ], [ 18.0774136, 48.3349505 ], [ 18.07763261, 48.3348308 ], [ 18.07784125, 48.3347168 ], [ 18.07804989, 48.33460281 ], [ 18.07825854, 48.33448872 ], [ 18.07846718, 48.33437472 ], [ 18.07867582, 48.33426072 ] ] ] } },
{ "type": "Feature", "properties": { "@featureType": "CadastralParcel", "areaValue": { "value": 6093, "@uom": "m2" }, "beginLifespanVersion": { "@nilReason": "http://inspire.ec.europa.eu/codelist/VoidReasonValue/Unpopulated", "@nil": "true" }, "endLifespanVersion": { "@nilReason": "http://inspire.ec.europa.eu/codelist/VoidReasonValue/Unpopulated", "@nil": "true" }, "inspireId": { "@dataType": "Identifier", "localId": "840319_3104/12.E", "namespace": "SK.ESKN.CP", "versionId": "20260703T04:07:18" }, "label": "3104/12", "nationalCadastralReference": "840319_3104/12.E", "referencePoint": { "type": "Point", "coordinates": [ 18.07633839, 48.3354146 ] }, "validFrom": "2026-06-30T16:00:00Z", "validTo": { "@nilReason": "http://inspire.ec.europa.eu/codelist/VoidReasonValue/Unpopulated", "@nil": "true" }, "administrativeUnit": { "@href": "#auAdmUnitS.1810" } }, "geometry": { "type": "Polygon", "coordinates": [ [ [ 18.07648568, 48.33546806 ], [ 18.07701927, 48.33525037 ], [ 18.07751189, 48.33505472 ], [ 18.0774136, 48.3349505 ], [ 18.07730882, 48.33487281 ], [ 18.07744211, 48.33478371 ], [ 18.077491, 48.33475102 ], [ 18.07770901, 48.33460526 ], [ 18.07768945, 48.33458939 ], [ 18.07766269, 48.33456758 ], [ 18.07763066, 48.33454158 ], [ 18.07743545, 48.33465032 ], [ 18.07700681, 48.33488631 ], [ 18.0766584, 48.33508307 ], [ 18.07655145, 48.33514005 ], [ 18.07615647, 48.33536114 ], [ 18.07586513, 48.33552271 ], [ 18.07535062, 48.33578017 ], [ 18.07487028, 48.33602393 ], [ 18.07462565, 48.33614681 ], [ 18.07472625, 48.33625803 ], [ 18.07511683, 48.33607424 ], [ 18.07554913, 48.33587098 ], [ 18.07578922, 48.3357629 ], [ 18.07607641, 48.33563359 ], [ 18.07648568, 48.33546806 ] ] ] } }
]
}
