{
"type": "FeatureCollection",
"name": "gis",
"crs": { "type": "name", "properties": { "name": "urn:ogc:def:crs:OGC:1.3:CRS84" } },
"features": [
{ "type": "Feature", "properties": { "@featureType": "CadastralZoning", "beginLifespanVersion": { "@nilReason": "http://inspire.ec.europa.eu/codelist/VoidReasonValue/Unpopulated", "@nil": "true" }, "endLifespanVersion": { "@nilReason": "http://inspire.ec.europa.eu/codelist/VoidReasonValue/Unpopulated", "@nil": "true" }, "estimatedAccuracy": { "value": -1, "@uom": "m" }, "inspireId": { "@dataType": "Identifier", "localId": "873578", "namespace": "SK.ESKN.CP", "versionId": "20260703T04:07:40" }, "label": "Zliechov", "level": { "@href": "http://inspire.ec.europa.eu/codelist/CadastralZoningLevelValue/3rdOrder" }, "levelName": { "value": "Katastrálne územie", "@locale": "sk" }, "name": { "@dataType": "name", "GeographicalName": { "@dataType": "GeographicalName", "language": "SLK", "nativeness": { "@href": "http://inspire.ec.europa.eu/codelist/NativenessValue/endonym", "@title": "endonym" }, "nameStatus": { "@href": "http://inspire.ec.europa.eu/codelist/NameStatusValue/official", "@title": "official" }, "sourceOfName": { "@nilReason": "http://inspire.ec.europa.eu/codelist/VoidReasonValue/Unpopulated", "@nil": "true" }, "pronunciation": { "@dataType": "pronunciation", "@nilReason": "http://inspire.ec.europa.eu/codelist/VoidReasonValue/Unpopulated", "@nil": "true" }, "spelling": { "@dataType": "SpellingOfName", "text": "Zliechov", "script": "LATN" } } }, "nationalCadastalZoningReference": "873578", "validFrom": "2026-06-30T16:00:00Z", "validTo": { "@nilReason": "http://inspire.ec.europa.eu/codelist/VoidReasonValue/Unpopulated", "@nil": "true" } }, "geometry": { "type": "MultiPolygon", "coordinates": [ [ [ [ 18.44216443, 48.98402426 ], [ 18.44292246, 48.98395141 ], [ 18.44371747, 48.98385848 ], [ 18.4445796, 48.98372828 ], [ 18.44541526, 48.98354733 ], [ 18.44614294, 48.98345971 ], [ 18.44688311, 48.98326953 ], [ 18.44735006, 48.98312964 ], [ 18.4478095, 48.98303806 ], [ 18.44808633, 48.98285025 ], [ 18.448298, 48.98253974 ], [ 18.44843525, 48.98215555 ], [ 18.4488547, 48.98141824 ], [ 18.4490346, 48.98116238 ], [ 18.44975449, 48.98048276 ], [ 18.45052398, 48.97982383 ], [ 18.4511465, 48.97924669 ], [ 18.451446, 48.97890716 ], [ 18.45205318, 48.97869465 ], [ 18.45281516, 48.97814728 ], [ 18.45442515, 48.97776973 ], [ 18.45475701, 48.97773654 ], [ 18.45535533, 48.97742517 ], [ 18.45658522, 48.97690306 ], [ 18.45706974, 48.97673747 ], [ 18.45731347, 48.97663816 ], [ 18.45779344, 48.97634093 ], [ 18.45809173, 48.97624272 ], [ 18.45838105, 48.97618923 ], [ 18.45946709, 48.97605399 ], [ 18.45996649, 48.97595464 ], [ 18.46062028, 48.97598479 ], [ 18.46062223, 48.97561806 ], [ 18.46009541, 48.97465592 ], [ 18.46002449, 48.97361641 ], [ 18.46013505, 48.97343748 ], [ 18.46017868, 48.97334206 ], [ 18.46021127, 48.97327102 ], [ 18.46121974, 48.97106785 ], [ 18.46118199, 48.97066285 ], [ 18.46101741, 48.96906455 ], [ 18.46048229, 48.9680441 ], [ 18.46040958, 48.96774186 ], [ 18.45967857, 48.96602245 ], [ 18.45953491, 48.96568436 ], [ 18.45984633, 48.96373636 ], [ 18.46060987, 48.96197627 ], [ 18.46215703, 48.96096954 ], [ 18.46336473, 48.95878985 ], [ 18.46389251, 48.9579611 ], [ 18.46496293, 48.95635989 ], [ 18.46420298, 48.95592261 ], [ 18.46395444, 48.95579895 ], [ 18.4637325, 48.955632 ], [ 18.46347436, 48.95520351 ], [ 18.46310824, 48.9549253 ], [ 18.46313924, 48.9545682 ], [ 18.46288743, 48.95434825 ], [ 18.46298686, 48.9541994 ], [ 18.46303673, 48.95412489 ], [ 18.46333784, 48.95384969 ], [ 18.46343843, 48.95366137 ], [ 18.46374618, 48.95315857 ], [ 18.46379135, 48.95291993 ], [ 18.46385505, 48.95269611 ], [ 18.46389923, 48.95249558 ], [ 18.46388427, 48.9518803 ], [ 18.4640512, 48.95160205 ], [ 18.46387812, 48.9510019 ], [ 18.46392144, 48.95060153 ], [ 18.46418374, 48.95026264 ], [ 18.46423822, 48.95002938 ], [ 18.46510976, 48.9490429 ], [ 18.46555017, 48.94855894 ], [ 18.46593981, 48.94803546 ], [ 18.46623751, 48.94773588 ], [ 18.466638, 48.9474469 ], [ 18.46713431, 48.94728194 ], [ 18.46761025, 48.94689576 ], [ 18.46852687, 48.94626116 ], [ 18.46911388, 48.94572252 ], [ 18.46940474, 48.94542805 ], [ 18.46965073, 48.94525647 ], [ 18.47075684, 48.94444257 ], [ 18.47102552, 48.94423451 ], [ 18.47132075, 48.94389453 ], [ 18.47202055, 48.94357061 ], [ 18.47278277, 48.94318641 ], [ 18.47300714, 48.9429169 ], [ 18.47317426, 48.94257909 ], [ 18.47369379, 48.94164598 ], [ 18.47376248, 48.94139527 ], [ 18.47377582, 48.9413461 ], [ 18.47378009, 48.94133081 ], [ 18.4737746, 48.94128105 ], [ 18.47383478, 48.94125792 ], [ 18.47394091, 48.94121708 ], [ 18.47444994, 48.94110243 ], [ 18.47516335, 48.94095107 ], [ 18.47536281, 48.94085462 ], [ 18.47596499, 48.94055249 ], [ 18.47632612, 48.94032143 ], [ 18.47664191, 48.94019653 ], [ 18.47693984, 48.94022379 ], [ 18.47774415, 48.94075339 ], [ 18.47801456, 48.94089004 ], [ 18.47809, 48.94091963 ], [ 18.47820264, 48.9409638 ], [ 18.47838465, 48.9412352 ], [ 18.47886549, 48.94137617 ], [ 18.47902164, 48.94146956 ], [ 18.47925104, 48.94132151 ], [ 18.47934087, 48.94114938 ], [ 18.47936039, 48.94098296 ], [ 18.47937755, 48.94083735 ], [ 18.47920728, 48.94041011 ], [ 18.47907866, 48.93982885 ], [ 18.47936132, 48.93960828 ], [ 18.47937648, 48.93962707 ], [ 18.47957801, 48.93956186 ], [ 18.48026497, 48.93972143 ], [ 18.48080076, 48.93981983 ], [ 18.48113412, 48.93976934 ], [ 18.48159667, 48.93972205 ], [ 18.48218695, 48.93978273 ], [ 18.4825771, 48.93982279 ], [ 18.48292526, 48.93979178 ], [ 18.48357128, 48.93966375 ], [ 18.48393625, 48.93970143 ], [ 18.48464417, 48.93963859 ], [ 18.48537469, 48.93999372 ], [ 18.48597576, 48.93994507 ], [ 18.48668044, 48.9399416 ], [ 18.48716934, 48.9401077 ], [ 18.48752927, 48.94041545 ], [ 18.48769111, 48.94068213 ], [ 18.48808455, 48.94091655 ], [ 18.48882561, 48.94117964 ], [ 18.48936658, 48.94120573 ], [ 18.48954835, 48.94121451 ], [ 18.48963672, 48.9412188 ], [ 18.48971199, 48.94121607 ], [ 18.48981852, 48.94121215 ], [ 18.49021517, 48.94119749 ], [ 18.4907246, 48.94117601 ], [ 18.49076961, 48.94117757 ], [ 18.49168805, 48.94120959 ], [ 18.4917038, 48.94120964 ], [ 18.49269303, 48.94121043 ], [ 18.49282233, 48.94121055 ], [ 18.49308874, 48.94121078 ], [ 18.49349009, 48.94113166 ], [ 18.49361415, 48.94107122 ], [ 18.49370815, 48.94102537 ], [ 18.4938884, 48.94089184 ], [ 18.49404941, 48.9408382 ], [ 18.49436943, 48.94073153 ], [ 18.4944681, 48.94069867 ], [ 18.4946392, 48.94070405 ], [ 18.49474194, 48.94070733 ], [ 18.49500454, 48.94066709 ], [ 18.49507115, 48.94069401 ], [ 18.49513358, 48.94071927 ], [ 18.49550004, 48.94058761 ], [ 18.49581369, 48.94047491 ], [ 18.49587714, 48.94046276 ], [ 18.4965383, 48.94033612 ], [ 18.49659381, 48.94019667 ], [ 18.49661572, 48.94014128 ], [ 18.49671938, 48.93988066 ], [ 18.49755905, 48.94005497 ], [ 18.49805724, 48.94015845 ], [ 18.49823372, 48.94019508 ], [ 18.49831812, 48.94073327 ], [ 18.4987415, 48.94070967 ], [ 18.49919593, 48.94068433 ], [ 18.49944011, 48.94067069 ], [ 18.49966345, 48.94065826 ], [ 18.49987963, 48.94064616 ], [ 18.50029501, 48.94062301 ], [ 18.50028205, 48.94060299 ], [ 18.50064202, 48.94058043 ], [ 18.50079099, 48.94057115 ], [ 18.50124898, 48.94042174 ], [ 18.50156384, 48.94031892 ], [ 18.5016324, 48.94029659 ], [ 18.50190988, 48.94019254 ], [ 18.50192728, 48.940186 ], [ 18.5023442, 48.94002974 ], [ 18.50245015, 48.93999005 ], [ 18.50313383, 48.94010219 ], [ 18.5036959, 48.94020102 ], [ 18.5042368, 48.94013499 ], [ 18.50464905, 48.93923418 ], [ 18.50519673, 48.93895962 ], [ 18.50550649, 48.93882962 ], [ 18.50592719, 48.93865298 ], [ 18.50627061, 48.93829029 ], [ 18.50697079, 48.93766345 ], [ 18.50716706, 48.93729002 ], [ 18.50712753, 48.93672983 ], [ 18.50716688, 48.93662279 ], [ 18.50720138, 48.93656412 ], [ 18.50728979, 48.93647428 ], [ 18.50738589, 48.93639525 ], [ 18.50749258, 48.93629188 ], [ 18.507673, 48.93599754 ], [ 18.50751733, 48.93558865 ], [ 18.50719202, 48.93473375 ], [ 18.50712473, 48.93387372 ], [ 18.50710188, 48.93378314 ], [ 18.50707361, 48.93342307 ], [ 18.50595954, 48.93299083 ], [ 18.50558765, 48.93261003 ], [ 18.50484626, 48.93223341 ], [ 18.50456933, 48.93187411 ], [ 18.50439319, 48.93121992 ], [ 18.50438069, 48.9310319 ], [ 18.5043896, 48.93083269 ], [ 18.50423585, 48.93033042 ], [ 18.50418323, 48.93015861 ], [ 18.50383572, 48.92962681 ], [ 18.50335282, 48.92912171 ], [ 18.50273799, 48.92892624 ], [ 18.50160366, 48.92827293 ], [ 18.49963449, 48.92802337 ], [ 18.49774149, 48.92768347 ], [ 18.49660146, 48.92728273 ], [ 18.49542908, 48.92629646 ], [ 18.49526847, 48.92615385 ], [ 18.49425595, 48.92485892 ], [ 18.49381282, 48.92393174 ], [ 18.49348479, 48.92324538 ], [ 18.49351854, 48.92306558 ], [ 18.49363302, 48.92270592 ], [ 18.4936773, 48.92256639 ], [ 18.49379931, 48.92218278 ], [ 18.49386979, 48.9219614 ], [ 18.49390514, 48.92178087 ], [ 18.49426239, 48.92037787 ], [ 18.49447828, 48.91906857 ], [ 18.49447124, 48.91875713 ], [ 18.49447055, 48.91872343 ], [ 18.4944539, 48.91798832 ], [ 18.4939731, 48.91675415 ], [ 18.49374134, 48.91672009 ], [ 18.49364015, 48.91664732 ], [ 18.49354036, 48.91657544 ], [ 18.49314993, 48.91629455 ], [ 18.49295948, 48.91613035 ], [ 18.49199539, 48.91529953 ], [ 18.49194163, 48.91525896 ], [ 18.49183799, 48.91518074 ], [ 18.49160732, 48.91500658 ], [ 18.49058242, 48.91423279 ], [ 18.49012386, 48.91422212 ], [ 18.49002926, 48.91421992 ], [ 18.48989084, 48.91421667 ], [ 18.48982026, 48.91421506 ], [ 18.48969069, 48.91369197 ], [ 18.48968868, 48.91368401 ], [ 18.48964551, 48.91365394 ], [ 18.48952806, 48.91357225 ], [ 18.48940699, 48.91348792 ], [ 18.4893832, 48.91347137 ], [ 18.48925027, 48.9133789 ], [ 18.48915336, 48.91331142 ], [ 18.48907444, 48.91325647 ], [ 18.48900622, 48.91320897 ], [ 18.4889516, 48.91317096 ], [ 18.48889239, 48.91313343 ], [ 18.48848101, 48.91287248 ], [ 18.48834323, 48.91278489 ], [ 18.48825626, 48.91272978 ], [ 18.48813444, 48.91265244 ], [ 18.48795545, 48.91253886 ], [ 18.48792708, 48.91252928 ], [ 18.4878442, 48.91250146 ], [ 18.48776921, 48.91247623 ], [ 18.48772254, 48.91246411 ], [ 18.48735319, 48.91239325 ], [ 18.48731874, 48.91207697 ], [ 18.48770193, 48.91186649 ], [ 18.4875096, 48.91180984 ], [ 18.48706458, 48.91155417 ], [ 18.48637498, 48.91093208 ], [ 18.48595978, 48.91063987 ], [ 18.48572529, 48.91050285 ], [ 18.48565642, 48.91048446 ], [ 18.4845445, 48.91018799 ], [ 18.48424848, 48.91010905 ], [ 18.4840955, 48.91006827 ], [ 18.48326082, 48.90986405 ], [ 18.48031626, 48.9091995 ], [ 18.48013644, 48.9092445 ], [ 18.47876964, 48.90956948 ], [ 18.47857373, 48.90961604 ], [ 18.47816585, 48.90965764 ], [ 18.47708885, 48.90954684 ], [ 18.4760191, 48.90934077 ], [ 18.47354791, 48.90898718 ], [ 18.47267778, 48.90899129 ], [ 18.47245444, 48.90898191 ], [ 18.4719879, 48.90896333 ], [ 18.47154449, 48.90890252 ], [ 18.47091398, 48.90878721 ], [ 18.47022362, 48.90866022 ], [ 18.46807163, 48.90840381 ], [ 18.46664326, 48.90800396 ], [ 18.46563183, 48.907701 ], [ 18.4648574, 48.907359 ], [ 18.46438305, 48.90717183 ], [ 18.46342295, 48.9066864 ], [ 18.46338278, 48.9066814 ], [ 18.46330085, 48.90669711 ], [ 18.46308387, 48.90683768 ], [ 18.46292574, 48.90697726 ], [ 18.46262282, 48.90746794 ], [ 18.46228067, 48.90779909 ], [ 18.46224897, 48.90778778 ], [ 18.46216733, 48.90776542 ], [ 18.46205102, 48.90773366 ], [ 18.46198858, 48.90771642 ], [ 18.46139581, 48.90730551 ], [ 18.46137669, 48.90712352 ], [ 18.46140118, 48.90678411 ], [ 18.4614161, 48.90648568 ], [ 18.46141519, 48.90637075 ], [ 18.46141481, 48.90631532 ], [ 18.46136846, 48.90617001 ], [ 18.46133989, 48.90535877 ], [ 18.4612492, 48.90520686 ], [ 18.46078716, 48.90490647 ], [ 18.46025257, 48.9046482 ], [ 18.45967737, 48.90432379 ], [ 18.45864897, 48.90381309 ], [ 18.45790169, 48.90354824 ], [ 18.45753204, 48.90339622 ], [ 18.45733557, 48.90327549 ], [ 18.45722581, 48.90314888 ], [ 18.45701986, 48.9028836 ], [ 18.45665938, 48.90259229 ], [ 18.45635492, 48.90208902 ], [ 18.45542171, 48.90102112 ], [ 18.45533057, 48.90086323 ], [ 18.45530633, 48.90082119 ], [ 18.45527726, 48.90077077 ], [ 18.45479274, 48.90022392 ], [ 18.45454672, 48.89979759 ], [ 18.45432319, 48.89928785 ], [ 18.45385295, 48.89894492 ], [ 18.45240957, 48.8978922 ], [ 18.45076634, 48.8970332 ], [ 18.4501743, 48.89666351 ], [ 18.44982154, 48.89647494 ], [ 18.44966157, 48.89638941 ], [ 18.44897154, 48.89611466 ], [ 18.44874426, 48.89608724 ], [ 18.44826539, 48.89604152 ], [ 18.44823334, 48.89603849 ], [ 18.44815639, 48.89603118 ], [ 18.44797139, 48.89601348 ], [ 18.44787709, 48.89601668 ], [ 18.44740551, 48.89637963 ], [ 18.44721773, 48.89652413 ], [ 18.44703287, 48.89665959 ], [ 18.44672306, 48.89688662 ], [ 18.44621461, 48.89745266 ], [ 18.44606029, 48.89756417 ], [ 18.44601492, 48.89759705 ], [ 18.44568789, 48.8978335 ], [ 18.44566333, 48.89785128 ], [ 18.44553749, 48.89794225 ], [ 18.44477465, 48.89828425 ], [ 18.44397173, 48.89849444 ], [ 18.44371289, 48.89858719 ], [ 18.44357047, 48.89865027 ], [ 18.44353088, 48.89866776 ], [ 18.44344313, 48.89870668 ], [ 18.44318885, 48.89884002 ], [ 18.44279377, 48.89912821 ], [ 18.44260586, 48.89931882 ], [ 18.44214614, 48.89971607 ], [ 18.4413377, 48.89990365 ], [ 18.44099847, 48.90026603 ], [ 18.44044159, 48.90049375 ], [ 18.43970268, 48.9008569 ], [ 18.4393528, 48.9011187 ], [ 18.43911695, 48.90133526 ], [ 18.43891631, 48.90131985 ], [ 18.43887483, 48.90131666 ], [ 18.43886018, 48.90131558 ], [ 18.43832314, 48.90103035 ], [ 18.43822816, 48.90129954 ], [ 18.43821468, 48.90133769 ], [ 18.43812614, 48.90158856 ], [ 18.43804342, 48.90172026 ], [ 18.43802285, 48.90175288 ], [ 18.43770145, 48.90226442 ], [ 18.43770209, 48.90229279 ], [ 18.4377026, 48.90231674 ], [ 18.43772834, 48.90351672 ], [ 18.43721014, 48.90420655 ], [ 18.43684553, 48.90451075 ], [ 18.4365615, 48.90564345 ], [ 18.43652157, 48.90580251 ], [ 18.43631611, 48.90662188 ], [ 18.43623096, 48.90679523 ], [ 18.43622098, 48.90681562 ], [ 18.43617608, 48.90690708 ], [ 18.43614447, 48.90697158 ], [ 18.43583836, 48.90759506 ], [ 18.43583728, 48.90764238 ], [ 18.43583604, 48.90769519 ], [ 18.43582324, 48.90824273 ], [ 18.43582291, 48.9082604 ], [ 18.43581718, 48.90850149 ], [ 18.43581352, 48.90865841 ], [ 18.43580411, 48.90906517 ], [ 18.43578997, 48.90911393 ], [ 18.435778, 48.90915533 ], [ 18.43569574, 48.90943948 ], [ 18.43568723, 48.9094687 ], [ 18.43563892, 48.90963542 ], [ 18.43562985, 48.90966696 ], [ 18.43560449, 48.90975445 ], [ 18.43553792, 48.90998406 ], [ 18.4355117, 48.91006645 ], [ 18.43550599, 48.91008446 ], [ 18.43540435, 48.91040355 ], [ 18.43539522, 48.91043228 ], [ 18.43537472, 48.91049658 ], [ 18.43536562, 48.91052514 ], [ 18.43533189, 48.91063103 ], [ 18.43523452, 48.91071409 ], [ 18.4347793, 48.91209326 ], [ 18.43448905, 48.91243551 ], [ 18.43446184, 48.91246748 ], [ 18.43444991, 48.91248163 ], [ 18.43432703, 48.91262645 ], [ 18.43411717, 48.91263254 ], [ 18.43388601, 48.91263936 ], [ 18.43377557, 48.91261846 ], [ 18.43372155, 48.91260834 ], [ 18.43365978, 48.91259663 ], [ 18.43203066, 48.91236248 ], [ 18.43024789, 48.91247828 ], [ 18.43021682, 48.91248035 ], [ 18.42865549, 48.91258174 ], [ 18.4261715, 48.91247415 ], [ 18.42610464, 48.91247126 ], [ 18.42499014, 48.912442 ], [ 18.42428943, 48.91261793 ], [ 18.42353099, 48.9128773 ], [ 18.42230861, 48.91297462 ], [ 18.4219577, 48.91302387 ], [ 18.42054379, 48.91348411 ], [ 18.41846015, 48.91429449 ], [ 18.41634848, 48.91491069 ], [ 18.41580263, 48.91491863 ], [ 18.41574707, 48.91491943 ], [ 18.41462208, 48.91523379 ], [ 18.41455107, 48.91527742 ], [ 18.41350268, 48.91592172 ], [ 18.41313282, 48.91611384 ], [ 18.41310218, 48.91612974 ], [ 18.41248462, 48.91645055 ], [ 18.4108561, 48.91692982 ], [ 18.4094604, 48.91740439 ], [ 18.40770672, 48.91747679 ], [ 18.40686391, 48.91759772 ], [ 18.40566359, 48.91808272 ], [ 18.40559038, 48.91811232 ], [ 18.40447433, 48.91947001 ], [ 18.40429372, 48.92034542 ], [ 18.40392501, 48.92152021 ], [ 18.40390861, 48.92157246 ], [ 18.40385125, 48.92165582 ], [ 18.40365364, 48.92194295 ], [ 18.40325356, 48.92233445 ], [ 18.40253257, 48.92284504 ], [ 18.40239141, 48.92341786 ], [ 18.40255833, 48.92429118 ], [ 18.40281969, 48.92496252 ], [ 18.40292278, 48.92560134 ], [ 18.40318007, 48.92622633 ], [ 18.40366873, 48.92685117 ], [ 18.40373048, 48.92720278 ], [ 18.40374521, 48.92728681 ], [ 18.40331028, 48.92786057 ], [ 18.40317206, 48.92804287 ], [ 18.40294431, 48.92865124 ], [ 18.4022564, 48.92911123 ], [ 18.40222691, 48.92913089 ], [ 18.40204657, 48.92925156 ], [ 18.40061425, 48.93030991 ], [ 18.40055262, 48.93035162 ], [ 18.39953699, 48.93103888 ], [ 18.39882602, 48.93152122 ], [ 18.39803861, 48.93217909 ], [ 18.39705028, 48.932661 ], [ 18.39634821, 48.93294292 ], [ 18.39567604, 48.93337533 ], [ 18.39395945, 48.93270297 ], [ 18.39275714, 48.93268506 ], [ 18.39095248, 48.93222156 ], [ 18.39077186, 48.93217515 ], [ 18.39003672, 48.93217281 ], [ 18.38981841, 48.93220462 ], [ 18.38942892, 48.932265 ], [ 18.38816022, 48.93250435 ], [ 18.38803426, 48.93257974 ], [ 18.38627091, 48.93363549 ], [ 18.38483155, 48.93553874 ], [ 18.38490192, 48.9358126 ], [ 18.38736688, 48.93631085 ], [ 18.38856454, 48.93622684 ], [ 18.38988629, 48.93559116 ], [ 18.39026428, 48.93446284 ], [ 18.3917178, 48.93504165 ], [ 18.39248962, 48.93495577 ], [ 18.39285834, 48.93515406 ], [ 18.39310332, 48.93539222 ], [ 18.39326781, 48.93544378 ], [ 18.39367841, 48.9354777 ], [ 18.39412829, 48.93542301 ], [ 18.39430729, 48.93532917 ], [ 18.39637244, 48.93578885 ], [ 18.39658103, 48.93579024 ], [ 18.39763715, 48.93583238 ], [ 18.39873467, 48.93650495 ], [ 18.40021844, 48.93772123 ], [ 18.40040309, 48.93785196 ], [ 18.40212711, 48.93873706 ], [ 18.40324726, 48.93968357 ], [ 18.40437972, 48.9404248 ], [ 18.40504115, 48.94037765 ], [ 18.40510285, 48.94094206 ], [ 18.40519615, 48.9417962 ], [ 18.40536728, 48.94205442 ], [ 18.40536264, 48.94208214 ], [ 18.40623963, 48.94275935 ], [ 18.40837607, 48.94529755 ], [ 18.40854507, 48.94546756 ], [ 18.40864816, 48.9455711 ], [ 18.40887216, 48.94579641 ], [ 18.40940011, 48.94633125 ], [ 18.41119588, 48.94676314 ], [ 18.41184181, 48.94691842 ], [ 18.41252052, 48.94839637 ], [ 18.4137871, 48.95031967 ], [ 18.41491303, 48.95305785 ], [ 18.41494876, 48.95310965 ], [ 18.41503178, 48.95323003 ], [ 18.41504924, 48.95324138 ], [ 18.41511414, 48.95328369 ], [ 18.41514437, 48.95330341 ], [ 18.41525837, 48.95332389 ], [ 18.41983834, 48.9540388 ], [ 18.42129748, 48.95426653 ], [ 18.421836, 48.95435055 ], [ 18.42292545, 48.95504352 ], [ 18.4236278, 48.95568601 ], [ 18.42375654, 48.95580377 ], [ 18.42425169, 48.95612381 ], [ 18.42521872, 48.95674889 ], [ 18.42679214, 48.95771412 ], [ 18.42825024, 48.95865987 ], [ 18.42897805, 48.95960037 ], [ 18.43027478, 48.96002006 ], [ 18.4321865, 48.96077864 ], [ 18.4329784, 48.96159765 ], [ 18.4332597, 48.96278113 ], [ 18.43176313, 48.96376522 ], [ 18.43084097, 48.96418719 ], [ 18.43011775, 48.96454406 ], [ 18.4299232, 48.96478655 ], [ 18.42982755, 48.96490581 ], [ 18.42923702, 48.96515593 ], [ 18.42975204, 48.96578469 ], [ 18.43015818, 48.96700359 ], [ 18.43011496, 48.96743429 ], [ 18.4298465, 48.96795562 ], [ 18.42973101, 48.96813153 ], [ 18.42927971, 48.96881838 ], [ 18.42898014, 48.96950304 ], [ 18.42880657, 48.96971735 ], [ 18.4284461, 48.97027637 ], [ 18.42822506, 48.9703748 ], [ 18.42743749, 48.97062695 ], [ 18.42688122, 48.97073881 ], [ 18.42657287, 48.97082637 ], [ 18.42606215, 48.97094435 ], [ 18.42558327, 48.97115984 ], [ 18.42496123, 48.9714703 ], [ 18.42464187, 48.97168928 ], [ 18.42437669, 48.97179727 ], [ 18.42363757, 48.97178521 ], [ 18.42281367, 48.97170276 ], [ 18.4222777, 48.971579 ], [ 18.42300559, 48.97218201 ], [ 18.42330993, 48.97245811 ], [ 18.4237877, 48.97286418 ], [ 18.42425339, 48.97323601 ], [ 18.42431742, 48.97328106 ], [ 18.42452486, 48.97347329 ], [ 18.42501029, 48.97386453 ], [ 18.42513817, 48.97395714 ], [ 18.42518294, 48.97398877 ], [ 18.42535614, 48.97414526 ], [ 18.4263241, 48.97485193 ], [ 18.4266853, 48.97513712 ], [ 18.42671718, 48.97516234 ], [ 18.42699969, 48.97539815 ], [ 18.42739131, 48.97569214 ], [ 18.42745049, 48.97573872 ], [ 18.42805393, 48.97614991 ], [ 18.42840823, 48.97642379 ], [ 18.42893232, 48.97677138 ], [ 18.42979319, 48.97735299 ], [ 18.43046432, 48.97774001 ], [ 18.43152434, 48.97841273 ], [ 18.4320279, 48.97873237 ], [ 18.43262295, 48.97912285 ], [ 18.43383699, 48.97988598 ], [ 18.43430449, 48.98015101 ], [ 18.43438875, 48.9801988 ], [ 18.43505497, 48.98057649 ], [ 18.4359377, 48.98121141 ], [ 18.43639842, 48.98150186 ], [ 18.43687292, 48.98178856 ], [ 18.43750832, 48.98222663 ], [ 18.43755246, 48.98225361 ], [ 18.43757906, 48.98226979 ], [ 18.43761229, 48.98229635 ], [ 18.43762385, 48.98230565 ], [ 18.44063023, 48.9843155 ], [ 18.44216443, 48.98402426 ] ] ] ] } },
{ "type": "Feature", "properties": { "@featureType": "CadastralZoning", "beginLifespanVersion": { "@nilReason": "http://inspire.ec.europa.eu/codelist/VoidReasonValue/Unpopulated", "@nil": "true" }, "endLifespanVersion": { "@nilReason": "http://inspire.ec.europa.eu/codelist/VoidReasonValue/Unpopulated", "@nil": "true" }, "estimatedAccuracy": { "value": -1, "@uom": "m" }, "inspireId": { "@dataType": "Identifier", "localId": "817465", "namespace": "SK.ESKN.CP", "versionId": "20260703T04:07:40" }, "label": "Horná Poruba", "level": { "@href": "http://inspire.ec.europa.eu/codelist/CadastralZoningLevelValue/3rdOrder" }, "levelName": { "value": "Katastrálne územie", "@locale": "sk" }, "name": { "@dataType": "name", "GeographicalName": { "@dataType": "GeographicalName", "language": "SLK", "nativeness": { "@href": "http://inspire.ec.europa.eu/codelist/NativenessValue/endonym", "@title": "endonym" }, "nameStatus": { "@href": "http://inspire.ec.europa.eu/codelist/NameStatusValue/official", "@title": "official" }, "sourceOfName": { "@nilReason": "http://inspire.ec.europa.eu/codelist/VoidReasonValue/Unpopulated", "@nil": "true" }, "pronunciation": { "@dataType": "pronunciation", "@nilReason": "http://inspire.ec.europa.eu/codelist/VoidReasonValue/Unpopulated", "@nil": "true" }, "spelling": { "@dataType": "SpellingOfName", "text": "Horná Poruba", "script": "LATN" } } }, "nationalCadastalZoningReference": "817465", "validFrom": "2026-06-30T16:00:00Z", "validTo": { "@nilReason": "http://inspire.ec.europa.eu/codelist/VoidReasonValue/Unpopulated", "@nil": "true" } }, "geometry": { "type": "MultiPolygon", "coordinates": [ [ [ [ 18.27715759, 48.97505721 ], [ 18.2773617, 48.97496929 ], [ 18.27753032, 48.97485399 ], [ 18.27762359, 48.97464354 ], [ 18.27824088, 48.97412118 ], [ 18.27878546, 48.97376295 ], [ 18.27886107, 48.97354708 ], [ 18.27886486, 48.97328888 ], [ 18.27921841, 48.97300758 ], [ 18.2796863, 48.97277471 ], [ 18.28018238, 48.97225623 ], [ 18.2801348, 48.97186524 ], [ 18.28006792, 48.97171262 ], [ 18.28030664, 48.97144126 ], [ 18.2804671, 48.9711318 ], [ 18.28050885, 48.97105663 ], [ 18.28066301, 48.9704254 ], [ 18.28067221, 48.97012463 ], [ 18.28061564, 48.96980146 ], [ 18.28099258, 48.96913137 ], [ 18.2813269, 48.968808 ], [ 18.28156238, 48.96857391 ], [ 18.28177581, 48.96833965 ], [ 18.2822484, 48.96789882 ], [ 18.28270856, 48.96754176 ], [ 18.2830694, 48.9672661 ], [ 18.28369369, 48.96697184 ], [ 18.28436899, 48.96718013 ], [ 18.28468877, 48.96754136 ], [ 18.28521187, 48.96737126 ], [ 18.28559289, 48.96707633 ], [ 18.28564779, 48.96703376 ], [ 18.28608384, 48.96669627 ], [ 18.28800756, 48.9657116 ], [ 18.2878629, 48.96562346 ], [ 18.28903071, 48.9652131 ], [ 18.28881164, 48.96502265 ], [ 18.28874154, 48.96475252 ], [ 18.28873316, 48.96449589 ], [ 18.28867267, 48.96431087 ], [ 18.2885536, 48.96422418 ], [ 18.28835589, 48.9641613 ], [ 18.28811311, 48.96412981 ], [ 18.28762337, 48.96399357 ], [ 18.28766946, 48.96393759 ], [ 18.28772581, 48.9638775 ], [ 18.28810699, 48.96347156 ], [ 18.28818505, 48.96340584 ], [ 18.28829098, 48.96331668 ], [ 18.28829903, 48.96326434 ], [ 18.28840708, 48.96310093 ], [ 18.28954358, 48.9628306 ], [ 18.29036213, 48.96269647 ], [ 18.29048644, 48.96229543 ], [ 18.29114214, 48.96175162 ], [ 18.2922093, 48.96190202 ], [ 18.29261217, 48.96188613 ], [ 18.29402481, 48.96129774 ], [ 18.29472772, 48.96070982 ], [ 18.29495766, 48.96057658 ], [ 18.29544116, 48.96077002 ], [ 18.29593321, 48.96073134 ], [ 18.29647264, 48.9608458 ], [ 18.29722911, 48.9607954 ], [ 18.29748378, 48.96069432 ], [ 18.29755087, 48.9607149 ], [ 18.29806776, 48.9608741 ], [ 18.29848962, 48.96086287 ], [ 18.29967822, 48.96117349 ], [ 18.29971778, 48.96118023 ], [ 18.2998282, 48.96089709 ], [ 18.29997994, 48.96016001 ], [ 18.30008506, 48.96002414 ], [ 18.30059183, 48.95982038 ], [ 18.30086307, 48.95966978 ], [ 18.3013491, 48.95955907 ], [ 18.30217186, 48.95897309 ], [ 18.30265079, 48.95835266 ], [ 18.30305631, 48.95785833 ], [ 18.30324307, 48.95761721 ], [ 18.30396001, 48.95699917 ], [ 18.30406176, 48.95686166 ], [ 18.30434096, 48.95660517 ], [ 18.30462488, 48.9565023 ], [ 18.30513095, 48.95626554 ], [ 18.30552349, 48.95594151 ], [ 18.30600436, 48.95547551 ], [ 18.30609345, 48.95526969 ], [ 18.30632328, 48.95501962 ], [ 18.30715973, 48.95543227 ], [ 18.30759907, 48.95517622 ], [ 18.30794604, 48.95512599 ], [ 18.30801206, 48.95494784 ], [ 18.3089674, 48.95520389 ], [ 18.30937834, 48.95491834 ], [ 18.31138217, 48.95470521 ], [ 18.31231784, 48.95454142 ], [ 18.31272973, 48.95452624 ], [ 18.31291685, 48.95459878 ], [ 18.31322166, 48.95457341 ], [ 18.31351288, 48.95454918 ], [ 18.31388848, 48.95451796 ], [ 18.31498382, 48.95420916 ], [ 18.31498948, 48.95350078 ], [ 18.31527041, 48.95278017 ], [ 18.31528067, 48.95252668 ], [ 18.31545277, 48.95144036 ], [ 18.31557755, 48.95039561 ], [ 18.31564961, 48.9503799 ], [ 18.31642156, 48.95022024 ], [ 18.31700395, 48.95048901 ], [ 18.31847704, 48.95017353 ], [ 18.31904101, 48.95007798 ], [ 18.31976012, 48.94991352 ], [ 18.32034426, 48.95001864 ], [ 18.32141408, 48.94991423 ], [ 18.32254077, 48.9497759 ], [ 18.32287271, 48.94975764 ], [ 18.32337568, 48.94965782 ], [ 18.32378492, 48.94919397 ], [ 18.32380595, 48.9491511 ], [ 18.324215, 48.94831502 ], [ 18.32446546, 48.94706749 ], [ 18.32502806, 48.9446461 ], [ 18.32517296, 48.94427399 ], [ 18.32494174, 48.94378652 ], [ 18.32639896, 48.94180357 ], [ 18.3263259, 48.93921001 ], [ 18.33087372, 48.93750335 ], [ 18.3324185, 48.93648766 ], [ 18.3329268, 48.93610272 ], [ 18.3339377, 48.9348722 ], [ 18.33409741, 48.93445055 ], [ 18.33421746, 48.93382478 ], [ 18.33441168, 48.93292517 ], [ 18.33469139, 48.93264121 ], [ 18.33490494, 48.93206572 ], [ 18.33546166, 48.93172536 ], [ 18.33542663, 48.93171762 ], [ 18.33419302, 48.93144562 ], [ 18.33398374, 48.931316 ], [ 18.33353087, 48.93104681 ], [ 18.33227722, 48.93106139 ], [ 18.33207718, 48.93098112 ], [ 18.3318704, 48.930827 ], [ 18.3312043, 48.93032119 ], [ 18.33085991, 48.93013488 ], [ 18.3305308, 48.92997019 ], [ 18.33025796, 48.92956001 ], [ 18.33002885, 48.92923756 ], [ 18.33001309, 48.92909137 ], [ 18.32998126, 48.92879733 ], [ 18.33001302, 48.92862907 ], [ 18.33005567, 48.92840303 ], [ 18.32985682, 48.92795249 ], [ 18.32984533, 48.92777233 ], [ 18.32983207, 48.92756237 ], [ 18.32982876, 48.92751065 ], [ 18.3300165, 48.92733418 ], [ 18.33007378, 48.92723017 ], [ 18.33009681, 48.92700862 ], [ 18.3299449, 48.92694937 ], [ 18.32979983, 48.92687958 ], [ 18.32976474, 48.92671451 ], [ 18.32992376, 48.92651964 ], [ 18.3299697, 48.92628936 ], [ 18.32987878, 48.92603596 ], [ 18.32978798, 48.92569475 ], [ 18.32945243, 48.92528997 ], [ 18.32938681, 48.92496272 ], [ 18.32937578, 48.92490713 ], [ 18.32936897, 48.92487299 ], [ 18.32934871, 48.9247723 ], [ 18.32900708, 48.92453948 ], [ 18.32847753, 48.92417859 ], [ 18.32845802, 48.92416531 ], [ 18.32708303, 48.92322812 ], [ 18.32511793, 48.92428293 ], [ 18.32433979, 48.9245255 ], [ 18.32403846, 48.92457211 ], [ 18.32402467, 48.92457386 ], [ 18.32391597, 48.92458725 ], [ 18.32388528, 48.92458733 ], [ 18.32353403, 48.92464701 ], [ 18.32305148, 48.9245614 ], [ 18.3227383, 48.92453441 ], [ 18.32216033, 48.92448757 ], [ 18.32187785, 48.92446474 ], [ 18.32181038, 48.92448225 ], [ 18.32155636, 48.92454532 ], [ 18.32120922, 48.92463149 ], [ 18.31969158, 48.9240436 ], [ 18.31954944, 48.92396088 ], [ 18.31947291, 48.92391722 ], [ 18.31941557, 48.9238862 ], [ 18.31874932, 48.92351008 ], [ 18.31830237, 48.9235557 ], [ 18.3182568, 48.92356072 ], [ 18.31803073, 48.9235888 ], [ 18.31796338, 48.92360117 ], [ 18.31739045, 48.92370586 ], [ 18.31741117, 48.92379114 ], [ 18.31671081, 48.92372069 ], [ 18.31632338, 48.9236368 ], [ 18.31600032, 48.92362692 ], [ 18.31554408, 48.92368934 ], [ 18.31551025, 48.92370413 ], [ 18.31539675, 48.92375452 ], [ 18.31532731, 48.92378509 ], [ 18.31415831, 48.92366027 ], [ 18.314119, 48.92365607 ], [ 18.31405678, 48.92379373 ], [ 18.31356274, 48.92372079 ], [ 18.31343824, 48.92369645 ], [ 18.31320495, 48.92364072 ], [ 18.31311629, 48.92366533 ], [ 18.31301438, 48.92369498 ], [ 18.31294753, 48.92370349 ], [ 18.31195618, 48.92383216 ], [ 18.31182274, 48.92375425 ], [ 18.31161549, 48.92363716 ], [ 18.31105741, 48.92357649 ], [ 18.31021829, 48.92351984 ], [ 18.3095832, 48.92334327 ], [ 18.30923476, 48.92333484 ], [ 18.30829921, 48.9233121 ], [ 18.30792303, 48.92357648 ], [ 18.30741946, 48.92392756 ], [ 18.30611187, 48.92367697 ], [ 18.30475616, 48.92450206 ], [ 18.30435458, 48.92449874 ], [ 18.30426086, 48.92449797 ], [ 18.30366849, 48.92448191 ], [ 18.30086586, 48.92476181 ], [ 18.30041105, 48.92476648 ], [ 18.30015896, 48.92489559 ], [ 18.30007944, 48.92493624 ], [ 18.2998077, 48.92491928 ], [ 18.29971122, 48.9249133 ], [ 18.299646, 48.92490926 ], [ 18.29953458, 48.92490234 ], [ 18.29937031, 48.92489208 ], [ 18.29923269, 48.92488342 ], [ 18.29804226, 48.9246462 ], [ 18.2977975, 48.92460712 ], [ 18.29744641, 48.92455987 ], [ 18.29674673, 48.92439149 ], [ 18.29674163, 48.92441278 ], [ 18.29668181, 48.9246633 ], [ 18.29658624, 48.92467776 ], [ 18.29625676, 48.92472253 ], [ 18.29606642, 48.92474843 ], [ 18.29594043, 48.92480306 ], [ 18.29524595, 48.9250498 ], [ 18.29429959, 48.92449886 ], [ 18.2941649, 48.92412733 ], [ 18.29379526, 48.92393208 ], [ 18.2932992, 48.92376109 ], [ 18.29308213, 48.92386726 ], [ 18.29288516, 48.92375143 ], [ 18.29255411, 48.92351647 ], [ 18.29255627, 48.92338193 ], [ 18.29219416, 48.92358911 ], [ 18.29201288, 48.92369278 ], [ 18.29182699, 48.9239805 ], [ 18.29184397, 48.92404789 ], [ 18.29181319, 48.92425087 ], [ 18.29173872, 48.92443584 ], [ 18.29155625, 48.9245371 ], [ 18.29121747, 48.92465227 ], [ 18.29033294, 48.92441817 ], [ 18.2892601, 48.92428391 ], [ 18.28867968, 48.9241381 ], [ 18.2882989, 48.9243065 ], [ 18.28783271, 48.92422599 ], [ 18.28774573, 48.9242839 ], [ 18.28757768, 48.92425743 ], [ 18.28705107, 48.92402657 ], [ 18.28619425, 48.92366403 ], [ 18.286017, 48.92387244 ], [ 18.28535477, 48.92385847 ], [ 18.28510494, 48.92459062 ], [ 18.28336, 48.92503568 ], [ 18.28310614, 48.92502024 ], [ 18.28210401, 48.92497403 ], [ 18.2804516, 48.92481376 ], [ 18.27900616, 48.92487313 ], [ 18.27847029, 48.9248911 ], [ 18.27836964, 48.92549096 ], [ 18.27841867, 48.9260901 ], [ 18.27854028, 48.92677863 ], [ 18.27866326, 48.92721921 ], [ 18.27858636, 48.9275286 ], [ 18.27817299, 48.92800011 ], [ 18.27767851, 48.92841495 ], [ 18.27781978, 48.92885177 ], [ 18.27893907, 48.92942374 ], [ 18.2790164, 48.9294737 ], [ 18.27933334, 48.92993653 ], [ 18.27978495, 48.93059599 ], [ 18.28088661, 48.93197341 ], [ 18.28158631, 48.9322947 ], [ 18.2815733, 48.93233566 ], [ 18.282443, 48.93243097 ], [ 18.28276232, 48.93239217 ], [ 18.28318452, 48.93243337 ], [ 18.28336865, 48.93250796 ], [ 18.2836625, 48.93273524 ], [ 18.28436048, 48.93365998 ], [ 18.28454203, 48.93402271 ], [ 18.28447449, 48.93453076 ], [ 18.28446072, 48.9346049 ], [ 18.28445443, 48.93470789 ], [ 18.28451255, 48.93526096 ], [ 18.28479682, 48.93574078 ], [ 18.28482442, 48.93588017 ], [ 18.28495921, 48.93617175 ], [ 18.28496731, 48.93627366 ], [ 18.28503227, 48.93710042 ], [ 18.28456328, 48.93749705 ], [ 18.2842013, 48.9381029 ], [ 18.28375804, 48.93870155 ], [ 18.28344, 48.93901735 ], [ 18.28269181, 48.93942815 ], [ 18.28188273, 48.93976574 ], [ 18.28061395, 48.94024304 ], [ 18.27985962, 48.94080891 ], [ 18.27897877, 48.94164833 ], [ 18.27823587, 48.94177419 ], [ 18.2787119, 48.94357646 ], [ 18.27848675, 48.94383406 ], [ 18.27859384, 48.94451346 ], [ 18.27826198, 48.94489897 ], [ 18.27724434, 48.9457672 ], [ 18.2772133, 48.94659575 ], [ 18.27731908, 48.94727355 ], [ 18.2774348, 48.94800236 ], [ 18.27709176, 48.94930438 ], [ 18.27662127, 48.94994966 ], [ 18.27595651, 48.950817 ], [ 18.27579632, 48.95115724 ], [ 18.27594685, 48.95228093 ], [ 18.2759315, 48.95250364 ], [ 18.27586043, 48.95322279 ], [ 18.27716228, 48.95411187 ], [ 18.27698341, 48.95447552 ], [ 18.27630358, 48.9551355 ], [ 18.27619805, 48.95611562 ], [ 18.27673158, 48.9569355 ], [ 18.27665512, 48.95733988 ], [ 18.27681909, 48.95731639 ], [ 18.27688768, 48.95730655 ], [ 18.27694006, 48.95729904 ], [ 18.27752942, 48.95723924 ], [ 18.27786432, 48.95731667 ], [ 18.27785621, 48.95752282 ], [ 18.27782615, 48.9583007 ], [ 18.27798559, 48.9592431 ], [ 18.27583264, 48.95901606 ], [ 18.27602406, 48.959544 ], [ 18.27732071, 48.95968406 ], [ 18.27849126, 48.95992501 ], [ 18.28034957, 48.96006674 ], [ 18.28110836, 48.96049921 ], [ 18.27999156, 48.96116925 ], [ 18.27784991, 48.96161046 ], [ 18.27788183, 48.96176192 ], [ 18.27789507, 48.9618244 ], [ 18.2779025, 48.96185993 ], [ 18.27798614, 48.96225694 ], [ 18.27760748, 48.96242967 ], [ 18.27683297, 48.96278274 ], [ 18.27733013, 48.96363412 ], [ 18.27769558, 48.96412388 ], [ 18.27801699, 48.96399818 ], [ 18.27963879, 48.96536798 ], [ 18.27943378, 48.96611376 ], [ 18.27976599, 48.96620376 ], [ 18.27904305, 48.96743086 ], [ 18.2791398, 48.96815851 ], [ 18.27901034, 48.96843839 ], [ 18.2789541, 48.9690387 ], [ 18.27841788, 48.9703537 ], [ 18.27845738, 48.97160947 ], [ 18.27835135, 48.97184204 ], [ 18.27832523, 48.97189932 ], [ 18.27824384, 48.97207758 ], [ 18.27821849, 48.9721332 ], [ 18.27822187, 48.97240471 ], [ 18.27811958, 48.97292072 ], [ 18.27825414, 48.97312311 ], [ 18.27754024, 48.97369146 ], [ 18.27726842, 48.97368249 ], [ 18.27705402, 48.97393537 ], [ 18.27665966, 48.97414368 ], [ 18.27661183, 48.97416553 ], [ 18.27620071, 48.97425844 ], [ 18.27581816, 48.97450118 ], [ 18.27566067, 48.97457116 ], [ 18.27539095, 48.97461647 ], [ 18.27505837, 48.97453203 ], [ 18.27475652, 48.97463861 ], [ 18.27449794, 48.9746553 ], [ 18.27440958, 48.97473975 ], [ 18.27416493, 48.97491447 ], [ 18.27459669, 48.97484412 ], [ 18.27500003, 48.97484347 ], [ 18.27518503, 48.97495774 ], [ 18.27545101, 48.97499462 ], [ 18.27566677, 48.97497091 ], [ 18.27589579, 48.97490019 ], [ 18.27593821, 48.97494077 ], [ 18.27598149, 48.97498212 ], [ 18.27601721, 48.97501627 ], [ 18.27627204, 48.97520796 ], [ 18.27715759, 48.97505721 ] ] ] ] } }
]
}
