{
"type": "FeatureCollection",
"name": "gis",
"crs": { "type": "name", "properties": { "name": "urn:ogc:def:crs:OGC:1.3:CRS84" } },
"features": [
{ "type": "Feature", "properties": { "@featureType": "CadastralParcel", "areaValue": { "value": 663, "@uom": "m2" }, "beginLifespanVersion": { "@nilReason": "http://inspire.ec.europa.eu/codelist/VoidReasonValue/Unpopulated", "@nil": "true" }, "endLifespanVersion": { "@nilReason": "http://inspire.ec.europa.eu/codelist/VoidReasonValue/Unpopulated", "@nil": "true" }, "inspireId": { "@dataType": "Identifier", "localId": "806404_3764.E", "namespace": "SK.ESKN.CP", "versionId": "20260703T07:07:58" }, "label": "3764", "nationalCadastralReference": "806404_3764.E", "referencePoint": { "type": "Point", "coordinates": [ 19.35408846, 49.39055577 ] }, "validFrom": "2026-06-30T16:00:00Z", "validTo": { "@nilReason": "http://inspire.ec.europa.eu/codelist/VoidReasonValue/Unpopulated", "@nil": "true" }, "administrativeUnit": { "@href": "#auAdmUnitS.1976" } }, "geometry": { "type": "Polygon", "coordinates": [ [ [ 19.35429868, 49.39052514 ], [ 19.35427505, 49.39048752 ], [ 19.35422188, 49.39038939 ], [ 19.35412665, 49.39041901 ], [ 19.35400646, 49.39045837 ], [ 19.35393999, 49.39052548 ], [ 19.35387837, 49.39058607 ], [ 19.35406223, 49.39075928 ], [ 19.35429868, 49.39052514 ] ] ] } },
{ "type": "Feature", "properties": { "@featureType": "CadastralParcel", "areaValue": { "value": 529, "@uom": "m2" }, "beginLifespanVersion": { "@nilReason": "http://inspire.ec.europa.eu/codelist/VoidReasonValue/Unpopulated", "@nil": "true" }, "endLifespanVersion": { "@nilReason": "http://inspire.ec.europa.eu/codelist/VoidReasonValue/Unpopulated", "@nil": "true" }, "inspireId": { "@dataType": "Identifier", "localId": "806404_3765.E", "namespace": "SK.ESKN.CP", "versionId": "20260703T07:07:58" }, "label": "3765", "nationalCadastralReference": "806404_3765.E", "referencePoint": { "type": "Point", "coordinates": [ 19.35389415, 49.3907939 ] }, "validFrom": "2026-06-30T16:00:00Z", "validTo": { "@nilReason": "http://inspire.ec.europa.eu/codelist/VoidReasonValue/Unpopulated", "@nil": "true" }, "administrativeUnit": { "@href": "#auAdmUnitS.1976" } }, "geometry": { "type": "Polygon", "coordinates": [ [ [ 19.35406223, 49.39075928 ], [ 19.35387837, 49.39058607 ], [ 19.3538165, 49.39064014 ], [ 19.35373978, 49.3906974 ], [ 19.35379721, 49.39076932 ], [ 19.35372262, 49.39081848 ], [ 19.35387024, 49.39095574 ], [ 19.35406223, 49.39075928 ] ] ] } },
{ "type": "Feature", "properties": { "@featureType": "CadastralParcel", "areaValue": { "value": 1362, "@uom": "m2" }, "beginLifespanVersion": { "@nilReason": "http://inspire.ec.europa.eu/codelist/VoidReasonValue/Unpopulated", "@nil": "true" }, "endLifespanVersion": { "@nilReason": "http://inspire.ec.europa.eu/codelist/VoidReasonValue/Unpopulated", "@nil": "true" }, "inspireId": { "@dataType": "Identifier", "localId": "806404_3769.E", "namespace": "SK.ESKN.CP", "versionId": "20260703T07:07:58" }, "label": "3769", "nationalCadastralReference": "806404_3769.E", "referencePoint": { "type": "Point", "coordinates": [ 19.35301079, 49.39190545 ] }, "validFrom": "2026-06-30T16:00:00Z", "validTo": { "@nilReason": "http://inspire.ec.europa.eu/codelist/VoidReasonValue/Unpopulated", "@nil": "true" }, "administrativeUnit": { "@href": "#auAdmUnitS.1976" } }, "geometry": { "type": "Polygon", "coordinates": [ [ [ 19.35231249, 49.39228421 ], [ 19.35231156, 49.39234799 ], [ 19.35244658, 49.39238874 ], [ 19.35260835, 49.39228895 ], [ 19.35296531, 49.39202403 ], [ 19.35324727, 49.39178688 ], [ 19.35343856, 49.39155784 ], [ 19.35334583, 49.39148922 ], [ 19.35314037, 49.3917542 ], [ 19.35252932, 49.39216481 ], [ 19.35231249, 49.39228421 ] ] ] } },
{ "type": "Feature", "properties": { "@featureType": "CadastralParcel", "areaValue": { "value": 2301, "@uom": "m2" }, "beginLifespanVersion": { "@nilReason": "http://inspire.ec.europa.eu/codelist/VoidReasonValue/Unpopulated", "@nil": "true" }, "endLifespanVersion": { "@nilReason": "http://inspire.ec.europa.eu/codelist/VoidReasonValue/Unpopulated", "@nil": "true" }, "inspireId": { "@dataType": "Identifier", "localId": "806404_4254.E", "namespace": "SK.ESKN.CP", "versionId": "20260703T07:07:58" }, "label": "4254", "nationalCadastralReference": "806404_4254.E", "referencePoint": { "type": "Point", "coordinates": [ 19.35170315, 49.39313072 ] }, "validFrom": "2026-06-30T16:00:00Z", "validTo": { "@nilReason": "http://inspire.ec.europa.eu/codelist/VoidReasonValue/Unpopulated", "@nil": "true" }, "administrativeUnit": { "@href": "#auAdmUnitS.1976" } }, "geometry": { "type": "Polygon", "coordinates": [ [ [ 19.35175442, 49.39319437 ], [ 19.3519405, 49.39295751 ], [ 19.35224222, 49.39259959 ], [ 19.3523429, 49.39248522 ], [ 19.35242394, 49.39239363 ], [ 19.35244658, 49.39238874 ], [ 19.35231156, 49.39234799 ], [ 19.35225491, 49.39240357 ], [ 19.35212389, 49.39253771 ], [ 19.35196921, 49.39269616 ], [ 19.35184837, 49.3928105 ], [ 19.35164258, 49.39306707 ], [ 19.35137526, 49.3934852 ], [ 19.3512892, 49.39368274 ], [ 19.35126105, 49.39376923 ], [ 19.35129176, 49.3939222 ], [ 19.35137628, 49.3939386 ], [ 19.35142536, 49.39377088 ], [ 19.351458, 49.39365981 ], [ 19.35158915, 49.39344914 ], [ 19.35175442, 49.39319437 ] ] ] } }
]
}
