{
"type": "FeatureCollection",
"name": "gis",
"crs": { "type": "name", "properties": { "name": "urn:ogc:def:crs:OGC:1.3:CRS84" } },
"features": [
{ "type": "Feature", "properties": { "@featureType": "CadastralZoning", "beginLifespanVersion": { "@nilReason": "http://inspire.ec.europa.eu/codelist/VoidReasonValue/Unpopulated", "@nil": "true" }, "endLifespanVersion": { "@nilReason": "http://inspire.ec.europa.eu/codelist/VoidReasonValue/Unpopulated", "@nil": "true" }, "estimatedAccuracy": { "value": -1, "@uom": "m" }, "inspireId": { "@dataType": "Identifier", "localId": "809527", "namespace": "SK.ESKN.CP", "versionId": "20260703T04:07:40" }, "label": "Číčov", "level": { "@href": "http://inspire.ec.europa.eu/codelist/CadastralZoningLevelValue/3rdOrder" }, "levelName": { "value": "Katastrálne územie", "@locale": "sk" }, "name_1": { "@dataType": "name", "GeographicalName": { "@dataType": "GeographicalName", "language": "SLK", "nativeness": { "@href": "http://inspire.ec.europa.eu/codelist/NativenessValue/endonym", "@title": "endonym" }, "nameStatus": { "@href": "http://inspire.ec.europa.eu/codelist/NameStatusValue/official", "@title": "official" }, "sourceOfName": { "@nilReason": "http://inspire.ec.europa.eu/codelist/VoidReasonValue/Unpopulated", "@nil": "true" }, "pronunciation": { "@dataType": "pronunciation", "@nilReason": "http://inspire.ec.europa.eu/codelist/VoidReasonValue/Unpopulated", "@nil": "true" }, "spelling": { "@dataType": "SpellingOfName", "text": "Číčov", "script": "LATN" } } }, "nationalCadastalZoningReference": "809527", "validFrom": "2026-06-30T16:00:00Z", "validTo": { "@nilReason": "http://inspire.ec.europa.eu/codelist/VoidReasonValue/Unpopulated", "@nil": "true" }, "place_id": 419245912, "osm_type": "relation", "osm_id": 2218875, "place_rank": 22, "category": "place", "type": "cadastral_community", "importance": 0.10671966353856716, "addresstype": "cadastral_community", "name_2": "Číčov", "display_name": "Číčov, okres Komárno, Nitriansky kraj, 946 19, Slovensko" }, "geometry": { "type": "Polygon", "coordinates": [ [ [ 17.79295872, 47.82043195 ], [ 17.79297067, 47.82041815 ], [ 17.79302721, 47.82035294 ], [ 17.7930823, 47.82028944 ], [ 17.79310686, 47.82026188 ], [ 17.79314787, 47.82021602 ], [ 17.79354172, 47.81977447 ], [ 17.79354132, 47.81976271 ], [ 17.793537794135851, 47.81965050234826 ], [ 17.793524165053967, 47.81955386617075 ], [ 17.79350298, 47.81949932 ], [ 17.79326956, 47.81930419 ], [ 17.793055740708215, 47.819139507724664 ], [ 17.792834504668416, 47.818970596364785 ], [ 17.79221695, 47.81851807 ], [ 17.79183236, 47.81813743 ], [ 17.79153092, 47.81782824 ], [ 17.79107534, 47.81705276 ], [ 17.79106915, 47.81672796 ], [ 17.79110577, 47.81630414 ], [ 17.79205879, 47.81536893 ], [ 17.792066750451525, 47.815363974391971 ], [ 17.7920706, 47.8153602 ], [ 17.7931515, 47.8146867 ], [ 17.798558007231005, 47.812298203318292 ], [ 17.798567760969178, 47.812287945759635 ], [ 17.798704451531222, 47.812016961359205 ], [ 17.79872886, 47.81195402 ], [ 17.79895224, 47.81091936 ], [ 17.798963709242571, 47.810913956281446 ], [ 17.7989645, 47.8109103 ], [ 17.7990388, 47.8108754 ], [ 17.8000571, 47.8109613 ], [ 17.8018301, 47.8112857 ], [ 17.8025799, 47.8116779 ], [ 17.803784136565913, 47.810906871953854 ], [ 17.80365398, 47.81082902 ], [ 17.803651651901429, 47.810762230093616 ], [ 17.803600071397575, 47.810560917099842 ], [ 17.80352959, 47.81034255 ], [ 17.803154362429417, 47.809433424364876 ], [ 17.802597072732379, 47.808138998003457 ], [ 17.80253779, 47.80803781 ], [ 17.802455478884724, 47.807939440407232 ], [ 17.801997114498516, 47.807505264047464 ], [ 17.80092135, 47.8065015 ], [ 17.80083231, 47.80641839 ], [ 17.80075472, 47.80634855 ], [ 17.80075894, 47.80619916 ], [ 17.800770143202719, 47.805797508416426 ], [ 17.800775914976658, 47.804983688291102 ], [ 17.80076579, 47.80467032 ], [ 17.80067178, 47.80420118 ], [ 17.80057236, 47.80385001 ], [ 17.800547171840805, 47.80375617632005 ], [ 17.80038854759335, 47.803251528636117 ], [ 17.80031867, 47.80303815 ], [ 17.80025599, 47.80287702 ], [ 17.800150010498939, 47.802655453518575 ], [ 17.799708090245321, 47.801859826952537 ], [ 17.79952809, 47.80156708 ], [ 17.79920312, 47.80158501 ], [ 17.7991459, 47.80128414 ], [ 17.79908808, 47.80099155 ], [ 17.79905841, 47.80098989 ], [ 17.79835350002703, 47.800950268350164 ], [ 17.798304108212012, 47.800948162224216 ], [ 17.79824289, 47.80094673 ], [ 17.79754015, 47.80093062 ], [ 17.79705718, 47.80090423 ], [ 17.79684345, 47.80087921 ], [ 17.79624228, 47.8007958 ], [ 17.7962927, 47.800638 ], [ 17.7963314, 47.80051685 ], [ 17.796395690283315, 47.800410280321302 ], [ 17.796553884754029, 47.799988489448879 ], [ 17.79658822, 47.79987443 ], [ 17.7965891, 47.7997867 ], [ 17.796589214811824, 47.799776457460297 ], [ 17.79653169940315, 47.799312873198041 ], [ 17.79652915, 47.79929627 ], [ 17.79649428, 47.79906823 ], [ 17.79648464, 47.7990055 ], [ 17.79646956, 47.79889041 ], [ 17.79644458, 47.79870073 ], [ 17.7964052, 47.79840088 ], [ 17.79643802, 47.79818166 ], [ 17.79645184, 47.79808949 ], [ 17.796462676535974, 47.798090723874182 ], [ 17.7964642, 47.7980806 ], [ 17.796848, 47.7981236 ], [ 17.799526146316445, 47.797640580387338 ], [ 17.80005215, 47.79682397 ], [ 17.80048626, 47.79615001 ], [ 17.80055116, 47.79600864 ], [ 17.80065252, 47.79575754 ], [ 17.80014527, 47.79575223 ], [ 17.79957609, 47.7957783 ], [ 17.79808351, 47.79598994 ], [ 17.79724789, 47.79608252 ], [ 17.79717593, 47.79609124 ], [ 17.79709524, 47.79610104 ], [ 17.79699168, 47.79610363 ], [ 17.79659493, 47.79611348 ], [ 17.79658068, 47.79611386 ], [ 17.79651746, 47.79611544 ], [ 17.7963542, 47.79611948 ], [ 17.79630349, 47.79612075 ], [ 17.79629421, 47.79612099 ], [ 17.79626705, 47.79612165 ], [ 17.79615864, 47.79612439 ], [ 17.79613282, 47.79612505 ], [ 17.7961191, 47.79612537 ], [ 17.7961158, 47.79610538 ], [ 17.79608767, 47.79593195 ], [ 17.79608108, 47.79589099 ], [ 17.79605474, 47.79572896 ], [ 17.79602429, 47.79554111 ], [ 17.79601298, 47.79547096 ], [ 17.79599196, 47.7953415 ], [ 17.7958684, 47.79497708 ], [ 17.79584452, 47.79490678 ], [ 17.79581675, 47.79482467 ], [ 17.79577075, 47.79468878 ], [ 17.79572232, 47.79454615 ], [ 17.79571478, 47.79453168 ], [ 17.79553235, 47.7941842 ], [ 17.79547972, 47.79408402 ], [ 17.7954288, 47.79398693 ], [ 17.79540043, 47.79393279 ], [ 17.79537509, 47.79388976 ], [ 17.79532037, 47.79379704 ], [ 17.79512524, 47.79346592 ], [ 17.79507173, 47.7933712 ], [ 17.79501047, 47.79326263 ], [ 17.79495384, 47.7931623 ], [ 17.79485968, 47.79299541 ], [ 17.79481458, 47.79291557 ], [ 17.79479226, 47.79288285 ], [ 17.79471841, 47.79277413 ], [ 17.79463775, 47.7926555 ], [ 17.79456479, 47.79254819 ], [ 17.79453477, 47.79250414 ], [ 17.79448847, 47.79243606 ], [ 17.79444829, 47.79237612 ], [ 17.79441995, 47.79233345 ], [ 17.7943773, 47.79226912 ], [ 17.79423914, 47.79206139 ], [ 17.7941598, 47.79194194 ], [ 17.79415144, 47.79192859 ], [ 17.79409182, 47.79183349 ], [ 17.79406816, 47.7917958 ], [ 17.79398766, 47.79166725 ], [ 17.79390848, 47.79154077 ], [ 17.79377548, 47.79132866 ], [ 17.79375524, 47.79129643 ], [ 17.79371642, 47.79123441 ], [ 17.79369056, 47.79119324 ], [ 17.79366448, 47.7911517 ], [ 17.79363621, 47.79110659 ], [ 17.79353042, 47.79093763 ], [ 17.79348555, 47.79086593 ], [ 17.79343285, 47.79077614 ], [ 17.79340817, 47.79073414 ], [ 17.79335287, 47.79063985 ], [ 17.79328678, 47.79052736 ], [ 17.79322473, 47.79042163 ], [ 17.79310437, 47.79022892 ], [ 17.79303467, 47.79011738 ], [ 17.7929686, 47.79001167 ], [ 17.79293627, 47.78995999 ], [ 17.79289814, 47.78989882 ], [ 17.7928356, 47.78979866 ], [ 17.79279488, 47.78974465 ], [ 17.79276096, 47.78969973 ], [ 17.79269247, 47.78960877 ], [ 17.79262987, 47.78952568 ], [ 17.79256465, 47.78943917 ], [ 17.79246859, 47.78931172 ], [ 17.79240849, 47.78923194 ], [ 17.79230585, 47.78909578 ], [ 17.79227476, 47.78905465 ], [ 17.7922455, 47.7890158 ], [ 17.79221749, 47.78897865 ], [ 17.79213764, 47.78887272 ], [ 17.79211996, 47.78884922 ], [ 17.79106678, 47.78921001 ], [ 17.790972, 47.78922001 ], [ 17.790911356921846, 47.789227168536506 ], [ 17.790133047383499, 47.789347659705967 ], [ 17.79000974, 47.78937095 ], [ 17.78983984, 47.78940102 ], [ 17.78959867, 47.78950234 ], [ 17.78950669, 47.78956336 ], [ 17.78932522, 47.78969062 ], [ 17.78921508, 47.78976189 ], [ 17.7890652, 47.78985417 ], [ 17.78893688, 47.78987716 ], [ 17.78864539, 47.78993001 ], [ 17.78842164, 47.78989243 ], [ 17.788057144308507, 47.789344465916336 ], [ 17.788029095570657, 47.789304276081957 ], [ 17.78793099, 47.78919015 ], [ 17.78789103, 47.78917466 ], [ 17.78759766, 47.78905931 ], [ 17.78710148, 47.78884357 ], [ 17.78688349, 47.7888011 ], [ 17.78584303, 47.78881356 ], [ 17.78581243, 47.78881392 ], [ 17.78577592, 47.78881435 ], [ 17.78565819, 47.78881579 ], [ 17.78562919, 47.78881615 ], [ 17.78561201, 47.78881635 ], [ 17.78540018, 47.78881896 ], [ 17.78461305, 47.78883012 ], [ 17.7844509, 47.78826495 ], [ 17.78414646, 47.78722147 ], [ 17.7823702, 47.78570116 ], [ 17.78202227, 47.7854034 ], [ 17.78140271, 47.78487892 ], [ 17.78114448, 47.78458286 ], [ 17.78099693, 47.78425748 ], [ 17.78092736, 47.78410421 ], [ 17.78088718, 47.7834034 ], [ 17.78088154, 47.78330478 ], [ 17.78125935, 47.78295351 ], [ 17.781262381787393, 47.782951833164326 ], [ 17.7812709, 47.7829439 ], [ 17.782944007095988, 47.782019314360454 ], [ 17.78303823, 47.78188299 ], [ 17.78305601, 47.78170437 ], [ 17.78279892, 47.78133162 ], [ 17.78193836, 47.78071807 ], [ 17.78154965, 47.78043556 ], [ 17.78107795, 47.77999615 ], [ 17.78065621, 47.7796321 ], [ 17.77976229, 47.77853626 ], [ 17.77973269, 47.77849711 ], [ 17.77971294, 47.77847403 ], [ 17.77944205, 47.77813283 ], [ 17.77934682, 47.77806124 ], [ 17.77893784, 47.77776652 ], [ 17.77756221, 47.77677503 ], [ 17.77698743, 47.77636078 ], [ 17.777000742664924, 47.776351808820259 ], [ 17.7769999, 47.7763512 ], [ 17.777051879063038, 47.776317348866421 ], [ 17.77758976, 47.77595488 ], [ 17.77762169, 47.77593312 ], [ 17.77788863, 47.77575106 ], [ 17.77790715, 47.77574011 ], [ 17.77792655, 47.77572859 ], [ 17.77798576, 47.77569353 ], [ 17.77824838, 47.77553803 ], [ 17.778250080735521, 47.775537025357295 ], [ 17.778282527923711, 47.77551589427032 ], [ 17.77887671, 47.77460053 ], [ 17.77895337, 47.77448311 ], [ 17.77899851, 47.7743845 ], [ 17.77973373, 47.77274739 ], [ 17.78039282, 47.77157716 ], [ 17.78102537, 47.77072544 ], [ 17.78131126, 47.77034045 ], [ 17.78224097, 47.76920487 ], [ 17.78338318, 47.76800223 ], [ 17.78341842, 47.76796504 ], [ 17.78343058, 47.76795253 ], [ 17.7842421, 47.76711573 ], [ 17.78459956, 47.76678776 ], [ 17.78565626, 47.76581839 ], [ 17.78590505, 47.7655922 ], [ 17.78705293, 47.76454848 ], [ 17.78705477, 47.76454678 ], [ 17.7870823, 47.76452176 ], [ 17.78672148, 47.76380163 ], [ 17.78671517, 47.76378904 ], [ 17.78667423, 47.76370747 ], [ 17.78666169, 47.76368267 ], [ 17.7866279, 47.76361545 ], [ 17.78658421, 47.76352855 ], [ 17.78654465, 47.76344968 ], [ 17.78652582, 47.76342476 ], [ 17.7860207, 47.76275687 ], [ 17.78596596, 47.76268419 ], [ 17.78507711, 47.76150181 ], [ 17.78501117, 47.76141408 ], [ 17.78499542, 47.76139314 ], [ 17.78496359, 47.76135078 ], [ 17.78497122, 47.76133907 ], [ 17.7849809, 47.76132413 ], [ 17.78502284, 47.76125946 ], [ 17.78504407, 47.76122674 ], [ 17.78545115, 47.76059975 ], [ 17.78550683, 47.76051399 ], [ 17.78517292, 47.76021964 ], [ 17.78509094, 47.76014734 ], [ 17.78505808, 47.76011829 ], [ 17.78470505, 47.75980711 ], [ 17.78468664, 47.75979089 ], [ 17.78460825, 47.75972179 ], [ 17.78458865, 47.75970449 ], [ 17.78455376, 47.75967369 ], [ 17.784524, 47.75964745 ], [ 17.78448504, 47.75961314 ], [ 17.78371355, 47.75850842 ], [ 17.78325943, 47.75802115 ], [ 17.78323712, 47.75799728 ], [ 17.78321446, 47.75797301 ], [ 17.78248397, 47.75718919 ], [ 17.78191875, 47.7568609 ], [ 17.78188861, 47.7568434 ], [ 17.78183178, 47.75681041 ], [ 17.78177409, 47.75677693 ], [ 17.78172174, 47.75674657 ], [ 17.78159544, 47.75667322 ], [ 17.78147275, 47.75660199 ], [ 17.78139136, 47.75655475 ], [ 17.7813302, 47.75651923 ], [ 17.78127513, 47.75648717 ], [ 17.78106956, 47.75636779 ], [ 17.78065113, 47.75612469 ], [ 17.78045922, 47.7560132 ], [ 17.78029809, 47.75591953 ], [ 17.78026719, 47.75589773 ], [ 17.78013138, 47.75580203 ], [ 17.77984544, 47.75560069 ], [ 17.77978682, 47.75555937 ], [ 17.77973955, 47.75552608 ], [ 17.77967836, 47.75548298 ], [ 17.77956148, 47.75540064 ], [ 17.77921789, 47.75515877 ], [ 17.77880678, 47.75486924 ], [ 17.77777403, 47.75401379 ], [ 17.77774588, 47.75399054 ], [ 17.77761205, 47.7538814 ], [ 17.77749246, 47.75378372 ], [ 17.77744874, 47.75374803 ], [ 17.776922, 47.75331347 ], [ 17.77687845, 47.75327751 ], [ 17.776848, 47.75325249 ], [ 17.77665582, 47.7530923 ], [ 17.77589585, 47.75307345 ], [ 17.775781901175616, 47.753070605850347 ], [ 17.774008367357414, 47.753045201276244 ], [ 17.77357288, 47.7530426 ], [ 17.77345513, 47.75304185 ], [ 17.77313344, 47.75303993 ], [ 17.77280225, 47.75303796 ], [ 17.77250469, 47.7530622 ], [ 17.77155932, 47.75313931 ], [ 17.7709566, 47.75318849 ], [ 17.77002166, 47.7532647 ], [ 17.7698659, 47.75327737 ], [ 17.7695941, 47.75329834 ], [ 17.76941692, 47.75331202 ], [ 17.76929632, 47.75332129 ], [ 17.7691542, 47.7533322 ], [ 17.76824865, 47.75340201 ], [ 17.76769747, 47.75344454 ], [ 17.76752472, 47.75348144 ], [ 17.76666554, 47.75366514 ], [ 17.76615075, 47.75377514 ], [ 17.76579491, 47.75385217 ], [ 17.76563632, 47.75388643 ], [ 17.76561602, 47.75389086 ], [ 17.76546014, 47.75392492 ], [ 17.76533864, 47.75395147 ], [ 17.76502995, 47.75401763 ], [ 17.76494289, 47.75403233 ], [ 17.7645106, 47.75410521 ], [ 17.76418979, 47.75415923 ], [ 17.76376724, 47.75423046 ], [ 17.76333765, 47.75430315 ], [ 17.76297458, 47.75436446 ], [ 17.76259065, 47.75442943 ], [ 17.76246054, 47.75445137 ], [ 17.76014449, 47.75507792 ], [ 17.75994667, 47.75514323 ], [ 17.75804976, 47.75576974 ], [ 17.75759417, 47.75596614 ], [ 17.75676485, 47.75632648 ], [ 17.75605382, 47.75662811 ], [ 17.75429403, 47.75718493 ], [ 17.75408264, 47.75725534 ], [ 17.75389257, 47.7573148 ], [ 17.75366009, 47.7573875 ], [ 17.75350656, 47.75743551 ], [ 17.752591215452174, 47.757845540064082 ], [ 17.752494091067007, 47.757889429584452 ], [ 17.75116487, 47.75849354 ], [ 17.75019964, 47.75872051 ], [ 17.75005859, 47.75875368 ], [ 17.74937262, 47.75890971 ], [ 17.74877321, 47.75904695 ], [ 17.74874334, 47.75905375 ], [ 17.74872764, 47.75905782 ], [ 17.74863405, 47.75905856 ], [ 17.74848708, 47.75905974 ], [ 17.74839294, 47.75906053 ], [ 17.74834421, 47.75906037 ], [ 17.74819695, 47.75905982 ], [ 17.74798677, 47.75906093 ], [ 17.74717748, 47.75906481 ], [ 17.746055217149681, 47.759070195043613 ], [ 17.74659, 47.7619456 ], [ 17.746578108287782, 47.761954166106264 ], [ 17.74657823, 47.76195483 ], [ 17.74610324, 47.76229711 ], [ 17.74396233, 47.76383939 ], [ 17.74371056, 47.76374748 ], [ 17.74328789, 47.7635932 ], [ 17.74264394, 47.76335813 ], [ 17.7416397, 47.76299155 ], [ 17.74074069, 47.76266335 ], [ 17.74060805, 47.76261494 ], [ 17.740392966202773, 47.762537206256617 ], [ 17.737668345885893, 47.761553822027693 ], [ 17.73761364, 47.76153478 ], [ 17.73757312, 47.76152068 ], [ 17.73747228, 47.76148554 ], [ 17.73736224, 47.76144721 ], [ 17.73683551, 47.76126001 ], [ 17.73653509, 47.76115871 ], [ 17.73578084, 47.76103228 ], [ 17.7355296, 47.76099015 ], [ 17.73488841, 47.7608821 ], [ 17.73471049, 47.76085423 ], [ 17.73443691, 47.76080898 ], [ 17.73399405, 47.76074209 ], [ 17.73373438, 47.76069997 ], [ 17.73364694, 47.76068518 ], [ 17.73356972, 47.76067103 ], [ 17.73345872, 47.76062803 ], [ 17.73289345, 47.7604019 ], [ 17.73304843, 47.76022719 ], [ 17.73319181, 47.76006756 ], [ 17.7332363, 47.76001797 ], [ 17.73328062, 47.75996854 ], [ 17.733304586377468, 47.759941841479154 ], [ 17.73349748188415, 47.759723848793477 ], [ 17.73350259, 47.75971802 ], [ 17.73357462, 47.75963574 ], [ 17.73365967, 47.75953875 ], [ 17.73374376, 47.75944286 ], [ 17.73382263, 47.7593528 ], [ 17.73385108, 47.75932035 ], [ 17.73388666, 47.75929061 ], [ 17.73400479, 47.75919172 ], [ 17.73409232, 47.75911845 ], [ 17.73412881, 47.75908795 ], [ 17.73418777, 47.75903728 ], [ 17.73424448, 47.75899125 ], [ 17.73429387, 47.75894983 ], [ 17.7343985, 47.75886228 ], [ 17.73500818, 47.75835193 ], [ 17.73505331, 47.75831412 ], [ 17.73509875, 47.75827605 ], [ 17.73519429, 47.75819615 ], [ 17.735197587130507, 47.758194836658326 ], [ 17.7352066, 47.7581873 ], [ 17.736502053221407, 47.757668820791949 ], [ 17.73651374, 47.75764966 ], [ 17.73652897, 47.7576247 ], [ 17.73654471, 47.75759895 ], [ 17.73660977, 47.75749239 ], [ 17.73666548, 47.75740114 ], [ 17.7367091, 47.75732964 ], [ 17.73680271, 47.75717628 ], [ 17.73691379, 47.75699439 ], [ 17.73689291, 47.75692633 ], [ 17.73686814, 47.75684566 ], [ 17.7368123, 47.75666197 ], [ 17.73678668, 47.75657971 ], [ 17.73675924, 47.75649029 ], [ 17.73674066, 47.75642978 ], [ 17.73671995, 47.75636237 ], [ 17.73655189, 47.75581444 ], [ 17.73654024, 47.75577658 ], [ 17.73652851, 47.75573828 ], [ 17.736540963258218, 47.755730335188133 ], [ 17.7365404, 47.7557285 ], [ 17.736777017096678, 47.755579627075896 ], [ 17.73687879, 47.75551467 ], [ 17.73698292, 47.75544822 ], [ 17.73707353, 47.75539041 ], [ 17.7371286, 47.7553553 ], [ 17.73717456, 47.75532603 ], [ 17.73728866, 47.75525325 ], [ 17.73734418, 47.75521781 ], [ 17.73740233, 47.75518072 ], [ 17.73749778, 47.75512186 ], [ 17.7375676, 47.75507882 ], [ 17.73759468, 47.75506209 ], [ 17.73762587, 47.75504282 ], [ 17.73774781, 47.75496756 ], [ 17.73782576, 47.75491907 ], [ 17.73785359, 47.75490176 ], [ 17.73790063, 47.75487237 ], [ 17.73792058, 47.75485981 ], [ 17.737956987866689, 47.754837222146797 ], [ 17.738314, 47.7546126 ], [ 17.74062, 47.7532658 ], [ 17.741392980648534, 47.752684496713776 ], [ 17.74163842, 47.75249968 ], [ 17.74165561, 47.75248675 ], [ 17.74167967, 47.75245891 ], [ 17.7416988, 47.75243671 ], [ 17.743211944860235, 47.750757358542636 ], [ 17.742595, 47.750967 ], [ 17.742081, 47.751141 ], [ 17.741799020504665, 47.751236326401497 ], [ 17.74165781, 47.75128422 ], [ 17.74163334291924, 47.751291181674006 ], [ 17.741555, 47.751314 ], [ 17.741135, 47.751433 ], [ 17.740686, 47.751561 ], [ 17.740018, 47.751751 ], [ 17.739948581703594, 47.751766919233383 ], [ 17.73975178, 47.75181276 ], [ 17.738983859104337, 47.75199155835908 ], [ 17.738336, 47.752143 ], [ 17.736998, 47.752436 ], [ 17.736315, 47.752585 ], [ 17.735853259139677, 47.752685795821904 ], [ 17.73583341, 47.75269014 ], [ 17.735789843152013, 47.752699675393266 ], [ 17.734976, 47.752878 ], [ 17.734609, 47.752959 ], [ 17.734206, 47.753051 ], [ 17.732776, 47.753377 ], [ 17.732559, 47.753414 ], [ 17.731997, 47.753511 ], [ 17.731145, 47.753657 ], [ 17.73102509869096, 47.753677230262021 ], [ 17.73090142, 47.75369849 ], [ 17.730440878687112, 47.753752827201353 ], [ 17.729775, 47.753832 ], [ 17.729250731683983, 47.753893243153733 ], [ 17.72899571, 47.75392333 ], [ 17.728926785354627, 47.753927845025174 ], [ 17.728696, 47.753944 ], [ 17.727665534897962, 47.754010542949395 ], [ 17.72706999, 47.7540496 ], [ 17.726646974105716, 47.754040247740122 ], [ 17.7262, 47.754031 ], [ 17.725072466721095, 47.754005483661921 ], [ 17.72385786, 47.75397868 ], [ 17.72339792, 47.7539739 ], [ 17.72315263, 47.7539714 ], [ 17.722617189782476, 47.753965870398268 ], [ 17.722004, 47.75396 ], [ 17.720153, 47.754028 ], [ 17.718313, 47.754182 ], [ 17.712822387241754, 47.755173846183183 ], [ 17.71281566, 47.75517517 ], [ 17.712632698163187, 47.755225025096976 ], [ 17.711332, 47.75558 ], [ 17.710108474973147, 47.756013152019378 ], [ 17.70991379, 47.75608215 ], [ 17.709831860374795, 47.756118670574246 ], [ 17.708579, 47.756678 ], [ 17.707338, 47.75736 ], [ 17.707249900439088, 47.757434082955903 ], [ 17.70720974, 47.75746803 ], [ 17.70550754, 47.75890577 ], [ 17.705421265598648, 47.758982805919686 ], [ 17.705419, 47.758985 ], [ 17.707118, 47.760536 ], [ 17.707707821981945, 47.760063361193282 ], [ 17.70817447, 47.75968927 ], [ 17.708174520053614, 47.759689384592804 ], [ 17.708175, 47.759689 ], [ 17.708546081851519, 47.7605400385739 ], [ 17.70858404, 47.76062694 ], [ 17.708622885960811, 47.760715774212912 ], [ 17.70951, 47.762741 ], [ 17.710071726536878, 47.762849332974966 ], [ 17.71020952, 47.76287567 ], [ 17.71020973982316, 47.762875949823034 ], [ 17.71021, 47.762876 ], [ 17.710306, 47.762997 ], [ 17.710426, 47.76315 ], [ 17.710439, 47.763167 ], [ 17.71051, 47.763211 ], [ 17.710562, 47.763243 ], [ 17.710607, 47.763272 ], [ 17.710688608169814, 47.763323883339751 ], [ 17.71075718, 47.7633669 ], [ 17.710849290643566, 47.763424683732936 ], [ 17.710911, 47.763463 ], [ 17.711014, 47.763517 ], [ 17.711041100676539, 47.763531298516455 ], [ 17.71117687, 47.76360213 ], [ 17.711194971333256, 47.763611557777743 ], [ 17.711198, 47.763613 ], [ 17.711473, 47.763805 ], [ 17.711518514956648, 47.763837633365142 ], [ 17.71152527, 47.76384237 ], [ 17.711613630022171, 47.763898540154898 ], [ 17.71181, 47.764023 ], [ 17.711897, 47.764078 ], [ 17.712133, 47.764232 ], [ 17.712259, 47.764314 ], [ 17.712325603028777, 47.764353624586739 ], [ 17.71233778, 47.76436082 ], [ 17.71251943, 47.76446826 ], [ 17.7125785, 47.76450323 ], [ 17.71259992422614, 47.764515905163144 ], [ 17.712637, 47.764537 ], [ 17.712763, 47.764645 ], [ 17.712833, 47.764705 ], [ 17.712844554942233, 47.764714950089143 ], [ 17.71290509, 47.76476656 ], [ 17.713005648511444, 47.76485233243362 ], [ 17.713043, 47.764884 ], [ 17.713066, 47.764903 ], [ 17.713289900100392, 47.765085793441337 ], [ 17.71332153, 47.76511151 ], [ 17.713347358880096, 47.765130847816287 ], [ 17.713396, 47.765167 ], [ 17.713432130065385, 47.765194341671098 ], [ 17.71346961, 47.76522243 ], [ 17.71354537, 47.76527904 ], [ 17.713621, 47.76533565 ], [ 17.713649028622353, 47.765356636458215 ], [ 17.713712, 47.765403 ], [ 17.713805, 47.765473 ], [ 17.713843149271746, 47.765501889739767 ], [ 17.71390785, 47.76555032 ], [ 17.71402026, 47.76565765 ], [ 17.71414037, 47.76577232 ], [ 17.714147019033827, 47.765778673112344 ], [ 17.714228, 47.765855 ], [ 17.714311, 47.765935 ], [ 17.714325807686016, 47.765949455122062 ], [ 17.71435299, 47.76597546 ], [ 17.714371495758563, 47.765989764285443 ], [ 17.714396, 47.766008 ], [ 17.714477308967826, 47.766071432528086 ], [ 17.71453697, 47.76611746 ], [ 17.71462690148018, 47.766186902594299 ], [ 17.714674, 47.766223 ], [ 17.714726, 47.766263 ], [ 17.714769, 47.766296 ], [ 17.714819, 47.766335 ], [ 17.714867, 47.766372 ], [ 17.714900273989674, 47.76639799530443 ], [ 17.71496277, 47.76644628 ], [ 17.715031317846272, 47.766499243058917 ], [ 17.715099, 47.766551 ], [ 17.715196142593136, 47.766626555350214 ], [ 17.71523352, 47.76665542 ], [ 17.715298389072089, 47.766705493092722 ], [ 17.715367704505972, 47.766758772866531 ], [ 17.71584295, 47.76696905 ], [ 17.715940596084732, 47.767012430055914 ], [ 17.715951, 47.767017 ], [ 17.716292, 47.767168 ], [ 17.716475, 47.76725 ], [ 17.716656, 47.76733 ], [ 17.716842, 47.767413 ], [ 17.716901, 47.767439 ], [ 17.716989017671949, 47.767479819789891 ], [ 17.71703902, 47.76750273 ], [ 17.71715821, 47.76755728 ], [ 17.71730939, 47.76762658 ], [ 17.71742114, 47.76767777 ], [ 17.717464126491858, 47.767697535656417 ], [ 17.717472, 47.767701 ], [ 17.717523, 47.767724 ], [ 17.717589418420623, 47.767754930146857 ], [ 17.71772715, 47.76781804 ], [ 17.717754107307982, 47.767830012343865 ], [ 17.717759, 47.767832 ], [ 17.717846401033942, 47.767872454192855 ], [ 17.71793352, 47.76791258 ], [ 17.7179538, 47.76792189 ], [ 17.717979923989624, 47.767933739621817 ], [ 17.719025, 47.768407 ], [ 17.71911, 47.768445 ], [ 17.719177930461832, 47.768475100923204 ], [ 17.71927652, 47.76851852 ], [ 17.71942426, 47.76858362 ], [ 17.71952175, 47.7686266 ], [ 17.71952301, 47.76862713 ], [ 17.71955509, 47.76864125 ], [ 17.71956848, 47.76864715 ], [ 17.71957429, 47.76864968 ], [ 17.7197651, 47.76873375 ], [ 17.71990326, 47.76879455 ], [ 17.72009647, 47.76888256 ], [ 17.72028967, 47.76897066 ], [ 17.72029131, 47.7689714 ], [ 17.72032395, 47.76898628 ], [ 17.720335347051879, 47.76899148372248 ], [ 17.720355, 47.769 ], [ 17.720623993302191, 47.769123778408975 ], [ 17.72074375, 47.76917867 ], [ 17.720796065315827, 47.769202644340673 ], [ 17.720962, 47.769278 ], [ 17.721017752506576, 47.7693048040897 ], [ 17.7210659, 47.76932735 ], [ 17.721102674198271, 47.76934383658562 ], [ 17.721154, 47.769366 ], [ 17.721173, 47.769375 ], [ 17.721425, 47.769487 ], [ 17.721701, 47.769609 ], [ 17.721773, 47.769641 ], [ 17.72181, 47.769658 ], [ 17.721981, 47.769734 ], [ 17.722166187163964, 47.7698165626106 ], [ 17.72222091, 47.76984087 ], [ 17.722484411319524, 47.769964358117946 ], [ 17.722789, 47.770107 ], [ 17.723261, 47.770328 ], [ 17.723531, 47.770458 ], [ 17.723959330615486, 47.770659195178318 ], [ 17.72420722, 47.77077555 ], [ 17.724258877743573, 47.770799805182769 ], [ 17.724535, 47.770929 ], [ 17.724592074772985, 47.770977248777164 ], [ 17.72463165, 47.77101022 ], [ 17.724670047616716, 47.771075617181467 ], [ 17.724811, 47.771315 ], [ 17.724995292410433, 47.771526616521754 ], [ 17.72512752, 47.77167812 ], [ 17.725137220168101, 47.771690347899195 ], [ 17.725193, 47.771759 ], [ 17.725504272445804, 47.772153339286177 ], [ 17.72553369, 47.77219045 ], [ 17.725707980644493, 47.772395405831091 ], [ 17.72594, 47.772668 ], [ 17.72617, 47.772875 ], [ 17.726594, 47.77343 ], [ 17.726742, 47.773585 ], [ 17.727201, 47.773901 ], [ 17.727677543468481, 47.774268510322891 ], [ 17.72782486, 47.77438187 ], [ 17.727825524091561, 47.77438263297941 ], [ 17.727826, 47.774383 ], [ 17.728095, 47.774692 ], [ 17.728346, 47.774984 ], [ 17.728751, 47.775353 ], [ 17.729944, 47.775767 ], [ 17.730021371492665, 47.77576986561084 ], [ 17.73005153, 47.77577075 ], [ 17.730051453802705, 47.775770979770471 ], [ 17.730052, 47.775771 ], [ 17.729768, 47.776627 ], [ 17.729487, 47.777476 ], [ 17.729348, 47.777698 ], [ 17.729269, 47.778007 ], [ 17.728694, 47.779513 ], [ 17.728451, 47.779989 ], [ 17.728223, 47.780358 ], [ 17.727484, 47.781326 ], [ 17.726833, 47.782201 ], [ 17.725978, 47.783187 ], [ 17.72567, 47.78352 ], [ 17.72506, 47.783983 ], [ 17.724546216330527, 47.784286872053542 ], [ 17.724628117680666, 47.784328987773371 ], [ 17.724767, 47.7844 ], [ 17.724697, 47.784472 ], [ 17.725122, 47.784873 ], [ 17.725149051630783, 47.784875181583125 ], [ 17.72518407, 47.78487789 ], [ 17.72536661, 47.78491464 ], [ 17.72542936, 47.78493574 ], [ 17.725429538836597, 47.78493584627887 ], [ 17.72543, 47.784936 ], [ 17.725674558183009, 47.785081456174204 ], [ 17.72573526, 47.78511753 ], [ 17.725787404864572, 47.785136061168636 ], [ 17.725809640644488, 47.785143873739962 ], [ 17.72633395, 47.78516866 ], [ 17.72692337, 47.78502502 ], [ 17.72779239, 47.78464243 ], [ 17.72810751, 47.78455382 ], [ 17.72843198, 47.78452361 ], [ 17.728659732979352, 47.784563048457549 ], [ 17.729513, 47.78471 ], [ 17.730356, 47.784835 ], [ 17.730441657115627, 47.78484544598971 ], [ 17.73051982, 47.78485423 ], [ 17.730679565588467, 47.784882060830789 ], [ 17.730691, 47.784884 ], [ 17.730774323228957, 47.784923072474591 ], [ 17.73086751, 47.78496637 ], [ 17.73100134, 47.78504729 ], [ 17.731001715485558, 47.78504782801739 ], [ 17.731002, 47.785048 ], [ 17.731027486410269, 47.785084754086391 ], [ 17.73109666, 47.78518387 ], [ 17.731096669158234, 47.785184522891349 ], [ 17.731097, 47.785185 ], [ 17.731099, 47.785277 ], [ 17.731084, 47.785336 ], [ 17.731049, 47.785368 ], [ 17.730975, 47.78543 ], [ 17.730845, 47.785518 ], [ 17.730722, 47.785579 ], [ 17.73041, 47.785706 ], [ 17.730085, 47.785821 ], [ 17.729879, 47.785876 ], [ 17.729681, 47.785938 ], [ 17.729463, 47.785998 ], [ 17.728944, 47.786109 ], [ 17.728573, 47.786179 ], [ 17.728426578114885, 47.78620933024763 ], [ 17.72829304, 47.78623729 ], [ 17.728130832816479, 47.786287912952965 ], [ 17.727949, 47.786345 ], [ 17.727697, 47.786452 ], [ 17.727427, 47.786616 ], [ 17.727256, 47.786752 ], [ 17.727148957438857, 47.786871742526024 ], [ 17.72713825, 47.78688376 ], [ 17.727125927097529, 47.786898822841366 ], [ 17.726958, 47.787105 ], [ 17.726904, 47.787222 ], [ 17.726848, 47.787394 ], [ 17.726795, 47.78797 ], [ 17.726829353197544, 47.788112097317125 ], [ 17.72683906, 47.78815159 ], [ 17.726948598984176, 47.788297301683571 ], [ 17.727103, 47.788502 ], [ 17.72713029950252, 47.788523888790309 ], [ 17.72721349, 47.78859021 ], [ 17.72745217, 47.78871935 ], [ 17.72763693, 47.78877891 ], [ 17.72769558, 47.78879776 ], [ 17.72822865, 47.78883231 ], [ 17.72843918, 47.78882763 ], [ 17.72889715, 47.78885674 ], [ 17.7295923, 47.78881528 ], [ 17.73001905, 47.78876474 ], [ 17.73063293, 47.78865386 ], [ 17.730799663249943, 47.788628253672471 ], [ 17.731481, 47.788523 ], [ 17.731740136114233, 47.788502111032187 ], [ 17.73193878, 47.7884856 ], [ 17.73205139, 47.78848544 ], [ 17.73227634, 47.78851508 ], [ 17.73245301, 47.78857024 ], [ 17.73262161, 47.78861875 ], [ 17.732660602856342, 47.788640189611357 ], [ 17.732806, 47.78872 ], [ 17.732916074355419, 47.788794494765789 ], [ 17.7330042, 47.788854 ], [ 17.733030569865612, 47.788876575702808 ], [ 17.733157, 47.788984 ], [ 17.733622, 47.789474 ], [ 17.73396, 47.789844 ], [ 17.734123, 47.790069 ], [ 17.734239, 47.790258 ], [ 17.734525829208607, 47.790757127992933 ], [ 17.73474712, 47.7911419 ], [ 17.734775161114555, 47.791192466947869 ], [ 17.734848, 47.791323 ], [ 17.734858, 47.79149 ], [ 17.73468354231818, 47.791815008199833 ], [ 17.73458799, 47.79199357 ], [ 17.734540386946449, 47.79213751962137 ], [ 17.734503, 47.792251 ], [ 17.73436, 47.792412 ], [ 17.734278, 47.792485 ], [ 17.734277627816869, 47.792485186091561 ], [ 17.73427749, 47.79248531 ], [ 17.734259735404127, 47.792494132297939 ], [ 17.734158, 47.792545 ], [ 17.734059269612032, 47.79258128044377 ], [ 17.73399135, 47.79260646 ], [ 17.733924510841533, 47.792622416281787 ], [ 17.733881, 47.792633 ], [ 17.733711, 47.792628 ], [ 17.733391, 47.792572 ], [ 17.733299060810509, 47.792551009317464 ], [ 17.73317063, 47.79252221 ], [ 17.732871414158165, 47.792437092246743 ], [ 17.732687, 47.792385 ], [ 17.732322, 47.792265 ], [ 17.731916, 47.792195 ], [ 17.731644423904228, 47.792173370045468 ], [ 17.73157721, 47.79216811 ], [ 17.731298846046876, 47.792180643361505 ], [ 17.731203, 47.792185 ], [ 17.730969, 47.792257 ], [ 17.730514, 47.792411 ], [ 17.730426, 47.792483 ], [ 17.730393, 47.792584 ], [ 17.730355, 47.792657 ], [ 17.730184, 47.792788 ], [ 17.730179609999851, 47.792829705001409 ], [ 17.73016813, 47.7929402 ], [ 17.729954, 47.79298439 ], [ 17.72990179, 47.79299656 ], [ 17.729872736261719, 47.793003321448261 ], [ 17.729811, 47.793018 ], [ 17.729378, 47.793132 ], [ 17.728216, 47.793399 ], [ 17.728169, 47.79341 ], [ 17.726412, 47.79382 ], [ 17.726447, 47.793883 ], [ 17.72654, 47.794042 ], [ 17.726614, 47.794171 ], [ 17.726694, 47.794297 ], [ 17.727322, 47.794807 ], [ 17.727354, 47.794955 ], [ 17.727385, 47.795104 ], [ 17.72745, 47.7954 ], [ 17.727485, 47.795559 ], [ 17.727525, 47.795739 ], [ 17.727594, 47.796054 ], [ 17.727630799701014, 47.79624045181847 ], [ 17.72765411, 47.79635723 ], [ 17.72772356, 47.79670535 ], [ 17.727754924697294, 47.796857295304562 ], [ 17.727769, 47.796924 ], [ 17.727781, 47.79698 ], [ 17.727793, 47.797032 ], [ 17.727848, 47.797254 ], [ 17.727977, 47.797742 ], [ 17.728251, 47.798727 ], [ 17.728493058286546, 47.799432089643041 ], [ 17.728538114585493, 47.799563154249704 ], [ 17.72872, 47.799808 ], [ 17.728899, 47.80005 ], [ 17.72893, 47.800093 ], [ 17.728960093202812, 47.800137319080498 ], [ 17.72897736, 47.8001621 ], [ 17.72898519, 47.80017334 ], [ 17.729003038133431, 47.800203356177931 ], [ 17.729036, 47.800257 ], [ 17.729107, 47.800374 ], [ 17.729613, 47.8012 ], [ 17.729916, 47.801694 ], [ 17.730011, 47.801863 ], [ 17.730163, 47.802131 ], [ 17.730261098705562, 47.802306588439365 ], [ 17.73028183, 47.80234334 ], [ 17.730342308136382, 47.8024315507773 ], [ 17.730572, 47.802765 ], [ 17.730715, 47.802975 ], [ 17.730751289197723, 47.803022729007452 ], [ 17.73119404, 47.80360434 ], [ 17.7312231, 47.80364247 ], [ 17.731252499729898, 47.803680780355833 ], [ 17.73128, 47.803716 ], [ 17.731387, 47.803857 ], [ 17.731415, 47.803893 ], [ 17.730353, 47.804155 ], [ 17.730197, 47.804199 ], [ 17.730051081516436, 47.804252061266752 ], [ 17.72999851, 47.80427143 ], [ 17.7298458, 47.80434431 ], [ 17.729835391860661, 47.804352027781121 ], [ 17.729772, 47.8044 ], [ 17.72969, 47.804576 ], [ 17.72968, 47.8047 ], [ 17.729702, 47.804754 ], [ 17.729818, 47.804863 ], [ 17.730024, 47.804975 ], [ 17.730187, 47.805028 ], [ 17.730600156350807, 47.805118864276423 ], [ 17.73100993, 47.80520862 ], [ 17.73170185, 47.80537458 ], [ 17.73183796, 47.80544517 ], [ 17.73194992, 47.80551984 ], [ 17.732001503805503, 47.805564310018262 ], [ 17.732038, 47.805595 ], [ 17.73255, 47.80611 ], [ 17.732571339480632, 47.806128170891078 ], [ 17.7328796, 47.80639011 ], [ 17.733062516258386, 47.806472791518281 ], [ 17.733121, 47.806499 ], [ 17.733518, 47.806486 ], [ 17.733984429829643, 47.806481785272624 ], [ 17.73418149, 47.80647995 ], [ 17.73470512, 47.8064425 ], [ 17.73495525, 47.80643695 ], [ 17.735139240445204, 47.806449625614263 ], [ 17.735349, 47.806464 ], [ 17.735463, 47.806489 ], [ 17.735479919155157, 47.806495445392443 ], [ 17.73554681, 47.80652018 ], [ 17.7358139, 47.80666084 ], [ 17.736059633690807, 47.806842200614611 ], [ 17.736287, 47.807009 ], [ 17.736724, 47.807749 ], [ 17.736733132089437, 47.807768589804759 ], [ 17.73691047, 47.80814758 ], [ 17.736931541114902, 47.808182244849334 ], [ 17.736949, 47.80821 ], [ 17.737064, 47.808361 ], [ 17.737250133852488, 47.808537475963917 ], [ 17.73727566, 47.80856155 ], [ 17.73763398, 47.8088116 ], [ 17.73770092, 47.80878418 ], [ 17.73770333, 47.80878325 ], [ 17.737956623162614, 47.808679398221727 ], [ 17.73796, 47.808678 ], [ 17.737966310605906, 47.808675426743221 ], [ 17.73799055, 47.80866549 ], [ 17.7380265, 47.80865077 ], [ 17.73806303, 47.8086358 ], [ 17.73820954, 47.8085758 ], [ 17.73880292, 47.80809336 ], [ 17.73881832, 47.80808087 ], [ 17.73889141, 47.80802141 ], [ 17.738892569851245, 47.80802046784391 ], [ 17.738898, 47.808016 ], [ 17.738899552792123, 47.808014792272793 ], [ 17.73890728, 47.8080085 ], [ 17.73954337, 47.80719798 ], [ 17.73969578, 47.80710294 ], [ 17.74009332, 47.80685508 ], [ 17.74021264, 47.80679002 ], [ 17.74074904, 47.80650063 ], [ 17.74094933, 47.80640452 ], [ 17.74101695, 47.80637399 ], [ 17.74143387, 47.80618577 ], [ 17.741728203418489, 47.806123435222396 ], [ 17.741829, 47.806102 ], [ 17.741930146204457, 47.80611456063977 ], [ 17.74213484, 47.8061397 ], [ 17.742169941398579, 47.806143993302697 ], [ 17.742205, 47.806148 ], [ 17.743245, 47.806673 ], [ 17.743618, 47.806775 ], [ 17.743893, 47.806851 ], [ 17.743932716777099, 47.806861947573175 ], [ 17.74482868, 47.80710803 ], [ 17.7454765, 47.80727629 ], [ 17.74579155, 47.80735814 ], [ 17.74611066971018, 47.807441060869571 ], [ 17.746258, 47.807479 ], [ 17.746318, 47.807483 ], [ 17.746729455911485, 47.807510561640001 ], [ 17.74673592, 47.80751099 ], [ 17.74681702, 47.8075101 ], [ 17.747065736783586, 47.807507335254677 ], [ 17.747156, 47.807506 ], [ 17.747446, 47.807503 ], [ 17.747661, 47.807472 ], [ 17.747862, 47.807443 ], [ 17.747912895341607, 47.807417300372059 ], [ 17.74796289, 47.80739176 ], [ 17.748043195023506, 47.807351030803211 ], [ 17.748147, 47.807298 ], [ 17.748357, 47.80719 ], [ 17.748477689393926, 47.807103981377423 ], [ 17.74863168, 47.80699366 ], [ 17.74887742, 47.80681765 ], [ 17.74890443, 47.80679288 ], [ 17.7491189, 47.80659666 ], [ 17.74929778, 47.806433 ], [ 17.749326, 47.80639945 ], [ 17.74958233, 47.80609404 ], [ 17.74983305, 47.80579532 ], [ 17.74989657995647, 47.805719704052237 ], [ 17.749928, 47.805682 ], [ 17.749972374333126, 47.805448195740581 ], [ 17.75004679, 47.80505463 ], [ 17.75001538, 47.80436805 ], [ 17.750016010007876, 47.804368221787449 ], [ 17.750016, 47.804368 ], [ 17.750312, 47.804448 ], [ 17.750501413055282, 47.804500583325797 ], [ 17.75064721, 47.80454033 ], [ 17.751129941739144, 47.804599070620078 ], [ 17.751304, 47.80462 ], [ 17.751518779097726, 47.804686318937698 ], [ 17.75194176, 47.80481637 ], [ 17.752352305993821, 47.804980049702117 ], [ 17.752707, 47.805121 ], [ 17.752767, 47.805145 ], [ 17.752858, 47.805236 ], [ 17.752911, 47.805289 ], [ 17.752973780490208, 47.805353102184739 ], [ 17.75300599, 47.80538543 ], [ 17.75318469, 47.8055646 ], [ 17.75326449, 47.80564509 ], [ 17.753297249921044, 47.805676721189037 ], [ 17.753351, 47.805728 ], [ 17.753400994411244, 47.805777051120465 ], [ 17.75345745, 47.80583174 ], [ 17.75360199, 47.80597173 ], [ 17.753617646956496, 47.805986883690323 ], [ 17.753684, 47.80605 ], [ 17.753838837788724, 47.806074448071904 ], [ 17.75391195, 47.80608567 ], [ 17.7547413, 47.80621301 ], [ 17.75478502, 47.80621972 ], [ 17.75510238, 47.80604916 ], [ 17.75539166, 47.80589365 ], [ 17.75566225, 47.80571611 ], [ 17.75597231505694, 47.805512702805409 ], [ 17.756063, 47.805453 ], [ 17.756415734522822, 47.805221858515942 ], [ 17.75667779, 47.80504998 ], [ 17.756939372130883, 47.804878329547172 ], [ 17.757015952828958, 47.804828030982165 ], [ 17.75724317, 47.80463381 ], [ 17.75731504, 47.80457237 ], [ 17.75736627, 47.80447586 ], [ 17.75742766, 47.80436003 ], [ 17.757547210538991, 47.804134672744816 ], [ 17.757566, 47.804099 ], [ 17.757655, 47.803931 ], [ 17.757658352837886, 47.803914493721173 ], [ 17.75766693, 47.80386739 ], [ 17.757683584367051, 47.803775225394034 ], [ 17.757686, 47.803761 ], [ 17.757690985703366, 47.803734409582049 ], [ 17.75770651, 47.80364895 ], [ 17.75773881, 47.80347078 ], [ 17.757778871700904, 47.803450849785563 ], [ 17.757832, 47.803424 ], [ 17.758143, 47.803265 ], [ 17.758328664740034, 47.803169903425839 ], [ 17.75838938, 47.80313878 ], [ 17.75866803, 47.80299596 ], [ 17.7591564, 47.80274558 ], [ 17.759474690129831, 47.802699529369306 ], [ 17.759533, 47.802691 ], [ 17.759838, 47.802647 ], [ 17.759845221107856, 47.802645971539185 ], [ 17.76016759, 47.80259938 ], [ 17.760406652546447, 47.802566221485733 ], [ 17.760493, 47.802554 ], [ 17.760813, 47.802509 ], [ 17.761029929948052, 47.80247968514216 ], [ 17.76110867, 47.80246876 ], [ 17.761172628490158, 47.802459910215696 ], [ 17.761242, 47.80245 ], [ 17.761276482707228, 47.802440511469825 ], [ 17.761391, 47.80240827 ], [ 17.76169608129646, 47.802322360598588 ], [ 17.761722, 47.802315 ], [ 17.761779178368556, 47.802298949931632 ], [ 17.76200726, 47.80223468 ], [ 17.76233568, 47.8021422 ], [ 17.76260107, 47.80206746 ], [ 17.76261133568789, 47.802392023815294 ], [ 17.762641, 47.803322 ], [ 17.762678, 47.804314 ], [ 17.76269199238169, 47.804615835662176 ], [ 17.762811970835667, 47.804782860845386 ], [ 17.762976, 47.805011 ], [ 17.763921, 47.805522 ], [ 17.765308, 47.806262 ], [ 17.765731036796286, 47.806593435836803 ], [ 17.76642095, 47.8071333 ], [ 17.766601725022728, 47.807285097969825 ], [ 17.766665, 47.807338 ], [ 17.766964, 47.807762 ], [ 17.767214206926443, 47.808146933732985 ], [ 17.76735389, 47.80836137 ], [ 17.76754041, 47.80886153 ], [ 17.76814429, 47.81048154 ], [ 17.768158446243593, 47.81051721734309 ], [ 17.768357, 47.811015 ], [ 17.768914907334313, 47.812266715173138 ], [ 17.76905909, 47.81258959 ], [ 17.769288957120111, 47.812896619626237 ], [ 17.76938, 47.813018 ], [ 17.769538582129961, 47.813229966213314 ], [ 17.76968331, 47.81342321 ], [ 17.77034978, 47.81392709 ], [ 17.77069181, 47.81418577 ], [ 17.77543065, 47.81613832 ], [ 17.776013196275795, 47.81636727852802 ], [ 17.776497, 47.816557 ], [ 17.777983, 47.817135 ], [ 17.778051268965051, 47.817162429494886 ], [ 17.77809054, 47.81717772 ], [ 17.778095, 47.81717944 ], [ 17.77830171, 47.81725996 ], [ 17.77905386, 47.81755273 ], [ 17.78156514, 47.8181126 ], [ 17.78159315, 47.81811371 ], [ 17.781683527950769, 47.81811717351939 ], [ 17.781707, 47.818118 ], [ 17.781808942283785, 47.818131621598262 ], [ 17.78193951, 47.8181489 ], [ 17.782147591143382, 47.818176527827468 ], [ 17.782477, 47.81822 ], [ 17.784849, 47.818522 ], [ 17.786153, 47.818864 ], [ 17.787503, 47.819388 ], [ 17.787567770195654, 47.819414101422126 ], [ 17.78757011, 47.81941501 ], [ 17.787571406178841, 47.81941541886178 ], [ 17.787617, 47.819429 ], [ 17.788254520046927, 47.819629905821238 ], [ 17.78842235, 47.81968259 ], [ 17.789022713452397, 47.819840111744007 ], [ 17.790698, 47.820279 ], [ 17.792816, 47.820596 ], [ 17.79282174251216, 47.820589530626968 ], [ 17.79283333, 47.82057589 ], [ 17.79295872, 47.82043195 ] ] ] } }
]
}
