{
"type": "FeatureCollection",
"name": "gis",
"crs": { "type": "name", "properties": { "name": "urn:ogc:def:crs:OGC:1.3:CRS84" } },
"features": [
{ "type": "Feature", "properties": { "@featureType": "CadastralParcel", "areaValue": { "value": 1572, "@uom": "m2" }, "beginLifespanVersion": { "@nilReason": "http://inspire.ec.europa.eu/codelist/VoidReasonValue/Unpopulated", "@nil": "true" }, "endLifespanVersion": { "@nilReason": "http://inspire.ec.europa.eu/codelist/VoidReasonValue/Unpopulated", "@nil": "true" }, "inspireId": { "@dataType": "Identifier", "localId": "832111_119/2.C", "namespace": "SK.ESKN.CP", "versionId": "20260703T05:07:18" }, "label": "119/2", "nationalCadastralReference": "832111_119/2.C", "referencePoint": { "type": "Point", "coordinates": [ 18.66752003, 49.17115657 ] }, "validFrom": "2026-06-30T16:00:00Z", "validTo": { "@nilReason": "http://inspire.ec.europa.eu/codelist/VoidReasonValue/Unpopulated", "@nil": "true" }, "administrativeUnit": { "@href": "#auAdmUnitS.1265" } }, "geometry": { "type": "Polygon", "coordinates": [ [ [ 18.66789595, 49.17099996 ], [ 18.66781075, 49.17100014 ], [ 18.66757643, 49.17096663 ], [ 18.66751066, 49.17096215 ], [ 18.66725125, 49.17097143 ], [ 18.66706934, 49.17104525 ], [ 18.66707295, 49.17104833 ], [ 18.66706781, 49.17105094 ], [ 18.66711455, 49.17109041 ], [ 18.66711984, 49.17108771 ], [ 18.66712371, 49.17109089 ], [ 18.66711829, 49.17109358 ], [ 18.66734374, 49.17128406 ], [ 18.66734918, 49.17128128 ], [ 18.66735291, 49.17128445 ], [ 18.66734762, 49.17128724 ], [ 18.66739448, 49.1713268 ], [ 18.6673999, 49.17132411 ], [ 18.66740358, 49.17132665 ], [ 18.66742079, 49.17134001 ], [ 18.66775451, 49.17117868 ], [ 18.66793993, 49.17113446 ], [ 18.66789595, 49.17099996 ] ] ] } },
{ "type": "Feature", "properties": { "@featureType": "CadastralParcel", "areaValue": { "value": 6494, "@uom": "m2" }, "beginLifespanVersion": { "@nilReason": "http://inspire.ec.europa.eu/codelist/VoidReasonValue/Unpopulated", "@nil": "true" }, "endLifespanVersion": { "@nilReason": "http://inspire.ec.europa.eu/codelist/VoidReasonValue/Unpopulated", "@nil": "true" }, "inspireId": { "@dataType": "Identifier", "localId": "832111_118/1.C", "namespace": "SK.ESKN.CP", "versionId": "20260703T05:07:18" }, "label": "118/1", "nationalCadastralReference": "832111_118/1.C", "referencePoint": { "type": "Point", "coordinates": [ 18.66662794, 49.17118743 ] }, "validFrom": "2026-06-30T16:00:00Z", "validTo": { "@nilReason": "http://inspire.ec.europa.eu/codelist/VoidReasonValue/Unpopulated", "@nil": "true" }, "administrativeUnit": { "@href": "#auAdmUnitS.1265" } }, "geometry": { "type": "Polygon", "coordinates": [ [ [ 18.66633949, 49.17086461 ], [ 18.66634867, 49.17078002 ], [ 18.66635132, 49.17075517 ], [ 18.66603455, 49.1707587 ], [ 18.66576472, 49.17076886 ], [ 18.66592226, 49.17101799 ], [ 18.666393, 49.17178306 ], [ 18.6671852, 49.17143851 ], [ 18.66722352, 49.17141897 ], [ 18.66723299, 49.17142696 ], [ 18.66723771, 49.17142442 ], [ 18.66723344, 49.17142112 ], [ 18.667327, 49.17137312 ], [ 18.66733094, 49.17137685 ], [ 18.66733623, 49.17137415 ], [ 18.66732648, 49.17136614 ], [ 18.66740358, 49.17132665 ], [ 18.6673999, 49.17132411 ], [ 18.66739448, 49.1713268 ], [ 18.66734762, 49.17128724 ], [ 18.66735291, 49.17128445 ], [ 18.66734918, 49.17128128 ], [ 18.66734374, 49.17128406 ], [ 18.66711829, 49.17109358 ], [ 18.66712371, 49.17109089 ], [ 18.66711984, 49.17108771 ], [ 18.66711455, 49.17109041 ], [ 18.66706781, 49.17105094 ], [ 18.66707295, 49.17104833 ], [ 18.66706934, 49.17104525 ], [ 18.66700807, 49.17099302 ], [ 18.66696835, 49.17095916 ], [ 18.66695552, 49.17094828 ], [ 18.66666924, 49.17107856 ], [ 18.66633949, 49.17086461 ] ], [ [ 18.66645303, 49.17094036 ], [ 18.66634156, 49.17107014 ], [ 18.66622455, 49.17102696 ], [ 18.66633725, 49.17089733 ], [ 18.66645303, 49.17094036 ] ] ] } },
{ "type": "Feature", "properties": { "@featureType": "CadastralParcel", "areaValue": { "value": 808, "@uom": "m2" }, "beginLifespanVersion": { "@nilReason": "http://inspire.ec.europa.eu/codelist/VoidReasonValue/Unpopulated", "@nil": "true" }, "endLifespanVersion": { "@nilReason": "http://inspire.ec.europa.eu/codelist/VoidReasonValue/Unpopulated", "@nil": "true" }, "inspireId": { "@dataType": "Identifier", "localId": "832111_118/3.C", "namespace": "SK.ESKN.CP", "versionId": "20260703T05:07:18" }, "label": "118/3", "nationalCadastralReference": "832111_118/3.C", "referencePoint": { "type": "Point", "coordinates": [ 18.66685641, 49.17161079 ] }, "validFrom": "2026-06-30T16:00:00Z", "validTo": { "@nilReason": "http://inspire.ec.europa.eu/codelist/VoidReasonValue/Unpopulated", "@nil": "true" }, "administrativeUnit": { "@href": "#auAdmUnitS.1265" } }, "geometry": { "type": "Polygon", "coordinates": [ [ [ 18.66740358, 49.17132665 ], [ 18.66732648, 49.17136614 ], [ 18.66733623, 49.17137415 ], [ 18.66733094, 49.17137685 ], [ 18.667327, 49.17137312 ], [ 18.66723344, 49.17142112 ], [ 18.66723771, 49.17142442 ], [ 18.66723299, 49.17142696 ], [ 18.66722352, 49.17141897 ], [ 18.6671852, 49.17143851 ], [ 18.666393, 49.17178306 ], [ 18.66641263, 49.17181478 ], [ 18.66748391, 49.1713872 ], [ 18.66770584, 49.1712767 ], [ 18.66780068, 49.17122948 ], [ 18.6679604, 49.17119842 ], [ 18.66793993, 49.17113446 ], [ 18.66775451, 49.17117868 ], [ 18.66742079, 49.17134001 ], [ 18.66740358, 49.17132665 ] ] ] } },
{ "type": "Feature", "properties": { "@featureType": "CadastralParcel", "areaValue": { "value": 4040, "@uom": "m2" }, "beginLifespanVersion": { "@nilReason": "http://inspire.ec.europa.eu/codelist/VoidReasonValue/Unpopulated", "@nil": "true" }, "endLifespanVersion": { "@nilReason": "http://inspire.ec.europa.eu/codelist/VoidReasonValue/Unpopulated", "@nil": "true" }, "inspireId": { "@dataType": "Identifier", "localId": "832111_118/4.C", "namespace": "SK.ESKN.CP", "versionId": "20260703T05:07:18" }, "label": "118/4", "nationalCadastralReference": "832111_118/4.C", "referencePoint": { "type": "Point", "coordinates": [ 18.66730716, 49.17161852 ] }, "validFrom": "2026-06-30T16:00:00Z", "validTo": { "@nilReason": "http://inspire.ec.europa.eu/codelist/VoidReasonValue/Unpopulated", "@nil": "true" }, "administrativeUnit": { "@href": "#auAdmUnitS.1265" } }, "geometry": { "type": "Polygon", "coordinates": [ [ [ 18.66641483, 49.17181814 ], [ 18.66645277, 49.17187987 ], [ 18.66655589, 49.1718358 ], [ 18.66653335, 49.17181323 ], [ 18.66701573, 49.17160682 ], [ 18.66718067, 49.17177253 ], [ 18.66669815, 49.17197893 ], [ 18.66657375, 49.17185389 ], [ 18.66646787, 49.17189917 ], [ 18.66646502, 49.17189992 ], [ 18.66654381, 49.17202778 ], [ 18.66707415, 49.17197493 ], [ 18.66723191, 49.17195757 ], [ 18.66728926, 49.17193543 ], [ 18.66765121, 49.17190254 ], [ 18.66784841, 49.17186543 ], [ 18.66791856, 49.17177288 ], [ 18.66797291, 49.17156501 ], [ 18.66802968, 49.17134761 ], [ 18.66802189, 49.17129352 ], [ 18.6679604, 49.17119842 ], [ 18.66780068, 49.17122948 ], [ 18.66770584, 49.1712767 ], [ 18.66748391, 49.1713872 ], [ 18.66641263, 49.17181478 ], [ 18.66641483, 49.17181814 ] ], [ [ 18.66750166, 49.17187333 ], [ 18.66743812, 49.1718217 ], [ 18.66742051, 49.1718306 ], [ 18.66738944, 49.17180469 ], [ 18.66740795, 49.17179628 ], [ 18.66734523, 49.17174353 ], [ 18.66770351, 49.17155824 ], [ 18.66776567, 49.17160988 ], [ 18.66778488, 49.17160143 ], [ 18.66781432, 49.17162716 ], [ 18.66779702, 49.17163581 ], [ 18.66785947, 49.17168847 ], [ 18.66750166, 49.17187333 ] ] ] } },
{ "type": "Feature", "properties": { "@featureType": "CadastralParcel", "areaValue": { "value": 47, "@uom": "m2" }, "beginLifespanVersion": { "@nilReason": "http://inspire.ec.europa.eu/codelist/VoidReasonValue/Unpopulated", "@nil": "true" }, "endLifespanVersion": { "@nilReason": "http://inspire.ec.europa.eu/codelist/VoidReasonValue/Unpopulated", "@nil": "true" }, "inspireId": { "@dataType": "Identifier", "localId": "832111_1169/4.C", "namespace": "SK.ESKN.CP", "versionId": "20260703T05:07:18" }, "label": "1169/4", "nationalCadastralReference": "832111_1169/4.C", "referencePoint": { "type": "Point", "coordinates": [ 18.68181233, 49.16769235 ] }, "validFrom": "2026-06-30T16:00:00Z", "validTo": { "@nilReason": "http://inspire.ec.europa.eu/codelist/VoidReasonValue/Unpopulated", "@nil": "true" }, "administrativeUnit": { "@href": "#auAdmUnitS.1265" } }, "geometry": { "type": "Polygon", "coordinates": [ [ [ 18.6818621, 49.16771923 ], [ 18.68185557, 49.16770301 ], [ 18.68183103, 49.16764289 ], [ 18.68177825, 49.1676817 ], [ 18.68175763, 49.16772743 ], [ 18.68175025, 49.16774382 ], [ 18.6818621, 49.16771923 ] ] ] } }
]
}
