{
"type": "FeatureCollection",
"name": "gis",
"crs": { "type": "name", "properties": { "name": "urn:ogc:def:crs:OGC:1.3:CRS84" } },
"features": [
{ "type": "Feature", "properties": { "@featureType": "CadastralZoning", "beginLifespanVersion": { "@nilReason": "http://inspire.ec.europa.eu/codelist/VoidReasonValue/Unpopulated", "@nil": "true" }, "endLifespanVersion": { "@nilReason": "http://inspire.ec.europa.eu/codelist/VoidReasonValue/Unpopulated", "@nil": "true" }, "estimatedAccuracy": { "value": -1, "@uom": "m" }, "inspireId": { "@dataType": "Identifier", "localId": "802123", "namespace": "SK.ESKN.CP", "versionId": "20260703T04:07:40" }, "label": "Baška", "level": { "@href": "http://inspire.ec.europa.eu/codelist/CadastralZoningLevelValue/3rdOrder" }, "levelName": { "value": "Katastrálne územie", "@locale": "sk" }, "name": { "@dataType": "name", "GeographicalName": { "@dataType": "GeographicalName", "language": "SLK", "nativeness": { "@href": "http://inspire.ec.europa.eu/codelist/NativenessValue/endonym", "@title": "endonym" }, "nameStatus": { "@href": "http://inspire.ec.europa.eu/codelist/NameStatusValue/official", "@title": "official" }, "sourceOfName": { "@nilReason": "http://inspire.ec.europa.eu/codelist/VoidReasonValue/Unpopulated", "@nil": "true" }, "pronunciation": { "@dataType": "pronunciation", "@nilReason": "http://inspire.ec.europa.eu/codelist/VoidReasonValue/Unpopulated", "@nil": "true" }, "spelling": { "@dataType": "SpellingOfName", "text": "Baška", "script": "LATN" } } }, "nationalCadastalZoningReference": "802123", "validFrom": "2026-06-30T16:00:00Z", "validTo": { "@nilReason": "http://inspire.ec.europa.eu/codelist/VoidReasonValue/Unpopulated", "@nil": "true" } }, "geometry": { "type": "MultiPolygon", "coordinates": [ [ [ [ 21.17428117, 48.72434231 ], [ 21.17484254, 48.72430243 ], [ 21.17547222, 48.72414568 ], [ 21.17554799, 48.72409135 ], [ 21.17571129, 48.72397443 ], [ 21.17580813, 48.72392806 ], [ 21.17589031, 48.72388861 ], [ 21.17618649, 48.72376903 ], [ 21.17636128, 48.72369839 ], [ 21.17649051, 48.7236462 ], [ 21.17674287, 48.72352659 ], [ 21.17679694, 48.72348823 ], [ 21.17690057, 48.72344198 ], [ 21.17718299, 48.72322618 ], [ 21.17732859, 48.72311499 ], [ 21.17742094, 48.72304597 ], [ 21.17747353, 48.72300918 ], [ 21.17763333, 48.7228898 ], [ 21.17778077, 48.72279839 ], [ 21.17799911, 48.72264079 ], [ 21.17813358, 48.722565 ], [ 21.17856897, 48.72235465 ], [ 21.17881384, 48.72222354 ], [ 21.17900653, 48.72212537 ], [ 21.17901705, 48.72213236 ], [ 21.17904353, 48.72215003 ], [ 21.17912191, 48.72213873 ], [ 21.17952777, 48.72203954 ], [ 21.17960633, 48.72199736 ], [ 21.17976608, 48.72193713 ], [ 21.1798605, 48.72190148 ], [ 21.17987573, 48.72192042 ], [ 21.17998969, 48.72186298 ], [ 21.17997328, 48.72184715 ], [ 21.17994238, 48.72181709 ], [ 21.17999788, 48.72178148 ], [ 21.17998097, 48.72176303 ], [ 21.18006032, 48.72173267 ], [ 21.18008326, 48.72172394 ], [ 21.18013518, 48.72169461 ], [ 21.18017576, 48.72166591 ], [ 21.18017878, 48.72166375 ], [ 21.18017738, 48.72162076 ], [ 21.1801826, 48.72149938 ], [ 21.18030888, 48.72140685 ], [ 21.18037594, 48.72125617 ], [ 21.18043404, 48.72120714 ], [ 21.18052823, 48.72112755 ], [ 21.18061901, 48.72106874 ], [ 21.18085781, 48.72096319 ], [ 21.18103533, 48.72079403 ], [ 21.18113774, 48.72064565 ], [ 21.18126516, 48.72059195 ], [ 21.1812886, 48.72058198 ], [ 21.18152998, 48.7204802 ], [ 21.18157055, 48.72046303 ], [ 21.1816132, 48.7204451 ], [ 21.1817728, 48.72039243 ], [ 21.18192319, 48.72033162 ], [ 21.1819515, 48.72032018 ], [ 21.18195459, 48.72031893 ], [ 21.18217683, 48.72032414 ], [ 21.18219286, 48.72032446 ], [ 21.18221948, 48.72032512 ], [ 21.18238789, 48.72024841 ], [ 21.1825031, 48.72017336 ], [ 21.18252405, 48.72005256 ], [ 21.1825502, 48.71998424 ], [ 21.18271991, 48.71979503 ], [ 21.18282721, 48.71974853 ], [ 21.1828934, 48.71973828 ], [ 21.18302087, 48.71969522 ], [ 21.18308662, 48.71965893 ], [ 21.18317888, 48.71959657 ], [ 21.1831695, 48.71957565 ], [ 21.1831648, 48.71956533 ], [ 21.1827273, 48.71901808 ], [ 21.1827018, 48.71898666 ], [ 21.18266236, 48.71893734 ], [ 21.1826329, 48.71890049 ], [ 21.18280442, 48.71880695 ], [ 21.18264588, 48.71866177 ], [ 21.18255792, 48.71857958 ], [ 21.18250821, 48.71853299 ], [ 21.18244373, 48.71847982 ], [ 21.1826584, 48.71838593 ], [ 21.18270629, 48.71841436 ], [ 21.18274546, 48.71839768 ], [ 21.18285327, 48.71835165 ], [ 21.18285518, 48.71833461 ], [ 21.18296423, 48.7182734 ], [ 21.1829766, 48.71828297 ], [ 21.18305005, 48.71824171 ], [ 21.18306375, 48.71825367 ], [ 21.18308664, 48.71824188 ], [ 21.18305781, 48.71822287 ], [ 21.18313432, 48.71817883 ], [ 21.1831627, 48.71819845 ], [ 21.18322853, 48.7181592 ], [ 21.18327151, 48.7181122 ], [ 21.18344455, 48.7180125 ], [ 21.18360897, 48.71797024 ], [ 21.18373037, 48.71790753 ], [ 21.18384006, 48.71786003 ], [ 21.18388761, 48.71788935 ], [ 21.18406109, 48.71781577 ], [ 21.18405307, 48.71780048 ], [ 21.18418506, 48.71775125 ], [ 21.184259, 48.71772216 ], [ 21.18433545, 48.71769972 ], [ 21.18450992, 48.71766515 ], [ 21.18452098, 48.71767414 ], [ 21.18453724, 48.71768834 ], [ 21.18466769, 48.71768498 ], [ 21.18473721, 48.71768321 ], [ 21.18476792, 48.71769894 ], [ 21.18495912, 48.71764375 ], [ 21.18500792, 48.71757641 ], [ 21.18505679, 48.71758731 ], [ 21.18513835, 48.7175545 ], [ 21.18528778, 48.71749357 ], [ 21.1852803, 48.71748596 ], [ 21.18539538, 48.71744105 ], [ 21.18549766, 48.71741132 ], [ 21.18557353, 48.71746305 ], [ 21.18570868, 48.71744372 ], [ 21.18577159, 48.71742599 ], [ 21.18583607, 48.71741298 ], [ 21.18598054, 48.71736037 ], [ 21.18619571, 48.7173314 ], [ 21.18623708, 48.71728012 ], [ 21.18618324, 48.71724944 ], [ 21.18625667, 48.71716298 ], [ 21.18617503, 48.71711197 ], [ 21.186184, 48.71703455 ], [ 21.18612908, 48.71689966 ], [ 21.18591656, 48.71672 ], [ 21.18621139, 48.71637609 ], [ 21.18614329, 48.71615957 ], [ 21.18607628, 48.71613036 ], [ 21.18609011, 48.71606111 ], [ 21.18597434, 48.71590008 ], [ 21.18595015, 48.71573716 ], [ 21.18577451, 48.71530775 ], [ 21.18571208, 48.71524518 ], [ 21.18572057, 48.71519521 ], [ 21.18564599, 48.71501207 ], [ 21.18563811, 48.71476054 ], [ 21.18562335, 48.71458568 ], [ 21.18552016, 48.71439371 ], [ 21.18549212, 48.71434088 ], [ 21.18542579, 48.71427189 ], [ 21.18543555, 48.71422709 ], [ 21.18537577, 48.71401426 ], [ 21.18532775, 48.71388183 ], [ 21.18533517, 48.71379194 ], [ 21.18521633, 48.71363027 ], [ 21.18516665, 48.71356433 ], [ 21.18509593, 48.71347333 ], [ 21.18510574, 48.71338991 ], [ 21.18509131, 48.71330878 ], [ 21.18501369, 48.71322467 ], [ 21.18496703, 48.71311498 ], [ 21.18493479, 48.71299017 ], [ 21.18502529, 48.71295763 ], [ 21.18534406, 48.71283668 ], [ 21.18542436, 48.71266815 ], [ 21.18582204, 48.71243173 ], [ 21.18623963, 48.71185246 ], [ 21.18649715, 48.71158048 ], [ 21.18682342, 48.71132102 ], [ 21.18686617, 48.71128662 ], [ 21.18692134, 48.71124208 ], [ 21.18693781, 48.71122882 ], [ 21.18698503, 48.71119079 ], [ 21.18703226, 48.71115275 ], [ 21.18704366, 48.71114356 ], [ 21.18709681, 48.71110076 ], [ 21.18732815, 48.71106771 ], [ 21.18744406, 48.71087104 ], [ 21.18746498, 48.71083559 ], [ 21.18802499, 48.71025234 ], [ 21.18803023, 48.71024764 ], [ 21.18806717, 48.71021441 ], [ 21.18809743, 48.7101871 ], [ 21.18809889, 48.7101857 ], [ 21.18816, 48.71012865 ], [ 21.18822299, 48.71006995 ], [ 21.18837875, 48.70993585 ], [ 21.18838977, 48.70992638 ], [ 21.18856293, 48.70977715 ], [ 21.18876106, 48.70963457 ], [ 21.18876218, 48.70951494 ], [ 21.18876387, 48.70934582 ], [ 21.18876493, 48.7092307 ], [ 21.18883806, 48.70895354 ], [ 21.18884497, 48.70892737 ], [ 21.18887636, 48.70880862 ], [ 21.18891059, 48.70867878 ], [ 21.1889362, 48.70865753 ], [ 21.1889592, 48.70863845 ], [ 21.18900636, 48.70859933 ], [ 21.18903023, 48.70857955 ], [ 21.18904759, 48.70856515 ], [ 21.1892349, 48.70839701 ], [ 21.18933073, 48.70831099 ], [ 21.18945246, 48.70820164 ], [ 21.18965024, 48.70802393 ], [ 21.18965926, 48.70801584 ], [ 21.18967145, 48.70799201 ], [ 21.18982679, 48.70768754 ], [ 21.19001012, 48.70754052 ], [ 21.190181, 48.707245 ], [ 21.19137634, 48.70694211 ], [ 21.19168624, 48.70666366 ], [ 21.19180795, 48.70655432 ], [ 21.19221009, 48.70629083 ], [ 21.19276813, 48.70580357 ], [ 21.19310885, 48.70530397 ], [ 21.1934753, 48.70498975 ], [ 21.1937721, 48.70442907 ], [ 21.19379947, 48.70421655 ], [ 21.19380523, 48.70417225 ], [ 21.19404268, 48.70401766 ], [ 21.19409446, 48.70395194 ], [ 21.19409976, 48.70388188 ], [ 21.19393062, 48.70366102 ], [ 21.19393152, 48.70351015 ], [ 21.19393176, 48.70347837 ], [ 21.19406209, 48.70346681 ], [ 21.19411791, 48.70341877 ], [ 21.19421085, 48.70325153 ], [ 21.1943082, 48.70303229 ], [ 21.19427701, 48.70301385 ], [ 21.19425861, 48.703003 ], [ 21.19391973, 48.70280282 ], [ 21.19387105, 48.7027741 ], [ 21.19386972, 48.70277361 ], [ 21.19383499, 48.70275919 ], [ 21.19379637, 48.70274952 ], [ 21.19405059, 48.70261319 ], [ 21.19449191, 48.70229393 ], [ 21.19461938, 48.70218567 ], [ 21.19485787, 48.70202399 ], [ 21.19525375, 48.70178821 ], [ 21.19545392, 48.70166387 ], [ 21.19572155, 48.70149212 ], [ 21.19608758, 48.70126269 ], [ 21.19658738, 48.70097939 ], [ 21.19714556, 48.70055505 ], [ 21.19743298, 48.7002495 ], [ 21.19766775, 48.6999801 ], [ 21.19780844, 48.69971955 ], [ 21.19789716, 48.69937571 ], [ 21.19798018, 48.69901647 ], [ 21.19816206, 48.69858164 ], [ 21.19833528, 48.69828456 ], [ 21.19856436, 48.69791217 ], [ 21.19880228, 48.69758913 ], [ 21.19893414, 48.697425 ], [ 21.1990985, 48.69714898 ], [ 21.19945472, 48.69673511 ], [ 21.19963257, 48.69632591 ], [ 21.19967113, 48.69617307 ], [ 21.19975203, 48.69586598 ], [ 21.19974721, 48.69558591 ], [ 21.19968213, 48.69540272 ], [ 21.19961059, 48.69519024 ], [ 21.19953959, 48.69511067 ], [ 21.1995242, 48.69511847 ], [ 21.19932435, 48.69521988 ], [ 21.19919762, 48.69528414 ], [ 21.19912188, 48.69530103 ], [ 21.19889603, 48.69535147 ], [ 21.19872699, 48.6953892 ], [ 21.19862035, 48.69544635 ], [ 21.19843606, 48.69554509 ], [ 21.19807662, 48.69563203 ], [ 21.19795593, 48.69566128 ], [ 21.19773616, 48.69566491 ], [ 21.197431, 48.69567 ], [ 21.19717025, 48.69567432 ], [ 21.19708228, 48.69567578 ], [ 21.19706472, 48.69567604 ], [ 21.19706001, 48.69567905 ], [ 21.19703761, 48.69569365 ], [ 21.1970048, 48.69571504 ], [ 21.19687897, 48.69579688 ], [ 21.19673203, 48.69589257 ], [ 21.19658437, 48.69598867 ], [ 21.19645509, 48.696001 ], [ 21.19616258, 48.6960289 ], [ 21.19584419, 48.69605931 ], [ 21.19556269, 48.6959489 ], [ 21.19532669, 48.6958564 ], [ 21.19528012, 48.69583819 ], [ 21.19507336, 48.69585195 ], [ 21.19486783, 48.69586556 ], [ 21.19461345, 48.69605573 ], [ 21.19459793, 48.69606731 ], [ 21.19457365, 48.69608545 ], [ 21.19454433, 48.6961074 ], [ 21.19450035, 48.69614023 ], [ 21.19438509, 48.69622637 ], [ 21.1942602, 48.69631977 ], [ 21.1941395, 48.69641924 ], [ 21.1939896, 48.69655588 ], [ 21.19395874, 48.69658408 ], [ 21.19380211, 48.69671421 ], [ 21.19373524, 48.696742 ], [ 21.19306217, 48.6970219 ], [ 21.19275004, 48.69702172 ], [ 21.19263335, 48.69702165 ], [ 21.19257923, 48.69701391 ], [ 21.19214022, 48.69695103 ], [ 21.19080691, 48.69722392 ], [ 21.19060776, 48.69724322 ], [ 21.19016344, 48.6972864 ], [ 21.19009592, 48.69729292 ], [ 21.18955097, 48.69750427 ], [ 21.18890342, 48.69777316 ], [ 21.18808015, 48.69812861 ], [ 21.18791929, 48.6981981 ], [ 21.1879089, 48.69820263 ], [ 21.18770209, 48.69829245 ], [ 21.18742226, 48.69831398 ], [ 21.18739587, 48.69831603 ], [ 21.18696764, 48.69827895 ], [ 21.18647827, 48.69821085 ], [ 21.18633943, 48.69819153 ], [ 21.18592587, 48.69808495 ], [ 21.1857521, 48.69804256 ], [ 21.18541471, 48.6979869 ], [ 21.18480153, 48.69788924 ], [ 21.1839181, 48.69784247 ], [ 21.18333412, 48.69775851 ], [ 21.18295557, 48.69770407 ], [ 21.18256198, 48.69761692 ], [ 21.18219056, 48.69749743 ], [ 21.18211533, 48.69747318 ], [ 21.18183429, 48.69746611 ], [ 21.1814751, 48.69754148 ], [ 21.1810209, 48.69763672 ], [ 21.18063265, 48.69762834 ], [ 21.18047499, 48.69762489 ], [ 21.18009798, 48.69770392 ], [ 21.17974055, 48.69783219 ], [ 21.17943058, 48.69766034 ], [ 21.17918285, 48.69751206 ], [ 21.17885408, 48.69733691 ], [ 21.17849746, 48.69724075 ], [ 21.1784645, 48.69723187 ], [ 21.17845052, 48.69723143 ], [ 21.17843286, 48.6972198 ], [ 21.17828374, 48.69731683 ], [ 21.17798677, 48.6974705 ], [ 21.17741606, 48.69771205 ], [ 21.17692092, 48.69790141 ], [ 21.17655126, 48.69805008 ], [ 21.17634302, 48.69815947 ], [ 21.17582257, 48.69869773 ], [ 21.17551659, 48.69909484 ], [ 21.17541441, 48.69923666 ], [ 21.17483099, 48.70012136 ], [ 21.17449971, 48.70031086 ], [ 21.17393517, 48.70080531 ], [ 21.17383373, 48.70093499 ], [ 21.17316432, 48.70165725 ], [ 21.17311505, 48.70182712 ], [ 21.17309182, 48.70186636 ], [ 21.17303732, 48.701958 ], [ 21.17283627, 48.70231233 ], [ 21.17269628, 48.70251597 ], [ 21.17248111, 48.70276433 ], [ 21.17218056, 48.70299314 ], [ 21.17199467, 48.70317499 ], [ 21.17185988, 48.70332558 ], [ 21.17175951, 48.70346088 ], [ 21.17159866, 48.70382332 ], [ 21.17140155, 48.70412095 ], [ 21.1712076, 48.70439735 ], [ 21.17099917, 48.70462188 ], [ 21.17076675, 48.70501464 ], [ 21.1705869, 48.70523134 ], [ 21.17013054, 48.70574099 ], [ 21.1700619, 48.70585505 ], [ 21.16987978, 48.7060579 ], [ 21.16962145, 48.70646065 ], [ 21.16952356, 48.70655965 ], [ 21.16917322, 48.70700441 ], [ 21.16878672, 48.70760874 ], [ 21.16801846, 48.7085613 ], [ 21.16794699, 48.70864286 ], [ 21.16784525, 48.70871779 ], [ 21.16769906, 48.70884317 ], [ 21.1675491, 48.70894709 ], [ 21.16727446, 48.70916483 ], [ 21.16623794, 48.70976279 ], [ 21.16569288, 48.710164 ], [ 21.16521615, 48.71046312 ], [ 21.16444207, 48.71104723 ], [ 21.16411973, 48.71141039 ], [ 21.16372933, 48.71174393 ], [ 21.16311695, 48.71230587 ], [ 21.1627307, 48.7127059 ], [ 21.16206758, 48.71331242 ], [ 21.1618818, 48.71342042 ], [ 21.16171659, 48.71347343 ], [ 21.16173157, 48.71350146 ], [ 21.16172268, 48.71355097 ], [ 21.16170284, 48.71366135 ], [ 21.16191707, 48.71439474 ], [ 21.16204886, 48.71501152 ], [ 21.1622784, 48.71606141 ], [ 21.16236638, 48.71646414 ], [ 21.16223126, 48.71722876 ], [ 21.16214309, 48.71773026 ], [ 21.16228406, 48.71782035 ], [ 21.16222878, 48.71826788 ], [ 21.16211153, 48.71852274 ], [ 21.16220616, 48.71880558 ], [ 21.1624136, 48.71889859 ], [ 21.16260707, 48.71893453 ], [ 21.16350819, 48.71935655 ], [ 21.16400899, 48.7197016 ], [ 21.16422278, 48.71977455 ], [ 21.16479111, 48.71989178 ], [ 21.16499594, 48.71988756 ], [ 21.16541888, 48.7196729 ], [ 21.16570361, 48.71969264 ], [ 21.16580962, 48.71980152 ], [ 21.16616084, 48.72001387 ], [ 21.16635388, 48.72009157 ], [ 21.16650262, 48.72033595 ], [ 21.16677105, 48.72046069 ], [ 21.16711354, 48.72057175 ], [ 21.16752189, 48.72053993 ], [ 21.16765812, 48.72063374 ], [ 21.16810875, 48.72058175 ], [ 21.16826287, 48.72063137 ], [ 21.16859076, 48.72082597 ], [ 21.16868217, 48.72093744 ], [ 21.16891902, 48.72102858 ], [ 21.16894755, 48.72107054 ], [ 21.16890972, 48.72111013 ], [ 21.16884651, 48.72112992 ], [ 21.16889545, 48.7211908 ], [ 21.16897342, 48.72118886 ], [ 21.16906597, 48.72129209 ], [ 21.16910959, 48.7213194 ], [ 21.16922517, 48.72143155 ], [ 21.16919947, 48.72148025 ], [ 21.16920252, 48.72155841 ], [ 21.1693169, 48.72162335 ], [ 21.16926881, 48.72170691 ], [ 21.16940451, 48.7218269 ], [ 21.16937227, 48.72191141 ], [ 21.16947798, 48.72207169 ], [ 21.16944663, 48.72215344 ], [ 21.16950833, 48.72220905 ], [ 21.16939298, 48.7223157 ], [ 21.16935318, 48.72238628 ], [ 21.16938482, 48.72250199 ], [ 21.16930662, 48.72262178 ], [ 21.16932104, 48.72262179 ], [ 21.169342, 48.72262173 ], [ 21.16936201, 48.72262174 ], [ 21.16935396, 48.72264264 ], [ 21.16931437, 48.72274412 ], [ 21.16932081, 48.72275107 ], [ 21.16932303, 48.72275619 ], [ 21.1693341, 48.72278184 ], [ 21.16934517, 48.72280749 ], [ 21.16934948, 48.72281762 ], [ 21.16951186, 48.72290559 ], [ 21.1694631, 48.72294195 ], [ 21.16952861, 48.72300516 ], [ 21.16958755, 48.72305375 ], [ 21.16969265, 48.72316053 ], [ 21.16975335, 48.72319054 ], [ 21.16981222, 48.72321374 ], [ 21.16989358, 48.72324414 ], [ 21.16990831, 48.72325316 ], [ 21.16994699, 48.72327707 ], [ 21.16997776, 48.72334467 ], [ 21.16998539, 48.72337093 ], [ 21.16997767, 48.7234419 ], [ 21.16997685, 48.72344953 ], [ 21.17088208, 48.72351905 ], [ 21.17145438, 48.72362728 ], [ 21.17170864, 48.72367539 ], [ 21.1723568, 48.7237979 ], [ 21.17237003, 48.72380318 ], [ 21.17259848, 48.72389395 ], [ 21.17276666, 48.72396022 ], [ 21.17278413, 48.72396708 ], [ 21.17280397, 48.72397491 ], [ 21.17285302, 48.72399483 ], [ 21.17282798, 48.72402123 ], [ 21.17278953, 48.72406179 ], [ 21.17369485, 48.7243263 ], [ 21.17428117, 48.72434231 ] ] ] ] } },
{ "type": "Feature", "properties": { "@featureType": "CadastralZoning", "beginLifespanVersion": { "@nilReason": "http://inspire.ec.europa.eu/codelist/VoidReasonValue/Unpopulated", "@nil": "true" }, "endLifespanVersion": { "@nilReason": "http://inspire.ec.europa.eu/codelist/VoidReasonValue/Unpopulated", "@nil": "true" }, "estimatedAccuracy": { "value": -1, "@uom": "m" }, "inspireId": { "@dataType": "Identifier", "localId": "835030", "namespace": "SK.ESKN.CP", "versionId": "20260703T04:07:40" }, "label": "Malá Ida", "level": { "@href": "http://inspire.ec.europa.eu/codelist/CadastralZoningLevelValue/3rdOrder" }, "levelName": { "value": "Katastrálne územie", "@locale": "sk" }, "name": { "@dataType": "name", "GeographicalName": { "@dataType": "GeographicalName", "language": "SLK", "nativeness": { "@href": "http://inspire.ec.europa.eu/codelist/NativenessValue/endonym", "@title": "endonym" }, "nameStatus": { "@href": "http://inspire.ec.europa.eu/codelist/NameStatusValue/official", "@title": "official" }, "sourceOfName": { "@nilReason": "http://inspire.ec.europa.eu/codelist/VoidReasonValue/Unpopulated", "@nil": "true" }, "pronunciation": { "@dataType": "pronunciation", "@nilReason": "http://inspire.ec.europa.eu/codelist/VoidReasonValue/Unpopulated", "@nil": "true" }, "spelling": { "@dataType": "SpellingOfName", "text": "Malá Ida", "script": "LATN" } } }, "nationalCadastalZoningReference": "835030", "validFrom": "2026-06-30T16:00:00Z", "validTo": { "@nilReason": "http://inspire.ec.europa.eu/codelist/VoidReasonValue/Unpopulated", "@nil": "true" } }, "geometry": { "type": "MultiPolygon", "coordinates": [ [ [ [ 21.17309182, 48.70186636 ], [ 21.17311505, 48.70182712 ], [ 21.17316432, 48.70165725 ], [ 21.17383373, 48.70093499 ], [ 21.17393517, 48.70080531 ], [ 21.17449971, 48.70031086 ], [ 21.17483099, 48.70012136 ], [ 21.17541441, 48.69923666 ], [ 21.17551659, 48.69909484 ], [ 21.17582257, 48.69869773 ], [ 21.17634302, 48.69815947 ], [ 21.17655126, 48.69805008 ], [ 21.17692092, 48.69790141 ], [ 21.17741606, 48.69771205 ], [ 21.17798677, 48.6974705 ], [ 21.17828374, 48.69731683 ], [ 21.17843286, 48.6972198 ], [ 21.17845052, 48.69723143 ], [ 21.1784645, 48.69723187 ], [ 21.17874604, 48.69687342 ], [ 21.17894101, 48.69677244 ], [ 21.17916871, 48.69653806 ], [ 21.1792605, 48.69647794 ], [ 21.17946977, 48.69634076 ], [ 21.17987424, 48.69599942 ], [ 21.17987598, 48.69599605 ], [ 21.18002835, 48.69568781 ], [ 21.18005105, 48.69549351 ], [ 21.18002375, 48.69519094 ], [ 21.18045908, 48.6942567 ], [ 21.18075989, 48.69359066 ], [ 21.18077649, 48.69353194 ], [ 21.18085092, 48.69326904 ], [ 21.18089306, 48.69312019 ], [ 21.18090779, 48.69291943 ], [ 21.18123571, 48.69238839 ], [ 21.18136243, 48.69210941 ], [ 21.1814172, 48.69191919 ], [ 21.18142257, 48.69168967 ], [ 21.18140122, 48.69146688 ], [ 21.18149811, 48.69126016 ], [ 21.18150358, 48.69124844 ], [ 21.18159339, 48.69105698 ], [ 21.18170534, 48.69063915 ], [ 21.18174579, 48.69031918 ], [ 21.18188686, 48.69003704 ], [ 21.18197427, 48.68970505 ], [ 21.18201609, 48.68932264 ], [ 21.18195372, 48.68894036 ], [ 21.18133144, 48.68738623 ], [ 21.18120164, 48.68705098 ], [ 21.1812001, 48.68697233 ], [ 21.18119742, 48.68683774 ], [ 21.18119227, 48.68658448 ], [ 21.18112056, 48.6863339 ], [ 21.18078362, 48.68569742 ], [ 21.18069468, 48.68552949 ], [ 21.18065111, 48.68544717 ], [ 21.18063722, 48.68542107 ], [ 21.18063016, 48.68540761 ], [ 21.18059402, 48.6853393 ], [ 21.18048796, 48.68513905 ], [ 21.18048053, 48.68471168 ], [ 21.18055251, 48.684222 ], [ 21.18059402, 48.68378348 ], [ 21.18059043, 48.68357476 ], [ 21.18065111, 48.68281713 ], [ 21.18079206, 48.68162635 ], [ 21.18088298, 48.68135515 ], [ 21.18097439, 48.68108262 ], [ 21.18120186, 48.68062764 ], [ 21.18128816, 48.68039213 ], [ 21.1813159, 48.68031648 ], [ 21.18130198, 48.67988476 ], [ 21.18130052, 48.67961803 ], [ 21.18125802, 48.67919235 ], [ 21.18125574, 48.67916932 ], [ 21.18124011, 48.67913524 ], [ 21.18094899, 48.67850291 ], [ 21.18086545, 48.67815822 ], [ 21.18083013, 48.67801251 ], [ 21.18079061, 48.67791177 ], [ 21.18071238, 48.67771239 ], [ 21.18063428, 48.67751311 ], [ 21.18060481, 48.67729168 ], [ 21.18058848, 48.67716917 ], [ 21.18058136, 48.67711519 ], [ 21.18054033, 48.67680696 ], [ 21.18053736, 48.67678409 ], [ 21.18050965, 48.67657604 ], [ 21.18051502, 48.67655622 ], [ 21.18056304, 48.67637649 ], [ 21.18062618, 48.67623029 ], [ 21.1806773, 48.67611134 ], [ 21.18069183, 48.67610208 ], [ 21.18074526, 48.67606811 ], [ 21.18074621, 48.67606625 ], [ 21.18078534, 48.67599483 ], [ 21.18080695, 48.67595526 ], [ 21.18081604, 48.67593853 ], [ 21.18081398, 48.67588607 ], [ 21.18127542, 48.67541561 ], [ 21.18140066, 48.67500351 ], [ 21.18152101, 48.67437417 ], [ 21.18144985, 48.6730682 ], [ 21.18157138, 48.67241297 ], [ 21.18212102, 48.67167798 ], [ 21.18222789, 48.67143222 ], [ 21.18244682, 48.67103829 ], [ 21.18251351, 48.67047055 ], [ 21.18243895, 48.67002189 ], [ 21.1824065, 48.66982683 ], [ 21.18216096, 48.66935891 ], [ 21.18197902, 48.66900643 ], [ 21.18191518, 48.66856567 ], [ 21.18190954, 48.66852695 ], [ 21.18190118, 48.66846934 ], [ 21.1819883, 48.66790297 ], [ 21.18188447, 48.66769107 ], [ 21.18153111, 48.66741071 ], [ 21.18120189, 48.66698587 ], [ 21.18100285, 48.66672965 ], [ 21.18095495, 48.66658308 ], [ 21.18098766, 48.66640621 ], [ 21.18090369, 48.66593374 ], [ 21.18054171, 48.66492939 ], [ 21.18057783, 48.66454283 ], [ 21.18051889, 48.6642117 ], [ 21.18040413, 48.66352893 ], [ 21.18063098, 48.66271892 ], [ 21.18107874, 48.66213486 ], [ 21.18114275, 48.66146269 ], [ 21.18109347, 48.66095215 ], [ 21.18085218, 48.66058646 ], [ 21.18033201, 48.66022059 ], [ 21.18000602, 48.65978739 ], [ 21.17991379, 48.65962808 ], [ 21.17977361, 48.65943269 ], [ 21.17938362, 48.65922777 ], [ 21.17899946, 48.65886278 ], [ 21.17881323, 48.65857652 ], [ 21.17847743, 48.65825159 ], [ 21.17834773, 48.65787482 ], [ 21.17801157, 48.65715876 ], [ 21.17796039, 48.65702974 ], [ 21.17725215, 48.65675128 ], [ 21.17680142, 48.65650338 ], [ 21.17637012, 48.65601605 ], [ 21.17616944, 48.65581937 ], [ 21.17588788, 48.65555124 ], [ 21.17561373, 48.65549521 ], [ 21.17554562, 48.65553709 ], [ 21.17528729, 48.65556709 ], [ 21.17506711, 48.65556922 ], [ 21.174422, 48.65557294 ], [ 21.17392546, 48.65555731 ], [ 21.17368718, 48.65557687 ], [ 21.17288928, 48.65557728 ], [ 21.17284823, 48.65557733 ], [ 21.1724185, 48.6555775 ], [ 21.17185545, 48.65557777 ], [ 21.17093953, 48.65555831 ], [ 21.17087372, 48.65555694 ], [ 21.1708333, 48.65555584 ], [ 21.17067771, 48.65555182 ], [ 21.17062712, 48.65555048 ], [ 21.17060202, 48.65554978 ], [ 21.17012225, 48.65553719 ], [ 21.16985138, 48.65553005 ], [ 21.16947473, 48.65550461 ], [ 21.16937222, 48.65549767 ], [ 21.16935968, 48.65552834 ], [ 21.16912815, 48.65549759 ], [ 21.16911055, 48.65554187 ], [ 21.16899428, 48.65555601 ], [ 21.16879323, 48.65541945 ], [ 21.16785265, 48.65532931 ], [ 21.16778031, 48.65532234 ], [ 21.16767816, 48.65531802 ], [ 21.16759402, 48.65531445 ], [ 21.16747737, 48.65530949 ], [ 21.16733511, 48.65530345 ], [ 21.1673007, 48.655302 ], [ 21.16682365, 48.65528183 ], [ 21.16582619, 48.65531503 ], [ 21.16581911, 48.65529643 ], [ 21.16079735, 48.65535242 ], [ 21.16080037, 48.65536899 ], [ 21.16082706, 48.65582453 ], [ 21.15967608, 48.65587557 ], [ 21.15935181, 48.65592254 ], [ 21.15861356, 48.65609005 ], [ 21.15840851, 48.65611784 ], [ 21.15818448, 48.65614862 ], [ 21.15775359, 48.65619102 ], [ 21.15764473, 48.65622484 ], [ 21.15734855, 48.6562499 ], [ 21.15727075, 48.65625644 ], [ 21.15690031, 48.65628779 ], [ 21.1567144, 48.65631402 ], [ 21.15596675, 48.65641963 ], [ 21.15510811, 48.6566709 ], [ 21.1550199, 48.65678343 ], [ 21.15466724, 48.65684136 ], [ 21.15412942, 48.65681759 ], [ 21.15298409, 48.65684093 ], [ 21.15253823, 48.65683097 ], [ 21.15247907, 48.65686519 ], [ 21.15218201, 48.65703716 ], [ 21.15201896, 48.65714902 ], [ 21.15122654, 48.657375 ], [ 21.1498094, 48.65791656 ], [ 21.14935152, 48.65814876 ], [ 21.14902282, 48.6583651 ], [ 21.14847664, 48.65866013 ], [ 21.14790577, 48.659284 ], [ 21.14770969, 48.65994953 ], [ 21.14757598, 48.66077794 ], [ 21.14755308, 48.66121111 ], [ 21.14757455, 48.66163956 ], [ 21.14772837, 48.66221837 ], [ 21.1479705, 48.662865 ], [ 21.14808855, 48.66319344 ], [ 21.14823609, 48.66400282 ], [ 21.14841222, 48.66452156 ], [ 21.14871707, 48.66500307 ], [ 21.14893552, 48.66523117 ], [ 21.14929792, 48.66555487 ], [ 21.14977063, 48.66587012 ], [ 21.15001188, 48.66601457 ], [ 21.15065915, 48.666618 ], [ 21.15067749, 48.66698324 ], [ 21.15077797, 48.66790051 ], [ 21.15080106, 48.66811238 ], [ 21.15083639, 48.66843467 ], [ 21.15128816, 48.6695296 ], [ 21.1514162, 48.67012361 ], [ 21.15146566, 48.67039359 ], [ 21.15158697, 48.67097738 ], [ 21.15164728, 48.67138817 ], [ 21.15178826, 48.67293167 ], [ 21.15190596, 48.67363087 ], [ 21.15226176, 48.67449801 ], [ 21.15255744, 48.67472486 ], [ 21.15263171, 48.67477125 ], [ 21.15264677, 48.6748054 ], [ 21.15266018, 48.67483599 ], [ 21.15265852, 48.67487205 ], [ 21.15315798, 48.67490243 ], [ 21.1531699, 48.67493496 ], [ 21.15317148, 48.67493933 ], [ 21.15318782, 48.67498406 ], [ 21.15320267, 48.67505854 ], [ 21.15319726, 48.6751593 ], [ 21.15328129, 48.67548152 ], [ 21.15330109, 48.67556651 ], [ 21.15332471, 48.6756889 ], [ 21.15342645, 48.67595991 ], [ 21.15350965, 48.67632361 ], [ 21.15358019, 48.67697232 ], [ 21.15345757, 48.67777426 ], [ 21.15343982, 48.677854 ], [ 21.15335289, 48.6781733 ], [ 21.15333987, 48.67822538 ], [ 21.15307272, 48.67944877 ], [ 21.15306776, 48.67946464 ], [ 21.1527614, 48.68019581 ], [ 21.15229353, 48.68091149 ], [ 21.15219032, 48.68118147 ], [ 21.15218059, 48.68121249 ], [ 21.15211876, 48.6815361 ], [ 21.15216011, 48.68169696 ], [ 21.15221088, 48.68183679 ], [ 21.15266575, 48.68249755 ], [ 21.15278993, 48.68260576 ], [ 21.15302407, 48.68285694 ], [ 21.15312153, 48.68300554 ], [ 21.15321832, 48.68329071 ], [ 21.15320071, 48.68349957 ], [ 21.1531961, 48.68352572 ], [ 21.15311708, 48.68373956 ], [ 21.15313476, 48.68398692 ], [ 21.1530463, 48.68432327 ], [ 21.15305895, 48.68446378 ], [ 21.15310564, 48.68462057 ], [ 21.15298477, 48.68540546 ], [ 21.15273816, 48.68628898 ], [ 21.15257474, 48.68672136 ], [ 21.15244262, 48.68709712 ], [ 21.15224477, 48.68740235 ], [ 21.15212986, 48.68754293 ], [ 21.15204787, 48.68769069 ], [ 21.15200296, 48.68788041 ], [ 21.15201914, 48.68804155 ], [ 21.15202587, 48.68808561 ], [ 21.15205985, 48.68825821 ], [ 21.15203701, 48.68855227 ], [ 21.15208766, 48.68872747 ], [ 21.15208528, 48.6889045 ], [ 21.15230086, 48.68948489 ], [ 21.15247417, 48.69001055 ], [ 21.15230819, 48.69095579 ], [ 21.15221774, 48.6915423 ], [ 21.15207443, 48.69174978 ], [ 21.15202933, 48.69190825 ], [ 21.15203794, 48.69206699 ], [ 21.15214114, 48.69234461 ], [ 21.15224631, 48.69295661 ], [ 21.15203156, 48.69335747 ], [ 21.15202523, 48.69357957 ], [ 21.151904, 48.69393243 ], [ 21.1517895, 48.69416442 ], [ 21.15170883, 48.69463112 ], [ 21.15162763, 48.69485975 ], [ 21.1514329, 48.69559717 ], [ 21.1512613, 48.6957427 ], [ 21.15097599, 48.69588822 ], [ 21.15100992, 48.69588921 ], [ 21.15378186, 48.69590734 ], [ 21.15535754, 48.69599345 ], [ 21.15594396, 48.69608799 ], [ 21.15647453, 48.69634885 ], [ 21.15763136, 48.69661825 ], [ 21.15798735, 48.69672644 ], [ 21.15834096, 48.69681672 ], [ 21.15903163, 48.69697074 ], [ 21.16008976, 48.69726049 ], [ 21.16019752, 48.69729002 ], [ 21.16048811, 48.69736983 ], [ 21.16053935, 48.69738541 ], [ 21.1605995, 48.69740362 ], [ 21.16068482, 48.69742947 ], [ 21.16146753, 48.69766679 ], [ 21.16156295, 48.69769575 ], [ 21.16171934, 48.69774312 ], [ 21.16178642, 48.69776344 ], [ 21.16203277, 48.69783815 ], [ 21.16263135, 48.69807143 ], [ 21.16264498, 48.69807672 ], [ 21.1626967, 48.69809691 ], [ 21.16271919, 48.69810563 ], [ 21.16277069, 48.69812888 ], [ 21.16283601, 48.69815841 ], [ 21.16292873, 48.69819475 ], [ 21.16298136, 48.69822677 ], [ 21.16306107, 48.69826423 ], [ 21.16321102, 48.6983348 ], [ 21.16421141, 48.69855677 ], [ 21.1642608, 48.69856779 ], [ 21.16429414, 48.69857515 ], [ 21.16506923, 48.6987716 ], [ 21.16519193, 48.69879962 ], [ 21.1654984, 48.69882374 ], [ 21.16555561, 48.69882817 ], [ 21.16579204, 48.69886339 ], [ 21.1663183, 48.69888772 ], [ 21.1665834, 48.69890837 ], [ 21.1673404, 48.69902797 ], [ 21.16744395, 48.69904431 ], [ 21.16756983, 48.69906414 ], [ 21.16790893, 48.69914304 ], [ 21.16825709, 48.69922448 ], [ 21.16864619, 48.69931549 ], [ 21.16871731, 48.69931576 ], [ 21.16892782, 48.6993164 ], [ 21.16941258, 48.69929582 ], [ 21.16974911, 48.69948565 ], [ 21.16976889, 48.69947736 ], [ 21.17003394, 48.69969643 ], [ 21.17008557, 48.69973102 ], [ 21.17011021, 48.69975152 ], [ 21.17019147, 48.69984863 ], [ 21.17034139, 48.699948 ], [ 21.17052627, 48.70003237 ], [ 21.17085763, 48.70012056 ], [ 21.17113299, 48.70025541 ], [ 21.17175287, 48.70074276 ], [ 21.17187103, 48.70093918 ], [ 21.17217682, 48.70118583 ], [ 21.17253518, 48.70153705 ], [ 21.17301232, 48.70193686 ], [ 21.17300718, 48.70194967 ], [ 21.17303732, 48.701958 ], [ 21.17309182, 48.70186636 ] ] ] ] } },
{ "type": "Feature", "properties": { "@featureType": "CadastralZoning", "beginLifespanVersion": { "@nilReason": "http://inspire.ec.europa.eu/codelist/VoidReasonValue/Unpopulated", "@nil": "true" }, "endLifespanVersion": { "@nilReason": "http://inspire.ec.europa.eu/codelist/VoidReasonValue/Unpopulated", "@nil": "true" }, "estimatedAccuracy": { "value": -1, "@uom": "m" }, "inspireId": { "@dataType": "Identifier", "localId": "807389", "namespace": "SK.ESKN.CP", "versionId": "20260703T04:07:40" }, "label": "Bukovec", "level": { "@href": "http://inspire.ec.europa.eu/codelist/CadastralZoningLevelValue/3rdOrder" }, "levelName": { "value": "Katastrálne územie", "@locale": "sk" }, "name": { "@dataType": "name", "GeographicalName": { "@dataType": "GeographicalName", "language": "SLK", "nativeness": { "@href": "http://inspire.ec.europa.eu/codelist/NativenessValue/endonym", "@title": "endonym" }, "nameStatus": { "@href": "http://inspire.ec.europa.eu/codelist/NameStatusValue/official", "@title": "official" }, "sourceOfName": { "@nilReason": "http://inspire.ec.europa.eu/codelist/VoidReasonValue/Unpopulated", "@nil": "true" }, "pronunciation": { "@dataType": "pronunciation", "@nilReason": "http://inspire.ec.europa.eu/codelist/VoidReasonValue/Unpopulated", "@nil": "true" }, "spelling": { "@dataType": "SpellingOfName", "text": "Bukovec", "script": "LATN" } } }, "nationalCadastalZoningReference": "807389", "validFrom": "2026-06-30T16:00:00Z", "validTo": { "@nilReason": "http://inspire.ec.europa.eu/codelist/VoidReasonValue/Unpopulated", "@nil": "true" } }, "geometry": { "type": "MultiPolygon", "coordinates": [ [ [ [ 21.12530474, 48.73386335 ], [ 21.12555866, 48.73377686 ], [ 21.12577118, 48.73377817 ], [ 21.12590764, 48.7337901 ], [ 21.1260634, 48.73380067 ], [ 21.1261672, 48.73372143 ], [ 21.12625776, 48.73359063 ], [ 21.12631705, 48.73355975 ], [ 21.12636831, 48.73335782 ], [ 21.12646498, 48.73324945 ], [ 21.12651656, 48.73321977 ], [ 21.12666803, 48.73311963 ], [ 21.12689485, 48.73303325 ], [ 21.12700315, 48.73297063 ], [ 21.12712545, 48.73293988 ], [ 21.12749722, 48.73281646 ], [ 21.12786314, 48.73269663 ], [ 21.12815004, 48.73258885 ], [ 21.12827807, 48.73254865 ], [ 21.1285037, 48.73243945 ], [ 21.12865853, 48.73242352 ], [ 21.12880598, 48.73235585 ], [ 21.12888568, 48.73231572 ], [ 21.12890036, 48.73226946 ], [ 21.12896305, 48.73219961 ], [ 21.1289584, 48.73219424 ], [ 21.12925585, 48.73194787 ], [ 21.12949264, 48.73183102 ], [ 21.12948596, 48.73178282 ], [ 21.12961821, 48.73169035 ], [ 21.12978209, 48.73167353 ], [ 21.12984926, 48.73154413 ], [ 21.12993906, 48.73143284 ], [ 21.13003249, 48.73129231 ], [ 21.13023448, 48.73118046 ], [ 21.13038823, 48.73111785 ], [ 21.13050733, 48.73104702 ], [ 21.13065726, 48.73101985 ], [ 21.13088156, 48.73096409 ], [ 21.13101697, 48.73084696 ], [ 21.13136929, 48.73071921 ], [ 21.13159449, 48.73056722 ], [ 21.13201804, 48.73041816 ], [ 21.13213346, 48.73035666 ], [ 21.13222486, 48.7302998 ], [ 21.13228841, 48.7302235 ], [ 21.1324529, 48.7300883 ], [ 21.1326016, 48.72997177 ], [ 21.13284743, 48.72971789 ], [ 21.13319154, 48.72947508 ], [ 21.13337323, 48.72936708 ], [ 21.13353422, 48.72923681 ], [ 21.13369602, 48.72912538 ], [ 21.13391248, 48.72903326 ], [ 21.13397206, 48.72901868 ], [ 21.13402596, 48.72899069 ], [ 21.13404931, 48.72895615 ], [ 21.1342116, 48.72884716 ], [ 21.13426691, 48.72882408 ], [ 21.13438789, 48.72877762 ], [ 21.13448046, 48.72873069 ], [ 21.13471097, 48.72854295 ], [ 21.13523934, 48.72822552 ], [ 21.13528436, 48.72820355 ], [ 21.13537159, 48.72817014 ], [ 21.13563594, 48.72809296 ], [ 21.13615679, 48.72799597 ], [ 21.13642854, 48.72795918 ], [ 21.13763128, 48.72771963 ], [ 21.13778447, 48.7277148 ], [ 21.13784412, 48.72769005 ], [ 21.13797494, 48.72772691 ], [ 21.13836491, 48.72767769 ], [ 21.13840021, 48.72763217 ], [ 21.13864669, 48.72765634 ], [ 21.13876303, 48.72767527 ], [ 21.13885632, 48.72770048 ], [ 21.13903131, 48.72760946 ], [ 21.13909204, 48.72761094 ], [ 21.1394232, 48.72736401 ], [ 21.1397458, 48.72728858 ], [ 21.13977018, 48.72726208 ], [ 21.14001811, 48.72724766 ], [ 21.14024785, 48.72723257 ], [ 21.14040143, 48.72717751 ], [ 21.14049742, 48.72707982 ], [ 21.14052501, 48.72705792 ], [ 21.140639, 48.72693172 ], [ 21.14081216, 48.72676681 ], [ 21.14111384, 48.7265806 ], [ 21.14122689, 48.72648219 ], [ 21.14133096, 48.72640421 ], [ 21.14156904, 48.726269 ], [ 21.14180203, 48.72615506 ], [ 21.14204518, 48.72600633 ], [ 21.14217741, 48.72591925 ], [ 21.1423117, 48.7258543 ], [ 21.14240624, 48.72575575 ], [ 21.14252457, 48.72565589 ], [ 21.14269493, 48.72551051 ], [ 21.14279675, 48.72539806 ], [ 21.14297086, 48.72525163 ], [ 21.14319397, 48.72512927 ], [ 21.14336152, 48.7250299 ], [ 21.1435341, 48.7249586 ], [ 21.1436063, 48.72492209 ], [ 21.14368927, 48.72489655 ], [ 21.14393295, 48.72486182 ], [ 21.14407665, 48.72484317 ], [ 21.14430573, 48.72481464 ], [ 21.14438603, 48.72481828 ], [ 21.14453589, 48.72484781 ], [ 21.14479683, 48.72485253 ], [ 21.14480605, 48.7248512 ], [ 21.14517554, 48.7247968 ], [ 21.14560081, 48.72473895 ], [ 21.14595652, 48.72479908 ], [ 21.14608611, 48.72487334 ], [ 21.14622409, 48.72493536 ], [ 21.14626076, 48.72493068 ], [ 21.14626777, 48.72492982 ], [ 21.14631533, 48.72489145 ], [ 21.14650884, 48.72482234 ], [ 21.1467176, 48.72480369 ], [ 21.14671147, 48.72478693 ], [ 21.1469142, 48.72474818 ], [ 21.14711204, 48.72472243 ], [ 21.1471337, 48.7247333 ], [ 21.14719315, 48.72471862 ], [ 21.14739125, 48.72471169 ], [ 21.14742849, 48.72471621 ], [ 21.14744319, 48.72471803 ], [ 21.14753158, 48.72471895 ], [ 21.14766742, 48.7247204 ], [ 21.14789004, 48.72470011 ], [ 21.1479284, 48.72469665 ], [ 21.14809143, 48.72468357 ], [ 21.14812585, 48.72465558 ], [ 21.14828706, 48.72466755 ], [ 21.14843736, 48.72465748 ], [ 21.14853359, 48.72468711 ], [ 21.14878383, 48.72476422 ], [ 21.14879505, 48.7248719 ], [ 21.14899191, 48.72489707 ], [ 21.14914551, 48.72490322 ], [ 21.14949968, 48.72489865 ], [ 21.14968468, 48.72482665 ], [ 21.14977301, 48.72479471 ], [ 21.15013587, 48.72473224 ], [ 21.1501907, 48.724695 ], [ 21.15045549, 48.72463185 ], [ 21.15056768, 48.72461237 ], [ 21.15057465, 48.72460449 ], [ 21.15062624, 48.72459676 ], [ 21.15075699, 48.72456536 ], [ 21.15091517, 48.72445794 ], [ 21.15110382, 48.72436949 ], [ 21.15126161, 48.72432553 ], [ 21.15145223, 48.72428864 ], [ 21.15159752, 48.72425554 ], [ 21.15156574, 48.72414423 ], [ 21.15172801, 48.72411347 ], [ 21.15188248, 48.72408705 ], [ 21.1520602, 48.72411152 ], [ 21.15214977, 48.72409996 ], [ 21.1523244, 48.72402457 ], [ 21.15251823, 48.72400147 ], [ 21.15262824, 48.72400263 ], [ 21.15274817, 48.72400392 ], [ 21.15287168, 48.72399903 ], [ 21.1530001, 48.72400536 ], [ 21.15312716, 48.72400787 ], [ 21.15331571, 48.72401242 ], [ 21.15351645, 48.72402718 ], [ 21.15371048, 48.72405765 ], [ 21.15389723, 48.724087 ], [ 21.15403668, 48.72408945 ], [ 21.15415758, 48.72409239 ], [ 21.15426722, 48.72410047 ], [ 21.15438887, 48.72415124 ], [ 21.15453503, 48.72418497 ], [ 21.15467611, 48.72421925 ], [ 21.15477635, 48.72421821 ], [ 21.15505672, 48.72421397 ], [ 21.15508881, 48.72406814 ], [ 21.15520155, 48.72406344 ], [ 21.15541504, 48.72405447 ], [ 21.15551599, 48.7240493 ], [ 21.15564266, 48.72403829 ], [ 21.15582069, 48.72402288 ], [ 21.15600326, 48.72399374 ], [ 21.15621511, 48.72394915 ], [ 21.15643982, 48.72387561 ], [ 21.15662452, 48.72380756 ], [ 21.15678528, 48.7238051 ], [ 21.15686752, 48.72369949 ], [ 21.15696237, 48.72366379 ], [ 21.15703939, 48.72360384 ], [ 21.1570968, 48.72355911 ], [ 21.15722024, 48.72351946 ], [ 21.15737326, 48.72346795 ], [ 21.15744106, 48.72344508 ], [ 21.15768421, 48.72342867 ], [ 21.15786853, 48.72341651 ], [ 21.15808683, 48.7234012 ], [ 21.15819644, 48.72337974 ], [ 21.15833932, 48.72334971 ], [ 21.15834818, 48.72336836 ], [ 21.15862581, 48.723338 ], [ 21.15860458, 48.7232761 ], [ 21.15867924, 48.72326749 ], [ 21.15868926, 48.72325304 ], [ 21.1587481, 48.72324672 ], [ 21.15874906, 48.72325602 ], [ 21.15875907, 48.72331135 ], [ 21.15900973, 48.72330004 ], [ 21.15920207, 48.72329939 ], [ 21.15938635, 48.72331784 ], [ 21.15941853, 48.72333759 ], [ 21.15943028, 48.72337821 ], [ 21.1593881, 48.72341748 ], [ 21.15935255, 48.72341986 ], [ 21.16004316, 48.72355711 ], [ 21.16020978, 48.72352999 ], [ 21.16055832, 48.72352961 ], [ 21.16074347, 48.72355493 ], [ 21.16123622, 48.72349674 ], [ 21.16146865, 48.7235024 ], [ 21.16177452, 48.72354253 ], [ 21.16199108, 48.72352302 ], [ 21.16218258, 48.72351694 ], [ 21.16236566, 48.7235313 ], [ 21.16252637, 48.72355386 ], [ 21.16261869, 48.72357758 ], [ 21.16285281, 48.72372708 ], [ 21.16357547, 48.7237526 ], [ 21.16385704, 48.72379007 ], [ 21.16420764, 48.72390968 ], [ 21.16447677, 48.72388588 ], [ 21.16472097, 48.72380971 ], [ 21.16477597, 48.72379254 ], [ 21.16504148, 48.72370975 ], [ 21.16515842, 48.72363198 ], [ 21.16522646, 48.72360577 ], [ 21.16525529, 48.72359471 ], [ 21.16556113, 48.7235375 ], [ 21.16576778, 48.72349885 ], [ 21.16602904, 48.72344825 ], [ 21.16625422, 48.72339992 ], [ 21.16642732, 48.72337353 ], [ 21.16660303, 48.72337504 ], [ 21.16668582, 48.72345518 ], [ 21.16692555, 48.72341641 ], [ 21.16693579, 48.72339143 ], [ 21.16708942, 48.72335587 ], [ 21.16741977, 48.72322309 ], [ 21.16753122, 48.72314225 ], [ 21.16758725, 48.72314277 ], [ 21.16773035, 48.72314352 ], [ 21.16797663, 48.72306119 ], [ 21.16805546, 48.72303992 ], [ 21.16820695, 48.7229906 ], [ 21.16827909, 48.72295084 ], [ 21.16843863, 48.72286549 ], [ 21.16857223, 48.72282065 ], [ 21.16858957, 48.72284254 ], [ 21.16869423, 48.72279715 ], [ 21.16875197, 48.72277583 ], [ 21.16886105, 48.72274462 ], [ 21.16898785, 48.72270929 ], [ 21.16910955, 48.72271251 ], [ 21.16920612, 48.72273187 ], [ 21.16920085, 48.72272009 ], [ 21.16918254, 48.7226798 ], [ 21.16919192, 48.72267803 ], [ 21.16920999, 48.72268778 ], [ 21.16931437, 48.72274412 ], [ 21.16935396, 48.72264264 ], [ 21.16936201, 48.72262174 ], [ 21.169342, 48.72262173 ], [ 21.16932104, 48.72262179 ], [ 21.16930662, 48.72262178 ], [ 21.16938482, 48.72250199 ], [ 21.16935318, 48.72238628 ], [ 21.16939298, 48.7223157 ], [ 21.16950833, 48.72220905 ], [ 21.16944663, 48.72215344 ], [ 21.16947798, 48.72207169 ], [ 21.16937227, 48.72191141 ], [ 21.16940451, 48.7218269 ], [ 21.16926881, 48.72170691 ], [ 21.1693169, 48.72162335 ], [ 21.16920252, 48.72155841 ], [ 21.16919947, 48.72148025 ], [ 21.16922517, 48.72143155 ], [ 21.16910959, 48.7213194 ], [ 21.16906597, 48.72129209 ], [ 21.16897342, 48.72118886 ], [ 21.16889545, 48.7211908 ], [ 21.16884651, 48.72112992 ], [ 21.16890972, 48.72111013 ], [ 21.16894755, 48.72107054 ], [ 21.16891902, 48.72102858 ], [ 21.16868217, 48.72093744 ], [ 21.16859076, 48.72082597 ], [ 21.16826287, 48.72063137 ], [ 21.16810875, 48.72058175 ], [ 21.16765812, 48.72063374 ], [ 21.16752189, 48.72053993 ], [ 21.16711354, 48.72057175 ], [ 21.16677105, 48.72046069 ], [ 21.16650262, 48.72033595 ], [ 21.16635388, 48.72009157 ], [ 21.16616084, 48.72001387 ], [ 21.16580962, 48.71980152 ], [ 21.16570361, 48.71969264 ], [ 21.16541888, 48.7196729 ], [ 21.16499594, 48.71988756 ], [ 21.16479111, 48.71989178 ], [ 21.16422278, 48.71977455 ], [ 21.16400899, 48.7197016 ], [ 21.16350819, 48.71935655 ], [ 21.16260707, 48.71893453 ], [ 21.1624136, 48.71889859 ], [ 21.16220616, 48.71880558 ], [ 21.16211153, 48.71852274 ], [ 21.16222878, 48.71826788 ], [ 21.16228406, 48.71782035 ], [ 21.16214309, 48.71773026 ], [ 21.16223126, 48.71722876 ], [ 21.16236638, 48.71646414 ], [ 21.1622784, 48.71606141 ], [ 21.16204886, 48.71501152 ], [ 21.16191707, 48.71439474 ], [ 21.16170284, 48.71366135 ], [ 21.16172268, 48.71355097 ], [ 21.16173157, 48.71350146 ], [ 21.16171659, 48.71347343 ], [ 21.1618818, 48.71342042 ], [ 21.16206758, 48.71331242 ], [ 21.1627307, 48.7127059 ], [ 21.16311695, 48.71230587 ], [ 21.16372933, 48.71174393 ], [ 21.16411973, 48.71141039 ], [ 21.16444207, 48.71104723 ], [ 21.16521615, 48.71046312 ], [ 21.16569288, 48.710164 ], [ 21.16623794, 48.70976279 ], [ 21.16727446, 48.70916483 ], [ 21.1675491, 48.70894709 ], [ 21.16769906, 48.70884317 ], [ 21.16784525, 48.70871779 ], [ 21.16794699, 48.70864286 ], [ 21.16801846, 48.7085613 ], [ 21.16878672, 48.70760874 ], [ 21.16917322, 48.70700441 ], [ 21.16952356, 48.70655965 ], [ 21.16962145, 48.70646065 ], [ 21.16987978, 48.7060579 ], [ 21.1700619, 48.70585505 ], [ 21.17013054, 48.70574099 ], [ 21.1705869, 48.70523134 ], [ 21.17076675, 48.70501464 ], [ 21.17099917, 48.70462188 ], [ 21.1712076, 48.70439735 ], [ 21.17140155, 48.70412095 ], [ 21.17159866, 48.70382332 ], [ 21.17175951, 48.70346088 ], [ 21.17185988, 48.70332558 ], [ 21.17199467, 48.70317499 ], [ 21.17218056, 48.70299314 ], [ 21.17248111, 48.70276433 ], [ 21.17269628, 48.70251597 ], [ 21.17283627, 48.70231233 ], [ 21.17303732, 48.701958 ], [ 21.17300718, 48.70194967 ], [ 21.17301232, 48.70193686 ], [ 21.17253518, 48.70153705 ], [ 21.17217682, 48.70118583 ], [ 21.17187103, 48.70093918 ], [ 21.17175287, 48.70074276 ], [ 21.17113299, 48.70025541 ], [ 21.17085763, 48.70012056 ], [ 21.17052627, 48.70003237 ], [ 21.17034139, 48.699948 ], [ 21.17019147, 48.69984863 ], [ 21.17011021, 48.69975152 ], [ 21.17008557, 48.69973102 ], [ 21.17003394, 48.69969643 ], [ 21.16976889, 48.69947736 ], [ 21.16974911, 48.69948565 ], [ 21.16941258, 48.69929582 ], [ 21.16892782, 48.6993164 ], [ 21.16871731, 48.69931576 ], [ 21.16864619, 48.69931549 ], [ 21.16825709, 48.69922448 ], [ 21.16790893, 48.69914304 ], [ 21.16756983, 48.69906414 ], [ 21.16744395, 48.69904431 ], [ 21.1673404, 48.69902797 ], [ 21.1665834, 48.69890837 ], [ 21.1663183, 48.69888772 ], [ 21.16579204, 48.69886339 ], [ 21.16555561, 48.69882817 ], [ 21.1654984, 48.69882374 ], [ 21.16519193, 48.69879962 ], [ 21.16506923, 48.6987716 ], [ 21.16429414, 48.69857515 ], [ 21.1642608, 48.69856779 ], [ 21.16421141, 48.69855677 ], [ 21.16321102, 48.6983348 ], [ 21.16306107, 48.69826423 ], [ 21.16298136, 48.69822677 ], [ 21.16292873, 48.69819475 ], [ 21.16283601, 48.69815841 ], [ 21.16277069, 48.69812888 ], [ 21.16271919, 48.69810563 ], [ 21.1626967, 48.69809691 ], [ 21.16264498, 48.69807672 ], [ 21.16263135, 48.69807143 ], [ 21.16203277, 48.69783815 ], [ 21.16178642, 48.69776344 ], [ 21.16171934, 48.69774312 ], [ 21.16156295, 48.69769575 ], [ 21.16146753, 48.69766679 ], [ 21.16068482, 48.69742947 ], [ 21.1605995, 48.69740362 ], [ 21.16053935, 48.69738541 ], [ 21.16048811, 48.69736983 ], [ 21.16019752, 48.69729002 ], [ 21.16008976, 48.69726049 ], [ 21.15903163, 48.69697074 ], [ 21.15834096, 48.69681672 ], [ 21.15798735, 48.69672644 ], [ 21.15763136, 48.69661825 ], [ 21.15647453, 48.69634885 ], [ 21.15594396, 48.69608799 ], [ 21.15535754, 48.69599345 ], [ 21.15378186, 48.69590734 ], [ 21.15100992, 48.69588921 ], [ 21.15097599, 48.69588822 ], [ 21.15094205, 48.69588732 ], [ 21.1503352, 48.69607419 ], [ 21.14876394, 48.69624728 ], [ 21.14790599, 48.69636698 ], [ 21.14763343, 48.69640989 ], [ 21.1471683, 48.69656668 ], [ 21.14620462, 48.69693178 ], [ 21.14565138, 48.69719462 ], [ 21.14460092, 48.69735012 ], [ 21.1437529, 48.69758149 ], [ 21.14225225, 48.697871 ], [ 21.14202785, 48.69797153 ], [ 21.14165178, 48.69816571 ], [ 21.14135868, 48.69836345 ], [ 21.1407135, 48.6986498 ], [ 21.14040637, 48.69879918 ], [ 21.1393636, 48.69865812 ], [ 21.13851482, 48.69858006 ], [ 21.13803828, 48.69849695 ], [ 21.13748215, 48.69843102 ], [ 21.1369622, 48.69819535 ], [ 21.13650676, 48.69799451 ], [ 21.13637784, 48.6979271 ], [ 21.13640015, 48.69791962 ], [ 21.13580147, 48.69759418 ], [ 21.13549139, 48.69750981 ], [ 21.13509164, 48.69750225 ], [ 21.1347693, 48.69767545 ], [ 21.13405549, 48.6978562 ], [ 21.13379493, 48.69793755 ], [ 21.13321411, 48.69863136 ], [ 21.13302146, 48.69922278 ], [ 21.13268509, 48.69962889 ], [ 21.13226089, 48.70036975 ], [ 21.13169807, 48.70087028 ], [ 21.13127597, 48.70132308 ], [ 21.13057996, 48.70187021 ], [ 21.12973886, 48.70226737 ], [ 21.12922999, 48.70246456 ], [ 21.12851677, 48.70256526 ], [ 21.12777595, 48.70252623 ], [ 21.12659486, 48.70237099 ], [ 21.12565396, 48.70252705 ], [ 21.12470302, 48.70249864 ], [ 21.12430619, 48.70272767 ], [ 21.12345361, 48.70311181 ], [ 21.12251073, 48.70356229 ], [ 21.12212595, 48.70391091 ], [ 21.12184933, 48.70414397 ], [ 21.12139244, 48.70440348 ], [ 21.12109104, 48.70483752 ], [ 21.1209922, 48.70502991 ], [ 21.12086193, 48.70537472 ], [ 21.12083247, 48.70544076 ], [ 21.12006435, 48.70590574 ], [ 21.11935454, 48.70658859 ], [ 21.11933082, 48.70657432 ], [ 21.11842059, 48.70652953 ], [ 21.1176036, 48.70660657 ], [ 21.11670978, 48.70685572 ], [ 21.1144686, 48.71117669 ], [ 21.11405611, 48.71194037 ], [ 21.1137662, 48.71248506 ], [ 21.11350544, 48.71297739 ], [ 21.11319186, 48.71357371 ], [ 21.11267274, 48.71432505 ], [ 21.11255746, 48.71449431 ], [ 21.11242208, 48.71472397 ], [ 21.11228386, 48.71494615 ], [ 21.11199967, 48.7156404 ], [ 21.11196418, 48.71572722 ], [ 21.11179004, 48.71610861 ], [ 21.11174594, 48.71620506 ], [ 21.11168513, 48.71627162 ], [ 21.11167918, 48.71630268 ], [ 21.11167179, 48.71632918 ], [ 21.11163618, 48.71645652 ], [ 21.111573, 48.71662016 ], [ 21.1114185, 48.71706016 ], [ 21.11184104, 48.71730218 ], [ 21.11215142, 48.71753194 ], [ 21.1127815, 48.7179553 ], [ 21.11349124, 48.71834286 ], [ 21.11387692, 48.71851462 ], [ 21.114415, 48.71857702 ], [ 21.11467687, 48.71882827 ], [ 21.1148536, 48.71871555 ], [ 21.11552945, 48.71856375 ], [ 21.11593075, 48.71853568 ], [ 21.11613013, 48.71841837 ], [ 21.11635972, 48.71838441 ], [ 21.11660368, 48.71828078 ], [ 21.11685267, 48.71827374 ], [ 21.11698032, 48.71824561 ], [ 21.11720489, 48.71822085 ], [ 21.11735029, 48.71821787 ], [ 21.11785128, 48.71809583 ], [ 21.11798272, 48.7180996 ], [ 21.11815128, 48.7180518 ], [ 21.11856119, 48.71796916 ], [ 21.11915808, 48.71787892 ], [ 21.11946884, 48.71795723 ], [ 21.1195366, 48.71794248 ], [ 21.1196358, 48.71794422 ], [ 21.11979796, 48.71793177 ], [ 21.12012336, 48.71787343 ], [ 21.12040036, 48.71782559 ], [ 21.12071228, 48.71776564 ], [ 21.12085548, 48.71778707 ], [ 21.1210853, 48.71777229 ], [ 21.12118698, 48.71776258 ], [ 21.1213009, 48.71776021 ], [ 21.12167756, 48.71779723 ], [ 21.12179831, 48.71778894 ], [ 21.12187505, 48.71769245 ], [ 21.12197924, 48.71764834 ], [ 21.12220817, 48.71763074 ], [ 21.1224102, 48.71759598 ], [ 21.12259718, 48.7175566 ], [ 21.12276254, 48.71752643 ], [ 21.12304116, 48.71753086 ], [ 21.12352975, 48.71739553 ], [ 21.1236585, 48.71737282 ], [ 21.12385195, 48.71731951 ], [ 21.12426117, 48.71731128 ], [ 21.12457473, 48.71732538 ], [ 21.12474333, 48.71727874 ], [ 21.12509204, 48.71723446 ], [ 21.12556667, 48.71721013 ], [ 21.12558251, 48.7173005 ], [ 21.12574874, 48.71775682 ], [ 21.126058, 48.71838961 ], [ 21.12614067, 48.71851696 ], [ 21.12620962, 48.71865512 ], [ 21.1262371, 48.71867383 ], [ 21.12569179, 48.7188793 ], [ 21.12462726, 48.71929241 ], [ 21.12426812, 48.71942496 ], [ 21.12344505, 48.71967905 ], [ 21.12293513, 48.7201201 ], [ 21.12251622, 48.72044629 ], [ 21.12218536, 48.7207202 ], [ 21.12185135, 48.72097204 ], [ 21.12167038, 48.72118728 ], [ 21.1209425, 48.72175008 ], [ 21.12099982, 48.72205247 ], [ 21.12117717, 48.72256651 ], [ 21.12131622, 48.72308328 ], [ 21.12134661, 48.72341893 ], [ 21.12138065, 48.72358038 ], [ 21.12138493, 48.72362031 ], [ 21.12137566, 48.72366143 ], [ 21.12135958, 48.72373231 ], [ 21.12166747, 48.72374264 ], [ 21.12206056, 48.72360416 ], [ 21.12260949, 48.72343925 ], [ 21.12347625, 48.72308194 ], [ 21.12382089, 48.72287086 ], [ 21.12406316, 48.72271224 ], [ 21.12473387, 48.72235206 ], [ 21.12477039, 48.72219711 ], [ 21.12493404, 48.7221477 ], [ 21.1250188, 48.72226872 ], [ 21.12546051, 48.72213692 ], [ 21.1255825, 48.72189061 ], [ 21.125884, 48.72182437 ], [ 21.12614667, 48.72189842 ], [ 21.12633048, 48.72189332 ], [ 21.12650346, 48.72225019 ], [ 21.12662573, 48.7226735 ], [ 21.12677039, 48.72308267 ], [ 21.12711418, 48.72402178 ], [ 21.12716018, 48.72419477 ], [ 21.12720916, 48.7245112 ], [ 21.12720236, 48.72476417 ], [ 21.12718625, 48.72498073 ], [ 21.1272254, 48.72502422 ], [ 21.12728404, 48.72508948 ], [ 21.12730847, 48.72511646 ], [ 21.12747121, 48.72529733 ], [ 21.12753093, 48.72535714 ], [ 21.12770924, 48.72541435 ], [ 21.12796899, 48.72554349 ], [ 21.12871331, 48.72596744 ], [ 21.12877981, 48.72610391 ], [ 21.12875702, 48.72641011 ], [ 21.1286888, 48.72662087 ], [ 21.12859423, 48.72684032 ], [ 21.1284806, 48.72712121 ], [ 21.12821497, 48.72765689 ], [ 21.12807905, 48.72799126 ], [ 21.12804496, 48.72810569 ], [ 21.12794536, 48.72821522 ], [ 21.1278432, 48.72827777 ], [ 21.12769471, 48.72850856 ], [ 21.12739487, 48.72839902 ], [ 21.12729324, 48.72849715 ], [ 21.12724583, 48.72861682 ], [ 21.12707616, 48.72874464 ], [ 21.12701239, 48.72882372 ], [ 21.12691278, 48.72895379 ], [ 21.12676015, 48.72895269 ], [ 21.1266375, 48.72854008 ], [ 21.12657158, 48.72835834 ], [ 21.12641709, 48.72839211 ], [ 21.12628748, 48.72835366 ], [ 21.12616723, 48.72812958 ], [ 21.12607047, 48.72802717 ], [ 21.12598872, 48.72767692 ], [ 21.12564188, 48.72782094 ], [ 21.1255753, 48.72809297 ], [ 21.12544185, 48.72824266 ], [ 21.1250338, 48.72845316 ], [ 21.12490231, 48.72859291 ], [ 21.12478867, 48.72864312 ], [ 21.12478768, 48.72888348 ], [ 21.12474755, 48.72896683 ], [ 21.12464099, 48.7290169 ], [ 21.12456721, 48.72918633 ], [ 21.12441238, 48.72939566 ], [ 21.12438903, 48.72954554 ], [ 21.12471243, 48.72961209 ], [ 21.12525007, 48.72976788 ], [ 21.12535446, 48.72982551 ], [ 21.12551677, 48.72997702 ], [ 21.12557052, 48.73009057 ], [ 21.1255894, 48.7303756 ], [ 21.12555666, 48.73054779 ], [ 21.12550633, 48.73081511 ], [ 21.12545098, 48.73099315 ], [ 21.12521355, 48.73126358 ], [ 21.12505396, 48.73143188 ], [ 21.12497406, 48.73150081 ], [ 21.12440076, 48.73154007 ], [ 21.12408522, 48.73151474 ], [ 21.12417671, 48.73181182 ], [ 21.12438225, 48.73235251 ], [ 21.12459138, 48.73274394 ], [ 21.12497902, 48.73379269 ], [ 21.12498027, 48.73379615 ], [ 21.12499358, 48.73383187 ], [ 21.12500198, 48.73385465 ], [ 21.12502663, 48.73392143 ], [ 21.12503606, 48.73394695 ], [ 21.12530474, 48.73386335 ] ] ] ] } }
]
}
