{
"type": "FeatureCollection",
"name": "gis",
"crs": { "type": "name", "properties": { "name": "urn:ogc:def:crs:OGC:1.3:CRS84" } },
"features": [
{ "type": "Feature", "properties": { "@featureType": "CadastralZoning", "beginLifespanVersion": { "@nilReason": "http://inspire.ec.europa.eu/codelist/VoidReasonValue/Unpopulated", "@nil": "true" }, "endLifespanVersion": { "@nilReason": "http://inspire.ec.europa.eu/codelist/VoidReasonValue/Unpopulated", "@nil": "true" }, "estimatedAccuracy": { "value": -1, "@uom": "m" }, "inspireId": { "@dataType": "Identifier", "localId": "870170", "namespace": "SK.ESKN.CP", "versionId": "20260703T04:07:40" }, "label": "Voznica", "level": { "@href": "http://inspire.ec.europa.eu/codelist/CadastralZoningLevelValue/3rdOrder" }, "levelName": { "value": "Katastrálne územie", "@locale": "sk" }, "name_1": { "@dataType": "name", "GeographicalName": { "@dataType": "GeographicalName", "language": "SLK", "nativeness": { "@href": "http://inspire.ec.europa.eu/codelist/NativenessValue/endonym", "@title": "endonym" }, "nameStatus": { "@href": "http://inspire.ec.europa.eu/codelist/NameStatusValue/official", "@title": "official" }, "sourceOfName": { "@nilReason": "http://inspire.ec.europa.eu/codelist/VoidReasonValue/Unpopulated", "@nil": "true" }, "pronunciation": { "@dataType": "pronunciation", "@nilReason": "http://inspire.ec.europa.eu/codelist/VoidReasonValue/Unpopulated", "@nil": "true" }, "spelling": { "@dataType": "SpellingOfName", "text": "Voznica", "script": "LATN" } } }, "nationalCadastalZoningReference": "870170", "validFrom": "2026-06-30T16:00:00Z", "validTo": { "@nilReason": "http://inspire.ec.europa.eu/codelist/VoidReasonValue/Unpopulated", "@nil": "true" }, "place_id": 419463465, "osm_type": "relation", "osm_id": 2257530, "place_rank": 22, "category": "place", "type": "cadastral_community", "importance": 0.10672177386129547, "addresstype": "cadastral_community", "name_2": "Voznica", "display_name": "Voznica, okres Žarnovica, Banskobystrický kraj, Slovensko" }, "geometry": { "type": "Polygon", "coordinates": [ [ [ 18.70197935, 48.46745786 ], [ 18.70250194, 48.46708055 ], [ 18.70293194, 48.46676994 ], [ 18.7030322, 48.4667014 ], [ 18.70387632, 48.46609367 ], [ 18.704668271211293, 48.465526666863248 ], [ 18.7048387, 48.4654041 ], [ 18.7060403, 48.4656712 ], [ 18.7094495, 48.4668884 ], [ 18.7099426, 48.4670253 ], [ 18.7109416, 48.4672137 ], [ 18.7114053, 48.4674414 ], [ 18.7116748, 48.4676408 ], [ 18.7120492, 48.4680814 ], [ 18.7135043, 48.4673729 ], [ 18.714395, 48.4670978 ], [ 18.714457133210097, 48.467093374146792 ], [ 18.71459558, 48.46706786 ], [ 18.71485535, 48.46706149 ], [ 18.71491967873747, 48.467060426249802 ], [ 18.7150843, 48.4670487 ], [ 18.716155649794622, 48.467098101129416 ], [ 18.71619203, 48.4670006 ], [ 18.71628372, 48.46681601 ], [ 18.7163409, 48.46633221 ], [ 18.71635875, 48.46618068 ], [ 18.716370402087541, 48.466175235921924 ], [ 18.7163709, 48.466171 ], [ 18.7170261, 48.4658653 ], [ 18.7173915, 48.4658827 ], [ 18.7182176, 48.4656594 ], [ 18.7183985, 48.4655709 ], [ 18.719740856063598, 48.465416073564576 ], [ 18.71923844, 48.46439727 ], [ 18.71888271, 48.46399615 ], [ 18.7188713, 48.46367958 ], [ 18.7189874, 48.46339127 ], [ 18.71886952, 48.46310946 ], [ 18.718883105603094, 48.463102734778545 ], [ 18.7188818, 48.4630996 ], [ 18.719241425947455, 48.462921717385626 ], [ 18.71912783, 48.46256617 ], [ 18.71869056, 48.46237706 ], [ 18.71838261, 48.46199616 ], [ 18.71898602, 48.46142939 ], [ 18.71932491, 48.46094579 ], [ 18.71971606, 48.4600042 ], [ 18.71991647, 48.4596104 ], [ 18.719892136795668, 48.459552248228697 ], [ 18.719562996173803, 48.459117887556467 ], [ 18.71918881, 48.4586503 ], [ 18.71956567, 48.45827591 ], [ 18.719572484650136, 48.458272266485245 ], [ 18.7195779, 48.4582669 ], [ 18.7202797, 48.4578914 ], [ 18.7208593, 48.4576753 ], [ 18.721362322101065, 48.457655765542725 ], [ 18.7221497, 48.45761154 ], [ 18.722918092603734, 48.457595348451008 ], [ 18.7234189, 48.4575759 ], [ 18.72418040192137, 48.457314491841728 ], [ 18.72445768, 48.45676732 ], [ 18.72450997, 48.45666409 ], [ 18.72490746, 48.45606135 ], [ 18.72514692, 48.4555036 ], [ 18.725159106727755, 48.455494682426661 ], [ 18.7251594, 48.455494 ], [ 18.725205591469269, 48.455460667463825 ], [ 18.72546669, 48.45526961 ], [ 18.725699974511524, 48.455103912398364 ], [ 18.725812509269129, 48.455022705436583 ], [ 18.72617435, 48.45466125 ], [ 18.726178747027351, 48.454659727587746 ], [ 18.7261865, 48.454652 ], [ 18.7267852, 48.4544449 ], [ 18.7283015, 48.4546822 ], [ 18.7291008, 48.4544844 ], [ 18.7306866, 48.4539067 ], [ 18.7316716, 48.4537133 ], [ 18.733265418853989, 48.453638007761668 ], [ 18.73376508, 48.45318067 ], [ 18.733769251858408, 48.453178193359456 ], [ 18.7337771, 48.453171 ], [ 18.7344155, 48.4527921 ], [ 18.7349279, 48.4524189 ], [ 18.735347, 48.4522394 ], [ 18.7363969, 48.4522003 ], [ 18.7373996, 48.4518849 ], [ 18.7386463, 48.4516713 ], [ 18.7390288, 48.4515687 ], [ 18.739472990388361, 48.451260920684959 ], [ 18.7396807, 48.45094787 ], [ 18.74005258, 48.45036556 ], [ 18.74030733, 48.44979517 ], [ 18.740318266530828, 48.449788164404985 ], [ 18.7403195, 48.4497854 ], [ 18.7407439, 48.4495137 ], [ 18.741674, 48.4492404 ], [ 18.7424045, 48.4493931 ], [ 18.7434877, 48.4493073 ], [ 18.7442907, 48.4491164 ], [ 18.7445479, 48.4489677 ], [ 18.7457146, 48.4494209 ], [ 18.7471285, 48.4497799 ], [ 18.7476672, 48.4500216 ], [ 18.7480484, 48.4501309 ], [ 18.7491194, 48.4495359 ], [ 18.7497078, 48.4492795 ], [ 18.7503042, 48.4494226 ], [ 18.751061804528327, 48.449462777504522 ], [ 18.75144319, 48.44899838 ], [ 18.751448168259369, 48.448997192553115 ], [ 18.7514553, 48.4489885 ], [ 18.7522922, 48.4487894 ], [ 18.7533893, 48.4480795 ], [ 18.753640101440329, 48.447951317805149 ], [ 18.75381154, 48.44786144 ], [ 18.754478813260071, 48.447522660291213 ], [ 18.7554226, 48.4470403 ], [ 18.7560892, 48.4474511 ], [ 18.7580071, 48.4478907 ], [ 18.7582751, 48.4478836 ], [ 18.7590227, 48.4477157 ], [ 18.7601663, 48.4472031 ], [ 18.761050906570063, 48.446928753151653 ], [ 18.76042833, 48.44621458 ], [ 18.76010917, 48.4453426 ], [ 18.760063174185863, 48.445115607124258 ], [ 18.760045560187329, 48.44504994773294 ], [ 18.75997075, 48.44485892 ], [ 18.759910765436647, 48.444547475720896 ], [ 18.759786783073359, 48.444085308854419 ], [ 18.75975425, 48.44401871 ], [ 18.75975392, 48.4436857 ], [ 18.759839532493324, 48.443553202236842 ], [ 18.759990637357799, 48.443301202901729 ], [ 18.76004087, 48.44320675 ], [ 18.76005114755921, 48.443077282356988 ], [ 18.760045998876556, 48.442743982695497 ], [ 18.76003246, 48.44266896 ], [ 18.75988269, 48.44251407 ], [ 18.75981863, 48.44234657 ], [ 18.75966317, 48.44211677 ], [ 18.7594827, 48.44186931 ], [ 18.75960084, 48.44171479 ], [ 18.75996861, 48.4414173 ], [ 18.76001666, 48.44135453 ], [ 18.7603197, 48.44094508 ], [ 18.760401294422238, 48.440422156117386 ], [ 18.760421430088009, 48.440273486319626 ], [ 18.76041073, 48.44023212 ], [ 18.76043399, 48.44009982 ], [ 18.760444800994353, 48.440100929426855 ], [ 18.7604462, 48.4400906 ], [ 18.760667212410212, 48.44008320293154 ], [ 18.76072951, 48.44003245 ], [ 18.760912505354234, 48.439919154164421 ], [ 18.7609371, 48.4399027 ], [ 18.7609626, 48.4398856 ], [ 18.7610407, 48.439885 ], [ 18.7615549, 48.439881 ], [ 18.761587136861078, 48.439861437784714 ], [ 18.76217795, 48.43947842 ], [ 18.762297860639155, 48.439430217571946 ], [ 18.7623208, 48.4394163 ], [ 18.7623976, 48.4394474 ], [ 18.7626691, 48.4395576 ], [ 18.7629342, 48.4396652 ], [ 18.7635713, 48.439559 ], [ 18.763924, 48.4393657 ], [ 18.7642204, 48.439361 ], [ 18.7647396, 48.4392239 ], [ 18.7657185, 48.4389654 ], [ 18.766438568158421, 48.438657223904137 ], [ 18.76670684, 48.4382977 ], [ 18.766718456711104, 48.438289592771177 ], [ 18.7667192, 48.4382886 ], [ 18.766860854050869, 48.438188934609165 ], [ 18.76690159, 48.43789181 ], [ 18.766903676051673, 48.437876189645081 ], [ 18.766903994486608, 48.437873054285696 ], [ 18.76648654, 48.43771696 ], [ 18.76636209, 48.43765436 ], [ 18.766313498914048, 48.43762991005665 ], [ 18.766211, 48.437579 ], [ 18.765958, 48.437429 ], [ 18.765727708189871, 48.437348137783303 ], [ 18.76547076, 48.43725891 ], [ 18.76535556, 48.43725048 ], [ 18.76520048, 48.43721729 ], [ 18.76516175190989, 48.437198325505506 ], [ 18.765077, 48.437158 ], [ 18.764992669310519, 48.437115531307455 ], [ 18.76493775, 48.43708864 ], [ 18.764906364573566, 48.437064487183058 ], [ 18.764864, 48.437033 ], [ 18.764833515309657, 48.437008463541915 ], [ 18.76482276, 48.4370002 ], [ 18.76473687, 48.43701208 ], [ 18.764699738561493, 48.436997757850172 ], [ 18.764512, 48.436926 ], [ 18.764455296203348, 48.436893768368222 ], [ 18.76441715, 48.43687248 ], [ 18.76437068, 48.43683014 ], [ 18.764380813009474, 48.436707337381563 ], [ 18.764383, 48.43668 ], [ 18.76419938521925, 48.436498381032081 ], [ 18.76419909, 48.43649809 ], [ 18.76398365, 48.43635389 ], [ 18.763889374689207, 48.436252615738432 ], [ 18.763746, 48.436099 ], [ 18.763711706416846, 48.43601509016888 ], [ 18.76369899, 48.43598428 ], [ 18.763699072385869, 48.435984177114364 ], [ 18.763699, 48.435984 ], [ 18.763769524425829, 48.435896194754598 ], [ 18.763849934803972, 48.435795776160298 ], [ 18.76382, 48.435693 ], [ 18.763829995218352, 48.435658715326291 ], [ 18.76391255, 48.43537334 ], [ 18.763934, 48.435202785612816 ], [ 18.763934, 48.435198 ], [ 18.76396, 48.435143 ], [ 18.763959, 48.43514 ], [ 18.763938, 48.435083 ], [ 18.763936647745179, 48.4350792136865 ], [ 18.76391753, 48.43502734 ], [ 18.76394576, 48.43487609 ], [ 18.763934317259665, 48.434741648486131 ], [ 18.763916, 48.434531 ], [ 18.763931661414063, 48.434421830731381 ], [ 18.76394976, 48.43429421 ], [ 18.76391521879545, 48.434191796768175 ], [ 18.763885, 48.434103 ], [ 18.763885078323295, 48.434102431524465 ], [ 18.76388498, 48.43410214 ], [ 18.763915639778919, 48.433877188362629 ], [ 18.763837, 48.4337 ], [ 18.763774504583186, 48.433639331934558 ], [ 18.7636658, 48.43353408 ], [ 18.76358844, 48.43340413 ], [ 18.763576366482244, 48.4333728419548 ], [ 18.763545, 48.433293 ], [ 18.763468, 48.433208 ], [ 18.763281, 48.432969 ], [ 18.76325760340163, 48.432906467273455 ], [ 18.76322575, 48.43282198 ], [ 18.763158873667166, 48.432767510401511 ], [ 18.762562, 48.432283 ], [ 18.762533010298615, 48.432219022727978 ], [ 18.762527528466872, 48.432213342991176 ], [ 18.762415, 48.432097 ], [ 18.762406166255271, 48.432087614146226 ], [ 18.76239894, 48.43208014 ], [ 18.76238603295138, 48.432062883495817 ], [ 18.762374, 48.432047 ], [ 18.762364487223639, 48.432034046432186 ], [ 18.76232718, 48.43198405 ], [ 18.762209108433787, 48.431960737214965 ], [ 18.762094, 48.431939 ], [ 18.762029005163825, 48.431925134434948 ], [ 18.76201924, 48.4319232 ], [ 18.76172995, 48.4317584 ], [ 18.761529957180755, 48.431644487330473 ], [ 18.761515, 48.431636 ], [ 18.761352, 48.431579 ], [ 18.761343735589332, 48.431557139300814 ], [ 18.7613209, 48.4314976 ], [ 18.761214601060932, 48.431388140027472 ], [ 18.761191, 48.431364 ], [ 18.761190991903401, 48.431363828799554 ], [ 18.76119076, 48.43136359 ], [ 18.7611788, 48.43110854 ], [ 18.7611507, 48.43089657 ], [ 18.76108067, 48.43072136 ], [ 18.76098773, 48.4305268 ], [ 18.760979797299679, 48.430416263545659 ], [ 18.760972, 48.430311 ], [ 18.760974253852233, 48.430290920225573 ], [ 18.76098237, 48.43021301 ], [ 18.76095257, 48.43001872 ], [ 18.76092565, 48.42988098 ], [ 18.76090698, 48.42979554 ], [ 18.760900675531957, 48.429766648936365 ], [ 18.760878, 48.429665 ], [ 18.76088491236316, 48.42954246265306 ], [ 18.76088874, 48.42947042 ], [ 18.760888996407221, 48.429470063690147 ], [ 18.760889, 48.42947 ], [ 18.76089456907793, 48.429462319768341 ], [ 18.76104122, 48.42925853 ], [ 18.761060577713565, 48.429180044717349 ], [ 18.76107, 48.42914 ], [ 18.760832, 48.428942 ], [ 18.760831961666042, 48.428941637957067 ], [ 18.76083182, 48.42894152 ], [ 18.760822648069556, 48.428856672174383 ], [ 18.76075, 48.428789 ], [ 18.760745338016616, 48.428772337726052 ], [ 18.76069569, 48.42859672 ], [ 18.76060862, 48.42850171 ], [ 18.760585271612985, 48.428442679032464 ], [ 18.760559, 48.428377 ], [ 18.760471912243528, 48.428318289152941 ], [ 18.76047029, 48.4283172 ], [ 18.76047028720776, 48.428317193623208 ], [ 18.76047, 48.428317 ], [ 18.76045142396077, 48.428274114576098 ], [ 18.7603886, 48.42813064 ], [ 18.76040285, 48.4280704 ], [ 18.760406286379052, 48.428024184009679 ], [ 18.76042, 48.427833 ], [ 18.760515, 48.427576 ], [ 18.760504819090947, 48.427555638181893 ], [ 18.76050432, 48.42755466 ], [ 18.760504324210448, 48.427554648420895 ], [ 18.760504, 48.427554 ], [ 18.760562, 48.427396 ], [ 18.76055629960646, 48.42733171222843 ], [ 18.76054391, 48.42719372 ], [ 18.76047273, 48.42699977 ], [ 18.76069152, 48.42689884 ], [ 18.760742150255435, 48.426840628391219 ], [ 18.760753, 48.426828 ], [ 18.760855, 48.426753 ], [ 18.760981035805635, 48.426629435484671 ], [ 18.76100725, 48.42660366 ], [ 18.76097965, 48.42644891 ], [ 18.760968575971077, 48.426432523035203 ], [ 18.760928, 48.426374 ], [ 18.760874, 48.426221 ], [ 18.760818813816243, 48.426147418421657 ], [ 18.7607809, 48.42609728 ], [ 18.76064542, 48.4258163 ], [ 18.760622522396798, 48.425752397038586 ], [ 18.760591, 48.425667 ], [ 18.760473, 48.425432 ], [ 18.760371, 48.425299 ], [ 18.760361386056406, 48.425230500651899 ], [ 18.760354783176446, 48.425184541713854 ], [ 18.760335180415368, 48.425143108605212 ], [ 18.76031092, 48.42509191 ], [ 18.760360626923791, 48.425034588460711 ], [ 18.760412865137209, 48.424974156017733 ], [ 18.760362207026546, 48.424918054116198 ], [ 18.760275, 48.424822 ], [ 18.760275092510284, 48.424821578153114 ], [ 18.76027504, 48.42482152 ], [ 18.760324694570791, 48.424593070986155 ], [ 18.760301, 48.424521 ], [ 18.76044, 48.424419 ], [ 18.760424, 48.42434 ], [ 18.760311712742343, 48.424262856082528 ], [ 18.76029312, 48.4242503 ], [ 18.760293112552695, 48.424250077326278 ], [ 18.760293, 48.42425 ], [ 18.760283, 48.423952 ], [ 18.760250454693672, 48.423710781847213 ], [ 18.760248990827595, 48.423699993102915 ], [ 18.760170705305221, 48.423641127245013 ], [ 18.76011966, 48.42360318 ], [ 18.75981465, 48.42305303 ], [ 18.75979268, 48.42283642 ], [ 18.75968968, 48.4225844 ], [ 18.759690652465579, 48.422540937271748 ], [ 18.759691, 48.422518 ], [ 18.75969239147982, 48.422465587593372 ], [ 18.759693817203754, 48.422404659497182 ], [ 18.759686642346228, 48.422391294566502 ], [ 18.75964273, 48.42231026 ], [ 18.75960767, 48.42206707 ], [ 18.75951885, 48.42175535 ], [ 18.759510376474122, 48.421691555488174 ], [ 18.759505, 48.421652 ], [ 18.759419, 48.421537 ], [ 18.75949, 48.421474 ], [ 18.75948, 48.421388 ], [ 18.759506189901849, 48.42128818737406 ], [ 18.75956943, 48.42104493 ], [ 18.75954472, 48.42094096 ], [ 18.759640213642282, 48.420846292813259 ], [ 18.759732873225442, 48.420754126100228 ], [ 18.75963108, 48.4206866 ], [ 18.759579667256464, 48.420614134159052 ], [ 18.759536, 48.420553 ], [ 18.759536097873013, 48.420552723469896 ], [ 18.75953584, 48.42055236 ], [ 18.759598932293105, 48.42037483629079 ], [ 18.759465, 48.420051 ], [ 18.759437348492888, 48.419938665752362 ], [ 18.75940051, 48.41979159 ], [ 18.75931996, 48.41954572 ], [ 18.75902411, 48.41872178 ], [ 18.759024236723874, 48.418721658988083 ], [ 18.759024, 48.418721 ], [ 18.75906952197645, 48.418678414925253 ], [ 18.75908597527064, 48.418662703247676 ], [ 18.759076494136103, 48.418548929633225 ], [ 18.75907496, 48.41853104 ], [ 18.7589397, 48.4183835 ], [ 18.758926864742751, 48.418381358092844 ], [ 18.758916, 48.41838 ], [ 18.758854, 48.418345 ], [ 18.75863, 48.418218 ], [ 18.758063, 48.417828 ], [ 18.75806298631743, 48.417827934844915 ], [ 18.75806263, 48.41782769 ], [ 18.758056180563653, 48.417795526493585 ], [ 18.758042, 48.417728 ], [ 18.75812198065783, 48.417304102513512 ], [ 18.75802871, 48.41718145 ], [ 18.757864940200388, 48.417037728599652 ], [ 18.757737, 48.416926 ], [ 18.757460073714629, 48.416745029935086 ], [ 18.75740818, 48.41671121 ], [ 18.75716488, 48.41653223 ], [ 18.757113809833015, 48.416509686337463 ], [ 18.757048, 48.416481 ], [ 18.756943304973589, 48.416400837471528 ], [ 18.75674478, 48.41624943 ], [ 18.756556519450747, 48.416042194952901 ], [ 18.756529, 48.416012 ], [ 18.756501, 48.4159 ], [ 18.756373638000998, 48.415728061301351 ], [ 18.7562205, 48.41552174 ], [ 18.756187215827968, 48.41549504858186 ], [ 18.756132, 48.415451 ], [ 18.756115321131418, 48.41543738459707 ], [ 18.75608273, 48.41541123 ], [ 18.756062959451377, 48.41538855458554 ], [ 18.756058, 48.415383 ], [ 18.756046493757523, 48.4153696837868 ], [ 18.75596865, 48.4152805 ], [ 18.755827366217513, 48.415149593285641 ], [ 18.755805, 48.415129 ], [ 18.755768, 48.415095 ], [ 18.755235, 48.414602 ], [ 18.755216, 48.414416 ], [ 18.755215172387413, 48.414382688593371 ], [ 18.75521146, 48.41425546 ], [ 18.755250850808782, 48.414145761294051 ], [ 18.755216, 48.41409 ], [ 18.755215983933972, 48.41408961910124 ], [ 18.75521586, 48.41408942 ], [ 18.7551919, 48.41352121 ], [ 18.75471522, 48.41284357 ], [ 18.75416175, 48.41256804 ], [ 18.75375548, 48.41239557 ], [ 18.753684567894599, 48.41237777523699 ], [ 18.753615, 48.412361 ], [ 18.752644, 48.412131 ], [ 18.7526294961948, 48.412127257082531 ], [ 18.75258168, 48.41211594 ], [ 18.75243301, 48.41208082 ], [ 18.75064412, 48.4111621 ], [ 18.7505262, 48.41156896 ], [ 18.750366024561686, 48.411846425760118 ], [ 18.750289, 48.41198 ], [ 18.750288752616026, 48.411980280983883 ], [ 18.75028858, 48.41198058 ], [ 18.749910038116983, 48.412410432825332 ], [ 18.749619, 48.412741 ], [ 18.749387196705367, 48.413020022484275 ], [ 18.74907899, 48.41339111 ], [ 18.749024783542733, 48.413435699738699 ], [ 18.748891, 48.413546 ], [ 18.748665937733502, 48.413730872576053 ], [ 18.74833143, 48.41400602 ], [ 18.748313554246419, 48.414035657781092 ], [ 18.748301, 48.414057 ], [ 18.748188586802286, 48.414243253239349 ], [ 18.74809732, 48.4143949 ], [ 18.748041405215595, 48.414644456390128 ], [ 18.747904, 48.415261 ], [ 18.747663, 48.415557 ], [ 18.747642, 48.415572 ], [ 18.747527401993391, 48.415655695173363 ], [ 18.74737495, 48.41576719 ], [ 18.747339217312657, 48.415793334449674 ], [ 18.747197, 48.415898 ], [ 18.74711917341417, 48.415938512469339 ], [ 18.74697838, 48.41601285 ], [ 18.746421374434195, 48.416307037279871 ], [ 18.746329, 48.416356 ], [ 18.74595, 48.416456 ], [ 18.745443370308802, 48.416561922578438 ], [ 18.745448577079138, 48.416565975836015 ], [ 18.7457293, 48.4167661 ], [ 18.7459207, 48.4172253 ], [ 18.7471593, 48.4173236 ], [ 18.7482209, 48.4178535 ], [ 18.7492823, 48.4200593 ], [ 18.7491406, 48.4207568 ], [ 18.749129255878106, 48.420761819898871 ], [ 18.7491284, 48.42076603 ], [ 18.74881247, 48.42091068 ], [ 18.74822079, 48.42116793 ], [ 18.74706384, 48.42156237 ], [ 18.74665774, 48.42175709 ], [ 18.74599569, 48.42206526 ], [ 18.7452626, 48.4223417 ], [ 18.74502213, 48.42238704 ], [ 18.7441335, 48.42253152 ], [ 18.74281120025692, 48.422692211400332 ], [ 18.742162, 48.4233422 ], [ 18.742154791255569, 48.42334660925232 ], [ 18.74215001, 48.42335139 ], [ 18.74111488, 48.4239852 ], [ 18.739846837248741, 48.424054846041876 ], [ 18.7393411, 48.4245707 ], [ 18.73933541946807, 48.424573339003693 ], [ 18.73932878, 48.42458011 ], [ 18.73851207, 48.42495979 ], [ 18.73782793, 48.42545703 ], [ 18.7372622, 48.42570261 ], [ 18.737075034723389, 48.42574681465058 ], [ 18.735940699916306, 48.426050047999091 ], [ 18.73581881, 48.42608859 ], [ 18.73540587, 48.42608198 ], [ 18.73447397, 48.42601568 ], [ 18.73379901, 48.42636136 ], [ 18.732855551447777, 48.426598061037481 ], [ 18.730735, 48.4289957 ], [ 18.730203, 48.4309657 ], [ 18.7301688, 48.4314196 ], [ 18.730156860457864, 48.431424713544175 ], [ 18.73015658, 48.43142841 ], [ 18.72865282, 48.43207248 ], [ 18.72787911, 48.43249201 ], [ 18.72693941, 48.43287563 ], [ 18.72633437, 48.43330051 ], [ 18.72511789, 48.43365947 ], [ 18.7237409, 48.43359069 ], [ 18.72238677, 48.43361587 ], [ 18.721552753690172, 48.433919284357316 ], [ 18.7209188, 48.4345318 ], [ 18.720910378591771, 48.434537202930798 ], [ 18.72090683, 48.43454063 ], [ 18.720273094354578, 48.434947415185611 ], [ 18.7195167, 48.4361105 ], [ 18.719414912213342, 48.436355016806921 ], [ 18.71929483, 48.43666967 ], [ 18.719244295427142, 48.436764876114601 ], [ 18.7192196, 48.4368242 ], [ 18.7186096, 48.4375395 ], [ 18.718605812100584, 48.437538346240068 ], [ 18.71859724, 48.43754838 ], [ 18.7174889, 48.43721135 ], [ 18.71670376, 48.4368366 ], [ 18.71618985, 48.43650552 ], [ 18.71545276, 48.43613611 ], [ 18.71470062, 48.43605848 ], [ 18.71440645, 48.43594536 ], [ 18.71413329, 48.43578942 ], [ 18.71385471, 48.43574055 ], [ 18.71355677, 48.4357465 ], [ 18.71326442, 48.43574779 ], [ 18.71017893, 48.43577794 ], [ 18.71001429, 48.43588284 ], [ 18.709848774297498, 48.43597443625076 ], [ 18.709772, 48.4362022 ], [ 18.709761818630408, 48.436205619742374 ], [ 18.70975995, 48.43621114 ], [ 18.709258742601406, 48.436380148140991 ], [ 18.7091936, 48.4365131 ], [ 18.709184262318963, 48.436516312368504 ], [ 18.70918148, 48.43652196 ], [ 18.708713219228446, 48.43668375030397 ], [ 18.7085252, 48.4368553 ], [ 18.708522532316994, 48.436855632161105 ], [ 18.70851296, 48.43686433 ], [ 18.70792292, 48.43693805 ], [ 18.70709009, 48.43694142 ], [ 18.7059778, 48.43730359 ], [ 18.70563817, 48.43719298 ], [ 18.7053736, 48.43711227 ], [ 18.70482945, 48.43692676 ], [ 18.70384917, 48.43669785 ], [ 18.70311672668641, 48.436858447328824 ], [ 18.702660713932172, 48.436962484030758 ], [ 18.701745701500066, 48.437178422423813 ], [ 18.7008484, 48.4381416 ], [ 18.7008302, 48.438628 ], [ 18.700817999282791, 48.438636250210067 ], [ 18.70081797, 48.43863703 ], [ 18.70071833, 48.43871319 ], [ 18.70042257, 48.43891104 ], [ 18.70028848, 48.43900078 ], [ 18.69963146, 48.43944026 ], [ 18.699502607080444, 48.439526451291322 ], [ 18.6995803, 48.439999 ], [ 18.699521, 48.4405756 ], [ 18.6992999, 48.4411806 ], [ 18.699177242504806, 48.441387382192232 ], [ 18.69892312, 48.44184148 ], [ 18.698600190980393, 48.442360204758486 ], [ 18.6984815, 48.4425603 ], [ 18.697642841037023, 48.443724144893487 ], [ 18.69754574, 48.44386633 ], [ 18.69750096, 48.44392719 ], [ 18.69730695, 48.44419066 ], [ 18.697294116925633, 48.444208085081563 ], [ 18.6970486, 48.4445488 ], [ 18.697043477264266, 48.444548382472952 ], [ 18.6970367, 48.44455759 ], [ 18.69700231, 48.44454926 ], [ 18.69699731, 48.444548 ], [ 18.696966350978684, 48.44454209631801 ], [ 18.696878613051052, 48.444534945264351 ], [ 18.69686761, 48.44453493 ], [ 18.69683573, 48.44453494 ], [ 18.69674921, 48.44453492 ], [ 18.69668738, 48.44455733 ], [ 18.69663915, 48.44457487 ], [ 18.69600016, 48.44480697 ], [ 18.69508788, 48.44521988 ], [ 18.69453996, 48.44529976 ], [ 18.694225482000473, 48.445434162593699 ], [ 18.6937351, 48.4458355 ], [ 18.6934464, 48.446146 ], [ 18.693439606812269, 48.446149295791727 ], [ 18.69343439, 48.4461549 ], [ 18.693203908162168, 48.446266571663251 ], [ 18.692856805762482, 48.446536548319116 ], [ 18.692738805278193, 48.44662856091216 ], [ 18.6921631, 48.4475289 ], [ 18.692156360945869, 48.447529122029778 ], [ 18.6921508, 48.44753781 ], [ 18.6896077, 48.44762173 ], [ 18.68843511, 48.44732989 ], [ 18.687417987973458, 48.44706555698464 ], [ 18.6870945, 48.4473478 ], [ 18.6867631, 48.4477441 ], [ 18.6865325, 48.448194 ], [ 18.6862707, 48.4484575 ], [ 18.6862026, 48.4487596 ], [ 18.6861747, 48.4488071 ], [ 18.68612922655624, 48.448884392072976 ], [ 18.68593365, 48.44925432 ], [ 18.685617276781663, 48.449754562793814 ], [ 18.6855343, 48.4498956 ], [ 18.6851984, 48.4505871 ], [ 18.6850692, 48.4511791 ], [ 18.685058271491986, 48.451183475825708 ], [ 18.68505731, 48.45118788 ], [ 18.683295732416731, 48.451894136307239 ], [ 18.6830897, 48.4521229 ], [ 18.6827492, 48.4529609 ], [ 18.6824157, 48.4535024 ], [ 18.682193, 48.4545731 ], [ 18.681829592148006, 48.455101741490587 ], [ 18.68181545, 48.45514429 ], [ 18.681711919117063, 48.455272917886852 ], [ 18.6810975, 48.4561667 ], [ 18.6805736, 48.4566957 ], [ 18.680570715260114, 48.456696079308358 ], [ 18.68056154, 48.45670535 ], [ 18.67978131, 48.45680809 ], [ 18.67882659, 48.45681251 ], [ 18.6783507, 48.45698622 ], [ 18.677638, 48.45702525 ], [ 18.67714591, 48.45717473 ], [ 18.67662845, 48.45713056 ], [ 18.675347745171077, 48.457679246122154 ], [ 18.6756855, 48.4577917 ], [ 18.676842, 48.457839 ], [ 18.6778509, 48.459542 ], [ 18.6792206, 48.4600914 ], [ 18.679941, 48.4605191 ], [ 18.6823757, 48.4613826 ], [ 18.6848372, 48.4620027 ], [ 18.6852645, 48.4623562 ], [ 18.6860162, 48.4626084 ], [ 18.6870861, 48.4626352 ], [ 18.6875012, 48.4625704 ], [ 18.6886068, 48.4629139 ], [ 18.6894849, 48.4628018 ], [ 18.6905355, 48.4629854 ], [ 18.6909438, 48.4630096 ], [ 18.6915151, 48.4639096 ], [ 18.691696, 48.4640063 ], [ 18.6919203, 48.4642324 ], [ 18.6920371, 48.4642682 ], [ 18.6921145, 48.4644425 ], [ 18.6919361, 48.465668 ], [ 18.691909300886074, 48.465700084198147 ], [ 18.69188651, 48.46573543 ], [ 18.69183827, 48.46581017 ], [ 18.691661310248435, 48.465996981355957 ], [ 18.6916349, 48.4660286 ], [ 18.6915992, 48.466294 ], [ 18.691647473436699, 48.466448779950603 ], [ 18.69174029, 48.466672 ], [ 18.691737614656319, 48.466737801293881 ], [ 18.691748, 48.4667711 ], [ 18.6921044, 48.467239 ], [ 18.6924928, 48.4674864 ], [ 18.6928013, 48.4677624 ], [ 18.6931388, 48.4683658 ], [ 18.6933526, 48.468632 ], [ 18.693455155788804, 48.468732250304953 ], [ 18.6935638, 48.46881779 ], [ 18.693595031866984, 48.46886898192836 ], [ 18.6942912, 48.4695495 ], [ 18.6978664, 48.4670586 ], [ 18.7009175, 48.4682241 ], [ 18.701083668692796, 48.468104596859718 ], [ 18.70197935, 48.46745786 ] ] ] } }
]
}
