{
"type": "FeatureCollection",
"name": "gis",
"crs": { "type": "name", "properties": { "name": "urn:ogc:def:crs:OGC:1.3:CRS84" } },
"features": [
{ "type": "Feature", "properties": { "@featureType": "CadastralParcel", "areaValue": { "value": 7549, "@uom": "m2" }, "beginLifespanVersion": { "@nilReason": "http://inspire.ec.europa.eu/codelist/VoidReasonValue/Unpopulated", "@nil": "true" }, "endLifespanVersion": { "@nilReason": "http://inspire.ec.europa.eu/codelist/VoidReasonValue/Unpopulated", "@nil": "true" }, "inspireId": { "@dataType": "Identifier", "localId": "808857_3919.C", "namespace": "SK.ESKN.CP", "versionId": "20260703T07:07:26" }, "label": "3919", "nationalCadastralReference": "808857_3919.C", "referencePoint": { "type": "Point", "coordinates": [ 17.77464745, 48.69298035 ] }, "validFrom": "2026-06-30T16:00:00Z", "validTo": { "@nilReason": "http://inspire.ec.europa.eu/codelist/VoidReasonValue/Unpopulated", "@nil": "true" }, "administrativeUnit": { "@href": "#auAdmUnitS.2125" } }, "geometry": { "type": "Polygon", "coordinates": [ [ [ 17.774578, 48.69302004 ], [ 17.7756461, 48.69352832 ], [ 17.7767988, 48.69407464 ], [ 17.77709987, 48.69421736 ], [ 17.77747353, 48.69443805 ], [ 17.77757183, 48.69454107 ], [ 17.77815276, 48.69483577 ], [ 17.77821206, 48.69481755 ], [ 17.77816958, 48.69477006 ], [ 17.7781958, 48.6947611 ], [ 17.77814466, 48.6947287 ], [ 17.77796469, 48.69461463 ], [ 17.77796282, 48.69461343 ], [ 17.77784489, 48.69453865 ], [ 17.77769888, 48.69444607 ], [ 17.77756088, 48.69436265 ], [ 17.77746956, 48.69430738 ], [ 17.77725925, 48.69420247 ], [ 17.7769663, 48.69405636 ], [ 17.77667335, 48.69391025 ], [ 17.77648205, 48.69381481 ], [ 17.77647809, 48.69381285 ], [ 17.77637963, 48.69376374 ], [ 17.77634494, 48.69374644 ], [ 17.77627212, 48.6937101 ], [ 17.77625018, 48.69369918 ], [ 17.77617775, 48.69366304 ], [ 17.77608286, 48.69361568 ], [ 17.77598453, 48.69356666 ], [ 17.77592472, 48.69353681 ], [ 17.77590304, 48.693526 ], [ 17.7757148, 48.69343209 ], [ 17.7756968, 48.69342322 ], [ 17.77566897, 48.69340959 ], [ 17.77550047, 48.69332674 ], [ 17.77543486, 48.69329446 ], [ 17.77530428, 48.69323019 ], [ 17.77517828, 48.69316828 ], [ 17.77510795, 48.69313371 ], [ 17.77491161, 48.69303723 ], [ 17.77471529, 48.69294066 ], [ 17.77468746, 48.69292703 ], [ 17.77451896, 48.69284418 ], [ 17.77432263, 48.6927477 ], [ 17.77423531, 48.69270478 ], [ 17.77412724, 48.69265029 ], [ 17.77393279, 48.69255212 ], [ 17.77373833, 48.69245395 ], [ 17.77353266, 48.69235012 ], [ 17.77348232, 48.69232472 ], [ 17.77332404, 48.69220791 ], [ 17.77329547, 48.69218683 ], [ 17.77312505, 48.69206023 ], [ 17.77297871, 48.69194676 ], [ 17.77281121, 48.69181682 ], [ 17.77264345, 48.69168678 ], [ 17.77247597, 48.69155675 ], [ 17.77230833, 48.6914268 ], [ 17.7721476, 48.69130215 ], [ 17.77214206, 48.69129594 ], [ 17.77196273, 48.69109745 ], [ 17.77164794, 48.69121498 ], [ 17.7717611, 48.69121063 ], [ 17.77185977, 48.69129029 ], [ 17.77263737, 48.69185711 ], [ 17.77303631, 48.69215532 ], [ 17.77324311, 48.69233788 ], [ 17.77336555, 48.6924115 ], [ 17.774578, 48.69302004 ] ] ] } },
{ "type": "Feature", "properties": { "@featureType": "CadastralParcel", "areaValue": { "value": 10727, "@uom": "m2" }, "beginLifespanVersion": { "@nilReason": "http://inspire.ec.europa.eu/codelist/VoidReasonValue/Unpopulated", "@nil": "true" }, "endLifespanVersion": { "@nilReason": "http://inspire.ec.europa.eu/codelist/VoidReasonValue/Unpopulated", "@nil": "true" }, "inspireId": { "@dataType": "Identifier", "localId": "808857_3920.C", "namespace": "SK.ESKN.CP", "versionId": "20260703T07:07:26" }, "label": "3920", "nationalCadastralReference": "808857_3920.C", "referencePoint": { "type": "Point", "coordinates": [ 17.7711717, 48.69134462 ] }, "validFrom": "2026-06-30T16:00:00Z", "validTo": { "@nilReason": "http://inspire.ec.europa.eu/codelist/VoidReasonValue/Unpopulated", "@nil": "true" }, "administrativeUnit": { "@href": "#auAdmUnitS.2125" } }, "geometry": { "type": "Polygon", "coordinates": [ [ [ 17.76891885, 48.69248912 ], [ 17.76917785, 48.69238045 ], [ 17.76965439, 48.69214441 ], [ 17.77019678, 48.69190572 ], [ 17.77110405, 48.69147427 ], [ 17.77164794, 48.69121498 ], [ 17.77196273, 48.69109745 ], [ 17.77221382, 48.69097691 ], [ 17.77230494, 48.69093309 ], [ 17.7726299, 48.69077698 ], [ 17.77295412, 48.69062128 ], [ 17.77302461, 48.69058739 ], [ 17.77304927, 48.6905759 ], [ 17.7733653, 48.690428 ], [ 17.77368496, 48.69027852 ], [ 17.77378189, 48.69023307 ], [ 17.77405761, 48.69010419 ], [ 17.77409557, 48.69008638 ], [ 17.77426269, 48.6900082 ], [ 17.7744037, 48.68994224 ], [ 17.77441389, 48.68993762 ], [ 17.77446865, 48.6899128 ], [ 17.77450651, 48.6898957 ], [ 17.77467618, 48.68981885 ], [ 17.77480477, 48.68976071 ], [ 17.7748837, 48.689725 ], [ 17.77509109, 48.68963104 ], [ 17.775169, 48.6895958 ], [ 17.77511127, 48.68951983 ], [ 17.77494278, 48.68960876 ], [ 17.77182668, 48.69099725 ], [ 17.77133744, 48.69120136 ], [ 17.77131979, 48.69118709 ], [ 17.77128526, 48.69120286 ], [ 17.770461, 48.6915705 ], [ 17.76968964, 48.69194706 ], [ 17.76944274, 48.69204048 ], [ 17.76924867, 48.69208395 ], [ 17.76886713, 48.69216947 ], [ 17.76839072, 48.69240552 ], [ 17.76815803, 48.69268198 ], [ 17.76795532, 48.69285732 ], [ 17.76775818, 48.69298215 ], [ 17.76728935, 48.69320683 ], [ 17.76732861, 48.69324121 ], [ 17.76755578, 48.69315137 ], [ 17.76851658, 48.69270424 ], [ 17.76866905, 48.69262274 ], [ 17.76891885, 48.69248912 ] ] ] } },
{ "type": "Feature", "properties": { "@featureType": "CadastralParcel", "areaValue": { "value": 4871, "@uom": "m2" }, "beginLifespanVersion": { "@nilReason": "http://inspire.ec.europa.eu/codelist/VoidReasonValue/Unpopulated", "@nil": "true" }, "endLifespanVersion": { "@nilReason": "http://inspire.ec.europa.eu/codelist/VoidReasonValue/Unpopulated", "@nil": "true" }, "inspireId": { "@dataType": "Identifier", "localId": "808857_3971.C", "namespace": "SK.ESKN.CP", "versionId": "20260703T07:07:26" }, "label": "3971", "nationalCadastralReference": "808857_3971.C", "referencePoint": { "type": "Point", "coordinates": [ 17.76826057, 48.69285088 ] }, "validFrom": "2026-06-30T16:00:00Z", "validTo": { "@nilReason": "http://inspire.ec.europa.eu/codelist/VoidReasonValue/Unpopulated", "@nil": "true" }, "administrativeUnit": { "@href": "#auAdmUnitS.2125" } }, "geometry": { "type": "Polygon", "coordinates": [ [ [ 17.77740816, 48.69445969 ], [ 17.77747353, 48.69443805 ], [ 17.77709987, 48.69421736 ], [ 17.7767988, 48.69407464 ], [ 17.7756461, 48.69352832 ], [ 17.774578, 48.69302004 ], [ 17.77336555, 48.6924115 ], [ 17.77324311, 48.69233788 ], [ 17.77303631, 48.69215532 ], [ 17.77263737, 48.69185711 ], [ 17.77185977, 48.69129029 ], [ 17.7717611, 48.69121063 ], [ 17.77164794, 48.69121498 ], [ 17.77110405, 48.69147427 ], [ 17.77019678, 48.69190572 ], [ 17.76965439, 48.69214441 ], [ 17.76917785, 48.69238045 ], [ 17.76891885, 48.69248912 ], [ 17.76866905, 48.69262274 ], [ 17.76851658, 48.69270424 ], [ 17.76755578, 48.69315137 ], [ 17.76732861, 48.69324121 ], [ 17.76733675, 48.6932483 ], [ 17.76736981, 48.69327725 ], [ 17.76759279, 48.69318913 ], [ 17.76821372, 48.69290018 ], [ 17.76855753, 48.69274017 ], [ 17.76870956, 48.69265891 ], [ 17.76921807, 48.6924167 ], [ 17.76969359, 48.69218114 ], [ 17.77023539, 48.69194277 ], [ 17.77160009, 48.69129668 ], [ 17.77180161, 48.69131111 ], [ 17.77258604, 48.69188657 ], [ 17.77282941, 48.69207977 ], [ 17.77289021, 48.69212794 ], [ 17.77295073, 48.69217608 ], [ 17.77300329, 48.69221778 ], [ 17.77319399, 48.6923691 ], [ 17.77320506, 48.69237583 ], [ 17.7733221, 48.69244614 ], [ 17.77339655, 48.69248349 ], [ 17.77358496, 48.69257804 ], [ 17.77361989, 48.69259562 ], [ 17.77374074, 48.69265623 ], [ 17.77391768, 48.69274501 ], [ 17.77401622, 48.6927945 ], [ 17.77404376, 48.69280829 ], [ 17.77421343, 48.69289347 ], [ 17.77425308, 48.69291333 ], [ 17.77453774, 48.69305623 ], [ 17.7745966, 48.69308413 ], [ 17.77469382, 48.69313037 ], [ 17.7748806, 48.69321904 ], [ 17.77493997, 48.69324715 ], [ 17.77500956, 48.69328023 ], [ 17.77509182, 48.69331932 ], [ 17.77517102, 48.69335687 ], [ 17.77533284, 48.6934338 ], [ 17.77539772, 48.69346451 ], [ 17.77550734, 48.69351665 ], [ 17.77563042, 48.69357504 ], [ 17.77576911, 48.69364089 ], [ 17.77589895, 48.69370259 ], [ 17.77595731, 48.69373019 ], [ 17.77603061, 48.69376503 ], [ 17.77610712, 48.69380132 ], [ 17.77617939, 48.69383574 ], [ 17.77623619, 48.6938627 ], [ 17.77627086, 48.69387918 ], [ 17.77630465, 48.69389516 ], [ 17.776342, 48.6939129 ], [ 17.77639318, 48.69393717 ], [ 17.77645625, 48.69396713 ], [ 17.77653123, 48.6940027 ], [ 17.77660196, 48.69403639 ], [ 17.77667221, 48.69406969 ], [ 17.77691708, 48.69418593 ], [ 17.77709201, 48.69427459 ], [ 17.77726553, 48.69437617 ], [ 17.77733704, 48.69441804 ], [ 17.77740816, 48.69445969 ] ] ] } }
]
}
