{
"type": "FeatureCollection",
"name": "gis",
"crs": { "type": "name", "properties": { "name": "urn:ogc:def:crs:OGC:1.3:CRS84" } },
"features": [
{ "type": "Feature", "properties": { "@featureType": "CadastralZoning", "beginLifespanVersion": { "@nilReason": "http://inspire.ec.europa.eu/codelist/VoidReasonValue/Unpopulated", "@nil": "true" }, "endLifespanVersion": { "@nilReason": "http://inspire.ec.europa.eu/codelist/VoidReasonValue/Unpopulated", "@nil": "true" }, "estimatedAccuracy": { "value": -1, "@uom": "m" }, "inspireId": { "@dataType": "Identifier", "localId": "817201", "namespace": "SK.ESKN.CP", "versionId": "20261005T06:10:45" }, "label": "Horná Lehota", "level": { "@href": "http://inspire.ec.europa.eu/codelist/CadastralZoningLevelValue/3rdOrder" }, "levelName": { "value": "Katastrálne územie", "@locale": "sk" }, "name_1": { "@dataType": "name", "GeographicalName": { "@dataType": "GeographicalName", "language": "SLK", "nativeness": { "@href": "http://inspire.ec.europa.eu/codelist/NativenessValue/endonym", "@title": "endonym" }, "nameStatus": { "@href": "http://inspire.ec.europa.eu/codelist/NameStatusValue/official", "@title": "official" }, "sourceOfName": { "@nilReason": "http://inspire.ec.europa.eu/codelist/VoidReasonValue/Unpopulated", "@nil": "true" }, "pronunciation": { "@dataType": "pronunciation", "@nilReason": "http://inspire.ec.europa.eu/codelist/VoidReasonValue/Unpopulated", "@nil": "true" }, "spelling": { "@dataType": "SpellingOfName", "text": "Horná Lehota", "script": "LATN" } } }, "nationalCadastalZoningReference": "817201", "validFrom": "2026-09-30T16:00:00Z", "validTo": { "@nilReason": "http://inspire.ec.europa.eu/codelist/VoidReasonValue/Unpopulated", "@nil": "true" }, "place_id": 188626245, "osm_type": "relation", "osm_id": 1934502, "place_rank": 18, "category": "boundary", "type": "geomorphological-unit", "importance": 0.52909791131823058, "addresstype": "geomorphological-unit", "name_2": "Nízke Tatry", "display_name": "Nízke Tatry, Žilinský kraj, Slovensko" }, "geometry": { "type": "Polygon", "coordinates": [ [ [ 19.59173161, 48.94335489 ], [ 19.59272528, 48.9430098 ], [ 19.59619158, 48.94176004 ], [ 19.59739405, 48.94116302 ], [ 19.60016519, 48.94086611 ], [ 19.60084576, 48.94065323 ], [ 19.60130817, 48.94076611 ], [ 19.60253193, 48.94106481 ], [ 19.60414615, 48.94119432 ], [ 19.60538511, 48.94109905 ], [ 19.60565037, 48.94107061 ], [ 19.60956398, 48.94126355 ], [ 19.61107723, 48.94192375 ], [ 19.61222505, 48.94170956 ], [ 19.61352764, 48.9418096 ], [ 19.61592309, 48.94108043 ], [ 19.61824942, 48.94031503 ], [ 19.62084775, 48.93953196 ], [ 19.62089733, 48.93952094 ], [ 19.62243514, 48.93906609 ], [ 19.62423092, 48.93852708 ], [ 19.62479383, 48.93848996 ], [ 19.62596297, 48.93841225 ], [ 19.62988797, 48.93949846 ], [ 19.63133526, 48.9384723 ], [ 19.63210714, 48.93805439 ], [ 19.63213339, 48.9378743 ], [ 19.63296425, 48.93769745 ], [ 19.63516202, 48.93738864 ], [ 19.63680078, 48.9372821 ], [ 19.63729463, 48.93699629 ], [ 19.64007397, 48.93643923 ], [ 19.64026613, 48.93639609 ], [ 19.62946318, 48.93389737 ], [ 19.62762618, 48.93347229 ], [ 19.62735813, 48.93299336 ], [ 19.62729752, 48.9327497 ], [ 19.62727901, 48.93250252 ], [ 19.62716061, 48.93203309 ], [ 19.62701961, 48.93158374 ], [ 19.62659801, 48.930556 ], [ 19.62655332, 48.93028683 ], [ 19.62648417, 48.93011931 ], [ 19.62644106, 48.92972104 ], [ 19.62641349, 48.92946625 ], [ 19.62614029, 48.92906658 ], [ 19.62588101, 48.92862084 ], [ 19.62541757, 48.92807914 ], [ 19.6250692, 48.9275188 ], [ 19.62481666, 48.92702793 ], [ 19.62462447, 48.92679224 ], [ 19.62443557, 48.92672337 ], [ 19.62436214, 48.92669655 ], [ 19.62316134, 48.92668087 ], [ 19.62245904, 48.92650097 ], [ 19.62194524, 48.92644672 ], [ 19.62133691, 48.92615583 ], [ 19.62102926, 48.92607784 ], [ 19.6207325, 48.92610345 ], [ 19.61911318, 48.92571703 ], [ 19.61850336, 48.92564302 ], [ 19.61812422, 48.92553684 ], [ 19.61720292, 48.9255012 ], [ 19.61644501, 48.92537511 ], [ 19.61636917, 48.9253625 ], [ 19.61625029, 48.92534274 ], [ 19.61382882, 48.92533463 ], [ 19.61328623, 48.92522433 ], [ 19.61197006, 48.92522001 ], [ 19.61172702, 48.92517077 ], [ 19.61111352, 48.92504654 ], [ 19.61054147, 48.92481545 ], [ 19.61014245, 48.92461487 ], [ 19.61000148, 48.92435434 ], [ 19.60964622, 48.92367357 ], [ 19.60947697, 48.92338633 ], [ 19.60928679, 48.92307671 ], [ 19.60918091, 48.92289734 ], [ 19.60889486, 48.9226126 ], [ 19.60840824, 48.92236796 ], [ 19.60822202, 48.92217587 ], [ 19.60816635, 48.92212442 ], [ 19.60782532, 48.92189254 ], [ 19.60743297, 48.92163844 ], [ 19.60738012, 48.92159541 ], [ 19.60718643, 48.92142804 ], [ 19.60717102, 48.92138669 ], [ 19.60647346, 48.92097885 ], [ 19.60564346, 48.92077326 ], [ 19.60529124, 48.92061777 ], [ 19.60511116, 48.92060271 ], [ 19.60306324, 48.92020512 ], [ 19.60280432, 48.920097 ], [ 19.6027096, 48.91996068 ], [ 19.60235534, 48.91965761 ], [ 19.60234002, 48.91959698 ], [ 19.60187229, 48.91905362 ], [ 19.60129374, 48.91825909 ], [ 19.60103977, 48.91797694 ], [ 19.60070989, 48.91761052 ], [ 19.60071096, 48.91759759 ], [ 19.60071702, 48.91752602 ], [ 19.60071985, 48.91749352 ], [ 19.60072021, 48.91748875 ], [ 19.60075528, 48.91707722 ], [ 19.60088717, 48.9166934 ], [ 19.60119515, 48.91592694 ], [ 19.60121725, 48.91587214 ], [ 19.60125304, 48.91578299 ], [ 19.60146916, 48.91544145 ], [ 19.6015359, 48.91501855 ], [ 19.60141239, 48.91434414 ], [ 19.60130886, 48.91419524 ], [ 19.60113945, 48.91394188 ], [ 19.60062953, 48.91343276 ], [ 19.60061273, 48.913422 ], [ 19.60020222, 48.91315938 ], [ 19.59998386, 48.91299305 ], [ 19.59998225, 48.91285966 ], [ 19.6000458, 48.91268495 ], [ 19.60011661, 48.91262333 ], [ 19.60039026, 48.91240599 ], [ 19.60038524, 48.91231869 ], [ 19.60032843, 48.91224014 ], [ 19.5998718, 48.9116092 ], [ 19.59963764, 48.91121446 ], [ 19.59956067, 48.91029489 ], [ 19.59966934, 48.91012942 ], [ 19.5999246, 48.90998382 ], [ 19.59994358, 48.90996566 ], [ 19.60006715, 48.90982124 ], [ 19.6000682, 48.90980713 ], [ 19.60012615, 48.90894872 ], [ 19.6001238, 48.90892257 ], [ 19.60007892, 48.90879245 ], [ 19.5998898, 48.90846573 ], [ 19.59978661, 48.90823869 ], [ 19.59984684, 48.90796017 ], [ 19.60021096, 48.90743368 ], [ 19.60049495, 48.90708485 ], [ 19.60077453, 48.90672319 ], [ 19.60078479, 48.9066876 ], [ 19.60080639, 48.90647548 ], [ 19.60080439, 48.90642762 ], [ 19.60078173, 48.9063205 ], [ 19.6007487, 48.90616451 ], [ 19.60073513, 48.90610422 ], [ 19.60070632, 48.90601684 ], [ 19.60070237, 48.90599431 ], [ 19.6006525, 48.90591886 ], [ 19.60061237, 48.90588388 ], [ 19.60034896, 48.90571966 ], [ 19.59996407, 48.9055916 ], [ 19.59980019, 48.90555266 ], [ 19.59918672, 48.90544656 ], [ 19.59906454, 48.90539057 ], [ 19.59896677, 48.90534587 ], [ 19.59880994, 48.90511794 ], [ 19.59875699, 48.90495628 ], [ 19.5985496, 48.90432251 ], [ 19.59852604, 48.90425042 ], [ 19.59843109, 48.9037783 ], [ 19.59846496, 48.90360748 ], [ 19.59851361, 48.90336278 ], [ 19.59879021, 48.90286786 ], [ 19.59892, 48.90263574 ], [ 19.5995178, 48.90173084 ], [ 19.59987813, 48.90111792 ], [ 19.59968285, 48.90044918 ], [ 19.59966452, 48.90041636 ], [ 19.59926471, 48.90000043 ], [ 19.59930156, 48.89970076 ], [ 19.59930921, 48.89966135 ], [ 19.59937687, 48.89942048 ], [ 19.59933627, 48.89891206 ], [ 19.59905559, 48.89843264 ], [ 19.5990734, 48.89812011 ], [ 19.59907227, 48.89808094 ], [ 19.59904599, 48.89787712 ], [ 19.59903649, 48.89780268 ], [ 19.5991355, 48.89766293 ], [ 19.59924042, 48.89751487 ], [ 19.59927158, 48.89747409 ], [ 19.5993114, 48.89742505 ], [ 19.59972946, 48.89690902 ], [ 19.59992209, 48.89632819 ], [ 19.60017592, 48.89613502 ], [ 19.60031596, 48.89562483 ], [ 19.60078061, 48.89514957 ], [ 19.60076729, 48.89478399 ], [ 19.60058568, 48.89459083 ], [ 19.60029205, 48.89427849 ], [ 19.60030219, 48.8940517 ], [ 19.60068122, 48.89370842 ], [ 19.60071684, 48.89367613 ], [ 19.60070666, 48.89345149 ], [ 19.60068193, 48.89290854 ], [ 19.60077157, 48.89279567 ], [ 19.600959, 48.89255976 ], [ 19.60101101, 48.89249459 ], [ 19.60094379, 48.89205816 ], [ 19.60105078, 48.89180175 ], [ 19.60148185, 48.89127432 ], [ 19.60163124, 48.89085424 ], [ 19.60189588, 48.89049858 ], [ 19.60184819, 48.88994233 ], [ 19.60182767, 48.88970272 ], [ 19.60207342, 48.88926021 ], [ 19.60216276, 48.88920944 ], [ 19.60259648, 48.88896308 ], [ 19.60265282, 48.88867294 ], [ 19.60259289, 48.88782489 ], [ 19.60257575, 48.88763951 ], [ 19.60255791, 48.88750845 ], [ 19.6025162, 48.88735441 ], [ 19.60246108, 48.88699632 ], [ 19.60232814, 48.88688513 ], [ 19.60223519, 48.88680738 ], [ 19.60213167, 48.88672086 ], [ 19.60174615, 48.88620229 ], [ 19.60170631, 48.8852687 ], [ 19.60179687, 48.88469877 ], [ 19.60247488, 48.88334614 ], [ 19.60263117, 48.88289212 ], [ 19.60329401, 48.88224281 ], [ 19.60351413, 48.88190209 ], [ 19.603556, 48.88133879 ], [ 19.60333962, 48.88084876 ], [ 19.60362, 48.88024845 ], [ 19.6037359, 48.87961836 ], [ 19.60374598, 48.87908086 ], [ 19.60400606, 48.87867884 ], [ 19.60412963, 48.87827256 ], [ 19.60404766, 48.87803368 ], [ 19.60389276, 48.87774555 ], [ 19.60386745, 48.87762587 ], [ 19.60385908, 48.8774206 ], [ 19.60387773, 48.877271 ], [ 19.60380627, 48.87712193 ], [ 19.60375443, 48.87701827 ], [ 19.60382947, 48.87682307 ], [ 19.60391018, 48.87667861 ], [ 19.60396699, 48.87655245 ], [ 19.60396807, 48.87649589 ], [ 19.60402574, 48.87624276 ], [ 19.60406637, 48.8761897 ], [ 19.60418314, 48.87609807 ], [ 19.604285526119902, 48.876019675052795 ], [ 19.6031863, 48.8761643 ], [ 19.6017386, 48.8755286 ], [ 19.60063, 48.8750982 ], [ 19.5983866, 48.8751872 ], [ 19.5947408, 48.8755931 ], [ 19.5921219, 48.8765207 ], [ 19.5914644, 48.8772992 ], [ 19.5899755, 48.8777549 ], [ 19.5885555, 48.877548 ], [ 19.584825, 48.8773793 ], [ 19.5818098, 48.877956 ], [ 19.5777009, 48.8779601 ], [ 19.5752223, 48.8782281 ], [ 19.5728872, 48.8785026 ], [ 19.57143, 48.8779611 ], [ 19.5698961, 48.8774636 ], [ 19.5680457, 48.877237 ], [ 19.5654582, 48.8771671 ], [ 19.5633334, 48.8774984 ], [ 19.5611243, 48.8772554 ], [ 19.558371, 48.8767024 ], [ 19.5561002, 48.8763614 ], [ 19.5534992, 48.8758934 ], [ 19.5529166, 48.8757886 ], [ 19.5512025, 48.8749499 ], [ 19.550270786292163, 48.874438095412692 ], [ 19.5502348, 48.87464897 ], [ 19.55021428, 48.87481616 ], [ 19.5501898, 48.87501598 ], [ 19.55016217, 48.87524062 ], [ 19.55016432, 48.87528273 ], [ 19.55016593, 48.87531562 ], [ 19.55015516, 48.87534541 ], [ 19.55015493, 48.87534621 ], [ 19.54992983, 48.87597265 ], [ 19.54991499, 48.8760138 ], [ 19.54989843, 48.87605974 ], [ 19.55024864, 48.87612042 ], [ 19.54997717, 48.87647575 ], [ 19.5500084, 48.87683775 ], [ 19.55001219, 48.8768812 ], [ 19.55008467, 48.8777197 ], [ 19.55047749, 48.87837312 ], [ 19.55061392, 48.87907346 ], [ 19.55071561, 48.87934222 ], [ 19.55152349, 48.88039812 ], [ 19.55230278, 48.88125078 ], [ 19.55369521, 48.88299044 ], [ 19.5540462, 48.88330787 ], [ 19.55406618, 48.88332591 ], [ 19.55409602, 48.88335296 ], [ 19.55415021, 48.88340194 ], [ 19.55474345, 48.88393845 ], [ 19.55542296, 48.88451142 ], [ 19.55579099, 48.88490002 ], [ 19.55648674, 48.88582348 ], [ 19.55652731, 48.88587734 ], [ 19.55663647, 48.88607648 ], [ 19.55681605, 48.88670251 ], [ 19.55682718, 48.88674114 ], [ 19.55686435, 48.88687057 ], [ 19.5571319, 48.88744371 ], [ 19.55722742, 48.88764395 ], [ 19.55750242, 48.88811854 ], [ 19.55767269, 48.88841565 ], [ 19.55795947, 48.8896205 ], [ 19.55790357, 48.8906749 ], [ 19.55790338, 48.89067931 ], [ 19.55792919, 48.89084544 ], [ 19.55884671, 48.89140524 ], [ 19.55997841, 48.89284529 ], [ 19.56057128, 48.89309148 ], [ 19.56131857, 48.89363386 ], [ 19.5619292, 48.89387112 ], [ 19.56229732, 48.89396961 ], [ 19.56263256, 48.89410284 ], [ 19.5630506, 48.89427058 ], [ 19.56372396, 48.89446236 ], [ 19.56457948, 48.89483566 ], [ 19.5651666, 48.89513727 ], [ 19.56568628, 48.89534774 ], [ 19.56630568, 48.89567416 ], [ 19.56738951, 48.89622457 ], [ 19.56839794, 48.89639475 ], [ 19.56927455, 48.8973248 ], [ 19.57122164, 48.89809067 ], [ 19.57179062, 48.89829046 ], [ 19.57257569, 48.89871234 ], [ 19.57279036, 48.899501 ], [ 19.57402388, 48.89980014 ], [ 19.57415118, 48.89986559 ], [ 19.57469738, 48.90014636 ], [ 19.5754121, 48.90051175 ], [ 19.5754862, 48.90061535 ], [ 19.57592757, 48.90123282 ], [ 19.57607328, 48.90125159 ], [ 19.57565217, 48.9043848 ], [ 19.57604027, 48.90479226 ], [ 19.57659194, 48.90529393 ], [ 19.57676234, 48.90677819 ], [ 19.5772054, 48.90782202 ], [ 19.57737841, 48.90822964 ], [ 19.57772959, 48.90937593 ], [ 19.57793246, 48.9101334 ], [ 19.57808826, 48.91096075 ], [ 19.57963942, 48.91287045 ], [ 19.58040152, 48.91366377 ], [ 19.58064051, 48.91405688 ], [ 19.58050123, 48.91492351 ], [ 19.58024684, 48.91599812 ], [ 19.58000291, 48.91662204 ], [ 19.57961909, 48.91706456 ], [ 19.57925543, 48.91725984 ], [ 19.57728648, 48.9185393 ], [ 19.57669673, 48.92123885 ], [ 19.57634806, 48.92283471 ], [ 19.57582859, 48.92565814 ], [ 19.57543509, 48.92766986 ], [ 19.5753627, 48.92801354 ], [ 19.57364086, 48.93650598 ], [ 19.57277533, 48.9405374 ], [ 19.57538715, 48.94005502 ], [ 19.57644946, 48.94004409 ], [ 19.57790971, 48.93975622 ], [ 19.57879017, 48.94023056 ], [ 19.57959851, 48.94022623 ], [ 19.58113695, 48.94076836 ], [ 19.58153241, 48.94109779 ], [ 19.58210434, 48.94127555 ], [ 19.58289675, 48.94200971 ], [ 19.58841172, 48.94322523 ], [ 19.58984419, 48.94354089 ], [ 19.58991362, 48.9435562 ], [ 19.58999777, 48.94357469 ], [ 19.59005061, 48.94358636 ], [ 19.59010612, 48.9435986 ], [ 19.59013261, 48.9436044 ], [ 19.59019214, 48.94361754 ], [ 19.59022894, 48.94362561 ], [ 19.59023749, 48.94362752 ], [ 19.59026518, 48.94363364 ], [ 19.59034384, 48.94365099 ], [ 19.59036043, 48.94365462 ], [ 19.59067133, 48.94372311 ], [ 19.59100668, 48.94360664 ], [ 19.59173161, 48.94335489 ] ] ] } },
{ "type": "Feature", "properties": { "@featureType": "CadastralZoning", "beginLifespanVersion": { "@nilReason": "http://inspire.ec.europa.eu/codelist/VoidReasonValue/Unpopulated", "@nil": "true" }, "endLifespanVersion": { "@nilReason": "http://inspire.ec.europa.eu/codelist/VoidReasonValue/Unpopulated", "@nil": "true" }, "estimatedAccuracy": { "value": -1, "@uom": "m" }, "inspireId": { "@dataType": "Identifier", "localId": "862436", "namespace": "SK.ESKN.CP", "versionId": "20261005T06:10:45" }, "label": "Telgárt", "level": { "@href": "http://inspire.ec.europa.eu/codelist/CadastralZoningLevelValue/3rdOrder" }, "levelName": { "value": "Katastrálne územie", "@locale": "sk" }, "name_1": { "@dataType": "name", "GeographicalName": { "@dataType": "GeographicalName", "language": "SLK", "nativeness": { "@href": "http://inspire.ec.europa.eu/codelist/NativenessValue/endonym", "@title": "endonym" }, "nameStatus": { "@href": "http://inspire.ec.europa.eu/codelist/NameStatusValue/official", "@title": "official" }, "sourceOfName": { "@nilReason": "http://inspire.ec.europa.eu/codelist/VoidReasonValue/Unpopulated", "@nil": "true" }, "pronunciation": { "@dataType": "pronunciation", "@nilReason": "http://inspire.ec.europa.eu/codelist/VoidReasonValue/Unpopulated", "@nil": "true" }, "spelling": { "@dataType": "SpellingOfName", "text": "Telgárt", "script": "LATN" } } }, "nationalCadastalZoningReference": "862436", "validFrom": "2026-09-30T16:00:00Z", "validTo": { "@nilReason": "http://inspire.ec.europa.eu/codelist/VoidReasonValue/Unpopulated", "@nil": "true" }, "place_id": 188626245, "osm_type": "relation", "osm_id": 1934502, "place_rank": 18, "category": "boundary", "type": "geomorphological-unit", "importance": 0.52909791131823058, "addresstype": "geomorphological-unit", "name_2": "Nízke Tatry", "display_name": "Nízke Tatry, Žilinský kraj, Slovensko" }, "geometry": { "type": "Polygon", "coordinates": [ [ [ 20.17826181, 48.90613191 ], [ 20.18526744, 48.90109377 ], [ 20.18584514, 48.90067039 ], [ 20.1863633, 48.90031328 ], [ 20.18662451, 48.90012724 ], [ 20.18836404, 48.89957314 ], [ 20.19101792, 48.89908082 ], [ 20.19343622, 48.89855821 ], [ 20.200753815610998, 48.895453105035102 ], [ 20.1975771, 48.894322 ], [ 20.1971581, 48.8939859 ], [ 20.196026, 48.8930779 ], [ 20.1941974, 48.891868 ], [ 20.1932213, 48.8907631 ], [ 20.1923591, 48.8895917 ], [ 20.1921736, 48.8880921 ], [ 20.1929219, 48.886985 ], [ 20.1936766, 48.8858072 ], [ 20.1944053, 48.8849125 ], [ 20.1956348, 48.8832562 ], [ 20.1963894, 48.8820784 ], [ 20.1968639, 48.8769101 ], [ 20.1949545, 48.8754126 ], [ 20.1935201, 48.8734367 ], [ 20.1930875, 48.8722825 ], [ 20.1932305, 48.86838 ], [ 20.1932662, 48.8668181 ], [ 20.1934548, 48.8647649 ], [ 20.1924207, 48.8619523 ], [ 20.1912274, 48.8597017 ], [ 20.1896277, 48.8583586 ], [ 20.1876541, 48.8575691 ], [ 20.1860481, 48.8562968 ], [ 20.1835252, 48.8556272 ], [ 20.1816201, 48.8552666 ], [ 20.1800955, 48.8542817 ], [ 20.1784506, 48.8534341 ], [ 20.1737301, 48.8532447 ], [ 20.1697475, 48.8532268 ], [ 20.1677091, 48.8531449 ], [ 20.1657649, 48.8532088 ], [ 20.1635119, 48.8531181 ], [ 20.1619616, 48.8524162 ], [ 20.1596668, 48.8516132 ], [ 20.157157540656414, 48.851512060554803 ], [ 20.15718165, 48.85210793 ], [ 20.15719583, 48.85239574 ], [ 20.15720353, 48.8525794 ], [ 20.15715251, 48.85287241 ], [ 20.15705389, 48.85317216 ], [ 20.15698628, 48.85336269 ], [ 20.15692956, 48.85361097 ], [ 20.15681794, 48.85406291 ], [ 20.15677044, 48.85425155 ], [ 20.15665787, 48.85481094 ], [ 20.15659442, 48.85511868 ], [ 20.15655239, 48.85552387 ], [ 20.15652335, 48.85577849 ], [ 20.15647514, 48.85610433 ], [ 20.15645663, 48.8562217 ], [ 20.1564235, 48.8563656 ], [ 20.15624849, 48.85695788 ], [ 20.15603441, 48.85746767 ], [ 20.15590069, 48.85778213 ], [ 20.15571462, 48.85831972 ], [ 20.15559381, 48.85866867 ], [ 20.15546867, 48.85906879 ], [ 20.1553482, 48.85945244 ], [ 20.15532914, 48.85952844 ], [ 20.155276, 48.85968054 ], [ 20.1552272, 48.85986084 ], [ 20.15519663, 48.85996529 ], [ 20.15509873, 48.86034994 ], [ 20.15495851, 48.86087884 ], [ 20.15484418, 48.86131986 ], [ 20.15497066, 48.86173211 ], [ 20.15527396, 48.86230981 ], [ 20.15561684, 48.86297469 ], [ 20.15585794, 48.86346032 ], [ 20.15620796, 48.86411026 ], [ 20.15656592, 48.86477341 ], [ 20.15697112, 48.86553693 ], [ 20.15714889, 48.86586611 ], [ 20.15723646, 48.866345 ], [ 20.15724383, 48.86638783 ], [ 20.15734195, 48.86695778 ], [ 20.157422, 48.86743682 ], [ 20.15744819, 48.86759338 ], [ 20.15753636, 48.86811897 ], [ 20.15764485, 48.86875989 ], [ 20.15776209, 48.86945378 ], [ 20.1578768, 48.87015594 ], [ 20.1579114, 48.87035889 ], [ 20.1579911, 48.87082998 ], [ 20.15808281, 48.87138679 ], [ 20.15778635, 48.87165459 ], [ 20.15727018, 48.87212816 ], [ 20.1571194, 48.87226515 ], [ 20.15676135, 48.87259174 ], [ 20.15620571, 48.87310047 ], [ 20.15605247, 48.87323448 ], [ 20.15596111, 48.87331981 ], [ 20.15574199, 48.87351919 ], [ 20.15562582, 48.87362461 ], [ 20.15555857, 48.8736856 ], [ 20.15504474, 48.87415114 ], [ 20.15455786, 48.87458812 ], [ 20.15400958, 48.87507893 ], [ 20.15351297, 48.8755293 ], [ 20.15329664, 48.87576907 ], [ 20.15277159, 48.87635226 ], [ 20.15240213, 48.87676289 ], [ 20.15200586, 48.87720037 ], [ 20.15159729, 48.8776496 ], [ 20.15125438, 48.87803003 ], [ 20.15078517, 48.87855123 ], [ 20.15031335, 48.87907242 ], [ 20.14978089, 48.87966404 ], [ 20.14936257, 48.88012657 ], [ 20.14891495, 48.88061927 ], [ 20.1484699, 48.8811136 ], [ 20.14797615, 48.88166155 ], [ 20.14779615, 48.88186259 ], [ 20.14784743, 48.88188998 ], [ 20.1484452, 48.88231722 ], [ 20.14913055, 48.8828062 ], [ 20.1497851, 48.88327248 ], [ 20.1505013, 48.88378261 ], [ 20.1512562, 48.88432051 ], [ 20.15196225, 48.88482265 ], [ 20.15273535, 48.88537533 ], [ 20.15293326, 48.88551585 ], [ 20.15311027, 48.88564156 ], [ 20.15343353, 48.8858712 ], [ 20.15396171, 48.88624839 ], [ 20.15467293, 48.88675567 ], [ 20.15497954, 48.88697355 ], [ 20.15508291, 48.88704484 ], [ 20.1552902, 48.88719483 ], [ 20.15586347, 48.88761203 ], [ 20.15652895, 48.88809439 ], [ 20.15718696, 48.88857339 ], [ 20.15779611, 48.88901662 ], [ 20.15806721, 48.88920215 ], [ 20.15989699, 48.89108421 ], [ 20.16006419, 48.89125285 ], [ 20.16042945, 48.89163318 ], [ 20.16077121, 48.89198688 ], [ 20.16111071, 48.89233715 ], [ 20.16150524, 48.89274388 ], [ 20.1618613, 48.89311005 ], [ 20.16327836, 48.89457053 ], [ 20.16347105, 48.8947283 ], [ 20.16367507, 48.89489499 ], [ 20.16401386, 48.89516765 ], [ 20.16495739, 48.89593576 ], [ 20.16535519, 48.89625602 ], [ 20.16587491, 48.89667353 ], [ 20.16602093, 48.89679085 ], [ 20.16722092, 48.89777711 ], [ 20.17017165, 48.90175581 ], [ 20.17085648, 48.90268429 ], [ 20.17117444, 48.90311538 ], [ 20.17164347, 48.90365227 ], [ 20.17185865, 48.90389859 ], [ 20.17240594, 48.90452502 ], [ 20.17290482, 48.90506761 ], [ 20.1732271, 48.90541373 ], [ 20.17337794, 48.90557106 ], [ 20.17366403, 48.90587689 ], [ 20.17395104, 48.90618176 ], [ 20.17425298, 48.9065012 ], [ 20.17458597, 48.90685576 ], [ 20.17499636, 48.90729739 ], [ 20.17522724, 48.90753974 ], [ 20.17566156, 48.90797395 ], [ 20.176708, 48.90724219 ], [ 20.17826181, 48.90613191 ] ] ] } }
]
}
