{
"type": "FeatureCollection",
"name": "gis",
"crs": { "type": "name", "properties": { "name": "urn:ogc:def:crs:OGC:1.3:CRS84" } },
"features": [
{ "type": "Feature", "properties": { "@featureType": "CadastralParcel", "areaValue": { "value": 1631, "@uom": "m2" }, "beginLifespanVersion": { "@nilReason": "http://inspire.ec.europa.eu/codelist/VoidReasonValue/Unpopulated", "@nil": "true" }, "endLifespanVersion": { "@nilReason": "http://inspire.ec.europa.eu/codelist/VoidReasonValue/Unpopulated", "@nil": "true" }, "inspireId": { "@dataType": "Identifier", "localId": "859737_444.C", "namespace": "SK.ESKN.CP", "versionId": "20260703T06:07:13" }, "label": "444", "nationalCadastralReference": "859737_444.C", "referencePoint": { "type": "Point", "coordinates": [ 21.5740412, 49.37905284 ] }, "validFrom": "2026-06-30T16:00:00Z", "validTo": { "@nilReason": "http://inspire.ec.europa.eu/codelist/VoidReasonValue/Unpopulated", "@nil": "true" }, "administrativeUnit": { "@href": "#auAdmUnitS.2884" } }, "geometry": { "type": "Polygon", "coordinates": [ [ [ 21.57399527, 49.37912405 ], [ 21.57399679, 49.37913876 ], [ 21.57389407, 49.37933191 ], [ 21.5738539, 49.37936454 ], [ 21.57383798, 49.37939524 ], [ 21.5738039, 49.37946133 ], [ 21.57373724, 49.37954092 ], [ 21.57370413, 49.37956259 ], [ 21.57347696, 49.37971107 ], [ 21.57325873, 49.37984917 ], [ 21.57338544, 49.37987825 ], [ 21.57374948, 49.37960066 ], [ 21.57406338, 49.37921468 ], [ 21.57411237, 49.37895974 ], [ 21.57419143, 49.3782411 ], [ 21.57410701, 49.37836484 ], [ 21.57387891, 49.37871181 ], [ 21.57396383, 49.37890414 ], [ 21.57396937, 49.37895244 ], [ 21.57398056, 49.37898164 ], [ 21.57399527, 49.37912405 ] ] ] } },
{ "type": "Feature", "properties": { "@featureType": "CadastralParcel", "areaValue": { "value": 37341, "@uom": "m2" }, "beginLifespanVersion": { "@nilReason": "http://inspire.ec.europa.eu/codelist/VoidReasonValue/Unpopulated", "@nil": "true" }, "endLifespanVersion": { "@nilReason": "http://inspire.ec.europa.eu/codelist/VoidReasonValue/Unpopulated", "@nil": "true" }, "inspireId": { "@dataType": "Identifier", "localId": "859737_452/1.C", "namespace": "SK.ESKN.CP", "versionId": "20260703T06:07:13" }, "label": "452/1", "nationalCadastralReference": "859737_452/1.C", "referencePoint": { "type": "Point", "coordinates": [ 21.57261739, 49.38268114 ] }, "validFrom": "2026-06-30T16:00:00Z", "validTo": { "@nilReason": "http://inspire.ec.europa.eu/codelist/VoidReasonValue/Unpopulated", "@nil": "true" }, "administrativeUnit": { "@href": "#auAdmUnitS.2884" } }, "geometry": { "type": "Polygon", "coordinates": [ [ [ 21.57123614, 49.3833488 ], [ 21.57180691, 49.38319287 ], [ 21.572267, 49.38305384 ], [ 21.57274128, 49.38277932 ], [ 21.57316128, 49.38241968 ], [ 21.57348806, 49.38191041 ], [ 21.57356179, 49.38137521 ], [ 21.57354985, 49.38121361 ], [ 21.57354175, 49.38110531 ], [ 21.57363146, 49.38080084 ], [ 21.57349688, 49.38073824 ], [ 21.5735114, 49.3806402 ], [ 21.57351752, 49.38060122 ], [ 21.57357922, 49.3804243 ], [ 21.57365032, 49.3803505 ], [ 21.57370621, 49.38029032 ], [ 21.57374332, 49.38025806 ], [ 21.57377441, 49.38022517 ], [ 21.57381801, 49.38014611 ], [ 21.57392853, 49.37992222 ], [ 21.57400332, 49.37981721 ], [ 21.57401211, 49.37980495 ], [ 21.57405475, 49.37974503 ], [ 21.57412746, 49.37966344 ], [ 21.5741624, 49.37962428 ], [ 21.57426203, 49.37951258 ], [ 21.57442635, 49.37935974 ], [ 21.57448343, 49.37929393 ], [ 21.57456425, 49.37920843 ], [ 21.57459879, 49.37917753 ], [ 21.57461806, 49.3791526 ], [ 21.57467184, 49.37911405 ], [ 21.57472056, 49.37907913 ], [ 21.57475287, 49.3790614 ], [ 21.57475256, 49.3790281 ], [ 21.57475241, 49.37899444 ], [ 21.57475185, 49.37892675 ], [ 21.57474537, 49.37888868 ], [ 21.57472575, 49.37865866 ], [ 21.57470703, 49.37845943 ], [ 21.57468355, 49.37821041 ], [ 21.5746921, 49.37816376 ], [ 21.57469638, 49.37814039 ], [ 21.57469657, 49.3780909 ], [ 21.57469666, 49.37806615 ], [ 21.57469684, 49.37804222 ], [ 21.57469699, 49.37801028 ], [ 21.57469716, 49.37797816 ], [ 21.5746975, 49.37789024 ], [ 21.57469666, 49.37784396 ], [ 21.57469554, 49.37777653 ], [ 21.57469533, 49.37776491 ], [ 21.57471454, 49.37774502 ], [ 21.57474653, 49.3777109 ], [ 21.57477661, 49.37767862 ], [ 21.57480861, 49.3776445 ], [ 21.57482875, 49.37762301 ], [ 21.57485934, 49.37749194 ], [ 21.5749049, 49.37729594 ], [ 21.57446222, 49.37788614 ], [ 21.5743693, 49.37800505 ], [ 21.57419143, 49.3782411 ], [ 21.57411237, 49.37895974 ], [ 21.57406338, 49.37921468 ], [ 21.57374948, 49.37960066 ], [ 21.57338544, 49.37987825 ], [ 21.57326586, 49.37991749 ], [ 21.57327899, 49.37994234 ], [ 21.57327704, 49.37996802 ], [ 21.57324888, 49.38003419 ], [ 21.57324764, 49.38006601 ], [ 21.57324585, 49.38010817 ], [ 21.57319337, 49.3802093 ], [ 21.57317586, 49.38024103 ], [ 21.57311544, 49.38034977 ], [ 21.57309672, 49.38037463 ], [ 21.57308122, 49.38048363 ], [ 21.57297801, 49.38065652 ], [ 21.57292836, 49.38073955 ], [ 21.57297911, 49.38074978 ], [ 21.57296808, 49.38078565 ], [ 21.57303493, 49.38080901 ], [ 21.57305814, 49.38100494 ], [ 21.57309983, 49.38113929 ], [ 21.57311515, 49.38118984 ], [ 21.57312994, 49.3812653 ], [ 21.5730367, 49.38124732 ], [ 21.57313805, 49.38134823 ], [ 21.5731596, 49.38147652 ], [ 21.57316533, 49.38152186 ], [ 21.57323276, 49.38174142 ], [ 21.57320432, 49.38178653 ], [ 21.57287652, 49.38229037 ], [ 21.57251823, 49.38258297 ], [ 21.57210561, 49.3828736 ], [ 21.57169569, 49.38302132 ], [ 21.57083082, 49.38323566 ], [ 21.57008208, 49.38342119 ], [ 21.56995805, 49.38346949 ], [ 21.56926306, 49.38368261 ], [ 21.56924717, 49.38368532 ], [ 21.5690996, 49.38370965 ], [ 21.56908371, 49.38371236 ], [ 21.56907075, 49.38366808 ], [ 21.56888563, 49.38376516 ], [ 21.5688563, 49.38377533 ], [ 21.56853479, 49.38387338 ], [ 21.56848726, 49.3838645 ], [ 21.56829268, 49.38396069 ], [ 21.56794878, 49.38453067 ], [ 21.56760246, 49.38490106 ], [ 21.56702315, 49.3854491 ], [ 21.56687068, 49.3856836 ], [ 21.5660904, 49.38698053 ], [ 21.56566034, 49.38809238 ], [ 21.56572774, 49.38809254 ], [ 21.565853, 49.38811448 ], [ 21.5659031, 49.38812191 ], [ 21.56623345, 49.3872409 ], [ 21.56632609, 49.38707196 ], [ 21.56668268, 49.38642224 ], [ 21.56719471, 49.38583022 ], [ 21.56792734, 49.38498813 ], [ 21.56885628, 49.38392984 ], [ 21.56896173, 49.38384953 ], [ 21.56897788, 49.38384701 ], [ 21.56912362, 49.38382326 ], [ 21.56913964, 49.38382073 ], [ 21.57012499, 49.38358545 ], [ 21.57123614, 49.3833488 ] ] ] } },
{ "type": "Feature", "properties": { "@featureType": "CadastralParcel", "areaValue": { "value": 2149, "@uom": "m2" }, "beginLifespanVersion": { "@nilReason": "http://inspire.ec.europa.eu/codelist/VoidReasonValue/Unpopulated", "@nil": "true" }, "endLifespanVersion": { "@nilReason": "http://inspire.ec.europa.eu/codelist/VoidReasonValue/Unpopulated", "@nil": "true" }, "inspireId": { "@dataType": "Identifier", "localId": "859737_311.C", "namespace": "SK.ESKN.CP", "versionId": "20260703T06:07:13" }, "label": "311", "nationalCadastralReference": "859737_311.C", "referencePoint": { "type": "Point", "coordinates": [ 21.5736587, 49.37845409 ] }, "validFrom": "2026-06-30T16:00:00Z", "validTo": { "@nilReason": "http://inspire.ec.europa.eu/codelist/VoidReasonValue/Unpopulated", "@nil": "true" }, "administrativeUnit": { "@href": "#auAdmUnitS.2884" } }, "geometry": { "type": "Polygon", "coordinates": [ [ [ 21.57387891, 49.37871181 ], [ 21.57410701, 49.37836484 ], [ 21.57345134, 49.3782191 ], [ 21.5733424, 49.37834477 ], [ 21.57328024, 49.37841467 ], [ 21.57325787, 49.37849351 ], [ 21.57323724, 49.37852678 ], [ 21.57322854, 49.37856289 ], [ 21.57387891, 49.37871181 ] ] ] } },
{ "type": "Feature", "properties": { "@featureType": "CadastralParcel", "areaValue": { "value": 128, "@uom": "m2" }, "beginLifespanVersion": { "@nilReason": "http://inspire.ec.europa.eu/codelist/VoidReasonValue/Unpopulated", "@nil": "true" }, "endLifespanVersion": { "@nilReason": "http://inspire.ec.europa.eu/codelist/VoidReasonValue/Unpopulated", "@nil": "true" }, "inspireId": { "@dataType": "Identifier", "localId": "859737_315.C", "namespace": "SK.ESKN.CP", "versionId": "20260703T06:07:13" }, "label": "315", "nationalCadastralReference": "859737_315.C", "referencePoint": { "type": "Point", "coordinates": [ 21.57301414, 49.37850703 ] }, "validFrom": "2026-06-30T16:00:00Z", "validTo": { "@nilReason": "http://inspire.ec.europa.eu/codelist/VoidReasonValue/Unpopulated", "@nil": "true" }, "administrativeUnit": { "@href": "#auAdmUnitS.2884" } }, "geometry": { "type": "Polygon", "coordinates": [ [ [ 21.57322854, 49.37856289 ], [ 21.57323724, 49.37852678 ], [ 21.57280905, 49.37845413 ], [ 21.57279393, 49.37848728 ], [ 21.57322854, 49.37856289 ] ] ] } },
{ "type": "Feature", "properties": { "@featureType": "CadastralParcel", "areaValue": { "value": 43092, "@uom": "m2" }, "beginLifespanVersion": { "@nilReason": "http://inspire.ec.europa.eu/codelist/VoidReasonValue/Unpopulated", "@nil": "true" }, "endLifespanVersion": { "@nilReason": "http://inspire.ec.europa.eu/codelist/VoidReasonValue/Unpopulated", "@nil": "true" }, "inspireId": { "@dataType": "Identifier", "localId": "859737_1016.E", "namespace": "SK.ESKN.CP", "versionId": "20260703T06:07:13" }, "label": "1016", "nationalCadastralReference": "859737_1016.E", "referencePoint": { "type": "Point", "coordinates": [ 21.56562839, 49.38405773 ] }, "validFrom": "2026-06-30T16:00:00Z", "validTo": { "@nilReason": "http://inspire.ec.europa.eu/codelist/VoidReasonValue/Unpopulated", "@nil": "true" }, "administrativeUnit": { "@href": "#auAdmUnitS.2884" } }, "geometry": { "type": "MultiPolygon", "coordinates": [ [ [ [ 21.56699559, 49.38376603 ], [ 21.56718333, 49.38372805 ], [ 21.56723206, 49.38372068 ], [ 21.56725739, 49.38371689 ], [ 21.56717857, 49.38366583 ], [ 21.5673271, 49.38356962 ], [ 21.56750917, 49.38345167 ], [ 21.56754579, 49.38343352 ], [ 21.56763685, 49.38339421 ], [ 21.5677754, 49.38334326 ], [ 21.56780192, 49.38335084 ], [ 21.56791143, 49.38330763 ], [ 21.5679201, 49.38328879 ], [ 21.56803458, 49.38323078 ], [ 21.56807805, 49.38320877 ], [ 21.56806503, 49.38320139 ], [ 21.56817879, 49.38319016 ], [ 21.56820629, 49.38321027 ], [ 21.56823356, 49.38319798 ], [ 21.56847075, 49.38309083 ], [ 21.56868327, 49.38302151 ], [ 21.56873698, 49.38300114 ], [ 21.56895959, 49.38291671 ], [ 21.56915828, 49.38283971 ], [ 21.56919669, 49.38282152 ], [ 21.56930076, 49.38281722 ], [ 21.56941849, 49.38284452 ], [ 21.569538, 49.38289518 ], [ 21.56954731, 49.38292793 ], [ 21.56953088, 49.3829811 ], [ 21.56954756, 49.38298958 ], [ 21.56949989, 49.38311388 ], [ 21.56958627, 49.38293288 ], [ 21.56959863, 49.38293988 ], [ 21.5696861, 49.38298938 ], [ 21.56969846, 49.38299647 ], [ 21.56969587, 49.38307002 ], [ 21.5697492, 49.383085 ], [ 21.56979865, 49.3831617 ], [ 21.56995805, 49.38346949 ], [ 21.56926306, 49.38368261 ], [ 21.56924717, 49.38368532 ], [ 21.5690996, 49.38370965 ], [ 21.56908371, 49.38371236 ], [ 21.56907075, 49.38366808 ], [ 21.56888563, 49.38376516 ], [ 21.5688563, 49.38377533 ], [ 21.56853479, 49.38387338 ], [ 21.56848726, 49.3838645 ], [ 21.56829268, 49.38396069 ], [ 21.56794878, 49.38453067 ], [ 21.56760246, 49.38490106 ], [ 21.56702315, 49.3854491 ], [ 21.56687068, 49.3856836 ], [ 21.5660904, 49.38698053 ], [ 21.56566034, 49.38809238 ], [ 21.56572774, 49.38809254 ], [ 21.565853, 49.38811448 ], [ 21.56588303, 49.38811892 ], [ 21.5659031, 49.38812191 ], [ 21.56623345, 49.3872409 ], [ 21.56632609, 49.38707196 ], [ 21.56668268, 49.38642224 ], [ 21.56719471, 49.38583022 ], [ 21.56792734, 49.38498813 ], [ 21.56885628, 49.38392984 ], [ 21.56896173, 49.38384953 ], [ 21.56897788, 49.38384701 ], [ 21.56912362, 49.38382326 ], [ 21.56913964, 49.38382073 ], [ 21.57012499, 49.38358545 ], [ 21.57123614, 49.3833488 ], [ 21.57180691, 49.38319287 ], [ 21.572267, 49.38305384 ], [ 21.57274128, 49.38277932 ], [ 21.57316128, 49.38241968 ], [ 21.57348806, 49.38191041 ], [ 21.57356179, 49.38137521 ], [ 21.57354175, 49.38110531 ], [ 21.57363146, 49.38080084 ], [ 21.57349688, 49.38073824 ], [ 21.5735114, 49.3806402 ], [ 21.57351752, 49.38060122 ], [ 21.57357922, 49.3804243 ], [ 21.57365032, 49.3803505 ], [ 21.57370621, 49.38029032 ], [ 21.57374332, 49.38025806 ], [ 21.57377441, 49.38022517 ], [ 21.57381801, 49.38014611 ], [ 21.57392853, 49.37992222 ], [ 21.57400332, 49.37981721 ], [ 21.57401211, 49.37980495 ], [ 21.57405475, 49.37974503 ], [ 21.57412746, 49.37966344 ], [ 21.5741624, 49.37962428 ], [ 21.57426203, 49.37951258 ], [ 21.57442635, 49.37935974 ], [ 21.57448343, 49.37929393 ], [ 21.57456425, 49.37920843 ], [ 21.57459879, 49.37917753 ], [ 21.57461806, 49.3791526 ], [ 21.57467184, 49.37911405 ], [ 21.57472056, 49.37907913 ], [ 21.57475287, 49.3790614 ], [ 21.57475256, 49.3790281 ], [ 21.57475241, 49.37899444 ], [ 21.57475185, 49.37892675 ], [ 21.57474537, 49.37888868 ], [ 21.57472575, 49.37865866 ], [ 21.57470703, 49.37845943 ], [ 21.57468355, 49.37821041 ], [ 21.5746921, 49.37816376 ], [ 21.57469638, 49.37814039 ], [ 21.57469657, 49.3780909 ], [ 21.57469666, 49.37806615 ], [ 21.57469684, 49.37804222 ], [ 21.57469699, 49.37801028 ], [ 21.57469716, 49.37797816 ], [ 21.5746975, 49.37789024 ], [ 21.57469666, 49.37784396 ], [ 21.57469554, 49.37777653 ], [ 21.57469533, 49.37776491 ], [ 21.57471454, 49.37774502 ], [ 21.57474653, 49.3777109 ], [ 21.57477661, 49.37767862 ], [ 21.57480861, 49.3776445 ], [ 21.57482875, 49.37762301 ], [ 21.57485934, 49.37749194 ], [ 21.5749049, 49.37729594 ], [ 21.57446222, 49.37788614 ], [ 21.5743693, 49.37800505 ], [ 21.57419143, 49.3782411 ], [ 21.57411237, 49.37895974 ], [ 21.57406338, 49.37921468 ], [ 21.57374948, 49.37960066 ], [ 21.57338544, 49.37987825 ], [ 21.57326586, 49.37991749 ], [ 21.57327899, 49.37994234 ], [ 21.57327704, 49.37996802 ], [ 21.57324888, 49.38003419 ], [ 21.57324764, 49.38006601 ], [ 21.57324585, 49.38010817 ], [ 21.57319337, 49.3802093 ], [ 21.57317586, 49.38024103 ], [ 21.57311544, 49.38034977 ], [ 21.57309672, 49.38037463 ], [ 21.57308122, 49.38048363 ], [ 21.57292836, 49.38073955 ], [ 21.57297911, 49.38074978 ], [ 21.57296808, 49.38078565 ], [ 21.57303493, 49.38080901 ], [ 21.57305814, 49.38100494 ], [ 21.57309983, 49.38113929 ], [ 21.57311515, 49.38118984 ], [ 21.57312994, 49.3812653 ], [ 21.5730367, 49.38124732 ], [ 21.57313805, 49.38134823 ], [ 21.5731596, 49.38147652 ], [ 21.57316533, 49.38152186 ], [ 21.57323276, 49.38174142 ], [ 21.57320432, 49.38178653 ], [ 21.57287652, 49.38229037 ], [ 21.57251823, 49.38258297 ], [ 21.57210561, 49.3828736 ], [ 21.57169569, 49.38302132 ], [ 21.57083082, 49.38323566 ], [ 21.57008208, 49.38342119 ], [ 21.5699298, 49.38315022 ], [ 21.56985233, 49.38307626 ], [ 21.56984963, 49.38297809 ], [ 21.56973506, 49.38291515 ], [ 21.56972982, 49.38290879 ], [ 21.56961875, 49.38284919 ], [ 21.56960662, 49.38281313 ], [ 21.56959568, 49.3827168 ], [ 21.56954213, 49.38269659 ], [ 21.56946089, 49.38269739 ], [ 21.5693172, 49.3827428 ], [ 21.56927082, 49.38275852 ], [ 21.56929163, 49.3827564 ], [ 21.56937018, 49.38276515 ], [ 21.56942777, 49.3827825 ], [ 21.5696136, 49.38286264 ], [ 21.56961163, 49.38286735 ], [ 21.56960979, 49.38287243 ], [ 21.56959472, 49.38291107 ], [ 21.56959372, 49.38291374 ], [ 21.56959175, 49.38291863 ], [ 21.56952292, 49.38288333 ], [ 21.56947344, 49.38285793 ], [ 21.56935611, 49.38280976 ], [ 21.56930089, 49.38280255 ], [ 21.56922927, 49.38280803 ], [ 21.56907445, 49.38284215 ], [ 21.56898769, 49.38286844 ], [ 21.56869267, 49.38295779 ], [ 21.56864047, 49.3829719 ], [ 21.56842218, 49.38304079 ], [ 21.56825091, 49.38310739 ], [ 21.56819942, 49.38312963 ], [ 21.568065, 49.38319329 ], [ 21.56800987, 49.38321642 ], [ 21.56782646, 49.38329167 ], [ 21.56778011, 49.3833091 ], [ 21.567488, 49.38343182 ], [ 21.56737493, 49.38349374 ], [ 21.56726566, 49.38355216 ], [ 21.56726972, 49.38355758 ], [ 21.56725902, 49.38356305 ], [ 21.56724906, 49.38355314 ], [ 21.56711626, 49.38364052 ], [ 21.56709276, 49.38366272 ], [ 21.56699831, 49.38370959 ], [ 21.56699559, 49.38376603 ] ] ], [ [ [ 21.56440976, 49.38409944 ], [ 21.56448768, 49.38414093 ], [ 21.56489132, 49.38435583 ], [ 21.56515757, 49.38427253 ], [ 21.56570358, 49.38415005 ], [ 21.56629753, 49.38414409 ], [ 21.56667971, 49.38389816 ], [ 21.56654167, 49.3836984 ], [ 21.5665274, 49.38370377 ], [ 21.56630829, 49.38382312 ], [ 21.56605903, 49.38389537 ], [ 21.56582948, 49.3839319 ], [ 21.56524035, 49.38401602 ], [ 21.56440976, 49.38409944 ] ] ], [ [ [ 21.56790285, 49.38320255 ], [ 21.56772055, 49.38326065 ], [ 21.56655452, 49.38369372 ], [ 21.56661125, 49.38377701 ], [ 21.56674666, 49.3837573 ], [ 21.56686782, 49.38368553 ], [ 21.5668852, 49.38360088 ], [ 21.56696551, 49.3835933 ], [ 21.56697574, 49.38362248 ], [ 21.56702519, 49.38359343 ], [ 21.56705315, 49.38357891 ], [ 21.56719427, 49.38349924 ], [ 21.56718272, 49.38348821 ], [ 21.56719394, 49.38348312 ], [ 21.56720042, 49.38348951 ], [ 21.56750129, 49.38335912 ], [ 21.56774348, 49.38326408 ], [ 21.56779093, 49.383251 ], [ 21.56790285, 49.38320255 ] ] ], [ [ [ 21.56668109, 49.38387696 ], [ 21.56669079, 49.383891 ], [ 21.56683453, 49.38379853 ], [ 21.56689962, 49.3837854 ], [ 21.56689327, 49.3837603 ], [ 21.56668109, 49.38387696 ] ] ] ] } }
]
}
