{
"type": "FeatureCollection",
"name": "gis",
"crs": { "type": "name", "properties": { "name": "urn:ogc:def:crs:OGC:1.3:CRS84" } },
"features": [
{ "type": "Feature", "properties": { "@featureType": "CadastralZoning", "beginLifespanVersion": { "@nilReason": "http://inspire.ec.europa.eu/codelist/VoidReasonValue/Unpopulated", "@nil": "true" }, "endLifespanVersion": { "@nilReason": "http://inspire.ec.europa.eu/codelist/VoidReasonValue/Unpopulated", "@nil": "true" }, "estimatedAccuracy": { "value": -1, "@uom": "m" }, "inspireId": { "@dataType": "Identifier", "localId": "832138", "namespace": "SK.ESKN.CP", "versionId": "20260703T04:07:40" }, "label": "Lietavská Lúčka", "level": { "@href": "http://inspire.ec.europa.eu/codelist/CadastralZoningLevelValue/3rdOrder" }, "levelName": { "value": "Katastrálne územie", "@locale": "sk" }, "name": { "@dataType": "name", "GeographicalName": { "@dataType": "GeographicalName", "language": "SLK", "nativeness": { "@href": "http://inspire.ec.europa.eu/codelist/NativenessValue/endonym", "@title": "endonym" }, "nameStatus": { "@href": "http://inspire.ec.europa.eu/codelist/NameStatusValue/official", "@title": "official" }, "sourceOfName": { "@nilReason": "http://inspire.ec.europa.eu/codelist/VoidReasonValue/Unpopulated", "@nil": "true" }, "pronunciation": { "@dataType": "pronunciation", "@nilReason": "http://inspire.ec.europa.eu/codelist/VoidReasonValue/Unpopulated", "@nil": "true" }, "spelling": { "@dataType": "SpellingOfName", "text": "Lietavská Lúčka", "script": "LATN" } } }, "nationalCadastalZoningReference": "832138", "validFrom": "2026-06-30T16:00:00Z", "validTo": { "@nilReason": "http://inspire.ec.europa.eu/codelist/VoidReasonValue/Unpopulated", "@nil": "true" } }, "geometry": { "type": "MultiPolygon", "coordinates": [ [ [ [ 18.7223894, 49.18454071 ], [ 18.72332534, 49.1838699 ], [ 18.72344835, 49.183781 ], [ 18.72346609, 49.18376984 ], [ 18.72349961, 49.18374887 ], [ 18.72376467, 49.18353119 ], [ 18.72396392, 49.18327985 ], [ 18.72399451, 49.18309904 ], [ 18.72399687, 49.18307292 ], [ 18.72401351, 49.18288921 ], [ 18.72399546, 49.18248448 ], [ 18.72398846, 49.18238731 ], [ 18.72401357, 49.18217365 ], [ 18.72409524, 49.18191371 ], [ 18.72417737, 49.18172325 ], [ 18.72463256, 49.18122497 ], [ 18.72466866, 49.18118969 ], [ 18.7247228, 49.18115645 ], [ 18.72489061, 49.18096642 ], [ 18.72496217, 49.18086381 ], [ 18.72496952, 49.18085319 ], [ 18.72506136, 49.18073207 ], [ 18.72514374, 49.1805474 ], [ 18.7253443, 49.17996594 ], [ 18.72534731, 49.17995708 ], [ 18.72534812, 49.17995495 ], [ 18.72538495, 49.17984818 ], [ 18.72548647, 49.17972432 ], [ 18.72560976, 49.17958897 ], [ 18.72575459, 49.17947451 ], [ 18.72602635, 49.17931104 ], [ 18.72633106, 49.17915606 ], [ 18.72681982, 49.17887406 ], [ 18.72703903, 49.1786224 ], [ 18.72713611, 49.17846836 ], [ 18.72715674, 49.1784357 ], [ 18.72715843, 49.17843092 ], [ 18.72716078, 49.178424 ], [ 18.72716185, 49.1784209 ], [ 18.72718798, 49.17834658 ], [ 18.72719351, 49.17833055 ], [ 18.72719601, 49.17832355 ], [ 18.72720216, 49.17830583 ], [ 18.72724299, 49.17818997 ], [ 18.72724631, 49.17818076 ], [ 18.72743275, 49.17781751 ], [ 18.72745696, 49.17774535 ], [ 18.72746859, 49.17771086 ], [ 18.7274779, 49.17768312 ], [ 18.72750313, 49.17760821 ], [ 18.72754958, 49.1774157 ], [ 18.72765699, 49.17706291 ], [ 18.72770916, 49.17692844 ], [ 18.72767003, 49.17642327 ], [ 18.72783927, 49.17640869 ], [ 18.72787217, 49.17639616 ], [ 18.72790103, 49.17638513 ], [ 18.72792504, 49.17637899 ], [ 18.72796978, 49.17636754 ], [ 18.728006, 49.17635825 ], [ 18.72801197, 49.17635667 ], [ 18.72807386, 49.17633204 ], [ 18.72812702, 49.17634069 ], [ 18.72817328, 49.1762897 ], [ 18.72818379, 49.17629044 ], [ 18.72823878, 49.17629422 ], [ 18.72834308, 49.17627163 ], [ 18.72835569, 49.17626526 ], [ 18.72846037, 49.17621246 ], [ 18.72846619, 49.17621214 ], [ 18.72850346, 49.17621003 ], [ 18.7285378, 49.17619812 ], [ 18.72864228, 49.17616165 ], [ 18.72864831, 49.17615953 ], [ 18.72867556, 49.17615951 ], [ 18.72867762, 49.17615953 ], [ 18.72868341, 49.17615947 ], [ 18.72874548, 49.1761537 ], [ 18.72875147, 49.17615312 ], [ 18.72875411, 49.17614162 ], [ 18.72875617, 49.17613261 ], [ 18.72880172, 49.17611335 ], [ 18.72882507, 49.17610357 ], [ 18.7288619, 49.17611632 ], [ 18.72890666, 49.17613184 ], [ 18.72891341, 49.17613174 ], [ 18.72897932, 49.1761306 ], [ 18.72902518, 49.17611902 ], [ 18.72906067, 49.17611005 ], [ 18.72908847, 49.17606712 ], [ 18.72909151, 49.1760625 ], [ 18.72910116, 49.17604767 ], [ 18.72915258, 49.17603674 ], [ 18.72918591, 49.17602965 ], [ 18.72920824, 49.17602487 ], [ 18.72922211, 49.17603182 ], [ 18.72924597, 49.1760438 ], [ 18.72931706, 49.1760487 ], [ 18.7293393, 49.17605023 ], [ 18.72934762, 49.17605084 ], [ 18.72941536, 49.17605953 ], [ 18.72943134, 49.17606164 ], [ 18.72945765, 49.17603433 ], [ 18.72951733, 49.1759725 ], [ 18.72952679, 49.17596262 ], [ 18.72954741, 49.17594133 ], [ 18.72958021, 49.17594097 ], [ 18.72964772, 49.17594018 ], [ 18.72967612, 49.17596233 ], [ 18.72971206, 49.17599037 ], [ 18.72974825, 49.17597116 ], [ 18.72980335, 49.17597179 ], [ 18.72986078, 49.17595775 ], [ 18.72991082, 49.17593674 ], [ 18.72993562, 49.17592631 ], [ 18.72994992, 49.17591281 ], [ 18.7299521, 49.17591075 ], [ 18.72996734, 49.17589631 ], [ 18.72998273, 49.17588187 ], [ 18.7300146, 49.17585178 ], [ 18.73001759, 49.17585095 ], [ 18.73005261, 49.17584133 ], [ 18.73007212, 49.17583594 ], [ 18.73009832, 49.17582866 ], [ 18.73010245, 49.17582752 ], [ 18.73011228, 49.17582479 ], [ 18.73011925, 49.1758229 ], [ 18.73018132, 49.1758386 ], [ 18.73031173, 49.17587159 ], [ 18.73031681, 49.17587285 ], [ 18.73032802, 49.17587569 ], [ 18.73036813, 49.1758796 ], [ 18.73046117, 49.17588961 ], [ 18.73050803, 49.1758946 ], [ 18.73052992, 49.17586967 ], [ 18.73058009, 49.17581249 ], [ 18.73060376, 49.1757854 ], [ 18.73063951, 49.1757585 ], [ 18.73066858, 49.17573675 ], [ 18.73069875, 49.17569015 ], [ 18.73075946, 49.17566167 ], [ 18.73079039, 49.17565968 ], [ 18.73083573, 49.17565683 ], [ 18.73085663, 49.17563095 ], [ 18.73086247, 49.17562368 ], [ 18.73088065, 49.17556707 ], [ 18.73093208, 49.17555831 ], [ 18.73100808, 49.17554551 ], [ 18.73102705, 49.17554227 ], [ 18.73105193, 49.17552778 ], [ 18.73109473, 49.17550287 ], [ 18.7311371, 49.17547812 ], [ 18.73117117, 49.17545825 ], [ 18.73118689, 49.17546584 ], [ 18.7312363, 49.17548945 ], [ 18.73125692, 49.17548737 ], [ 18.73133857, 49.17547902 ], [ 18.73136814, 49.1754554 ], [ 18.73141355, 49.17541926 ], [ 18.73142772, 49.17540791 ], [ 18.7314685, 49.17540409 ], [ 18.73147992, 49.17540298 ], [ 18.73160256, 49.1753744 ], [ 18.73162884, 49.17536089 ], [ 18.73168623, 49.17533142 ], [ 18.7317087, 49.17531979 ], [ 18.73172759, 49.17529344 ], [ 18.73172941, 49.17529092 ], [ 18.73179941, 49.17527204 ], [ 18.73180169, 49.17527144 ], [ 18.73183396, 49.17523352 ], [ 18.73186959, 49.17519182 ], [ 18.73188822, 49.17519135 ], [ 18.73193461, 49.17519008 ], [ 18.73195481, 49.17518239 ], [ 18.73202506, 49.17515576 ], [ 18.73208711, 49.17513212 ], [ 18.73209927, 49.17511364 ], [ 18.73210501, 49.17506423 ], [ 18.73214019, 49.17505669 ], [ 18.73217621, 49.17508853 ], [ 18.73224613, 49.17508272 ], [ 18.73232204, 49.17507632 ], [ 18.73234415, 49.17506539 ], [ 18.73237429, 49.17505064 ], [ 18.73240166, 49.17496376 ], [ 18.73241784, 49.17494611 ], [ 18.73242323, 49.17494026 ], [ 18.73244699, 49.17493835 ], [ 18.73253898, 49.17493098 ], [ 18.73260943, 49.17492529 ], [ 18.7326344, 49.17493039 ], [ 18.73271857, 49.1749477 ], [ 18.73272984, 49.17495 ], [ 18.73279458, 49.17494157 ], [ 18.73282645, 49.17493747 ], [ 18.73285257, 49.17489021 ], [ 18.73296335, 49.17485957 ], [ 18.73298229, 49.17485434 ], [ 18.73310873, 49.17484986 ], [ 18.73316392, 49.17483507 ], [ 18.73316846, 49.17483504 ], [ 18.73322534, 49.17483459 ], [ 18.73323188, 49.17483854 ], [ 18.73324326, 49.17484563 ], [ 18.7332649, 49.17485885 ], [ 18.73331236, 49.17486576 ], [ 18.73338456, 49.17487622 ], [ 18.7334462, 49.17488522 ], [ 18.73345453, 49.17488466 ], [ 18.73351853, 49.17487998 ], [ 18.73364526, 49.17487083 ], [ 18.73368978, 49.17485557 ], [ 18.73372941, 49.17484195 ], [ 18.73378749, 49.17482939 ], [ 18.73383866, 49.17481826 ], [ 18.73396025, 49.17480731 ], [ 18.73396539, 49.17480686 ], [ 18.73397665, 49.17480591 ], [ 18.7340291, 49.17480117 ], [ 18.73406554, 49.17479911 ], [ 18.73410379, 49.17479688 ], [ 18.7343194, 49.17478444 ], [ 18.73434961, 49.17478151 ], [ 18.73441198, 49.17477557 ], [ 18.734496, 49.17475111 ], [ 18.73456963, 49.17473737 ], [ 18.7346092, 49.17473331 ], [ 18.73461199, 49.174733 ], [ 18.73466702, 49.1747274 ], [ 18.73470854, 49.17472317 ], [ 18.73471509, 49.17472252 ], [ 18.7347401, 49.17470354 ], [ 18.73479986, 49.17465804 ], [ 18.7348408, 49.1746269 ], [ 18.73489994, 49.17458191 ], [ 18.73491859, 49.17457901 ], [ 18.73493471, 49.1745766 ], [ 18.73502109, 49.17456326 ], [ 18.73502595, 49.17454818 ], [ 18.73511081, 49.17453828 ], [ 18.73513995, 49.17454874 ], [ 18.73514693, 49.17455127 ], [ 18.73515255, 49.17454922 ], [ 18.7351563, 49.17454779 ], [ 18.73519922, 49.1745467 ], [ 18.73520604, 49.17454949 ], [ 18.73521698, 49.17454095 ], [ 18.73523308, 49.17452853 ], [ 18.73526771, 49.17451537 ], [ 18.73530839, 49.17449991 ], [ 18.73532816, 49.17449238 ], [ 18.7353489, 49.17449382 ], [ 18.73536894, 49.17449532 ], [ 18.73543496, 49.17450004 ], [ 18.73544055, 49.17450042 ], [ 18.73545406, 49.1745014 ], [ 18.73551595, 49.17449706 ], [ 18.73563212, 49.1744888 ], [ 18.73577467, 49.1744628 ], [ 18.73583305, 49.17446694 ], [ 18.73585698, 49.1744478 ], [ 18.73591834, 49.1744309 ], [ 18.73604028, 49.17441707 ], [ 18.73612354, 49.17438309 ], [ 18.73630596, 49.17434257 ], [ 18.73635994, 49.17431175 ], [ 18.73639591, 49.17428296 ], [ 18.73649655, 49.17425539 ], [ 18.73658035, 49.17425075 ], [ 18.73665029, 49.17423574 ], [ 18.73683728, 49.17420295 ], [ 18.73689151, 49.17418242 ], [ 18.73691287, 49.17419004 ], [ 18.73731984, 49.17412699 ], [ 18.7373611, 49.17413276 ], [ 18.73742085, 49.17412677 ], [ 18.73754278, 49.17407343 ], [ 18.73775604, 49.17401928 ], [ 18.73791273, 49.17396298 ], [ 18.7379445, 49.17393027 ], [ 18.73822945, 49.17381834 ], [ 18.73827193, 49.17381299 ], [ 18.73829936, 49.17378429 ], [ 18.73838108, 49.17376629 ], [ 18.73846958, 49.17372987 ], [ 18.73867933, 49.17365695 ], [ 18.73876587, 49.17361628 ], [ 18.7388958, 49.17357978 ], [ 18.7389866, 49.17356739 ], [ 18.73904793, 49.17353488 ], [ 18.73948381, 49.17337888 ], [ 18.73968977, 49.17331451 ], [ 18.73988831, 49.17327943 ], [ 18.74001996, 49.17326151 ], [ 18.74017046, 49.17324016 ], [ 18.74022667, 49.17325086 ], [ 18.74050297, 49.17321335 ], [ 18.7405138, 49.17318992 ], [ 18.74061949, 49.17318408 ], [ 18.74112218, 49.17297303 ], [ 18.74130424, 49.17290037 ], [ 18.74133596, 49.17284321 ], [ 18.74149235, 49.17272482 ], [ 18.74164056, 49.17258093 ], [ 18.74170648, 49.17249029 ], [ 18.74223996, 49.17192424 ], [ 18.74233893, 49.17180727 ], [ 18.74236748, 49.17176032 ], [ 18.74244173, 49.17167922 ], [ 18.74246388, 49.17162499 ], [ 18.74248832, 49.1715394 ], [ 18.74247718, 49.17139231 ], [ 18.74246932, 49.17134833 ], [ 18.74241407, 49.1710933 ], [ 18.74239853, 49.17102195 ], [ 18.74238022, 49.17099943 ], [ 18.74234885, 49.17096098 ], [ 18.74234747, 49.1708762 ], [ 18.7422983, 49.17080985 ], [ 18.74230843, 49.17072883 ], [ 18.7422802, 49.17069172 ], [ 18.74222456, 49.17062431 ], [ 18.74213994, 49.17060401 ], [ 18.74209636, 49.17059361 ], [ 18.7420507, 49.17054711 ], [ 18.7420631, 49.17050509 ], [ 18.74196348, 49.17049383 ], [ 18.7419438, 49.17049163 ], [ 18.74194238, 49.17048975 ], [ 18.74192168, 49.17046197 ], [ 18.74194197, 49.17044111 ], [ 18.74193674, 49.17040719 ], [ 18.74194671, 49.17033428 ], [ 18.74190066, 49.17028415 ], [ 18.74188003, 49.17023661 ], [ 18.74187325, 49.1702211 ], [ 18.74185644, 49.17018053 ], [ 18.74189111, 49.17014211 ], [ 18.74195825, 49.17015789 ], [ 18.74199009, 49.17016532 ], [ 18.74207555, 49.17014706 ], [ 18.74210905, 49.17005941 ], [ 18.74209413, 49.17002372 ], [ 18.74206111, 49.1699445 ], [ 18.7421053, 49.16989115 ], [ 18.74216541, 49.16986291 ], [ 18.74216546, 49.16985578 ], [ 18.74216524, 49.16977611 ], [ 18.74210685, 49.16976756 ], [ 18.74209914, 49.16976643 ], [ 18.74209351, 49.16975053 ], [ 18.74207321, 49.16969345 ], [ 18.74208017, 49.16966224 ], [ 18.74208571, 49.16963709 ], [ 18.74208452, 49.16963549 ], [ 18.74204323, 49.1695802 ], [ 18.74201649, 49.16954443 ], [ 18.74206845, 49.16943962 ], [ 18.74208503, 49.1694062 ], [ 18.74209847, 49.16933753 ], [ 18.74206862, 49.16929457 ], [ 18.74207445, 49.16924318 ], [ 18.74207778, 49.16921467 ], [ 18.74207811, 49.16921198 ], [ 18.74208129, 49.16918355 ], [ 18.74206512, 49.16908122 ], [ 18.74213241, 49.16900986 ], [ 18.74211673, 49.16896908 ], [ 18.74211371, 49.16896116 ], [ 18.74217288, 49.16892032 ], [ 18.74221238, 49.16891454 ], [ 18.74225565, 49.16890823 ], [ 18.74232611, 49.16881422 ], [ 18.74231437, 49.16878627 ], [ 18.74244711, 49.16869597 ], [ 18.74241496, 49.16865712 ], [ 18.74241148, 49.16865297 ], [ 18.74241508, 49.16864594 ], [ 18.74244184, 49.16859447 ], [ 18.74247108, 49.16858482 ], [ 18.74259835, 49.16854285 ], [ 18.74266182, 49.16849267 ], [ 18.74265441, 49.16841443 ], [ 18.74265036, 49.16840475 ], [ 18.74263706, 49.16837275 ], [ 18.74260733, 49.16834116 ], [ 18.74260513, 49.16833888 ], [ 18.74255138, 49.16834085 ], [ 18.74256338, 49.16830322 ], [ 18.74250698, 49.16824552 ], [ 18.74249571, 49.1681447 ], [ 18.74246283, 49.16808363 ], [ 18.74245869, 49.16807583 ], [ 18.74245238, 49.16801235 ], [ 18.74244871, 49.16797572 ], [ 18.74239014, 49.16793359 ], [ 18.74235384, 49.16790743 ], [ 18.74234877, 49.16790382 ], [ 18.74231917, 49.16788252 ], [ 18.74227117, 49.16781343 ], [ 18.74216721, 49.16774521 ], [ 18.74209589, 49.16774906 ], [ 18.74207913, 49.16774999 ], [ 18.74201297, 49.16767409 ], [ 18.7420181, 49.1676251 ], [ 18.74193679, 49.16755959 ], [ 18.74192868, 49.16751199 ], [ 18.74194611, 49.16745805 ], [ 18.74193482, 49.16737329 ], [ 18.74195661, 49.16729929 ], [ 18.74195171, 49.16719709 ], [ 18.74195616, 49.16709602 ], [ 18.74197731, 49.16703407 ], [ 18.74201731, 49.16691672 ], [ 18.74198092, 49.16681432 ], [ 18.74193943, 49.16673132 ], [ 18.74191095, 49.16670196 ], [ 18.7417719, 49.1665591 ], [ 18.74159067, 49.1663729 ], [ 18.74158114, 49.16633929 ], [ 18.7416115, 49.1662605 ], [ 18.74162718, 49.16615415 ], [ 18.74163371, 49.16614574 ], [ 18.74173426, 49.16601352 ], [ 18.7420684, 49.16552491 ], [ 18.74252633, 49.16485541 ], [ 18.74265627, 49.164607 ], [ 18.74321055, 49.16461912 ], [ 18.74356928, 49.16456625 ], [ 18.74375389, 49.1645391 ], [ 18.74458326, 49.16441693 ], [ 18.74484225, 49.16437878 ], [ 18.74502994, 49.16435115 ], [ 18.74538285, 49.16436419 ], [ 18.74544024, 49.16436628 ], [ 18.74587341, 49.16438225 ], [ 18.74592956, 49.16438428 ], [ 18.74698791, 49.16418439 ], [ 18.74738024, 49.16414816 ], [ 18.74771081, 49.16410391 ], [ 18.74810525, 49.16406047 ], [ 18.74853919, 49.16395685 ], [ 18.74874368, 49.16390754 ], [ 18.74921115, 49.16379845 ], [ 18.74954867, 49.16371288 ], [ 18.75006455, 49.16358007 ], [ 18.75054321, 49.16345478 ], [ 18.75106178, 49.16332246 ], [ 18.75126459, 49.1640947 ], [ 18.75298427, 49.16369222 ], [ 18.75300799, 49.16368489 ], [ 18.75298529, 49.1636045 ], [ 18.75377526, 49.16314462 ], [ 18.75498167, 49.1627975 ], [ 18.75502516, 49.16278145 ], [ 18.75541185, 49.16263854 ], [ 18.75547406, 49.16261553 ], [ 18.75543065, 49.16246316 ], [ 18.75540828, 49.162355 ], [ 18.75537727, 49.16223422 ], [ 18.7553506, 49.1621298 ], [ 18.75530726, 49.16196093 ], [ 18.75528034, 49.16183702 ], [ 18.75516786, 49.16146147 ], [ 18.75516346, 49.16143652 ], [ 18.75512244, 49.1612361 ], [ 18.75505394, 49.16123379 ], [ 18.7549928, 49.16124115 ], [ 18.75497998, 49.16124255 ], [ 18.75496704, 49.16124486 ], [ 18.75495779, 49.16124627 ], [ 18.75493537, 49.1612497 ], [ 18.75469837, 49.16129272 ], [ 18.75464982, 49.16128928 ], [ 18.75458041, 49.16128205 ], [ 18.75454371, 49.16127725 ], [ 18.75445178, 49.16126514 ], [ 18.75444772, 49.16126466 ], [ 18.75442464, 49.1612621 ], [ 18.75440169, 49.16125964 ], [ 18.75424575, 49.16124113 ], [ 18.75401982, 49.16117142 ], [ 18.753987, 49.16116195 ], [ 18.75390326, 49.16113565 ], [ 18.75353965, 49.16109529 ], [ 18.75239943, 49.1608668 ], [ 18.752213, 49.16080257 ], [ 18.75218129, 49.16079072 ], [ 18.75198154, 49.16071724 ], [ 18.75195758, 49.16069704 ], [ 18.75192038, 49.16069302 ], [ 18.75169828, 49.16066889 ], [ 18.75113563, 49.16075091 ], [ 18.75111504, 49.16075399 ], [ 18.75089032, 49.16078762 ], [ 18.75077923, 49.16080419 ], [ 18.75072222, 49.16081267 ], [ 18.75067711, 49.16081943 ], [ 18.75067136, 49.1608203 ], [ 18.75065749, 49.16082237 ], [ 18.7506178, 49.16081281 ], [ 18.75047935, 49.16077942 ], [ 18.75040453, 49.16076126 ], [ 18.75039743, 49.16075963 ], [ 18.75017106, 49.16070495 ], [ 18.7501307, 49.16071222 ], [ 18.75011706, 49.16071467 ], [ 18.75001806, 49.1607325 ], [ 18.74981386, 49.16076928 ], [ 18.74977665, 49.16073252 ], [ 18.74974275, 49.16069908 ], [ 18.74968342, 49.16064051 ], [ 18.74967875, 49.16063593 ], [ 18.74951913, 49.16068172 ], [ 18.74945014, 49.16071068 ], [ 18.74933548, 49.16078381 ], [ 18.74922247, 49.16089662 ], [ 18.74923405, 49.1609417 ], [ 18.74911471, 49.16098201 ], [ 18.74903558, 49.16096534 ], [ 18.74885838, 49.1611955 ], [ 18.74874173, 49.16122043 ], [ 18.74864889, 49.16129966 ], [ 18.74856604, 49.16139619 ], [ 18.74854569, 49.16141993 ], [ 18.7484718, 49.16151864 ], [ 18.74830154, 49.16152634 ], [ 18.74816742, 49.16135307 ], [ 18.74791375, 49.16128533 ], [ 18.74778315, 49.1613062 ], [ 18.74771188, 49.16131763 ], [ 18.74756615, 49.16131254 ], [ 18.74708186, 49.16141407 ], [ 18.746493, 49.16127702 ], [ 18.74581188, 49.16113966 ], [ 18.74580214, 49.16107718 ], [ 18.74560555, 49.16098571 ], [ 18.74547999, 49.16096517 ], [ 18.74525433, 49.16078801 ], [ 18.74506884, 49.16076145 ], [ 18.7448503, 49.16068759 ], [ 18.74466976, 49.16082736 ], [ 18.74445303, 49.16087332 ], [ 18.74435315, 49.16088478 ], [ 18.74415743, 49.1609616 ], [ 18.74395073, 49.16109928 ], [ 18.74385089, 49.16111156 ], [ 18.74364024, 49.16106672 ], [ 18.74334254, 49.16102291 ], [ 18.74308982, 49.1610401 ], [ 18.7428282, 49.16100729 ], [ 18.74236027, 49.16094141 ], [ 18.74183477, 49.16101414 ], [ 18.74165383, 49.1609796 ], [ 18.7414472, 49.16104646 ], [ 18.74126542, 49.16105382 ], [ 18.74119073, 49.16086273 ], [ 18.74107956, 49.1608358 ], [ 18.74097627, 49.16086504 ], [ 18.74095023, 49.16086656 ], [ 18.7406779, 49.16079169 ], [ 18.74025404, 49.16090637 ], [ 18.74013233, 49.1610023 ], [ 18.74007944, 49.16105149 ], [ 18.7399295, 49.16107414 ], [ 18.73972034, 49.16118336 ], [ 18.73961271, 49.16119513 ], [ 18.73947825, 49.16125449 ], [ 18.739418, 49.16129636 ], [ 18.73901915, 49.16133773 ], [ 18.73844864, 49.16141739 ], [ 18.73833645, 49.16143389 ], [ 18.73799912, 49.16152692 ], [ 18.737886, 49.16163701 ], [ 18.73775384, 49.16167971 ], [ 18.73760315, 49.16181364 ], [ 18.73735536, 49.16175863 ], [ 18.73736916, 49.16165317 ], [ 18.73696548, 49.16168102 ], [ 18.73687627, 49.16191893 ], [ 18.73678035, 49.1619204 ], [ 18.7367661, 49.16184992 ], [ 18.73666593, 49.16176313 ], [ 18.73651137, 49.16170506 ], [ 18.73640171, 49.16172674 ], [ 18.73624336, 49.16169752 ], [ 18.73609339, 49.1617272 ], [ 18.73595368, 49.16180477 ], [ 18.73559753, 49.16166253 ], [ 18.73520764, 49.1615059 ], [ 18.73505728, 49.16141783 ], [ 18.73490772, 49.16140007 ], [ 18.73463954, 49.1612923 ], [ 18.73437472, 49.16112976 ], [ 18.73399552, 49.16091594 ], [ 18.7337133, 49.16092462 ], [ 18.73361267, 49.16091961 ], [ 18.73349197, 49.16086025 ], [ 18.73352904, 49.16078064 ], [ 18.73315496, 49.16064683 ], [ 18.73307684, 49.16056426 ], [ 18.73259752, 49.16061691 ], [ 18.73249852, 49.16068317 ], [ 18.73228169, 49.16071971 ], [ 18.73226187, 49.16077398 ], [ 18.73216101, 49.16083861 ], [ 18.73213709, 49.16083176 ], [ 18.73192672, 49.16084906 ], [ 18.73167539, 49.16086729 ], [ 18.73154686, 49.16091288 ], [ 18.73142888, 49.16093403 ], [ 18.73096841, 49.16099217 ], [ 18.73052886, 49.16093513 ], [ 18.73039417, 49.16098608 ], [ 18.73029797, 49.16101919 ], [ 18.73024228, 49.16110261 ], [ 18.73017085, 49.16110518 ], [ 18.72982442, 49.16103569 ], [ 18.72969441, 49.16112847 ], [ 18.7295154, 49.1611503 ], [ 18.72924715, 49.16112442 ], [ 18.72882541, 49.16098332 ], [ 18.72866046, 49.16096088 ], [ 18.72855609, 49.16101368 ], [ 18.7284501, 49.1610673 ], [ 18.72829382, 49.16109339 ], [ 18.72799096, 49.1609892 ], [ 18.72782198, 49.16103942 ], [ 18.72765814, 49.16101018 ], [ 18.72763202, 49.16100547 ], [ 18.72747975, 49.1609964 ], [ 18.72741909, 49.1609953 ], [ 18.72727922, 49.16099283 ], [ 18.72699089, 49.16122426 ], [ 18.72696047, 49.16124017 ], [ 18.7268513, 49.16129732 ], [ 18.72677489, 49.16131253 ], [ 18.72673875, 49.16136864 ], [ 18.72669006, 49.16144421 ], [ 18.72663273, 49.16156128 ], [ 18.72637098, 49.16162432 ], [ 18.72619808, 49.16166596 ], [ 18.7260204, 49.16166674 ], [ 18.72591797, 49.16166741 ], [ 18.72574198, 49.16163969 ], [ 18.72593351, 49.16045009 ], [ 18.72614347, 49.15986868 ], [ 18.72649127, 49.1589294 ], [ 18.72642023, 49.15883059 ], [ 18.72572727, 49.15865893 ], [ 18.72505148, 49.15843683 ], [ 18.72428877, 49.15797661 ], [ 18.723912, 49.15779743 ], [ 18.72320928, 49.15757292 ], [ 18.72311688, 49.15754335 ], [ 18.72296241, 49.15750953 ], [ 18.72289733, 49.15749502 ], [ 18.72294289, 49.15761433 ], [ 18.7232649, 49.1581431 ], [ 18.72332827, 49.15824719 ], [ 18.72338546, 49.15834103 ], [ 18.72032762, 49.1583644 ], [ 18.72033583, 49.15834895 ], [ 18.72050037, 49.15803878 ], [ 18.72051719, 49.15800691 ], [ 18.72066903, 49.1577207 ], [ 18.72082616, 49.15745533 ], [ 18.72104583, 49.15709004 ], [ 18.72131058, 49.15662807 ], [ 18.72171702, 49.15589531 ], [ 18.72178295, 49.15592195 ], [ 18.72182817, 49.15594029 ], [ 18.72188696, 49.15591045 ], [ 18.72194172, 49.15588329 ], [ 18.72184045, 49.15582835 ], [ 18.72183142, 49.15582346 ], [ 18.72176547, 49.15579916 ], [ 18.72173692, 49.15578855 ], [ 18.72170745, 49.15577762 ], [ 18.72166758, 49.15576281 ], [ 18.72158283, 49.15573138 ], [ 18.72084677, 49.15607687 ], [ 18.71967281, 49.1571162 ], [ 18.71929601, 49.15696795 ], [ 18.71925452, 49.15695288 ], [ 18.71919991, 49.15693034 ], [ 18.71909003, 49.15705078 ], [ 18.71901128, 49.15713704 ], [ 18.71845664, 49.15774482 ], [ 18.71838583, 49.15782229 ], [ 18.71826523, 49.15817925 ], [ 18.71764967, 49.15959791 ], [ 18.71730678, 49.159414 ], [ 18.71724038, 49.1594374 ], [ 18.71719349, 49.15945415 ], [ 18.716303, 49.15976697 ], [ 18.71625051, 49.15980372 ], [ 18.7161968, 49.15984141 ], [ 18.71616762, 49.1598618 ], [ 18.71605119, 49.15986569 ], [ 18.71338053, 49.15995595 ], [ 18.71315544, 49.1599969 ], [ 18.71225788, 49.1601601 ], [ 18.71217488, 49.16017522 ], [ 18.71211409, 49.16018637 ], [ 18.71205555, 49.16019827 ], [ 18.70973609, 49.16062229 ], [ 18.70895765, 49.16053002 ], [ 18.70807493, 49.16049523 ], [ 18.70743891, 49.16055551 ], [ 18.70693454, 49.16060565 ], [ 18.70621021, 49.16065812 ], [ 18.70567752, 49.16062035 ], [ 18.70466343, 49.16035398 ], [ 18.70128044, 49.15937991 ], [ 18.70067508, 49.15923698 ], [ 18.69993934, 49.15903773 ], [ 18.69952892, 49.15891941 ], [ 18.69951006, 49.1589139 ], [ 18.69949118, 49.15890858 ], [ 18.69892886, 49.15875013 ], [ 18.69898178, 49.1592537 ], [ 18.69898778, 49.15931139 ], [ 18.69903018, 49.15971436 ], [ 18.69914421, 49.16005254 ], [ 18.69919644, 49.16033929 ], [ 18.69924353, 49.16053104 ], [ 18.69946768, 49.16102586 ], [ 18.69985437, 49.16152464 ], [ 18.70020848, 49.1617884 ], [ 18.70056196, 49.16205177 ], [ 18.70089936, 49.16279595 ], [ 18.70254932, 49.16362096 ], [ 18.70336322, 49.16428034 ], [ 18.70435147, 49.16501149 ], [ 18.70506056, 49.16550691 ], [ 18.7054347, 49.16576828 ], [ 18.70504581, 49.16660567 ], [ 18.70492395, 49.16672916 ], [ 18.70491247, 49.16674083 ], [ 18.70488043, 49.16677333 ], [ 18.7048655, 49.16678851 ], [ 18.70484305, 49.16681124 ], [ 18.70475887, 49.16689657 ], [ 18.7047108, 49.16694538 ], [ 18.70438385, 49.16727198 ], [ 18.7042224, 49.16748613 ], [ 18.70413065, 49.16760517 ], [ 18.7035224, 49.16833375 ], [ 18.70328409, 49.16862505 ], [ 18.7030537, 49.16889322 ], [ 18.70219096, 49.16972676 ], [ 18.70200819, 49.1702937 ], [ 18.70169932, 49.17086781 ], [ 18.70124911, 49.1712433 ], [ 18.70116189, 49.17155789 ], [ 18.70125812, 49.17169566 ], [ 18.70106091, 49.17219824 ], [ 18.70083476, 49.17253041 ], [ 18.70057568, 49.17315504 ], [ 18.70055635, 49.17353653 ], [ 18.70057535, 49.17374538 ], [ 18.70083231, 49.17452682 ], [ 18.70102124, 49.1748886 ], [ 18.70108362, 49.17502757 ], [ 18.70110572, 49.17507177 ], [ 18.70157691, 49.17556361 ], [ 18.70186881, 49.17580821 ], [ 18.70328242, 49.17645872 ], [ 18.70394613, 49.17676411 ], [ 18.70348678, 49.17723197 ], [ 18.70328989, 49.17755323 ], [ 18.70367688, 49.17773165 ], [ 18.70422161, 49.17790854 ], [ 18.70491301, 49.17812056 ], [ 18.70565827, 49.17853 ], [ 18.70598809, 49.17871127 ], [ 18.70632807, 49.1789445 ], [ 18.70690035, 49.17941042 ], [ 18.70748234, 49.17958672 ], [ 18.70774964, 49.17972121 ], [ 18.70797458, 49.17990507 ], [ 18.70811189, 49.18004139 ], [ 18.70853066, 49.18027072 ], [ 18.70888939, 49.18045548 ], [ 18.70947495, 49.18082105 ], [ 18.70995233, 49.18114177 ], [ 18.71026562, 49.18113325 ], [ 18.71052799, 49.18142859 ], [ 18.71058851, 49.181403 ], [ 18.71099966, 49.1818524 ], [ 18.71132593, 49.18214072 ], [ 18.71180869, 49.18256736 ], [ 18.71208507, 49.18268969 ], [ 18.71217973, 49.18273156 ], [ 18.71279817, 49.18267086 ], [ 18.71299593, 49.18275531 ], [ 18.71313634, 49.18355097 ], [ 18.71328762, 49.18380177 ], [ 18.71421117, 49.18374681 ], [ 18.71544081, 49.18380544 ], [ 18.71609404, 49.18385318 ], [ 18.71719862, 49.18429006 ], [ 18.71728666, 49.18433203 ], [ 18.71747981, 49.18442282 ], [ 18.71809495, 49.18468561 ], [ 18.71869346, 49.18477809 ], [ 18.71894473, 49.18464198 ], [ 18.71924348, 49.18401111 ], [ 18.71950017, 49.18408412 ], [ 18.72020222, 49.18427766 ], [ 18.72086369, 49.18447673 ], [ 18.72090151, 49.18448927 ], [ 18.72118284, 49.18461643 ], [ 18.7215093, 49.18476401 ], [ 18.72152433, 49.1847694 ], [ 18.72153423, 49.1847728 ], [ 18.72153925, 49.1847746 ], [ 18.72155932, 49.18478152 ], [ 18.72166637, 49.18482114 ], [ 18.72173949, 49.18484112 ], [ 18.72187188, 49.18488172 ], [ 18.72190569, 49.18489224 ], [ 18.72190993, 49.18489355 ], [ 18.7219277, 49.18489908 ], [ 18.72194892, 49.18490561 ], [ 18.72197372, 49.18491331 ], [ 18.72198485, 49.18491678 ], [ 18.72199055, 49.18491862 ], [ 18.72202517, 49.18492927 ], [ 18.72211838, 49.18495825 ], [ 18.7223894, 49.18454071 ] ] ] ] } }
]
}
