{
"type": "FeatureCollection",
"name": "gis",
"crs": { "type": "name", "properties": { "name": "urn:ogc:def:crs:OGC:1.3:CRS84" } },
"features": [
{ "type": "Feature", "properties": { "@featureType": "CadastralParcel", "areaValue": { "value": 50379, "@uom": "m2" }, "beginLifespanVersion": { "@nilReason": "http://inspire.ec.europa.eu/codelist/VoidReasonValue/Unpopulated", "@nil": "true" }, "endLifespanVersion": { "@nilReason": "http://inspire.ec.europa.eu/codelist/VoidReasonValue/Unpopulated", "@nil": "true" }, "inspireId": { "@dataType": "Identifier", "localId": "823767_1545.C", "namespace": "SK.ESKN.CP", "versionId": "20260703T04:07:12" }, "label": "1545", "nationalCadastralReference": "823767_1545.C", "referencePoint": { "type": "Point", "coordinates": [ 20.46421532, 48.47968202 ] }, "validFrom": "2026-06-30T16:00:00Z", "validTo": { "@nilReason": "http://inspire.ec.europa.eu/codelist/VoidReasonValue/Unpopulated", "@nil": "true" }, "administrativeUnit": { "@href": "#auAdmUnitS.2826" } }, "geometry": { "type": "Polygon", "coordinates": [ [ [ 20.45962663, 48.48044113 ], [ 20.45964521, 48.48046301 ], [ 20.45983895, 48.4806918 ], [ 20.46044435, 48.48024266 ], [ 20.46051875, 48.48018261 ], [ 20.46059644, 48.48012683 ], [ 20.46070001, 48.48008995 ], [ 20.46075242, 48.48005096 ], [ 20.46082377, 48.4799979 ], [ 20.46078626, 48.47995981 ], [ 20.46126504, 48.47966261 ], [ 20.46203929, 48.47933582 ], [ 20.46241807, 48.47969316 ], [ 20.46253799, 48.48002589 ], [ 20.46273673, 48.48022514 ], [ 20.46277969, 48.48031965 ], [ 20.46282555, 48.48031418 ], [ 20.46375062, 48.48124178 ], [ 20.46381374, 48.48130516 ], [ 20.46400042, 48.48136089 ], [ 20.46425765, 48.48143768 ], [ 20.46430784, 48.48142598 ], [ 20.4641846, 48.48139527 ], [ 20.46414612, 48.48131624 ], [ 20.46418353, 48.48123569 ], [ 20.46426838, 48.48122594 ], [ 20.4642787, 48.4811893 ], [ 20.4642297, 48.48116825 ], [ 20.46408327, 48.48114558 ], [ 20.4640683, 48.48105637 ], [ 20.46451685, 48.48112222 ], [ 20.46464096, 48.4809582 ], [ 20.46457055, 48.48079662 ], [ 20.46453789, 48.48075565 ], [ 20.4643977, 48.48073925 ], [ 20.46460415, 48.4805062 ], [ 20.46454972, 48.48040009 ], [ 20.46435888, 48.48033753 ], [ 20.46451367, 48.48014288 ], [ 20.46482619, 48.48018158 ], [ 20.4650413, 48.48016029 ], [ 20.4655874, 48.4800603 ], [ 20.46568509, 48.48009824 ], [ 20.46565743, 48.48029736 ], [ 20.46570843, 48.48068666 ], [ 20.46594295, 48.48076591 ], [ 20.46600916, 48.48083599 ], [ 20.46610631, 48.48093859 ], [ 20.46603732, 48.48081093 ], [ 20.4660169, 48.48078205 ], [ 20.4658465, 48.48053992 ], [ 20.4657327, 48.4803249 ], [ 20.46572336, 48.48030743 ], [ 20.46575934, 48.48007935 ], [ 20.46584191, 48.47995555 ], [ 20.46600596, 48.47970972 ], [ 20.46603179, 48.47967088 ], [ 20.46612379, 48.47964554 ], [ 20.4662193, 48.47962683 ], [ 20.46639395, 48.47960165 ], [ 20.46644648, 48.47957995 ], [ 20.46651546, 48.47955933 ], [ 20.46638864, 48.47923084 ], [ 20.46670653, 48.47904598 ], [ 20.46654144, 48.47887927 ], [ 20.46713244, 48.4786727 ], [ 20.46694625, 48.47857024 ], [ 20.46735251, 48.47820801 ], [ 20.46868831, 48.47803932 ], [ 20.4686943, 48.47802783 ], [ 20.4687887, 48.47800304 ], [ 20.46887475, 48.47792865 ], [ 20.46888701, 48.47791686 ], [ 20.46884377, 48.47790594 ], [ 20.46880421, 48.47791228 ], [ 20.46799716, 48.47804094 ], [ 20.46777654, 48.47807609 ], [ 20.46742403, 48.47815929 ], [ 20.46720216, 48.47822645 ], [ 20.4658337, 48.47885774 ], [ 20.46555924, 48.47895182 ], [ 20.46516766, 48.47908605 ], [ 20.46423584, 48.47927716 ], [ 20.46327643, 48.47945982 ], [ 20.46263198, 48.47951066 ], [ 20.46242799, 48.47934887 ], [ 20.46225828, 48.47928982 ], [ 20.46211336, 48.47926071 ], [ 20.46199101, 48.47928435 ], [ 20.46140618, 48.47946916 ], [ 20.46107243, 48.47958611 ], [ 20.46094857, 48.47964149 ], [ 20.4606067, 48.4798166 ], [ 20.460471, 48.47988685 ], [ 20.46028671, 48.47999732 ], [ 20.460104, 48.48010677 ], [ 20.46003376, 48.48015464 ], [ 20.45990713, 48.48024378 ], [ 20.45981642, 48.48030763 ], [ 20.45972124, 48.48037455 ], [ 20.45962663, 48.48044113 ] ] ] } }
]
}
