{
"type": "FeatureCollection",
"name": "gis",
"crs": { "type": "name", "properties": { "name": "urn:ogc:def:crs:OGC:1.3:CRS84" } },
"features": [
{ "type": "Feature", "properties": { "@featureType": "CadastralZoning", "beginLifespanVersion": { "@nilReason": "http://inspire.ec.europa.eu/codelist/VoidReasonValue/Unpopulated", "@nil": "true" }, "endLifespanVersion": { "@nilReason": "http://inspire.ec.europa.eu/codelist/VoidReasonValue/Unpopulated", "@nil": "true" }, "estimatedAccuracy": { "value": -1, "@uom": "m" }, "inspireId": { "@dataType": "Identifier", "localId": "862584", "namespace": "SK.ESKN.CP", "versionId": "20260703T04:07:40" }, "label": "Tehla", "level": { "@href": "http://inspire.ec.europa.eu/codelist/CadastralZoningLevelValue/3rdOrder" }, "levelName": { "value": "Katastrálne územie", "@locale": "sk" }, "name_1": { "@dataType": "name", "GeographicalName": { "@dataType": "GeographicalName", "language": "SLK", "nativeness": { "@href": "http://inspire.ec.europa.eu/codelist/NativenessValue/endonym", "@title": "endonym" }, "nameStatus": { "@href": "http://inspire.ec.europa.eu/codelist/NameStatusValue/official", "@title": "official" }, "sourceOfName": { "@nilReason": "http://inspire.ec.europa.eu/codelist/VoidReasonValue/Unpopulated", "@nil": "true" }, "pronunciation": { "@dataType": "pronunciation", "@nilReason": "http://inspire.ec.europa.eu/codelist/VoidReasonValue/Unpopulated", "@nil": "true" }, "spelling": { "@dataType": "SpellingOfName", "text": "Tehla", "script": "LATN" } } }, "nationalCadastalZoningReference": "862584", "validFrom": "2026-06-30T16:00:00Z", "validTo": { "@nilReason": "http://inspire.ec.europa.eu/codelist/VoidReasonValue/Unpopulated", "@nil": "true" }, "place_id": 418687279, "osm_type": "relation", "osm_id": 2217879, "place_rank": 22, "category": "place", "type": "cadastral_community", "importance": 0.1067238673990997, "addresstype": "cadastral_community", "name_2": "Tehla", "display_name": "Tehla, okres Levice, Nitriansky kraj, 935 35, Slovensko" }, "geometry": { "type": "Polygon", "coordinates": [ [ [ 18.358405052685363, 48.222963427198486 ], [ 18.358707, 48.222939 ], [ 18.35871, 48.222939 ], [ 18.358710256829518, 48.222939165104691 ], [ 18.35871032, 48.22293916 ], [ 18.35872343, 48.22294758 ], [ 18.358725145350309, 48.222947427324847 ], [ 18.358726, 48.222947 ], [ 18.358733328275974, 48.22294394655168 ], [ 18.35873821, 48.22294183 ], [ 18.358748257868534, 48.222937467453441 ], [ 18.358781, 48.222923 ], [ 18.358798887910069, 48.222910514478883 ], [ 18.35892916, 48.2228187 ], [ 18.35903977, 48.22268796 ], [ 18.35912978, 48.22261191 ], [ 18.359163031473567, 48.222588510952129 ], [ 18.35922, 48.222548 ], [ 18.359273889431915, 48.222522072065779 ], [ 18.35932568, 48.22249665 ], [ 18.35957384, 48.22239103 ], [ 18.35996381, 48.22224823 ], [ 18.360135413627948, 48.222194088275032 ], [ 18.360195, 48.222175 ], [ 18.360270325394175, 48.222155102726063 ], [ 18.36030028, 48.22214707 ], [ 18.36101595, 48.22201459 ], [ 18.361094212025492, 48.22199956341602 ], [ 18.361244, 48.22197 ], [ 18.361566, 48.221889 ], [ 18.36215, 48.221697 ], [ 18.362281963256621, 48.221653495629688 ], [ 18.36233162, 48.22163702 ], [ 18.362351401678129, 48.221630496028354 ], [ 18.362508, 48.221578 ], [ 18.362638295777927, 48.221524697181756 ], [ 18.36270559, 48.22149673 ], [ 18.363204076365424, 48.221321632276478 ], [ 18.363328, 48.221278 ], [ 18.363453909544948, 48.221228225232522 ], [ 18.36418286, 48.22093956 ], [ 18.36443362, 48.22081963 ], [ 18.364804943279957, 48.220624592379309 ], [ 18.364994, 48.220525 ], [ 18.364999, 48.220522 ], [ 18.365316, 48.220318 ], [ 18.36555770018602, 48.220168998944146 ], [ 18.36574095, 48.2200557 ], [ 18.365939539895358, 48.21992713029104 ], [ 18.366234, 48.219736 ], [ 18.36756, 48.219031 ], [ 18.368393, 48.218549 ], [ 18.369336, 48.21829 ], [ 18.369643, 48.218223 ], [ 18.370024292258059, 48.218142683448967 ], [ 18.37054504, 48.21803232 ], [ 18.3717212, 48.21775236 ], [ 18.371773087671034, 48.217739978082243 ], [ 18.371785, 48.217737 ], [ 18.371932818168137, 48.217703536707035 ], [ 18.37234637, 48.21760955 ], [ 18.372894478277232, 48.217636205073248 ], [ 18.373246, 48.217653 ], [ 18.374068959048408, 48.217684998407719 ], [ 18.374146671699048, 48.217654423073022 ], [ 18.375301, 48.2172 ], [ 18.37588, 48.216934 ], [ 18.376142254877912, 48.216810819678557 ], [ 18.37614438, 48.21680982 ], [ 18.3767675, 48.21651975 ], [ 18.376943446417428, 48.216458694585178 ], [ 18.377203, 48.216368 ], [ 18.378732, 48.215845 ], [ 18.379207311824679, 48.215747968887861 ], [ 18.38076008, 48.21543049 ], [ 18.38142403, 48.21538315 ], [ 18.38232238, 48.21532342 ], [ 18.38251343, 48.21531092 ], [ 18.382636, 48.21530286 ], [ 18.382757319819731, 48.215295647283654 ], [ 18.383164, 48.215271 ], [ 18.383545, 48.215223 ], [ 18.383611, 48.215206 ], [ 18.383709343297188, 48.215176912545907 ], [ 18.38389559, 48.21512136 ], [ 18.38409884, 48.21506045 ], [ 18.38419368, 48.21503557 ], [ 18.38447739102558, 48.214896567993804 ], [ 18.38482, 48.214728 ], [ 18.385207, 48.214402 ], [ 18.385340242832697, 48.214251590912788 ], [ 18.38536967, 48.21421816 ], [ 18.385408853581538, 48.214173631716569 ], [ 18.385525, 48.214041 ], [ 18.385751529999396, 48.213784266000687 ], [ 18.38584036, 48.21368334 ], [ 18.385983092179821, 48.213562173408619 ], [ 18.386237, 48.213346 ], [ 18.38663, 48.213044 ], [ 18.387297, 48.212531 ], [ 18.387430825667114, 48.21243254254491 ], [ 18.38757674, 48.21232477 ], [ 18.38796636, 48.21201877 ], [ 18.38846989, 48.2116459 ], [ 18.388720083273661, 48.211460850628974 ], [ 18.38904, 48.211224 ], [ 18.389291, 48.211038 ], [ 18.389320234583007, 48.211038 ], [ 18.38934679, 48.21103777 ], [ 18.389353034889826, 48.21103769825551 ], [ 18.389367, 48.211037 ], [ 18.389370561342975, 48.211033886111153 ], [ 18.38942532, 48.21098055 ], [ 18.3899001, 48.21056995 ], [ 18.389903621634712, 48.210567800562607 ], [ 18.3899122, 48.2105603 ], [ 18.390227606244551, 48.210370055852373 ], [ 18.39036493, 48.21028624 ], [ 18.39147616, 48.20960782 ], [ 18.391573108865906, 48.209558486634108 ], [ 18.3916021, 48.209541 ], [ 18.3926322, 48.2091501 ], [ 18.39308524134146, 48.208947463531253 ], [ 18.39319857, 48.20889581 ], [ 18.393365432377895, 48.208822139599413 ], [ 18.3939761, 48.208549 ], [ 18.3960757, 48.2081303 ], [ 18.39639679272922, 48.208104695715818 ], [ 18.39724632, 48.20803017 ], [ 18.39801242, 48.20797063 ], [ 18.398665946057164, 48.207923750956311 ], [ 18.399799, 48.2078334 ], [ 18.4023792, 48.2081468 ], [ 18.403090257153099, 48.208137454910641 ], [ 18.40370096, 48.20812205 ], [ 18.40522713, 48.20809126 ], [ 18.406678734408143, 48.208090293243728 ], [ 18.4074315, 48.2080804 ], [ 18.4097389, 48.2079766 ], [ 18.41028, 48.2077408 ], [ 18.411294158359599, 48.207285210992723 ], [ 18.41158631, 48.20663975 ], [ 18.41199699, 48.20578385 ], [ 18.41230301, 48.2049773 ], [ 18.41270767, 48.20392539 ], [ 18.41297137, 48.20320077 ], [ 18.41340318, 48.20211527 ], [ 18.41341538762611, 48.202105932285988 ], [ 18.4134154, 48.2021059 ], [ 18.413425349150661, 48.202098312633609 ], [ 18.41361246, 48.20195519 ], [ 18.41376612, 48.20183802 ], [ 18.41465418, 48.20116085 ], [ 18.415005550981487, 48.20089322783106 ], [ 18.4151733, 48.2007653 ], [ 18.4211669, 48.1967934 ], [ 18.422106361222824, 48.196166731741918 ], [ 18.4220026, 48.19617675 ], [ 18.42090751, 48.19631878 ], [ 18.42044192, 48.19638108 ], [ 18.42005571, 48.1963982 ], [ 18.41971432, 48.19636052 ], [ 18.41939902, 48.19628496 ], [ 18.4192284, 48.19610543 ], [ 18.419021804676383, 48.195903347907176 ], [ 18.41863360197604, 48.19553272988481 ], [ 18.41847147, 48.19540198 ], [ 18.41830367, 48.19524625 ], [ 18.41824036, 48.19517853 ], [ 18.41816894, 48.1950422 ], [ 18.41815545, 48.19500669 ], [ 18.4181713, 48.19498692 ], [ 18.41805072, 48.19488402 ], [ 18.41802992, 48.19476598 ], [ 18.41801193, 48.19466848 ], [ 18.41796813, 48.19441873 ], [ 18.41783259, 48.19407835 ], [ 18.41762143, 48.19380258 ], [ 18.4175855, 48.19373296 ], [ 18.41698709, 48.19327334 ], [ 18.41641615, 48.1928648 ], [ 18.41605658, 48.19253385 ], [ 18.41601254, 48.19250836 ], [ 18.4153804, 48.19222815 ], [ 18.41497088, 48.19211741 ], [ 18.41491868, 48.19211176 ], [ 18.41463006, 48.19210014 ], [ 18.414503672396879, 48.192114251088647 ], [ 18.414239632219513, 48.192158346329535 ], [ 18.41385503, 48.19223184 ], [ 18.41345895, 48.19231156 ], [ 18.41282368, 48.19242557 ], [ 18.41219349, 48.19251424 ], [ 18.41194652, 48.19254818 ], [ 18.41186675, 48.19255353 ], [ 18.41158089, 48.19253818 ], [ 18.41141037, 48.192547 ], [ 18.41103332, 48.19257949 ], [ 18.41077788, 48.19260782 ], [ 18.41048095, 48.19265474 ], [ 18.41015379, 48.19267045 ], [ 18.41002937, 48.19267013 ], [ 18.40984319, 48.1926093 ], [ 18.40969573, 48.19248638 ], [ 18.40955306, 48.19236617 ], [ 18.40946107, 48.19231731 ], [ 18.4092, 48.1921833 ], [ 18.40917373, 48.19215818 ], [ 18.409166, 48.19202119 ], [ 18.409176836360334, 48.191914263476683 ], [ 18.40917662210806, 48.191908657496761 ], [ 18.40914325, 48.19175898 ], [ 18.40913352, 48.19170004 ], [ 18.40914866, 48.19150892 ], [ 18.409180001574171, 48.191382635145587 ], [ 18.409294052650925, 48.190678789096268 ], [ 18.40930867, 48.19052368 ], [ 18.40933854, 48.19033889 ], [ 18.409365750532732, 48.190263723679038 ], [ 18.409643407317194, 48.189055796686695 ], [ 18.40967699, 48.18885799 ], [ 18.40969749, 48.18877765 ], [ 18.40974387, 48.1886965 ], [ 18.40989183, 48.18843668 ], [ 18.40997647, 48.188339 ], [ 18.409988260457094, 48.188330490710278 ], [ 18.4099887, 48.1883298 ], [ 18.410272792599155, 48.188107651017532 ], [ 18.41028487, 48.18809768 ], [ 18.410341034392339, 48.188039292260967 ], [ 18.410429104565605, 48.18794049957517 ], [ 18.41063093, 48.18769647 ], [ 18.41078083, 48.18754136 ], [ 18.41095957, 48.18698625 ], [ 18.41102169, 48.18655679 ], [ 18.41103275, 48.18646887 ], [ 18.41110313, 48.18634602 ], [ 18.41124403, 48.18615295 ], [ 18.41139864, 48.18593881 ], [ 18.41142959, 48.18589344 ], [ 18.4114848, 48.18576459 ], [ 18.41152884, 48.18564297 ], [ 18.411539564918563, 48.185637015039404 ], [ 18.4115408, 48.1856339 ], [ 18.411563852932591, 48.185623529233823 ], [ 18.41178669, 48.1854998 ], [ 18.412121, 48.18528187 ], [ 18.41253951, 48.1850202 ], [ 18.41284598, 48.18482399 ], [ 18.41283192, 48.18480921 ], [ 18.41256901, 48.18453223 ], [ 18.41196806, 48.18408868 ], [ 18.41189327, 48.18403411 ], [ 18.41178781, 48.18397231 ], [ 18.41138933, 48.18365097 ], [ 18.41126013, 48.18354397 ], [ 18.4109037, 48.18321778 ], [ 18.41078277, 48.18310303 ], [ 18.41062389, 48.18291981 ], [ 18.41063785, 48.18274974 ], [ 18.41098899, 48.18243023 ], [ 18.41095511, 48.18242057 ], [ 18.41093872, 48.18239212 ], [ 18.41091553, 48.18234794 ], [ 18.41089564, 48.18223996 ], [ 18.41087296, 48.18214987 ], [ 18.41083953, 48.18213021 ], [ 18.41070415, 48.18200915 ], [ 18.410639289813126, 48.18194441239195 ], [ 18.410532117426779, 48.181858884082544 ], [ 18.41046347, 48.18181961 ], [ 18.41042671, 48.18178036 ], [ 18.410346063931165, 48.181710405155442 ], [ 18.410278878758668, 48.181656788413136 ], [ 18.4101366, 48.18156222 ], [ 18.40983601, 48.18125893 ], [ 18.40946344, 48.18097749 ], [ 18.4091629, 48.18077258 ], [ 18.40901454, 48.18077615 ], [ 18.40802573, 48.18008122 ], [ 18.40736105, 48.17961067 ], [ 18.40677146, 48.17919345 ], [ 18.40670160637492, 48.179246700028152 ], [ 18.4066576, 48.1792805 ], [ 18.406657445012325, 48.179280364620347 ], [ 18.40664533, 48.1792896 ], [ 18.4065602, 48.17921432 ], [ 18.40607601, 48.17879075 ], [ 18.40594217, 48.17867364 ], [ 18.4056708, 48.17843877 ], [ 18.4054837, 48.17821731 ], [ 18.40544481, 48.17817144 ], [ 18.40530998, 48.17801176 ], [ 18.40528568, 48.17798296 ], [ 18.40522049, 48.17790582 ], [ 18.40465965, 48.17724227 ], [ 18.40381467, 48.17625151 ], [ 18.4034329, 48.17579832 ], [ 18.403446158919927, 48.175791092431929 ], [ 18.4034449, 48.1757896 ], [ 18.4042574, 48.1753356 ], [ 18.4043986, 48.1754043 ], [ 18.405004846406786, 48.174963883854275 ], [ 18.40506222, 48.17478925 ], [ 18.40464419, 48.17432923 ], [ 18.404658407630258, 48.174322320965416 ], [ 18.4046563, 48.17432 ], [ 18.404793441319367, 48.174256717611463 ], [ 18.40497229, 48.17417009 ], [ 18.405002968849026, 48.174160033383828 ], [ 18.405029789757755, 48.174147657163623 ], [ 18.40468971, 48.17369748 ], [ 18.40446802, 48.17340584 ], [ 18.40408455, 48.17287087 ], [ 18.40406733, 48.17284688 ], [ 18.40405346, 48.17282733 ], [ 18.4037449, 48.17239405 ], [ 18.40344198, 48.17195676 ], [ 18.4032173, 48.17163218 ], [ 18.40285362, 48.17133993 ], [ 18.40262753, 48.17115842 ], [ 18.40234557, 48.1709502 ], [ 18.40210586, 48.17080609 ], [ 18.40188275, 48.17066202 ], [ 18.40164714, 48.1707908 ], [ 18.40114556, 48.17040341 ], [ 18.40040474, 48.16981688 ], [ 18.40009979, 48.16958236 ], [ 18.40004075, 48.16953588 ], [ 18.400037463885571, 48.169532972844401 ], [ 18.39999523662512, 48.16950046451143 ], [ 18.39998209, 48.16950992 ], [ 18.39967994, 48.16927574 ], [ 18.39953834, 48.16916378 ], [ 18.39948976, 48.1691253 ], [ 18.3994744, 48.16911442 ], [ 18.39942088, 48.16907656 ], [ 18.39938969, 48.16904565 ], [ 18.399374478132216, 48.169020016017981 ], [ 18.399044959757582, 48.168751836838311 ], [ 18.39869462, 48.16849147 ], [ 18.39838976, 48.16823826 ], [ 18.39829673, 48.16811027 ], [ 18.39822967, 48.16804394 ], [ 18.39801126, 48.16790337 ], [ 18.39776803, 48.16777142 ], [ 18.39728394, 48.16756154 ], [ 18.39699783, 48.16746796 ], [ 18.396658, 48.16737668 ], [ 18.39619716, 48.16725854 ], [ 18.39617271, 48.16725237 ], [ 18.39596071, 48.16716704 ], [ 18.39566178, 48.16709918 ], [ 18.39540637, 48.16703396 ], [ 18.39519754, 48.16696523 ], [ 18.39508495, 48.1669337 ], [ 18.39494479, 48.16690566 ], [ 18.39475531, 48.16687936 ], [ 18.39453, 48.16686222 ], [ 18.39431282, 48.16684158 ], [ 18.39401886, 48.16680387 ], [ 18.39382928, 48.16676655 ], [ 18.39367806, 48.16674069 ], [ 18.39343909, 48.1666735 ], [ 18.39332928, 48.16664555 ], [ 18.39293095, 48.16648444 ], [ 18.39272219, 48.16640659 ], [ 18.39256836, 48.16634367 ], [ 18.39246123, 48.16630305 ], [ 18.3922937, 48.16622148 ], [ 18.39225099246088, 48.166202841487483 ], [ 18.392171885949491, 48.166171370437816 ], [ 18.39196406, 48.16610296 ], [ 18.39183505, 48.16606581 ], [ 18.39132391, 48.16593587 ], [ 18.39114258, 48.16593908 ], [ 18.39106437, 48.16593124 ], [ 18.391026188204851, 48.165927388552163 ], [ 18.390958061674961, 48.165934428293589 ], [ 18.390955103053649, 48.165936581534233 ], [ 18.3904267, 48.1667439 ], [ 18.390420025705858, 48.166744857844307 ], [ 18.39041474, 48.16675281 ], [ 18.39026222, 48.16677471 ], [ 18.390192420794069, 48.166812692589751 ], [ 18.390043318283496, 48.166898293358997 ], [ 18.389990778399863, 48.166930057854323 ], [ 18.389958, 48.1670333 ], [ 18.389948093531899, 48.167035861899983 ], [ 18.38994586, 48.16704296 ], [ 18.389662678939068, 48.167115409611057 ], [ 18.3894513, 48.1674165 ], [ 18.389443361614351, 48.167419150844864 ], [ 18.38943942, 48.16742539 ], [ 18.38939899, 48.16744107 ], [ 18.38929344, 48.16748204 ], [ 18.38927642, 48.16748866 ], [ 18.38910479, 48.16756246 ], [ 18.38896593, 48.16759695 ], [ 18.38889316, 48.16761865 ], [ 18.38848549, 48.16774437 ], [ 18.38837403, 48.16776055 ], [ 18.38829431, 48.16777212 ], [ 18.38783857, 48.16784999 ], [ 18.38772825, 48.16786885 ], [ 18.38767943, 48.1678772 ], [ 18.38757993, 48.16789486 ], [ 18.38721985, 48.16795874 ], [ 18.38701117, 48.16804497 ], [ 18.38692505, 48.16808054 ], [ 18.386608060842487, 48.1682023503162 ], [ 18.386592018474513, 48.168271616523612 ], [ 18.38659003, 48.16829655 ], [ 18.38654172, 48.16858418 ], [ 18.38650125, 48.16870491 ], [ 18.386478281151302, 48.168762700697322 ], [ 18.3864664, 48.168814 ], [ 18.386408308121872, 48.168914637879595 ], [ 18.38640052, 48.16894391 ], [ 18.38629023, 48.16913462 ], [ 18.38618295, 48.16935384 ], [ 18.38609282, 48.16948747 ], [ 18.38604943, 48.16955109 ], [ 18.385994150039544, 48.169632121847528 ], [ 18.3859638, 48.1696847 ], [ 18.385934770516954, 48.169712203300662 ], [ 18.38584968, 48.16980272 ], [ 18.38560693, 48.17004552 ], [ 18.385425142343983, 48.170195038521896 ], [ 18.3854198, 48.1702001 ], [ 18.385408819526507, 48.17020846387539 ], [ 18.38540773, 48.17020936 ], [ 18.385393980291742, 48.170219766986357 ], [ 18.383946, 48.1713227 ], [ 18.383944743615313, 48.171323371277616 ], [ 18.3839341, 48.17133193 ], [ 18.38373473, 48.17145433 ], [ 18.38348515, 48.17158112 ], [ 18.38325679, 48.17170117 ], [ 18.38296132, 48.17185153 ], [ 18.38282512, 48.17193635 ], [ 18.38232331, 48.17225566 ], [ 18.38175561, 48.17261483 ], [ 18.38168286, 48.1726609 ], [ 18.38160864, 48.17270788 ], [ 18.38092063, 48.17314022 ], [ 18.38045161, 48.1734241 ], [ 18.38029275, 48.17350447 ], [ 18.38003682, 48.17363758 ], [ 18.37991336, 48.1737315 ], [ 18.379889528929795, 48.173747201142035 ], [ 18.3797394, 48.1738593 ], [ 18.379736719925795, 48.173860693965729 ], [ 18.37972758, 48.17386902 ], [ 18.37956783, 48.17394997 ], [ 18.37920309, 48.17414109 ], [ 18.37901308, 48.17421916 ], [ 18.37895401, 48.17424344 ], [ 18.37866922, 48.17436245 ], [ 18.37810592, 48.1745946 ], [ 18.37781475, 48.17471595 ], [ 18.37761584, 48.17479821 ], [ 18.37732911, 48.17490266 ], [ 18.37727139, 48.17492368 ], [ 18.37704615, 48.17501248 ], [ 18.37702616, 48.17502326 ], [ 18.376981797064463, 48.175047259939696 ], [ 18.376679883241319, 48.175222386722353 ], [ 18.376614075278017, 48.175262799374835 ], [ 18.376612761844513, 48.175263810089824 ], [ 18.37653015, 48.17533033 ], [ 18.37651077, 48.17534593 ], [ 18.37642097, 48.17541793 ], [ 18.376353245731991, 48.175463513252964 ], [ 18.3750635, 48.176456 ], [ 18.3750587603095, 48.176459053541336 ], [ 18.37505154, 48.17646588 ], [ 18.37492855, 48.17654421 ], [ 18.37460929, 48.17675098 ], [ 18.374544597383917, 48.176790302543282 ], [ 18.373189919190118, 48.177663052750113 ], [ 18.373166662888369, 48.177679616764735 ], [ 18.3723013, 48.1783993 ], [ 18.3703053, 48.1804029 ], [ 18.369926691399272, 48.180867646364277 ], [ 18.36970978, 48.18113864 ], [ 18.36949954, 48.18140708 ], [ 18.36926551, 48.18169069 ], [ 18.36911313, 48.18187837 ], [ 18.36908101, 48.18191572 ], [ 18.36906107, 48.18193671 ], [ 18.369019430062121, 48.181981319976245 ], [ 18.3688768, 48.1821564 ], [ 18.368860004692014, 48.18217080493099 ], [ 18.36878526, 48.18224015 ], [ 18.36861005, 48.18239062 ], [ 18.36848962, 48.18248796 ], [ 18.36838259, 48.18255726 ], [ 18.36821576, 48.18264584 ], [ 18.36813895, 48.1826886 ], [ 18.36790474, 48.18281903 ], [ 18.36786417, 48.182842 ], [ 18.36785356, 48.18284799 ], [ 18.36756797, 48.18301107 ], [ 18.3673133, 48.18314954 ], [ 18.36717922, 48.18322246 ], [ 18.36710951, 48.1832603 ], [ 18.36699497, 48.18332277 ], [ 18.366857, 48.18339763 ], [ 18.3668009, 48.18342821 ], [ 18.36675017, 48.18345575 ], [ 18.36673336, 48.18346491 ], [ 18.36654157, 48.18356931 ], [ 18.36634964, 48.18367378 ], [ 18.36584948, 48.18392606 ], [ 18.365817816113385, 48.183945625250587 ], [ 18.364869981361547, 48.184565221207428 ], [ 18.36485241, 48.18457738 ], [ 18.3643603, 48.18491514 ], [ 18.36390748, 48.18522397 ], [ 18.36381439, 48.18528757 ], [ 18.36332926, 48.18560522 ], [ 18.36294055, 48.18586282 ], [ 18.36273033, 48.18599649 ], [ 18.36266262, 48.18603868 ], [ 18.36263878, 48.1860543 ], [ 18.36239267, 48.18620589 ], [ 18.36234688, 48.18623389 ], [ 18.3622051, 48.18632053 ], [ 18.36194738, 48.18648491 ], [ 18.36166308, 48.18666411 ], [ 18.361499652568636, 48.186768392265726 ], [ 18.360963, 48.1871192 ], [ 18.360960267466595, 48.187120687172644 ], [ 18.36095097, 48.18712811 ], [ 18.36091072, 48.18715065 ], [ 18.36074725, 48.18724229 ], [ 18.36030323, 48.18747923 ], [ 18.3602009, 48.18753472 ], [ 18.36016453, 48.18755441 ], [ 18.359876371626029, 48.187710594048184 ], [ 18.359162731497207, 48.188098990426226 ], [ 18.35913982, 48.18811169 ], [ 18.35907266, 48.18814841 ], [ 18.35900108, 48.18818704 ], [ 18.35892429, 48.18822953 ], [ 18.35884961, 48.18827024 ], [ 18.3587906, 48.18830237 ], [ 18.35873787, 48.18833395 ], [ 18.3586399, 48.18838589 ], [ 18.35862779, 48.18839197 ], [ 18.35849474, 48.18845862 ], [ 18.35846856, 48.18845966 ], [ 18.35842483, 48.18847668 ], [ 18.35836749, 48.18849987 ], [ 18.35831554, 48.1885231 ], [ 18.35823859, 48.18855619 ], [ 18.35815655, 48.18859216 ], [ 18.35810835, 48.18861352 ], [ 18.35806573, 48.18863132 ], [ 18.358011, 48.18865521 ], [ 18.35793613, 48.18868896 ], [ 18.35784775, 48.18872808 ], [ 18.35769559, 48.1887932 ], [ 18.35764232, 48.18881518 ], [ 18.35754373, 48.18885182 ], [ 18.3574518, 48.18888696 ], [ 18.35726447, 48.18895486 ], [ 18.35708729, 48.18902035 ], [ 18.35696249, 48.18906463 ], [ 18.35687887, 48.18909491 ], [ 18.35679851, 48.18912402 ], [ 18.35659242658279, 48.189198592318327 ], [ 18.356423416971015, 48.189261151680952 ], [ 18.35638617, 48.18927582 ], [ 18.35630477, 48.18930568 ], [ 18.35614394, 48.18936894 ], [ 18.35599876, 48.18942371 ], [ 18.35576698, 48.18951535 ], [ 18.35560548, 48.18957749 ], [ 18.3554477, 48.18964012 ], [ 18.35530469, 48.18969906 ], [ 18.35515412, 48.18975804 ], [ 18.355057, 48.18979368 ], [ 18.35492237, 48.18984191 ], [ 18.35437735, 48.19003718 ], [ 18.35423398, 48.19008943 ], [ 18.35407238, 48.19014912 ], [ 18.35362744, 48.19030773 ], [ 18.35357751, 48.19032674 ], [ 18.35352468, 48.19034522 ], [ 18.35342664, 48.19038172 ], [ 18.35333779, 48.19041386 ], [ 18.35323254, 48.19045076 ], [ 18.35313177, 48.19048638 ], [ 18.35307443, 48.19050633 ], [ 18.3530288, 48.19052441 ], [ 18.35297352, 48.19054302 ], [ 18.3528707, 48.19058105 ], [ 18.35283529, 48.19059411 ], [ 18.35278192, 48.19061365 ], [ 18.35260857, 48.19067873 ], [ 18.35255811, 48.19069653 ], [ 18.35251956, 48.19070887 ], [ 18.35245066, 48.19073484 ], [ 18.35237343, 48.19076051 ], [ 18.352367883365641, 48.190762318359084 ], [ 18.351088947207231, 48.191235720019947 ], [ 18.35102073, 48.1912631 ], [ 18.35095562, 48.19129 ], [ 18.3508727, 48.19130939 ], [ 18.35067192, 48.19134592 ], [ 18.350445, 48.19138737 ], [ 18.35030011, 48.19141326 ], [ 18.35015507, 48.19143923 ], [ 18.34985838, 48.19149324 ], [ 18.34964935, 48.19153093 ], [ 18.34933507, 48.19158953 ], [ 18.349198949607466, 48.191616256523837 ], [ 18.349330546302966, 48.191657068157248 ], [ 18.34934077, 48.19165945 ], [ 18.34971626, 48.19177364 ], [ 18.35000115, 48.19186031 ], [ 18.35015336155902, 48.191906611422127 ], [ 18.350315, 48.191955 ], [ 18.350715, 48.192077 ], [ 18.350821, 48.19211 ], [ 18.350837237454005, 48.192115018849421 ], [ 18.35120613, 48.19222884 ], [ 18.35140311486677, 48.192289611548176 ], [ 18.351593, 48.192348 ], [ 18.35175530274962, 48.192398259914917 ], [ 18.35225459, 48.19255228 ], [ 18.35268539768537, 48.192693295378099 ], [ 18.352979, 48.192789 ], [ 18.353158, 48.192848 ], [ 18.353218118972045, 48.192867573618805 ], [ 18.3536064, 48.19299375 ], [ 18.35367407, 48.19301573 ], [ 18.35389279, 48.19308681 ], [ 18.35391188, 48.19309376 ], [ 18.3541052, 48.19316394 ], [ 18.354255617880334, 48.193196920349088 ], [ 18.354622, 48.193277 ], [ 18.354646783576115, 48.193282948058268 ], [ 18.35467239, 48.19328883 ], [ 18.35529522, 48.19341885 ], [ 18.355347987570248, 48.193429863533268 ], [ 18.355531, 48.193468 ], [ 18.355766, 48.193517 ], [ 18.355848, 48.193534 ], [ 18.355848135697066, 48.193534211255653 ], [ 18.35584837, 48.19353426 ], [ 18.356027474548142, 48.193813409239723 ], [ 18.3562, 48.194082 ], [ 18.356343, 48.194313 ], [ 18.356495, 48.194559 ], [ 18.356718, 48.194892 ], [ 18.356929, 48.195261 ], [ 18.357149961078818, 48.195658859537815 ], [ 18.35727007, 48.19587455 ], [ 18.357269854225137, 48.195874737519752 ], [ 18.35727, 48.195875 ], [ 18.357062018251668, 48.196055984117535 ], [ 18.35705881, 48.19611701 ], [ 18.357055141474486, 48.196187250301016 ], [ 18.357057136447345, 48.196190779868381 ], [ 18.35706295, 48.19620037 ], [ 18.3570684, 48.19620953 ], [ 18.35706825, 48.19626819 ], [ 18.3570682, 48.19628452 ], [ 18.35706822, 48.1963014 ], [ 18.35706809, 48.19631836 ], [ 18.357068, 48.19636692 ], [ 18.357068, 48.196426 ], [ 18.357076752804314, 48.19645061726213 ], [ 18.35708529, 48.19647431 ], [ 18.35709934, 48.19651365 ], [ 18.3571136, 48.19655336 ], [ 18.35711639, 48.19656119 ], [ 18.357118976107078, 48.19656844026769 ], [ 18.357126, 48.196586 ], [ 18.357134520408835, 48.196610905810438 ], [ 18.35713938, 48.19662369 ], [ 18.35715318, 48.1966585 ], [ 18.357170582807139, 48.19670232906045 ], [ 18.357181, 48.196728 ], [ 18.357214, 48.19681 ], [ 18.357234351031536, 48.196866356702714 ], [ 18.35724004, 48.19688159 ], [ 18.35724519, 48.19689524 ], [ 18.35724589, 48.19689717 ], [ 18.35724832, 48.19690354 ], [ 18.35725146, 48.19691175 ], [ 18.357255931183243, 48.196923680185478 ], [ 18.357258, 48.196929 ], [ 18.357259249526958, 48.196932540326372 ], [ 18.35726417, 48.19694569 ], [ 18.35729048, 48.19701605 ], [ 18.35729138, 48.19701853 ], [ 18.357297582808958, 48.197035203837437 ], [ 18.357304, 48.197051 ], [ 18.35730843023256, 48.197064290697675 ], [ 18.35731342, 48.19707782 ], [ 18.3573163, 48.19708602 ], [ 18.35732605, 48.19711446 ], [ 18.3573378, 48.19714852 ], [ 18.35733827, 48.19715008 ], [ 18.3573474, 48.19717921 ], [ 18.357348804470444, 48.197183675631926 ], [ 18.357353, 48.197196 ], [ 18.35736, 48.197218 ], [ 18.357364777826074, 48.197234456956487 ], [ 18.35736923, 48.19724869 ], [ 18.35737079, 48.19725347 ], [ 18.35737819, 48.19727709 ], [ 18.357384128906695, 48.197295875977858 ], [ 18.35739, 48.197313 ], [ 18.357411, 48.197381 ], [ 18.357413097372248, 48.197387991240831 ], [ 18.35741658, 48.19739904 ], [ 18.35742033, 48.19741098 ], [ 18.35742552, 48.19742752 ], [ 18.3574282, 48.19743616 ], [ 18.357431149629669, 48.197445448889013 ], [ 18.357439, 48.197469 ], [ 18.357443644827562, 48.197485256896478 ], [ 18.35744504, 48.19748965 ], [ 18.357450544785326, 48.197506264703627 ], [ 18.35746, 48.197534 ], [ 18.357465382352974, 48.197549788235385 ], [ 18.35747046, 48.19756384 ], [ 18.35747545, 48.19757775 ], [ 18.35748507300546, 48.197604441639328 ], [ 18.357491, 48.19762 ], [ 18.357497657237356, 48.197639305988332 ], [ 18.35750112, 48.19764889 ], [ 18.35750312, 48.19765441 ], [ 18.35751921, 48.19769892 ], [ 18.35752182, 48.19770602 ], [ 18.3575427, 48.1977638 ], [ 18.35754341, 48.19776564 ], [ 18.35755592, 48.19779578 ], [ 18.35755664, 48.19779762 ], [ 18.357567579259268, 48.197824053333349 ], [ 18.357568, 48.197825 ], [ 18.357575, 48.197841 ], [ 18.357586944542913, 48.197870861357281 ], [ 18.35759343, 48.19788645 ], [ 18.35759528, 48.19789098 ], [ 18.357604777373247, 48.197913899637342 ], [ 18.357633, 48.19798 ], [ 18.357644658510196, 48.198010117818008 ], [ 18.35764531, 48.19801169 ], [ 18.35764953, 48.19802204 ], [ 18.35765812, 48.19804266 ], [ 18.35767103, 48.1980739 ], [ 18.35768064, 48.19809719 ], [ 18.35768715, 48.1981129 ], [ 18.35770738, 48.19816197 ], [ 18.35771099, 48.19817075 ], [ 18.357713161723993, 48.198176006097668 ], [ 18.35773, 48.198215 ], [ 18.357743, 48.198263 ], [ 18.35775345195276, 48.198302568106882 ], [ 18.35775553, 48.19831029 ], [ 18.35775691, 48.19831534 ], [ 18.35775783, 48.19831873 ], [ 18.35776381, 48.19834082 ], [ 18.35776803, 48.19835649 ], [ 18.35777051, 48.19836566 ], [ 18.35777604, 48.19838592 ], [ 18.357798230890914, 48.198467513266685 ], [ 18.357809, 48.198507 ], [ 18.357813, 48.198525 ], [ 18.357816518091667, 48.198544098211897 ], [ 18.35782038, 48.19856318 ], [ 18.3578264, 48.19859339 ], [ 18.357831406428598, 48.198618131071562 ], [ 18.357844, 48.198679 ], [ 18.357847019906554, 48.198695609486045 ], [ 18.3578482, 48.19870141 ], [ 18.35784953, 48.19871538 ], [ 18.35785243, 48.19874894 ], [ 18.35785617, 48.19879076 ], [ 18.35786066, 48.19884156 ], [ 18.35786439, 48.19888456 ], [ 18.357871690508009, 48.199013431483785 ], [ 18.357874, 48.199052 ], [ 18.357876093268594, 48.199098284494454 ], [ 18.35787759, 48.19912955 ], [ 18.35788153, 48.19921236 ], [ 18.3578834, 48.19925083 ], [ 18.35788427, 48.1992886 ], [ 18.35788519, 48.19933036 ], [ 18.35788653, 48.19939425 ], [ 18.35788309, 48.19946924 ], [ 18.357844463959342, 48.199515859825439 ], [ 18.357758, 48.199621 ], [ 18.357693189122518, 48.199690553136811 ], [ 18.35765135, 48.19973572 ], [ 18.35763509, 48.19975321 ], [ 18.35760461, 48.19978596 ], [ 18.357550593044081, 48.199843601961859 ], [ 18.357526, 48.19987 ], [ 18.357509599569752, 48.199889310183998 ], [ 18.35748968, 48.19991285 ], [ 18.35745269, 48.19995642 ], [ 18.35739012, 48.20003031 ], [ 18.35735962, 48.2000664 ], [ 18.35731976, 48.20011342 ], [ 18.35727815, 48.2001626 ], [ 18.35726281, 48.20017924 ], [ 18.35721594, 48.20023047 ], [ 18.35718099, 48.20026865 ], [ 18.35714917, 48.2003034 ], [ 18.357063971660491, 48.200400923632706 ], [ 18.356938, 48.200546 ], [ 18.356776, 48.200724 ], [ 18.356617, 48.200905 ], [ 18.356505, 48.201021 ], [ 18.356204, 48.201309 ], [ 18.355827, 48.201658 ], [ 18.355483, 48.201986 ], [ 18.355391, 48.202082 ], [ 18.355315, 48.20217 ], [ 18.355232, 48.202273 ], [ 18.355163, 48.202374 ], [ 18.355094132901243, 48.202460472221745 ], [ 18.35503013, 48.20254124 ], [ 18.35501219, 48.20256233 ], [ 18.35492971, 48.20265902 ], [ 18.354895345973592, 48.202699360721198 ], [ 18.354746, 48.202875 ], [ 18.354668570894262, 48.202966391731366 ], [ 18.35465777, 48.20297918 ], [ 18.35463901, 48.20300149 ], [ 18.35460486, 48.20304179 ], [ 18.35455306, 48.20310312 ], [ 18.35452746, 48.20313353 ], [ 18.35448982, 48.20317797 ], [ 18.35446819, 48.20320364 ], [ 18.35444134, 48.20323542 ], [ 18.35440498, 48.2032793 ], [ 18.35440328, 48.20328101 ], [ 18.35433218, 48.20335396 ], [ 18.354301931427692, 48.203384068572305 ], [ 18.354226, 48.20346 ], [ 18.354144, 48.203548 ], [ 18.354095719842292, 48.203595590441168 ], [ 18.3540742, 48.20361733 ], [ 18.35403128, 48.20367889 ], [ 18.354026056637213, 48.20368254274333 ], [ 18.353971, 48.203722 ], [ 18.353916, 48.20376 ], [ 18.353859, 48.203791 ], [ 18.353658, 48.203878 ], [ 18.353581376284243, 48.203913074236091 ], [ 18.35351594, 48.20394326 ], [ 18.35340025, 48.20401324 ], [ 18.353361369417435, 48.204036412474281 ], [ 18.353268, 48.204093 ], [ 18.353106, 48.204195 ], [ 18.352915, 48.204311 ], [ 18.352785, 48.204392 ], [ 18.352760499211037, 48.204407000483037 ], [ 18.35273611, 48.20442225 ], [ 18.3525709, 48.20452281 ], [ 18.352489952661209, 48.20456916689389 ], [ 18.352449, 48.204593 ], [ 18.35233, 48.204656 ], [ 18.352188, 48.204783 ], [ 18.352125, 48.204838 ], [ 18.352047327035738, 48.204901802792072 ], [ 18.35192937, 48.20499926 ], [ 18.35182715, 48.20508751 ], [ 18.351694057875218, 48.205194619815295 ], [ 18.351659, 48.205223 ], [ 18.351618, 48.205264 ], [ 18.351513, 48.205366 ], [ 18.351374, 48.205511 ], [ 18.3513, 48.205585 ], [ 18.351258, 48.205627 ], [ 18.351129, 48.20569 ], [ 18.350938, 48.20577 ], [ 18.350916, 48.20578 ], [ 18.35083, 48.205819 ], [ 18.350798716455991, 48.205832903797337 ], [ 18.35074015, 48.20585945 ], [ 18.350721059824931, 48.205868058344599 ], [ 18.350717, 48.20587 ], [ 18.35067831638279, 48.205889559132295 ], [ 18.35062816, 48.2059151 ], [ 18.35060855297808, 48.205925097492148 ], [ 18.350576, 48.205942 ], [ 18.350515, 48.205973 ], [ 18.350508360599036, 48.205976124423984 ], [ 18.35049837, 48.20598121 ], [ 18.35037127, 48.20603889 ], [ 18.350368656999041, 48.206040076513951 ], [ 18.350297, 48.206073 ], [ 18.350185, 48.206163 ], [ 18.350132, 48.206206 ], [ 18.350109, 48.206224 ], [ 18.350101392599999, 48.206229071599999 ], [ 18.35009686, 48.20623253 ], [ 18.34994296, 48.20635025 ], [ 18.349929510914631, 48.20635963506097 ], [ 18.349929, 48.20636 ], [ 18.349882, 48.206393 ], [ 18.349834, 48.206427 ], [ 18.349745, 48.206467 ], [ 18.349739281037387, 48.206469502046147 ], [ 18.34972813, 48.20647453 ], [ 18.3495696, 48.20652871 ], [ 18.349471256390132, 48.206549118575516 ], [ 18.349397, 48.206565 ], [ 18.349296, 48.206586 ], [ 18.349248, 48.206596 ], [ 18.349146611824274, 48.206617185588954 ], [ 18.34911404, 48.20662407 ], [ 18.349107489619371, 48.206625446751246 ], [ 18.349042, 48.20664 ], [ 18.348976, 48.206653 ], [ 18.348834, 48.206682 ], [ 18.348765, 48.206697 ], [ 18.348697178102597, 48.206711694744435 ], [ 18.34864504, 48.20672318 ], [ 18.34863184, 48.20672604 ], [ 18.348626381784722, 48.206726921018898 ], [ 18.348571, 48.206736 ], [ 18.34846, 48.206754 ], [ 18.348454, 48.206755 ], [ 18.348281353935846, 48.2067762739226 ], [ 18.34824229, 48.20678119 ], [ 18.348073673875582, 48.20680691726394 ], [ 18.348047082222891, 48.206810987414869 ], [ 18.34804605044992, 48.206811181828741 ], [ 18.348, 48.20682 ], [ 18.347977993125365, 48.206824001249934 ], [ 18.34794506, 48.2068302 ], [ 18.347872535317645, 48.206844273346526 ], [ 18.347813, 48.206856 ], [ 18.347664, 48.206895 ], [ 18.347571, 48.206933 ], [ 18.347533, 48.206949 ], [ 18.347446, 48.207006 ], [ 18.347385748719777, 48.207033762844809 ], [ 18.34734389, 48.20705331 ], [ 18.347283442452266, 48.207087663975599 ], [ 18.347199, 48.207136 ], [ 18.347027, 48.207228 ], [ 18.347015760141581, 48.207233950513285 ], [ 18.3470099, 48.20723752 ], [ 18.346969143707611, 48.207262406433919 ], [ 18.346891, 48.207311 ], [ 18.346861, 48.207325 ], [ 18.346859130378384, 48.207325 ], [ 18.34685728, 48.20732588 ], [ 18.346771161532189, 48.207366084866493 ], [ 18.346765, 48.207369 ], [ 18.346764357187727, 48.20736935062488 ], [ 18.34673172, 48.20738735 ], [ 18.346648129195465, 48.207433496796902 ], [ 18.346447, 48.207545 ], [ 18.346429851420989, 48.207549445927896 ], [ 18.34642031, 48.20755217 ], [ 18.34630931, 48.20758405 ], [ 18.34609738, 48.20765243 ], [ 18.34598453, 48.20768294 ], [ 18.34590179967131, 48.207715313232661 ], [ 18.345549777129232, 48.207853694507818 ], [ 18.34647921, 48.20811603 ], [ 18.346548145009788, 48.208157508022587 ], [ 18.347137, 48.208511 ], [ 18.347479, 48.208924 ], [ 18.347480767967912, 48.208927535935828 ], [ 18.34748103, 48.20892786 ], [ 18.347480980212946, 48.208927960425896 ], [ 18.347481, 48.208928 ], [ 18.347393, 48.209106 ], [ 18.347134, 48.209628 ], [ 18.346924044842822, 48.210043209825763 ], [ 18.346731998770178, 48.210423069484996 ], [ 18.346729903865356, 48.210541431607304 ], [ 18.34672828, 48.21064907 ], [ 18.346725541829358, 48.210831724017723 ], [ 18.346722, 48.211095 ], [ 18.346718, 48.211349 ], [ 18.346716536560699, 48.211437538077746 ], [ 18.34671605, 48.21146975 ], [ 18.346716, 48.211472504444465 ], [ 18.346716, 48.211494 ], [ 18.346714676169213, 48.211556881962295 ], [ 18.34671421, 48.21158834 ], [ 18.34670754, 48.21203493 ], [ 18.346707, 48.212070540468908 ], [ 18.346707, 48.21212 ], [ 18.346701, 48.212149 ], [ 18.3467, 48.212158 ], [ 18.346690436968309, 48.212207553891496 ], [ 18.3466891, 48.21221503 ], [ 18.346684676625724, 48.212239659245874 ], [ 18.346662, 48.212369 ], [ 18.346561630474604, 48.212925707988681 ], [ 18.34650123, 48.21326258 ], [ 18.346494504060985, 48.213300253863089 ], [ 18.346492, 48.213315 ], [ 18.346282040196879, 48.214371234565121 ], [ 18.34623113, 48.2146275 ], [ 18.346228270601664, 48.21464190943383 ], [ 18.346179, 48.214893 ], [ 18.346177208108109, 48.214899271621618 ], [ 18.34617696, 48.21490053 ], [ 18.34617431, 48.21490119 ], [ 18.346073781774141, 48.214926054556464 ], [ 18.345942, 48.214959 ], [ 18.34547, 48.215076 ], [ 18.345168276676993, 48.215133682399987 ], [ 18.34485817, 48.21519354 ], [ 18.344333283333377, 48.215294840895453 ], [ 18.34408, 48.215344 ], [ 18.344076, 48.215345 ], [ 18.344074154258472, 48.215345 ], [ 18.34407607, 48.21534959 ], [ 18.344078294293013, 48.215355047444632 ], [ 18.344081, 48.215361 ], [ 18.344094, 48.215391 ], [ 18.344103, 48.215414 ], [ 18.344115151556668, 48.215443826548189 ], [ 18.34412486, 48.21546717 ], [ 18.344158677906837, 48.215548758245994 ], [ 18.344223, 48.215703 ], [ 18.344306, 48.215885 ], [ 18.344345, 48.21597 ], [ 18.344405621864176, 48.21605776598247 ], [ 18.34441178, 48.21606664 ], [ 18.34442368304865, 48.216083786696224 ], [ 18.344792, 48.216613 ], [ 18.345077, 48.21693 ], [ 18.34567, 48.217557 ], [ 18.34626276440676, 48.218193746925976 ], [ 18.346298436404506, 48.218193437517385 ], [ 18.346326, 48.218193 ], [ 18.34641, 48.218192 ], [ 18.346451679449373, 48.218192 ], [ 18.34652299, 48.21819131 ], [ 18.346555596666629, 48.218191012222221 ], [ 18.346556, 48.218191 ], [ 18.346556917142966, 48.218191 ], [ 18.346586, 48.21819073 ], [ 18.346660879742767, 48.218321943550173 ], [ 18.346781, 48.218532 ], [ 18.347672, 48.220024 ], [ 18.34769161413945, 48.220057344037073 ], [ 18.347731283077188, 48.220058 ], [ 18.347739, 48.220058 ], [ 18.34844, 48.22007 ], [ 18.34922327228173, 48.220102376011646 ], [ 18.34981849, 48.22012688 ], [ 18.35006887, 48.22015057 ], [ 18.350164007543945, 48.220165251131597 ], [ 18.350309, 48.220187 ], [ 18.350964386116129, 48.220297690212362 ], [ 18.35135735, 48.22036368 ], [ 18.35143704142596, 48.220377770567907 ], [ 18.351543, 48.220396 ], [ 18.351657334104143, 48.220411868434383 ], [ 18.35182395, 48.2204343 ], [ 18.352102760834608, 48.220446615034774 ], [ 18.352111384905513, 48.220446974371065 ], [ 18.35247577, 48.22040476 ], [ 18.35270781, 48.2203431 ], [ 18.35294264, 48.22025208 ], [ 18.352946861565005, 48.220251114248676 ], [ 18.35344, 48.220138 ], [ 18.353719, 48.220139 ], [ 18.353936307092777, 48.220147231329271 ], [ 18.3546434, 48.22017345 ], [ 18.35490602, 48.22016993 ], [ 18.354922052367648, 48.220169718379516 ], [ 18.354963, 48.220169 ], [ 18.355020937702474, 48.220168411799975 ], [ 18.35516023, 48.22016657 ], [ 18.35836093, 48.22015479 ], [ 18.358360931584848, 48.220155000256476 ], [ 18.358361, 48.220155 ], [ 18.358361, 48.220159 ], [ 18.358360926585434, 48.220182345831319 ], [ 18.35836051, 48.22047627 ], [ 18.35836, 48.220882545 ], [ 18.35836, 48.221019 ], [ 18.358293, 48.221115 ], [ 18.358210820714884, 48.221239392960449 ], [ 18.35796434, 48.22161293 ], [ 18.357899181052311, 48.221892310738227 ], [ 18.357799, 48.222324 ], [ 18.357787409395222, 48.222371328302842 ], [ 18.35778717, 48.22237235 ], [ 18.357776858681973, 48.222414559518967 ], [ 18.357634, 48.223 ], [ 18.357627, 48.22303 ], [ 18.358005052568462, 48.222997255289343 ], [ 18.35826221, 48.22297478 ], [ 18.358405052685363, 48.222963427198486 ] ] ] } }
]
}
