{
"type": "FeatureCollection",
"name": "gis",
"crs": { "type": "name", "properties": { "name": "urn:ogc:def:crs:OGC:1.3:CRS84" } },
"features": [
{ "type": "Feature", "properties": { "@featureType": "CadastralZoning", "beginLifespanVersion": { "@nilReason": "http://inspire.ec.europa.eu/codelist/VoidReasonValue/Unpopulated", "@nil": "true" }, "endLifespanVersion": { "@nilReason": "http://inspire.ec.europa.eu/codelist/VoidReasonValue/Unpopulated", "@nil": "true" }, "estimatedAccuracy": { "value": -1, "@uom": "m" }, "inspireId": { "@dataType": "Identifier", "localId": "818585", "namespace": "SK.ESKN.CP", "versionId": "20261005T06:10:45" }, "label": "Horša", "level": { "@href": "http://inspire.ec.europa.eu/codelist/CadastralZoningLevelValue/3rdOrder" }, "levelName": { "value": "Katastrálne územie", "@locale": "sk" }, "name_1": { "@dataType": "name", "GeographicalName": { "@dataType": "GeographicalName", "language": "SLK", "nativeness": { "@href": "http://inspire.ec.europa.eu/codelist/NativenessValue/endonym", "@title": "endonym" }, "nameStatus": { "@href": "http://inspire.ec.europa.eu/codelist/NameStatusValue/official", "@title": "official" }, "sourceOfName": { "@nilReason": "http://inspire.ec.europa.eu/codelist/VoidReasonValue/Unpopulated", "@nil": "true" }, "pronunciation": { "@dataType": "pronunciation", "@nilReason": "http://inspire.ec.europa.eu/codelist/VoidReasonValue/Unpopulated", "@nil": "true" }, "spelling": { "@dataType": "SpellingOfName", "text": "Horša", "script": "LATN" } } }, "nationalCadastalZoningReference": "818585", "validFrom": "2026-09-30T16:00:00Z", "validTo": { "@nilReason": "http://inspire.ec.europa.eu/codelist/VoidReasonValue/Unpopulated", "@nil": "true" }, "place_id": 188554719, "osm_type": "relation", "osm_id": 2217953, "place_rank": 16, "category": "boundary", "type": "administrative", "importance": 0.54101794346419685, "addresstype": "town", "name_2": "Levice", "display_name": "Levice, okres Levice, Nitriansky kraj, Slovensko" }, "geometry": { "type": "Polygon", "coordinates": [ [ [ 18.68213221, 48.26310323 ], [ 18.68214526, 48.26308571 ], [ 18.682735374702052, 48.262353765664848 ], [ 18.683362490285287, 48.261561205505885 ], [ 18.68340036, 48.26151273 ], [ 18.68385239, 48.2609343 ], [ 18.6841018, 48.26061964 ], [ 18.68416012, 48.26054617 ], [ 18.6847077, 48.25985539 ], [ 18.68561684, 48.25870845 ], [ 18.68581168, 48.25845518 ], [ 18.68590613, 48.25834088 ], [ 18.685913016116253, 48.258337804250878 ], [ 18.6859184, 48.258331 ], [ 18.6882203, 48.2573798 ], [ 18.6893316, 48.2567572 ], [ 18.689803781569932, 48.256456645562182 ], [ 18.68984483, 48.25643005 ], [ 18.6900138, 48.25632065 ], [ 18.690038918691062, 48.256306975372247 ], [ 18.690404461073829, 48.256074299231656 ], [ 18.69047113, 48.25602815 ], [ 18.69069734, 48.25588095 ], [ 18.691022369786669, 48.255680986113056 ], [ 18.6910998, 48.2556317 ], [ 18.691207283873354, 48.255581682590091 ], [ 18.6915092, 48.25543244 ], [ 18.69179261, 48.25528588 ], [ 18.69208132, 48.25515711 ], [ 18.692346632465132, 48.255051488954798 ], [ 18.692400630121952, 48.25502636125097 ], [ 18.69193082, 48.25428617 ], [ 18.691944722721434, 48.254279075986851 ], [ 18.6919429, 48.2542762 ], [ 18.6929326, 48.2537543 ], [ 18.693541, 48.2541535 ], [ 18.693677222257914, 48.254176008828026 ], [ 18.69382388, 48.25399513 ], [ 18.693898787787642, 48.253941731249796 ], [ 18.694207617335074, 48.25360898595882 ], [ 18.69422326, 48.25357977 ], [ 18.69426405, 48.25354506 ], [ 18.694270481310028, 48.253541253801025 ], [ 18.6942761, 48.2535352 ], [ 18.694286666805912, 48.253531674847807 ], [ 18.69432471, 48.25350916 ], [ 18.69441165, 48.25348396 ], [ 18.694509476281823, 48.253457344220351 ], [ 18.6947647, 48.2533722 ], [ 18.694931245150638, 48.25324946565452 ], [ 18.69501723, 48.25317495 ], [ 18.695116117606677, 48.253113225122732 ], [ 18.6951285, 48.2531041 ], [ 18.6956122, 48.2529348 ], [ 18.695781905458421, 48.252794999395334 ], [ 18.69578515, 48.25279227 ], [ 18.69578518492364, 48.252792297825067 ], [ 18.6957972, 48.2527824 ], [ 18.6959015, 48.2528657 ], [ 18.696523775684039, 48.252568480205504 ], [ 18.69672766, 48.25246984 ], [ 18.69720205, 48.2522404 ], [ 18.69767015, 48.25201711 ], [ 18.698000951454421, 48.251862931378554 ], [ 18.6987227, 48.2515182 ], [ 18.700023464915425, 48.251349764186195 ], [ 18.70003927, 48.25126581 ], [ 18.70005251, 48.25119497 ], [ 18.70005634, 48.25117434 ], [ 18.7000972, 48.25103902 ], [ 18.700083, 48.25091555 ], [ 18.70004225, 48.25066235 ], [ 18.7001109, 48.25052167 ], [ 18.70009794, 48.25047333 ], [ 18.70004213, 48.25031389 ], [ 18.69996336, 48.25011838 ], [ 18.6997572, 48.24962515 ], [ 18.69984198, 48.24947513 ], [ 18.69984383, 48.24943833 ], [ 18.69983042, 48.24925327 ], [ 18.69980974, 48.24907694 ], [ 18.69993318, 48.24857053 ], [ 18.699944943801484, 48.248562253283666 ], [ 18.6999452, 48.2485612 ], [ 18.699950540376804, 48.248558315673321 ], [ 18.69997346, 48.24854219 ], [ 18.700287891625361, 48.248376112948598 ], [ 18.700651591182041, 48.248179679556124 ], [ 18.70082089, 48.24797364 ], [ 18.70139546, 48.24745983 ], [ 18.701399345983912, 48.247458604112154 ], [ 18.7014074, 48.2474508 ], [ 18.7025577, 48.2470838 ], [ 18.7037243, 48.2469424 ], [ 18.7061353, 48.2462742 ], [ 18.7081396, 48.2456009 ], [ 18.7090941, 48.2450836 ], [ 18.709251915042064, 48.244965666613467 ], [ 18.70942817, 48.2448331 ], [ 18.70975095, 48.24458494 ], [ 18.70993942, 48.24445184 ], [ 18.70995956182821, 48.244435097706862 ], [ 18.711108068756648, 48.24332402914326 ], [ 18.7112832, 48.24315279 ], [ 18.71128948, 48.24314663 ], [ 18.71129316334061, 48.243144968165524 ], [ 18.7113014, 48.243137 ], [ 18.713252, 48.2422161 ], [ 18.714903845349635, 48.241513832695034 ], [ 18.71456351, 48.24101992 ], [ 18.714296, 48.24064316 ], [ 18.71428664, 48.24062994 ], [ 18.71426046, 48.24059822 ], [ 18.714274669754683, 48.240592373458682 ], [ 18.7142723, 48.240589 ], [ 18.7155586, 48.2400433 ], [ 18.716757756358934, 48.239458451770858 ], [ 18.71651218, 48.23908199 ], [ 18.7164015, 48.23891691 ], [ 18.71622196, 48.23864565 ], [ 18.71601961, 48.23834845 ], [ 18.7154905, 48.23734074 ], [ 18.71525295, 48.23690459 ], [ 18.71518844, 48.23679035 ], [ 18.71507339, 48.23658515 ], [ 18.71484727, 48.23594111 ], [ 18.71463896, 48.23538734 ], [ 18.7146178, 48.23534759 ], [ 18.71449657, 48.23496865 ], [ 18.71448124, 48.23491856 ], [ 18.7144073, 48.23469049 ], [ 18.714259, 48.23446528 ], [ 18.71379683, 48.23380545 ], [ 18.7135497, 48.23344494 ], [ 18.7133725, 48.23331996 ], [ 18.71292251, 48.23300246 ], [ 18.71259052, 48.23275055 ], [ 18.71210955, 48.23240756 ], [ 18.71200552, 48.23233135 ], [ 18.71189393, 48.23225175 ], [ 18.71179241, 48.2321772 ], [ 18.71170312, 48.23211097 ], [ 18.71160408, 48.23203141 ], [ 18.71159898, 48.23202663 ], [ 18.71156359, 48.23199297 ], [ 18.71155704, 48.23198676 ], [ 18.71119861, 48.23165809 ], [ 18.71115063, 48.23167194 ], [ 18.7111387, 48.23167572 ], [ 18.70913488, 48.23228561 ], [ 18.708948667642961, 48.232342222885542 ], [ 18.7089732, 48.2324433 ], [ 18.7088628, 48.2325884 ], [ 18.708851359332883, 48.232597240645084 ], [ 18.70885096, 48.23259775 ], [ 18.708849125174151, 48.232598967065769 ], [ 18.7084615, 48.2328985 ], [ 18.708461211929198, 48.23289855103495 ], [ 18.70844938, 48.23290782 ], [ 18.70798967, 48.23300346 ], [ 18.7073253, 48.23310735 ], [ 18.70657578, 48.23310725 ], [ 18.70623193, 48.23316137 ], [ 18.70618574, 48.23315014 ], [ 18.7058119, 48.23326382 ], [ 18.70537862, 48.23335519 ], [ 18.70472748, 48.23345914 ], [ 18.704601957863186, 48.233457940438299 ], [ 18.70418090145527, 48.233481977247848 ], [ 18.70406349, 48.23349681 ], [ 18.70388118, 48.23359342 ], [ 18.7037522, 48.23362837 ], [ 18.70361335, 48.23365882 ], [ 18.70296898, 48.2337209 ], [ 18.70286061, 48.23370905 ], [ 18.70186685, 48.23360027 ], [ 18.70185098, 48.23359861 ], [ 18.70082752, 48.23349319 ], [ 18.6991055, 48.23325121 ], [ 18.69896934, 48.23321774 ], [ 18.69891346, 48.233204 ], [ 18.69810343, 48.23300498 ], [ 18.69751817, 48.23311794 ], [ 18.69653689, 48.23320097 ], [ 18.69601322, 48.23299376 ], [ 18.69577612, 48.23290235 ], [ 18.69326939, 48.23343788 ], [ 18.69249775, 48.23346546 ], [ 18.69247348, 48.23346623 ], [ 18.69244284, 48.23346161 ], [ 18.6905438, 48.23317245 ], [ 18.68968135, 48.23312196 ], [ 18.68902048, 48.23326925 ], [ 18.68779914, 48.23315524 ], [ 18.68700903, 48.23344373 ], [ 18.68696285, 48.23344368 ], [ 18.68571761, 48.23355493 ], [ 18.68399626, 48.23384682 ], [ 18.68334526, 48.23401175 ], [ 18.682873479523458, 48.234302475379266 ], [ 18.6827248, 48.2346377 ], [ 18.6826613, 48.2347943 ], [ 18.6825228, 48.2351366 ], [ 18.6832704, 48.235629 ], [ 18.683159741372048, 48.235745502197268 ], [ 18.68243836, 48.23652719 ], [ 18.68218333, 48.23680419 ], [ 18.6818448, 48.23714518 ], [ 18.68154049, 48.23745111 ], [ 18.681535268729146, 48.237455758648082 ], [ 18.6813521, 48.2376486 ], [ 18.681342167724722, 48.23765561235524 ], [ 18.68134027, 48.23765769 ], [ 18.68103415, 48.2378732 ], [ 18.68028054, 48.23826801 ], [ 18.67983713637269, 48.238458955112691 ], [ 18.67965312970215, 48.23854941739885 ], [ 18.67933289, 48.23871047 ], [ 18.679089158141746, 48.238859413806679 ], [ 18.678347277910881, 48.239319135357263 ], [ 18.67805669, 48.23950139 ], [ 18.678026468997896, 48.239523479609012 ], [ 18.676755997737679, 48.240477274178005 ], [ 18.67604719, 48.24104053 ], [ 18.67574141770698, 48.241238960768946 ], [ 18.675606024048331, 48.241340606308157 ], [ 18.6755693, 48.24137617 ], [ 18.67555186, 48.24139426 ], [ 18.67535129, 48.24154064 ], [ 18.67528932, 48.24157845 ], [ 18.67505445, 48.24168671 ], [ 18.674521726289125, 48.241906825381541 ], [ 18.673566601326229, 48.242320304652452 ], [ 18.67325004, 48.24246899 ], [ 18.673069341576674, 48.242535571352292 ], [ 18.672257864595714, 48.242886864558393 ], [ 18.672227721307841, 48.242903312269043 ], [ 18.6718695, 48.2432003 ], [ 18.671742028179466, 48.243383535759534 ], [ 18.67171344, 48.24344145 ], [ 18.67165788, 48.24353906 ], [ 18.67159565, 48.24361809 ], [ 18.671551721844978, 48.243657093676866 ], [ 18.6715497, 48.24366 ], [ 18.671545692716087, 48.243662446922301 ], [ 18.6715374, 48.24366981 ], [ 18.67116229, 48.24391235 ], [ 18.67045456, 48.24433068 ], [ 18.670440183703338, 48.244340389474488 ], [ 18.669812418542207, 48.244792326906776 ], [ 18.66979735, 48.2448038 ], [ 18.6695825, 48.2449318 ], [ 18.6693823, 48.24503128 ], [ 18.66924108, 48.24510667 ], [ 18.669118409357107, 48.245198318179803 ], [ 18.6694038, 48.2457528 ], [ 18.6696991, 48.2460847 ], [ 18.671679, 48.2468872 ], [ 18.6722917, 48.2473983 ], [ 18.6742931, 48.2485855 ], [ 18.6756344, 48.2481919 ], [ 18.6767745, 48.2499283 ], [ 18.6776203, 48.2510012 ], [ 18.6782301, 48.2516365 ], [ 18.6785366, 48.2518683 ], [ 18.6797073, 48.2524841 ], [ 18.6808391, 48.2528009 ], [ 18.681636, 48.2534675 ], [ 18.681459, 48.2536057 ], [ 18.6821373, 48.2540031 ], [ 18.6816401, 48.254449 ], [ 18.681635305026635, 48.254452352862039 ], [ 18.68162808, 48.25445884 ], [ 18.68122674, 48.25476172 ], [ 18.68085981, 48.25499553 ], [ 18.68022853, 48.25536652 ], [ 18.679982377234545, 48.255498971842385 ], [ 18.67900177167645, 48.256064265881456 ], [ 18.67895283, 48.25609398 ], [ 18.67813047, 48.2565746 ], [ 18.67749875, 48.25693319 ], [ 18.67706921, 48.25717273 ], [ 18.67675038, 48.25733684 ], [ 18.676313055424448, 48.257542868165508 ], [ 18.6778706, 48.2594545 ], [ 18.6785766, 48.2597724 ], [ 18.679285, 48.2604228 ], [ 18.6795225, 48.2604548 ], [ 18.679528289450914, 48.260587163242811 ], [ 18.67953431, 48.26062881 ], [ 18.679534001491099, 48.260717756657087 ], [ 18.6795451, 48.2609715 ], [ 18.679824724526945, 48.261209897518128 ], [ 18.67987795, 48.26124922 ], [ 18.679931748696447, 48.261301142362306 ], [ 18.6801128, 48.2614555 ], [ 18.680172826676092, 48.261638836939106 ], [ 18.68025142, 48.26182964 ], [ 18.68027792, 48.26193925 ], [ 18.680297043730253, 48.262018227836251 ], [ 18.6803782, 48.2622661 ], [ 18.6806658, 48.2624203 ], [ 18.6808002, 48.2629463 ], [ 18.6812662, 48.2635194 ], [ 18.6813675, 48.2635835 ], [ 18.6814917, 48.2635372 ], [ 18.682051818346103, 48.263211259315369 ], [ 18.68213221, 48.26310323 ] ] ] } },
{ "type": "Feature", "properties": { "@featureType": "CadastralZoning", "beginLifespanVersion": { "@nilReason": "http://inspire.ec.europa.eu/codelist/VoidReasonValue/Unpopulated", "@nil": "true" }, "endLifespanVersion": { "@nilReason": "http://inspire.ec.europa.eu/codelist/VoidReasonValue/Unpopulated", "@nil": "true" }, "estimatedAccuracy": { "value": -1, "@uom": "m" }, "inspireId": { "@dataType": "Identifier", "localId": "829447", "namespace": "SK.ESKN.CP", "versionId": "20261005T06:10:45" }, "label": "Malé Krškany", "level": { "@href": "http://inspire.ec.europa.eu/codelist/CadastralZoningLevelValue/3rdOrder" }, "levelName": { "value": "Katastrálne územie", "@locale": "sk" }, "name_1": { "@dataType": "name", "GeographicalName": { "@dataType": "GeographicalName", "language": "SLK", "nativeness": { "@href": "http://inspire.ec.europa.eu/codelist/NativenessValue/endonym", "@title": "endonym" }, "nameStatus": { "@href": "http://inspire.ec.europa.eu/codelist/NameStatusValue/official", "@title": "official" }, "sourceOfName": { "@nilReason": "http://inspire.ec.europa.eu/codelist/VoidReasonValue/Unpopulated", "@nil": "true" }, "pronunciation": { "@dataType": "pronunciation", "@nilReason": "http://inspire.ec.europa.eu/codelist/VoidReasonValue/Unpopulated", "@nil": "true" }, "spelling": { "@dataType": "SpellingOfName", "text": "Malé Krškany", "script": "LATN" } } }, "nationalCadastalZoningReference": "829447", "validFrom": "2026-09-30T16:00:00Z", "validTo": { "@nilReason": "http://inspire.ec.europa.eu/codelist/VoidReasonValue/Unpopulated", "@nil": "true" }, "place_id": 188554719, "osm_type": "relation", "osm_id": 2217953, "place_rank": 16, "category": "boundary", "type": "administrative", "importance": 0.54101794346419685, "addresstype": "town", "name_2": "Levice", "display_name": "Levice, okres Levice, Nitriansky kraj, Slovensko" }, "geometry": { "type": "MultiPolygon", "coordinates": [ [ [ [ 18.66924108, 48.24510667 ], [ 18.6693823, 48.24503128 ], [ 18.6695825, 48.2449318 ], [ 18.66979735, 48.2448038 ], [ 18.669812418542207, 48.244792326906776 ], [ 18.6698094, 48.2447945 ], [ 18.669253, 48.2450973 ], [ 18.6691184, 48.2451983 ], [ 18.669118409357107, 48.245198318179803 ], [ 18.66924108, 48.24510667 ] ] ], [ [ [ 18.67045456, 48.24433068 ], [ 18.67116229, 48.24391235 ], [ 18.6715374, 48.24366981 ], [ 18.671545692716087, 48.243662446922301 ], [ 18.6704667, 48.2443213 ], [ 18.670440183703338, 48.244340389474488 ], [ 18.67045456, 48.24433068 ] ] ], [ [ [ 18.67159565, 48.24361809 ], [ 18.67165788, 48.24353906 ], [ 18.67171344, 48.24344145 ], [ 18.671742028179466, 48.243383535759534 ], [ 18.671551721844978, 48.243657093676866 ], [ 18.67159565, 48.24361809 ] ] ], [ [ [ 18.672257864595714, 48.242886864558393 ], [ 18.6722363, 48.2428962 ], [ 18.672227721307841, 48.242903312269043 ], [ 18.672257864595714, 48.242886864558393 ] ] ], [ [ [ 18.67325004, 48.24246899 ], [ 18.673566601326229, 48.242320304652452 ], [ 18.673069341576674, 48.242535571352292 ], [ 18.67325004, 48.24246899 ] ] ], [ [ [ 18.67505445, 48.24168671 ], [ 18.67528932, 48.24157845 ], [ 18.67535129, 48.24154064 ], [ 18.67555186, 48.24139426 ], [ 18.6755693, 48.24137617 ], [ 18.675606024048331, 48.241340606308157 ], [ 18.6753014, 48.2415693 ], [ 18.674521726289125, 48.241906825381541 ], [ 18.67505445, 48.24168671 ] ] ], [ [ [ 18.67604719, 48.24104053 ], [ 18.676755997737679, 48.240477274178005 ], [ 18.67574141770698, 48.241238960768946 ], [ 18.67604719, 48.24104053 ] ] ], [ [ [ 18.67805669, 48.23950139 ], [ 18.678347277910881, 48.239319135357263 ], [ 18.6780688, 48.2394917 ], [ 18.678026468997896, 48.239523479609012 ], [ 18.67805669, 48.23950139 ] ] ], [ [ [ 18.67933289, 48.23871047 ], [ 18.67965312970215, 48.23854941739885 ], [ 18.6793448, 48.238701 ], [ 18.679089158141746, 48.238859413806679 ], [ 18.67933289, 48.23871047 ] ] ], [ [ [ 18.68028054, 48.23826801 ], [ 18.68103415, 48.2378732 ], [ 18.68134027, 48.23765769 ], [ 18.681342167724722, 48.23765561235524 ], [ 18.6810463, 48.2378645 ], [ 18.67983713637269, 48.238458955112691 ], [ 18.68028054, 48.23826801 ] ] ], [ [ [ 18.68154049, 48.23745111 ], [ 18.6818448, 48.23714518 ], [ 18.68218333, 48.23680419 ], [ 18.68243836, 48.23652719 ], [ 18.683159741372048, 48.235745502197268 ], [ 18.681535268729146, 48.237455758648082 ], [ 18.68154049, 48.23745111 ] ] ], [ [ [ 18.65528387, 48.21829095 ], [ 18.65527462, 48.21830488 ], [ 18.65500476, 48.21871168 ], [ 18.65495801, 48.2192251 ], [ 18.655014493414235, 48.219307074723353 ], [ 18.6549702, 48.219216 ], [ 18.6550169, 48.2187019 ], [ 18.6552867, 48.2182958 ], [ 18.655289187852699, 48.218291960053442 ], [ 18.65528387, 48.21829095 ] ] ], [ [ [ 18.65505694, 48.21942065 ], [ 18.65511005, 48.21954191 ], [ 18.65515756, 48.2196357 ], [ 18.655147942565634, 48.219655776660396 ], [ 18.6551696, 48.219626 ], [ 18.655039815337659, 48.219359140864796 ], [ 18.65505694, 48.21942065 ] ] ], [ [ [ 18.65492433, 48.21995181 ], [ 18.654909772486299, 48.219983235095697 ], [ 18.654940901582986, 48.219940435910665 ], [ 18.65492433, 48.21995181 ] ] ], [ [ [ 18.65480623, 48.22011876 ], [ 18.65467663, 48.22023122 ], [ 18.65461758, 48.22031519 ], [ 18.65454545, 48.22041803 ], [ 18.65453539, 48.22045097 ], [ 18.654524957664947, 48.220484845784618 ], [ 18.6545575, 48.2204083 ], [ 18.6548183, 48.220109 ], [ 18.654819774151555, 48.220106973198966 ], [ 18.65480623, 48.22011876 ] ] ], [ [ [ 18.65438316, 48.22081287 ], [ 18.65430207, 48.2209663 ], [ 18.65425975, 48.22106714 ], [ 18.654225997739882, 48.221188056601967 ], [ 18.654395282610462, 48.220789866268667 ], [ 18.65438316, 48.22081287 ] ] ], [ [ [ 18.65416641, 48.22130049 ], [ 18.65411995, 48.22137422 ], [ 18.65405938, 48.22156116 ], [ 18.65404762, 48.22158128 ], [ 18.65398768083023, 48.221684632465511 ], [ 18.6540714, 48.2215517 ], [ 18.654202696374107, 48.221242865862678 ], [ 18.65416641, 48.22130049 ] ] ], [ [ [ 18.65383737, 48.22191378 ], [ 18.65381206, 48.22202467 ], [ 18.653786476959233, 48.222136634829894 ], [ 18.6538494, 48.2219042 ], [ 18.65389641679948, 48.221829544946765 ], [ 18.65383737, 48.22191378 ] ] ], [ [ [ 18.65368935, 48.22242922 ], [ 18.65365946, 48.22249546 ], [ 18.65365861, 48.22251138 ], [ 18.65365192020036, 48.222633681332724 ], [ 18.653732685194608, 48.22233533914406 ], [ 18.65368935, 48.22242922 ] ] ], [ [ [ 18.65359916, 48.22282281 ], [ 18.653571600203861, 48.222895656446866 ], [ 18.6535831, 48.2228879 ], [ 18.653602747011004, 48.222815324841442 ], [ 18.65359916, 48.22282281 ] ] ], [ [ [ 18.65332812, 48.22306063 ], [ 18.65332595, 48.22322573 ], [ 18.6533258, 48.22324151 ], [ 18.6533253, 48.22327902 ], [ 18.6533044, 48.22339032 ], [ 18.65328546, 48.22349099 ], [ 18.6532923, 48.22353259 ], [ 18.653312743906447, 48.223657330827564 ], [ 18.653340037922348, 48.223053174097231 ], [ 18.65332812, 48.22306063 ] ] ], [ [ [ 18.65328951, 48.22413998 ], [ 18.6532796, 48.22424862 ], [ 18.65327203, 48.22433123 ], [ 18.65326403, 48.22441958 ], [ 18.65326091, 48.22445316 ], [ 18.65326305, 48.22451022 ], [ 18.65326024, 48.22456682 ], [ 18.65325782, 48.22461695 ], [ 18.653239119103258, 48.224668326410551 ], [ 18.6532698, 48.2246079 ], [ 18.65329234703384, 48.224108818359042 ], [ 18.65328951, 48.22413998 ] ] ], [ [ [ 18.65261037, 48.22590439 ], [ 18.652561, 48.22599989 ], [ 18.65254989, 48.22602131 ], [ 18.65253686, 48.22604641 ], [ 18.65230235, 48.22649978 ], [ 18.65221291, 48.22667297 ], [ 18.65149784, 48.22805556 ], [ 18.6514344, 48.22820914 ], [ 18.65142852, 48.22829111 ], [ 18.65148298, 48.22861077 ], [ 18.651563315853419, 48.228863465300819 ], [ 18.6515759, 48.2288564 ], [ 18.6514461, 48.2281997 ], [ 18.652676381210192, 48.22577664574176 ], [ 18.65261037, 48.22590439 ] ] ], [ [ [ 18.64431209, 48.23003183 ], [ 18.64319082, 48.23074045 ], [ 18.642909319559656, 48.230943287012913 ], [ 18.645056360540583, 48.229585415606593 ], [ 18.64431209, 48.23003183 ] ] ], [ [ [ 18.64260371, 48.23111814 ], [ 18.642539232873208, 48.231176335985808 ], [ 18.6425412, 48.2311761 ], [ 18.642697033492219, 48.231077544897836 ], [ 18.64260371, 48.23111814 ] ] ], [ [ [ 18.64184885, 48.23126647 ], [ 18.64183139, 48.231288 ], [ 18.64182121551536, 48.231300143146221 ], [ 18.641853134507997, 48.231266091116041 ], [ 18.64184885, 48.23126647 ] ] ], [ [ [ 18.641267448755467, 48.231887388557752 ], [ 18.6412774, 48.2318803 ], [ 18.641289163620694, 48.231867750256612 ], [ 18.641267448755467, 48.231887388557752 ] ] ], [ [ [ 18.64082214, 48.23219486 ], [ 18.640349205457973, 48.23254147967377 ], [ 18.641248995770205, 48.231900533149989 ], [ 18.64082214, 48.23219486 ] ] ], [ [ [ 18.63701762, 48.23453782 ], [ 18.636252403968829, 48.235181031514379 ], [ 18.6362528, 48.2351813 ], [ 18.63702472463255, 48.234532764092499 ], [ 18.63701762, 48.23453782 ] ] ] ] } }
]
}
