{
"type": "FeatureCollection",
"name": "gis",
"crs": { "type": "name", "properties": { "name": "urn:ogc:def:crs:OGC:1.3:CRS84" } },
"features": [
{ "type": "Feature", "properties": { "@featureType": "CadastralParcel", "areaValue": { "value": 33244, "@uom": "m2" }, "beginLifespanVersion": { "@nilReason": "http://inspire.ec.europa.eu/codelist/VoidReasonValue/Unpopulated", "@nil": "true" }, "endLifespanVersion": { "@nilReason": "http://inspire.ec.europa.eu/codelist/VoidReasonValue/Unpopulated", "@nil": "true" }, "inspireId": { "@dataType": "Identifier", "localId": "860182_1586/1.C", "namespace": "SK.ESKN.CP", "versionId": "20260703T05:07:32" }, "label": "1586/1", "nationalCadastralReference": "860182_1586/1.C", "referencePoint": { "type": "Point", "coordinates": [ 17.86653701, 48.14846561 ] }, "validFrom": "2026-06-30T16:00:00Z", "validTo": { "@nilReason": "http://inspire.ec.europa.eu/codelist/VoidReasonValue/Unpopulated", "@nil": "true" }, "administrativeUnit": { "@href": "#auAdmUnitS.384" } }, "geometry": { "type": "Polygon", "coordinates": [ [ [ 17.86656581, 48.14955867 ], [ 17.86654845, 48.14954442 ], [ 17.86673952, 48.14943581 ], [ 17.86675584, 48.14944872 ], [ 17.86695857, 48.1493308 ], [ 17.86713412, 48.14923008 ], [ 17.86748296, 48.14902842 ], [ 17.86760721, 48.14895654 ], [ 17.86779898, 48.14884571 ], [ 17.86786831, 48.14878953 ], [ 17.86841469, 48.1483496 ], [ 17.86869608, 48.14811998 ], [ 17.86875362, 48.1480731 ], [ 17.86876713, 48.14806209 ], [ 17.86791572, 48.14764776 ], [ 17.86734588, 48.14737047 ], [ 17.86730072, 48.14735037 ], [ 17.8672044, 48.14730366 ], [ 17.867006, 48.14743043 ], [ 17.86687, 48.14751731 ], [ 17.86632537, 48.14786522 ], [ 17.86520357, 48.1485819 ], [ 17.86521037, 48.14864183 ], [ 17.86634367, 48.14959531 ], [ 17.8664083, 48.14964974 ], [ 17.86656492, 48.14955925 ], [ 17.86656581, 48.14955867 ] ], [ [ 17.86755217, 48.14884951 ], [ 17.86752832, 48.1488354 ], [ 17.86757522, 48.14880323 ], [ 17.86751556, 48.14876274 ], [ 17.86758194, 48.14871938 ], [ 17.86770945, 48.14880953 ], [ 17.86761255, 48.14888471 ], [ 17.86755217, 48.14884951 ] ], [ [ 17.86697886, 48.14859864 ], [ 17.86697292, 48.14859566 ], [ 17.86696832, 48.14859971 ], [ 17.86695175, 48.14859156 ], [ 17.86693393, 48.14860844 ], [ 17.86690775, 48.14859556 ], [ 17.86692688, 48.14858002 ], [ 17.86691381, 48.1485729 ], [ 17.86691856, 48.14856876 ], [ 17.8669125, 48.14856568 ], [ 17.86695425, 48.14852976 ], [ 17.86695943, 48.14853234 ], [ 17.86696298, 48.14852903 ], [ 17.86698024, 48.14851329 ], [ 17.8669851, 48.1485153 ], [ 17.86700235, 48.14849866 ], [ 17.86704804, 48.14852086 ], [ 17.86703027, 48.1485373 ], [ 17.8670349, 48.14854002 ], [ 17.86701732, 48.1485561 ], [ 17.86701363, 48.1485594 ], [ 17.86701784, 48.14856219 ], [ 17.86697886, 48.14859864 ] ], [ [ 17.86669224, 48.14831959 ], [ 17.86671447, 48.14833467 ], [ 17.86668591, 48.14835316 ], [ 17.86666285, 48.14833721 ], [ 17.86669224, 48.14831959 ] ], [ [ 17.86760734, 48.14842833 ], [ 17.867678, 48.1483595 ], [ 17.86757463, 48.14831399 ], [ 17.86767052, 48.14821654 ], [ 17.86777375, 48.14826204 ], [ 17.86787419, 48.14815989 ], [ 17.86801574, 48.14822228 ], [ 17.86790811, 48.14833066 ], [ 17.86794302, 48.14834679 ], [ 17.86794644, 48.14834348 ], [ 17.86809496, 48.14841216 ], [ 17.86799684, 48.14850722 ], [ 17.86784768, 48.14843832 ], [ 17.86785858, 48.14842761 ], [ 17.86782888, 48.14841387 ], [ 17.86774779, 48.14849291 ], [ 17.86760734, 48.14842833 ] ], [ [ 17.86797387, 48.14772103 ], [ 17.86798443, 48.14771192 ], [ 17.86805971, 48.14775066 ], [ 17.86808947, 48.14776593 ], [ 17.86816021, 48.14780232 ], [ 17.868165, 48.14780478 ], [ 17.86812235, 48.14784245 ], [ 17.86794153, 48.1477494 ], [ 17.86795228, 48.14773985 ], [ 17.86794308, 48.14773505 ], [ 17.86793808, 48.14773014 ], [ 17.86793699, 48.14772528 ], [ 17.86793878, 48.14772205 ], [ 17.86794415, 48.14771732 ], [ 17.86795344, 48.14771455 ], [ 17.86796479, 48.14771641 ], [ 17.86797387, 48.14772103 ] ], [ [ 17.86762134, 48.14758291 ], [ 17.867664, 48.14754623 ], [ 17.86784162, 48.147638 ], [ 17.86783258, 48.14764584 ], [ 17.86784242, 48.14765186 ], [ 17.86784588, 48.14765722 ], [ 17.86784394, 48.14766451 ], [ 17.86783876, 48.1476688 ], [ 17.86782997, 48.14767196 ], [ 17.86781939, 48.14767132 ], [ 17.86780806, 48.14766638 ], [ 17.86779914, 48.14767432 ], [ 17.86762134, 48.14758291 ] ] ] } }
]
}
