{
"type": "FeatureCollection",
"name": "gis",
"crs": { "type": "name", "properties": { "name": "urn:ogc:def:crs:OGC:1.3:CRS84" } },
"features": [
{ "type": "Feature", "properties": { "@featureType": "CadastralParcel", "areaValue": { "value": 2720, "@uom": "m2" }, "beginLifespanVersion": { "@nilReason": "http://inspire.ec.europa.eu/codelist/VoidReasonValue/Unpopulated", "@nil": "true" }, "endLifespanVersion": { "@nilReason": "http://inspire.ec.europa.eu/codelist/VoidReasonValue/Unpopulated", "@nil": "true" }, "inspireId": { "@dataType": "Identifier", "localId": "861090_291/27.C", "namespace": "SK.ESKN.CP", "versionId": "20260703T07:07:37" }, "label": "291/27", "nationalCadastralReference": "861090_291/27.C", "referencePoint": { "type": "Point", "coordinates": [ 19.5500072, 49.36291474 ] }, "validFrom": "2026-06-30T16:00:00Z", "validTo": { "@nilReason": "http://inspire.ec.europa.eu/codelist/VoidReasonValue/Unpopulated", "@nil": "true" }, "administrativeUnit": { "@href": "#auAdmUnitS.1738" } }, "geometry": { "type": "Polygon", "coordinates": [ [ [ 19.55078309, 49.36277288 ], [ 19.54961578, 49.36289886 ], [ 19.54905696, 49.36293061 ], [ 19.54858371, 49.36294269 ], [ 19.54773072, 49.36293484 ], [ 19.54773019, 49.36294636 ], [ 19.54799833, 49.36297892 ], [ 19.54813748, 49.3630007 ], [ 19.5481558, 49.3630036 ], [ 19.54861628, 49.363047 ], [ 19.54865332, 49.36305048 ], [ 19.54872321, 49.36304597 ], [ 19.54883312, 49.36303885 ], [ 19.54890094, 49.36303443 ], [ 19.54896456, 49.36303568 ], [ 19.54945909, 49.36304556 ], [ 19.55020612, 49.36296056 ], [ 19.55099839, 49.36288363 ], [ 19.5510327, 49.36288022 ], [ 19.55102257, 49.36287553 ], [ 19.5509257, 49.36283105 ], [ 19.55090399, 49.36282106 ], [ 19.55088793, 49.36281375 ], [ 19.55078309, 49.36277288 ] ] ] } },
{ "type": "Feature", "properties": { "@featureType": "CadastralParcel", "areaValue": { "value": 52, "@uom": "m2" }, "beginLifespanVersion": { "@nilReason": "http://inspire.ec.europa.eu/codelist/VoidReasonValue/Unpopulated", "@nil": "true" }, "endLifespanVersion": { "@nilReason": "http://inspire.ec.europa.eu/codelist/VoidReasonValue/Unpopulated", "@nil": "true" }, "inspireId": { "@dataType": "Identifier", "localId": "861090_287/15.C", "namespace": "SK.ESKN.CP", "versionId": "20260703T07:07:37" }, "label": "287/15", "nationalCadastralReference": "861090_287/15.C", "referencePoint": { "type": "Point", "coordinates": [ 19.54096955, 49.3624685 ] }, "validFrom": "2026-06-30T16:00:00Z", "validTo": { "@nilReason": "http://inspire.ec.europa.eu/codelist/VoidReasonValue/Unpopulated", "@nil": "true" }, "administrativeUnit": { "@href": "#auAdmUnitS.1738" } }, "geometry": { "type": "Polygon", "coordinates": [ [ [ 19.54092661, 49.36243826 ], [ 19.54096202, 49.36251431 ], [ 19.5410159, 49.36254901 ], [ 19.54102651, 49.36253345 ], [ 19.54104835, 49.362511 ], [ 19.54107021, 49.36249874 ], [ 19.54092661, 49.36243826 ] ] ] } },
{ "type": "Feature", "properties": { "@featureType": "CadastralParcel", "areaValue": { "value": 15, "@uom": "m2" }, "beginLifespanVersion": { "@nilReason": "http://inspire.ec.europa.eu/codelist/VoidReasonValue/Unpopulated", "@nil": "true" }, "endLifespanVersion": { "@nilReason": "http://inspire.ec.europa.eu/codelist/VoidReasonValue/Unpopulated", "@nil": "true" }, "inspireId": { "@dataType": "Identifier", "localId": "861090_339/6.C", "namespace": "SK.ESKN.CP", "versionId": "20260703T07:07:37" }, "label": "339/6", "nationalCadastralReference": "861090_339/6.C", "referencePoint": { "type": "Point", "coordinates": [ 19.55062115, 49.36395865 ] }, "validFrom": "2026-06-30T16:00:00Z", "validTo": { "@nilReason": "http://inspire.ec.europa.eu/codelist/VoidReasonValue/Unpopulated", "@nil": "true" }, "administrativeUnit": { "@href": "#auAdmUnitS.1738" } }, "geometry": { "type": "Polygon", "coordinates": [ [ [ 19.55057653, 49.3639561 ], [ 19.55060445, 49.36397782 ], [ 19.55066569, 49.3639612 ], [ 19.55063832, 49.36393942 ], [ 19.55057653, 49.3639561 ] ] ] } },
{ "type": "Feature", "properties": { "@featureType": "CadastralParcel", "areaValue": { "value": 9, "@uom": "m2" }, "beginLifespanVersion": { "@nilReason": "http://inspire.ec.europa.eu/codelist/VoidReasonValue/Unpopulated", "@nil": "true" }, "endLifespanVersion": { "@nilReason": "http://inspire.ec.europa.eu/codelist/VoidReasonValue/Unpopulated", "@nil": "true" }, "inspireId": { "@dataType": "Identifier", "localId": "861090_339/5.C", "namespace": "SK.ESKN.CP", "versionId": "20260703T07:07:37" }, "label": "339/5", "nationalCadastralReference": "861090_339/5.C", "referencePoint": { "type": "Point", "coordinates": [ 19.5506719, 49.3639449 ] }, "validFrom": "2026-06-30T16:00:00Z", "validTo": { "@nilReason": "http://inspire.ec.europa.eu/codelist/VoidReasonValue/Unpopulated", "@nil": "true" }, "administrativeUnit": { "@href": "#auAdmUnitS.1738" } }, "geometry": { "type": "Polygon", "coordinates": [ [ [ 19.55063832, 49.36393942 ], [ 19.55066569, 49.3639612 ], [ 19.55070548, 49.36395038 ], [ 19.55067811, 49.36392859 ], [ 19.55063832, 49.36393942 ] ] ] } },
{ "type": "Feature", "properties": { "@featureType": "CadastralParcel", "areaValue": { "value": 670, "@uom": "m2" }, "beginLifespanVersion": { "@nilReason": "http://inspire.ec.europa.eu/codelist/VoidReasonValue/Unpopulated", "@nil": "true" }, "endLifespanVersion": { "@nilReason": "http://inspire.ec.europa.eu/codelist/VoidReasonValue/Unpopulated", "@nil": "true" }, "inspireId": { "@dataType": "Identifier", "localId": "861090_290/40.C", "namespace": "SK.ESKN.CP", "versionId": "20260703T07:07:37" }, "label": "290/40", "nationalCadastralReference": "861090_290/40.C", "referencePoint": { "type": "Point", "coordinates": [ 19.5490725, 49.36437838 ] }, "validFrom": "2026-06-30T16:00:00Z", "validTo": { "@nilReason": "http://inspire.ec.europa.eu/codelist/VoidReasonValue/Unpopulated", "@nil": "true" }, "administrativeUnit": { "@href": "#auAdmUnitS.1738" } }, "geometry": { "type": "Polygon", "coordinates": [ [ [ 19.55060445, 49.36397782 ], [ 19.55057653, 49.3639561 ], [ 19.54774427, 49.36472377 ], [ 19.54776099, 49.3647484 ], [ 19.54806959, 49.36466481 ], [ 19.54835915, 49.3645863 ], [ 19.54866662, 49.36450302 ], [ 19.54897337, 49.36441988 ], [ 19.54927956, 49.36433689 ], [ 19.54985257, 49.36418158 ], [ 19.55013815, 49.36410415 ], [ 19.5502808, 49.36406552 ], [ 19.55042317, 49.36402687 ], [ 19.55060445, 49.36397782 ] ] ] } },
{ "type": "Feature", "properties": { "@featureType": "CadastralParcel", "areaValue": { "value": 6534, "@uom": "m2" }, "beginLifespanVersion": { "@nilReason": "http://inspire.ec.europa.eu/codelist/VoidReasonValue/Unpopulated", "@nil": "true" }, "endLifespanVersion": { "@nilReason": "http://inspire.ec.europa.eu/codelist/VoidReasonValue/Unpopulated", "@nil": "true" }, "inspireId": { "@dataType": "Identifier", "localId": "861090_510.E", "namespace": "SK.ESKN.CP", "versionId": "20260703T07:07:37" }, "label": "510", "nationalCadastralReference": "861090_510.E", "referencePoint": { "type": "Point", "coordinates": [ 19.54282853, 49.3638876 ] }, "validFrom": "2026-06-30T16:00:00Z", "validTo": { "@nilReason": "http://inspire.ec.europa.eu/codelist/VoidReasonValue/Unpopulated", "@nil": "true" }, "administrativeUnit": { "@href": "#auAdmUnitS.1738" } }, "geometry": { "type": "Polygon", "coordinates": [ [ [ 19.54388139, 49.36429266 ], [ 19.54382855, 49.36418302 ], [ 19.54377025, 49.36406763 ], [ 19.54327609, 49.36370758 ], [ 19.54218799, 49.36360912 ], [ 19.54208965, 49.36411537 ], [ 19.54208866, 49.36414029 ], [ 19.54388139, 49.36429266 ] ] ] } },
{ "type": "Feature", "properties": { "@featureType": "CadastralParcel", "areaValue": { "value": 31, "@uom": "m2" }, "beginLifespanVersion": { "@nilReason": "http://inspire.ec.europa.eu/codelist/VoidReasonValue/Unpopulated", "@nil": "true" }, "endLifespanVersion": { "@nilReason": "http://inspire.ec.europa.eu/codelist/VoidReasonValue/Unpopulated", "@nil": "true" }, "inspireId": { "@dataType": "Identifier", "localId": "861090_548.E", "namespace": "SK.ESKN.CP", "versionId": "20260703T07:07:37" }, "label": "548", "nationalCadastralReference": "861090_548.E", "referencePoint": { "type": "Point", "coordinates": [ 19.55061872, 49.36390871 ] }, "validFrom": "2026-06-30T16:00:00Z", "validTo": { "@nilReason": "http://inspire.ec.europa.eu/codelist/VoidReasonValue/Unpopulated", "@nil": "true" }, "administrativeUnit": { "@href": "#auAdmUnitS.1738" } }, "geometry": { "type": "Polygon", "coordinates": [ [ [ 19.55067811, 49.36392859 ], [ 19.55059204, 49.36386685 ], [ 19.55054007, 49.36388063 ], [ 19.55055383, 49.36388883 ], [ 19.55063832, 49.36393942 ], [ 19.55067811, 49.36392859 ] ] ] } },
{ "type": "Feature", "properties": { "@featureType": "CadastralParcel", "areaValue": { "value": 7250, "@uom": "m2" }, "beginLifespanVersion": { "@nilReason": "http://inspire.ec.europa.eu/codelist/VoidReasonValue/Unpopulated", "@nil": "true" }, "endLifespanVersion": { "@nilReason": "http://inspire.ec.europa.eu/codelist/VoidReasonValue/Unpopulated", "@nil": "true" }, "inspireId": { "@dataType": "Identifier", "localId": "861090_505.E", "namespace": "SK.ESKN.CP", "versionId": "20260703T07:07:37" }, "label": "505", "nationalCadastralReference": "861090_505.E", "referencePoint": { "type": "Point", "coordinates": [ 19.54139324, 49.36374246 ] }, "validFrom": "2026-06-30T16:00:00Z", "validTo": { "@nilReason": "http://inspire.ec.europa.eu/codelist/VoidReasonValue/Unpopulated", "@nil": "true" }, "administrativeUnit": { "@href": "#auAdmUnitS.1738" } }, "geometry": { "type": "Polygon", "coordinates": [ [ [ 19.54208965, 49.36411537 ], [ 19.54218799, 49.36360912 ], [ 19.54220204, 49.3635143 ], [ 19.54073996, 49.36329853 ], [ 19.54072346, 49.3633305 ], [ 19.54075894, 49.36352967 ], [ 19.54054009, 49.36387581 ], [ 19.54208965, 49.36411537 ] ] ] } },
{ "type": "Feature", "properties": { "@featureType": "CadastralParcel", "areaValue": { "value": 2005, "@uom": "m2" }, "beginLifespanVersion": { "@nilReason": "http://inspire.ec.europa.eu/codelist/VoidReasonValue/Unpopulated", "@nil": "true" }, "endLifespanVersion": { "@nilReason": "http://inspire.ec.europa.eu/codelist/VoidReasonValue/Unpopulated", "@nil": "true" }, "inspireId": { "@dataType": "Identifier", "localId": "861090_1407/2.E", "namespace": "SK.ESKN.CP", "versionId": "20260703T07:07:37" }, "label": "1407/2", "nationalCadastralReference": "861090_1407/2.E", "referencePoint": { "type": "Point", "coordinates": [ 19.55156343, 49.3650844 ] }, "validFrom": "2026-06-30T16:00:00Z", "validTo": { "@nilReason": "http://inspire.ec.europa.eu/codelist/VoidReasonValue/Unpopulated", "@nil": "true" }, "administrativeUnit": { "@href": "#auAdmUnitS.1738" } }, "geometry": { "type": "Polygon", "coordinates": [ [ [ 19.54903388, 49.36318663 ], [ 19.54914896, 49.36322327 ], [ 19.54931118, 49.36327485 ], [ 19.54978416, 49.36342967 ], [ 19.54987048, 49.36346818 ], [ 19.54993797, 49.3635034 ], [ 19.55002186, 49.36354396 ], [ 19.55009597, 49.36358182 ], [ 19.55036254, 49.36371805 ], [ 19.550522, 49.36381402 ], [ 19.55059204, 49.36386685 ], [ 19.55067811, 49.36392859 ], [ 19.55070548, 49.36395038 ], [ 19.55071464, 49.36395764 ], [ 19.55079608, 49.36402278 ], [ 19.5508236, 49.36404439 ], [ 19.55084681, 49.36406374 ], [ 19.55086912, 49.36409683 ], [ 19.55094375, 49.364208 ], [ 19.55105083, 49.36436866 ], [ 19.55126657, 49.36468151 ], [ 19.55130968, 49.36474627 ], [ 19.55140104, 49.36488334 ], [ 19.55167387, 49.36528546 ], [ 19.55172961, 49.36536387 ], [ 19.55182245, 49.36550001 ], [ 19.55189832, 49.36561123 ], [ 19.55193631, 49.36566576 ], [ 19.55195419, 49.36568982 ], [ 19.55200079, 49.36575807 ], [ 19.55202158, 49.36578731 ], [ 19.55206727, 49.36585508 ], [ 19.5521236, 49.36593585 ], [ 19.55217266, 49.36600566 ], [ 19.5522251, 49.3660814 ], [ 19.55229587, 49.36618094 ], [ 19.55231995, 49.36621546 ], [ 19.55237315, 49.36629321 ], [ 19.55240966, 49.3663447 ], [ 19.55244158, 49.3663913 ], [ 19.55250308, 49.36648195 ], [ 19.55256605, 49.36657167 ], [ 19.55261295, 49.36663841 ], [ 19.55288044, 49.36702073 ], [ 19.55290509, 49.36699517 ], [ 19.55185188, 49.36547483 ], [ 19.55091244, 49.36407742 ], [ 19.55089937, 49.36405349 ], [ 19.55082748, 49.36399734 ], [ 19.55079496, 49.36397199 ], [ 19.55069757, 49.36389594 ], [ 19.55058693, 49.36380947 ], [ 19.55033557, 49.36365464 ], [ 19.5501455, 49.36355981 ], [ 19.5498982, 49.36343446 ], [ 19.54987817, 49.36342418 ], [ 19.54953422, 49.36331114 ], [ 19.54903488, 49.36315233 ], [ 19.54896156, 49.36312406 ], [ 19.54887947, 49.3630925 ], [ 19.54882879, 49.36308372 ], [ 19.54872131, 49.36306517 ], [ 19.54861628, 49.363047 ], [ 19.5481558, 49.3630036 ], [ 19.54823225, 49.36301282 ], [ 19.54855142, 49.36306787 ], [ 19.54855589, 49.3630687 ], [ 19.54887884, 49.36314024 ], [ 19.54903388, 49.36318663 ] ] ] } },
{ "type": "Feature", "properties": { "@featureType": "CadastralParcel", "areaValue": { "value": 24232, "@uom": "m2" }, "beginLifespanVersion": { "@nilReason": "http://inspire.ec.europa.eu/codelist/VoidReasonValue/Unpopulated", "@nil": "true" }, "endLifespanVersion": { "@nilReason": "http://inspire.ec.europa.eu/codelist/VoidReasonValue/Unpopulated", "@nil": "true" }, "inspireId": { "@dataType": "Identifier", "localId": "861090_1452/1.E", "namespace": "SK.ESKN.CP", "versionId": "20260703T07:07:37" }, "label": "1452/1", "nationalCadastralReference": "861090_1452/1.E", "referencePoint": { "type": "Point", "coordinates": [ 19.54980573, 49.36767804 ] }, "validFrom": "2026-06-30T16:00:00Z", "validTo": { "@nilReason": "http://inspire.ec.europa.eu/codelist/VoidReasonValue/Unpopulated", "@nil": "true" }, "administrativeUnit": { "@href": "#auAdmUnitS.1738" } }, "geometry": { "type": "Polygon", "coordinates": [ [ [ 19.54383818, 49.36380408 ], [ 19.54380594, 49.36398082 ], [ 19.5435999, 49.36378142 ], [ 19.54354144, 49.36372488 ], [ 19.54334976, 49.36354362 ], [ 19.54332535, 49.3635409 ], [ 19.54312628, 49.36339689 ], [ 19.54292011, 49.36327166 ], [ 19.54269632, 49.36314348 ], [ 19.54270177, 49.36312984 ], [ 19.54208696, 49.36281589 ], [ 19.54197517, 49.36275731 ], [ 19.54153516, 49.3625924 ], [ 19.54120311, 49.36252872 ], [ 19.54120054, 49.36249174 ], [ 19.54120047, 49.362482 ], [ 19.54116355, 49.36247745 ], [ 19.54111389, 49.36248503 ], [ 19.54107594, 49.36249548 ], [ 19.54107021, 49.36249874 ], [ 19.54104835, 49.362511 ], [ 19.54102651, 49.36253345 ], [ 19.5410159, 49.36254901 ], [ 19.54101642, 49.36254931 ], [ 19.54119579, 49.36256003 ], [ 19.54151099, 49.36263421 ], [ 19.54166986, 49.36271088 ], [ 19.54194036, 49.362841 ], [ 19.54212045, 49.36293089 ], [ 19.5421833, 49.36305802 ], [ 19.54223959, 49.36316502 ], [ 19.54226109, 49.36319394 ], [ 19.54229614, 49.36300642 ], [ 19.54298612, 49.36349538 ], [ 19.54327609, 49.36370758 ], [ 19.54377025, 49.36406763 ], [ 19.54382855, 49.36418302 ], [ 19.54388139, 49.36429266 ], [ 19.54394588, 49.36442645 ], [ 19.5440057, 49.36455101 ], [ 19.54408162, 49.3647046 ], [ 19.54422163, 49.36500367 ], [ 19.5458581, 49.3652453 ], [ 19.54608536, 49.36535912 ], [ 19.54646254, 49.3655456 ], [ 19.54660673, 49.36561764 ], [ 19.54669751, 49.36566355 ], [ 19.54675618, 49.36568946 ], [ 19.54695064, 49.36578458 ], [ 19.54723916, 49.36592866 ], [ 19.54725561, 49.36593625 ], [ 19.54940509, 49.36698811 ], [ 19.5494378, 49.36706376 ], [ 19.54947394, 49.36715273 ], [ 19.54961051, 49.36748075 ], [ 19.54976313, 49.36781887 ], [ 19.54976904, 49.36787132 ], [ 19.5497711, 49.36810495 ], [ 19.54977188, 49.36829579 ], [ 19.54977106, 49.36838318 ], [ 19.54976927, 49.36847314 ], [ 19.54972678, 49.36858642 ], [ 19.54971217, 49.36872582 ], [ 19.54971063, 49.36875604 ], [ 19.54963571, 49.36956204 ], [ 19.54947991, 49.36973528 ], [ 19.54896573, 49.37030965 ], [ 19.54894388, 49.37057356 ], [ 19.54892752, 49.37089775 ], [ 19.54895151, 49.37105972 ], [ 19.54896337, 49.37109504 ], [ 19.54893674, 49.37121101 ], [ 19.54892767, 49.37124594 ], [ 19.54882714, 49.37175245 ], [ 19.5488291, 49.3720378 ], [ 19.54885296, 49.37235362 ], [ 19.54893277, 49.37262861 ], [ 19.54895952, 49.37282585 ], [ 19.5490281, 49.37280254 ], [ 19.5490272, 49.37279673 ], [ 19.54899666, 49.37259877 ], [ 19.54892434, 49.37235612 ], [ 19.54890115, 49.37202348 ], [ 19.54889558, 49.37175914 ], [ 19.54895277, 49.37149259 ], [ 19.54898485, 49.37135253 ], [ 19.54901495, 49.37121544 ], [ 19.54903596, 49.37102468 ], [ 19.54900788, 49.37095482 ], [ 19.54900812, 49.37091869 ], [ 19.54901287, 49.37082165 ], [ 19.5490203, 49.37064443 ], [ 19.54902423, 49.37056682 ], [ 19.54902492, 49.37054856 ], [ 19.54902962, 49.37048982 ], [ 19.54904122, 49.37031495 ], [ 19.54906267, 49.37029357 ], [ 19.54938459, 49.36995396 ], [ 19.54944589, 49.36988985 ], [ 19.54948128, 49.36985413 ], [ 19.54954047, 49.36979037 ], [ 19.54959063, 49.36973892 ], [ 19.54962988, 49.36969806 ], [ 19.54967614, 49.36964823 ], [ 19.54969542, 49.36962783 ], [ 19.54991423, 49.36776566 ], [ 19.54990958, 49.36759041 ], [ 19.54987343, 49.36742069 ], [ 19.54985343, 49.3673384 ], [ 19.54981624, 49.36723983 ], [ 19.54979372, 49.36717752 ], [ 19.54977131, 49.3671401 ], [ 19.54973662, 49.36708968 ], [ 19.54970461, 49.36704263 ], [ 19.54964611, 49.36695896 ], [ 19.54962327, 49.36692575 ], [ 19.54955984, 49.36683519 ], [ 19.5495401, 49.36680907 ], [ 19.54942005, 49.36677625 ], [ 19.54931695, 49.36674897 ], [ 19.54929547, 49.36672755 ], [ 19.54923189, 49.36663842 ], [ 19.5491418, 49.36658208 ], [ 19.54910422, 49.36656028 ], [ 19.5490021, 49.36650538 ], [ 19.5489632, 49.3664856 ], [ 19.54895772, 49.36648265 ], [ 19.548871, 49.36643484 ], [ 19.54869324, 49.36633831 ], [ 19.54850746, 49.366238 ], [ 19.54838804, 49.36617321 ], [ 19.54817044, 49.36605667 ], [ 19.54782307, 49.36587011 ], [ 19.54751272, 49.36574983 ], [ 19.54744816, 49.36571952 ], [ 19.5469174, 49.36546762 ], [ 19.54619263, 49.36514242 ], [ 19.54502093, 49.36476955 ], [ 19.54498851, 49.36475907 ], [ 19.5448454, 49.36465085 ], [ 19.54475844, 49.36458707 ], [ 19.54472166, 49.36455774 ], [ 19.54456104, 49.36444026 ], [ 19.544462, 49.36436683 ], [ 19.5443557, 49.36428894 ], [ 19.54431086, 49.36425365 ], [ 19.54428286, 49.36423391 ], [ 19.54422174, 49.36420249 ], [ 19.5441346, 49.36415745 ], [ 19.5440494, 49.36411485 ], [ 19.54401439, 49.36405585 ], [ 19.54397678, 49.36399268 ], [ 19.54397523, 49.36381703 ], [ 19.54393057, 49.36381132 ], [ 19.54383818, 49.36380408 ] ] ] } }
]
}
