{
"type": "FeatureCollection",
"name": "gis",
"crs": { "type": "name", "properties": { "name": "urn:ogc:def:crs:OGC:1.3:CRS84" } },
"features": [
{ "type": "Feature", "properties": { "@featureType": "CadastralParcel", "areaValue": { "value": 209556, "@uom": "m2" }, "beginLifespanVersion": { "@nilReason": "http://inspire.ec.europa.eu/codelist/VoidReasonValue/Unpopulated", "@nil": "true" }, "endLifespanVersion": { "@nilReason": "http://inspire.ec.europa.eu/codelist/VoidReasonValue/Unpopulated", "@nil": "true" }, "inspireId": { "@dataType": "Identifier", "localId": "846791_5426/2.C", "namespace": "SK.ESKN.CP", "versionId": "20260703T06:07:28" }, "label": "5426/2", "nationalCadastralReference": "846791_5426/2.C", "referencePoint": { "type": "Point", "coordinates": [ 17.31224398, 48.50971442 ] }, "validFrom": "2026-06-30T16:00:00Z", "validTo": { "@nilReason": "http://inspire.ec.europa.eu/codelist/VoidReasonValue/Unpopulated", "@nil": "true" }, "administrativeUnit": { "@href": "#auAdmUnitS.2537" } }, "geometry": { "type": "Polygon", "coordinates": [ [ [ 17.3084856, 48.5092697 ], [ 17.31049818, 48.51007184 ], [ 17.31034727, 48.51023808 ], [ 17.31031272, 48.51024539 ], [ 17.31014324, 48.51028117 ], [ 17.31003499, 48.51030398 ], [ 17.30996028, 48.51031978 ], [ 17.30993908, 48.51032426 ], [ 17.30967855, 48.51032479 ], [ 17.30934645, 48.51032542 ], [ 17.30924034, 48.51046196 ], [ 17.30915055, 48.51059118 ], [ 17.30984932, 48.5105631 ], [ 17.31109214, 48.51063568 ], [ 17.31141095, 48.51067963 ], [ 17.31234046, 48.51069414 ], [ 17.31218075, 48.51062204 ], [ 17.31224384, 48.51058921 ], [ 17.31265753, 48.51078181 ], [ 17.31338284, 48.51119501 ], [ 17.31335084, 48.51121722 ], [ 17.31294679, 48.51099996 ], [ 17.31285619, 48.51095064 ], [ 17.31282443, 48.5109566 ], [ 17.31275069, 48.51097047 ], [ 17.31278157, 48.51102997 ], [ 17.31278338, 48.51104798 ], [ 17.31286278, 48.51113425 ], [ 17.31290414, 48.51117908 ], [ 17.31294582, 48.51100739 ], [ 17.31315134, 48.51113374 ], [ 17.31343124, 48.51128124 ], [ 17.3140824, 48.51158384 ], [ 17.31394263, 48.5116861 ], [ 17.31401951, 48.51174816 ], [ 17.31366243, 48.51193712 ], [ 17.31368321, 48.51194463 ], [ 17.31406654, 48.51203682 ], [ 17.31566105, 48.51113065 ], [ 17.31535856, 48.51089438 ], [ 17.3151606, 48.51072172 ], [ 17.31478929, 48.50935701 ], [ 17.31663567, 48.50893672 ], [ 17.31641365, 48.50875571 ], [ 17.31658998, 48.50863614 ], [ 17.31945434, 48.50774448 ], [ 17.31985643, 48.50815643 ], [ 17.32025886, 48.50814629 ], [ 17.32050082, 48.50836529 ], [ 17.32100506, 48.50819788 ], [ 17.32167238, 48.50758759 ], [ 17.3213104, 48.5073957 ], [ 17.32113345, 48.50732428 ], [ 17.32152723, 48.50727345 ], [ 17.32156514, 48.5068474 ], [ 17.32119203, 48.50679648 ], [ 17.32077552, 48.50722791 ], [ 17.32040343, 48.5070931 ], [ 17.31948279, 48.50743447 ], [ 17.31802085, 48.50765678 ], [ 17.31751594, 48.5078112 ], [ 17.31605657, 48.50768988 ], [ 17.31568917, 48.50781762 ], [ 17.3151348, 48.50790852 ], [ 17.31462751, 48.50788656 ], [ 17.31430538, 48.50797406 ], [ 17.31406125, 48.50779005 ], [ 17.31358609, 48.50784294 ], [ 17.31314343, 48.50776773 ], [ 17.31195723, 48.50772645 ], [ 17.31158691, 48.50739038 ], [ 17.31098962, 48.50755589 ], [ 17.31054203, 48.50758617 ], [ 17.30995631, 48.50765366 ], [ 17.30943598, 48.50786316 ], [ 17.30884936, 48.50804003 ], [ 17.30798956, 48.50815983 ], [ 17.30791925, 48.50856614 ], [ 17.30790283, 48.50860979 ], [ 17.30781011, 48.50870194 ], [ 17.30867618, 48.50905438 ], [ 17.30850163, 48.5092506 ], [ 17.3084856, 48.5092697 ] ] ] } },
{ "type": "Feature", "properties": { "@featureType": "CadastralParcel", "areaValue": { "value": 1280, "@uom": "m2" }, "beginLifespanVersion": { "@nilReason": "http://inspire.ec.europa.eu/codelist/VoidReasonValue/Unpopulated", "@nil": "true" }, "endLifespanVersion": { "@nilReason": "http://inspire.ec.europa.eu/codelist/VoidReasonValue/Unpopulated", "@nil": "true" }, "inspireId": { "@dataType": "Identifier", "localId": "846791_5426/4.C", "namespace": "SK.ESKN.CP", "versionId": "20260703T06:07:28" }, "label": "5426/4", "nationalCadastralReference": "846791_5426/4.C", "referencePoint": { "type": "Point", "coordinates": [ 17.31280141, 48.51091873 ] }, "validFrom": "2026-06-30T16:00:00Z", "validTo": { "@nilReason": "http://inspire.ec.europa.eu/codelist/VoidReasonValue/Unpopulated", "@nil": "true" }, "administrativeUnit": { "@href": "#auAdmUnitS.2537" } }, "geometry": { "type": "Polygon", "coordinates": [ [ [ 17.31275069, 48.51097047 ], [ 17.31282443, 48.5109566 ], [ 17.31285619, 48.51095064 ], [ 17.31294679, 48.51099996 ], [ 17.31335084, 48.51121722 ], [ 17.31338284, 48.51119501 ], [ 17.31265753, 48.51078181 ], [ 17.31224384, 48.51058921 ], [ 17.31218075, 48.51062204 ], [ 17.31234046, 48.51069414 ], [ 17.31141095, 48.51067963 ], [ 17.31109214, 48.51063568 ], [ 17.30984932, 48.5105631 ], [ 17.30992423, 48.51060181 ], [ 17.31106913, 48.51066788 ], [ 17.31143152, 48.51071234 ], [ 17.31235077, 48.51073919 ], [ 17.31245488, 48.51073328 ], [ 17.31260765, 48.51079625 ], [ 17.3126296, 48.51083619 ], [ 17.31270163, 48.51083287 ], [ 17.31270164, 48.51088682 ], [ 17.31270979, 48.51096562 ], [ 17.31274446, 48.5109584 ], [ 17.31275069, 48.51097047 ] ] ] } },
{ "type": "Feature", "properties": { "@featureType": "CadastralParcel", "areaValue": { "value": 1682, "@uom": "m2" }, "beginLifespanVersion": { "@nilReason": "http://inspire.ec.europa.eu/codelist/VoidReasonValue/Unpopulated", "@nil": "true" }, "endLifespanVersion": { "@nilReason": "http://inspire.ec.europa.eu/codelist/VoidReasonValue/Unpopulated", "@nil": "true" }, "inspireId": { "@dataType": "Identifier", "localId": "846791_5426/10.C", "namespace": "SK.ESKN.CP", "versionId": "20260703T06:07:28" }, "label": "5426/10", "nationalCadastralReference": "846791_5426/10.C", "referencePoint": { "type": "Point", "coordinates": [ 17.31236525, 48.51102485 ] }, "validFrom": "2026-06-30T16:00:00Z", "validTo": { "@nilReason": "http://inspire.ec.europa.eu/codelist/VoidReasonValue/Unpopulated", "@nil": "true" }, "administrativeUnit": { "@href": "#auAdmUnitS.2537" } }, "geometry": { "type": "Polygon", "coordinates": [ [ [ 17.31272465, 48.51104232 ], [ 17.31268887, 48.51097003 ], [ 17.31270979, 48.51096562 ], [ 17.31270164, 48.51088682 ], [ 17.31270163, 48.51083287 ], [ 17.3126296, 48.51083619 ], [ 17.31260765, 48.51079625 ], [ 17.31245488, 48.51073328 ], [ 17.31241227, 48.51076374 ], [ 17.31236965, 48.51079429 ], [ 17.31223144, 48.51087777 ], [ 17.31235515, 48.5112142 ], [ 17.31251898, 48.51128052 ], [ 17.31253938, 48.51128881 ], [ 17.31263878, 48.51126976 ], [ 17.31283184, 48.51123271 ], [ 17.31285004, 48.51122921 ], [ 17.31283834, 48.51121181 ], [ 17.31272465, 48.51104232 ] ], [ [ 17.3125894, 48.51106834 ], [ 17.31246903, 48.51108846 ], [ 17.31243837, 48.51100737 ], [ 17.31255874, 48.51098725 ], [ 17.3125894, 48.51106834 ] ] ] } },
{ "type": "Feature", "properties": { "@featureType": "CadastralParcel", "areaValue": { "value": 87, "@uom": "m2" }, "beginLifespanVersion": { "@nilReason": "http://inspire.ec.europa.eu/codelist/VoidReasonValue/Unpopulated", "@nil": "true" }, "endLifespanVersion": { "@nilReason": "http://inspire.ec.europa.eu/codelist/VoidReasonValue/Unpopulated", "@nil": "true" }, "inspireId": { "@dataType": "Identifier", "localId": "846791_5426/3.C", "namespace": "SK.ESKN.CP", "versionId": "20260703T06:07:28" }, "label": "5426/3", "nationalCadastralReference": "846791_5426/3.C", "referencePoint": { "type": "Point", "coordinates": [ 17.31251389, 48.51103786 ] }, "validFrom": "2026-06-30T16:00:00Z", "validTo": { "@nilReason": "http://inspire.ec.europa.eu/codelist/VoidReasonValue/Unpopulated", "@nil": "true" }, "administrativeUnit": { "@href": "#auAdmUnitS.2537" } }, "geometry": { "type": "Polygon", "coordinates": [ [ [ 17.31246903, 48.51108846 ], [ 17.3125894, 48.51106834 ], [ 17.31255874, 48.51098725 ], [ 17.31243837, 48.51100737 ], [ 17.31246903, 48.51108846 ] ] ] } },
{ "type": "Feature", "properties": { "@featureType": "CadastralParcel", "areaValue": { "value": 124, "@uom": "m2" }, "beginLifespanVersion": { "@nilReason": "http://inspire.ec.europa.eu/codelist/VoidReasonValue/Unpopulated", "@nil": "true" }, "endLifespanVersion": { "@nilReason": "http://inspire.ec.europa.eu/codelist/VoidReasonValue/Unpopulated", "@nil": "true" }, "inspireId": { "@dataType": "Identifier", "localId": "846791_5426/6.C", "namespace": "SK.ESKN.CP", "versionId": "20260703T06:07:28" }, "label": "5426/6", "nationalCadastralReference": "846791_5426/6.C", "referencePoint": { "type": "Point", "coordinates": [ 17.31324678, 48.51120749 ] }, "validFrom": "2026-06-30T16:00:00Z", "validTo": { "@nilReason": "http://inspire.ec.europa.eu/codelist/VoidReasonValue/Unpopulated", "@nil": "true" }, "administrativeUnit": { "@href": "#auAdmUnitS.2537" } }, "geometry": { "type": "Polygon", "coordinates": [ [ [ 17.31343124, 48.51128124 ], [ 17.31315134, 48.51113374 ], [ 17.31328096, 48.51132145 ], [ 17.31343124, 48.51128124 ] ] ] } },
{ "type": "Feature", "properties": { "@featureType": "CadastralParcel", "areaValue": { "value": 4356, "@uom": "m2" }, "beginLifespanVersion": { "@nilReason": "http://inspire.ec.europa.eu/codelist/VoidReasonValue/Unpopulated", "@nil": "true" }, "endLifespanVersion": { "@nilReason": "http://inspire.ec.europa.eu/codelist/VoidReasonValue/Unpopulated", "@nil": "true" }, "inspireId": { "@dataType": "Identifier", "localId": "846791_5426/5.C", "namespace": "SK.ESKN.CP", "versionId": "20260703T06:07:28" }, "label": "5426/5", "nationalCadastralReference": "846791_5426/5.C", "referencePoint": { "type": "Point", "coordinates": [ 17.31338454, 48.51155638 ] }, "validFrom": "2026-06-30T16:00:00Z", "validTo": { "@nilReason": "http://inspire.ec.europa.eu/codelist/VoidReasonValue/Unpopulated", "@nil": "true" }, "administrativeUnit": { "@href": "#auAdmUnitS.2537" } }, "geometry": { "type": "Polygon", "coordinates": [ [ [ 17.31343124, 48.51128124 ], [ 17.31328096, 48.51132145 ], [ 17.31315134, 48.51113374 ], [ 17.31294582, 48.51100739 ], [ 17.31290414, 48.51117908 ], [ 17.31289923, 48.51119927 ], [ 17.31289229, 48.51122773 ], [ 17.31282597, 48.51125113 ], [ 17.31259117, 48.51133387 ], [ 17.31280004, 48.51140739 ], [ 17.31329381, 48.51179538 ], [ 17.31338795, 48.51186942 ], [ 17.31354994, 48.51199671 ], [ 17.31362773, 48.51195554 ], [ 17.31366243, 48.51193712 ], [ 17.31401951, 48.51174816 ], [ 17.31394263, 48.5116861 ], [ 17.31361624, 48.51142666 ], [ 17.31343124, 48.51128124 ] ] ] } },
{ "type": "Feature", "properties": { "@featureType": "CadastralParcel", "areaValue": { "value": 405, "@uom": "m2" }, "beginLifespanVersion": { "@nilReason": "http://inspire.ec.europa.eu/codelist/VoidReasonValue/Unpopulated", "@nil": "true" }, "endLifespanVersion": { "@nilReason": "http://inspire.ec.europa.eu/codelist/VoidReasonValue/Unpopulated", "@nil": "true" }, "inspireId": { "@dataType": "Identifier", "localId": "846791_5426/7.C", "namespace": "SK.ESKN.CP", "versionId": "20260703T06:07:28" }, "label": "5426/7", "nationalCadastralReference": "846791_5426/7.C", "referencePoint": { "type": "Point", "coordinates": [ 17.3138142, 48.51150525 ] }, "validFrom": "2026-06-30T16:00:00Z", "validTo": { "@nilReason": "http://inspire.ec.europa.eu/codelist/VoidReasonValue/Unpopulated", "@nil": "true" }, "administrativeUnit": { "@href": "#auAdmUnitS.2537" } }, "geometry": { "type": "Polygon", "coordinates": [ [ [ 17.31343124, 48.51128124 ], [ 17.31361624, 48.51142666 ], [ 17.31394263, 48.5116861 ], [ 17.3140824, 48.51158384 ], [ 17.31343124, 48.51128124 ] ] ] } },
{ "type": "Feature", "properties": { "@featureType": "CadastralParcel", "areaValue": { "value": 202896, "@uom": "m2" }, "beginLifespanVersion": { "@nilReason": "http://inspire.ec.europa.eu/codelist/VoidReasonValue/Unpopulated", "@nil": "true" }, "endLifespanVersion": { "@nilReason": "http://inspire.ec.europa.eu/codelist/VoidReasonValue/Unpopulated", "@nil": "true" }, "inspireId": { "@dataType": "Identifier", "localId": "846791_5426/23.E", "namespace": "SK.ESKN.CP", "versionId": "20260703T06:07:28" }, "label": "5426/23", "nationalCadastralReference": "846791_5426/23.E", "referencePoint": { "type": "Point", "coordinates": [ 17.31057835, 48.50945447 ] }, "validFrom": "2026-06-30T16:00:00Z", "validTo": { "@nilReason": "http://inspire.ec.europa.eu/codelist/VoidReasonValue/Unpopulated", "@nil": "true" }, "administrativeUnit": { "@href": "#auAdmUnitS.2537" } }, "geometry": { "type": "MultiPolygon", "coordinates": [ [ [ [ 17.30791925, 48.50856614 ], [ 17.30790283, 48.50860979 ], [ 17.30781011, 48.50870194 ], [ 17.30867618, 48.50905438 ], [ 17.30850163, 48.5092506 ], [ 17.3084856, 48.5092697 ], [ 17.30919373, 48.50955194 ], [ 17.31049818, 48.51007184 ], [ 17.31034727, 48.51023808 ], [ 17.31031272, 48.51024539 ], [ 17.3101636, 48.51027691 ], [ 17.30998485, 48.51031461 ], [ 17.30993908, 48.51032426 ], [ 17.30967855, 48.51032479 ], [ 17.30934645, 48.51032542 ], [ 17.30924034, 48.51046196 ], [ 17.31037547, 48.51059382 ], [ 17.31109214, 48.51063568 ], [ 17.31141095, 48.51067963 ], [ 17.31234046, 48.51069414 ], [ 17.31218075, 48.51062204 ], [ 17.31224384, 48.51058921 ], [ 17.31265753, 48.51078181 ], [ 17.31338284, 48.51119501 ], [ 17.31335084, 48.51121722 ], [ 17.31294679, 48.51099996 ], [ 17.31285619, 48.51095064 ], [ 17.31282443, 48.5109566 ], [ 17.31275069, 48.51097047 ], [ 17.31278157, 48.51102997 ], [ 17.31278338, 48.51104798 ], [ 17.31290414, 48.51117908 ], [ 17.31294582, 48.51100739 ], [ 17.31315134, 48.51113374 ], [ 17.31343124, 48.51128124 ], [ 17.3140824, 48.51158384 ], [ 17.31394263, 48.5116861 ], [ 17.31401951, 48.51174816 ], [ 17.31366243, 48.51193712 ], [ 17.31368321, 48.51194463 ], [ 17.31406654, 48.51203682 ], [ 17.31566105, 48.51113065 ], [ 17.31535856, 48.51089438 ], [ 17.3151606, 48.51072172 ], [ 17.31478929, 48.50935701 ], [ 17.31663567, 48.50893672 ], [ 17.31641365, 48.50875571 ], [ 17.31658998, 48.50863614 ], [ 17.31945434, 48.50774448 ], [ 17.31985643, 48.50815643 ], [ 17.32025886, 48.50814629 ], [ 17.32050082, 48.50836529 ], [ 17.32100506, 48.50819788 ], [ 17.32167238, 48.50758759 ], [ 17.3213104, 48.5073957 ], [ 17.32113345, 48.50732428 ], [ 17.32152723, 48.50727345 ], [ 17.32156514, 48.5068474 ], [ 17.32119203, 48.50679648 ], [ 17.32077552, 48.50722791 ], [ 17.32040343, 48.5070931 ], [ 17.31948279, 48.50743447 ], [ 17.31802085, 48.50765678 ], [ 17.31751594, 48.5078112 ], [ 17.31605657, 48.50768988 ], [ 17.31568917, 48.50781762 ], [ 17.3151348, 48.50790852 ], [ 17.31462751, 48.50788656 ], [ 17.31430538, 48.50797406 ], [ 17.31406125, 48.50779005 ], [ 17.31358609, 48.50784294 ], [ 17.31314343, 48.50776773 ], [ 17.31195723, 48.50772645 ], [ 17.31158691, 48.50739038 ], [ 17.31098962, 48.50755589 ], [ 17.31054203, 48.50758617 ], [ 17.30995631, 48.50765366 ], [ 17.30943598, 48.50786316 ], [ 17.30884936, 48.50804003 ], [ 17.30798956, 48.50815983 ], [ 17.30791925, 48.50856614 ] ], [ [ 17.3124928, 48.51050731 ], [ 17.3115941, 48.51016912 ], [ 17.31236119, 48.50927542 ], [ 17.31325329, 48.50961859 ], [ 17.3124928, 48.51050731 ] ] ], [ [ [ 17.31329381, 48.51179538 ], [ 17.31280004, 48.51140739 ], [ 17.31259117, 48.51133387 ], [ 17.31282597, 48.51125113 ], [ 17.31289229, 48.51122773 ], [ 17.31289923, 48.51119927 ], [ 17.31286086, 48.51120308 ], [ 17.31284652, 48.51118605 ], [ 17.31272465, 48.51104232 ], [ 17.31283834, 48.51121181 ], [ 17.31285004, 48.51122921 ], [ 17.31283184, 48.51123271 ], [ 17.31263878, 48.51126976 ], [ 17.31253938, 48.51128881 ], [ 17.31251898, 48.51128052 ], [ 17.31235515, 48.5112142 ], [ 17.31223144, 48.51087777 ], [ 17.31236965, 48.51079429 ], [ 17.31241227, 48.51076374 ], [ 17.31245488, 48.51073328 ], [ 17.31235077, 48.51073919 ], [ 17.31143152, 48.51071234 ], [ 17.3119373, 48.51075383 ], [ 17.31218596, 48.51081677 ], [ 17.31188584, 48.51116797 ], [ 17.312611, 48.51149522 ], [ 17.31329381, 48.51179538 ] ] ] ] } }
]
}
