{
"type": "FeatureCollection",
"name": "gis",
"crs": { "type": "name", "properties": { "name": "urn:ogc:def:crs:OGC:1.3:CRS84" } },
"features": [
{ "type": "Feature", "properties": { "@featureType": "CadastralZoning", "beginLifespanVersion": { "@nilReason": "http://inspire.ec.europa.eu/codelist/VoidReasonValue/Unpopulated", "@nil": "true" }, "endLifespanVersion": { "@nilReason": "http://inspire.ec.europa.eu/codelist/VoidReasonValue/Unpopulated", "@nil": "true" }, "estimatedAccuracy": { "value": -1, "@uom": "m" }, "inspireId": { "@dataType": "Identifier", "localId": "864412", "namespace": "SK.ESKN.CP", "versionId": "20260703T04:07:40" }, "label": "Trenčianske Jastrabie", "level": { "@href": "http://inspire.ec.europa.eu/codelist/CadastralZoningLevelValue/3rdOrder" }, "levelName": { "value": "Katastrálne územie", "@locale": "sk" }, "name_1": { "@dataType": "name", "GeographicalName": { "@dataType": "GeographicalName", "language": "SLK", "nativeness": { "@href": "http://inspire.ec.europa.eu/codelist/NativenessValue/endonym", "@title": "endonym" }, "nameStatus": { "@href": "http://inspire.ec.europa.eu/codelist/NameStatusValue/official", "@title": "official" }, "sourceOfName": { "@nilReason": "http://inspire.ec.europa.eu/codelist/VoidReasonValue/Unpopulated", "@nil": "true" }, "pronunciation": { "@dataType": "pronunciation", "@nilReason": "http://inspire.ec.europa.eu/codelist/VoidReasonValue/Unpopulated", "@nil": "true" }, "spelling": { "@dataType": "SpellingOfName", "text": "Trenčianske Jastrabie", "script": "LATN" } } }, "nationalCadastalZoningReference": "864412", "validFrom": "2026-06-30T16:00:00Z", "validTo": { "@nilReason": "http://inspire.ec.europa.eu/codelist/VoidReasonValue/Unpopulated", "@nil": "true" }, "place_id": 419462592, "osm_type": "relation", "osm_id": 2219795, "place_rank": 25, "category": "boundary", "type": "cadastral", "importance": 0.44578289064630189, "addresstype": "cadastral_community", "name_2": "Trenčianske Jastrabie", "display_name": "Trenčianske Jastrabie, okres Trenčín, Trenčiansky kraj, Slovensko" }, "geometry": { "type": "Polygon", "coordinates": [ [ [ 18.09002495, 48.80742836 ], [ 18.09001494, 48.80726003 ], [ 18.09009259, 48.80702901 ], [ 18.09013069, 48.80691595 ], [ 18.090139467703558, 48.806916428540568 ], [ 18.0901429, 48.8069062 ], [ 18.0904255, 48.8069215 ], [ 18.0906125, 48.8068558 ], [ 18.0908423, 48.806886 ], [ 18.0909935, 48.8070112 ], [ 18.091243, 48.8070111 ], [ 18.0914362, 48.8069907 ], [ 18.0916662, 48.8070008 ], [ 18.0917452, 48.8070335 ], [ 18.0920886, 48.8069848 ], [ 18.0923455, 48.8068361 ], [ 18.092708896672079, 48.8067018464955 ], [ 18.09280916, 48.80661247 ], [ 18.09280804, 48.80659218 ], [ 18.0928078, 48.80658684 ], [ 18.09280378, 48.80651474 ], [ 18.092816317291785, 48.80650494133986 ], [ 18.0928163, 48.8065046 ], [ 18.092858799684819, 48.806471738752073 ], [ 18.09293535, 48.80641191 ], [ 18.092937515134267, 48.806410875056002 ], [ 18.0929477, 48.806403 ], [ 18.0929699, 48.8063918 ], [ 18.0929869, 48.8064041 ], [ 18.0930393, 48.8063767 ], [ 18.0932441, 48.806277 ], [ 18.0941525, 48.806041 ], [ 18.0949027, 48.80585 ], [ 18.0957985, 48.8056135 ], [ 18.0962905, 48.8054977 ], [ 18.0973598, 48.8051876 ], [ 18.097742, 48.8050767 ], [ 18.0978689, 48.8050401 ], [ 18.098307, 48.804902 ], [ 18.0983376, 48.8048901 ], [ 18.0987217, 48.8047671 ], [ 18.09877145549666, 48.804749028065359 ], [ 18.09875777, 48.80472721 ], [ 18.09874802, 48.80470606 ], [ 18.09875582, 48.80470191 ], [ 18.09876114516123, 48.804699073107507 ], [ 18.0987601, 48.8046969 ], [ 18.0988392, 48.8046543 ], [ 18.0988831, 48.80465 ], [ 18.0989742, 48.8046406 ], [ 18.0990808, 48.8046333 ], [ 18.0991245, 48.8046302 ], [ 18.0991871, 48.8046249 ], [ 18.0992274, 48.8046239 ], [ 18.0997156, 48.8043511 ], [ 18.1005333, 48.8040883 ], [ 18.1008576, 48.8039977 ], [ 18.1009311, 48.8039864 ], [ 18.1011293, 48.8039414 ], [ 18.1014008, 48.8038815 ], [ 18.1015541, 48.8038701 ], [ 18.1015725, 48.8038691 ], [ 18.1017488, 48.8038602 ], [ 18.1019061, 48.8038535 ], [ 18.1021959, 48.8038387 ], [ 18.1022547, 48.8038332 ], [ 18.1022899, 48.8038295 ], [ 18.1024898, 48.8038097 ], [ 18.1025607, 48.8037935 ], [ 18.1026836, 48.8038085 ], [ 18.10268, 48.803814 ], [ 18.1026514, 48.803862 ], [ 18.1026356, 48.8038892 ], [ 18.1026442, 48.8038897 ], [ 18.1027341, 48.8038973 ], [ 18.1027479, 48.8038981 ], [ 18.1027573, 48.8038975 ], [ 18.1028237, 48.8039013 ], [ 18.1028874, 48.8039095 ], [ 18.1029506, 48.8039189 ], [ 18.1030603, 48.8039151 ], [ 18.1032283, 48.8039091 ], [ 18.1034365, 48.8039292 ], [ 18.1035645, 48.8039331 ], [ 18.1040989, 48.8039394 ], [ 18.1041583, 48.8039396 ], [ 18.1042444, 48.8039378 ], [ 18.1043179, 48.8039319 ], [ 18.1044529, 48.8039319 ], [ 18.1046117, 48.8039729 ], [ 18.1046483, 48.8039828 ], [ 18.1047478, 48.8039964 ], [ 18.1048071, 48.8040055 ], [ 18.1049125, 48.8040207 ], [ 18.1049765, 48.8040402 ], [ 18.1050334, 48.8040594 ], [ 18.1050615, 48.8040847 ], [ 18.1051727, 48.8041342 ], [ 18.1052981, 48.8041415 ], [ 18.1055049, 48.8042493 ], [ 18.10553871549093, 48.804227512838061 ], [ 18.10555746, 48.80420205 ], [ 18.105561558426626, 48.804203805562828 ], [ 18.1055698, 48.8041923 ], [ 18.1057638, 48.8042758 ], [ 18.1059102, 48.8042944 ], [ 18.1060104, 48.8043353 ], [ 18.1060892, 48.804324 ], [ 18.1061053, 48.8043701 ], [ 18.1061603, 48.8043733 ], [ 18.1061991, 48.8043642 ], [ 18.1063359, 48.8043136 ], [ 18.1068014, 48.8041974 ], [ 18.1068307, 48.8042081 ], [ 18.1068413, 48.804212 ], [ 18.1068939, 48.8041938 ], [ 18.107008, 48.8041564 ], [ 18.1071296, 48.8041013 ], [ 18.1071837, 48.8041305 ], [ 18.107343, 48.8040608 ], [ 18.1074585, 48.8040325 ], [ 18.1074808, 48.804026 ], [ 18.1075761, 48.8039987 ], [ 18.1076701, 48.8039781 ], [ 18.1077985, 48.8039395 ], [ 18.1078286, 48.8039311 ], [ 18.1079944, 48.8039034 ], [ 18.1080087, 48.8039009 ], [ 18.1081697, 48.8038618 ], [ 18.1082106, 48.8038609 ], [ 18.1084051, 48.8038552 ], [ 18.1084248, 48.8038551 ], [ 18.108469, 48.8038532 ], [ 18.1085425, 48.8038497 ], [ 18.1087589, 48.8038408 ], [ 18.1087895, 48.8038392 ], [ 18.1088202, 48.8038297 ], [ 18.108923, 48.8038051 ], [ 18.1089494, 48.8038112 ], [ 18.1090483, 48.8038316 ], [ 18.1091428, 48.8037886 ], [ 18.1093232, 48.8037731 ], [ 18.1093419, 48.8037721 ], [ 18.1095021, 48.8037632 ], [ 18.1095114, 48.8037628 ], [ 18.1096597, 48.8037702 ], [ 18.1096947, 48.8037711 ], [ 18.1097647, 48.8037617 ], [ 18.1098296, 48.8037472 ], [ 18.1098799, 48.8037355 ], [ 18.1099349, 48.8037231 ], [ 18.1099937, 48.8037218 ], [ 18.110023493429093, 48.803705549038675 ], [ 18.11003129, 48.80369868 ], [ 18.11003362, 48.80369656 ], [ 18.110036134764915, 48.803695808179882 ], [ 18.1100436, 48.8036888 ], [ 18.1100461, 48.8036865 ], [ 18.1100922, 48.8036734 ], [ 18.1100941, 48.8036725 ], [ 18.1101113, 48.8036643 ], [ 18.1102574, 48.8035974 ], [ 18.1102605, 48.8035952 ], [ 18.1103253, 48.8035628 ], [ 18.1104284, 48.8035496 ], [ 18.1105043, 48.8035202 ], [ 18.1105975, 48.803484 ], [ 18.1106016, 48.8034831 ], [ 18.110776, 48.8034289 ], [ 18.1107797, 48.803428 ], [ 18.1109488, 48.8033678 ], [ 18.111146, 48.8032991 ], [ 18.1112054, 48.8032777 ], [ 18.1112824, 48.8032508 ], [ 18.1114724, 48.8031838 ], [ 18.111488, 48.8031769 ], [ 18.1115645, 48.803143 ], [ 18.1116171, 48.8031054 ], [ 18.1116445, 48.8030855 ], [ 18.1117747, 48.8030006 ], [ 18.111934467138809, 48.802915507690848 ], [ 18.11201952, 48.8028446 ], [ 18.112025317622081, 48.802840621844425 ], [ 18.1120319, 48.8028351 ], [ 18.1121687, 48.8027414 ], [ 18.112187591853449, 48.802728757542944 ], [ 18.11229356, 48.80263746 ], [ 18.1123342, 48.80260019 ], [ 18.11234086, 48.80259534 ], [ 18.112340899389469, 48.802595351395901 ], [ 18.1123463, 48.8025905 ], [ 18.1123529, 48.8025864 ], [ 18.112446, 48.8026131 ], [ 18.1124648, 48.8026198 ], [ 18.1125506, 48.8026553 ], [ 18.1126515, 48.8026962 ], [ 18.1126675, 48.8027028 ], [ 18.1128675, 48.8027303 ], [ 18.1129623, 48.8026961 ], [ 18.1131298, 48.8026316 ], [ 18.1132764, 48.8025791 ], [ 18.113447, 48.8025561 ], [ 18.1134575, 48.8025579 ], [ 18.1134755, 48.8025625 ], [ 18.1134804, 48.8025638 ], [ 18.1136119, 48.8025974 ], [ 18.1136829, 48.8025994 ], [ 18.1136879, 48.8025997 ], [ 18.1136907, 48.8025999 ], [ 18.1137736, 48.8026092 ], [ 18.1138623, 48.802594 ], [ 18.1142971, 48.802678 ], [ 18.1146643, 48.8027376 ], [ 18.1146839, 48.8027411 ], [ 18.11493, 48.8027881 ], [ 18.1149744, 48.8027963 ], [ 18.1150533, 48.8028087 ], [ 18.1152447, 48.8028369 ], [ 18.1152576, 48.8028388 ], [ 18.1152919, 48.8028474 ], [ 18.1153341, 48.8028589 ], [ 18.1156042, 48.8029299 ], [ 18.1156733, 48.8029486 ], [ 18.1156874, 48.8029449 ], [ 18.1159759, 48.8030126 ], [ 18.1159615, 48.8030455 ], [ 18.11596713522102, 48.803046431036513 ], [ 18.11597816, 48.8030283 ], [ 18.115983929700626, 48.803029623532893 ], [ 18.1159904, 48.8030191 ], [ 18.1162771, 48.8030842 ], [ 18.116287293626769, 48.803086905715752 ], [ 18.11628925, 48.8030835 ], [ 18.11629298, 48.80307704 ], [ 18.11630326, 48.8030594 ], [ 18.11630665, 48.80305345 ], [ 18.11632249, 48.80302585 ], [ 18.116328, 48.80301633 ], [ 18.11633564, 48.80300413 ], [ 18.11635986, 48.80296591 ], [ 18.11656356, 48.80274393 ], [ 18.11665069, 48.80264905 ], [ 18.11667931, 48.80261786 ], [ 18.116687751920374, 48.802612259314678 ], [ 18.1166913, 48.8026084 ], [ 18.1167989, 48.8025369 ], [ 18.1168916, 48.8024756 ], [ 18.1169694, 48.8024238 ], [ 18.1170463, 48.8023729 ], [ 18.1171421, 48.8023447 ], [ 18.1175076, 48.8022373 ], [ 18.1178921, 48.8021242 ], [ 18.1180449, 48.8020789 ], [ 18.1182212, 48.8023249 ], [ 18.118721, 48.8030154 ], [ 18.1192252, 48.8029181 ], [ 18.1196333, 48.8028393 ], [ 18.120031493178452, 48.802765524804677 ], [ 18.11990201, 48.8024329 ], [ 18.119917176178191, 48.802430954640123 ], [ 18.1199142, 48.8024233 ], [ 18.1201, 48.8023991 ], [ 18.1201999, 48.8023881 ], [ 18.1202829, 48.8023783 ], [ 18.1203492, 48.8023696 ], [ 18.1203964, 48.8023646 ], [ 18.1204497, 48.8023596 ], [ 18.1205077, 48.802354 ], [ 18.1205324, 48.802351 ], [ 18.1206087, 48.8023431 ], [ 18.1207192, 48.8023301 ], [ 18.1208715, 48.8023153 ], [ 18.1209508, 48.8023064 ], [ 18.1211361, 48.8022855 ], [ 18.1212574, 48.8022701 ], [ 18.1214237, 48.8022526 ], [ 18.1215081, 48.8024947 ], [ 18.1216784, 48.8024741 ], [ 18.121702, 48.8024719 ], [ 18.1218661, 48.8024521 ], [ 18.1219733, 48.8024425 ], [ 18.122097277724972, 48.802426899546077 ], [ 18.12209878, 48.80241674 ], [ 18.12202578, 48.8020884 ], [ 18.12196101, 48.80176504 ], [ 18.12191635, 48.80160672 ], [ 18.12179322, 48.80161491 ], [ 18.12178039, 48.80161579 ], [ 18.12164037, 48.80162661 ], [ 18.12163176, 48.80162765 ], [ 18.12148978, 48.80164494 ], [ 18.12147756, 48.8016464 ], [ 18.1214345, 48.80165166 ], [ 18.12143494, 48.80163399 ], [ 18.12143206, 48.80161866 ], [ 18.12130495, 48.80107167 ], [ 18.12127754, 48.80097889 ], [ 18.12123133, 48.800823 ], [ 18.12127518, 48.8007647 ], [ 18.12135439, 48.80065935 ], [ 18.12142149, 48.80057008 ], [ 18.12145187, 48.80052977 ], [ 18.12146652, 48.80050182 ], [ 18.12147901, 48.80047781 ], [ 18.12151748, 48.80040448 ], [ 18.12154441, 48.80035305 ], [ 18.12158658, 48.80027245 ], [ 18.12159582, 48.80025023 ], [ 18.12160874, 48.80021893 ], [ 18.12163679, 48.80015096 ], [ 18.12164689, 48.80012636 ], [ 18.12164004, 48.8000875 ], [ 18.1216365, 48.80006788 ], [ 18.12162744, 48.8000159 ], [ 18.12162702, 48.80001389 ], [ 18.12160057, 48.79994979 ], [ 18.12158641, 48.79991556 ], [ 18.121599245716638, 48.799908064988109 ], [ 18.1215986, 48.7999065 ], [ 18.121643, 48.7998798 ], [ 18.1218122, 48.7997813 ], [ 18.1219247, 48.7997157 ], [ 18.121943, 48.7997075 ], [ 18.1220166, 48.7996735 ], [ 18.1221314, 48.7996203 ], [ 18.1222769, 48.7995543 ], [ 18.1223626, 48.7995132 ], [ 18.1223882, 48.799501 ], [ 18.1227202, 48.799368 ], [ 18.1228994, 48.7992994 ], [ 18.1231159, 48.7992138 ], [ 18.1233351, 48.7991216 ], [ 18.1234404, 48.7995079 ], [ 18.1234743, 48.7996544 ], [ 18.1235441, 48.799998 ], [ 18.1235798, 48.8001413 ], [ 18.1235994, 48.8002474 ], [ 18.1236262, 48.8003629 ], [ 18.1237279, 48.8007174 ], [ 18.1237667, 48.8008564 ], [ 18.1238284, 48.8010302 ], [ 18.1239018, 48.8012456 ], [ 18.1241421, 48.8018011 ], [ 18.1242796, 48.8021127 ], [ 18.124381, 48.8023544 ], [ 18.1245192, 48.8026909 ], [ 18.124615, 48.8029334 ], [ 18.1246316, 48.8029436 ], [ 18.1249776, 48.802853 ], [ 18.1253696, 48.8027403 ], [ 18.1256544, 48.802661 ], [ 18.1258883, 48.8025571 ], [ 18.1260686, 48.8024829 ], [ 18.1261658, 48.8024278 ], [ 18.1264907, 48.8022728 ], [ 18.1266073, 48.8022174 ], [ 18.1268545, 48.8020897 ], [ 18.126917, 48.8020583 ], [ 18.1270597, 48.8019807 ], [ 18.1274073, 48.8018091 ], [ 18.1274608, 48.8017886 ], [ 18.127810342199769, 48.801630840280666 ], [ 18.12784396, 48.80159114 ], [ 18.127852480218376, 48.80158586163288 ], [ 18.1278564, 48.8015812 ], [ 18.128124678450757, 48.801415498603944 ], [ 18.12814768, 48.80139355 ], [ 18.128230706103267, 48.801328737876403 ], [ 18.1283056, 48.8012699 ], [ 18.128394588721704, 48.801211482896036 ], [ 18.12851335, 48.80111234 ], [ 18.12862211, 48.80097692 ], [ 18.12877143, 48.80080268 ], [ 18.12907975, 48.80046867 ], [ 18.12923789, 48.80030406 ], [ 18.1292398, 48.80030209 ], [ 18.12936384, 48.80017297 ], [ 18.12940016, 48.80013518 ], [ 18.12956904, 48.79995251 ], [ 18.12980946, 48.79968506 ], [ 18.1302942, 48.79917937 ], [ 18.13043065, 48.79903914 ], [ 18.1305839, 48.7988979 ], [ 18.13076301, 48.79869172 ], [ 18.13081556, 48.79863356 ], [ 18.1309622, 48.79847117 ], [ 18.13099536, 48.79843446 ], [ 18.13106765, 48.79836155 ], [ 18.13123454, 48.79819474 ], [ 18.131244074470342, 48.79818753460885 ], [ 18.1312466, 48.798185 ], [ 18.1314276, 48.7980487 ], [ 18.1315511, 48.7979759 ], [ 18.1316374, 48.7979109 ], [ 18.1318599, 48.7977883 ], [ 18.1322601, 48.7975779 ], [ 18.1327577, 48.7973112 ], [ 18.1329199, 48.797227 ], [ 18.1335496, 48.7968955 ], [ 18.1338655, 48.7967299 ], [ 18.1340274, 48.7966208 ], [ 18.134082629122819, 48.796604044045793 ], [ 18.1341229, 48.79656586 ], [ 18.13418843, 48.79650358 ], [ 18.13421852, 48.79647562 ], [ 18.13429207, 48.79640749 ], [ 18.13450854, 48.79620689 ], [ 18.13453239, 48.79618472 ], [ 18.13467306, 48.79605367 ], [ 18.13473497, 48.79599605 ], [ 18.13491136, 48.79583168 ], [ 18.13492417, 48.7958196 ], [ 18.13508273, 48.79567009 ], [ 18.13525504, 48.79550765 ], [ 18.13534159, 48.795426 ], [ 18.1353811, 48.79538884 ], [ 18.13547452, 48.79530073 ], [ 18.13549218, 48.79528406 ], [ 18.1355771, 48.79520331 ], [ 18.13562989, 48.79515465 ], [ 18.13564844, 48.79513748 ], [ 18.1356497, 48.79512799 ], [ 18.13570597, 48.79508088 ], [ 18.13573822, 48.79505413 ], [ 18.1358119, 48.79499322 ], [ 18.13588295, 48.79493568 ], [ 18.135961129225802, 48.794872297586664 ], [ 18.1360429, 48.7948057 ], [ 18.1361005, 48.7947842 ], [ 18.1362424, 48.794683 ], [ 18.1362629, 48.7946719 ], [ 18.1364442, 48.7945762 ], [ 18.1364769, 48.7945589 ], [ 18.1368615, 48.7943793 ], [ 18.1369473, 48.7943403 ], [ 18.1371629, 48.7942421 ], [ 18.13724326621676, 48.794205066038046 ], [ 18.13721873, 48.79418312 ], [ 18.1371893, 48.79415677 ], [ 18.13714985, 48.79412153 ], [ 18.13625485, 48.79332014 ], [ 18.13587236, 48.79297783 ], [ 18.13579263, 48.7929064 ], [ 18.13575864, 48.79288041 ], [ 18.1356997, 48.7928314 ], [ 18.13568715, 48.79282093 ], [ 18.13558021, 48.79273212 ], [ 18.1342387, 48.79147644 ], [ 18.1342133, 48.79145267 ], [ 18.13418851, 48.79143155 ], [ 18.13417882, 48.79142322 ], [ 18.13417281, 48.79141809 ], [ 18.13413623, 48.7913869 ], [ 18.13411941, 48.79137265 ], [ 18.13411683, 48.79137042 ], [ 18.13408982, 48.79134746 ], [ 18.13402918, 48.79127632 ], [ 18.13384749, 48.7910632 ], [ 18.13344734, 48.790594 ], [ 18.13341813, 48.79055981 ], [ 18.13341423, 48.79055525 ], [ 18.13338066, 48.79051584 ], [ 18.13311292, 48.79020383 ], [ 18.13295767, 48.79001598 ], [ 18.13283856, 48.78987175 ], [ 18.13261269, 48.78959846 ], [ 18.13241107, 48.78935962 ], [ 18.131900082799302, 48.789550072678985 ], [ 18.1317966, 48.789689 ], [ 18.131790345318709, 48.789690355180952 ], [ 18.13178457, 48.7896981 ], [ 18.13176035, 48.78970355 ], [ 18.13158529, 48.78974801 ], [ 18.13158317, 48.78974852 ], [ 18.13156748, 48.78975249 ], [ 18.13143681, 48.78978571 ], [ 18.13118142, 48.78974579 ], [ 18.130991895077575, 48.789834196328485 ], [ 18.1310306, 48.7900044 ], [ 18.1310392, 48.7900423 ], [ 18.131023945513149, 48.790038858438947 ], [ 18.131027, 48.79005226 ], [ 18.1309448, 48.79003341 ], [ 18.130892572331881, 48.790055579015167 ], [ 18.1308285, 48.7901441 ], [ 18.130823140494815, 48.79014400290751 ], [ 18.13081909, 48.79014961 ], [ 18.13081623, 48.7901536 ], [ 18.13070576, 48.79015206 ], [ 18.1304858, 48.79016836 ], [ 18.13038302, 48.79008024 ], [ 18.13008107, 48.79008637 ], [ 18.12990675, 48.79019921 ], [ 18.12977139, 48.79019785 ], [ 18.12969041, 48.79005466 ], [ 18.129583073598077, 48.790052822780297 ], [ 18.1295061, 48.7901382 ], [ 18.129499661296979, 48.790141800513346 ], [ 18.12949377, 48.79014833 ], [ 18.12943895, 48.79017837 ], [ 18.129372765844565, 48.790149182290271 ], [ 18.1293061, 48.7902136 ], [ 18.12930417029364, 48.790213395944889 ], [ 18.12929387, 48.7902234 ], [ 18.12898755, 48.79019044 ], [ 18.12876444, 48.7901328 ], [ 18.1286334, 48.79009892 ], [ 18.12856272, 48.79008074 ], [ 18.12847291, 48.79010983 ], [ 18.1282997, 48.79016604 ], [ 18.12823788, 48.79018601 ], [ 18.12821475, 48.79019351 ], [ 18.12810637, 48.79022866 ], [ 18.12800914, 48.7902241 ], [ 18.127947682474606, 48.790221182108318 ], [ 18.12789, 48.7903152 ], [ 18.12788316216001, 48.790315907810601 ], [ 18.1278777, 48.7903248 ], [ 18.12779709, 48.79033294 ], [ 18.12777216, 48.79033546 ], [ 18.12766066, 48.79024105 ], [ 18.12762711, 48.79021798 ], [ 18.12761434, 48.7902092 ], [ 18.12754874, 48.79016414 ], [ 18.12739187, 48.79018581 ], [ 18.12738756, 48.79018638 ], [ 18.12716539, 48.79021717 ], [ 18.12712948, 48.79022212 ], [ 18.12706895, 48.79024271 ], [ 18.12701413, 48.79026138 ], [ 18.12681234, 48.7903301 ], [ 18.12676203, 48.79033539 ], [ 18.12659297, 48.7903532 ], [ 18.12643514, 48.79036976 ], [ 18.12631135, 48.79042008 ], [ 18.12626858, 48.79043755 ], [ 18.12625342, 48.79044371 ], [ 18.12621846, 48.79044357 ], [ 18.12613064, 48.79044326 ], [ 18.12605594, 48.79044298 ], [ 18.12603668, 48.79044295 ], [ 18.12578142, 48.79044211 ], [ 18.12567858, 48.79044174 ], [ 18.12560224, 48.79044145 ], [ 18.12557151, 48.79045267 ], [ 18.12537395, 48.79052443 ], [ 18.1252936, 48.79047417 ], [ 18.12514173, 48.79037922 ], [ 18.12505519, 48.79032517 ], [ 18.12502328, 48.79030517 ], [ 18.12463754, 48.79006402 ], [ 18.1244347, 48.78993722 ], [ 18.12430983, 48.7899649 ], [ 18.12419087, 48.78999121 ], [ 18.12415821, 48.78999843 ], [ 18.12410416, 48.79003086 ], [ 18.1239295, 48.79013591 ], [ 18.12390396, 48.79015122 ], [ 18.12384897, 48.790165 ], [ 18.12374677, 48.79019066 ], [ 18.12365135, 48.79021463 ], [ 18.12352654, 48.79024593 ], [ 18.12345777, 48.79029448 ], [ 18.12344389, 48.79030432 ], [ 18.12334073, 48.79031151 ], [ 18.12328017, 48.7902317 ], [ 18.12323215, 48.79016852 ], [ 18.12317278, 48.79008995 ], [ 18.12311006, 48.79000686 ], [ 18.12301492, 48.7898809 ], [ 18.12296475, 48.78989035 ], [ 18.12273097, 48.78993446 ], [ 18.12237266, 48.78998008 ], [ 18.12208891, 48.78997767 ], [ 18.12180463, 48.78997524 ], [ 18.12170219, 48.78990925 ], [ 18.12125904, 48.7896233 ], [ 18.1211936, 48.78958113 ], [ 18.12119735, 48.78939085 ], [ 18.12118366, 48.78937155 ], [ 18.12109262, 48.78924357 ], [ 18.12111828, 48.78918728 ], [ 18.12115354, 48.78911025 ], [ 18.12113345, 48.78908777 ], [ 18.12111276, 48.78906454 ], [ 18.12107306, 48.78901998 ], [ 18.12102791, 48.78896915 ], [ 18.12099783, 48.78893544 ], [ 18.12091216, 48.78895908 ], [ 18.12089117, 48.78896481 ], [ 18.12071348, 48.78894175 ], [ 18.12068729, 48.78893833 ], [ 18.12064099, 48.78889718 ], [ 18.12060751, 48.78886743 ], [ 18.12048386, 48.78875759 ], [ 18.12047152, 48.78874667 ], [ 18.1204354, 48.7886793 ], [ 18.12042632, 48.78866234 ], [ 18.12039799, 48.78860933 ], [ 18.12031125, 48.78865222 ], [ 18.12023037, 48.78869221 ], [ 18.12007947, 48.78863523 ], [ 18.1200681, 48.7886231 ], [ 18.12005471, 48.78860878 ], [ 18.12000756, 48.78855855 ], [ 18.11999656, 48.78854681 ], [ 18.11996676, 48.7885151 ], [ 18.11991859, 48.78850129 ], [ 18.11990675, 48.78849789 ], [ 18.11977264, 48.7884594 ], [ 18.11974633, 48.78845182 ], [ 18.11963645, 48.78842024 ], [ 18.11961592, 48.78841435 ], [ 18.11941404, 48.7884631 ], [ 18.11922059, 48.7884486 ], [ 18.11909192, 48.78845448 ], [ 18.11899569, 48.78845891 ], [ 18.11884956, 48.78846558 ], [ 18.11878757, 48.78846839 ], [ 18.11859463, 48.78850339 ], [ 18.11855806, 48.78851435 ], [ 18.11849815, 48.78853227 ], [ 18.11842393, 48.78837556 ], [ 18.1183376, 48.78833641 ], [ 18.11821415, 48.78828048 ], [ 18.1180754, 48.78818971 ], [ 18.11785023, 48.78817951 ], [ 18.11773015, 48.78814345 ], [ 18.11762935, 48.78811249 ], [ 18.1175904, 48.78811149 ], [ 18.11752954, 48.78810994 ], [ 18.1174978, 48.78810918 ], [ 18.11733616, 48.78812054 ], [ 18.11730069, 48.7881006 ], [ 18.11724235, 48.78806778 ], [ 18.11722904, 48.78806411 ], [ 18.1171033, 48.78802953 ], [ 18.1170328, 48.78801009 ], [ 18.11697746, 48.78795369 ], [ 18.11696675, 48.78794278 ], [ 18.11690841, 48.78788332 ], [ 18.11684999, 48.78786439 ], [ 18.11665248, 48.78785579 ], [ 18.11656803, 48.78779437 ], [ 18.11652198, 48.78764778 ], [ 18.11645688, 48.78761745 ], [ 18.11638433, 48.78758362 ], [ 18.11625461, 48.78760352 ], [ 18.11624191, 48.78760558 ], [ 18.11608981, 48.7876304 ], [ 18.11606177, 48.78762859 ], [ 18.11604972, 48.7876278 ], [ 18.11600989, 48.78762521 ], [ 18.11593039, 48.7875861 ], [ 18.11587239, 48.78754354 ], [ 18.115792, 48.78748452 ], [ 18.11576344, 48.78748863 ], [ 18.11557994, 48.78751534 ], [ 18.11556977, 48.78751682 ], [ 18.11556573, 48.7875174 ], [ 18.1154791, 48.78754414 ], [ 18.1154171, 48.78754288 ], [ 18.1153235, 48.78754086 ], [ 18.11531478, 48.78754072 ], [ 18.11531207, 48.78753442 ], [ 18.11529239, 48.78748931 ], [ 18.11527334, 48.78744568 ], [ 18.11528318, 48.78726515 ], [ 18.11523878, 48.78718005 ], [ 18.11523778, 48.78713629 ], [ 18.11524902, 48.78710417 ], [ 18.11525723, 48.78708055 ], [ 18.115266880506031, 48.78707880067811 ], [ 18.1152697, 48.7870707 ], [ 18.115399592894111, 48.787046889391021 ], [ 18.11540738, 48.78701597 ], [ 18.11523159, 48.78698787 ], [ 18.11498926, 48.78692087 ], [ 18.11487501, 48.7868893 ], [ 18.11479157, 48.7868942 ], [ 18.11462184, 48.78686572 ], [ 18.11461713, 48.78686211 ], [ 18.11459137, 48.78684219 ], [ 18.11457056, 48.78682609 ], [ 18.11457035, 48.78682355 ], [ 18.11456559, 48.78676395 ], [ 18.11455864, 48.7866767 ], [ 18.11455702, 48.78665701 ], [ 18.11451414, 48.78655846 ], [ 18.11450431, 48.78653586 ], [ 18.11422146, 48.78649818 ], [ 18.11420065, 48.78649544 ], [ 18.11418669, 48.78649354 ], [ 18.11413355, 48.78647709 ], [ 18.11403198, 48.78644572 ], [ 18.11397819, 48.78642905 ], [ 18.11393003, 48.78641415 ], [ 18.11392345, 48.78641124 ], [ 18.11386209, 48.78638365 ], [ 18.1138216, 48.78636558 ], [ 18.11378138, 48.78634753 ], [ 18.11374116, 48.78632949 ], [ 18.11371074, 48.7863158 ], [ 18.11368005, 48.78630209 ], [ 18.11365529, 48.78629099 ], [ 18.11360527, 48.78626858 ], [ 18.11356853, 48.78625209 ], [ 18.11355799, 48.78625021 ], [ 18.11346511, 48.78623361 ], [ 18.11337157, 48.78621679 ], [ 18.11331606, 48.78620688 ], [ 18.11331264, 48.78620181 ], [ 18.1132643, 48.78613083 ], [ 18.11321722, 48.78606173 ], [ 18.11317141, 48.78599443 ], [ 18.11312673, 48.78592881 ], [ 18.11312114, 48.78592054 ], [ 18.11284394, 48.78569802 ], [ 18.11263112, 48.78557883 ], [ 18.11260811, 48.78556594 ], [ 18.11256502, 48.78554176 ], [ 18.1125195, 48.78551627 ], [ 18.11241569, 48.7854956 ], [ 18.11231933, 48.78547645 ], [ 18.1123076, 48.78548038 ], [ 18.11215947, 48.7855298 ], [ 18.11211486, 48.78554472 ], [ 18.11208597, 48.78554828 ], [ 18.11202055, 48.78555629 ], [ 18.11197097, 48.78556235 ], [ 18.11195684, 48.78556071 ], [ 18.11188657, 48.78555283 ], [ 18.11186248, 48.78555007 ], [ 18.1117283, 48.78553486 ], [ 18.11166894, 48.78552815 ], [ 18.11165095, 48.78552169 ], [ 18.11155866, 48.78548833 ], [ 18.11149682, 48.78544184 ], [ 18.11142927, 48.78539106 ], [ 18.11137174, 48.78539321 ], [ 18.11131998, 48.78539508 ], [ 18.11128868, 48.78539623 ], [ 18.11125043, 48.78539003 ], [ 18.11122676, 48.78538622 ], [ 18.11119773, 48.78538155 ], [ 18.11118232, 48.7853783 ], [ 18.11113857, 48.78536926 ], [ 18.11109484, 48.78536012 ], [ 18.11109298, 48.78535974 ], [ 18.11100071, 48.78534065 ], [ 18.11099247, 48.7853389 ], [ 18.11099148, 48.78533713 ], [ 18.11097344, 48.78530439 ], [ 18.11096025, 48.78528033 ], [ 18.11091703, 48.7852018 ], [ 18.11091144, 48.78519551 ], [ 18.11078633, 48.78505389 ], [ 18.1107722, 48.7850379 ], [ 18.11072552, 48.78495971 ], [ 18.11064846, 48.78489004 ], [ 18.11054545, 48.78485515 ], [ 18.11052517, 48.78485361 ], [ 18.11041939, 48.78484564 ], [ 18.11028885, 48.78482667 ], [ 18.11024749, 48.78480999 ], [ 18.11019134, 48.7847874 ], [ 18.11009064, 48.78475987 ], [ 18.10999081, 48.78475343 ], [ 18.10995925, 48.78475132 ], [ 18.10992972, 48.78474942 ], [ 18.10966844, 48.78473249 ], [ 18.10951173, 48.78472228 ], [ 18.10947868, 48.78472008 ], [ 18.10939852, 48.78470855 ], [ 18.10930452, 48.78468295 ], [ 18.10928146, 48.78467664 ], [ 18.10920394, 48.78465551 ], [ 18.10915359, 48.78464175 ], [ 18.10915214, 48.7846413 ], [ 18.10907122, 48.784616 ], [ 18.10901697, 48.78460995 ], [ 18.10896527, 48.78460424 ], [ 18.10892973, 48.78460027 ], [ 18.10888099, 48.7845949 ], [ 18.10879577, 48.78458543 ], [ 18.10875134, 48.78458049 ], [ 18.10869373, 48.78457407 ], [ 18.10858347, 48.78456178 ], [ 18.10850283, 48.78455284 ], [ 18.10833024, 48.78453366 ], [ 18.10780218, 48.78437705 ], [ 18.10779685, 48.78435968 ], [ 18.10774888, 48.78420413 ], [ 18.10770644, 48.78406651 ], [ 18.10762735, 48.78397523 ], [ 18.10747206, 48.78399435 ], [ 18.10744833, 48.78399297 ], [ 18.10719183, 48.78397812 ], [ 18.10717929, 48.78397892 ], [ 18.10695249, 48.78389294 ], [ 18.10672391, 48.78388179 ], [ 18.10658068, 48.78389656 ], [ 18.10646652, 48.78392277 ], [ 18.10641888, 48.78393372 ], [ 18.10630193, 48.78393575 ], [ 18.1061035, 48.78393927 ], [ 18.10604365, 48.78394038 ], [ 18.10593661, 48.78391221 ], [ 18.10574313, 48.78386121 ], [ 18.10571977, 48.78385506 ], [ 18.10570337, 48.7838551 ], [ 18.1056367, 48.7838551 ], [ 18.10558121, 48.78388184 ], [ 18.1055371, 48.78390319 ], [ 18.10552893, 48.78390714 ], [ 18.10548032, 48.78392227 ], [ 18.10535231, 48.78396221 ], [ 18.10530541, 48.78397681 ], [ 18.10523388, 48.78397635 ], [ 18.10514393, 48.78397571 ], [ 18.10505863, 48.78397507 ], [ 18.10498595, 48.78395459 ], [ 18.104954683211531, 48.783958077700802 ], [ 18.1048594, 48.7841184 ], [ 18.104852634827701, 48.784118869936151 ], [ 18.10484723, 48.78412797 ], [ 18.10483937, 48.7841285 ], [ 18.10456348, 48.78414736 ], [ 18.10454669, 48.78413907 ], [ 18.10449979, 48.78411576 ], [ 18.10442368, 48.78407801 ], [ 18.10439562, 48.78406409 ], [ 18.10434479, 48.78404569 ], [ 18.10426635, 48.7840172 ], [ 18.10426324, 48.78401692 ], [ 18.10416876, 48.78400934 ], [ 18.10407279, 48.78400158 ], [ 18.10405576, 48.78400023 ], [ 18.10397636, 48.78402187 ], [ 18.103975286968456, 48.784022166878529 ], [ 18.1039352, 48.7841333 ], [ 18.1038506, 48.7842256 ], [ 18.103846275490145, 48.784226709578185 ], [ 18.10383828, 48.78423547 ], [ 18.1037167, 48.78426612 ], [ 18.103576114081367, 48.784316818301043 ], [ 18.1034763, 48.7844046 ], [ 18.103473319501614, 48.784406042465655 ], [ 18.10346382, 48.78441443 ], [ 18.10345958, 48.78441653 ], [ 18.10336417, 48.78446297 ], [ 18.10333602, 48.78446404 ], [ 18.10317865, 48.78447003 ], [ 18.10306811, 48.78447424 ], [ 18.10276148, 48.7846261 ], [ 18.102659718647988, 48.784523541457609 ], [ 18.1025954, 48.7845779 ], [ 18.1025882, 48.7845831 ], [ 18.1025205, 48.78464 ], [ 18.1025097, 48.7846486 ], [ 18.1024743, 48.7846779 ], [ 18.102473273494759, 48.784678282844212 ], [ 18.10246197, 48.78468772 ], [ 18.10215568, 48.78480222 ], [ 18.10196224, 48.78490235 ], [ 18.10177941, 48.78495778 ], [ 18.10147584, 48.78504986 ], [ 18.1010816, 48.78521719 ], [ 18.10092768, 48.78532829 ], [ 18.10072176, 48.78536432 ], [ 18.10048916, 48.78533414 ], [ 18.10023102, 48.7853478 ], [ 18.10003239, 48.78537016 ], [ 18.09986791, 48.78534955 ], [ 18.09962013, 48.78531849 ], [ 18.0995395, 48.78530837 ], [ 18.09921468, 48.78522804 ], [ 18.09905015, 48.78518738 ], [ 18.09870437, 48.78516577 ], [ 18.09836393, 48.78512461 ], [ 18.09803235, 48.78517875 ], [ 18.0977243, 48.78513659 ], [ 18.09737516, 48.78516055 ], [ 18.09717715, 48.78517419 ], [ 18.0967812, 48.78519677 ], [ 18.09636911, 48.78528901 ], [ 18.09597909, 48.78528557 ], [ 18.09586896, 48.78528565 ], [ 18.09547035, 48.78534445 ], [ 18.09538672, 48.78535682 ], [ 18.09499039, 48.78547019 ], [ 18.09465001, 48.78560851 ], [ 18.09444684, 48.7855748 ], [ 18.09435072, 48.78558454 ], [ 18.09433286, 48.7855853 ], [ 18.09368105, 48.78570254 ], [ 18.09358486, 48.78572203 ], [ 18.09316178, 48.78580747 ], [ 18.09288444, 48.78585232 ], [ 18.09270028, 48.78587984 ], [ 18.09256155, 48.78590064 ], [ 18.09212626, 48.78594763 ], [ 18.09180921, 48.78595223 ], [ 18.09165863, 48.78595445 ], [ 18.09127666, 48.78598271 ], [ 18.09094254, 48.78609664 ], [ 18.09066084, 48.78622717 ], [ 18.09034273, 48.78625807 ], [ 18.09008283, 48.78635845 ], [ 18.08987462, 48.78638493 ], [ 18.0896895, 48.78631634 ], [ 18.08943455797619, 48.786436444646732 ], [ 18.089371858143259, 48.786484617358362 ], [ 18.08917593, 48.78663592 ], [ 18.08891107, 48.78671001 ], [ 18.0887853, 48.78673399 ], [ 18.08851707, 48.78678523 ], [ 18.08833199, 48.78682263 ], [ 18.08797766, 48.78692814 ], [ 18.08776453, 48.78703631 ], [ 18.087590715409185, 48.787136465571074 ], [ 18.0873451, 48.7873229 ], [ 18.087344003512797, 48.78732349006475 ], [ 18.08733284, 48.78733196 ], [ 18.08702091, 48.78750044 ], [ 18.08682028, 48.78759471 ], [ 18.08656729, 48.78775363 ], [ 18.08631426, 48.78783112 ], [ 18.086099856184234, 48.787729478898648 ], [ 18.0857725, 48.7881124 ], [ 18.085766696351968, 48.788114044607987 ], [ 18.08575995, 48.78812194 ], [ 18.085486458846457, 48.788198977155623 ], [ 18.0851959, 48.7885933 ], [ 18.085188070840751, 48.788597285495925 ], [ 18.08518369, 48.78860325 ], [ 18.08496305, 48.7887154 ], [ 18.08443631, 48.7890778 ], [ 18.083966913816962, 48.789339607475405 ], [ 18.0837355, 48.7895168 ], [ 18.083734389752546, 48.789517330327136 ], [ 18.08372318, 48.7895259 ], [ 18.08358449, 48.78959228 ], [ 18.08324504, 48.78967934 ], [ 18.08321023, 48.78968822 ], [ 18.08273383, 48.78968475 ], [ 18.08243088, 48.78966243 ], [ 18.08181579, 48.78961708 ], [ 18.08142743, 48.78962958 ], [ 18.08087081, 48.78957717 ], [ 18.08037841, 48.7896829 ], [ 18.07956323, 48.78962258 ], [ 18.07945556, 48.78963281 ], [ 18.07929362, 48.78964826 ], [ 18.07926927, 48.78965053 ], [ 18.07875773, 48.78969916 ], [ 18.07817492, 48.78971472 ], [ 18.07796787, 48.78970486 ], [ 18.07748615, 48.78980218 ], [ 18.07702866, 48.78981559 ], [ 18.07699231, 48.78981662 ], [ 18.07693103, 48.7898375 ], [ 18.07670234, 48.78991567 ], [ 18.07630835, 48.7898732 ], [ 18.07580338, 48.78992987 ], [ 18.07470964, 48.78993447 ], [ 18.07432813, 48.78993652 ], [ 18.07411199, 48.78994039 ], [ 18.07356658, 48.78995018 ], [ 18.07300867, 48.78986154 ], [ 18.07258322, 48.78975311 ], [ 18.07191031, 48.78956429 ], [ 18.07118631, 48.78944876 ], [ 18.07077922, 48.78938384 ], [ 18.07034702, 48.78927998 ], [ 18.07006988, 48.78916516 ], [ 18.06975029, 48.78903268 ], [ 18.06961645, 48.78897717 ], [ 18.06870441, 48.78859916 ], [ 18.06830287, 48.78842982 ], [ 18.06773576, 48.7881605 ], [ 18.06747495, 48.78802992 ], [ 18.06673389, 48.78765894 ], [ 18.06571672, 48.78733253 ], [ 18.06468395, 48.7871632 ], [ 18.06353983, 48.78708032 ], [ 18.06246715, 48.78698943 ], [ 18.06164571, 48.78678281 ], [ 18.06076881, 48.78641447 ], [ 18.05998046, 48.78587526 ], [ 18.05960576, 48.7854506 ], [ 18.05939342, 48.78516999 ], [ 18.05946344, 48.78448611 ], [ 18.05975892, 48.78360582 ], [ 18.0597881, 48.78351878 ], [ 18.05989915, 48.78324134 ], [ 18.05999787, 48.78299975 ], [ 18.06004566, 48.78272537 ], [ 18.06002551, 48.78232106 ], [ 18.05992716, 48.7820819 ], [ 18.05946814, 48.78169021 ], [ 18.05933898, 48.78161943 ], [ 18.05911311, 48.78149557 ], [ 18.0587697, 48.78134676 ], [ 18.0585862, 48.78133464 ], [ 18.05824791, 48.7813816 ], [ 18.05811621, 48.78144159 ], [ 18.0577326, 48.78124618 ], [ 18.05717178, 48.78068192 ], [ 18.05684144, 48.78014112 ], [ 18.05685272, 48.77982849 ], [ 18.05674335, 48.77958507 ], [ 18.05651553, 48.77928277 ], [ 18.05635304, 48.77899244 ], [ 18.05636402, 48.77832632 ], [ 18.05627469, 48.77796941 ], [ 18.05626912, 48.77788376 ], [ 18.05626998, 48.77758767 ], [ 18.05622163, 48.77756632 ], [ 18.05363668, 48.77719243 ], [ 18.05295002, 48.77712275 ], [ 18.05247793, 48.77710315 ], [ 18.05210311, 48.77708158 ], [ 18.05166983, 48.77704259 ], [ 18.05151321, 48.77702887 ], [ 18.04996489, 48.77690584 ], [ 18.04954272, 48.77687065 ], [ 18.04944747, 48.7768628 ], [ 18.04930257, 48.77685338 ], [ 18.04853557, 48.77681733 ], [ 18.04718416, 48.77674376 ], [ 18.04686054, 48.77672745 ], [ 18.04674311, 48.77671693 ], [ 18.04609747, 48.77664196 ], [ 18.04544854, 48.77657626 ], [ 18.04463134, 48.77649209 ], [ 18.04405459, 48.77646359 ], [ 18.04352704, 48.77642985 ], [ 18.04278228, 48.77639101 ], [ 18.04225433, 48.77636537 ], [ 18.04175087, 48.7763353 ], [ 18.04135922, 48.77630684 ], [ 18.040698557828136, 48.776156047331831 ], [ 18.0405312, 48.7764927 ], [ 18.040478, 48.7770257 ], [ 18.0412464, 48.7775856 ], [ 18.0417709, 48.7779234 ], [ 18.0420145, 48.7782617 ], [ 18.0423873, 48.7785601 ], [ 18.0428411, 48.7787855 ], [ 18.0440118, 48.7793316 ], [ 18.0440488, 48.7793954 ], [ 18.0442927, 48.7798154 ], [ 18.0443361, 48.7799478 ], [ 18.0444348, 48.7803519 ], [ 18.0444741, 48.7804829 ], [ 18.0446524, 48.780814 ], [ 18.0447164, 48.7809339 ], [ 18.0449594, 48.7810781 ], [ 18.0452811, 48.781272 ], [ 18.0454572, 48.7818036 ], [ 18.0454747, 48.7818543 ], [ 18.0454878, 48.7818924 ], [ 18.0455638, 48.7821123 ], [ 18.0456844, 48.7824548 ], [ 18.0458584, 48.7828136 ], [ 18.0461083, 48.7832753 ], [ 18.0462421, 48.7834773 ], [ 18.0465859, 48.7839648 ], [ 18.0468437, 48.7842564 ], [ 18.0469966, 48.7845937 ], [ 18.0470568, 48.7853557 ], [ 18.0470637, 48.7854351 ], [ 18.0472416, 48.785467 ], [ 18.0481386, 48.7856304 ], [ 18.0484, 48.7857756 ], [ 18.0487113, 48.7859597 ], [ 18.0488874, 48.786058 ], [ 18.0491673, 48.7862121 ], [ 18.0493804, 48.7863682 ], [ 18.0495836, 48.7865097 ], [ 18.0500156, 48.7867305 ], [ 18.0502897, 48.7871167 ], [ 18.0504863, 48.7875277 ], [ 18.0504505, 48.7877491 ], [ 18.0504724, 48.7880169 ], [ 18.050407, 48.7882533 ], [ 18.0503859, 48.7883909 ], [ 18.0503717, 48.7885899 ], [ 18.050414, 48.7888078 ], [ 18.0505362, 48.7890295 ], [ 18.0507106, 48.7891966 ], [ 18.0509644, 48.7893165 ], [ 18.0510302, 48.7893509 ], [ 18.0511438, 48.7893767 ], [ 18.0519277, 48.7897273 ], [ 18.0522858, 48.7900215 ], [ 18.0526954, 48.7903109 ], [ 18.0528946, 48.7904073 ], [ 18.0531413, 48.7906542 ], [ 18.0534109, 48.7908777 ], [ 18.0536271, 48.7911941 ], [ 18.053611876993475, 48.791199410351112 ], [ 18.05361483, 48.79120373 ], [ 18.053598121927426, 48.791209275255781 ], [ 18.0536305, 48.7913442 ], [ 18.0537011, 48.7915697 ], [ 18.0537436, 48.7917143 ], [ 18.0541592, 48.7921642 ], [ 18.0548184, 48.7926149 ], [ 18.0548501, 48.7930975 ], [ 18.054838154980658, 48.793106345562371 ], [ 18.05483817, 48.79310657 ], [ 18.05449747, 48.79335878 ], [ 18.05424945, 48.79345528 ], [ 18.054017036036107, 48.793562374732943 ], [ 18.0542122, 48.793753 ], [ 18.0543634, 48.7941592 ], [ 18.0542023, 48.7943054 ], [ 18.0540203, 48.7944742 ], [ 18.053955, 48.794547 ], [ 18.0539018, 48.7946072 ], [ 18.0538856, 48.794632 ], [ 18.0538226, 48.7948315 ], [ 18.0536725, 48.7952155 ], [ 18.053642, 48.7954079 ], [ 18.0535825, 48.7957915 ], [ 18.0536689, 48.7961024 ], [ 18.0537181, 48.7963593 ], [ 18.0538087, 48.7969256 ], [ 18.0540834, 48.7971697 ], [ 18.0540578, 48.7975652 ], [ 18.0545107, 48.7980355 ], [ 18.0545935, 48.798344 ], [ 18.0551657, 48.7991415 ], [ 18.0556858, 48.7995513 ], [ 18.056071, 48.8000919 ], [ 18.056546, 48.800473 ], [ 18.0570423, 48.8009941 ], [ 18.0572273, 48.8014046 ], [ 18.0573844, 48.8020897 ], [ 18.0577827, 48.8027644 ], [ 18.0579058, 48.8032952 ], [ 18.0584796, 48.8041403 ], [ 18.0593924, 48.8042797 ], [ 18.0600374, 48.8047498 ], [ 18.0614831, 48.8052137 ], [ 18.062305, 48.8050892 ], [ 18.0637092, 48.8049447 ], [ 18.0647907, 48.8050892 ], [ 18.0655809, 48.8054359 ], [ 18.0669739, 48.8057431 ], [ 18.0677251, 48.8060231 ], [ 18.068513, 48.8062 ], [ 18.0694552, 48.8062677 ], [ 18.0700109, 48.8064086 ], [ 18.0716808, 48.8064454 ], [ 18.0724155, 48.8062694 ], [ 18.0733146, 48.8064745 ], [ 18.0735564, 48.8066251 ], [ 18.0738635, 48.806784 ], [ 18.0747624, 48.807129 ], [ 18.075273, 48.8074466 ], [ 18.0761316, 48.8078412 ], [ 18.0767284, 48.8080024 ], [ 18.0772795, 48.8083406 ], [ 18.0775407, 48.8083897 ], [ 18.0779921, 48.8083721 ], [ 18.0783438, 48.8084783 ], [ 18.0785495, 48.808461 ], [ 18.0790509, 48.808663 ], [ 18.0793641, 48.8085269 ], [ 18.0799613, 48.8085831 ], [ 18.0802175, 48.8086591 ], [ 18.0808288, 48.8087196 ], [ 18.0815236, 48.8087049 ], [ 18.0825788, 48.8088545 ], [ 18.0839303, 48.8089302 ], [ 18.0849225, 48.8088709 ], [ 18.0855251, 48.8087344 ], [ 18.0861521, 48.8087022 ], [ 18.0866289, 48.8084862 ], [ 18.0872475, 48.8084176 ], [ 18.0878478, 48.808333 ], [ 18.0882336, 48.8080665 ], [ 18.088674, 48.808045 ], [ 18.0897372, 48.8076691 ], [ 18.089954064618237, 48.807547425515082 ], [ 18.09002495, 48.80742836 ] ] ] } }
]
}
