{
"type": "FeatureCollection",
"name": "gis",
"crs": { "type": "name", "properties": { "name": "urn:ogc:def:crs:OGC:1.3:CRS84" } },
"features": [
{ "type": "Feature", "properties": { "@featureType": "CadastralParcel", "areaValue": { "value": 5959, "@uom": "m2" }, "beginLifespanVersion": { "@nilReason": "http://inspire.ec.europa.eu/codelist/VoidReasonValue/Unpopulated", "@nil": "true" }, "endLifespanVersion": { "@nilReason": "http://inspire.ec.europa.eu/codelist/VoidReasonValue/Unpopulated", "@nil": "true" }, "inspireId": { "@dataType": "Identifier", "localId": "862436_661/4.E", "namespace": "SK.ESKN.CP", "versionId": "20260703T05:07:56" }, "label": "661/4", "nationalCadastralReference": "862436_661/4.E", "referencePoint": { "type": "Point", "coordinates": [ 20.22867552, 48.86220221 ] }, "validFrom": "2026-06-30T16:00:00Z", "validTo": { "@nilReason": "http://inspire.ec.europa.eu/codelist/VoidReasonValue/Unpopulated", "@nil": "true" }, "administrativeUnit": { "@href": "#auAdmUnitS.750" } }, "geometry": { "type": "Polygon", "coordinates": [ [ [ 20.22767803, 48.86172442 ], [ 20.22945135, 48.86304415 ], [ 20.22943612, 48.86294453 ], [ 20.2294258, 48.86287655 ], [ 20.2293553, 48.86272276 ], [ 20.22926763, 48.86253107 ], [ 20.22916706, 48.86231176 ], [ 20.22889496, 48.86209266 ], [ 20.22883525, 48.86204515 ], [ 20.22879374, 48.86201215 ], [ 20.22868374, 48.86192472 ], [ 20.22843964, 48.86181638 ], [ 20.22818897, 48.86170669 ], [ 20.22813106, 48.86168295 ], [ 20.22771649, 48.8615409 ], [ 20.22767803, 48.86172442 ] ] ] } },
{ "type": "Feature", "properties": { "@featureType": "CadastralParcel", "areaValue": { "value": 510, "@uom": "m2" }, "beginLifespanVersion": { "@nilReason": "http://inspire.ec.europa.eu/codelist/VoidReasonValue/Unpopulated", "@nil": "true" }, "endLifespanVersion": { "@nilReason": "http://inspire.ec.europa.eu/codelist/VoidReasonValue/Unpopulated", "@nil": "true" }, "inspireId": { "@dataType": "Identifier", "localId": "862436_3688/5.E", "namespace": "SK.ESKN.CP", "versionId": "20260703T05:07:56" }, "label": "3688/5", "nationalCadastralReference": "862436_3688/5.E", "referencePoint": { "type": "Point", "coordinates": [ 20.17887226, 48.8504402 ] }, "validFrom": "2026-06-30T16:00:00Z", "validTo": { "@nilReason": "http://inspire.ec.europa.eu/codelist/VoidReasonValue/Unpopulated", "@nil": "true" }, "administrativeUnit": { "@href": "#auAdmUnitS.750" } }, "geometry": { "type": "Polygon", "coordinates": [ [ [ 20.17875833, 48.85025554 ], [ 20.17884713, 48.85068445 ], [ 20.17900539, 48.85062485 ], [ 20.17888407, 48.85023473 ], [ 20.17887784, 48.85023421 ], [ 20.17875833, 48.85025554 ] ] ] } },
{ "type": "Feature", "properties": { "@featureType": "CadastralParcel", "areaValue": { "value": 15132, "@uom": "m2" }, "beginLifespanVersion": { "@nilReason": "http://inspire.ec.europa.eu/codelist/VoidReasonValue/Unpopulated", "@nil": "true" }, "endLifespanVersion": { "@nilReason": "http://inspire.ec.europa.eu/codelist/VoidReasonValue/Unpopulated", "@nil": "true" }, "inspireId": { "@dataType": "Identifier", "localId": "862436_1762.E", "namespace": "SK.ESKN.CP", "versionId": "20260703T05:07:56" }, "label": "1762", "nationalCadastralReference": "862436_1762.E", "referencePoint": { "type": "Point", "coordinates": [ 20.18546086, 48.84224809 ] }, "validFrom": "2026-06-30T16:00:00Z", "validTo": { "@nilReason": "http://inspire.ec.europa.eu/codelist/VoidReasonValue/Unpopulated", "@nil": "true" }, "administrativeUnit": { "@href": "#auAdmUnitS.750" } }, "geometry": { "type": "Polygon", "coordinates": [ [ [ 20.184259, 48.84248482 ], [ 20.18470905, 48.84250097 ], [ 20.18503446, 48.84256339 ], [ 20.18508094, 48.84258634 ], [ 20.18556087, 48.84279118 ], [ 20.18580625, 48.8426848 ], [ 20.18598184, 48.84272139 ], [ 20.18603997, 48.8427839 ], [ 20.18650455, 48.84270008 ], [ 20.18664541, 48.8426096 ], [ 20.18675154, 48.8426371 ], [ 20.18690938, 48.8426054 ], [ 20.18706557, 48.84259166 ], [ 20.18725505, 48.84256331 ], [ 20.18695849, 48.84240393 ], [ 20.18680336, 48.8423305 ], [ 20.18665067, 48.84226312 ], [ 20.18657986, 48.84223307 ], [ 20.18651047, 48.84220398 ], [ 20.18635958, 48.84214081 ], [ 20.18627044, 48.84210228 ], [ 20.1862181, 48.84208216 ], [ 20.18608794, 48.84203847 ], [ 20.18555529, 48.84186972 ], [ 20.18514952, 48.84172245 ], [ 20.18511423, 48.84170842 ], [ 20.18461599, 48.84172943 ], [ 20.18457471, 48.84172859 ], [ 20.18436322, 48.8419649 ], [ 20.184259, 48.84248482 ] ] ] } },
{ "type": "Feature", "properties": { "@featureType": "CadastralParcel", "areaValue": { "value": 2061, "@uom": "m2" }, "beginLifespanVersion": { "@nilReason": "http://inspire.ec.europa.eu/codelist/VoidReasonValue/Unpopulated", "@nil": "true" }, "endLifespanVersion": { "@nilReason": "http://inspire.ec.europa.eu/codelist/VoidReasonValue/Unpopulated", "@nil": "true" }, "inspireId": { "@dataType": "Identifier", "localId": "862436_2564/1.E", "namespace": "SK.ESKN.CP", "versionId": "20260703T05:07:56" }, "label": "2564/1", "nationalCadastralReference": "862436_2564/1.E", "referencePoint": { "type": "Point", "coordinates": [ 20.18431336, 48.84124214 ] }, "validFrom": "2026-06-30T16:00:00Z", "validTo": { "@nilReason": "http://inspire.ec.europa.eu/codelist/VoidReasonValue/Unpopulated", "@nil": "true" }, "administrativeUnit": { "@href": "#auAdmUnitS.750" } }, "geometry": { "type": "Polygon", "coordinates": [ [ [ 20.1838419, 48.84143738 ], [ 20.18451447, 48.84162968 ], [ 20.1845356, 48.84159881 ], [ 20.18455793, 48.84135618 ], [ 20.18452323, 48.8411281 ], [ 20.18451336, 48.84100094 ], [ 20.18443041, 48.84099464 ], [ 20.18428184, 48.84108571 ], [ 20.1838419, 48.84143738 ] ] ] } },
{ "type": "Feature", "properties": { "@featureType": "CadastralParcel", "areaValue": { "value": 2795, "@uom": "m2" }, "beginLifespanVersion": { "@nilReason": "http://inspire.ec.europa.eu/codelist/VoidReasonValue/Unpopulated", "@nil": "true" }, "endLifespanVersion": { "@nilReason": "http://inspire.ec.europa.eu/codelist/VoidReasonValue/Unpopulated", "@nil": "true" }, "inspireId": { "@dataType": "Identifier", "localId": "862436_2558.E", "namespace": "SK.ESKN.CP", "versionId": "20260703T05:07:56" }, "label": "2558", "nationalCadastralReference": "862436_2558.E", "referencePoint": { "type": "Point", "coordinates": [ 20.18359577, 48.8414738 ] }, "validFrom": "2026-06-30T16:00:00Z", "validTo": { "@nilReason": "http://inspire.ec.europa.eu/codelist/VoidReasonValue/Unpopulated", "@nil": "true" }, "administrativeUnit": { "@href": "#auAdmUnitS.750" } }, "geometry": { "type": "Polygon", "coordinates": [ [ [ 20.18307894, 48.84195709 ], [ 20.18309781, 48.8420101 ], [ 20.18317, 48.842043 ], [ 20.18330254, 48.84202219 ], [ 20.18331666, 48.84190292 ], [ 20.18356403, 48.84171716 ], [ 20.1836421, 48.84164019 ], [ 20.1838419, 48.84143738 ], [ 20.18428184, 48.84108571 ], [ 20.18443041, 48.84099464 ], [ 20.18451336, 48.84100094 ], [ 20.18450842, 48.84093605 ], [ 20.18451054, 48.84087883 ], [ 20.1840517, 48.84106802 ], [ 20.18401117, 48.84108126 ], [ 20.18393185, 48.84114078 ], [ 20.18373506, 48.84128714 ], [ 20.18331732, 48.84151022 ], [ 20.18325487, 48.84154366 ], [ 20.18318264, 48.84158239 ], [ 20.18322255, 48.84162183 ], [ 20.18324048, 48.84166435 ], [ 20.18320243, 48.84179743 ], [ 20.18307894, 48.84195709 ] ] ] } },
{ "type": "Feature", "properties": { "@featureType": "CadastralParcel", "areaValue": { "value": 9456, "@uom": "m2" }, "beginLifespanVersion": { "@nilReason": "http://inspire.ec.europa.eu/codelist/VoidReasonValue/Unpopulated", "@nil": "true" }, "endLifespanVersion": { "@nilReason": "http://inspire.ec.europa.eu/codelist/VoidReasonValue/Unpopulated", "@nil": "true" }, "inspireId": { "@dataType": "Identifier", "localId": "862436_2563.C", "namespace": "SK.ESKN.CP", "versionId": "20260703T05:07:56" }, "label": "2563", "nationalCadastralReference": "862436_2563.C", "referencePoint": { "type": "Point", "coordinates": [ 20.1840062, 48.8414332 ] }, "validFrom": "2026-06-30T16:00:00Z", "validTo": { "@nilReason": "http://inspire.ec.europa.eu/codelist/VoidReasonValue/Unpopulated", "@nil": "true" }, "administrativeUnit": { "@href": "#auAdmUnitS.750" } }, "geometry": { "type": "Polygon", "coordinates": [ [ [ 20.18451529, 48.84074568 ], [ 20.18438399, 48.84081384 ], [ 20.18427903, 48.84089676 ], [ 20.18408285, 48.84102764 ], [ 20.18393185, 48.84114078 ], [ 20.18373506, 48.84128714 ], [ 20.18331732, 48.84151022 ], [ 20.18323088, 48.84155657 ], [ 20.18318264, 48.84158239 ], [ 20.18322255, 48.84162183 ], [ 20.18324048, 48.84166435 ], [ 20.18320243, 48.84179743 ], [ 20.18307894, 48.84195709 ], [ 20.18309781, 48.8420101 ], [ 20.18317, 48.842043 ], [ 20.18330254, 48.84202219 ], [ 20.18348909, 48.84203751 ], [ 20.18365606, 48.84200898 ], [ 20.18393571, 48.84204497 ], [ 20.18395332, 48.84208946 ], [ 20.18389956, 48.84216191 ], [ 20.18395749, 48.84222207 ], [ 20.18409625, 48.84219016 ], [ 20.18419653, 48.84221436 ], [ 20.18421809, 48.8422664 ], [ 20.18428632, 48.84196254 ], [ 20.1845356, 48.84159881 ], [ 20.18455793, 48.84135618 ], [ 20.18452323, 48.8411281 ], [ 20.18450842, 48.84093605 ], [ 20.18451529, 48.84074568 ] ] ] } },
{ "type": "Feature", "properties": { "@featureType": "CadastralParcel", "areaValue": { "value": 780, "@uom": "m2" }, "beginLifespanVersion": { "@nilReason": "http://inspire.ec.europa.eu/codelist/VoidReasonValue/Unpopulated", "@nil": "true" }, "endLifespanVersion": { "@nilReason": "http://inspire.ec.europa.eu/codelist/VoidReasonValue/Unpopulated", "@nil": "true" }, "inspireId": { "@dataType": "Identifier", "localId": "862436_1752/3.C", "namespace": "SK.ESKN.CP", "versionId": "20260703T05:07:56" }, "label": "1752/3", "nationalCadastralReference": "862436_1752/3.C", "referencePoint": { "type": "Point", "coordinates": [ 20.18253799, 48.84350752 ] }, "validFrom": "2026-06-30T16:00:00Z", "validTo": { "@nilReason": "http://inspire.ec.europa.eu/codelist/VoidReasonValue/Unpopulated", "@nil": "true" }, "administrativeUnit": { "@href": "#auAdmUnitS.750" } }, "geometry": { "type": "Polygon", "coordinates": [ [ [ 20.18260156, 48.84365807 ], [ 20.18259493, 48.84358627 ], [ 20.18283302, 48.84342878 ], [ 20.18284112, 48.84341352 ], [ 20.18240557, 48.8434146 ], [ 20.18227477, 48.84369361 ], [ 20.1826204, 48.84370405 ], [ 20.18260156, 48.84365807 ] ] ] } },
{ "type": "Feature", "properties": { "@featureType": "CadastralParcel", "areaValue": { "value": 2373, "@uom": "m2" }, "beginLifespanVersion": { "@nilReason": "http://inspire.ec.europa.eu/codelist/VoidReasonValue/Unpopulated", "@nil": "true" }, "endLifespanVersion": { "@nilReason": "http://inspire.ec.europa.eu/codelist/VoidReasonValue/Unpopulated", "@nil": "true" }, "inspireId": { "@dataType": "Identifier", "localId": "862436_376.C", "namespace": "SK.ESKN.CP", "versionId": "20260703T05:07:56" }, "label": "376", "nationalCadastralReference": "862436_376.C", "referencePoint": { "type": "Point", "coordinates": [ 20.18196816, 48.84533052 ] }, "validFrom": "2026-06-30T16:00:00Z", "validTo": { "@nilReason": "http://inspire.ec.europa.eu/codelist/VoidReasonValue/Unpopulated", "@nil": "true" }, "administrativeUnit": { "@href": "#auAdmUnitS.750" } }, "geometry": { "type": "Polygon", "coordinates": [ [ [ 20.18148258, 48.84532024 ], [ 20.18158427, 48.84549082 ], [ 20.18207439, 48.84544283 ], [ 20.1821039, 48.84558033 ], [ 20.18212448, 48.84557629 ], [ 20.18226383, 48.84555872 ], [ 20.18226384, 48.84555863 ], [ 20.18232951, 48.84552451 ], [ 20.18238005, 48.84549897 ], [ 20.18244025, 48.84547814 ], [ 20.18251414, 48.84545407 ], [ 20.18249254, 48.84541428 ], [ 20.1824529, 48.8453408 ], [ 20.18238054, 48.84520004 ], [ 20.18231287, 48.8450811 ], [ 20.1818308, 48.84519294 ], [ 20.18148258, 48.84532024 ] ] ] } },
{ "type": "Feature", "properties": { "@featureType": "CadastralParcel", "areaValue": { "value": 488, "@uom": "m2" }, "beginLifespanVersion": { "@nilReason": "http://inspire.ec.europa.eu/codelist/VoidReasonValue/Unpopulated", "@nil": "true" }, "endLifespanVersion": { "@nilReason": "http://inspire.ec.europa.eu/codelist/VoidReasonValue/Unpopulated", "@nil": "true" }, "inspireId": { "@dataType": "Identifier", "localId": "862436_375.C", "namespace": "SK.ESKN.CP", "versionId": "20260703T05:07:56" }, "label": "375", "nationalCadastralReference": "862436_375.C", "referencePoint": { "type": "Point", "coordinates": [ 20.18184696, 48.84553064 ] }, "validFrom": "2026-06-30T16:00:00Z", "validTo": { "@nilReason": "http://inspire.ec.europa.eu/codelist/VoidReasonValue/Unpopulated", "@nil": "true" }, "administrativeUnit": { "@href": "#auAdmUnitS.750" } }, "geometry": { "type": "Polygon", "coordinates": [ [ [ 20.18158427, 48.84549082 ], [ 20.18163459, 48.84561285 ], [ 20.18180408, 48.84557046 ], [ 20.18202108, 48.84559917 ], [ 20.1821039, 48.84558033 ], [ 20.18207439, 48.84544283 ], [ 20.18158427, 48.84549082 ] ] ] } }
]
}
