{
"type": "FeatureCollection",
"name": "gis",
"crs": { "type": "name", "properties": { "name": "urn:ogc:def:crs:OGC:1.3:CRS84" } },
"features": [
{ "type": "Feature", "properties": { "@featureType": "CadastralParcel", "areaValue": { "value": 4158, "@uom": "m2" }, "beginLifespanVersion": { "@nilReason": "http://inspire.ec.europa.eu/codelist/VoidReasonValue/Unpopulated", "@nil": "true" }, "endLifespanVersion": { "@nilReason": "http://inspire.ec.europa.eu/codelist/VoidReasonValue/Unpopulated", "@nil": "true" }, "inspireId": { "@dataType": "Identifier", "localId": "814393_116/1.C", "namespace": "SK.ESKN.CP", "versionId": "20260703T06:07:06" }, "label": "116/1", "nationalCadastralReference": "814393_116/1.C", "referencePoint": { "type": "Point", "coordinates": [ 21.23989704, 49.18688153 ] }, "validFrom": "2026-06-30T16:00:00Z", "validTo": { "@nilReason": "http://inspire.ec.europa.eu/codelist/VoidReasonValue/Unpopulated", "@nil": "true" }, "administrativeUnit": { "@href": "#auAdmUnitS.2000" } }, "geometry": { "type": "Polygon", "coordinates": [ [ [ 21.24282393, 49.18609915 ], [ 21.24283629, 49.18610691 ], [ 21.24285863, 49.18612092 ], [ 21.24286013, 49.1861134 ], [ 21.24286524, 49.18600932 ], [ 21.24286356, 49.18601557 ], [ 21.24285756, 49.18602061 ], [ 21.24284999, 49.18602289 ], [ 21.24284109, 49.18602442 ], [ 21.24280247, 49.18602864 ], [ 21.24273646, 49.18605109 ], [ 21.24243209, 49.18611898 ], [ 21.24209596, 49.18618166 ], [ 21.24203476, 49.186204 ], [ 21.24186434, 49.18623855 ], [ 21.24167235, 49.18627892 ], [ 21.24154254, 49.18630626 ], [ 21.24147296, 49.1863133 ], [ 21.24129756, 49.18636174 ], [ 21.24103742, 49.1864372 ], [ 21.2407672, 49.18652296 ], [ 21.24076102, 49.18652493 ], [ 21.24070781, 49.18654112 ], [ 21.24056672, 49.18658405 ], [ 21.24041885, 49.1866354 ], [ 21.24037463, 49.18665079 ], [ 21.24032971, 49.18666633 ], [ 21.24021436, 49.18671229 ], [ 21.24009271, 49.18674654 ], [ 21.23988724, 49.18683511 ], [ 21.23967126, 49.18691128 ], [ 21.23962886, 49.18692618 ], [ 21.2396135, 49.18693165 ], [ 21.23950047, 49.18697202 ], [ 21.23947909, 49.18697532 ], [ 21.23941258, 49.18698552 ], [ 21.2392976, 49.18700323 ], [ 21.23916211, 49.18701968 ], [ 21.23913842, 49.18702255 ], [ 21.23911645, 49.18702827 ], [ 21.23906229, 49.18704253 ], [ 21.23895329, 49.18704566 ], [ 21.2387918, 49.18704943 ], [ 21.23867983, 49.1870423 ], [ 21.23863951, 49.18703971 ], [ 21.23847276, 49.18706312 ], [ 21.23832463, 49.18707773 ], [ 21.23809418, 49.18710089 ], [ 21.2380726, 49.18710302 ], [ 21.23806915, 49.18710336 ], [ 21.2380401, 49.18710625 ], [ 21.23799639, 49.18711058 ], [ 21.23790028, 49.18711996 ], [ 21.2378734, 49.18712507 ], [ 21.23776452, 49.18714594 ], [ 21.23758106, 49.18722248 ], [ 21.23742758, 49.18729833 ], [ 21.23734543, 49.18733901 ], [ 21.23724135, 49.18739054 ], [ 21.2370765, 49.18746792 ], [ 21.23703374, 49.18747057 ], [ 21.2369725, 49.18749731 ], [ 21.23688929, 49.18753355 ], [ 21.23682215, 49.18754283 ], [ 21.23668788, 49.18756534 ], [ 21.23654967, 49.18768297 ], [ 21.23652997, 49.18769542 ], [ 21.23675525, 49.18775798 ], [ 21.23737124, 49.1874408 ], [ 21.23744944, 49.18738812 ], [ 21.23755002, 49.18732217 ], [ 21.23766779, 49.187277 ], [ 21.23779222, 49.18721358 ], [ 21.23783588, 49.18719647 ], [ 21.23787939, 49.18718152 ], [ 21.23796339, 49.18715151 ], [ 21.2380633, 49.18714288 ], [ 21.23815294, 49.18713754 ], [ 21.23824023, 49.18713257 ], [ 21.23833695, 49.18712825 ], [ 21.23842209, 49.18712448 ], [ 21.23851495, 49.18712031 ], [ 21.23859248, 49.1871173 ], [ 21.23867634, 49.18711411 ], [ 21.2387536, 49.18711118 ], [ 21.23883154, 49.18710817 ], [ 21.23898051, 49.1871105 ], [ 21.23951186, 49.18705465 ], [ 21.23954672, 49.18704356 ], [ 21.23955573, 49.18703088 ], [ 21.23959415, 49.18702162 ], [ 21.23968765, 49.18699902 ], [ 21.23995954, 49.18691294 ], [ 21.2401132, 49.18685177 ], [ 21.24017349, 49.18681717 ], [ 21.2403316, 49.1867474 ], [ 21.24041533, 49.18671352 ], [ 21.24050133, 49.18668421 ], [ 21.24062785, 49.18663759 ], [ 21.24070557, 49.18661082 ], [ 21.24078302, 49.18658403 ], [ 21.24095273, 49.18653262 ], [ 21.24103278, 49.18650205 ], [ 21.24110854, 49.18648358 ], [ 21.24126402, 49.18643903 ], [ 21.24138373, 49.18640508 ], [ 21.24150203, 49.18637739 ], [ 21.24157244, 49.18636254 ], [ 21.24164105, 49.18634799 ], [ 21.24179424, 49.18631813 ], [ 21.24198987, 49.18628453 ], [ 21.24198944, 49.18628668 ], [ 21.24203881, 49.18627613 ], [ 21.24282393, 49.18609915 ] ] ] } },
{ "type": "Feature", "properties": { "@featureType": "CadastralParcel", "areaValue": { "value": 398, "@uom": "m2" }, "beginLifespanVersion": { "@nilReason": "http://inspire.ec.europa.eu/codelist/VoidReasonValue/Unpopulated", "@nil": "true" }, "endLifespanVersion": { "@nilReason": "http://inspire.ec.europa.eu/codelist/VoidReasonValue/Unpopulated", "@nil": "true" }, "inspireId": { "@dataType": "Identifier", "localId": "814393_661/1.C", "namespace": "SK.ESKN.CP", "versionId": "20260703T06:07:06" }, "label": "661/1", "nationalCadastralReference": "814393_661/1.C", "referencePoint": { "type": "Point", "coordinates": [ 21.23648579, 49.18784446 ] }, "validFrom": "2026-06-30T16:00:00Z", "validTo": { "@nilReason": "http://inspire.ec.europa.eu/codelist/VoidReasonValue/Unpopulated", "@nil": "true" }, "administrativeUnit": { "@href": "#auAdmUnitS.2000" } }, "geometry": { "type": "Polygon", "coordinates": [ [ [ 21.2361071, 49.18808866 ], [ 21.23617926, 49.18803606 ], [ 21.23675525, 49.18775798 ], [ 21.23652997, 49.18769542 ], [ 21.2363174, 49.18793094 ], [ 21.23618619, 49.18798533 ], [ 21.2361856, 49.18798603 ], [ 21.23613014, 49.1880585 ], [ 21.2361071, 49.18808866 ] ] ] } }
]
}
