{
"type": "FeatureCollection",
"name": "gis",
"crs": { "type": "name", "properties": { "name": "urn:ogc:def:crs:OGC:1.3:CRS84" } },
"features": [
{ "type": "Feature", "properties": { "@featureType": "CadastralParcel", "areaValue": { "value": 323, "@uom": "m2" }, "beginLifespanVersion": { "@nilReason": "http://inspire.ec.europa.eu/codelist/VoidReasonValue/Unpopulated", "@nil": "true" }, "endLifespanVersion": { "@nilReason": "http://inspire.ec.europa.eu/codelist/VoidReasonValue/Unpopulated", "@nil": "true" }, "inspireId": { "@dataType": "Identifier", "localId": "859702_980/18.C", "namespace": "SK.ESKN.CP", "versionId": "20260703T06:07:13" }, "label": "980/18", "nationalCadastralReference": "859702_980/18.C", "referencePoint": { "type": "Point", "coordinates": [ 18.40817105, 49.07893113 ] }, "validFrom": "2026-06-30T16:00:00Z", "validTo": { "@nilReason": "http://inspire.ec.europa.eu/codelist/VoidReasonValue/Unpopulated", "@nil": "true" }, "administrativeUnit": { "@href": "#auAdmUnitS.2266" } }, "geometry": { "type": "Polygon", "coordinates": [ [ [ 18.40816033, 49.07886486 ], [ 18.40809722, 49.0790229 ], [ 18.40806688, 49.07909884 ], [ 18.40802075, 49.07915224 ], [ 18.40795, 49.07918867 ], [ 18.4079446, 49.07922862 ], [ 18.40794174, 49.07924994 ], [ 18.40798145, 49.07921658 ], [ 18.40812183, 49.07909881 ], [ 18.40814785, 49.07907696 ], [ 18.40815123, 49.07906885 ], [ 18.4081843, 49.07898873 ], [ 18.4081982, 49.0789553 ], [ 18.40821827, 49.07890695 ], [ 18.40822113, 49.07889529 ], [ 18.40825124, 49.07877079 ], [ 18.4082609, 49.07873072 ], [ 18.40827814, 49.07865947 ], [ 18.4082787, 49.07865725 ], [ 18.40828495, 49.07863422 ], [ 18.40821432, 49.07862571 ], [ 18.40821047, 49.07864292 ], [ 18.40816033, 49.07886486 ] ] ] } },
{ "type": "Feature", "properties": { "@featureType": "CadastralParcel", "areaValue": { "value": 1372, "@uom": "m2" }, "beginLifespanVersion": { "@nilReason": "http://inspire.ec.europa.eu/codelist/VoidReasonValue/Unpopulated", "@nil": "true" }, "endLifespanVersion": { "@nilReason": "http://inspire.ec.europa.eu/codelist/VoidReasonValue/Unpopulated", "@nil": "true" }, "inspireId": { "@dataType": "Identifier", "localId": "859702_995/47.C", "namespace": "SK.ESKN.CP", "versionId": "20260703T06:07:13" }, "label": "995/47", "nationalCadastralReference": "859702_995/47.C", "referencePoint": { "type": "Point", "coordinates": [ 18.40928025, 49.07882381 ] }, "validFrom": "2026-06-30T16:00:00Z", "validTo": { "@nilReason": "http://inspire.ec.europa.eu/codelist/VoidReasonValue/Unpopulated", "@nil": "true" }, "administrativeUnit": { "@href": "#auAdmUnitS.2266" } }, "geometry": { "type": "Polygon", "coordinates": [ [ [ 18.40828495, 49.07863422 ], [ 18.4082787, 49.07865725 ], [ 18.40827814, 49.07865947 ], [ 18.4082609, 49.07873072 ], [ 18.40830295, 49.07873385 ], [ 18.40835574, 49.07873786 ], [ 18.40837542, 49.07873759 ], [ 18.40863758, 49.07875768 ], [ 18.40865945, 49.07875961 ], [ 18.4086781, 49.078762 ], [ 18.40869867, 49.0787644 ], [ 18.40871875, 49.07876749 ], [ 18.40901332, 49.07881654 ], [ 18.40904763, 49.07882222 ], [ 18.40906591, 49.07882531 ], [ 18.4094521, 49.07888952 ], [ 18.40956003, 49.07904331 ], [ 18.4095638, 49.07905354 ], [ 18.40956052, 49.07906518 ], [ 18.409554, 49.07907213 ], [ 18.40954808, 49.07907541 ], [ 18.40954409, 49.07907763 ], [ 18.4095313, 49.07908098 ], [ 18.40951928, 49.07908149 ], [ 18.40951644, 49.07908115 ], [ 18.40951468, 49.07908096 ], [ 18.40950305, 49.07907951 ], [ 18.40950435, 49.07908328 ], [ 18.40950566, 49.07908696 ], [ 18.40952235, 49.07913364 ], [ 18.40962615, 49.07909227 ], [ 18.40964831, 49.07908339 ], [ 18.40961935, 49.07904244 ], [ 18.40953611, 49.0789244 ], [ 18.40953375, 49.07891922 ], [ 18.40953647, 49.07890872 ], [ 18.40954128, 49.07890438 ], [ 18.40986193, 49.07895793 ], [ 18.40988335, 49.07888728 ], [ 18.40984073, 49.07887996 ], [ 18.40982218, 49.0788747 ], [ 18.40980649, 49.07886634 ], [ 18.40979482, 49.0788555 ], [ 18.40978953, 49.07884537 ], [ 18.40978664, 49.07883357 ], [ 18.40978812, 49.07882417 ], [ 18.40984991, 49.07861849 ], [ 18.40986931, 49.07855395 ], [ 18.40986511, 49.07855345 ], [ 18.40981187, 49.07854654 ], [ 18.40980687, 49.0785459 ], [ 18.40978749, 49.07861035 ], [ 18.40972784, 49.07880893 ], [ 18.40971953, 49.07882345 ], [ 18.40970465, 49.07883553 ], [ 18.40968462, 49.0788439 ], [ 18.40966162, 49.07884759 ], [ 18.40963803, 49.0788462 ], [ 18.40942765, 49.07881119 ], [ 18.40876666, 49.07870128 ], [ 18.40874937, 49.07869681 ], [ 18.40873449, 49.07868967 ], [ 18.40872263, 49.07868035 ], [ 18.40871483, 49.07866936 ], [ 18.40871142, 49.07865744 ], [ 18.40871269, 49.07864533 ], [ 18.40874998, 49.07852159 ], [ 18.40874539, 49.07852097 ], [ 18.4086912, 49.07851392 ], [ 18.40868755, 49.07851344 ], [ 18.40864874, 49.07864161 ], [ 18.40864304, 49.07865285 ], [ 18.40863323, 49.07866295 ], [ 18.40861996, 49.07867106 ], [ 18.40860411, 49.07867687 ], [ 18.40858655, 49.07867987 ], [ 18.40856841, 49.07867994 ], [ 18.40851821, 49.07867609 ], [ 18.40831508, 49.07866061 ], [ 18.408302, 49.07865764 ], [ 18.40829164, 49.07865165 ], [ 18.40828568, 49.07864347 ], [ 18.40828495, 49.07863422 ] ] ] } }
]
}
