{
"type": "FeatureCollection",
"name": "gis",
"crs": { "type": "name", "properties": { "name": "urn:ogc:def:crs:OGC:1.3:CRS84" } },
"features": [
{ "type": "Feature", "properties": { "@featureType": "CadastralZoning", "beginLifespanVersion": { "@nilReason": "http://inspire.ec.europa.eu/codelist/VoidReasonValue/Unpopulated", "@nil": "true" }, "endLifespanVersion": { "@nilReason": "http://inspire.ec.europa.eu/codelist/VoidReasonValue/Unpopulated", "@nil": "true" }, "estimatedAccuracy": { "value": -1, "@uom": "m" }, "inspireId": { "@dataType": "Identifier", "localId": "855863", "namespace": "SK.ESKN.CP", "versionId": "20260703T04:07:40" }, "label": "Sklené", "level": { "@href": "http://inspire.ec.europa.eu/codelist/CadastralZoningLevelValue/3rdOrder" }, "levelName": { "value": "Katastrálne územie", "@locale": "sk" }, "name": { "@dataType": "name", "GeographicalName": { "@dataType": "GeographicalName", "language": "SLK", "nativeness": { "@href": "http://inspire.ec.europa.eu/codelist/NativenessValue/endonym", "@title": "endonym" }, "nameStatus": { "@href": "http://inspire.ec.europa.eu/codelist/NameStatusValue/official", "@title": "official" }, "sourceOfName": { "@nilReason": "http://inspire.ec.europa.eu/codelist/VoidReasonValue/Unpopulated", "@nil": "true" }, "pronunciation": { "@dataType": "pronunciation", "@nilReason": "http://inspire.ec.europa.eu/codelist/VoidReasonValue/Unpopulated", "@nil": "true" }, "spelling": { "@dataType": "SpellingOfName", "text": "Sklené", "script": "LATN" } } }, "nationalCadastalZoningReference": "855863", "validFrom": "2026-06-30T16:00:00Z", "validTo": { "@nilReason": "http://inspire.ec.europa.eu/codelist/VoidReasonValue/Unpopulated", "@nil": "true" } }, "geometry": { "type": "MultiPolygon", "coordinates": [ [ [ [ 18.81875255, 48.8303377 ], [ 18.81871344, 48.83022336 ], [ 18.81873958, 48.83011872 ], [ 18.81867139, 48.83010165 ], [ 18.8186424, 48.83005368 ], [ 18.81847701, 48.83004959 ], [ 18.81829336, 48.83001993 ], [ 18.81825273, 48.82996189 ], [ 18.81829303, 48.82989434 ], [ 18.81829597, 48.82982503 ], [ 18.81819189, 48.82974222 ], [ 18.81814919, 48.82968209 ], [ 18.81816048, 48.8296161 ], [ 18.81822807, 48.829605 ], [ 18.81828714, 48.82955881 ], [ 18.81830798, 48.82944136 ], [ 18.81834877, 48.82935598 ], [ 18.81824645, 48.82929852 ], [ 18.81818731, 48.82917348 ], [ 18.81804515, 48.82911322 ], [ 18.81799937, 48.82903543 ], [ 18.81800808, 48.82898645 ], [ 18.81807909, 48.82890886 ], [ 18.81793983, 48.82881403 ], [ 18.81791316, 48.82872261 ], [ 18.81783422, 48.8286513 ], [ 18.81779097, 48.82853854 ], [ 18.81789671, 48.82845383 ], [ 18.81794263, 48.82833461 ], [ 18.81805844, 48.82820676 ], [ 18.81802837, 48.8280946 ], [ 18.81794075, 48.82794715 ], [ 18.81791932, 48.82788623 ], [ 18.81787021, 48.82786266 ], [ 18.8177547, 48.82786892 ], [ 18.81759771, 48.82786545 ], [ 18.81750134, 48.82781082 ], [ 18.81749779, 48.82769743 ], [ 18.81741933, 48.82753052 ], [ 18.81726868, 48.82730437 ], [ 18.81708161, 48.82707435 ], [ 18.81696653, 48.82682498 ], [ 18.81697543, 48.8266416 ], [ 18.81683788, 48.82647179 ], [ 18.81675935, 48.82641079 ], [ 18.81668403, 48.82630692 ], [ 18.81650833, 48.82621298 ], [ 18.81653576, 48.8261067 ], [ 18.81654089, 48.82608658 ], [ 18.81645063, 48.82600719 ], [ 18.81647192, 48.82584935 ], [ 18.81648365, 48.82580133 ], [ 18.81650045, 48.82573266 ], [ 18.81649652, 48.82562708 ], [ 18.81646639, 48.82558186 ], [ 18.81627728, 48.82529796 ], [ 18.81603385, 48.82512364 ], [ 18.81600654, 48.8249059 ], [ 18.81603596, 48.82471889 ], [ 18.81608484, 48.82472143 ], [ 18.81637903, 48.8245997 ], [ 18.81674349, 48.82444888 ], [ 18.81759357, 48.82409707 ], [ 18.81775625, 48.82402975 ], [ 18.81822477, 48.8238358 ], [ 18.81805728, 48.8235791 ], [ 18.81811152, 48.82354584 ], [ 18.81792827, 48.82345801 ], [ 18.81788009, 48.82338316 ], [ 18.8178842, 48.82334756 ], [ 18.81788929, 48.82330371 ], [ 18.81797005, 48.82322221 ], [ 18.81793019, 48.82317151 ], [ 18.81782193, 48.82320296 ], [ 18.81757867, 48.82327348 ], [ 18.81741535, 48.82328547 ], [ 18.81675317, 48.82319032 ], [ 18.81658789, 48.82250858 ], [ 18.81651954, 48.82205081 ], [ 18.81648643, 48.82170079 ], [ 18.81645359, 48.82155574 ], [ 18.81650131, 48.82144771 ], [ 18.81676465, 48.82129587 ], [ 18.81673251, 48.82118387 ], [ 18.81659884, 48.82106758 ], [ 18.81652493, 48.82080303 ], [ 18.8165483, 48.82066893 ], [ 18.81651563, 48.82036909 ], [ 18.81649425, 48.82017267 ], [ 18.81647454, 48.81998852 ], [ 18.81654415, 48.81980585 ], [ 18.81671387, 48.81948126 ], [ 18.81672024, 48.81946906 ], [ 18.81669126, 48.8193169 ], [ 18.81669209, 48.81920688 ], [ 18.81674556, 48.81915373 ], [ 18.81681889, 48.81900735 ], [ 18.81685259, 48.81894009 ], [ 18.81687374, 48.81889789 ], [ 18.81691478, 48.81888487 ], [ 18.81696036, 48.81887037 ], [ 18.81698556, 48.8188263 ], [ 18.81708841, 48.81864654 ], [ 18.81710782, 48.8185743 ], [ 18.81719039, 48.818268 ], [ 18.8172179, 48.8181656 ], [ 18.81719005, 48.81802108 ], [ 18.81697289, 48.81770235 ], [ 18.81729042, 48.81786681 ], [ 18.81732952, 48.81787452 ], [ 18.81741562, 48.81789136 ], [ 18.8174672, 48.81790099 ], [ 18.8174688, 48.81790134 ], [ 18.81776448, 48.81795686 ], [ 18.81808944, 48.81801778 ], [ 18.81810975, 48.81802164 ], [ 18.81816546, 48.81803211 ], [ 18.81839287, 48.81807479 ], [ 18.81839928, 48.81807602 ], [ 18.81843922, 48.81807909 ], [ 18.81939427, 48.81815202 ], [ 18.82084782, 48.81828884 ], [ 18.82101551, 48.81807392 ], [ 18.82101695, 48.81803891 ], [ 18.8214872, 48.81824241 ], [ 18.82160061, 48.81836829 ], [ 18.82164948, 48.81844886 ], [ 18.82169606, 48.8186907 ], [ 18.82173978, 48.81878462 ], [ 18.82186349, 48.81885275 ], [ 18.82198391, 48.81887741 ], [ 18.82235068, 48.81892913 ], [ 18.82246197, 48.8189673 ], [ 18.82273724, 48.81919314 ], [ 18.82324173, 48.81950496 ], [ 18.82343638, 48.81963126 ], [ 18.8235897, 48.81973178 ], [ 18.82374939, 48.81978798 ], [ 18.82392563, 48.81984179 ], [ 18.82427816, 48.81989844 ], [ 18.82517646, 48.82006391 ], [ 18.82538751, 48.82009616 ], [ 18.82593992, 48.8202662 ], [ 18.82627246, 48.82023611 ], [ 18.82675252, 48.82024282 ], [ 18.82682915, 48.82023254 ], [ 18.82736403, 48.82015748 ], [ 18.82779349, 48.82011879 ], [ 18.82824103, 48.82013589 ], [ 18.82860058, 48.8201256 ], [ 18.8296991, 48.82030304 ], [ 18.83003853, 48.82040094 ], [ 18.83021327, 48.82043409 ], [ 18.83037589, 48.82047032 ], [ 18.83077659, 48.82067333 ], [ 18.83095412, 48.82080929 ], [ 18.83113243, 48.82087447 ], [ 18.83121399, 48.82089855 ], [ 18.83132732, 48.82095873 ], [ 18.83170114, 48.82112363 ], [ 18.83250376, 48.82082473 ], [ 18.83334681, 48.82057636 ], [ 18.83331664, 48.82010644 ], [ 18.83350327, 48.81996727 ], [ 18.83410673, 48.82012287 ], [ 18.8343753, 48.82017577 ], [ 18.83479654, 48.82016018 ], [ 18.83536014, 48.81997895 ], [ 18.83580847, 48.82042148 ], [ 18.83627013, 48.82038182 ], [ 18.83654682, 48.82034339 ], [ 18.83693492, 48.82029404 ], [ 18.83826029, 48.81983186 ], [ 18.83864106, 48.81968317 ], [ 18.83879356, 48.81950344 ], [ 18.83912304, 48.81829639 ], [ 18.83930162, 48.81827651 ], [ 18.83936822, 48.81826778 ], [ 18.83944393, 48.81827441 ], [ 18.83956278, 48.81853649 ], [ 18.83957739, 48.81856873 ], [ 18.83976597, 48.81898435 ], [ 18.84015731, 48.81954226 ], [ 18.84134722, 48.81941852 ], [ 18.8415286, 48.8193774 ], [ 18.84223866, 48.81911288 ], [ 18.84281008, 48.81898515 ], [ 18.84328578, 48.81870056 ], [ 18.84371794, 48.81865609 ], [ 18.84382956, 48.81865709 ], [ 18.84418884, 48.81852694 ], [ 18.84481603, 48.81830096 ], [ 18.84511378, 48.81828751 ], [ 18.84535586, 48.81825043 ], [ 18.84622315, 48.81803507 ], [ 18.84687602, 48.81791144 ], [ 18.84709317, 48.81788074 ], [ 18.84759076, 48.81775557 ], [ 18.84780209, 48.817668 ], [ 18.84849879, 48.81743956 ], [ 18.84890879, 48.81733646 ], [ 18.84934252, 48.81718769 ], [ 18.84951061, 48.81715245 ], [ 18.849841, 48.81712173 ], [ 18.85004389, 48.81707873 ], [ 18.85027014, 48.81707718 ], [ 18.85042727, 48.8170411 ], [ 18.85096205, 48.81692127 ], [ 18.85127789, 48.81682079 ], [ 18.85142176, 48.81680324 ], [ 18.85167758, 48.81663064 ], [ 18.85176101, 48.81661123 ], [ 18.8521209, 48.81616113 ], [ 18.85224232, 48.81587198 ], [ 18.85216746, 48.8156508 ], [ 18.8520726, 48.81549354 ], [ 18.85206173, 48.81521658 ], [ 18.85232758, 48.81473112 ], [ 18.85253436, 48.81466207 ], [ 18.85265771, 48.81458718 ], [ 18.85269704, 48.8145423 ], [ 18.85267112, 48.81446943 ], [ 18.85258902, 48.81438418 ], [ 18.85262463, 48.81427506 ], [ 18.85275244, 48.81412904 ], [ 18.85303655, 48.81398262 ], [ 18.85325902, 48.81395985 ], [ 18.85362922, 48.81354112 ], [ 18.8536286, 48.81350717 ], [ 18.8536428, 48.81345766 ], [ 18.85417701, 48.81325697 ], [ 18.85430888, 48.81316419 ], [ 18.85449963, 48.81317162 ], [ 18.85454899, 48.81317119 ], [ 18.85470104, 48.81311446 ], [ 18.85513538, 48.81316055 ], [ 18.85571284, 48.81312274 ], [ 18.85577785, 48.81309967 ], [ 18.85590681, 48.81299114 ], [ 18.8559307, 48.81286906 ], [ 18.8558746, 48.81273266 ], [ 18.85591751, 48.81261373 ], [ 18.85593744, 48.81259076 ], [ 18.85597107, 48.81259286 ], [ 18.85608872, 48.81258198 ], [ 18.85612033, 48.81256657 ], [ 18.85618453, 48.8124454 ], [ 18.85616259, 48.81236082 ], [ 18.8561941, 48.81226431 ], [ 18.85629491, 48.81219618 ], [ 18.85660075, 48.81209796 ], [ 18.85678068, 48.8120295 ], [ 18.8568581, 48.81192246 ], [ 18.85682325, 48.81179112 ], [ 18.85686209, 48.81164772 ], [ 18.8569646, 48.81152375 ], [ 18.85717787, 48.81144131 ], [ 18.85746368, 48.81137832 ], [ 18.85758378, 48.81124994 ], [ 18.8573902, 48.81101505 ], [ 18.85742459, 48.81093574 ], [ 18.85776616, 48.81068213 ], [ 18.85788101, 48.81066146 ], [ 18.85811601, 48.81039666 ], [ 18.85814119, 48.81021863 ], [ 18.85817938, 48.81008755 ], [ 18.8583464, 48.80995041 ], [ 18.85838706, 48.80980773 ], [ 18.85833786, 48.80969035 ], [ 18.85833477, 48.80958501 ], [ 18.85839586, 48.80953504 ], [ 18.85850831, 48.80905825 ], [ 18.85847439, 48.80894103 ], [ 18.85898584, 48.80848322 ], [ 18.85919319, 48.80838957 ], [ 18.85920031, 48.80830866 ], [ 18.85898302, 48.80817024 ], [ 18.85883665, 48.8081146 ], [ 18.85877953, 48.80808486 ], [ 18.85917043, 48.80732784 ], [ 18.86004124, 48.80654184 ], [ 18.86004218, 48.8063539 ], [ 18.85987442, 48.80624357 ], [ 18.85990402, 48.80610546 ], [ 18.86000535, 48.80601895 ], [ 18.86028755, 48.80590886 ], [ 18.86034446, 48.80579959 ], [ 18.86028736, 48.80565321 ], [ 18.86058422, 48.80510539 ], [ 18.86066318, 48.80498282 ], [ 18.8607277, 48.80485887 ], [ 18.8606994, 48.80421415 ], [ 18.86079552, 48.80407352 ], [ 18.86075959, 48.80406327 ], [ 18.86069241, 48.80402047 ], [ 18.8602717, 48.80383214 ], [ 18.86027785, 48.80344565 ], [ 18.86025408, 48.80343071 ], [ 18.86147082, 48.80255478 ], [ 18.86226066, 48.80158868 ], [ 18.86248479, 48.80118206 ], [ 18.86278402, 48.80062876 ], [ 18.86367842, 48.79981032 ], [ 18.86376865, 48.79968364 ], [ 18.86458575, 48.79926216 ], [ 18.86528826, 48.79857298 ], [ 18.86549222, 48.79816451 ], [ 18.86648705, 48.79703054 ], [ 18.86739071, 48.79612803 ], [ 18.86853623, 48.79414109 ], [ 18.8689858, 48.7934504 ], [ 18.86978486, 48.79241078 ], [ 18.86986352, 48.79212518 ], [ 18.86989438, 48.79203612 ], [ 18.87006628, 48.79133913 ], [ 18.87037723, 48.79080104 ], [ 18.87050185, 48.79069949 ], [ 18.8705926, 48.79059006 ], [ 18.87067292, 48.79045438 ], [ 18.87137618, 48.78894796 ], [ 18.87158879, 48.78878564 ], [ 18.87215023, 48.7884185 ], [ 18.87250807, 48.78761934 ], [ 18.87242705, 48.78659674 ], [ 18.87274417, 48.78579538 ], [ 18.87325629, 48.78484658 ], [ 18.87323795, 48.78453596 ], [ 18.87373899, 48.78310841 ], [ 18.8738902, 48.7823316 ], [ 18.87478908, 48.781147 ], [ 18.87659074, 48.78008569 ], [ 18.87656791, 48.78007441 ], [ 18.87633593, 48.7796366 ], [ 18.87602085, 48.77954919 ], [ 18.87560667, 48.77963645 ], [ 18.87517656, 48.77980317 ], [ 18.8750301, 48.77985993 ], [ 18.87489393, 48.77973574 ], [ 18.87474695, 48.77952854 ], [ 18.87237337, 48.78047409 ], [ 18.87261111, 48.78071024 ], [ 18.87232781, 48.78080451 ], [ 18.87219057, 48.78088592 ], [ 18.87204353, 48.78107237 ], [ 18.87063302, 48.78149386 ], [ 18.87038954, 48.78139425 ], [ 18.86955964, 48.78145309 ], [ 18.86943737, 48.7812321 ], [ 18.86939101, 48.78114852 ], [ 18.86909179, 48.78112785 ], [ 18.86871822, 48.78108954 ], [ 18.86852685, 48.78107804 ], [ 18.86853017, 48.78103139 ], [ 18.86840255, 48.78094471 ], [ 18.8683669, 48.7808652 ], [ 18.86839146, 48.78074171 ], [ 18.86883737, 48.78016991 ], [ 18.86894888, 48.78009835 ], [ 18.86889635, 48.77998722 ], [ 18.86891587, 48.77996991 ], [ 18.86915722, 48.77975586 ], [ 18.86921041, 48.77969501 ], [ 18.86963351, 48.77920989 ], [ 18.86987675, 48.77878909 ], [ 18.86998559, 48.77877594 ], [ 18.87010952, 48.77876096 ], [ 18.87055941, 48.7787065 ], [ 18.87181315, 48.7785324 ], [ 18.87264714, 48.77838408 ], [ 18.87329968, 48.77832058 ], [ 18.87352195, 48.77828072 ], [ 18.8737401, 48.77808837 ], [ 18.87356588, 48.77790854 ], [ 18.87352992, 48.77766277 ], [ 18.87392117, 48.77713594 ], [ 18.87385517, 48.77669829 ], [ 18.87426465, 48.77599605 ], [ 18.87412874, 48.77558646 ], [ 18.87422868, 48.77504839 ], [ 18.87396995, 48.77486998 ], [ 18.87320723, 48.77436762 ], [ 18.87328691, 48.77208061 ], [ 18.87350883, 48.76938616 ], [ 18.87296203, 48.7690472 ], [ 18.87279789, 48.76885968 ], [ 18.87213357, 48.768424 ], [ 18.87163073, 48.76770708 ], [ 18.87136919, 48.76733908 ], [ 18.87119196, 48.76718155 ], [ 18.87044001, 48.76676028 ], [ 18.8690599, 48.76714595 ], [ 18.8686563, 48.76712015 ], [ 18.86796914, 48.76740401 ], [ 18.86737272, 48.76734119 ], [ 18.86736781, 48.76734004 ], [ 18.86664252, 48.76716909 ], [ 18.8658609, 48.76679821 ], [ 18.86480252, 48.76629603 ], [ 18.86429511, 48.76552066 ], [ 18.86382578, 48.7651852 ], [ 18.86335413, 48.76463854 ], [ 18.86214068, 48.76450909 ], [ 18.86061071, 48.76404798 ], [ 18.86051177, 48.76401815 ], [ 18.86043903, 48.76399626 ], [ 18.86009357, 48.76386565 ], [ 18.859139, 48.76378562 ], [ 18.85903561, 48.76374032 ], [ 18.85891586, 48.76368794 ], [ 18.85883591, 48.76367866 ], [ 18.85866293, 48.76365871 ], [ 18.85866212, 48.76365858 ], [ 18.8586308, 48.76365579 ], [ 18.85852709, 48.76364664 ], [ 18.85831487, 48.76362502 ], [ 18.8569773, 48.76348846 ], [ 18.85601381, 48.76344358 ], [ 18.85547635, 48.7634561 ], [ 18.85535703, 48.76345885 ], [ 18.85521337, 48.76346216 ], [ 18.8549003, 48.7634557 ], [ 18.85489349, 48.76345553 ], [ 18.85477993, 48.76345236 ], [ 18.85477721, 48.76345231 ], [ 18.8545719, 48.7634461 ], [ 18.85453027, 48.76344395 ], [ 18.85437782, 48.76324482 ], [ 18.85425277, 48.76286038 ], [ 18.85425648, 48.76220657 ], [ 18.85433973, 48.76174541 ], [ 18.85438873, 48.76145477 ], [ 18.85444907, 48.76101768 ], [ 18.85459317, 48.76064176 ], [ 18.85458154, 48.76027545 ], [ 18.85452123, 48.76009679 ], [ 18.85426583, 48.75962983 ], [ 18.85425316, 48.75960662 ], [ 18.85424644, 48.75952274 ], [ 18.85423393, 48.75936567 ], [ 18.85426486, 48.75928879 ], [ 18.85430374, 48.7592024 ], [ 18.85433636, 48.75911118 ], [ 18.85431076, 48.75902776 ], [ 18.8541022, 48.75883024 ], [ 18.8539944, 48.75875773 ], [ 18.85398593, 48.75875206 ], [ 18.8535563, 48.75846497 ], [ 18.85341824, 48.75837267 ], [ 18.85307684, 48.75826921 ], [ 18.85300123, 48.75824635 ], [ 18.85249492, 48.75809304 ], [ 18.85188689, 48.7579046 ], [ 18.8516012, 48.75778471 ], [ 18.85106805, 48.75756091 ], [ 18.85092986, 48.75749511 ], [ 18.85009974, 48.75710843 ], [ 18.84987327, 48.75700469 ], [ 18.84939991, 48.75678532 ], [ 18.84910905, 48.75674139 ], [ 18.84891343, 48.75669969 ], [ 18.84876179, 48.75658629 ], [ 18.84839176, 48.75624327 ], [ 18.84783094, 48.75600222 ], [ 18.84737565, 48.75582618 ], [ 18.84723086, 48.75565152 ], [ 18.8471405, 48.75554247 ], [ 18.84713511, 48.75553272 ], [ 18.84704158, 48.75536414 ], [ 18.84697247, 48.75504934 ], [ 18.8469611, 48.75466176 ], [ 18.84702176, 48.75434557 ], [ 18.84692823, 48.75413324 ], [ 18.84674422, 48.75403981 ], [ 18.84649892, 48.75401447 ], [ 18.84634408, 48.7539857 ], [ 18.84623168, 48.7538175 ], [ 18.84603309, 48.75370888 ], [ 18.84578389, 48.75365897 ], [ 18.84570819, 48.75359551 ], [ 18.84552386, 48.75345876 ], [ 18.84489459, 48.75328903 ], [ 18.84475873, 48.75312322 ], [ 18.84473045, 48.75298193 ], [ 18.84476174, 48.75284463 ], [ 18.84487004, 48.75269057 ], [ 18.84485333, 48.75250929 ], [ 18.8447754, 48.75241865 ], [ 18.8445321, 48.75224998 ], [ 18.84419726, 48.7519214 ], [ 18.84401993, 48.75187522 ], [ 18.84345448, 48.75116753 ], [ 18.84335579, 48.75107942 ], [ 18.84297274, 48.75072037 ], [ 18.84238707, 48.75017761 ], [ 18.84235916, 48.75018518 ], [ 18.8421849, 48.75023974 ], [ 18.84217582, 48.7502427 ], [ 18.84212795, 48.75025862 ], [ 18.84212028, 48.7502612 ], [ 18.84125707, 48.75052313 ], [ 18.84034245, 48.75033856 ], [ 18.83957912, 48.74964359 ], [ 18.83924621, 48.74949461 ], [ 18.83880454, 48.74939997 ], [ 18.83856906, 48.74931513 ], [ 18.83833778, 48.74924088 ], [ 18.83694006, 48.74907541 ], [ 18.83574055, 48.74868838 ], [ 18.83538823, 48.74868001 ], [ 18.83476822, 48.74841011 ], [ 18.83438987, 48.74833949 ], [ 18.83376522, 48.74841891 ], [ 18.83275802, 48.74803236 ], [ 18.83232894, 48.74791805 ], [ 18.83159757, 48.74730541 ], [ 18.83087313, 48.74703638 ], [ 18.83065265, 48.74690584 ], [ 18.83017153, 48.7466269 ], [ 18.82965325, 48.74602938 ], [ 18.8279139, 48.74461918 ], [ 18.82684128, 48.74414708 ], [ 18.82634799, 48.74405692 ], [ 18.82660754, 48.74420168 ], [ 18.82668185, 48.744358 ], [ 18.82678344, 48.74457167 ], [ 18.82680119, 48.74469311 ], [ 18.82672039, 48.74500329 ], [ 18.8266594, 48.74506769 ], [ 18.82657226, 48.74507091 ], [ 18.8264212, 48.74520108 ], [ 18.82637081, 48.74527613 ], [ 18.82626151, 48.74551852 ], [ 18.82599866, 48.7458592 ], [ 18.82589762, 48.74614794 ], [ 18.825582, 48.74636111 ], [ 18.82541625, 48.74652298 ], [ 18.82519344, 48.74674134 ], [ 18.82468167, 48.74701512 ], [ 18.82461917, 48.7471931 ], [ 18.8246455, 48.74742704 ], [ 18.82459555, 48.74756607 ], [ 18.82468209, 48.74767449 ], [ 18.82474559, 48.74789989 ], [ 18.82474446, 48.74799889 ], [ 18.82471312, 48.7481351 ], [ 18.82468972, 48.7482802 ], [ 18.82465748, 48.74859598 ], [ 18.8245835, 48.7487822 ], [ 18.82474825, 48.74897173 ], [ 18.82471577, 48.74916914 ], [ 18.82463499, 48.74933444 ], [ 18.82463498, 48.74952957 ], [ 18.82437374, 48.74978075 ], [ 18.82421942, 48.74993582 ], [ 18.82410696, 48.75007043 ], [ 18.82420426, 48.75014242 ], [ 18.82451631, 48.75026466 ], [ 18.82463633, 48.75037608 ], [ 18.82477587, 48.75061825 ], [ 18.82477365, 48.75081813 ], [ 18.82474688, 48.75090677 ], [ 18.82473156, 48.75095757 ], [ 18.82459862, 48.75106938 ], [ 18.82452418, 48.75122039 ], [ 18.82433895, 48.75152406 ], [ 18.82418858, 48.75165155 ], [ 18.82424104, 48.75235287 ], [ 18.82485627, 48.75260102 ], [ 18.8247449, 48.75295923 ], [ 18.82457389, 48.75337162 ], [ 18.82453293, 48.75344183 ], [ 18.82439731, 48.75355539 ], [ 18.82394354, 48.75369543 ], [ 18.82389286, 48.75390695 ], [ 18.82376491, 48.75413502 ], [ 18.82355204, 48.75438646 ], [ 18.82343089, 48.75450916 ], [ 18.82322609, 48.7547409 ], [ 18.82316678, 48.75486673 ], [ 18.8231844, 48.75496859 ], [ 18.82318692, 48.75512289 ], [ 18.82321488, 48.75525939 ], [ 18.82312535, 48.75543507 ], [ 18.82311494, 48.75548243 ], [ 18.82309635, 48.75559278 ], [ 18.82299421, 48.7557392 ], [ 18.822782, 48.75592419 ], [ 18.82265458, 48.75599063 ], [ 18.82192317, 48.75616583 ], [ 18.82154158, 48.75618061 ], [ 18.82144352, 48.75632129 ], [ 18.8211718, 48.75645482 ], [ 18.82093375, 48.75657956 ], [ 18.82042199, 48.75677078 ], [ 18.82027137, 48.7569117 ], [ 18.8200182, 48.75701092 ], [ 18.81981457, 48.75723487 ], [ 18.81979558, 48.75725572 ], [ 18.81954109, 48.75730643 ], [ 18.81928186, 48.75732703 ], [ 18.81898738, 48.75748437 ], [ 18.81865464, 48.75768337 ], [ 18.81830958, 48.75763762 ], [ 18.81813149, 48.75773759 ], [ 18.81787081, 48.7577749 ], [ 18.81750054, 48.75776428 ], [ 18.81723861, 48.75778808 ], [ 18.81703076, 48.75784572 ], [ 18.81690844, 48.75788067 ], [ 18.81621657, 48.75814621 ], [ 18.81601038, 48.75821973 ], [ 18.81551701, 48.75850138 ], [ 18.81527127, 48.75861019 ], [ 18.81516218, 48.75863373 ], [ 18.81476824, 48.75871867 ], [ 18.8144895, 48.75877117 ], [ 18.81444777, 48.75877901 ], [ 18.8145124, 48.75920989 ], [ 18.81433888, 48.75963783 ], [ 18.81411851, 48.75997791 ], [ 18.81419296, 48.76019135 ], [ 18.81390151, 48.76069623 ], [ 18.81394404, 48.76070918 ], [ 18.81379238, 48.76088829 ], [ 18.81380132, 48.76094613 ], [ 18.81381138, 48.76101052 ], [ 18.81354225, 48.76133606 ], [ 18.81332229, 48.76147002 ], [ 18.81303212, 48.76174078 ], [ 18.81235582, 48.76196435 ], [ 18.81211893, 48.76201822 ], [ 18.81176975, 48.76199759 ], [ 18.81167467, 48.76194238 ], [ 18.81162292, 48.76193806 ], [ 18.81155644, 48.76193261 ], [ 18.81148346, 48.76200792 ], [ 18.81137486, 48.76206045 ], [ 18.81130087, 48.7620962 ], [ 18.81133359, 48.7621514 ], [ 18.8115964, 48.76237908 ], [ 18.81178232, 48.76266581 ], [ 18.81180675, 48.76270352 ], [ 18.81167129, 48.76295501 ], [ 18.81147534, 48.76315752 ], [ 18.81088103, 48.76365915 ], [ 18.81083034, 48.76382899 ], [ 18.81052586, 48.76424812 ], [ 18.8102864, 48.76449626 ], [ 18.81022111, 48.76471983 ], [ 18.80999682, 48.76492194 ], [ 18.80982678, 48.76487852 ], [ 18.80969161, 48.76494211 ], [ 18.80959, 48.7650595 ], [ 18.80943192, 48.76524188 ], [ 18.80935563, 48.76533912 ], [ 18.80917189, 48.76561993 ], [ 18.80915546, 48.76586526 ], [ 18.80926648, 48.76590461 ], [ 18.80917332, 48.76606673 ], [ 18.80929872, 48.7663265 ], [ 18.8094057, 48.76637231 ], [ 18.80952596, 48.76646356 ], [ 18.80957928, 48.76650395 ], [ 18.80937683, 48.76672073 ], [ 18.80936976, 48.76687273 ], [ 18.80938263, 48.76703939 ], [ 18.80939096, 48.76714799 ], [ 18.80931966, 48.76719317 ], [ 18.80924451, 48.76724085 ], [ 18.8092964, 48.76728406 ], [ 18.80951565, 48.76768033 ], [ 18.80968678, 48.76795385 ], [ 18.80980017, 48.76812331 ], [ 18.80979147, 48.76827513 ], [ 18.8097892, 48.76830109 ], [ 18.80978042, 48.76840212 ], [ 18.80980765, 48.76840264 ], [ 18.80981947, 48.76853694 ], [ 18.8100039, 48.76875504 ], [ 18.81014915, 48.76901782 ], [ 18.81014406, 48.76916694 ], [ 18.81011124, 48.76917317 ], [ 18.80955763, 48.76936831 ], [ 18.80928908, 48.76958083 ], [ 18.80867152, 48.77034168 ], [ 18.80863679, 48.77038453 ], [ 18.80843264, 48.770429 ], [ 18.80817567, 48.77063698 ], [ 18.8080302, 48.7707547 ], [ 18.80768531, 48.77103388 ], [ 18.80718674, 48.77130504 ], [ 18.80679378, 48.77155347 ], [ 18.80650452, 48.77167063 ], [ 18.80633859, 48.77180072 ], [ 18.80621579, 48.77199251 ], [ 18.80620185, 48.77201326 ], [ 18.80548948, 48.77257411 ], [ 18.804733, 48.77320475 ], [ 18.80439866, 48.77341238 ], [ 18.80427528, 48.77351637 ], [ 18.80418086, 48.77358361 ], [ 18.8040878, 48.7737286 ], [ 18.80406232, 48.77376823 ], [ 18.80405428, 48.77378071 ], [ 18.80403614, 48.77380917 ], [ 18.80380599, 48.77417515 ], [ 18.8034002, 48.77438555 ], [ 18.80318547, 48.77444868 ], [ 18.80310952, 48.77447097 ], [ 18.80264115, 48.77465104 ], [ 18.80239597, 48.77485593 ], [ 18.80216729, 48.77511012 ], [ 18.80172394, 48.77541427 ], [ 18.80115131, 48.77597564 ], [ 18.80088719, 48.77618368 ], [ 18.80071729, 48.77627134 ], [ 18.8003253, 48.7764608 ], [ 18.79982379, 48.77677743 ], [ 18.79860311, 48.77773553 ], [ 18.79854882, 48.77776608 ], [ 18.79818641, 48.77797052 ], [ 18.79759655, 48.77829172 ], [ 18.79758588, 48.77829766 ], [ 18.79755542, 48.77831493 ], [ 18.79740786, 48.77839833 ], [ 18.7973875, 48.7784099 ], [ 18.79617514, 48.77912647 ], [ 18.79548632, 48.77983095 ], [ 18.79530156, 48.78001986 ], [ 18.79522815, 48.78004814 ], [ 18.79517421, 48.78006887 ], [ 18.79501914, 48.78012247 ], [ 18.79485783, 48.78017809 ], [ 18.79438764, 48.78099801 ], [ 18.79384769, 48.78141274 ], [ 18.79377769, 48.78176624 ], [ 18.79365303, 48.78239518 ], [ 18.79216662, 48.78282234 ], [ 18.79136763, 48.7830218 ], [ 18.79054277, 48.78340305 ], [ 18.79050664, 48.78341974 ], [ 18.78966544, 48.78380969 ], [ 18.78922995, 48.78401155 ], [ 18.78808651, 48.78422672 ], [ 18.78797878, 48.78438076 ], [ 18.78795719, 48.78441175 ], [ 18.78784463, 48.78494011 ], [ 18.78762956, 48.78511948 ], [ 18.78750048, 48.78522721 ], [ 18.78743401, 48.78526469 ], [ 18.78718307, 48.78540619 ], [ 18.78704707, 48.78548279 ], [ 18.78696916, 48.78558607 ], [ 18.78682262, 48.78578031 ], [ 18.78666704, 48.78582431 ], [ 18.78624919, 48.78594246 ], [ 18.78582554, 48.7860623 ], [ 18.7858073, 48.78606748 ], [ 18.78522625, 48.78611998 ], [ 18.78509913, 48.78613155 ], [ 18.78498858, 48.78614147 ], [ 18.78486795, 48.78615239 ], [ 18.78479107, 48.78615937 ], [ 18.78467666, 48.78616971 ], [ 18.78391532, 48.78661242 ], [ 18.78387789, 48.78663419 ], [ 18.78299269, 48.78714881 ], [ 18.78232874, 48.78752489 ], [ 18.78125586, 48.78815489 ], [ 18.78072862, 48.78846775 ], [ 18.78027853, 48.78873486 ], [ 18.78003173, 48.78888134 ], [ 18.77894424, 48.78968963 ], [ 18.77772982, 48.79009775 ], [ 18.7776382, 48.7901285 ], [ 18.77746918, 48.79018532 ], [ 18.77734512, 48.790227 ], [ 18.77708562, 48.79031417 ], [ 18.77680535, 48.79067685 ], [ 18.77670787, 48.7908031 ], [ 18.77650939, 48.79105982 ], [ 18.77641827, 48.79173148 ], [ 18.77640029, 48.79186541 ], [ 18.77636836, 48.79209965 ], [ 18.77649756, 48.79312566 ], [ 18.77648332, 48.79315216 ], [ 18.77625245, 48.79358193 ], [ 18.77622525, 48.79396906 ], [ 18.77620338, 48.79435259 ], [ 18.77617783, 48.79479989 ], [ 18.77616212, 48.79507413 ], [ 18.7762654, 48.79524779 ], [ 18.77671961, 48.79601089 ], [ 18.77685881, 48.79625392 ], [ 18.77629618, 48.79630879 ], [ 18.77647212, 48.79675771 ], [ 18.77692402, 48.7974321 ], [ 18.77724698, 48.79772562 ], [ 18.7772716, 48.79774802 ], [ 18.77740114, 48.79786568 ], [ 18.77743903, 48.79790384 ], [ 18.77771149, 48.79817784 ], [ 18.77778215, 48.79918111 ], [ 18.77806384, 48.79977883 ], [ 18.77812779, 48.79998561 ], [ 18.77832896, 48.80028483 ], [ 18.77861828, 48.80054591 ], [ 18.7786924, 48.80077163 ], [ 18.77909804, 48.80129933 ], [ 18.77908546, 48.80147594 ], [ 18.77910919, 48.80152743 ], [ 18.77909667, 48.80192886 ], [ 18.77943965, 48.80221638 ], [ 18.77978138, 48.80244483 ], [ 18.7799493, 48.80272995 ], [ 18.78004263, 48.803079 ], [ 18.78009796, 48.80322912 ], [ 18.78019592, 48.80340981 ], [ 18.78016502, 48.80355695 ], [ 18.78031454, 48.80380655 ], [ 18.78031031, 48.80388617 ], [ 18.78030641, 48.8039585 ], [ 18.78030242, 48.80403506 ], [ 18.78029909, 48.80409587 ], [ 18.78029651, 48.80414464 ], [ 18.78029415, 48.80418935 ], [ 18.78029321, 48.80420518 ], [ 18.78023157, 48.80419076 ], [ 18.78009636, 48.80420904 ], [ 18.78006875, 48.80420236 ], [ 18.77990109, 48.8041621 ], [ 18.77979856, 48.80416746 ], [ 18.7797844, 48.80416826 ], [ 18.77977058, 48.80416392 ], [ 18.77969663, 48.80414057 ], [ 18.77955477, 48.80412087 ], [ 18.77925698, 48.80417032 ], [ 18.7791703, 48.80414152 ], [ 18.7789673, 48.80419539 ], [ 18.77881229, 48.80428534 ], [ 18.77868772, 48.80433782 ], [ 18.77865514, 48.80440558 ], [ 18.77861878, 48.80444571 ], [ 18.77849266, 48.80453041 ], [ 18.77847146, 48.80458081 ], [ 18.7784669, 48.80459148 ], [ 18.77834572, 48.80469989 ], [ 18.77808172, 48.80485468 ], [ 18.77798438, 48.80487601 ], [ 18.77789896, 48.80489473 ], [ 18.77788633, 48.80489749 ], [ 18.77777112, 48.80493341 ], [ 18.77754805, 48.80494626 ], [ 18.77752522, 48.8049476 ], [ 18.77750027, 48.80493131 ], [ 18.77742415, 48.80488168 ], [ 18.77731776, 48.80484065 ], [ 18.77710986, 48.80470554 ], [ 18.77703177, 48.80460059 ], [ 18.77692396, 48.80454866 ], [ 18.77667261, 48.80448083 ], [ 18.77649709, 48.8044037 ], [ 18.77642318, 48.80442663 ], [ 18.77638579, 48.80447528 ], [ 18.77637442, 48.80447441 ], [ 18.77630443, 48.8044693 ], [ 18.77619261, 48.80446101 ], [ 18.77616865, 48.80445921 ], [ 18.7761361, 48.80444479 ], [ 18.77603873, 48.80440153 ], [ 18.77596038, 48.80443639 ], [ 18.77571194, 48.80451278 ], [ 18.77542619, 48.80460066 ], [ 18.77535245, 48.80462332 ], [ 18.77515475, 48.80469785 ], [ 18.77511897, 48.80473883 ], [ 18.77508683, 48.80477557 ], [ 18.77500577, 48.80483186 ], [ 18.77492636, 48.80488697 ], [ 18.77470174, 48.80498328 ], [ 18.77448645, 48.80504625 ], [ 18.77413976, 48.80525371 ], [ 18.77408703, 48.80532654 ], [ 18.77401693, 48.8053235 ], [ 18.77397056, 48.80538657 ], [ 18.77386496, 48.80539475 ], [ 18.77371486, 48.80547439 ], [ 18.77363905, 48.80549721 ], [ 18.77354206, 48.80549393 ], [ 18.77334705, 48.80555633 ], [ 18.77327973, 48.80554144 ], [ 18.77303101, 48.80552335 ], [ 18.77301855, 48.80552243 ], [ 18.77289452, 48.80562491 ], [ 18.77287476, 48.80565644 ], [ 18.77281304, 48.80575524 ], [ 18.77266944, 48.80578181 ], [ 18.77245493, 48.80581775 ], [ 18.77244636, 48.80581865 ], [ 18.77238079, 48.8058255 ], [ 18.77234623, 48.80582901 ], [ 18.77228385, 48.80583549 ], [ 18.77226684, 48.8058373 ], [ 18.77206158, 48.80582005 ], [ 18.77176154, 48.80587099 ], [ 18.77170715, 48.80591902 ], [ 18.77167828, 48.80594448 ], [ 18.77165261, 48.80596713 ], [ 18.77158213, 48.80598428 ], [ 18.77139401, 48.80597441 ], [ 18.77127177, 48.80602331 ], [ 18.77095232, 48.80602893 ], [ 18.77064951, 48.80617337 ], [ 18.77041735, 48.80618907 ], [ 18.77007919, 48.806322 ], [ 18.77004323, 48.80639499 ], [ 18.76995984, 48.80647407 ], [ 18.76994614, 48.80648697 ], [ 18.76968936, 48.80662796 ], [ 18.76966785, 48.80663756 ], [ 18.76963465, 48.80665242 ], [ 18.7696283, 48.80665525 ], [ 18.7696057, 48.80669673 ], [ 18.76948999, 48.80690944 ], [ 18.76949371, 48.80710693 ], [ 18.76974807, 48.80729177 ], [ 18.76976056, 48.80743109 ], [ 18.76978778, 48.80753076 ], [ 18.76975295, 48.80767968 ], [ 18.76963889, 48.80786838 ], [ 18.7696294, 48.80790415 ], [ 18.76964769, 48.80810313 ], [ 18.76963976, 48.80812825 ], [ 18.76954799, 48.80818604 ], [ 18.76951249, 48.80836777 ], [ 18.76945643, 48.80840922 ], [ 18.76944178, 48.80846862 ], [ 18.76948251, 48.80858425 ], [ 18.76974164, 48.80879432 ], [ 18.76991824, 48.80916038 ], [ 18.77002036, 48.80926533 ], [ 18.77004073, 48.80942771 ], [ 18.77014635, 48.80953194 ], [ 18.7701632, 48.80954861 ], [ 18.77032873, 48.80965445 ], [ 18.770611, 48.80972194 ], [ 18.77073843, 48.80992781 ], [ 18.77102341, 48.8100456 ], [ 18.77118654, 48.81009862 ], [ 18.77130368, 48.81023323 ], [ 18.77159832, 48.81030136 ], [ 18.77186767, 48.81047759 ], [ 18.77208607, 48.81053686 ], [ 18.77234881, 48.81094324 ], [ 18.7727297, 48.8111246 ], [ 18.7729903, 48.81126916 ], [ 18.77318222, 48.81142491 ], [ 18.77337339, 48.81161761 ], [ 18.77376754, 48.81170908 ], [ 18.77395394, 48.81179707 ], [ 18.77433888, 48.8118913 ], [ 18.77492471, 48.81221347 ], [ 18.77612628, 48.81251431 ], [ 18.77676784, 48.81260673 ], [ 18.77772808, 48.81271745 ], [ 18.77795813, 48.81274799 ], [ 18.77905582, 48.81211514 ], [ 18.7794272, 48.81169867 ], [ 18.77992755, 48.81253074 ], [ 18.78019916, 48.81298222 ], [ 18.78044195, 48.81338592 ], [ 18.78122509, 48.81473049 ], [ 18.78175976, 48.81546033 ], [ 18.781858, 48.81559448 ], [ 18.78188701, 48.81563163 ], [ 18.78191033, 48.81566163 ], [ 18.78242866, 48.8163262 ], [ 18.78263772, 48.81651025 ], [ 18.78270519, 48.81656962 ], [ 18.78328376, 48.81725953 ], [ 18.78399986, 48.81801364 ], [ 18.78404317, 48.81805921 ], [ 18.78405425, 48.81807504 ], [ 18.78409219, 48.81812889 ], [ 18.78442718, 48.81860488 ], [ 18.78445514, 48.81872028 ], [ 18.78446685, 48.81876852 ], [ 18.78453892, 48.81906522 ], [ 18.78484733, 48.81941892 ], [ 18.78532215, 48.81982265 ], [ 18.785765, 48.8202265 ], [ 18.78601695, 48.82054532 ], [ 18.78606792, 48.82060445 ], [ 18.78609814, 48.82063959 ], [ 18.78617502, 48.82072877 ], [ 18.78658835, 48.8211807 ], [ 18.78725825, 48.82191757 ], [ 18.78772635, 48.82239491 ], [ 18.78779934, 48.82242425 ], [ 18.78825623, 48.82260754 ], [ 18.7887461, 48.82268095 ], [ 18.78935064, 48.82285778 ], [ 18.78977232, 48.82297021 ], [ 18.78992778, 48.82284373 ], [ 18.79027835, 48.82266358 ], [ 18.79050615, 48.82244994 ], [ 18.7906216, 48.82231073 ], [ 18.79084836, 48.82215929 ], [ 18.79125195, 48.82197216 ], [ 18.79160529, 48.8217825 ], [ 18.79186277, 48.82170303 ], [ 18.79216383, 48.82165894 ], [ 18.79254745, 48.82157685 ], [ 18.79300876, 48.82157388 ], [ 18.79319515, 48.82164315 ], [ 18.79351288, 48.82166515 ], [ 18.79436503, 48.821651 ], [ 18.7943253, 48.82161194 ], [ 18.79442377, 48.82156548 ], [ 18.79445161, 48.82149495 ], [ 18.79461537, 48.82138008 ], [ 18.79493692, 48.82122754 ], [ 18.79511339, 48.82113887 ], [ 18.79522925, 48.82104524 ], [ 18.79537355, 48.82098105 ], [ 18.79545248, 48.82092653 ], [ 18.79555782, 48.82085336 ], [ 18.79568057, 48.82080718 ], [ 18.79584985, 48.82072264 ], [ 18.79597577, 48.82068411 ], [ 18.79614656, 48.82070908 ], [ 18.79617544, 48.82066296 ], [ 18.79652728, 48.82045019 ], [ 18.79689008, 48.8203182 ], [ 18.79717212, 48.82027654 ], [ 18.79729777, 48.82029049 ], [ 18.7975098, 48.82015686 ], [ 18.79799835, 48.81995465 ], [ 18.79817923, 48.82005051 ], [ 18.79830991, 48.82009215 ], [ 18.79846134, 48.82007678 ], [ 18.79869076, 48.82004328 ], [ 18.79878871, 48.82002385 ], [ 18.7989073, 48.81998042 ], [ 18.79912792, 48.81994962 ], [ 18.7991978, 48.81985881 ], [ 18.79943935, 48.81973537 ], [ 18.79957304, 48.81979287 ], [ 18.79971664, 48.81982697 ], [ 18.7997738, 48.81982878 ], [ 18.799996, 48.81987853 ], [ 18.80011208, 48.81986744 ], [ 18.80023444, 48.81991803 ], [ 18.80034961, 48.8199317 ], [ 18.80043805, 48.81992324 ], [ 18.80050353, 48.81989778 ], [ 18.80054058, 48.81990558 ], [ 18.80056962, 48.81993686 ], [ 18.80087422, 48.81988013 ], [ 18.80092767, 48.81989013 ], [ 18.80107503, 48.8198288 ], [ 18.80121762, 48.81984165 ], [ 18.80128471, 48.819829 ], [ 18.80137089, 48.81986453 ], [ 18.80147065, 48.81985629 ], [ 18.80155732, 48.81986839 ], [ 18.80164042, 48.81984746 ], [ 18.80169712, 48.81987026 ], [ 18.80175923, 48.81983065 ], [ 18.80195334, 48.81990392 ], [ 18.80200544, 48.81995039 ], [ 18.80208334, 48.82000497 ], [ 18.80215122, 48.82000851 ], [ 18.80221526, 48.82007274 ], [ 18.8022763, 48.8202135 ], [ 18.80233221, 48.8202543 ], [ 18.80234963, 48.82031998 ], [ 18.80254069, 48.82037884 ], [ 18.80264887, 48.82043951 ], [ 18.80264866, 48.82054414 ], [ 18.80275861, 48.82055005 ], [ 18.80290256, 48.82054583 ], [ 18.80291047, 48.82062816 ], [ 18.80296705, 48.82065546 ], [ 18.80296785, 48.82075383 ], [ 18.80302021, 48.82075584 ], [ 18.80304969, 48.82073212 ], [ 18.80315568, 48.82074829 ], [ 18.80318015, 48.82077212 ], [ 18.80327674, 48.82078121 ], [ 18.80332333, 48.82075721 ], [ 18.80337374, 48.82076408 ], [ 18.80339674, 48.82078882 ], [ 18.80345275, 48.82080257 ], [ 18.80346142, 48.82077343 ], [ 18.80352966, 48.82076255 ], [ 18.80357086, 48.82080421 ], [ 18.80372412, 48.82078378 ], [ 18.80382196, 48.82079727 ], [ 18.80386034, 48.82088651 ], [ 18.80393873, 48.82092677 ], [ 18.80393431, 48.82097742 ], [ 18.80396651, 48.82100751 ], [ 18.80402131, 48.82096391 ], [ 18.80409052, 48.82096211 ], [ 18.80411889, 48.82097621 ], [ 18.80413113, 48.82102466 ], [ 18.80418569, 48.82106882 ], [ 18.80420314, 48.82119711 ], [ 18.80412319, 48.8212431 ], [ 18.80411622, 48.82128767 ], [ 18.80411934, 48.82136099 ], [ 18.80407877, 48.82138729 ], [ 18.80410168, 48.82140021 ], [ 18.80415945, 48.82137977 ], [ 18.80423998, 48.82141464 ], [ 18.80426543, 48.82149896 ], [ 18.8042981, 48.82150562 ], [ 18.80430505, 48.82157319 ], [ 18.80437335, 48.82163043 ], [ 18.80437165, 48.82169033 ], [ 18.80434775, 48.82174177 ], [ 18.80442758, 48.82181684 ], [ 18.80449986, 48.82183504 ], [ 18.80455662, 48.82191107 ], [ 18.80452328, 48.82195335 ], [ 18.80454294, 48.82203349 ], [ 18.80451339, 48.82207616 ], [ 18.80455607, 48.82209399 ], [ 18.80466901, 48.82210005 ], [ 18.8047335, 48.82212055 ], [ 18.80474415, 48.82215719 ], [ 18.80485645, 48.82229205 ], [ 18.80480951, 48.82232478 ], [ 18.80496052, 48.82233581 ], [ 18.80501978, 48.82237724 ], [ 18.8050773, 48.82238745 ], [ 18.80516152, 48.82244868 ], [ 18.80515282, 48.82251002 ], [ 18.80521196, 48.82254106 ], [ 18.80520547, 48.82257474 ], [ 18.80511311, 48.82260222 ], [ 18.80516153, 48.82265436 ], [ 18.80529246, 48.82267336 ], [ 18.80537357, 48.82262914 ], [ 18.8054392, 48.82269499 ], [ 18.8054951, 48.82269826 ], [ 18.80551808, 48.82274601 ], [ 18.805654, 48.8228433 ], [ 18.80571305, 48.82288084 ], [ 18.80576997, 48.82287893 ], [ 18.80585009, 48.8228887 ], [ 18.80591264, 48.82285001 ], [ 18.80597772, 48.82287821 ], [ 18.80601554, 48.82292754 ], [ 18.80607691, 48.82296277 ], [ 18.80607638, 48.82300153 ], [ 18.80603918, 48.82302124 ], [ 18.80602661, 48.82305216 ], [ 18.80604635, 48.82308133 ], [ 18.80610911, 48.82311059 ], [ 18.80618211, 48.82318566 ], [ 18.80610183, 48.82325725 ], [ 18.80613514, 48.82328154 ], [ 18.80612696, 48.82334426 ], [ 18.80628573, 48.82336471 ], [ 18.80629107, 48.82341145 ], [ 18.80632048, 48.82342832 ], [ 18.806317, 48.823446 ], [ 18.80634566, 48.8234668 ], [ 18.80645043, 48.82346125 ], [ 18.80644886, 48.82349725 ], [ 18.80651706, 48.8235211 ], [ 18.80665022, 48.82353977 ], [ 18.80680086, 48.82352416 ], [ 18.80685351, 48.82355802 ], [ 18.80681701, 48.82358337 ], [ 18.80686165, 48.82362827 ], [ 18.80683406, 48.82366256 ], [ 18.80685401, 48.82372422 ], [ 18.80690086, 48.82380208 ], [ 18.80683334, 48.82383437 ], [ 18.80688741, 48.82387463 ], [ 18.80688273, 48.82399617 ], [ 18.8068244, 48.8240247 ], [ 18.80677995, 48.82404223 ], [ 18.80676199, 48.82406674 ], [ 18.806784, 48.82407691 ], [ 18.80681226, 48.82410346 ], [ 18.80677006, 48.82413644 ], [ 18.80670559, 48.82415004 ], [ 18.80670964, 48.82416757 ], [ 18.80674053, 48.8241755 ], [ 18.80679134, 48.82414702 ], [ 18.80688785, 48.82420834 ], [ 18.8069288, 48.82431151 ], [ 18.8069221, 48.82435275 ], [ 18.80700332, 48.82439108 ], [ 18.8070275, 48.82438079 ], [ 18.80698628, 48.8243164 ], [ 18.80706891, 48.82428805 ], [ 18.80713728, 48.82435043 ], [ 18.80725742, 48.82435578 ], [ 18.80725334, 48.82447113 ], [ 18.80732678, 48.82448768 ], [ 18.80734999, 48.82454265 ], [ 18.80741979, 48.82454737 ], [ 18.80745645, 48.82456876 ], [ 18.80761754, 48.82455605 ], [ 18.80767655, 48.82458817 ], [ 18.807817, 48.82457906 ], [ 18.80784254, 48.82463975 ], [ 18.80783022, 48.82466166 ], [ 18.80787475, 48.82471315 ], [ 18.80786102, 48.82476864 ], [ 18.80796747, 48.8248062 ], [ 18.80795388, 48.82483996 ], [ 18.80791625, 48.82486326 ], [ 18.80808883, 48.82493404 ], [ 18.80795589, 48.82498891 ], [ 18.80795643, 48.82502448 ], [ 18.80793467, 48.8250579 ], [ 18.80803946, 48.82509565 ], [ 18.80806734, 48.82506815 ], [ 18.80807358, 48.82503311 ], [ 18.80818249, 48.82503292 ], [ 18.80822962, 48.82506839 ], [ 18.8082175, 48.82514931 ], [ 18.80824335, 48.8251982 ], [ 18.808356, 48.82523654 ], [ 18.80840303, 48.825226 ], [ 18.8084935, 48.82523495 ], [ 18.80851064, 48.82526182 ], [ 18.80857801, 48.82524801 ], [ 18.80865959, 48.82528221 ], [ 18.80877236, 48.82526914 ], [ 18.80881744, 48.82532417 ], [ 18.80878587, 48.82538711 ], [ 18.80882489, 48.82542307 ], [ 18.80887543, 48.82541974 ], [ 18.80888994, 48.82536457 ], [ 18.80898739, 48.82536883 ], [ 18.80905921, 48.82540586 ], [ 18.80906283, 48.82544412 ], [ 18.80908984, 48.8254697 ], [ 18.8090245, 48.82551339 ], [ 18.80896355, 48.82550327 ], [ 18.80891622, 48.82550486 ], [ 18.80892319, 48.82553229 ], [ 18.80889457, 48.82560261 ], [ 18.80897579, 48.82559412 ], [ 18.80915947, 48.82566457 ], [ 18.80916061, 48.82568935 ], [ 18.80911265, 48.82570769 ], [ 18.80913931, 48.82574183 ], [ 18.80923348, 48.82575413 ], [ 18.80925103, 48.82580736 ], [ 18.8093481, 48.82588008 ], [ 18.8093961, 48.82593688 ], [ 18.80943459, 48.82597497 ], [ 18.80948924, 48.82597493 ], [ 18.809502, 48.82600536 ], [ 18.80953466, 48.82601789 ], [ 18.80957336, 48.82600502 ], [ 18.80961117, 48.82596305 ], [ 18.80970344, 48.82597526 ], [ 18.80973566, 48.82605091 ], [ 18.8096262, 48.82608084 ], [ 18.80961527, 48.82611176 ], [ 18.80963495, 48.8261449 ], [ 18.8097581, 48.82618333 ], [ 18.80986133, 48.8261427 ], [ 18.80994421, 48.8261637 ], [ 18.80993827, 48.82621346 ], [ 18.80995777, 48.82626184 ], [ 18.80994562, 48.82628917 ], [ 18.80983639, 48.82629431 ], [ 18.80992908, 48.82636481 ], [ 18.80999584, 48.82638921 ], [ 18.81002273, 48.82648443 ], [ 18.80991014, 48.82652909 ], [ 18.8099572, 48.82654687 ], [ 18.80997036, 48.82660259 ], [ 18.81003919, 48.82667834 ], [ 18.81003326, 48.82670509 ], [ 18.81017903, 48.82678305 ], [ 18.81018804, 48.82682772 ], [ 18.81022211, 48.82687189 ], [ 18.81029059, 48.82689576 ], [ 18.81030261, 48.82693238 ], [ 18.81037913, 48.82698381 ], [ 18.81038356, 48.82701877 ], [ 18.81040936, 48.82703951 ], [ 18.8105417, 48.82707545 ], [ 18.81066223, 48.82708443 ], [ 18.81068504, 48.82711656 ], [ 18.81064585, 48.82715872 ], [ 18.81066474, 48.82719498 ], [ 18.81082032, 48.82720795 ], [ 18.81081842, 48.82723987 ], [ 18.81089479, 48.82724791 ], [ 18.81092019, 48.82730065 ], [ 18.81099702, 48.82731863 ], [ 18.81103462, 48.82736993 ], [ 18.81113772, 48.82734174 ], [ 18.81132792, 48.82744925 ], [ 18.81134833, 48.82750606 ], [ 18.81133781, 48.82754837 ], [ 18.81136073, 48.82761388 ], [ 18.81143946, 48.82761816 ], [ 18.81147651, 48.82764544 ], [ 18.81159963, 48.82765446 ], [ 18.81173133, 48.82763173 ], [ 18.81184484, 48.82771323 ], [ 18.81183477, 48.82776322 ], [ 18.81186765, 48.82780824 ], [ 18.81195575, 48.82779135 ], [ 18.81205286, 48.82781336 ], [ 18.81221407, 48.8278822 ], [ 18.81235569, 48.82793196 ], [ 18.81235316, 48.82797604 ], [ 18.81243881, 48.82806547 ], [ 18.81253249, 48.82808189 ], [ 18.81265878, 48.82809298 ], [ 18.81268871, 48.82812954 ], [ 18.81276411, 48.82814807 ], [ 18.81278923, 48.82812304 ], [ 18.81284883, 48.82814797 ], [ 18.8129175, 48.82815876 ], [ 18.81291933, 48.82819494 ], [ 18.81292783, 48.82825312 ], [ 18.81298476, 48.82827638 ], [ 18.81303615, 48.82830025 ], [ 18.81306684, 48.82831556 ], [ 18.81323897, 48.82836385 ], [ 18.81331082, 48.82840069 ], [ 18.81335655, 48.82836672 ], [ 18.81341792, 48.82837108 ], [ 18.81343921, 48.82840106 ], [ 18.81356357, 48.82843522 ], [ 18.81362529, 48.8284332 ], [ 18.81363229, 48.82846613 ], [ 18.81365901, 48.82847357 ], [ 18.81369813, 48.82845828 ], [ 18.81376687, 48.82848333 ], [ 18.81385912, 48.82846828 ], [ 18.8139253, 48.82849536 ], [ 18.81404244, 48.8285213 ], [ 18.81410312, 48.82854521 ], [ 18.8141303, 48.82857278 ], [ 18.81413167, 48.82860939 ], [ 18.81422602, 48.82864885 ], [ 18.81426523, 48.8286443 ], [ 18.81429869, 48.82867536 ], [ 18.81431876, 48.82872467 ], [ 18.81429319, 48.82875581 ], [ 18.81433142, 48.82881328 ], [ 18.81442015, 48.82883684 ], [ 18.81444489, 48.82878987 ], [ 18.81455387, 48.82879256 ], [ 18.81465605, 48.82876071 ], [ 18.81473376, 48.8287965 ], [ 18.8148244, 48.82881547 ], [ 18.81487312, 48.82884236 ], [ 18.81494652, 48.82885701 ], [ 18.81502151, 48.82884918 ], [ 18.81514312, 48.82882393 ], [ 18.81521989, 48.82882179 ], [ 18.81529076, 48.82877748 ], [ 18.81549086, 48.82882957 ], [ 18.81557269, 48.82880793 ], [ 18.81577431, 48.82881526 ], [ 18.81586801, 48.82885216 ], [ 18.81593714, 48.82884538 ], [ 18.81607438, 48.82887462 ], [ 18.8160906, 48.82892192 ], [ 18.81605868, 48.82896041 ], [ 18.81620446, 48.82900976 ], [ 18.81618303, 48.82908054 ], [ 18.81623224, 48.82908608 ], [ 18.8163749, 48.82908718 ], [ 18.81641194, 48.82905726 ], [ 18.81649205, 48.82908443 ], [ 18.81649897, 48.82912719 ], [ 18.81656496, 48.82916039 ], [ 18.81672396, 48.8291333 ], [ 18.81672787, 48.82908334 ], [ 18.81678123, 48.82904038 ], [ 18.81687787, 48.82908014 ], [ 18.81700098, 48.82905605 ], [ 18.81714454, 48.82909536 ], [ 18.81711668, 48.82914217 ], [ 18.81717218, 48.82916716 ], [ 18.81725681, 48.82919655 ], [ 18.81723747, 48.82922693 ], [ 18.81726388, 48.82925176 ], [ 18.81735829, 48.82929077 ], [ 18.81740854, 48.82928184 ], [ 18.81747375, 48.82929876 ], [ 18.81759865, 48.82940403 ], [ 18.81758649, 48.82949677 ], [ 18.81754823, 48.82950831 ], [ 18.81760551, 48.82957218 ], [ 18.81773128, 48.8296369 ], [ 18.81779961, 48.82984072 ], [ 18.81782697, 48.82981869 ], [ 18.81787544, 48.82982933 ], [ 18.81790667, 48.83006009 ], [ 18.81804978, 48.83011462 ], [ 18.8181575, 48.83009929 ], [ 18.81828544, 48.83016079 ], [ 18.81836276, 48.83023427 ], [ 18.81838974, 48.83031163 ], [ 18.81848325, 48.83036159 ], [ 18.81859574, 48.83037736 ], [ 18.81864075, 48.83041236 ], [ 18.81875255, 48.8303377 ] ] ] ] } }
]
}
