{
"type": "FeatureCollection",
"name": "gis",
"crs": { "type": "name", "properties": { "name": "urn:ogc:def:crs:OGC:1.3:CRS84" } },
"features": [
{ "type": "Feature", "properties": { "place_id": 188965167, "osm_type": "relation", "osm_id": 2274721, "place_rank": 16, "category": "boundary", "type": "administrative", "importance": 0.50450364780934998, "addresstype": "municipality", "name": "Jesenské", "display_name": "Jesenské, okres Rimavská Sobota, Banskobystrický kraj, 980 02, Slovensko" }, "geometry": { "type": "Polygon", "coordinates": [ [ [ 20.0271546, 48.2665387 ], [ 20.0272233, 48.266429 ], [ 20.0273021, 48.2664064 ], [ 20.0274814, 48.2660827 ], [ 20.0273912, 48.2660386 ], [ 20.0275267, 48.2657818 ], [ 20.0276316, 48.2653129 ], [ 20.0278178, 48.2651 ], [ 20.0277351, 48.2650469 ], [ 20.027748, 48.2646847 ], [ 20.0278546, 48.2645022 ], [ 20.0277948, 48.264093 ], [ 20.0278223, 48.263665 ], [ 20.0283979, 48.2629243 ], [ 20.0284074, 48.2628346 ], [ 20.0289382, 48.2626293 ], [ 20.0312172, 48.2619319 ], [ 20.0324083, 48.2608811 ], [ 20.0339404, 48.2602865 ], [ 20.0345269, 48.2598423 ], [ 20.0349102, 48.2599655 ], [ 20.0358969, 48.2604685 ], [ 20.0365135, 48.2606678 ], [ 20.0372222, 48.2610152 ], [ 20.0380872, 48.261083 ], [ 20.0391979, 48.2613401 ], [ 20.0404143, 48.2614868 ], [ 20.0410976, 48.2616301 ], [ 20.0433186, 48.2615416 ], [ 20.0442625, 48.2616047 ], [ 20.0458046, 48.2618495 ], [ 20.046022, 48.2618009 ], [ 20.047069, 48.2615947 ], [ 20.048418, 48.261677 ], [ 20.0490709, 48.2615836 ], [ 20.049442, 48.2616105 ], [ 20.0498447, 48.2614099 ], [ 20.0501526, 48.2613687 ], [ 20.0514763, 48.2614159 ], [ 20.0526873, 48.2616175 ], [ 20.0530207, 48.2620098 ], [ 20.0531075, 48.262321 ], [ 20.0529562, 48.2631448 ], [ 20.0531718, 48.2636214 ], [ 20.0543304, 48.2650721 ], [ 20.0557064, 48.2663155 ], [ 20.0566337, 48.2668114 ], [ 20.0578987, 48.266943 ], [ 20.0580865, 48.2670263 ], [ 20.0585409, 48.267426 ], [ 20.05925, 48.267904 ], [ 20.0599795, 48.2680085 ], [ 20.0599597, 48.2680461 ], [ 20.0606249, 48.268423 ], [ 20.060722, 48.2685228 ], [ 20.0607015, 48.2687764 ], [ 20.0604678, 48.2691812 ], [ 20.0605132, 48.2697925 ], [ 20.0605646, 48.2698938 ], [ 20.0610347, 48.270292 ], [ 20.0610581, 48.2703897 ], [ 20.0610519, 48.270483 ], [ 20.0607812, 48.2709133 ], [ 20.0605109, 48.2712479 ], [ 20.0601045, 48.271624 ], [ 20.0602179, 48.2717266 ], [ 20.0600372, 48.2718409 ], [ 20.0600165, 48.2719302 ], [ 20.0603885, 48.2724289 ], [ 20.0604823, 48.272738 ], [ 20.0609847, 48.2735001 ], [ 20.0614795, 48.2746223 ], [ 20.0614106, 48.2748075 ], [ 20.0610425, 48.2750233 ], [ 20.0601844, 48.2753737 ], [ 20.0598971, 48.2756896 ], [ 20.060068, 48.275958 ], [ 20.0601928, 48.276344 ], [ 20.0601875, 48.2770479 ], [ 20.0601008, 48.2775444 ], [ 20.0598618, 48.2779218 ], [ 20.0598255, 48.2784542 ], [ 20.0599258, 48.2785498 ], [ 20.0604646, 48.2798192 ], [ 20.0604416, 48.2799521 ], [ 20.0608113, 48.2803291 ], [ 20.0609982, 48.2807549 ], [ 20.0616784, 48.2817677 ], [ 20.0622321, 48.2823178 ], [ 20.0627738, 48.2825566 ], [ 20.0630972, 48.2829982 ], [ 20.0633388, 48.2839137 ], [ 20.0638952, 48.2850645 ], [ 20.0639827, 48.2856348 ], [ 20.0643016, 48.2862382 ], [ 20.0648387, 48.2867923 ], [ 20.0658564, 48.2886774 ], [ 20.0667667, 48.2893955 ], [ 20.0670907, 48.2895995 ], [ 20.0679713, 48.2899875 ], [ 20.0682548, 48.2901941 ], [ 20.0679346, 48.2905707 ], [ 20.0672324, 48.2921633 ], [ 20.0667149, 48.2923222 ], [ 20.0671341, 48.2939661 ], [ 20.0667267, 48.2939313 ], [ 20.0670084, 48.2949386 ], [ 20.0672046, 48.2952847 ], [ 20.0676173, 48.2954754 ], [ 20.068519, 48.2957404 ], [ 20.06955, 48.2959352 ], [ 20.0711303, 48.2960662 ], [ 20.0716416, 48.2961866 ], [ 20.0724992, 48.2965916 ], [ 20.0722041, 48.2968687 ], [ 20.0723388, 48.2969003 ], [ 20.0785497, 48.2972514 ], [ 20.0812467, 48.2974985 ], [ 20.0815426, 48.2972844 ], [ 20.0817535, 48.2972221 ], [ 20.0819711, 48.2972941 ], [ 20.0823293, 48.2973227 ], [ 20.0826391, 48.2974299 ], [ 20.0827981, 48.2977509 ], [ 20.0827659, 48.2979983 ], [ 20.0828923, 48.2981039 ], [ 20.0831243, 48.2981078 ], [ 20.0833726, 48.2990474 ], [ 20.0841567, 48.3012561 ], [ 20.0858816, 48.3057273 ], [ 20.0863962, 48.305859 ], [ 20.0865499, 48.3059825 ], [ 20.0869307, 48.3065029 ], [ 20.0869483, 48.3067132 ], [ 20.0926497, 48.3087353 ], [ 20.0942297, 48.3093593 ], [ 20.095164, 48.3096233 ], [ 20.1075155, 48.3140572 ], [ 20.1132729, 48.3160761 ], [ 20.1133996, 48.3160566 ], [ 20.1134679, 48.3163051 ], [ 20.1141531, 48.3172682 ], [ 20.1140527, 48.3172787 ], [ 20.1065674, 48.3181046 ], [ 20.1072897, 48.3186097 ], [ 20.1097757, 48.3205369 ], [ 20.0980108, 48.3222516 ], [ 20.0994533, 48.318219 ], [ 20.099712, 48.3181766 ], [ 20.0988002, 48.3170036 ], [ 20.0989181, 48.3162966 ], [ 20.0976397, 48.3149407 ], [ 20.0969609, 48.3140578 ], [ 20.0949573, 48.3134208 ], [ 20.09428, 48.3133185 ], [ 20.0939716, 48.3133891 ], [ 20.0938842, 48.3135792 ], [ 20.0871037, 48.31257 ], [ 20.0870778, 48.3120069 ], [ 20.0864475, 48.3118411 ], [ 20.0861636, 48.3118688 ], [ 20.0862259, 48.3121192 ], [ 20.086569, 48.3124443 ], [ 20.0866015, 48.3126462 ], [ 20.0864691, 48.3129065 ], [ 20.0861218, 48.3129767 ], [ 20.0857333, 48.3128197 ], [ 20.0853219, 48.3128038 ], [ 20.0850648, 48.3128664 ], [ 20.0836455, 48.3135162 ], [ 20.0833298, 48.313814 ], [ 20.0830633, 48.3146161 ], [ 20.0831107, 48.3149966 ], [ 20.0830516, 48.31518 ], [ 20.0831808, 48.3153689 ], [ 20.0841194, 48.3156918 ], [ 20.084293, 48.3158904 ], [ 20.0843417, 48.3161662 ], [ 20.0844991, 48.3163764 ], [ 20.0843894, 48.3164068 ], [ 20.0780846, 48.3155218 ], [ 20.0776553, 48.3156177 ], [ 20.0774469, 48.3157611 ], [ 20.0771368, 48.3157742 ], [ 20.0770214, 48.3159337 ], [ 20.0771523, 48.3161162 ], [ 20.0771188, 48.3162172 ], [ 20.0768888, 48.3170378 ], [ 20.0745828, 48.3163136 ], [ 20.0705632, 48.3150712 ], [ 20.0655245, 48.3224011 ], [ 20.0645847, 48.3243308 ], [ 20.0555759, 48.3176493 ], [ 20.0495048, 48.3144011 ], [ 20.0480782, 48.3138245 ], [ 20.0458255, 48.3130998 ], [ 20.0463231, 48.311646 ], [ 20.0440999, 48.3119587 ], [ 20.0433864, 48.3121971 ], [ 20.0426435, 48.3123383 ], [ 20.0416589, 48.3123402 ], [ 20.0404625, 48.3124377 ], [ 20.0398703, 48.312628 ], [ 20.0394512, 48.3128888 ], [ 20.0391437, 48.3129751 ], [ 20.0374513, 48.3132152 ], [ 20.0360952, 48.3132756 ], [ 20.035218, 48.3134259 ], [ 20.0347496, 48.3135562 ], [ 20.0339125, 48.3114687 ], [ 20.0328826, 48.3100075 ], [ 20.0325421, 48.3094177 ], [ 20.032605, 48.3091397 ], [ 20.0324729, 48.3067598 ], [ 20.0326261, 48.3056273 ], [ 20.0325715, 48.3020991 ], [ 20.0338347, 48.2997684 ], [ 20.0356375, 48.2989823 ], [ 20.0360842, 48.2974138 ], [ 20.0361574, 48.2959975 ], [ 20.0361627, 48.2958434 ], [ 20.0368573, 48.2959435 ], [ 20.0369034, 48.2959081 ], [ 20.0371708, 48.2958933 ], [ 20.0372147, 48.2959235 ], [ 20.0378391, 48.2959191 ], [ 20.038411, 48.2959735 ], [ 20.0384709, 48.2961495 ], [ 20.0388527, 48.2961777 ], [ 20.0386632, 48.2955594 ], [ 20.0386979, 48.2948511 ], [ 20.0393283, 48.2935763 ], [ 20.0395673, 48.2933859 ], [ 20.0399273, 48.2931609 ], [ 20.0409845, 48.2925777 ], [ 20.0411708, 48.2924054 ], [ 20.0415504, 48.2918016 ], [ 20.0418275, 48.291491 ], [ 20.0422319, 48.2912298 ], [ 20.0425803, 48.2908646 ], [ 20.0426026, 48.2907631 ], [ 20.0425577, 48.2888655 ], [ 20.0425003, 48.288675 ], [ 20.0422166, 48.2882902 ], [ 20.0408146, 48.2868845 ], [ 20.040209, 48.2857089 ], [ 20.0403281, 48.2854651 ], [ 20.0417278, 48.2840153 ], [ 20.0415168, 48.2819147 ], [ 20.0416154, 48.279454 ], [ 20.0405826, 48.2780727 ], [ 20.0391634, 48.2770751 ], [ 20.0367834, 48.2767378 ], [ 20.0359896, 48.2767856 ], [ 20.0353775, 48.2764323 ], [ 20.0346921, 48.2756117 ], [ 20.0329997, 48.2752321 ], [ 20.0324623, 48.2750734 ], [ 20.0317143, 48.2747132 ], [ 20.0306684, 48.273945 ], [ 20.0300871, 48.2733664 ], [ 20.0292156, 48.2729772 ], [ 20.0289878, 48.2727831 ], [ 20.0287703, 48.2723965 ], [ 20.0282566, 48.2704106 ], [ 20.0277954, 48.2699687 ], [ 20.027249, 48.2677673 ], [ 20.0272773, 48.2668921 ], [ 20.0272478, 48.2665776 ], [ 20.0271546, 48.2665387 ] ] ] } }
]
}
