{
"type": "FeatureCollection",
"name": "gis",
"crs": { "type": "name", "properties": { "name": "urn:ogc:def:crs:OGC:1.3:CRS84" } },
"features": [
{ "type": "Feature", "properties": { "@featureType": "CadastralParcel", "areaValue": { "value": 5136, "@uom": "m2" }, "beginLifespanVersion": { "@nilReason": "http://inspire.ec.europa.eu/codelist/VoidReasonValue/Unpopulated", "@nil": "true" }, "endLifespanVersion": { "@nilReason": "http://inspire.ec.europa.eu/codelist/VoidReasonValue/Unpopulated", "@nil": "true" }, "inspireId": { "@dataType": "Identifier", "localId": "836346_202.E", "namespace": "SK.ESKN.CP", "versionId": "20260703T07:07:41" }, "label": "202", "nationalCadastralReference": "836346_202.E", "referencePoint": { "type": "Point", "coordinates": [ 20.17046643, 48.2948408 ] }, "validFrom": "2026-06-30T16:00:00Z", "validTo": { "@nilReason": "http://inspire.ec.europa.eu/codelist/VoidReasonValue/Unpopulated", "@nil": "true" }, "administrativeUnit": { "@href": "#auAdmUnitS.1270" } }, "geometry": { "type": "Polygon", "coordinates": [ [ [ 20.16907973, 48.29479004 ], [ 20.17126991, 48.29508391 ], [ 20.17145013, 48.29487003 ], [ 20.17149949, 48.29481157 ], [ 20.16944694, 48.29456178 ], [ 20.16907973, 48.29479004 ] ] ] } },
{ "type": "Feature", "properties": { "@featureType": "CadastralParcel", "areaValue": { "value": 3791, "@uom": "m2" }, "beginLifespanVersion": { "@nilReason": "http://inspire.ec.europa.eu/codelist/VoidReasonValue/Unpopulated", "@nil": "true" }, "endLifespanVersion": { "@nilReason": "http://inspire.ec.europa.eu/codelist/VoidReasonValue/Unpopulated", "@nil": "true" }, "inspireId": { "@dataType": "Identifier", "localId": "836346_204.E", "namespace": "SK.ESKN.CP", "versionId": "20260703T07:07:41" }, "label": "204", "nationalCadastralReference": "836346_204.E", "referencePoint": { "type": "Point", "coordinates": [ 20.16992929, 48.2951201 ] }, "validFrom": "2026-06-30T16:00:00Z", "validTo": { "@nilReason": "http://inspire.ec.europa.eu/codelist/VoidReasonValue/Unpopulated", "@nil": "true" }, "administrativeUnit": { "@href": "#auAdmUnitS.1270" } }, "geometry": { "type": "Polygon", "coordinates": [ [ [ 20.17102406, 48.29537334 ], [ 20.17113613, 48.29524175 ], [ 20.1711802, 48.29519092 ], [ 20.16893061, 48.2948866 ], [ 20.1687055, 48.29504928 ], [ 20.17006862, 48.29524375 ], [ 20.17102406, 48.29537334 ] ] ] } },
{ "type": "Feature", "properties": { "@featureType": "CadastralParcel", "areaValue": { "value": 17649, "@uom": "m2" }, "beginLifespanVersion": { "@nilReason": "http://inspire.ec.europa.eu/codelist/VoidReasonValue/Unpopulated", "@nil": "true" }, "endLifespanVersion": { "@nilReason": "http://inspire.ec.europa.eu/codelist/VoidReasonValue/Unpopulated", "@nil": "true" }, "inspireId": { "@dataType": "Identifier", "localId": "836346_207.E", "namespace": "SK.ESKN.CP", "versionId": "20260703T07:07:41" }, "label": "207", "nationalCadastralReference": "836346_207.E", "referencePoint": { "type": "Point", "coordinates": [ 20.16924469, 48.29579193 ] }, "validFrom": "2026-06-30T16:00:00Z", "validTo": { "@nilReason": "http://inspire.ec.europa.eu/codelist/VoidReasonValue/Unpopulated", "@nil": "true" }, "administrativeUnit": { "@href": "#auAdmUnitS.1270" } }, "geometry": { "type": "Polygon", "coordinates": [ [ [ 20.16782282, 48.29570359 ], [ 20.16763639, 48.29588027 ], [ 20.17038025, 48.29640078 ], [ 20.17088335, 48.2955937 ], [ 20.16841643, 48.29526315 ], [ 20.16782282, 48.29570359 ] ] ] } },
{ "type": "Feature", "properties": { "@featureType": "CadastralParcel", "areaValue": { "value": 35172, "@uom": "m2" }, "beginLifespanVersion": { "@nilReason": "http://inspire.ec.europa.eu/codelist/VoidReasonValue/Unpopulated", "@nil": "true" }, "endLifespanVersion": { "@nilReason": "http://inspire.ec.europa.eu/codelist/VoidReasonValue/Unpopulated", "@nil": "true" }, "inspireId": { "@dataType": "Identifier", "localId": "836346_208.E", "namespace": "SK.ESKN.CP", "versionId": "20260703T07:07:41" }, "label": "208", "nationalCadastralReference": "836346_208.E", "referencePoint": { "type": "Point", "coordinates": [ 20.1686067, 48.29695393 ] }, "validFrom": "2026-06-30T16:00:00Z", "validTo": { "@nilReason": "http://inspire.ec.europa.eu/codelist/VoidReasonValue/Unpopulated", "@nil": "true" }, "administrativeUnit": { "@href": "#auAdmUnitS.1270" } }, "geometry": { "type": "Polygon", "coordinates": [ [ [ 20.1667831, 48.29668552 ], [ 20.16675838, 48.29670632 ], [ 20.16699217, 48.29685821 ], [ 20.16736575, 48.29704966 ], [ 20.16779536, 48.29726952 ], [ 20.16826679, 48.29751198 ], [ 20.1687055, 48.29773869 ], [ 20.16920034, 48.297994 ], [ 20.16933462, 48.29805415 ], [ 20.1693523, 48.29803352 ], [ 20.16958658, 48.2976582 ], [ 20.16981196, 48.29730631 ], [ 20.16992911, 48.29712221 ], [ 20.17012784, 48.29680474 ], [ 20.17038025, 48.29640078 ], [ 20.16763639, 48.29588027 ], [ 20.16758627, 48.29592779 ], [ 20.16687725, 48.29659664 ], [ 20.1667831, 48.29668552 ] ] ] } },
{ "type": "Feature", "properties": { "@featureType": "CadastralParcel", "areaValue": { "value": 3600, "@uom": "m2" }, "beginLifespanVersion": { "@nilReason": "http://inspire.ec.europa.eu/codelist/VoidReasonValue/Unpopulated", "@nil": "true" }, "endLifespanVersion": { "@nilReason": "http://inspire.ec.europa.eu/codelist/VoidReasonValue/Unpopulated", "@nil": "true" }, "inspireId": { "@dataType": "Identifier", "localId": "836346_206.E", "namespace": "SK.ESKN.CP", "versionId": "20260703T07:07:41" }, "label": "206", "nationalCadastralReference": "836346_206.E", "referencePoint": { "type": "Point", "coordinates": [ 20.16971645, 48.29534982 ] }, "validFrom": "2026-06-30T16:00:00Z", "validTo": { "@nilReason": "http://inspire.ec.europa.eu/codelist/VoidReasonValue/Unpopulated", "@nil": "true" }, "administrativeUnit": { "@href": "#auAdmUnitS.1270" } }, "geometry": { "type": "Polygon", "coordinates": [ [ [ 20.17098372, 48.29543649 ], [ 20.16863039, 48.29510434 ], [ 20.16841643, 48.29526315 ], [ 20.17088335, 48.2955937 ], [ 20.17098372, 48.29543649 ] ] ] } },
{ "type": "Feature", "properties": { "@featureType": "CadastralParcel", "areaValue": { "value": 2499, "@uom": "m2" }, "beginLifespanVersion": { "@nilReason": "http://inspire.ec.europa.eu/codelist/VoidReasonValue/Unpopulated", "@nil": "true" }, "endLifespanVersion": { "@nilReason": "http://inspire.ec.europa.eu/codelist/VoidReasonValue/Unpopulated", "@nil": "true" }, "inspireId": { "@dataType": "Identifier", "localId": "813389_974/2.E", "namespace": "SK.ESKN.CP", "versionId": "20260703T06:07:22" }, "label": "974/2", "nationalCadastralReference": "813389_974/2.E", "referencePoint": { "type": "Point", "coordinates": [ 20.16803098, 48.29549671 ] }, "validFrom": "2026-06-30T16:00:00Z", "validTo": { "@nilReason": "http://inspire.ec.europa.eu/codelist/VoidReasonValue/Unpopulated", "@nil": "true" }, "administrativeUnit": { "@href": "#auAdmUnitS.1106" } }, "geometry": { "type": "Polygon", "coordinates": [ [ [ 20.16674609, 48.29671673 ], [ 20.1667831, 48.29668552 ], [ 20.16687725, 48.29659664 ], [ 20.16758627, 48.29592779 ], [ 20.16782282, 48.29570359 ], [ 20.16866732, 48.29507692 ], [ 20.16896964, 48.29485846 ], [ 20.16958322, 48.29447712 ], [ 20.16964925, 48.29443728 ], [ 20.16967825, 48.2944198 ], [ 20.16991972, 48.29438403 ], [ 20.16978326, 48.29434343 ], [ 20.16969466, 48.29431703 ], [ 20.16951967, 48.29434641 ], [ 20.16933617, 48.29447789 ], [ 20.16895497, 48.29473964 ], [ 20.16883646, 48.2948233 ], [ 20.1681957, 48.29531724 ], [ 20.16772499, 48.29567618 ], [ 20.1673814, 48.2959901 ], [ 20.16662707, 48.29663592 ], [ 20.16674609, 48.29671673 ] ] ] } }
]
}
