{
"type": "FeatureCollection",
"name": "gis",
"crs": { "type": "name", "properties": { "name": "urn:ogc:def:crs:OGC:1.3:CRS84" } },
"features": [
{ "type": "Feature", "properties": { "@featureType": "CadastralZoning", "beginLifespanVersion": { "@nilReason": "http://inspire.ec.europa.eu/codelist/VoidReasonValue/Unpopulated", "@nil": "true" }, "endLifespanVersion": { "@nilReason": "http://inspire.ec.europa.eu/codelist/VoidReasonValue/Unpopulated", "@nil": "true" }, "estimatedAccuracy": { "value": -1, "@uom": "m" }, "inspireId": { "@dataType": "Identifier", "localId": "863416", "namespace": "SK.ESKN.CP", "versionId": "20260703T04:07:40" }, "label": "Tlmače", "level": { "@href": "http://inspire.ec.europa.eu/codelist/CadastralZoningLevelValue/3rdOrder" }, "levelName": { "value": "Katastrálne územie", "@locale": "sk" }, "name_1": { "@dataType": "name", "GeographicalName": { "@dataType": "GeographicalName", "language": "SLK", "nativeness": { "@href": "http://inspire.ec.europa.eu/codelist/NativenessValue/endonym", "@title": "endonym" }, "nameStatus": { "@href": "http://inspire.ec.europa.eu/codelist/NameStatusValue/official", "@title": "official" }, "sourceOfName": { "@nilReason": "http://inspire.ec.europa.eu/codelist/VoidReasonValue/Unpopulated", "@nil": "true" }, "pronunciation": { "@dataType": "pronunciation", "@nilReason": "http://inspire.ec.europa.eu/codelist/VoidReasonValue/Unpopulated", "@nil": "true" }, "spelling": { "@dataType": "SpellingOfName", "text": "Tlmače", "script": "LATN" } } }, "nationalCadastalZoningReference": "863416", "validFrom": "2026-06-30T16:00:00Z", "validTo": { "@nilReason": "http://inspire.ec.europa.eu/codelist/VoidReasonValue/Unpopulated", "@nil": "true" }, "place_id": 188938767, "osm_type": "relation", "osm_id": 2217932, "place_rank": 16, "category": "boundary", "type": "administrative", "importance": 0.49022884374823356, "addresstype": "town", "name_2": "Tlmače", "display_name": "Tlmače, okres Levice, Nitriansky kraj, 935 21, Slovensko" }, "geometry": { "type": "Polygon", "coordinates": [ [ [ 18.510595, 48.29993141 ], [ 18.51195766, 48.29974425 ], [ 18.51201202, 48.29973678 ], [ 18.51296517, 48.29960587 ], [ 18.51302641, 48.29959743 ], [ 18.51305941, 48.29959303 ], [ 18.51635641, 48.29914994 ], [ 18.51653522, 48.29912371 ], [ 18.51656872, 48.29911861 ], [ 18.517263, 48.29901913 ], [ 18.51728698, 48.29901549 ], [ 18.51749138, 48.29898472 ], [ 18.51772993, 48.2989533 ], [ 18.51773336, 48.29895295 ], [ 18.51775867, 48.29894956 ], [ 18.51790181, 48.29893066 ], [ 18.51794169, 48.29892537 ], [ 18.51812919, 48.29889989 ], [ 18.51813842, 48.2988986 ], [ 18.51836073, 48.29886836 ], [ 18.51863023, 48.2988317 ], [ 18.51894073, 48.29878945 ], [ 18.51896288, 48.29878643 ], [ 18.51912095, 48.29876492 ], [ 18.51933048, 48.29873642 ], [ 18.51942113, 48.29872409 ], [ 18.519443, 48.29872115 ], [ 18.51968678, 48.29868794 ], [ 18.51986714, 48.29866342 ], [ 18.52019717, 48.29861854 ], [ 18.5202881, 48.29860614 ], [ 18.5202987, 48.29860465 ], [ 18.5205517, 48.29857024 ], [ 18.5206828, 48.29855238 ], [ 18.52068899, 48.29855155 ], [ 18.52086728, 48.29852727 ], [ 18.52120625, 48.29848117 ], [ 18.52168542, 48.29841591 ], [ 18.5216923, 48.29841494 ], [ 18.52233479, 48.29832394 ], [ 18.52272589, 48.29826853 ], [ 18.52290721, 48.29824279 ], [ 18.52293693, 48.29823866 ], [ 18.52302917, 48.2982256 ], [ 18.52320456, 48.29820071 ], [ 18.52342523, 48.29816947 ], [ 18.52341766, 48.29815308 ], [ 18.52340267, 48.29810812 ], [ 18.52339481, 48.29808423 ], [ 18.52338979, 48.29806906 ], [ 18.5233694, 48.29800765 ], [ 18.52335499, 48.29796453 ], [ 18.5233532, 48.29795938 ], [ 18.52334874, 48.29794623 ], [ 18.52334666, 48.29794007 ], [ 18.52334388, 48.29793198 ], [ 18.52334009, 48.29792103 ], [ 18.5233378, 48.2979144 ], [ 18.52333148, 48.29789556 ], [ 18.52332793, 48.29788489 ], [ 18.52330727, 48.29782347 ], [ 18.52328661, 48.29776205 ], [ 18.52327474, 48.29772692 ], [ 18.52326654, 48.29770246 ], [ 18.52326595, 48.29770062 ], [ 18.52326081, 48.29768536 ], [ 18.52324529, 48.2976392 ], [ 18.52322464, 48.29757778 ], [ 18.52320173, 48.29750938 ], [ 18.52319874, 48.29750073 ], [ 18.52319521, 48.29748997 ], [ 18.5231781, 48.29743696 ], [ 18.52316412, 48.29739368 ], [ 18.5231537, 48.29736315 ], [ 18.52311377, 48.29724553 ], [ 18.52306868, 48.29711273 ], [ 18.52302358, 48.29698002 ], [ 18.52301545, 48.29695611 ], [ 18.52298849, 48.29687674 ], [ 18.52296453, 48.29680593 ], [ 18.52291348, 48.29665575 ], [ 18.52289873, 48.29661216 ], [ 18.52289475, 48.29660057 ], [ 18.52288999, 48.29658659 ], [ 18.52278038, 48.29626388 ], [ 18.52275641, 48.29619316 ], [ 18.52262271, 48.29579963 ], [ 18.52267851, 48.29579133 ], [ 18.52270469, 48.29578745 ], [ 18.52273431, 48.29578304 ], [ 18.52280954, 48.29577185 ], [ 18.522945041801556, 48.295751761922908 ], [ 18.5229419, 48.2957409 ], [ 18.5250778, 48.2954273 ], [ 18.5283808, 48.2948489 ], [ 18.5283974, 48.2949096 ], [ 18.5290364, 48.2948321 ], [ 18.5291781, 48.2954218 ], [ 18.52940707446195, 48.29572787106973 ], [ 18.52950222, 48.29583155 ], [ 18.529543858758593, 48.295910711180539 ], [ 18.5296429, 48.2960431 ], [ 18.5300459, 48.2964511 ], [ 18.5304373, 48.2967062 ], [ 18.532050832356383, 48.297995350706159 ], [ 18.53215404, 48.2980614 ], [ 18.53250926, 48.29834961 ], [ 18.53271913, 48.2985162 ], [ 18.53274571, 48.29854293 ], [ 18.532770828216872, 48.298570599890546 ], [ 18.5328453, 48.2986301 ], [ 18.534336928995039, 48.2978834357708 ], [ 18.53436659, 48.29785986 ], [ 18.53442057, 48.29781708 ], [ 18.53470669, 48.29758998 ], [ 18.53471044, 48.29758703 ], [ 18.53507035, 48.29731553 ], [ 18.535247938651455, 48.297181502228206 ], [ 18.5352979, 48.297143 ], [ 18.535368417824628, 48.297104760521982 ], [ 18.53549343, 48.2970319 ], [ 18.535656052617696, 48.296948785711308 ], [ 18.5359852, 48.2967703 ], [ 18.536927975303836, 48.296169130811343 ], [ 18.53695482, 48.29614374 ], [ 18.537118568001496, 48.296047597656049 ], [ 18.5371642, 48.2960185 ], [ 18.5380199, 48.2956131 ], [ 18.538294943679599, 48.295505191187097 ], [ 18.53839726, 48.29546334 ], [ 18.538546440159191, 48.295406520726459 ], [ 18.5390086, 48.2952252 ], [ 18.539426723579762, 48.294904987260757 ], [ 18.53943194, 48.29490091 ], [ 18.53944031, 48.29489442 ], [ 18.539441214506297, 48.294893889634345 ], [ 18.5394523, 48.2948854 ], [ 18.539482949166569, 48.294869418129423 ], [ 18.53949236, 48.2948639 ], [ 18.53958596, 48.29480903 ], [ 18.53971311, 48.29474203 ], [ 18.53971991, 48.29473843 ], [ 18.53980426, 48.29469389 ], [ 18.53991273, 48.29464345 ], [ 18.53993525, 48.29463305 ], [ 18.53994440323137, 48.29462879497499 ], [ 18.5400002, 48.2945997 ], [ 18.540061366212477, 48.294579076701808 ], [ 18.5401033, 48.29456225 ], [ 18.54032218, 48.29447962 ], [ 18.54032927, 48.29447694 ], [ 18.54034593, 48.29447127 ], [ 18.54062708, 48.29437609 ], [ 18.54116761, 48.2942053 ], [ 18.541197383993108, 48.294196047697902 ], [ 18.5423732, 48.2937996 ], [ 18.542701957182942, 48.2936622095025 ], [ 18.54306207, 48.29350692 ], [ 18.54372126, 48.2932227 ], [ 18.544655996526984, 48.292845599397687 ], [ 18.5449831, 48.2927089 ], [ 18.5462211, 48.2922647 ], [ 18.547259353280893, 48.291976457323933 ], [ 18.54740352, 48.29192043 ], [ 18.54747693, 48.2919019 ], [ 18.54799617, 48.2917707 ], [ 18.548026811528537, 48.291763393495351 ], [ 18.5481914, 48.2917177 ], [ 18.548448427550422, 48.291676724885797 ], [ 18.54880892, 48.29160931 ], [ 18.54889174, 48.29159897 ], [ 18.5490951967241, 48.291573617492411 ], [ 18.549457631721339, 48.291515838412401 ], [ 18.549486252554239, 48.291460879389717 ], [ 18.549534481895979, 48.291336630358046 ], [ 18.54954018, 48.29130051 ], [ 18.54954025, 48.29128788 ], [ 18.54954271, 48.29105961 ], [ 18.54954957, 48.29093924 ], [ 18.54954129, 48.29082436 ], [ 18.54954825, 48.29069886 ], [ 18.54956992, 48.29031147 ], [ 18.54959253, 48.28980348 ], [ 18.54960889, 48.28959736 ], [ 18.54962328, 48.28916923 ], [ 18.54963269, 48.28897113 ], [ 18.549633906652151, 48.288945703809453 ], [ 18.549673597350566, 48.287808967211213 ], [ 18.54967244, 48.28778356 ], [ 18.54966715, 48.28766632 ], [ 18.54964929, 48.28753702 ], [ 18.54964817, 48.28752856 ], [ 18.54960841, 48.28724131 ], [ 18.54955405, 48.28678729 ], [ 18.54947131, 48.28621368 ], [ 18.54940128, 48.28580014 ], [ 18.54935598, 48.28567195 ], [ 18.54931324, 48.28556456 ], [ 18.54920437, 48.28533884 ], [ 18.54900378, 48.28495783 ], [ 18.54896117, 48.28485379 ], [ 18.54893843, 48.28473893 ], [ 18.54894543, 48.28470845 ], [ 18.54895104, 48.28468376 ], [ 18.54898185, 48.28462797 ], [ 18.54899248, 48.2846087 ], [ 18.54896935, 48.2843478 ], [ 18.54896396, 48.28420402 ], [ 18.54897662, 48.28399274 ], [ 18.5490286, 48.28382125 ], [ 18.549085864554236, 48.283721067704853 ], [ 18.549864214559005, 48.282162593341198 ], [ 18.54994995, 48.28197624 ], [ 18.54992405, 48.28196696 ], [ 18.54966176, 48.2819022 ], [ 18.54889521, 48.28167375 ], [ 18.548778716874658, 48.281653674098777 ], [ 18.548281747772183, 48.281612218880696 ], [ 18.54819043, 48.28161437 ], [ 18.54817844, 48.28160848 ], [ 18.54813626, 48.28158766 ], [ 18.54803952, 48.28154002 ], [ 18.54780921, 48.28142097 ], [ 18.54772014, 48.28138459 ], [ 18.54771067, 48.28138136 ], [ 18.54760414, 48.2813451 ], [ 18.54734619, 48.28125729 ], [ 18.54720588, 48.28121429 ], [ 18.54713566, 48.28119275 ], [ 18.54695237, 48.28113981 ], [ 18.54680056, 48.28110016 ], [ 18.54649656, 48.28102073 ], [ 18.54610758, 48.28094296 ], [ 18.54529185, 48.280743 ], [ 18.54525037, 48.28073287 ], [ 18.5447714, 48.28061197 ], [ 18.54389124, 48.28038969 ], [ 18.54388009, 48.28038691 ], [ 18.54384541, 48.28037869 ], [ 18.54341916, 48.28027764 ], [ 18.54323148, 48.28023728 ], [ 18.54277236, 48.28013857 ], [ 18.54140653, 48.27985862 ], [ 18.5409505, 48.27972949 ], [ 18.540942483380462, 48.279726797932497 ], [ 18.5408232, 48.2800009 ], [ 18.540815831960369, 48.279999462749231 ], [ 18.54081102, 48.2800105 ], [ 18.5405657, 48.27996073 ], [ 18.54007225, 48.2798696 ], [ 18.539636345983819, 48.279769385658575 ], [ 18.53828497428373, 48.279505779583268 ], [ 18.53784072, 48.27942701 ], [ 18.53739427, 48.27934405 ], [ 18.53706187, 48.2792976 ], [ 18.53676172, 48.2792726 ], [ 18.53655085, 48.27924602 ], [ 18.53645913, 48.27923113 ], [ 18.53639216, 48.27921292 ], [ 18.53608612, 48.27916764 ], [ 18.53530863, 48.27902955 ], [ 18.535067149339252, 48.278975881550735 ], [ 18.534843904633853, 48.278936714013604 ], [ 18.53471552, 48.27892019 ], [ 18.53449991, 48.27888819 ], [ 18.5339633, 48.27875595 ], [ 18.53382982, 48.27871368 ], [ 18.53370314, 48.27864479 ], [ 18.53365558, 48.2785975 ], [ 18.53339912, 48.27834261 ], [ 18.53327879, 48.27822887 ], [ 18.53322294, 48.27815793 ], [ 18.53274006, 48.27800012 ], [ 18.5325343, 48.27794213 ], [ 18.53223002, 48.27789144 ], [ 18.5319324, 48.2778274 ], [ 18.53190976, 48.27782029 ], [ 18.53188008, 48.27781098 ], [ 18.53183589, 48.27779772 ], [ 18.53179546, 48.27778466 ], [ 18.531574176941064, 48.277713072808574 ], [ 18.531035970071777, 48.277591201441112 ], [ 18.53084268, 48.27755999 ], [ 18.53039952, 48.27753368 ], [ 18.53019714, 48.27753038 ], [ 18.52994749, 48.27755399 ], [ 18.5296867, 48.27759115 ], [ 18.52958399, 48.27759632 ], [ 18.52933137, 48.27758384 ], [ 18.52917023, 48.27716517 ], [ 18.52852379, 48.27724993 ], [ 18.52817541, 48.27696243 ], [ 18.52715063, 48.27732756 ], [ 18.52707962, 48.27734973 ], [ 18.526940835499126, 48.277245135799937 ], [ 18.526810776917944, 48.2771627595925 ], [ 18.52678521, 48.27714723 ], [ 18.5267253, 48.27711569 ], [ 18.52662884, 48.27706488 ], [ 18.526568661697965, 48.277047846731222 ], [ 18.526358000991532, 48.277026665490709 ], [ 18.526302, 48.27702512 ], [ 18.52623423, 48.27702319 ], [ 18.52620796, 48.27702246 ], [ 18.525728934634799, 48.277031243244302 ], [ 18.526214, 48.2774252 ], [ 18.5265425, 48.2778045 ], [ 18.5268159, 48.2783396 ], [ 18.5269451, 48.2786635 ], [ 18.5270186, 48.2790906 ], [ 18.527006514338932, 48.279099343084013 ], [ 18.52700656, 48.2790995 ], [ 18.52623119, 48.2796612 ], [ 18.525949917667855, 48.279793723588163 ], [ 18.5254222, 48.2802491 ], [ 18.52535921381212, 48.280321999444574 ], [ 18.52525707, 48.28044884 ], [ 18.525154726090776, 48.280558671035756 ], [ 18.5249031, 48.2808499 ], [ 18.5245761, 48.2817377 ], [ 18.5245962, 48.2823503 ], [ 18.5245373, 48.2827834 ], [ 18.5246711, 48.2834475 ], [ 18.524868, 48.283711 ], [ 18.524854714053379, 48.283718381081457 ], [ 18.52485584, 48.28371989 ], [ 18.524718466601033, 48.283796974190565 ], [ 18.5247142, 48.2838921 ], [ 18.52470238259842, 48.283898093677315 ], [ 18.52470226, 48.28390103 ], [ 18.524679408371696, 48.283909745993647 ], [ 18.524619626060723, 48.283940067031523 ], [ 18.524607894841537, 48.283947660167598 ], [ 18.524469465663184, 48.28413130890177 ], [ 18.52416241, 48.28455485 ], [ 18.524064035555561, 48.284669177629652 ], [ 18.5240353, 48.2847073 ], [ 18.5240115, 48.2848133 ], [ 18.5235464, 48.2852635 ], [ 18.523538273782197, 48.285268775540025 ], [ 18.52353442, 48.28527286 ], [ 18.523505536965381, 48.285290028279199 ], [ 18.522990220790938, 48.285624571503405 ], [ 18.52292156, 48.28567087 ], [ 18.52285265, 48.28571743 ], [ 18.52280887, 48.28575427 ], [ 18.5227885, 48.28577137 ], [ 18.52276326, 48.28578848 ], [ 18.52248406, 48.2859783 ], [ 18.52248151, 48.28597924 ], [ 18.522406713412643, 48.286007072935334 ], [ 18.5223175, 48.2862089 ], [ 18.52230491812993, 48.286206873553915 ], [ 18.5223053, 48.2862185 ], [ 18.52221582, 48.286204 ], [ 18.5216869, 48.28611842 ], [ 18.52168694, 48.28610064 ], [ 18.52168683, 48.28604153 ], [ 18.52170641, 48.28600245 ], [ 18.52174463, 48.28596241 ], [ 18.52178115, 48.28592409 ], [ 18.52179965, 48.28590463 ], [ 18.52185326, 48.28584847 ], [ 18.52164097, 48.28592484 ], [ 18.5210737, 48.28605066 ], [ 18.52060351, 48.28611433 ], [ 18.51988091, 48.28614485 ], [ 18.51958931, 48.28620871 ], [ 18.51945835, 48.286242 ], [ 18.51942905, 48.28616855 ], [ 18.519421, 48.28614835 ], [ 18.51820407207418, 48.286485164488354 ], [ 18.5178122, 48.2867295 ], [ 18.5176263, 48.2870667 ], [ 18.517623109866381, 48.287088746162517 ], [ 18.51763013, 48.28709895 ], [ 18.517611177310528, 48.287171208873147 ], [ 18.5175322, 48.287717 ], [ 18.517514284541047, 48.287750454377431 ], [ 18.51750902, 48.28777181 ], [ 18.51750606, 48.28778581 ], [ 18.51749308, 48.28784908 ], [ 18.517465556491601, 48.287852530391604 ], [ 18.5175185, 48.2880536 ], [ 18.5177126, 48.2883654 ], [ 18.5180779, 48.2887702 ], [ 18.5183021, 48.288936 ], [ 18.518449, 48.2889713 ], [ 18.518427275542646, 48.288978655693121 ], [ 18.51843702, 48.28898105 ], [ 18.5184179, 48.28898911 ], [ 18.51080895, 48.29156368 ], [ 18.51057631, 48.29170461 ], [ 18.5076133, 48.29346072 ], [ 18.50759664, 48.29346963 ], [ 18.50757259, 48.29348365 ], [ 18.507495133179393, 48.293527284773567 ], [ 18.507815, 48.2937985 ], [ 18.5077974, 48.2939205 ], [ 18.50783115607473, 48.293940611264205 ], [ 18.50787546, 48.29395153 ], [ 18.508050665598194, 48.294071391103316 ], [ 18.5082526, 48.2941917 ], [ 18.5087554, 48.2943131 ], [ 18.5088784, 48.2942781 ], [ 18.509794, 48.2949615 ], [ 18.5097075, 48.2950966 ], [ 18.509701580744405, 48.295096416088825 ], [ 18.50969564, 48.29510566 ], [ 18.508069064101992, 48.295055335958004 ], [ 18.508046027976302, 48.295088092325635 ], [ 18.5080016, 48.29517086 ], [ 18.507811483902906, 48.295421603784803 ], [ 18.5077496, 48.2955096 ], [ 18.5075368, 48.2959456 ], [ 18.507527382270936, 48.295949853712479 ], [ 18.5075247, 48.29595535 ], [ 18.506756750599017, 48.29630182417457 ], [ 18.5068367, 48.2965624 ], [ 18.506823304144412, 48.296567299918486 ], [ 18.50682458, 48.29657147 ], [ 18.50662936, 48.29664379 ], [ 18.5063963, 48.29661566 ], [ 18.506059354280623, 48.296755391929331 ], [ 18.5059755, 48.2968533 ], [ 18.506007, 48.2969304 ], [ 18.5060385, 48.2970102 ], [ 18.5073773, 48.3003768 ], [ 18.508592597928892, 48.300213485705719 ], [ 18.50875223, 48.30019101 ], [ 18.510595, 48.29993141 ] ] ] } }
]
}
