{
"type": "FeatureCollection",
"name": "gis",
"crs": { "type": "name", "properties": { "name": "urn:ogc:def:crs:OGC:1.3:CRS84" } },
"features": [
{ "type": "Feature", "properties": { "@featureType": "CadastralParcel", "areaValue": { "value": 6945, "@uom": "m2" }, "beginLifespanVersion": { "@nilReason": "http://inspire.ec.europa.eu/codelist/VoidReasonValue/Unpopulated", "@nil": "true" }, "endLifespanVersion": { "@nilReason": "http://inspire.ec.europa.eu/codelist/VoidReasonValue/Unpopulated", "@nil": "true" }, "inspireId": { "@dataType": "Identifier", "localId": "835196_30001/43.C", "namespace": "SK.ESKN.CP", "versionId": "20260703T04:07:11" }, "label": "30001/43", "nationalCadastralReference": "835196_30001/43.C", "referencePoint": { "type": "Point", "coordinates": [ 17.04924539, 48.440547 ] }, "validFrom": "2026-06-30T16:00:00Z", "validTo": { "@nilReason": "http://inspire.ec.europa.eu/codelist/VoidReasonValue/Unpopulated", "@nil": "true" }, "administrativeUnit": { "@href": "#auAdmUnitS.2181" } }, "geometry": { "type": "Polygon", "coordinates": [ [ [ 17.04976325, 48.44004228 ], [ 17.0486731, 48.44024279 ], [ 17.04868578, 48.44025224 ], [ 17.04869624, 48.44026289 ], [ 17.04861918, 48.44064873 ], [ 17.04860954, 48.44065042 ], [ 17.04858379, 48.44065618 ], [ 17.04855916, 48.44066354 ], [ 17.04850943, 48.44068032 ], [ 17.04848285, 48.440688 ], [ 17.04845498, 48.44069343 ], [ 17.04789657, 48.44077822 ], [ 17.04788308, 48.44076257 ], [ 17.04787666, 48.44074513 ], [ 17.04787778, 48.44072722 ], [ 17.04781158, 48.44095206 ], [ 17.04784102, 48.44094792 ], [ 17.04788426, 48.44094155 ], [ 17.04855492, 48.44083971 ], [ 17.04865745, 48.44082327 ], [ 17.04879837, 48.44079832 ], [ 17.04880062, 48.44079784 ], [ 17.04952752, 48.4406483 ], [ 17.04955597, 48.44066036 ], [ 17.04958003, 48.44067619 ], [ 17.04959891, 48.44069483 ], [ 17.0496194, 48.44071267 ], [ 17.04964376, 48.44072834 ], [ 17.04967013, 48.44074243 ], [ 17.0496921, 48.44075947 ], [ 17.04970823, 48.44077919 ], [ 17.04971782, 48.44080082 ], [ 17.04972032, 48.44081726 ], [ 17.04977734, 48.44082466 ], [ 17.04980154, 48.44074223 ], [ 17.04987711, 48.4404457 ], [ 17.04986971, 48.44029839 ], [ 17.04976325, 48.44004228 ] ] ] } },
{ "type": "Feature", "properties": { "@featureType": "CadastralParcel", "areaValue": { "value": 19952, "@uom": "m2" }, "beginLifespanVersion": { "@nilReason": "http://inspire.ec.europa.eu/codelist/VoidReasonValue/Unpopulated", "@nil": "true" }, "endLifespanVersion": { "@nilReason": "http://inspire.ec.europa.eu/codelist/VoidReasonValue/Unpopulated", "@nil": "true" }, "inspireId": { "@dataType": "Identifier", "localId": "835196_30009/1.C", "namespace": "SK.ESKN.CP", "versionId": "20260703T04:07:11" }, "label": "30009/1", "nationalCadastralReference": "835196_30009/1.C", "referencePoint": { "type": "Point", "coordinates": [ 17.05237633, 48.4384659 ] }, "validFrom": "2026-06-30T16:00:00Z", "validTo": { "@nilReason": "http://inspire.ec.europa.eu/codelist/VoidReasonValue/Unpopulated", "@nil": "true" }, "administrativeUnit": { "@href": "#auAdmUnitS.2181" } }, "geometry": { "type": "Polygon", "coordinates": [ [ [ 17.05077755, 48.43844308 ], [ 17.05072299, 48.43848873 ], [ 17.05069619, 48.4385482 ], [ 17.05091085, 48.43859868 ], [ 17.05129203, 48.43868833 ], [ 17.05176428, 48.43878217 ], [ 17.05201462, 48.43882766 ], [ 17.05222209, 48.43885949 ], [ 17.05335552, 48.43900062 ], [ 17.05351523, 48.43902051 ], [ 17.05410181, 48.43911045 ], [ 17.05389936, 48.43779783 ], [ 17.05077755, 48.43844308 ] ] ] } }
]
}
