{
"type": "FeatureCollection",
"name": "gis",
"crs": { "type": "name", "properties": { "name": "urn:ogc:def:crs:OGC:1.3:CRS84" } },
"features": [
{ "type": "Feature", "properties": { "@featureType": "CadastralParcel", "areaValue": { "value": 25688661.0, "@uom": "m2" }, "beginLifespanVersion": { "@nilReason": "http://inspire.ec.europa.eu/codelist/VoidReasonValue/Unpopulated", "@nil": "true" }, "endLifespanVersion": { "@nilReason": "http://inspire.ec.europa.eu/codelist/VoidReasonValue/Unpopulated", "@nil": "true" }, "inspireId": { "@dataType": "Identifier", "localId": "809713_10588/1.C", "namespace": "SK.ESKN.CP", "versionId": "20260703T06:07:46" }, "label": "10588/1", "nationalCadastralReference": "809713_10588/1.C", "referencePoint": { "type": "Point", "coordinates": [ 19.5822301, 48.7081802 ] }, "validFrom": "2026-06-30T16:00:00Z", "validTo": { "@nilReason": "http://inspire.ec.europa.eu/codelist/VoidReasonValue/Unpopulated", "@nil": "true" }, "administrativeUnit": { "@href": "#auAdmUnitS.969" } }, "geometry": { "type": "Polygon", "coordinates": [ [ [ 19.59664667, 48.72301412 ], [ 19.59847636, 48.72273724 ], [ 19.59985993, 48.72304158 ], [ 19.60045949, 48.7233425 ], [ 19.60072296, 48.72365632 ], [ 19.60132944, 48.72397873 ], [ 19.60211176, 48.72427935 ], [ 19.60227745, 48.72429631 ], [ 19.60229642, 48.72429735 ], [ 19.60232628, 48.72423128 ], [ 19.60260052, 48.72410243 ], [ 19.60267922, 48.72410554 ], [ 19.60289824, 48.72419983 ], [ 19.60337729, 48.72429209 ], [ 19.6035482, 48.72462372 ], [ 19.60409336, 48.72455229 ], [ 19.60437839, 48.72448243 ], [ 19.60456254, 48.72451069 ], [ 19.6046881, 48.72451006 ], [ 19.60483324, 48.72420644 ], [ 19.60496712, 48.72413578 ], [ 19.60531091, 48.72412096 ], [ 19.60534479, 48.72409896 ], [ 19.60559693, 48.72409946 ], [ 19.6056344, 48.72417462 ], [ 19.60588859, 48.72415538 ], [ 19.60612171, 48.72415673 ], [ 19.60662333, 48.72426929 ], [ 19.6067074, 48.72439713 ], [ 19.60691187, 48.7244674 ], [ 19.60707991, 48.72458047 ], [ 19.60740304, 48.724573 ], [ 19.60785656, 48.72460261 ], [ 19.60792044, 48.72451048 ], [ 19.60776657, 48.7243565 ], [ 19.60750597, 48.72438646 ], [ 19.60736765, 48.72425878 ], [ 19.60690164, 48.72420904 ], [ 19.60670447, 48.72404832 ], [ 19.60650414, 48.72397093 ], [ 19.60649709, 48.72387957 ], [ 19.60627226, 48.72370173 ], [ 19.6062306, 48.72361042 ], [ 19.60658009, 48.72330297 ], [ 19.60706694, 48.72338575 ], [ 19.60749667, 48.72341726 ], [ 19.60778353, 48.72357103 ], [ 19.60811934, 48.72333661 ], [ 19.6083178, 48.72334098 ], [ 19.60847269, 48.72320267 ], [ 19.60888464, 48.72302641 ], [ 19.60884455, 48.72285521 ], [ 19.60923216, 48.72260591 ], [ 19.60957713, 48.72255182 ], [ 19.61020649, 48.72238105 ], [ 19.61061747, 48.7218657 ], [ 19.61034827, 48.72182721 ], [ 19.61023136, 48.72202935 ], [ 19.60996098, 48.72219634 ], [ 19.60987633, 48.72214392 ], [ 19.61009826, 48.72189596 ], [ 19.6099078, 48.72167813 ], [ 19.60982605, 48.72140761 ], [ 19.61027785, 48.7213295 ], [ 19.6104101, 48.72108046 ], [ 19.61029751, 48.72090023 ], [ 19.61049374, 48.72074134 ], [ 19.61109055, 48.72064815 ], [ 19.61111271, 48.72053512 ], [ 19.61125192, 48.72037167 ], [ 19.6114725, 48.7202356 ], [ 19.6115198, 48.71987365 ], [ 19.61161733, 48.71953452 ], [ 19.61164954, 48.71935181 ], [ 19.61180454, 48.71922143 ], [ 19.61216265, 48.71957042 ], [ 19.61246265, 48.71950041 ], [ 19.6123656, 48.71932926 ], [ 19.61264482, 48.71923875 ], [ 19.61263069, 48.71912345 ], [ 19.61295302, 48.71898612 ], [ 19.6131703, 48.71897439 ], [ 19.61325103, 48.71884418 ], [ 19.61344565, 48.71869558 ], [ 19.61358829, 48.71849217 ], [ 19.6137022, 48.71848406 ], [ 19.61404254, 48.71864348 ], [ 19.61411182, 48.71875641 ], [ 19.61429313, 48.71872746 ], [ 19.61426969, 48.71866023 ], [ 19.61418532, 48.71850742 ], [ 19.61421568, 48.71837952 ], [ 19.61385879, 48.71828002 ], [ 19.61359765, 48.71830635 ], [ 19.61355843, 48.71827186 ], [ 19.61347343, 48.71821493 ], [ 19.61313896, 48.71818215 ], [ 19.61267593, 48.71821892 ], [ 19.61265244, 48.71824328 ], [ 19.61257598, 48.71830825 ], [ 19.61182742, 48.71842406 ], [ 19.61094836, 48.71849756 ], [ 19.61074572, 48.71862885 ], [ 19.6104283, 48.71863541 ], [ 19.61074746, 48.71806021 ], [ 19.61036121, 48.71793521 ], [ 19.60977194, 48.71786594 ], [ 19.60890421, 48.71776244 ], [ 19.60779802, 48.71755521 ], [ 19.60772125, 48.71744906 ], [ 19.60774526, 48.71724822 ], [ 19.60775669, 48.71714679 ], [ 19.60797593, 48.71700787 ], [ 19.6083716, 48.71722489 ], [ 19.60976684, 48.71746538 ], [ 19.61033564, 48.71764316 ], [ 19.61117784, 48.71777227 ], [ 19.61163034, 48.71791675 ], [ 19.61189788, 48.71796445 ], [ 19.61273623, 48.7179395 ], [ 19.61295867, 48.71788555 ], [ 19.61317351, 48.71776535 ], [ 19.6135381, 48.7176924 ], [ 19.61385796, 48.71765817 ], [ 19.61467172, 48.7174885 ], [ 19.61510927, 48.71727208 ], [ 19.61549621, 48.71704959 ], [ 19.61535134, 48.71680183 ], [ 19.61479052, 48.71649246 ], [ 19.61470339, 48.71622116 ], [ 19.61467098, 48.71583397 ], [ 19.61463774, 48.71543773 ], [ 19.61455678, 48.71511722 ], [ 19.61392965, 48.71452117 ], [ 19.61332106, 48.71401619 ], [ 19.61316579, 48.71400944 ], [ 19.61294962, 48.71381912 ], [ 19.61280458, 48.71379643 ], [ 19.61265247, 48.71365732 ], [ 19.61268691, 48.71363904 ], [ 19.61243766, 48.71327171 ], [ 19.61202721, 48.71288637 ], [ 19.61128515, 48.71250966 ], [ 19.61120474, 48.71229626 ], [ 19.61117509, 48.71224561 ], [ 19.61067916, 48.71171081 ], [ 19.61057605, 48.71119333 ], [ 19.61050129, 48.71105058 ], [ 19.61038763, 48.71084001 ], [ 19.61031753, 48.71072605 ], [ 19.61027099, 48.71066229 ], [ 19.61021478, 48.7105971 ], [ 19.61015214, 48.7105336 ], [ 19.61004103, 48.71044087 ], [ 19.60987588, 48.7103227 ], [ 19.609708, 48.71021379 ], [ 19.60960459, 48.71015205 ], [ 19.60936263, 48.71001933 ], [ 19.60908595, 48.709889 ], [ 19.60882367, 48.70977888 ], [ 19.60842662, 48.70961931 ], [ 19.60782217, 48.70936689 ], [ 19.60740665, 48.70918827 ], [ 19.60707682, 48.7090439 ], [ 19.60653226, 48.70879733 ], [ 19.60583441, 48.70847486 ], [ 19.6054995, 48.70830844 ], [ 19.60512635, 48.7081128 ], [ 19.6048399, 48.70795606 ], [ 19.60462162, 48.70782106 ], [ 19.60453082, 48.70775331 ], [ 19.60444696, 48.70767514 ], [ 19.60437004, 48.70758512 ], [ 19.60428685, 48.70745569 ], [ 19.60423737, 48.70736115 ], [ 19.60417019, 48.7072072 ], [ 19.60411909, 48.70706769 ], [ 19.60409608, 48.70694505 ], [ 19.60408542, 48.70679907 ], [ 19.60408667, 48.70667752 ], [ 19.60410595, 48.70646331 ], [ 19.60413742, 48.70630896 ], [ 19.60418173, 48.7061451 ], [ 19.60422558, 48.70598303 ], [ 19.60424886, 48.70587897 ], [ 19.60424842, 48.70581333 ], [ 19.60423163, 48.70574514 ], [ 19.60421021, 48.70569937 ], [ 19.60417419, 48.7056459 ], [ 19.60412031, 48.70558613 ], [ 19.60401141, 48.70549457 ], [ 19.60375449, 48.70531708 ], [ 19.6035283, 48.70517306 ], [ 19.60335089, 48.70507768 ], [ 19.60324522, 48.70502873 ], [ 19.60311939, 48.70497588 ], [ 19.60298559, 48.70493025 ], [ 19.60283868, 48.7048916 ], [ 19.60261562, 48.70484247 ], [ 19.60171234, 48.70462668 ], [ 19.60145367, 48.70455584 ], [ 19.60094808, 48.70440727 ], [ 19.60051316, 48.70426678 ], [ 19.60023367, 48.70416416 ], [ 19.5997708, 48.70398056 ], [ 19.59931404, 48.70381023 ], [ 19.59892247, 48.70366818 ], [ 19.59856905, 48.70354696 ], [ 19.59834625, 48.70346917 ], [ 19.59813442, 48.70338799 ], [ 19.59790688, 48.70328096 ], [ 19.59773904, 48.70317482 ], [ 19.59768427, 48.7031315 ], [ 19.59744923, 48.70326157 ], [ 19.59684596, 48.70270804 ], [ 19.59688224, 48.70269436 ], [ 19.5971417, 48.70259687 ], [ 19.59709381, 48.70254764 ], [ 19.59699828, 48.70243505 ], [ 19.59684011, 48.70224335 ], [ 19.59673903, 48.70208038 ], [ 19.5966172, 48.70183363 ], [ 19.59655593, 48.70172953 ], [ 19.59644905, 48.70158577 ], [ 19.59637646, 48.70149369 ], [ 19.59628437, 48.70139648 ], [ 19.59620175, 48.7013263 ], [ 19.59610277, 48.70126285 ], [ 19.59602404, 48.70121953 ], [ 19.5958677, 48.70115763 ], [ 19.59575881, 48.70112683 ], [ 19.5956714, 48.70110682 ], [ 19.59550826, 48.70108166 ], [ 19.59531823, 48.70106772 ], [ 19.59486581, 48.70104405 ], [ 19.59422247, 48.70101632 ], [ 19.59404825, 48.7010022 ], [ 19.59392755, 48.7009868 ], [ 19.5937135, 48.70094302 ], [ 19.59348144, 48.70087065 ], [ 19.59331552, 48.70079606 ], [ 19.59315416, 48.70070112 ], [ 19.5930832, 48.70068672 ], [ 19.59283969, 48.70058814 ], [ 19.59274175, 48.700516 ], [ 19.5925792, 48.70044579 ], [ 19.59239811, 48.70029019 ], [ 19.59232071, 48.70022493 ], [ 19.59219483, 48.70010437 ], [ 19.59216556, 48.70008321 ], [ 19.59220741, 48.69998414 ], [ 19.59222588, 48.69995568 ], [ 19.59240033, 48.69984659 ], [ 19.59244174, 48.69983333 ], [ 19.59249738, 48.69981548 ], [ 19.59253089, 48.6998838 ], [ 19.59255791, 48.69992532 ], [ 19.59260909, 48.69998218 ], [ 19.59268592, 48.70005688 ], [ 19.59279154, 48.70016011 ], [ 19.59293729, 48.70032421 ], [ 19.59304585, 48.70043713 ], [ 19.59312816, 48.70051424 ], [ 19.59326552, 48.70061738 ], [ 19.59341447, 48.70070716 ], [ 19.59357131, 48.70077602 ], [ 19.59376661, 48.70083644 ], [ 19.59397356, 48.70088171 ], [ 19.59405453, 48.70089286 ], [ 19.59424, 48.7009075 ], [ 19.59487421, 48.70093527 ], [ 19.59533785, 48.70095972 ], [ 19.59552812, 48.70097006 ], [ 19.59571717, 48.70100009 ], [ 19.59582191, 48.70102106 ], [ 19.59594925, 48.70105785 ], [ 19.59611809, 48.70112004 ], [ 19.59622161, 48.70117909 ], [ 19.59632891, 48.70124642 ], [ 19.59642931, 48.70133166 ], [ 19.59652543, 48.70143725 ], [ 19.59660233, 48.70153773 ], [ 19.59670567, 48.70168277 ], [ 19.59677411, 48.70179657 ], [ 19.59689508, 48.70204112 ], [ 19.59699403, 48.7021957 ], [ 19.59714465, 48.70237615 ], [ 19.59725158, 48.70249043 ], [ 19.59749517, 48.70275171 ], [ 19.59764386, 48.70274277 ], [ 19.5977053, 48.70277287 ], [ 19.59764529, 48.70291059 ], [ 19.5977114, 48.70297985 ], [ 19.59785783, 48.70309421 ], [ 19.59802348, 48.70319519 ], [ 19.5982229, 48.70329095 ], [ 19.59842532, 48.70337224 ], [ 19.59865143, 48.703451 ], [ 19.59900258, 48.70357175 ], [ 19.5993897, 48.70371342 ], [ 19.59985468, 48.70388457 ], [ 19.6003135, 48.7040678 ], [ 19.60059592, 48.70416704 ], [ 19.60103554, 48.70431217 ], [ 19.60151648, 48.70445546 ], [ 19.6017708, 48.70452359 ], [ 19.6026679, 48.70473865 ], [ 19.60289372, 48.70478727 ], [ 19.6030535, 48.70482795 ], [ 19.60320414, 48.70487669 ], [ 19.60334498, 48.70493454 ], [ 19.60345538, 48.70498911 ], [ 19.60364318, 48.70509209 ], [ 19.60386775, 48.70523594 ], [ 19.60413594, 48.70542034 ], [ 19.60425975, 48.70552042 ], [ 19.60443272, 48.70552176 ], [ 19.60447565, 48.70556499 ], [ 19.60439029, 48.70569913 ], [ 19.60440081, 48.70572386 ], [ 19.60442241, 48.70580083 ], [ 19.60441689, 48.70588856 ], [ 19.604396, 48.70599849 ], [ 19.60434622, 48.70616526 ], [ 19.60430218, 48.70632255 ], [ 19.60427245, 48.70647319 ], [ 19.60425342, 48.70667452 ], [ 19.60425577, 48.70679551 ], [ 19.60426543, 48.70693531 ], [ 19.60427976, 48.70704711 ], [ 19.6043322, 48.70718154 ], [ 19.60439571, 48.7073209 ], [ 19.60444636, 48.70741595 ], [ 19.60452109, 48.70753372 ], [ 19.60459134, 48.70761578 ], [ 19.60466028, 48.70768281 ], [ 19.6047572, 48.70775715 ], [ 19.60494528, 48.70787203 ], [ 19.60523128, 48.70802921 ], [ 19.60559941, 48.70821939 ], [ 19.6059358, 48.70838597 ], [ 19.6066241, 48.70870728 ], [ 19.60716758, 48.7089538 ], [ 19.60749755, 48.70910079 ], [ 19.60790371, 48.70927502 ], [ 19.60851095, 48.70952676 ], [ 19.6089067, 48.70968709 ], [ 19.60917782, 48.70979995 ], [ 19.60945929, 48.7099313 ], [ 19.60971261, 48.71006887 ], [ 19.60982477, 48.7101356 ], [ 19.60999453, 48.71024477 ], [ 19.61016947, 48.71036708 ], [ 19.61028611, 48.71046826 ], [ 19.6103548, 48.71054042 ], [ 19.61041344, 48.710615 ], [ 19.61046421, 48.71068139 ], [ 19.61054397, 48.71080597 ], [ 19.61065459, 48.71101839 ], [ 19.61072242, 48.71115433 ], [ 19.61110114, 48.71105354 ], [ 19.61123911, 48.71155656 ], [ 19.61158402, 48.71219008 ], [ 19.61192704, 48.71239182 ], [ 19.61214078, 48.71277585 ], [ 19.61288131, 48.71326913 ], [ 19.61302129, 48.71344664 ], [ 19.61334094, 48.71368617 ], [ 19.61350352, 48.71387434 ], [ 19.61370058, 48.71403856 ], [ 19.61405138, 48.71423109 ], [ 19.61481945, 48.71479321 ], [ 19.61520055, 48.71532081 ], [ 19.61531747, 48.71562167 ], [ 19.61524748, 48.7157878 ], [ 19.61540146, 48.71613874 ], [ 19.61620781, 48.71680174 ], [ 19.61646952, 48.71686502 ], [ 19.61653559, 48.71700511 ], [ 19.61700162, 48.71732759 ], [ 19.61750315, 48.71764536 ], [ 19.61850193, 48.71827519 ], [ 19.61855977, 48.71822552 ], [ 19.61862729, 48.71826039 ], [ 19.61856606, 48.7183191 ], [ 19.61917566, 48.71865661 ], [ 19.61968484, 48.71886339 ], [ 19.61998934, 48.7189002 ], [ 19.62104665, 48.71881412 ], [ 19.62119494, 48.71869308 ], [ 19.62152723, 48.71873655 ], [ 19.62177904, 48.71871888 ], [ 19.62180579, 48.71872369 ], [ 19.6219959, 48.71827326 ], [ 19.62182325, 48.71814144 ], [ 19.6221105, 48.71756008 ], [ 19.62240906, 48.71761212 ], [ 19.62251983, 48.71749687 ], [ 19.62245399, 48.71726187 ], [ 19.62262799, 48.71701281 ], [ 19.62269153, 48.71677013 ], [ 19.62272371, 48.71651053 ], [ 19.62292627, 48.71643258 ], [ 19.62296366, 48.71595696 ], [ 19.62310379, 48.71563723 ], [ 19.62312315, 48.71510915 ], [ 19.62301222, 48.71497732 ], [ 19.62284241, 48.71493964 ], [ 19.62286803, 48.71480468 ], [ 19.6227384, 48.71468904 ], [ 19.62296721, 48.71463256 ], [ 19.6229711, 48.71433545 ], [ 19.62317688, 48.71412956 ], [ 19.62323405, 48.71358749 ], [ 19.62330463, 48.71333855 ], [ 19.62349407, 48.71271438 ], [ 19.62351952, 48.71238776 ], [ 19.6235777, 48.71218657 ], [ 19.62363167, 48.71208697 ], [ 19.62368834, 48.71191095 ], [ 19.62368092, 48.71171582 ], [ 19.62392763, 48.71157523 ], [ 19.62394452, 48.71140057 ], [ 19.62397754, 48.71126108 ], [ 19.62370876, 48.71114493 ], [ 19.62352909, 48.71081818 ], [ 19.62347887, 48.71064843 ], [ 19.62359905, 48.7104549 ], [ 19.62358836, 48.71027684 ], [ 19.62356068, 48.71011838 ], [ 19.62346375, 48.70994193 ], [ 19.62321029, 48.70964529 ], [ 19.62296033, 48.70951187 ], [ 19.62299959, 48.70932101 ], [ 19.62299425, 48.70916121 ], [ 19.6230752, 48.70899413 ], [ 19.6231625, 48.70879173 ], [ 19.62332333, 48.70867558 ], [ 19.62344743, 48.70852199 ], [ 19.62353339, 48.70835378 ], [ 19.6237391, 48.70824091 ], [ 19.62408989, 48.70799937 ], [ 19.62414173, 48.707861 ], [ 19.62408937, 48.70766041 ], [ 19.62349435, 48.7073609 ], [ 19.62311534, 48.70739366 ], [ 19.62291577, 48.70729082 ], [ 19.62274379, 48.70717525 ], [ 19.62256159, 48.70678465 ], [ 19.62234276, 48.70665335 ], [ 19.62150232, 48.70645318 ], [ 19.62195185, 48.70625009 ], [ 19.62138972, 48.70550981 ], [ 19.62161592, 48.70507488 ], [ 19.62126459, 48.70482439 ], [ 19.62089921, 48.70423956 ], [ 19.62100322, 48.70398337 ], [ 19.62095969, 48.70380437 ], [ 19.62086854, 48.70367243 ], [ 19.62055301, 48.70337605 ], [ 19.6204095, 48.7031919 ], [ 19.61959883, 48.702583 ], [ 19.61946912, 48.70224118 ], [ 19.61883485, 48.7016771 ], [ 19.61895388, 48.70160567 ], [ 19.61896332, 48.70159997 ], [ 19.61924075, 48.70172409 ], [ 19.61968835, 48.70211451 ], [ 19.62004127, 48.7023639 ], [ 19.62048471, 48.70299058 ], [ 19.62062436, 48.70313146 ], [ 19.62090727, 48.70328981 ], [ 19.62124139, 48.70355521 ], [ 19.62137073, 48.70370636 ], [ 19.62146044, 48.70385887 ], [ 19.62144968, 48.70411809 ], [ 19.62177054, 48.70473057 ], [ 19.621941, 48.70500364 ], [ 19.62225271, 48.70526461 ], [ 19.62274416, 48.70601549 ], [ 19.62296131, 48.70645157 ], [ 19.62313524, 48.70657056 ], [ 19.62328374, 48.70673419 ], [ 19.62345599, 48.7068669 ], [ 19.62381186, 48.70707621 ], [ 19.6240836, 48.70715139 ], [ 19.62432431, 48.7072357 ], [ 19.62452002, 48.70731123 ], [ 19.6247993, 48.70730526 ], [ 19.62485492, 48.70763832 ], [ 19.62473397, 48.70776673 ], [ 19.62451395, 48.70797901 ], [ 19.62434813, 48.70810657 ], [ 19.62415266, 48.7082034 ], [ 19.62395384, 48.70831288 ], [ 19.62364818, 48.70858035 ], [ 19.62348509, 48.70894077 ], [ 19.62343019, 48.70897526 ], [ 19.62343848, 48.70909047 ], [ 19.62330963, 48.70928631 ], [ 19.62335979, 48.70944479 ], [ 19.62347706, 48.70959827 ], [ 19.62354979, 48.7097703 ], [ 19.62374617, 48.70990166 ], [ 19.62386012, 48.71006094 ], [ 19.62386757, 48.7104067 ], [ 19.62410788, 48.71105611 ], [ 19.62431249, 48.71129141 ], [ 19.62428304, 48.7114399 ], [ 19.62419346, 48.7115956 ], [ 19.6241452, 48.71174423 ], [ 19.6240471, 48.71191252 ], [ 19.62400056, 48.71206691 ], [ 19.62392164, 48.71224878 ], [ 19.6237871, 48.71239785 ], [ 19.62374073, 48.71257045 ], [ 19.62376188, 48.71276323 ], [ 19.62371058, 48.71309219 ], [ 19.62358801, 48.71338044 ], [ 19.62367632, 48.71437635 ], [ 19.62353109, 48.71480925 ], [ 19.62356091, 48.71538498 ], [ 19.62362516, 48.71552165 ], [ 19.62342417, 48.71569558 ], [ 19.62336911, 48.71603987 ], [ 19.62321527, 48.7162546 ], [ 19.62316166, 48.71657949 ], [ 19.62314001, 48.7168493 ], [ 19.62299605, 48.71714398 ], [ 19.62291386, 48.71795805 ], [ 19.62321164, 48.71811832 ], [ 19.62313166, 48.7184148 ], [ 19.6233843, 48.7186656 ], [ 19.6234346, 48.71901718 ], [ 19.62329752, 48.71941574 ], [ 19.62355619, 48.71982763 ], [ 19.62395726, 48.72019285 ], [ 19.62414376, 48.72040867 ], [ 19.62431856, 48.72076856 ], [ 19.6243059, 48.72094575 ], [ 19.62440443, 48.72128552 ], [ 19.62482808, 48.72176254 ], [ 19.62483394, 48.72202187 ], [ 19.62519997, 48.7225703 ], [ 19.62556761, 48.72288875 ], [ 19.62664647, 48.72318183 ], [ 19.627234, 48.723756 ], [ 19.62761093, 48.72389161 ], [ 19.62797368, 48.72421939 ], [ 19.62865405, 48.72476546 ], [ 19.62889526, 48.72516366 ], [ 19.62921779, 48.72546538 ], [ 19.62942986, 48.72544221 ], [ 19.62994979, 48.72621452 ], [ 19.63052584, 48.72649167 ], [ 19.63105275, 48.72693933 ], [ 19.63105194, 48.72704386 ], [ 19.63155298, 48.7273682 ], [ 19.63206495, 48.72761407 ], [ 19.63282648, 48.72759948 ], [ 19.63340445, 48.72748045 ], [ 19.6337842, 48.7275161 ], [ 19.63381885, 48.72719748 ], [ 19.63395787, 48.72706717 ], [ 19.63436715, 48.72693351 ], [ 19.63474564, 48.72673212 ], [ 19.63521275, 48.72662432 ], [ 19.63596363, 48.72622252 ], [ 19.63618399, 48.72585735 ], [ 19.63609169, 48.72536184 ], [ 19.63596177, 48.7250085 ], [ 19.63580418, 48.72465653 ], [ 19.63607375, 48.72401252 ], [ 19.63628206, 48.72364654 ], [ 19.63633375, 48.72330912 ], [ 19.63627612, 48.72318042 ], [ 19.63606191, 48.72294074 ], [ 19.63600316, 48.72271951 ], [ 19.6360178, 48.72245497 ], [ 19.6358881, 48.7222666 ], [ 19.63520391, 48.72198803 ], [ 19.63512211, 48.7215404 ], [ 19.63510055, 48.72135104 ], [ 19.63522086, 48.7211786 ], [ 19.63532069, 48.72109268 ], [ 19.63566142, 48.72094674 ], [ 19.63576292, 48.72100106 ], [ 19.63588354, 48.72106823 ], [ 19.63552509, 48.72132037 ], [ 19.63560559, 48.72150879 ], [ 19.63608407, 48.72202067 ], [ 19.63631712, 48.72219098 ], [ 19.63647903, 48.72256189 ], [ 19.63643551, 48.72308897 ], [ 19.63664489, 48.72354684 ], [ 19.63657282, 48.72378959 ], [ 19.63646608, 48.72392289 ], [ 19.63651194, 48.72409054 ], [ 19.6362808, 48.72465093 ], [ 19.63641123, 48.72482031 ], [ 19.63658605, 48.72527383 ], [ 19.63678169, 48.72617061 ], [ 19.63628046, 48.72637063 ], [ 19.6358495, 48.72653243 ], [ 19.63551153, 48.72678505 ], [ 19.63450882, 48.72724672 ], [ 19.63429145, 48.72741561 ], [ 19.63410994, 48.7276465 ], [ 19.63422392, 48.72776646 ], [ 19.63456137, 48.7285254 ], [ 19.63482183, 48.72884558 ], [ 19.6351812, 48.72900678 ], [ 19.63577409, 48.72919615 ], [ 19.63601742, 48.72887546 ], [ 19.63688203, 48.72917079 ], [ 19.63665591, 48.72948053 ], [ 19.63687975, 48.72954982 ], [ 19.6368049, 48.72968815 ], [ 19.63808387, 48.7303605 ], [ 19.63863189, 48.7306487 ], [ 19.63884755, 48.73076197 ], [ 19.63919708, 48.73078705 ], [ 19.63979469, 48.73045685 ], [ 19.64051495, 48.73099734 ], [ 19.64105464, 48.73131111 ], [ 19.64132211, 48.7313179 ], [ 19.64196557, 48.73166554 ], [ 19.6423308, 48.73177803 ], [ 19.64266484, 48.73205507 ], [ 19.64356357, 48.73239586 ], [ 19.64368803, 48.73261193 ], [ 19.64417055, 48.73304102 ], [ 19.64440295, 48.73334063 ], [ 19.64501209, 48.73369518 ], [ 19.64537735, 48.73381686 ], [ 19.64550519, 48.73418604 ], [ 19.64579017, 48.73420298 ], [ 19.64610839, 48.73452301 ], [ 19.64651022, 48.7347718 ], [ 19.64649429, 48.73494452 ], [ 19.64636892, 48.73496575 ], [ 19.6466002, 48.73509971 ], [ 19.6467086, 48.73517885 ], [ 19.64664363, 48.73495663 ], [ 19.64668726, 48.7349484 ], [ 19.64668055, 48.73490222 ], [ 19.64642769, 48.73455609 ], [ 19.6459191, 48.73420011 ], [ 19.64564219, 48.73398757 ], [ 19.6456007, 48.73392441 ], [ 19.64549725, 48.73388083 ], [ 19.64543703, 48.7338089 ], [ 19.64525425, 48.73374156 ], [ 19.64498041, 48.73345795 ], [ 19.64441017, 48.73302447 ], [ 19.64385492, 48.73257904 ], [ 19.64328061, 48.73198212 ], [ 19.64306673, 48.73188328 ], [ 19.64305363, 48.73177723 ], [ 19.64279997, 48.73152426 ], [ 19.64266745, 48.73145593 ], [ 19.64266855, 48.7314 ], [ 19.64254648, 48.73126571 ], [ 19.64227224, 48.73118948 ], [ 19.64204519, 48.73097205 ], [ 19.64198497, 48.73089093 ], [ 19.64175881, 48.73082416 ], [ 19.64137155, 48.73057988 ], [ 19.64127705, 48.73054472 ], [ 19.64106489, 48.73045577 ], [ 19.64089012, 48.73032119 ], [ 19.64074387, 48.73007069 ], [ 19.64070861, 48.72978102 ], [ 19.640899, 48.72939566 ], [ 19.64083208, 48.72926177 ], [ 19.64074036, 48.72916101 ], [ 19.64065921, 48.72911662 ], [ 19.64063914, 48.72910644 ], [ 19.64060811, 48.72909008 ], [ 19.64058903, 48.72907949 ], [ 19.64049266, 48.72903081 ], [ 19.64011943, 48.7288425 ], [ 19.63995292, 48.72879473 ], [ 19.63963614, 48.72871487 ], [ 19.63915731, 48.72855986 ], [ 19.6388869, 48.728481 ], [ 19.63818195, 48.72829887 ], [ 19.63804063, 48.72824069 ], [ 19.63759828, 48.728102 ], [ 19.63752402, 48.72814842 ], [ 19.63751345, 48.72814127 ], [ 19.63749649, 48.72812987 ], [ 19.63747866, 48.72812042 ], [ 19.63752849, 48.72808101 ], [ 19.63697998, 48.72790807 ], [ 19.63674041, 48.72774253 ], [ 19.63664117, 48.72762359 ], [ 19.63656441, 48.72749277 ], [ 19.63652712, 48.72736498 ], [ 19.63653594, 48.72724865 ], [ 19.63627039, 48.72724193 ], [ 19.63642529, 48.72700606 ], [ 19.63670778, 48.72684641 ], [ 19.6368028, 48.72673719 ], [ 19.6370019, 48.72666385 ], [ 19.63728582, 48.72659783 ], [ 19.63748878, 48.72653069 ], [ 19.63750108, 48.72636448 ], [ 19.63769596, 48.72633881 ], [ 19.63776721, 48.72611999 ], [ 19.63773573, 48.7259675 ], [ 19.63766987, 48.72576902 ], [ 19.63764367, 48.72520816 ], [ 19.63760383, 48.72470455 ], [ 19.63756827, 48.72457585 ], [ 19.63757981, 48.72450859 ], [ 19.63751515, 48.72444835 ], [ 19.63760048, 48.72430733 ], [ 19.637778, 48.72406724 ], [ 19.63781935, 48.72387944 ], [ 19.63783347, 48.72368095 ], [ 19.63777818, 48.72355867 ], [ 19.63785307, 48.72332019 ], [ 19.63785633, 48.72315051 ], [ 19.63782097, 48.72300397 ], [ 19.63785399, 48.72295966 ], [ 19.63773814, 48.72287522 ], [ 19.63774411, 48.72281708 ], [ 19.63785829, 48.72276389 ], [ 19.63776961, 48.72270672 ], [ 19.63781876, 48.72236603 ], [ 19.63772733, 48.72205968 ], [ 19.63764, 48.72194425 ], [ 19.63755812, 48.72159136 ], [ 19.63748095, 48.72152957 ], [ 19.63747852, 48.72129184 ], [ 19.63746484, 48.72117963 ], [ 19.63753414, 48.72104213 ], [ 19.63759269, 48.72100925 ], [ 19.63752379, 48.72091339 ], [ 19.63763454, 48.72067869 ], [ 19.63777799, 48.72063096 ], [ 19.63780085, 48.72045477 ], [ 19.63751436, 48.72026891 ], [ 19.63746787, 48.72010736 ], [ 19.63735561, 48.7201061 ], [ 19.63700417, 48.71995842 ], [ 19.63664775, 48.71988443 ], [ 19.63653284, 48.7198652 ], [ 19.63627949, 48.71972022 ], [ 19.6361471, 48.7195859 ], [ 19.63599165, 48.71928892 ], [ 19.63591822, 48.7191139 ], [ 19.63509475, 48.71805114 ], [ 19.63502663, 48.71796767 ], [ 19.63487799, 48.71780071 ], [ 19.63475019, 48.71763253 ], [ 19.63474301, 48.7174942 ], [ 19.63468433, 48.71729505 ], [ 19.63466203, 48.71713287 ], [ 19.63471157, 48.71684025 ], [ 19.6347727, 48.71667218 ], [ 19.63483928, 48.71649877 ], [ 19.63493855, 48.71640895 ], [ 19.63498298, 48.7163199 ], [ 19.63520122, 48.71612753 ], [ 19.63549661, 48.71588301 ], [ 19.63565181, 48.71573531 ], [ 19.63568383, 48.71566103 ], [ 19.63579942, 48.71553165 ], [ 19.63591841, 48.71549914 ], [ 19.63630448, 48.71524824 ], [ 19.63643859, 48.71524625 ], [ 19.63704133, 48.71479561 ], [ 19.63721678, 48.71461655 ], [ 19.63729338, 48.71460548 ], [ 19.637545, 48.71441947 ], [ 19.63778968, 48.71426524 ], [ 19.63793637, 48.71415267 ], [ 19.63787479, 48.71405318 ], [ 19.63805389, 48.71389691 ], [ 19.63823539, 48.71381402 ], [ 19.63839122, 48.71370664 ], [ 19.63868733, 48.71366839 ], [ 19.63893736, 48.71367558 ], [ 19.63916795, 48.713636 ], [ 19.63933906, 48.71362918 ], [ 19.63950935, 48.7136555 ], [ 19.63970087, 48.7137099 ], [ 19.63988639, 48.71378836 ], [ 19.63998792, 48.7138874 ], [ 19.64021159, 48.71389402 ], [ 19.64057723, 48.71384195 ], [ 19.64071143, 48.71397039 ], [ 19.64073032, 48.7140704 ], [ 19.64078594, 48.71416953 ], [ 19.64093722, 48.71419003 ], [ 19.64112818, 48.71427514 ], [ 19.64117976, 48.71436453 ], [ 19.6414961, 48.71445041 ], [ 19.64169102, 48.71451956 ], [ 19.64196715, 48.71466411 ], [ 19.64216253, 48.71473013 ], [ 19.64250026, 48.7146301 ], [ 19.64280378, 48.71469764 ], [ 19.64283729, 48.71464443 ], [ 19.64316811, 48.71444574 ], [ 19.64353861, 48.71413373 ], [ 19.6436447, 48.714037 ], [ 19.64376088, 48.71397209 ], [ 19.64404774, 48.71388185 ], [ 19.64412792, 48.71387175 ], [ 19.64428486, 48.71384896 ], [ 19.64439179, 48.71382636 ], [ 19.64465288, 48.71372306 ], [ 19.64488729, 48.71380831 ], [ 19.64545911, 48.71374069 ], [ 19.64568174, 48.71374276 ], [ 19.64604123, 48.71366947 ], [ 19.6460725, 48.71344021 ], [ 19.64615218, 48.71340971 ], [ 19.64619989, 48.7131874 ], [ 19.6461127, 48.71303602 ], [ 19.64586519, 48.71274511 ], [ 19.64581081, 48.71262711 ], [ 19.64575048, 48.71238913 ], [ 19.64577199, 48.71226841 ], [ 19.6458196, 48.71214272 ], [ 19.64590091, 48.71202586 ], [ 19.64601452, 48.71187564 ], [ 19.64619809, 48.71175246 ], [ 19.64637665, 48.71167151 ], [ 19.64658406, 48.71162132 ], [ 19.64682963, 48.71161747 ], [ 19.64715763, 48.71162679 ], [ 19.6473548, 48.71165664 ], [ 19.64769802, 48.71171666 ], [ 19.64806279, 48.7116675 ], [ 19.6482689, 48.71162871 ], [ 19.64851808, 48.71154046 ], [ 19.64871886, 48.7114048 ], [ 19.64880003, 48.71131046 ], [ 19.64893935, 48.71123756 ], [ 19.64911352, 48.71099325 ], [ 19.64950156, 48.71073546 ], [ 19.64980977, 48.71040856 ], [ 19.64994941, 48.71021273 ], [ 19.65014227, 48.71002533 ], [ 19.65014087, 48.70980893 ], [ 19.65024433, 48.70980681 ], [ 19.65023871, 48.70964223 ], [ 19.65023446, 48.70954405 ], [ 19.65007864, 48.70939915 ], [ 19.64924724, 48.70888996 ], [ 19.64894442, 48.70872422 ], [ 19.64868636, 48.70854164 ], [ 19.64854023, 48.70832208 ], [ 19.64846112, 48.708157 ], [ 19.64838816, 48.70797182 ], [ 19.64836997, 48.70786085 ], [ 19.648351, 48.70773624 ], [ 19.64838209, 48.70759233 ], [ 19.64841533, 48.70741804 ], [ 19.64853256, 48.70721102 ], [ 19.64862278, 48.70709744 ], [ 19.6487051, 48.70689219 ], [ 19.64895149, 48.70671124 ], [ 19.64926882, 48.70659027 ], [ 19.64953579, 48.70650228 ], [ 19.64986417, 48.70646888 ], [ 19.64995271, 48.70645807 ], [ 19.65022651, 48.70641771 ], [ 19.65050595, 48.70639942 ], [ 19.65093522, 48.70631979 ], [ 19.65110743, 48.70631652 ], [ 19.65136618, 48.70624231 ], [ 19.65158964, 48.70612686 ], [ 19.65199348, 48.70576476 ], [ 19.65229412, 48.70555794 ], [ 19.65242698, 48.70547339 ], [ 19.65274315, 48.70534903 ], [ 19.65287352, 48.70530205 ], [ 19.65322699, 48.70518314 ], [ 19.6534883, 48.70511571 ], [ 19.65384091, 48.70509429 ], [ 19.65402404, 48.70503886 ], [ 19.6543373, 48.70484162 ], [ 19.65456893, 48.70459835 ], [ 19.65489762, 48.70417437 ], [ 19.65489631, 48.70414862 ], [ 19.65475492, 48.70414616 ], [ 19.65460301, 48.70400837 ], [ 19.65442721, 48.70375387 ], [ 19.65420977, 48.70373475 ], [ 19.65418229, 48.70358406 ], [ 19.65394705, 48.70333293 ], [ 19.65407238, 48.70323804 ], [ 19.65413348, 48.70298298 ], [ 19.65445855, 48.70292715 ], [ 19.65546695, 48.70296496 ], [ 19.65572539, 48.70292138 ], [ 19.65587935, 48.70263442 ], [ 19.65588393, 48.70240062 ], [ 19.65577269, 48.70206086 ], [ 19.65541261, 48.70137804 ], [ 19.6552375, 48.70099845 ], [ 19.65511989, 48.70078757 ], [ 19.65507114, 48.70061313 ], [ 19.65502931, 48.70042836 ], [ 19.65500987, 48.70024703 ], [ 19.65497811, 48.69998366 ], [ 19.65514107, 48.69968457 ], [ 19.65531608, 48.69944075 ], [ 19.65548566, 48.69923931 ], [ 19.65633127, 48.69841015 ], [ 19.65696397, 48.69776777 ], [ 19.65713008, 48.69755491 ], [ 19.65722324, 48.69726577 ], [ 19.65722127, 48.69693343 ], [ 19.65711878, 48.69654538 ], [ 19.65709839, 48.69629072 ], [ 19.65689283, 48.69540733 ], [ 19.65679804, 48.69512779 ], [ 19.65670587, 48.69471226 ], [ 19.65657755, 48.69440914 ], [ 19.65607062, 48.69442644 ], [ 19.65563474, 48.69391545 ], [ 19.65567142, 48.69373519 ], [ 19.65550587, 48.69364845 ], [ 19.65534661, 48.69347753 ], [ 19.65542718, 48.69338072 ], [ 19.65595286, 48.69321328 ], [ 19.65612846, 48.69313515 ], [ 19.6562318, 48.69303937 ], [ 19.65637387, 48.6926539 ], [ 19.6568647, 48.69264876 ], [ 19.6567788, 48.69220521 ], [ 19.65668169, 48.69184462 ], [ 19.6566372, 48.69161521 ], [ 19.65664413, 48.69132508 ], [ 19.65650996, 48.69025641 ], [ 19.65638778, 48.69001458 ], [ 19.65626821, 48.68991097 ], [ 19.6554191, 48.68956832 ], [ 19.65481, 48.68953335 ], [ 19.65344687, 48.68947754 ], [ 19.6529088, 48.68948694 ], [ 19.65191152, 48.68944951 ], [ 19.65182328, 48.68940183 ], [ 19.65146207, 48.68930342 ], [ 19.65115956, 48.68918762 ], [ 19.65096026, 48.68903175 ], [ 19.65090266, 48.68892677 ], [ 19.6507809, 48.68874093 ], [ 19.6507158, 48.68853898 ], [ 19.65066296, 48.68776365 ], [ 19.65064787, 48.68753068 ], [ 19.65058912, 48.68722814 ], [ 19.65048515, 48.68713595 ], [ 19.65048315, 48.6871063 ], [ 19.65051059, 48.68706967 ], [ 19.65036571, 48.68678788 ], [ 19.65009801, 48.68644252 ], [ 19.64986895, 48.68619986 ], [ 19.64944564, 48.68589051 ], [ 19.64897331, 48.68558266 ], [ 19.64897837, 48.68550392 ], [ 19.64882037, 48.68545419 ], [ 19.64859981, 48.68530809 ], [ 19.64847782, 48.68509817 ], [ 19.64845061, 48.68511786 ], [ 19.64841063, 48.68509885 ], [ 19.64846828, 48.68505835 ], [ 19.64833038, 48.68483492 ], [ 19.64831452, 48.6847438 ], [ 19.64737998, 48.68450947 ], [ 19.64740576, 48.6844625 ], [ 19.64454069, 48.68397044 ], [ 19.64511798, 48.68298382 ], [ 19.64502159, 48.68297191 ], [ 19.64434448, 48.68282701 ], [ 19.64421549, 48.68268681 ], [ 19.64401932, 48.68262716 ], [ 19.64397664, 48.68264246 ], [ 19.64375197, 48.68268807 ], [ 19.64352172, 48.68264473 ], [ 19.64341986, 48.68258138 ], [ 19.64320843, 48.68245001 ], [ 19.64054749, 48.68271664 ], [ 19.64010426, 48.68355143 ], [ 19.63912388, 48.6832973 ], [ 19.63839061, 48.68286256 ], [ 19.63670773, 48.68270868 ], [ 19.63463387, 48.68272874 ], [ 19.6341635, 48.68231932 ], [ 19.63168712, 48.68177466 ], [ 19.63143791, 48.68124151 ], [ 19.63051831, 48.68116907 ], [ 19.62976035, 48.68129618 ], [ 19.62860156, 48.68142514 ], [ 19.62753131, 48.68176938 ], [ 19.62692465, 48.68220951 ], [ 19.62682619, 48.68248262 ], [ 19.62660782, 48.68257535 ], [ 19.62618672, 48.68266309 ], [ 19.62577427, 48.68291564 ], [ 19.62479579, 48.68342986 ], [ 19.62411652, 48.68347305 ], [ 19.62298025, 48.68317876 ], [ 19.61908879, 48.68334546 ], [ 19.61836806, 48.68334564 ], [ 19.61849236, 48.68339317 ], [ 19.61728376, 48.68371015 ], [ 19.61638968, 48.68387989 ], [ 19.61590629, 48.68403275 ], [ 19.61526602, 48.68422178 ], [ 19.61386891, 48.6846355 ], [ 19.61324463, 48.68525957 ], [ 19.61209248, 48.68575835 ], [ 19.61102109, 48.68607057 ], [ 19.60994764, 48.68614786 ], [ 19.6087454, 48.68689801 ], [ 19.60787082, 48.68716285 ], [ 19.60708592, 48.68702836 ], [ 19.60638429, 48.68684561 ], [ 19.60589597, 48.68687417 ], [ 19.60517787, 48.68708703 ], [ 19.60493524, 48.68660856 ], [ 19.60440969, 48.68611844 ], [ 19.60427254, 48.68594096 ], [ 19.60357665, 48.6853391 ], [ 19.60323408, 48.6847344 ], [ 19.60273144, 48.68468702 ], [ 19.60251484, 48.68465539 ], [ 19.60180419, 48.68470397 ], [ 19.60119106, 48.6847008 ], [ 19.60062406, 48.68457928 ], [ 19.60014439, 48.68456656 ], [ 19.59991162, 48.68462416 ], [ 19.59978229, 48.68459513 ], [ 19.59957564, 48.68448174 ], [ 19.59912326, 48.68439723 ], [ 19.59866107, 48.68442216 ], [ 19.59802682, 48.68432436 ], [ 19.59759677, 48.6841096 ], [ 19.59709263, 48.68406096 ], [ 19.59680892, 48.68407793 ], [ 19.59631702, 48.68387813 ], [ 19.59581111, 48.68376639 ], [ 19.59539364, 48.68362747 ], [ 19.59508839, 48.68362633 ], [ 19.59474046, 48.68371016 ], [ 19.59420508, 48.68392268 ], [ 19.59336373, 48.68399502 ], [ 19.59308743, 48.68408119 ], [ 19.59276125, 48.68412841 ], [ 19.5923886, 48.68426411 ], [ 19.59154428, 48.68442555 ], [ 19.59044742, 48.68452242 ], [ 19.58980185, 48.68421059 ], [ 19.58946088, 48.6841942 ], [ 19.58921376, 48.68411816 ], [ 19.58880887, 48.68411158 ], [ 19.58855385, 48.6840067 ], [ 19.58785845, 48.68327594 ], [ 19.58769502, 48.68313987 ], [ 19.58675215, 48.68301735 ], [ 19.58600667, 48.68289107 ], [ 19.58553973, 48.68293683 ], [ 19.58523292, 48.68317015 ], [ 19.5849885, 48.68330851 ], [ 19.5848021, 48.68354776 ], [ 19.58452852, 48.6836535 ], [ 19.58343706, 48.68435471 ], [ 19.58271207, 48.68456767 ], [ 19.58198826, 48.68467989 ], [ 19.58159318, 48.68479921 ], [ 19.58116748, 48.68495636 ], [ 19.5808012, 48.6851931 ], [ 19.57987742, 48.68568798 ], [ 19.57951465, 48.68592353 ], [ 19.57908251, 48.68629745 ], [ 19.57878058, 48.68676915 ], [ 19.57863751, 48.68701811 ], [ 19.57822529, 48.68725113 ], [ 19.57768884, 48.68747156 ], [ 19.57718871, 48.68785878 ], [ 19.57710767, 48.68809515 ], [ 19.57698694, 48.6882128 ], [ 19.57688528, 48.68842867 ], [ 19.57679726, 48.68848696 ], [ 19.57661615, 48.68848583 ], [ 19.57642812, 48.68860916 ], [ 19.57623323, 48.68877481 ], [ 19.5759607, 48.68886733 ], [ 19.57553474, 48.68885479 ], [ 19.57528975, 48.68889592 ], [ 19.57490677, 48.68905815 ], [ 19.57486539, 48.68921005 ], [ 19.57420486, 48.68958122 ], [ 19.57386503, 48.68959152 ], [ 19.57335104, 48.68980628 ], [ 19.57310612, 48.69008378 ], [ 19.57287839, 48.68995477 ], [ 19.57231434, 48.68995026 ], [ 19.57197271, 48.68992279 ], [ 19.57183135, 48.69001993 ], [ 19.57146212, 48.69017412 ], [ 19.57102751, 48.69046875 ], [ 19.57073775, 48.69053956 ], [ 19.57056349, 48.69072003 ], [ 19.57033753, 48.6907429 ], [ 19.5700977, 48.69085593 ], [ 19.56986137, 48.69108206 ], [ 19.56945605, 48.69129905 ], [ 19.56911272, 48.69142926 ], [ 19.56839513, 48.69150121 ], [ 19.56843654, 48.69162804 ], [ 19.56781035, 48.69171939 ], [ 19.56695475, 48.69206431 ], [ 19.56651487, 48.69207797 ], [ 19.56610768, 48.69207454 ], [ 19.5658179, 48.69211794 ], [ 19.56547455, 48.69211336 ], [ 19.56511405, 48.69226189 ], [ 19.56454128, 48.69227669 ], [ 19.56436884, 48.69219219 ], [ 19.56442401, 48.69249941 ], [ 19.56439981, 48.69265472 ], [ 19.56441705, 48.69314582 ], [ 19.56426701, 48.69341645 ], [ 19.56401853, 48.6935352 ], [ 19.5637787, 48.69380362 ], [ 19.563639, 48.6938938 ], [ 19.56292998, 48.6939772 ], [ 19.56291958, 48.69415422 ], [ 19.5632818, 48.69517176 ], [ 19.56347678, 48.69530542 ], [ 19.56338011, 48.69536935 ], [ 19.56347493, 48.69552467 ], [ 19.56379928, 48.69561384 ], [ 19.5639597, 48.69574061 ], [ 19.56379933, 48.69588673 ], [ 19.56334036, 48.69589247 ], [ 19.56338005, 48.6957257 ], [ 19.5631299, 48.69569031 ], [ 19.56293555, 48.69582793 ], [ 19.56270342, 48.69583915 ], [ 19.56252391, 48.69594148 ], [ 19.56295522, 48.69634655 ], [ 19.5628348, 48.69663593 ], [ 19.56275807, 48.69671104 ], [ 19.56266237, 48.69680493 ], [ 19.56211629, 48.69660485 ], [ 19.56147037, 48.69628464 ], [ 19.56085187, 48.695938 ], [ 19.56047995, 48.69587811 ], [ 19.55995775, 48.69611164 ], [ 19.55965508, 48.69617643 ], [ 19.55933912, 48.69651259 ], [ 19.55877153, 48.69678696 ], [ 19.5583906, 48.69683564 ], [ 19.55820433, 48.69695956 ], [ 19.55820033, 48.69719386 ], [ 19.55832672, 48.69738714 ], [ 19.55863781, 48.69767937 ], [ 19.55807266, 48.69781519 ], [ 19.55830877, 48.69802854 ], [ 19.55860341, 48.69804344 ], [ 19.55863381, 48.6981046 ], [ 19.55811904, 48.69839066 ], [ 19.5577926, 48.69851359 ], [ 19.55747979, 48.69866238 ], [ 19.55725473, 48.69859269 ], [ 19.55684931, 48.69859914 ], [ 19.55646334, 48.69869996 ], [ 19.55643214, 48.69877976 ], [ 19.55629065, 48.69881495 ], [ 19.55625757, 48.69875736 ], [ 19.55604758, 48.69872199 ], [ 19.55578588, 48.69876457 ], [ 19.55545286, 48.69881074 ], [ 19.55527062, 48.69874174 ], [ 19.55467303, 48.69900823 ], [ 19.55435398, 48.69932125 ], [ 19.55396827, 48.69937763 ], [ 19.55340834, 48.69955316 ], [ 19.55288108, 48.69994807 ], [ 19.55264611, 48.69978922 ], [ 19.55246556, 48.70001075 ], [ 19.55242211, 48.70016869 ], [ 19.55235296, 48.70022322 ], [ 19.55224023, 48.70031949 ], [ 19.55182161, 48.70079554 ], [ 19.55177607, 48.70088865 ], [ 19.55163074, 48.70110414 ], [ 19.55154219, 48.70125839 ], [ 19.55147123, 48.7013837 ], [ 19.551743, 48.70141957 ], [ 19.55177092, 48.70150964 ], [ 19.55183495, 48.70161128 ], [ 19.55200612, 48.70161415 ], [ 19.55220081, 48.70167741 ], [ 19.55236537, 48.70188723 ], [ 19.55255517, 48.70192557 ], [ 19.55270211, 48.70209023 ], [ 19.55293936, 48.70217508 ], [ 19.55314269, 48.70229788 ], [ 19.55317368, 48.70235852 ], [ 19.55323026, 48.70245982 ], [ 19.55314982, 48.70251537 ], [ 19.55302376, 48.70250961 ], [ 19.55286248, 48.7024825 ], [ 19.55287837, 48.70275962 ], [ 19.55278535, 48.702864 ], [ 19.55263063, 48.70284701 ], [ 19.55252797, 48.70290154 ], [ 19.55248854, 48.70299359 ], [ 19.55259573, 48.70303797 ], [ 19.55259885, 48.70315161 ], [ 19.55239427, 48.70318175 ], [ 19.55238402, 48.70327999 ], [ 19.5522293, 48.703263 ], [ 19.55173377, 48.7032947 ], [ 19.55154204, 48.70334517 ], [ 19.55143439, 48.70344878 ], [ 19.551533, 48.70354795 ], [ 19.55163798, 48.70355212 ], [ 19.55198803, 48.70402834 ], [ 19.55273101, 48.70436376 ], [ 19.55366543, 48.7047586 ], [ 19.554049, 48.70507047 ], [ 19.55490079, 48.7057353 ], [ 19.55578999, 48.70637875 ], [ 19.55617371, 48.70640592 ], [ 19.55700184, 48.70697942 ], [ 19.55727998, 48.70732955 ], [ 19.55846229, 48.70783113 ], [ 19.55957811, 48.70835535 ], [ 19.5618048, 48.70868316 ], [ 19.56296632, 48.70925956 ], [ 19.56320454, 48.70941151 ], [ 19.56387198, 48.70988115 ], [ 19.56504486, 48.71042875 ], [ 19.56523474, 48.71033464 ], [ 19.56631139, 48.71092615 ], [ 19.56687418, 48.71128409 ], [ 19.56693412, 48.71142538 ], [ 19.56703352, 48.71148472 ], [ 19.56764957, 48.71215565 ], [ 19.56819308, 48.71274483 ], [ 19.56841046, 48.71288004 ], [ 19.56889749, 48.7134571 ], [ 19.56907537, 48.71380046 ], [ 19.56939325, 48.71393214 ], [ 19.5696329, 48.71403131 ], [ 19.56961899, 48.71439559 ], [ 19.57008218, 48.71499391 ], [ 19.57036053, 48.715507 ], [ 19.57070769, 48.71608678 ], [ 19.57126673, 48.71658245 ], [ 19.57163553, 48.71724389 ], [ 19.57213447, 48.71774781 ], [ 19.57247166, 48.71855745 ], [ 19.57278129, 48.71874391 ], [ 19.57325455, 48.71877951 ], [ 19.57358611, 48.71896868 ], [ 19.57387181, 48.71935264 ], [ 19.5743596, 48.71964438 ], [ 19.57583733, 48.7197722 ], [ 19.57647638, 48.71973735 ], [ 19.57792439, 48.71927649 ], [ 19.57948503, 48.71878818 ], [ 19.58046273, 48.71863665 ], [ 19.5813667, 48.71851683 ], [ 19.58226437, 48.71866643 ], [ 19.58300938, 48.7187577 ], [ 19.58310811, 48.71876985 ], [ 19.58323094, 48.7187849 ], [ 19.58412409, 48.7191107 ], [ 19.58433915, 48.7191284 ], [ 19.58479251, 48.71923643 ], [ 19.58569359, 48.71950308 ], [ 19.58817988, 48.71976127 ], [ 19.58872139, 48.71999427 ], [ 19.58896769, 48.72014823 ], [ 19.58996945, 48.72053354 ], [ 19.59061136, 48.72086808 ], [ 19.59177922, 48.72125874 ], [ 19.5931888, 48.72186894 ], [ 19.59409322, 48.72264355 ], [ 19.59436192, 48.72266574 ], [ 19.59472188, 48.72303677 ], [ 19.59551058, 48.72318322 ], [ 19.59664667, 48.72301412 ] ], [ [ 19.64310951, 48.68266866 ], [ 19.64308548, 48.68261232 ], [ 19.64323579, 48.68258419 ], [ 19.64325984, 48.68264044 ], [ 19.64310951, 48.68266866 ] ], [ [ 19.58398335, 48.71348917 ], [ 19.58404592, 48.71343099 ], [ 19.58411057, 48.71346304 ], [ 19.58404998, 48.71352051 ], [ 19.58398335, 48.71348917 ] ], [ [ 19.63322502, 48.719272 ], [ 19.63319182, 48.71928619 ], [ 19.63312729, 48.71931493 ], [ 19.63268085, 48.71882322 ], [ 19.63236068, 48.71888714 ], [ 19.63215736, 48.71870348 ], [ 19.63217406, 48.71833428 ], [ 19.63202123, 48.71806113 ], [ 19.63169402, 48.71768854 ], [ 19.63167871, 48.717371 ], [ 19.63177185, 48.71670877 ], [ 19.63162891, 48.71651439 ], [ 19.63183963, 48.71607984 ], [ 19.63178896, 48.71582534 ], [ 19.63202424, 48.71574038 ], [ 19.63209157, 48.71552391 ], [ 19.63238264, 48.71525793 ], [ 19.63284311, 48.7145669 ], [ 19.63261009, 48.71435828 ], [ 19.63268528, 48.71419661 ], [ 19.63301812, 48.71416688 ], [ 19.63318272, 48.71409487 ], [ 19.63361569, 48.71373883 ], [ 19.63441211, 48.71328312 ], [ 19.63475532, 48.71298 ], [ 19.63480972, 48.71262017 ], [ 19.63469009, 48.71198271 ], [ 19.63468482, 48.71182184 ], [ 19.63476578, 48.71167414 ], [ 19.63518215, 48.71128849 ], [ 19.63497875, 48.71100648 ], [ 19.63477413, 48.71061823 ], [ 19.63460792, 48.71041704 ], [ 19.63492198, 48.70998515 ], [ 19.63486632, 48.70980164 ], [ 19.63501666, 48.70939222 ], [ 19.63506861, 48.70940222 ], [ 19.63512207, 48.70896933 ], [ 19.6354718, 48.70892989 ], [ 19.63580185, 48.70854235 ], [ 19.63589263, 48.70849397 ], [ 19.63600292, 48.70848766 ], [ 19.63623176, 48.70829244 ], [ 19.63628107, 48.70808679 ], [ 19.6364623, 48.70794539 ], [ 19.63664881, 48.70781893 ], [ 19.63678823, 48.70765492 ], [ 19.63673673, 48.70752506 ], [ 19.63685449, 48.70727219 ], [ 19.63686646, 48.70697652 ], [ 19.63724961, 48.70684899 ], [ 19.63764095, 48.70655136 ], [ 19.63765155, 48.70627159 ], [ 19.63768923, 48.70611157 ], [ 19.63771029, 48.70584669 ], [ 19.63781165, 48.70566465 ], [ 19.6378572, 48.70535751 ], [ 19.63783675, 48.70530729 ], [ 19.6379472, 48.7051747 ], [ 19.63805925, 48.70509672 ], [ 19.63805612, 48.7049043 ], [ 19.63805739, 48.70457219 ], [ 19.63803156, 48.70457572 ], [ 19.63796562, 48.70438886 ], [ 19.63802589, 48.70438283 ], [ 19.63831255, 48.70412565 ], [ 19.63837488, 48.70414594 ], [ 19.63865619, 48.70372321 ], [ 19.63915956, 48.70355853 ], [ 19.6392971, 48.70367541 ], [ 19.63937206, 48.70374125 ], [ 19.63930032, 48.70394931 ], [ 19.6391432, 48.70407232 ], [ 19.638806, 48.70428982 ], [ 19.63873106, 48.70451045 ], [ 19.63883616, 48.7045122 ], [ 19.63885376, 48.70468444 ], [ 19.63881842, 48.70475541 ], [ 19.63873791, 48.70480606 ], [ 19.6385934, 48.70497462 ], [ 19.63875048, 48.70528203 ], [ 19.63868662, 48.70542384 ], [ 19.63848427, 48.70552309 ], [ 19.63834289, 48.70566646 ], [ 19.63846906, 48.70583709 ], [ 19.63847213, 48.70609386 ], [ 19.63844995, 48.70641476 ], [ 19.63828152, 48.70660279 ], [ 19.63834703, 48.70689464 ], [ 19.6383049, 48.70726927 ], [ 19.6379933, 48.70775599 ], [ 19.63771465, 48.70767757 ], [ 19.63737751, 48.70803884 ], [ 19.63677938, 48.70880897 ], [ 19.63612428, 48.70941735 ], [ 19.63596406, 48.70942844 ], [ 19.63568934, 48.71026657 ], [ 19.63578817, 48.71061193 ], [ 19.63668607, 48.71112782 ], [ 19.63653774, 48.7114196 ], [ 19.63621953, 48.71149543 ], [ 19.63555033, 48.7120856 ], [ 19.63517255, 48.7123832 ], [ 19.63543212, 48.71273912 ], [ 19.63541225, 48.71310105 ], [ 19.63491697, 48.71369777 ], [ 19.63428297, 48.71400845 ], [ 19.63434011, 48.71423196 ], [ 19.63420585, 48.71448201 ], [ 19.63395811, 48.7144312 ], [ 19.63349912, 48.71478058 ], [ 19.63314083, 48.71526871 ], [ 19.63285186, 48.71566946 ], [ 19.63235401, 48.71650133 ], [ 19.632213, 48.71697994 ], [ 19.63233928, 48.71776067 ], [ 19.63242547, 48.71807653 ], [ 19.6328787, 48.71845163 ], [ 19.63298362, 48.71864628 ], [ 19.63318004, 48.71894087 ], [ 19.63322502, 48.719272 ] ], [ [ 19.64059234, 48.70318215 ], [ 19.64038502, 48.70323701 ], [ 19.64034748, 48.70317141 ], [ 19.640554, 48.70311778 ], [ 19.64059234, 48.70318215 ] ], [ [ 19.63720186, 48.70376138 ], [ 19.63703553, 48.70373524 ], [ 19.63695067, 48.70357484 ], [ 19.63699646, 48.70351353 ], [ 19.63700234, 48.70334614 ], [ 19.63706154, 48.70326298 ], [ 19.63712375, 48.7032062 ], [ 19.63721291, 48.70310582 ], [ 19.63722281, 48.70300937 ], [ 19.63741056, 48.70287989 ], [ 19.63753257, 48.70278848 ], [ 19.63769467, 48.7026355 ], [ 19.63777773, 48.70259452 ], [ 19.63793987, 48.7026614 ], [ 19.63823628, 48.70277623 ], [ 19.63857317, 48.70286151 ], [ 19.63880126, 48.70294929 ], [ 19.63894609, 48.70295264 ], [ 19.6390616, 48.70298028 ], [ 19.6391925, 48.70307559 ], [ 19.63936057, 48.70319492 ], [ 19.63925651, 48.70327597 ], [ 19.63899486, 48.70330152 ], [ 19.63887706, 48.70329622 ], [ 19.63865799, 48.70334605 ], [ 19.63852915, 48.70344833 ], [ 19.63830415, 48.70350159 ], [ 19.63810684, 48.70350389 ], [ 19.63801847, 48.70354093 ], [ 19.63792279, 48.70354032 ], [ 19.63786779, 48.70358256 ], [ 19.63778412, 48.7035751 ], [ 19.63766188, 48.70361432 ], [ 19.63754081, 48.70358651 ], [ 19.63747128, 48.70360574 ], [ 19.63748315, 48.70365468 ], [ 19.63746884, 48.70368388 ], [ 19.63740427, 48.70365492 ], [ 19.63731855, 48.70372183 ], [ 19.63726049, 48.70379385 ], [ 19.63720186, 48.70376138 ] ], [ [ 19.56102176, 48.69962409 ], [ 19.55986527, 48.69951676 ], [ 19.55935729, 48.69910638 ], [ 19.55937592, 48.69890142 ], [ 19.55958568, 48.69869978 ], [ 19.55975333, 48.69849711 ], [ 19.56014474, 48.69862379 ], [ 19.56029816, 48.69820737 ], [ 19.56025883, 48.69805025 ], [ 19.56058041, 48.69793602 ], [ 19.56081887, 48.6976706 ], [ 19.5626568, 48.69831133 ], [ 19.56308439, 48.69840314 ], [ 19.56334124, 48.6988007 ], [ 19.56291666, 48.69896901 ], [ 19.56261199, 48.69923069 ], [ 19.56203161, 48.69940812 ], [ 19.56128705, 48.69932726 ], [ 19.56102176, 48.69962409 ] ], [ [ 19.60907336, 48.69791955 ], [ 19.60903162, 48.69785158 ], [ 19.60908461, 48.69783821 ], [ 19.60912516, 48.69790575 ], [ 19.60907336, 48.69791955 ] ], [ [ 19.60267409, 48.70513601 ], [ 19.60219094, 48.7050074 ], [ 19.60154495, 48.70485465 ], [ 19.6010731, 48.70474061 ], [ 19.60123625, 48.70451417 ], [ 19.60170656, 48.70464571 ], [ 19.60240542, 48.7048206 ], [ 19.60280918, 48.70493714 ], [ 19.60267409, 48.70513601 ] ], [ [ 19.57078747, 48.71482059 ], [ 19.57082909, 48.71476885 ], [ 19.57086647, 48.71478407 ], [ 19.57087238, 48.71477965 ], [ 19.57092124, 48.71479711 ], [ 19.57087697, 48.71485207 ], [ 19.57078747, 48.71482059 ] ] ] } },
{ "type": "Feature", "properties": { "@featureType": "CadastralParcel", "areaValue": { "value": 1621, "@uom": "m2" }, "beginLifespanVersion": { "@nilReason": "http://inspire.ec.europa.eu/codelist/VoidReasonValue/Unpopulated", "@nil": "true" }, "endLifespanVersion": { "@nilReason": "http://inspire.ec.europa.eu/codelist/VoidReasonValue/Unpopulated", "@nil": "true" }, "inspireId": { "@dataType": "Identifier", "localId": "809713_10570/5.C", "namespace": "SK.ESKN.CP", "versionId": "20260703T06:07:46" }, "label": "10570/5", "nationalCadastralReference": "809713_10570/5.C", "referencePoint": { "type": "Point", "coordinates": [ 19.61885542, 48.71890067 ] }, "validFrom": "2026-06-30T16:00:00Z", "validTo": { "@nilReason": "http://inspire.ec.europa.eu/codelist/VoidReasonValue/Unpopulated", "@nil": "true" }, "administrativeUnit": { "@href": "#auAdmUnitS.969" } }, "geometry": { "type": "Polygon", "coordinates": [ [ [ 19.62121433, 48.71901802 ], [ 19.6208838, 48.71900374 ], [ 19.62041666, 48.71906064 ], [ 19.61989225, 48.71909278 ], [ 19.61934405, 48.71904515 ], [ 19.61870862, 48.71882087 ], [ 19.61828071, 48.71862389 ], [ 19.61814441, 48.71874358 ], [ 19.61810449, 48.71872907 ], [ 19.61795438, 48.71886499 ], [ 19.61812938, 48.71885504 ], [ 19.61835545, 48.71875391 ], [ 19.61866683, 48.71885748 ], [ 19.61886646, 48.71893635 ], [ 19.61930101, 48.71908215 ], [ 19.61951527, 48.71908506 ], [ 19.61976514, 48.71913915 ], [ 19.61985829, 48.71912758 ], [ 19.61994173, 48.71911106 ], [ 19.62002725, 48.71917351 ], [ 19.62043837, 48.71908389 ], [ 19.62052066, 48.71907858 ], [ 19.62050333, 48.71914766 ], [ 19.62065827, 48.71909831 ], [ 19.62067306, 48.71915307 ], [ 19.62087831, 48.71904514 ], [ 19.62110368, 48.71905801 ], [ 19.62113062, 48.71904246 ], [ 19.62116489, 48.71903778 ], [ 19.62121433, 48.71901802 ] ] ] } },
{ "type": "Feature", "properties": { "@featureType": "CadastralParcel", "areaValue": { "value": 14434, "@uom": "m2" }, "beginLifespanVersion": { "@nilReason": "http://inspire.ec.europa.eu/codelist/VoidReasonValue/Unpopulated", "@nil": "true" }, "endLifespanVersion": { "@nilReason": "http://inspire.ec.europa.eu/codelist/VoidReasonValue/Unpopulated", "@nil": "true" }, "inspireId": { "@dataType": "Identifier", "localId": "809713_10570/2.C", "namespace": "SK.ESKN.CP", "versionId": "20260703T06:07:46" }, "label": "10570/2", "nationalCadastralReference": "809713_10570/2.C", "referencePoint": { "type": "Point", "coordinates": [ 19.62021362, 48.71930595 ] }, "validFrom": "2026-06-30T16:00:00Z", "validTo": { "@nilReason": "http://inspire.ec.europa.eu/codelist/VoidReasonValue/Unpopulated", "@nil": "true" }, "administrativeUnit": { "@href": "#auAdmUnitS.969" } }, "geometry": { "type": "Polygon", "coordinates": [ [ [ 19.61795438, 48.71886499 ], [ 19.61783372, 48.71897429 ], [ 19.61832032, 48.71917546 ], [ 19.61874851, 48.71928114 ], [ 19.61912413, 48.7193391 ], [ 19.6194531, 48.71950602 ], [ 19.61978601, 48.71958711 ], [ 19.62038347, 48.71969618 ], [ 19.62043282, 48.71970778 ], [ 19.6212432, 48.7199029 ], [ 19.62147761, 48.71960717 ], [ 19.62134774, 48.71956525 ], [ 19.62155651, 48.71924718 ], [ 19.62163164, 48.71913284 ], [ 19.62145057, 48.71902849 ], [ 19.62121433, 48.71901802 ], [ 19.62116489, 48.71903778 ], [ 19.62113062, 48.71904246 ], [ 19.62110368, 48.71905801 ], [ 19.62087831, 48.71904514 ], [ 19.62067306, 48.71915307 ], [ 19.62065827, 48.71909831 ], [ 19.62050333, 48.71914766 ], [ 19.62052066, 48.71907858 ], [ 19.62043837, 48.71908389 ], [ 19.62002725, 48.71917351 ], [ 19.61994173, 48.71911106 ], [ 19.61985829, 48.71912758 ], [ 19.61976514, 48.71913915 ], [ 19.61951527, 48.71908506 ], [ 19.61930101, 48.71908215 ], [ 19.61886646, 48.71893635 ], [ 19.61866683, 48.71885748 ], [ 19.61835545, 48.71875391 ], [ 19.61812938, 48.71885504 ], [ 19.61795438, 48.71886499 ] ], [ [ 19.62050807, 48.71937936 ], [ 19.62046501, 48.71945873 ], [ 19.62026285, 48.71940977 ], [ 19.620306, 48.71933077 ], [ 19.62050807, 48.71937936 ] ] ] } },
{ "type": "Feature", "properties": { "@featureType": "CadastralParcel", "areaValue": { "value": 8645, "@uom": "m2" }, "beginLifespanVersion": { "@nilReason": "http://inspire.ec.europa.eu/codelist/VoidReasonValue/Unpopulated", "@nil": "true" }, "endLifespanVersion": { "@nilReason": "http://inspire.ec.europa.eu/codelist/VoidReasonValue/Unpopulated", "@nil": "true" }, "inspireId": { "@dataType": "Identifier", "localId": "809713_10613.C", "namespace": "SK.ESKN.CP", "versionId": "20260703T06:07:46" }, "label": "10613", "nationalCadastralReference": "809713_10613.C", "referencePoint": { "type": "Point", "coordinates": [ 19.61786811, 48.71829715 ] }, "validFrom": "2026-06-30T16:00:00Z", "validTo": { "@nilReason": "http://inspire.ec.europa.eu/codelist/VoidReasonValue/Unpopulated", "@nil": "true" }, "administrativeUnit": { "@href": "#auAdmUnitS.969" } }, "geometry": { "type": "Polygon", "coordinates": [ [ [ 19.61783372, 48.71897429 ], [ 19.61795438, 48.71886499 ], [ 19.61810449, 48.71872907 ], [ 19.61814441, 48.71874358 ], [ 19.61828071, 48.71862389 ], [ 19.61830443, 48.71859738 ], [ 19.61843904, 48.71848221 ], [ 19.61840604, 48.7184653 ], [ 19.61856606, 48.7183191 ], [ 19.61862729, 48.71826039 ], [ 19.61855977, 48.71822552 ], [ 19.61850193, 48.71827519 ], [ 19.61750315, 48.71764536 ], [ 19.61719617, 48.71785208 ], [ 19.61687062, 48.71807636 ], [ 19.61749974, 48.71857846 ], [ 19.61773706, 48.71880182 ], [ 19.61778272, 48.71891133 ], [ 19.61780588, 48.7189642 ], [ 19.61783372, 48.71897429 ] ] ] } },
{ "type": "Feature", "properties": { "@featureType": "CadastralParcel", "areaValue": { "value": 33899, "@uom": "m2" }, "beginLifespanVersion": { "@nilReason": "http://inspire.ec.europa.eu/codelist/VoidReasonValue/Unpopulated", "@nil": "true" }, "endLifespanVersion": { "@nilReason": "http://inspire.ec.europa.eu/codelist/VoidReasonValue/Unpopulated", "@nil": "true" }, "inspireId": { "@dataType": "Identifier", "localId": "809713_10615/1.C", "namespace": "SK.ESKN.CP", "versionId": "20260703T06:07:46" }, "label": "10615/1", "nationalCadastralReference": "809713_10615/1.C", "referencePoint": { "type": "Point", "coordinates": [ 19.6145203, 48.71783743 ] }, "validFrom": "2026-06-30T16:00:00Z", "validTo": { "@nilReason": "http://inspire.ec.europa.eu/codelist/VoidReasonValue/Unpopulated", "@nil": "true" }, "administrativeUnit": { "@href": "#auAdmUnitS.969" } }, "geometry": { "type": "Polygon", "coordinates": [ [ [ 19.61604657, 48.71762305 ], [ 19.61578759, 48.71736157 ], [ 19.61549621, 48.71704959 ], [ 19.61510927, 48.71727208 ], [ 19.61467172, 48.7174885 ], [ 19.61385796, 48.71765817 ], [ 19.6135381, 48.7176924 ], [ 19.61317351, 48.71776535 ], [ 19.61295867, 48.71788555 ], [ 19.612732, 48.71808877 ], [ 19.61184798, 48.71812319 ], [ 19.61137778, 48.7181014 ], [ 19.61116305, 48.71787328 ], [ 19.61033564, 48.71764316 ], [ 19.60976684, 48.71746538 ], [ 19.6083716, 48.71722489 ], [ 19.60797593, 48.71700787 ], [ 19.60775669, 48.71714679 ], [ 19.60774526, 48.71724822 ], [ 19.60772125, 48.71744906 ], [ 19.60779802, 48.71755521 ], [ 19.60890421, 48.71776244 ], [ 19.60977194, 48.71786594 ], [ 19.61036121, 48.71793521 ], [ 19.61074746, 48.71806021 ], [ 19.6104283, 48.71863541 ], [ 19.61074572, 48.71862885 ], [ 19.61094836, 48.71849756 ], [ 19.61182742, 48.71842406 ], [ 19.61257598, 48.71830825 ], [ 19.61265244, 48.71824328 ], [ 19.61267593, 48.71821892 ], [ 19.61313896, 48.71818215 ], [ 19.61347343, 48.71821493 ], [ 19.61355843, 48.71827186 ], [ 19.61359765, 48.71830635 ], [ 19.61385879, 48.71828002 ], [ 19.61421568, 48.71837952 ], [ 19.61438331, 48.71831678 ], [ 19.61435646, 48.71824949 ], [ 19.61461318, 48.7181988 ], [ 19.61489368, 48.71816315 ], [ 19.61519281, 48.71821758 ], [ 19.61513033, 48.71803348 ], [ 19.61546752, 48.71796595 ], [ 19.61581796, 48.71790462 ], [ 19.61594026, 48.71790365 ], [ 19.6160331, 48.71791622 ], [ 19.61598245, 48.71780892 ], [ 19.61604657, 48.71762305 ] ] ] } },
{ "type": "Feature", "properties": { "@featureType": "CadastralParcel", "areaValue": { "value": 20035, "@uom": "m2" }, "beginLifespanVersion": { "@nilReason": "http://inspire.ec.europa.eu/codelist/VoidReasonValue/Unpopulated", "@nil": "true" }, "endLifespanVersion": { "@nilReason": "http://inspire.ec.europa.eu/codelist/VoidReasonValue/Unpopulated", "@nil": "true" }, "inspireId": { "@dataType": "Identifier", "localId": "809713_11681.C", "namespace": "SK.ESKN.CP", "versionId": "20260703T06:07:46" }, "label": "11681", "nationalCadastralReference": "809713_11681.C", "referencePoint": { "type": "Point", "coordinates": [ 19.63607167, 48.72988182 ] }, "validFrom": "2026-06-30T16:00:00Z", "validTo": { "@nilReason": "http://inspire.ec.europa.eu/codelist/VoidReasonValue/Unpopulated", "@nil": "true" }, "administrativeUnit": { "@href": "#auAdmUnitS.969" } }, "geometry": { "type": "Polygon", "coordinates": [ [ [ 19.6353812, 48.72967813 ], [ 19.63538372, 48.72966157 ], [ 19.6358257, 48.72973499 ], [ 19.63626121, 48.73006367 ], [ 19.63631967, 48.73009812 ], [ 19.63653296, 48.73016936 ], [ 19.63685278, 48.73019438 ], [ 19.63795672, 48.73067388 ], [ 19.63815917, 48.73080819 ], [ 19.63861801, 48.73098557 ], [ 19.63891601, 48.73107062 ], [ 19.63930364, 48.73121829 ], [ 19.63954253, 48.73128717 ], [ 19.64041364, 48.73155689 ], [ 19.6409592, 48.73161168 ], [ 19.64128617, 48.7318739 ], [ 19.64162116, 48.73206985 ], [ 19.6419256, 48.73232988 ], [ 19.64259752, 48.73239774 ], [ 19.64341377, 48.73276286 ], [ 19.64383092, 48.73324608 ], [ 19.64403728, 48.73335585 ], [ 19.64567366, 48.7346361 ], [ 19.64675907, 48.73533787 ], [ 19.64685116, 48.73539798 ], [ 19.64687364, 48.73541269 ], [ 19.64698474, 48.73548672 ], [ 19.64699927, 48.73549657 ], [ 19.64711577, 48.73556841 ], [ 19.6476221, 48.7358921 ], [ 19.64846231, 48.73621715 ], [ 19.6489807, 48.73646711 ], [ 19.64950139, 48.73677061 ], [ 19.64980629, 48.73701883 ], [ 19.65046318, 48.73735764 ], [ 19.65064609, 48.73752232 ], [ 19.65079878, 48.7378104 ], [ 19.65096138, 48.73791667 ], [ 19.65147322, 48.73810186 ], [ 19.65159209, 48.73822527 ], [ 19.65161868, 48.7385031 ], [ 19.65170187, 48.7385611 ], [ 19.65200332, 48.73864501 ], [ 19.65236252, 48.73891278 ], [ 19.65246295, 48.73893026 ], [ 19.65279967, 48.73888135 ], [ 19.6530007, 48.73894642 ], [ 19.65324969, 48.73903555 ], [ 19.65349859, 48.73924672 ], [ 19.6536188, 48.73940895 ], [ 19.65373759, 48.73958112 ], [ 19.65400332, 48.73979836 ], [ 19.65401866, 48.73981086 ], [ 19.6541143, 48.73988843 ], [ 19.65417136, 48.73991415 ], [ 19.65438272, 48.7400234 ], [ 19.6544189, 48.74007334 ], [ 19.65443886, 48.74011669 ], [ 19.65444453, 48.7401612 ], [ 19.65444807, 48.74017713 ], [ 19.65446086, 48.74026118 ], [ 19.65446776, 48.74029628 ], [ 19.65453819, 48.74042842 ], [ 19.65454521, 48.74043171 ], [ 19.65456932, 48.74045578 ], [ 19.65465523, 48.74053913 ], [ 19.65481889, 48.74069916 ], [ 19.65484296, 48.74073692 ], [ 19.6547753, 48.74090254 ], [ 19.65489119, 48.74091548 ], [ 19.654879, 48.74061117 ], [ 19.65462339, 48.74039357 ], [ 19.65458979, 48.74027849 ], [ 19.6545551, 48.74017003 ], [ 19.65442363, 48.73999522 ], [ 19.65409695, 48.73979562 ], [ 19.65382975, 48.73960346 ], [ 19.6537274, 48.73942508 ], [ 19.65361507, 48.73927502 ], [ 19.65357831, 48.73923344 ], [ 19.65330323, 48.73900117 ], [ 19.65281432, 48.73881945 ], [ 19.65239557, 48.73886693 ], [ 19.65203705, 48.73860046 ], [ 19.65170919, 48.73848967 ], [ 19.65165386, 48.73819036 ], [ 19.65153175, 48.73806401 ], [ 19.65102246, 48.7378765 ], [ 19.65086554, 48.73778004 ], [ 19.65070857, 48.73748186 ], [ 19.65053711, 48.73732643 ], [ 19.64985674, 48.73697331 ], [ 19.64953761, 48.73672302 ], [ 19.64901829, 48.73641417 ], [ 19.64850491, 48.73617246 ], [ 19.64782033, 48.73590721 ], [ 19.64766318, 48.73584635 ], [ 19.64720456, 48.7355504 ], [ 19.64709732, 48.73543336 ], [ 19.64708388, 48.73542627 ], [ 19.64706035, 48.73541115 ], [ 19.64701796, 48.73538338 ], [ 19.64698527, 48.7353619 ], [ 19.64697316, 48.73535514 ], [ 19.64685331, 48.73527467 ], [ 19.64682916, 48.73525899 ], [ 19.64672648, 48.73519191 ], [ 19.6467086, 48.73517885 ], [ 19.6466002, 48.73509971 ], [ 19.64636892, 48.73496575 ], [ 19.645732, 48.73460275 ], [ 19.64406146, 48.7333353 ], [ 19.64387535, 48.73320481 ], [ 19.64345452, 48.73273494 ], [ 19.64262945, 48.73237077 ], [ 19.64201574, 48.73229878 ], [ 19.64195401, 48.73228284 ], [ 19.64166208, 48.73203095 ], [ 19.64133687, 48.73185914 ], [ 19.6409709, 48.73156939 ], [ 19.64039626, 48.73150716 ], [ 19.63959024, 48.73124577 ], [ 19.63847591, 48.73091374 ], [ 19.63814159, 48.7307114 ], [ 19.63799894, 48.730629 ], [ 19.63771931, 48.73050177 ], [ 19.63694666, 48.73017318 ], [ 19.63686382, 48.73014394 ], [ 19.63651245, 48.73011562 ], [ 19.63631822, 48.73002864 ], [ 19.6358663, 48.72968859 ], [ 19.63580213, 48.7296766 ], [ 19.63535486, 48.72960033 ], [ 19.63534252, 48.72957318 ], [ 19.63525925, 48.72956403 ], [ 19.63508256, 48.72944169 ], [ 19.63475744, 48.72919505 ], [ 19.63448689, 48.72901684 ], [ 19.63424104, 48.72890455 ], [ 19.63400754, 48.72879805 ], [ 19.63400896, 48.72879478 ], [ 19.63399149, 48.72878975 ], [ 19.63398737, 48.7287874 ], [ 19.63394462, 48.72876322 ], [ 19.63394296, 48.72876215 ], [ 19.63393797, 48.72875102 ], [ 19.63393235, 48.7287514 ], [ 19.63337105, 48.7284788 ], [ 19.63336872, 48.72847761 ], [ 19.63277395, 48.72818872 ], [ 19.63219885, 48.72778145 ], [ 19.63185, 48.72755518 ], [ 19.63155298, 48.7273682 ], [ 19.63105194, 48.72704386 ], [ 19.63003441, 48.72632704 ], [ 19.62944862, 48.72597913 ], [ 19.6292876, 48.72583973 ], [ 19.62884542, 48.72518459 ], [ 19.62830946, 48.72491004 ], [ 19.62782887, 48.72478599 ], [ 19.62758782, 48.72460747 ], [ 19.62741925, 48.72459987 ], [ 19.62734724, 48.72459663 ], [ 19.62709192, 48.72443369 ], [ 19.6269125, 48.72430509 ], [ 19.62677974, 48.72414677 ], [ 19.62642027, 48.7238414 ], [ 19.62584806, 48.7233713 ], [ 19.62526439, 48.72304699 ], [ 19.625038, 48.72285993 ], [ 19.62490654, 48.72281614 ], [ 19.62485506, 48.7228067 ], [ 19.62469153, 48.7227978 ], [ 19.62460008, 48.7227597 ], [ 19.62449343, 48.72266024 ], [ 19.62431963, 48.72242687 ], [ 19.62419469, 48.72230919 ], [ 19.62417341, 48.72219555 ], [ 19.62415795, 48.72205198 ], [ 19.6241632, 48.72198912 ], [ 19.62417427, 48.72189344 ], [ 19.6240703, 48.72179176 ], [ 19.62408328, 48.72168823 ], [ 19.62402927, 48.72150749 ], [ 19.62391773, 48.72137473 ], [ 19.62385827, 48.72106043 ], [ 19.62379159, 48.72087046 ], [ 19.62372589, 48.72069082 ], [ 19.62364375, 48.72054911 ], [ 19.62355491, 48.72008223 ], [ 19.62322403, 48.71963733 ], [ 19.62284682, 48.71937252 ], [ 19.62279702, 48.71935468 ], [ 19.62278053, 48.71935204 ], [ 19.62278177, 48.71934272 ], [ 19.62278068, 48.71933339 ], [ 19.62274322, 48.71932548 ], [ 19.62272682, 48.71932204 ], [ 19.62271965, 48.71933208 ], [ 19.62271249, 48.71934212 ], [ 19.62188759, 48.71921514 ], [ 19.62168412, 48.71910077 ], [ 19.621658, 48.71908589 ], [ 19.62147397, 48.71897456 ], [ 19.62087797, 48.71896381 ], [ 19.62042294, 48.71901946 ], [ 19.61988977, 48.7190494 ], [ 19.6193607, 48.7190039 ], [ 19.61873222, 48.71878876 ], [ 19.61830443, 48.71859738 ], [ 19.61828071, 48.71862389 ], [ 19.61870862, 48.71882087 ], [ 19.61934405, 48.71904515 ], [ 19.61989225, 48.71909278 ], [ 19.62041666, 48.71906064 ], [ 19.6208838, 48.71900374 ], [ 19.62121433, 48.71901802 ], [ 19.62145057, 48.71902849 ], [ 19.62163164, 48.71913284 ], [ 19.62185483, 48.71925549 ], [ 19.62270307, 48.71938722 ], [ 19.62270045, 48.7194008 ], [ 19.62269824, 48.71941296 ], [ 19.62276176, 48.71942322 ], [ 19.62276731, 48.71941031 ], [ 19.62277345, 48.71939571 ], [ 19.62277521, 48.71938786 ], [ 19.62316659, 48.71965664 ], [ 19.62349612, 48.72007624 ], [ 19.62360048, 48.72056321 ], [ 19.62373481, 48.72087142 ], [ 19.62373938, 48.72088398 ], [ 19.62380067, 48.72106414 ], [ 19.62385505, 48.72138416 ], [ 19.62396913, 48.72149874 ], [ 19.62404631, 48.7216834 ], [ 19.6240113, 48.72187789 ], [ 19.6241264, 48.72193761 ], [ 19.62411718, 48.72202058 ], [ 19.62412176, 48.72220503 ], [ 19.6241473, 48.72233536 ], [ 19.62428985, 48.72246997 ], [ 19.6245271, 48.72279634 ], [ 19.62459183, 48.72283324 ], [ 19.62465231, 48.72284796 ], [ 19.6248857, 48.72286244 ], [ 19.62501064, 48.72288889 ], [ 19.62522344, 48.72307165 ], [ 19.62582403, 48.72340357 ], [ 19.6267296, 48.72415605 ], [ 19.62677197, 48.72420771 ], [ 19.62685942, 48.72431514 ], [ 19.62705602, 48.72445812 ], [ 19.62735384, 48.72465822 ], [ 19.62739011, 48.72465797 ], [ 19.62746941, 48.72466055 ], [ 19.62758787, 48.72466399 ], [ 19.62777955, 48.72481243 ], [ 19.62828957, 48.72494844 ], [ 19.62880214, 48.72520139 ], [ 19.62923397, 48.72585778 ], [ 19.62940759, 48.72600576 ], [ 19.63004187, 48.72637776 ], [ 19.63089142, 48.72700689 ], [ 19.63114275, 48.72717441 ], [ 19.63213834, 48.72780676 ], [ 19.63273699, 48.72822356 ], [ 19.6338416, 48.72877129 ], [ 19.63388724, 48.7287939 ], [ 19.63388785, 48.72879717 ], [ 19.63390466, 48.72879937 ], [ 19.63390942, 48.72880211 ], [ 19.63395212, 48.72882683 ], [ 19.63396303, 48.72883868 ], [ 19.63396855, 48.72883794 ], [ 19.63445457, 48.72907803 ], [ 19.63469489, 48.72922829 ], [ 19.6350373, 48.72949095 ], [ 19.63528972, 48.7296468 ], [ 19.63529303, 48.7296583 ], [ 19.6353812, 48.72967813 ] ] ] } }
]
}
