{
"type": "FeatureCollection",
"name": "gis",
"crs": { "type": "name", "properties": { "name": "urn:ogc:def:crs:OGC:1.3:CRS84" } },
"features": [
{ "type": "Feature", "properties": { "@featureType": "CadastralParcel", "areaValue": { "value": 965, "@uom": "m2" }, "beginLifespanVersion": { "@nilReason": "http://inspire.ec.europa.eu/codelist/VoidReasonValue/Unpopulated", "@nil": "true" }, "endLifespanVersion": { "@nilReason": "http://inspire.ec.europa.eu/codelist/VoidReasonValue/Unpopulated", "@nil": "true" }, "inspireId": { "@dataType": "Identifier", "localId": "839175_1171/69.C", "namespace": "SK.ESKN.CP", "versionId": "20260703T06:07:03" }, "label": "1171/69", "nationalCadastralReference": "839175_1171/69.C", "referencePoint": { "type": "Point", "coordinates": [ 19.64659511, 48.86814796 ] }, "validFrom": "2026-06-30T16:00:00Z", "validTo": { "@nilReason": "http://inspire.ec.europa.eu/codelist/VoidReasonValue/Unpopulated", "@nil": "true" }, "administrativeUnit": { "@href": "#auAdmUnitS.481" } }, "geometry": { "type": "Polygon", "coordinates": [ [ [ 19.64652012, 48.86843773 ], [ 19.64653313, 48.86853972 ], [ 19.64661165, 48.86866248 ], [ 19.64657859, 48.86867173 ], [ 19.64659304, 48.86871456 ], [ 19.64658345, 48.8688597 ], [ 19.64664726, 48.86895666 ], [ 19.64665056, 48.86888605 ], [ 19.64665654, 48.86875877 ], [ 19.6466618, 48.86852952 ], [ 19.64659875, 48.86838257 ], [ 19.64659697, 48.86827225 ], [ 19.64664598, 48.86812382 ], [ 19.6466725, 48.86798944 ], [ 19.64665655, 48.86783234 ], [ 19.64659436, 48.86773816 ], [ 19.64651094, 48.8676113 ], [ 19.64640359, 48.86752717 ], [ 19.64620023, 48.86732301 ], [ 19.64622168, 48.86738022 ], [ 19.64630182, 48.86745393 ], [ 19.64642188, 48.86761903 ], [ 19.6465543, 48.8678009 ], [ 19.64658418, 48.86783451 ], [ 19.64658633, 48.8678694 ], [ 19.64658867, 48.86791043 ], [ 19.64659236, 48.86795431 ], [ 19.64659148, 48.86799077 ], [ 19.64659124, 48.86799978 ], [ 19.64659062, 48.86803103 ], [ 19.64658904, 48.86803582 ], [ 19.64654428, 48.86817209 ], [ 19.64652848, 48.86826729 ], [ 19.64652377, 48.86833306 ], [ 19.64652012, 48.86843773 ] ] ] } }
]
}
