{
"type": "FeatureCollection",
"name": "gis",
"crs": { "type": "name", "properties": { "name": "urn:ogc:def:crs:OGC:1.3:CRS84" } },
"features": [
{ "type": "Feature", "properties": { "@featureType": "CadastralZoning", "beginLifespanVersion": { "@nilReason": "http://inspire.ec.europa.eu/codelist/VoidReasonValue/Unpopulated", "@nil": "true" }, "endLifespanVersion": { "@nilReason": "http://inspire.ec.europa.eu/codelist/VoidReasonValue/Unpopulated", "@nil": "true" }, "estimatedAccuracy": { "value": -1, "@uom": "m" }, "inspireId": { "@dataType": "Identifier", "localId": "858943", "namespace": "SK.ESKN.CP", "versionId": "20260703T04:07:40" }, "label": "Strečno", "level": { "@href": "http://inspire.ec.europa.eu/codelist/CadastralZoningLevelValue/3rdOrder" }, "levelName": { "value": "Katastrálne územie", "@locale": "sk" }, "name": { "@dataType": "name", "GeographicalName": { "@dataType": "GeographicalName", "language": "SLK", "nativeness": { "@href": "http://inspire.ec.europa.eu/codelist/NativenessValue/endonym", "@title": "endonym" }, "nameStatus": { "@href": "http://inspire.ec.europa.eu/codelist/NameStatusValue/official", "@title": "official" }, "sourceOfName": { "@nilReason": "http://inspire.ec.europa.eu/codelist/VoidReasonValue/Unpopulated", "@nil": "true" }, "pronunciation": { "@dataType": "pronunciation", "@nilReason": "http://inspire.ec.europa.eu/codelist/VoidReasonValue/Unpopulated", "@nil": "true" }, "spelling": { "@dataType": "SpellingOfName", "text": "Strečno", "script": "LATN" } } }, "nationalCadastalZoningReference": "858943", "validFrom": "2026-06-30T16:00:00Z", "validTo": { "@nilReason": "http://inspire.ec.europa.eu/codelist/VoidReasonValue/Unpopulated", "@nil": "true" } }, "geometry": { "type": "MultiPolygon", "coordinates": [ [ [ [ 18.85582161, 49.1944352 ], [ 18.85629376, 49.19445761 ], [ 18.85666355, 49.19446241 ], [ 18.8578737, 49.19450073 ], [ 18.85857304, 49.19445656 ], [ 18.85956161, 49.19438645 ], [ 18.86064206, 49.19425556 ], [ 18.86185697, 49.19401275 ], [ 18.8629994, 49.19380978 ], [ 18.86364574, 49.1937286 ], [ 18.86448504, 49.19362545 ], [ 18.86502672, 49.19353792 ], [ 18.86538074, 49.19347973 ], [ 18.86598725, 49.19346135 ], [ 18.86711771, 49.19364153 ], [ 18.86804703, 49.19356822 ], [ 18.86885846, 49.19340084 ], [ 18.86920614, 49.1933011 ], [ 18.86975128, 49.19312425 ], [ 18.87034361, 49.19290244 ], [ 18.87044142, 49.19286578 ], [ 18.87147649, 49.19224512 ], [ 18.87203924, 49.19093176 ], [ 18.8720434, 49.19054196 ], [ 18.87203616, 49.19015771 ], [ 18.8719666, 49.18980337 ], [ 18.87183653, 49.18936666 ], [ 18.87174242, 49.18905553 ], [ 18.87157381, 49.18849057 ], [ 18.8715559, 49.1884018 ], [ 18.87136855, 49.18802899 ], [ 18.87129535, 49.18790519 ], [ 18.87122622, 49.18777736 ], [ 18.87099894, 49.18726947 ], [ 18.87071304, 49.18697324 ], [ 18.87037531, 49.18662106 ], [ 18.87029793, 49.18655099 ], [ 18.87022824, 49.18648789 ], [ 18.87008624, 49.18638962 ], [ 18.86999429, 49.18631934 ], [ 18.86987428, 49.18620514 ], [ 18.86951388, 49.18587128 ], [ 18.86910883, 49.18553107 ], [ 18.86860073, 49.18511803 ], [ 18.86829562, 49.18487701 ], [ 18.86794033, 49.18458128 ], [ 18.86728429, 49.1840103 ], [ 18.86700418, 49.18363805 ], [ 18.86664881, 49.18315832 ], [ 18.86661546, 49.18311719 ], [ 18.86653762, 49.18301408 ], [ 18.86635442, 49.18275467 ], [ 18.86617741, 49.18251271 ], [ 18.86611023, 49.18225888 ], [ 18.86605348, 49.18200189 ], [ 18.86600819, 49.18180113 ], [ 18.86597798, 49.18167935 ], [ 18.86594948, 49.1815941 ], [ 18.86588382, 49.18146383 ], [ 18.86564002, 49.18102831 ], [ 18.86538831, 49.18051726 ], [ 18.86502831, 49.17984353 ], [ 18.86486517, 49.17953373 ], [ 18.86485479, 49.17951344 ], [ 18.86468698, 49.17890349 ], [ 18.86458324, 49.17844051 ], [ 18.86453547, 49.17814862 ], [ 18.86447205, 49.17779882 ], [ 18.86447668, 49.17749906 ], [ 18.86443245, 49.17729755 ], [ 18.8643993, 49.1771555 ], [ 18.8643571, 49.17701317 ], [ 18.86426533, 49.17672344 ], [ 18.86418135, 49.17590311 ], [ 18.86414673, 49.17550554 ], [ 18.86398793, 49.17459731 ], [ 18.86389389, 49.17452061 ], [ 18.86385772, 49.17411529 ], [ 18.86385152, 49.17348395 ], [ 18.86413405, 49.17284015 ], [ 18.8643331, 49.17252969 ], [ 18.86470497, 49.17228941 ], [ 18.86602436, 49.17169367 ], [ 18.86741048, 49.17112884 ], [ 18.86828214, 49.17085813 ], [ 18.87021437, 49.17064883 ], [ 18.87099184, 49.17057172 ], [ 18.87272019, 49.17054731 ], [ 18.87464831, 49.17056186 ], [ 18.87505032, 49.17056492 ], [ 18.87510631, 49.17056833 ], [ 18.87514539, 49.1705706 ], [ 18.87518746, 49.17057311 ], [ 18.87621554, 49.17063488 ], [ 18.87625379, 49.1706371 ], [ 18.87629681, 49.17063975 ], [ 18.87641305, 49.17064669 ], [ 18.87678915, 49.17068828 ], [ 18.87706667, 49.17071898 ], [ 18.87906073, 49.17107805 ], [ 18.88033555, 49.17144706 ], [ 18.88156454, 49.17189751 ], [ 18.88172259, 49.17195546 ], [ 18.881902, 49.17202127 ], [ 18.88260463, 49.17227877 ], [ 18.88357411, 49.1726547 ], [ 18.88383243, 49.17282862 ], [ 18.88409956, 49.17303501 ], [ 18.88480804, 49.17334078 ], [ 18.88558081, 49.17388371 ], [ 18.8871673, 49.17503765 ], [ 18.88758241, 49.17528054 ], [ 18.88877388, 49.17598578 ], [ 18.88940362, 49.17625539 ], [ 18.89013097, 49.17640623 ], [ 18.89091211, 49.17656521 ], [ 18.8918112, 49.1766658 ], [ 18.8926374, 49.17655396 ], [ 18.89347088, 49.17642363 ], [ 18.89399685, 49.17630631 ], [ 18.89430374, 49.17621146 ], [ 18.89495477, 49.17592922 ], [ 18.89550327, 49.17550916 ], [ 18.89649552, 49.17465884 ], [ 18.89658509, 49.17457168 ], [ 18.89683462, 49.17399496 ], [ 18.89689336, 49.17345407 ], [ 18.8967898, 49.17296976 ], [ 18.89643431, 49.17213195 ], [ 18.89606486, 49.17149321 ], [ 18.8951457, 49.17030007 ], [ 18.89437023, 49.16928291 ], [ 18.89409496, 49.16899188 ], [ 18.89365703, 49.16853211 ], [ 18.89294986, 49.16795677 ], [ 18.89268479, 49.16775502 ], [ 18.89173953, 49.16715887 ], [ 18.89094453, 49.16669585 ], [ 18.88870581, 49.16567787 ], [ 18.88778295, 49.16543731 ], [ 18.88561595, 49.16528178 ], [ 18.8847248, 49.16555856 ], [ 18.88396408, 49.16565429 ], [ 18.88377361, 49.1656783 ], [ 18.88359586, 49.1657007 ], [ 18.88297672, 49.16577858 ], [ 18.88178708, 49.16589082 ], [ 18.88087986, 49.16596804 ], [ 18.88037554, 49.16592117 ], [ 18.88022503, 49.16588434 ], [ 18.88011053, 49.16581193 ], [ 18.87986481, 49.16565848 ], [ 18.87948318, 49.1652864 ], [ 18.87945307, 49.16521225 ], [ 18.87949386, 49.16483541 ], [ 18.87966939, 49.16438618 ], [ 18.87978882, 49.16404556 ], [ 18.88005837, 49.16363027 ], [ 18.88071105, 49.16308815 ], [ 18.88127028, 49.16279644 ], [ 18.88195661, 49.16259834 ], [ 18.88343492, 49.16280527 ], [ 18.88429575, 49.16257963 ], [ 18.8843137, 49.16256864 ], [ 18.88452053, 49.16244147 ], [ 18.88472706, 49.16231446 ], [ 18.88490539, 49.16220487 ], [ 18.88631822, 49.16110488 ], [ 18.88719843, 49.16055325 ], [ 18.8873329, 49.16050374 ], [ 18.88764663, 49.16015942 ], [ 18.8877172, 49.1598973 ], [ 18.88768831, 49.1590026 ], [ 18.8874934, 49.15872819 ], [ 18.88727222, 49.15823715 ], [ 18.88711925, 49.15807176 ], [ 18.88674702, 49.15763217 ], [ 18.88664208, 49.1575082 ], [ 18.88654788, 49.15739696 ], [ 18.8862438, 49.15703788 ], [ 18.88610982, 49.15684 ], [ 18.88577646, 49.1560545 ], [ 18.88558301, 49.15539844 ], [ 18.8855432, 49.15512907 ], [ 18.88552548, 49.15441055 ], [ 18.88559269, 49.15396363 ], [ 18.88605116, 49.15337739 ], [ 18.8870009, 49.15266867 ], [ 18.88744985, 49.15222843 ], [ 18.88839349, 49.15149549 ], [ 18.88804482, 49.15121107 ], [ 18.88799167, 49.15118734 ], [ 18.88781125, 49.15109939 ], [ 18.88779259, 49.15109095 ], [ 18.88774375, 49.15106906 ], [ 18.88749261, 49.15095594 ], [ 18.88741387, 49.15092892 ], [ 18.88737646, 49.15090924 ], [ 18.88701286, 49.15081681 ], [ 18.88693967, 49.15076265 ], [ 18.88669015, 49.15070779 ], [ 18.886621, 49.15068451 ], [ 18.88660301, 49.15067845 ], [ 18.88646416, 49.15063997 ], [ 18.88620848, 49.15058488 ], [ 18.88618756, 49.15058039 ], [ 18.88593291, 49.15054087 ], [ 18.88587583, 49.1505329 ], [ 18.88540908, 49.15046622 ], [ 18.88534124, 49.15041685 ], [ 18.88516364, 49.15035952 ], [ 18.88489668, 49.15025587 ], [ 18.88465825, 49.15013067 ], [ 18.88410853, 49.15002854 ], [ 18.88386578, 49.15002904 ], [ 18.88333187, 49.150088 ], [ 18.88246295, 49.15027577 ], [ 18.88225912, 49.15034681 ], [ 18.88193363, 49.15035507 ], [ 18.88158799, 49.15034769 ], [ 18.88121987, 49.1503398 ], [ 18.88089844, 49.15014478 ], [ 18.88063332, 49.14998393 ], [ 18.88040823, 49.14984732 ], [ 18.88019673, 49.14971899 ], [ 18.88012709, 49.14967673 ], [ 18.87924613, 49.14932584 ], [ 18.87874912, 49.14918407 ], [ 18.8781258, 49.14910557 ], [ 18.87673029, 49.14892976 ], [ 18.87597588, 49.1488366 ], [ 18.87524663, 49.14873201 ], [ 18.87489265, 49.14867232 ], [ 18.87424493, 49.14856549 ], [ 18.87316683, 49.14855695 ], [ 18.87189142, 49.14847905 ], [ 18.87131195, 49.14844812 ], [ 18.87070489, 49.14840875 ], [ 18.87025325, 49.14834476 ], [ 18.86971782, 49.14850072 ], [ 18.86856631, 49.14896572 ], [ 18.86785947, 49.14933713 ], [ 18.86731624, 49.14960813 ], [ 18.86691905, 49.14984666 ], [ 18.86660617, 49.14995916 ], [ 18.86626038, 49.15011012 ], [ 18.86580172, 49.15029778 ], [ 18.86568572, 49.15037473 ], [ 18.86522261, 49.15039763 ], [ 18.86467463, 49.15054896 ], [ 18.86429229, 49.150471 ], [ 18.8639254, 49.15039618 ], [ 18.86366706, 49.15034389 ], [ 18.86318987, 49.15024727 ], [ 18.86274477, 49.15021363 ], [ 18.86267404, 49.15020829 ], [ 18.86264461, 49.15020606 ], [ 18.86242801, 49.15021777 ], [ 18.86213321, 49.15023378 ], [ 18.86147102, 49.15016763 ], [ 18.86058758, 49.14998955 ], [ 18.85995684, 49.14991445 ], [ 18.85901565, 49.14981259 ], [ 18.85859715, 49.14978084 ], [ 18.85786891, 49.14967475 ], [ 18.85773226, 49.14965484 ], [ 18.85726524, 49.14961834 ], [ 18.85683259, 49.14950693 ], [ 18.8566185, 49.14951723 ], [ 18.85654866, 49.14952059 ], [ 18.85586173, 49.14955362 ], [ 18.8556688, 49.14956284 ], [ 18.8555861, 49.14956103 ], [ 18.85529875, 49.14949387 ], [ 18.85523045, 49.14946123 ], [ 18.85481518, 49.14926069 ], [ 18.854597, 49.14915541 ], [ 18.85415988, 49.14893751 ], [ 18.85361244, 49.14866468 ], [ 18.85280427, 49.14826987 ], [ 18.85277282, 49.14825455 ], [ 18.85239695, 49.14806972 ], [ 18.85197002, 49.14785982 ], [ 18.85192249, 49.14783645 ], [ 18.85084372, 49.14730595 ], [ 18.85048732, 49.14713079 ], [ 18.84967925, 49.14675977 ], [ 18.84883688, 49.14636975 ], [ 18.84858063, 49.14611953 ], [ 18.84850939, 49.14570401 ], [ 18.84850436, 49.14567471 ], [ 18.8482687, 49.14594294 ], [ 18.8478722, 49.14627868 ], [ 18.84738901, 49.14672325 ], [ 18.84696594, 49.14708107 ], [ 18.84642112, 49.14752111 ], [ 18.84586642, 49.14797463 ], [ 18.84512896, 49.14835002 ], [ 18.8447411, 49.14854178 ], [ 18.84427747, 49.14915015 ], [ 18.8442224, 49.14975131 ], [ 18.84399724, 49.15021888 ], [ 18.8439712, 49.15027338 ], [ 18.84395756, 49.15030587 ], [ 18.84379618, 49.15082543 ], [ 18.84366423, 49.1516245 ], [ 18.84393624, 49.1523067 ], [ 18.84416571, 49.1531608 ], [ 18.84422424, 49.15323372 ], [ 18.84426482, 49.15328424 ], [ 18.84471807, 49.1538493 ], [ 18.84453562, 49.15404458 ], [ 18.84449541, 49.15408761 ], [ 18.84396159, 49.1546591 ], [ 18.84422194, 49.15545517 ], [ 18.84437747, 49.15599833 ], [ 18.84444111, 49.15629782 ], [ 18.84447455, 49.15663942 ], [ 18.84447037, 49.15678939 ], [ 18.84456586, 49.15699734 ], [ 18.8448454, 49.15753858 ], [ 18.84479487, 49.15790039 ], [ 18.84464713, 49.15824241 ], [ 18.84470346, 49.15835563 ], [ 18.84476314, 49.15847541 ], [ 18.84479751, 49.15854456 ], [ 18.84495151, 49.15876698 ], [ 18.84512216, 49.15901352 ], [ 18.84507695, 49.15933881 ], [ 18.84503288, 49.15944749 ], [ 18.84495383, 49.15964286 ], [ 18.84515684, 49.15981079 ], [ 18.84530391, 49.15993245 ], [ 18.84553141, 49.16019932 ], [ 18.84572188, 49.16035136 ], [ 18.84652527, 49.16125236 ], [ 18.84661988, 49.16135843 ], [ 18.84669325, 49.16144076 ], [ 18.84693031, 49.16153918 ], [ 18.84729485, 49.16185413 ], [ 18.84729723, 49.16185723 ], [ 18.84733922, 49.16191215 ], [ 18.84765233, 49.16232143 ], [ 18.84794374, 49.1628123 ], [ 18.84817047, 49.16305125 ], [ 18.84831712, 49.16333661 ], [ 18.84820442, 49.16381709 ], [ 18.84796182, 49.16404248 ], [ 18.84764866, 49.16433921 ], [ 18.84756438, 49.16470497 ], [ 18.84742987, 49.16508132 ], [ 18.84736448, 49.16545247 ], [ 18.84760485, 49.16581453 ], [ 18.84762893, 49.1660171 ], [ 18.84778689, 49.1662573 ], [ 18.84779581, 49.16645322 ], [ 18.84771081, 49.16672595 ], [ 18.84760637, 49.1670785 ], [ 18.84760312, 49.16708961 ], [ 18.84745623, 49.16754191 ], [ 18.84748832, 49.16787198 ], [ 18.84790336, 49.16835991 ], [ 18.84808765, 49.16858125 ], [ 18.8478544, 49.16878693 ], [ 18.84752983, 49.16907296 ], [ 18.84704654, 49.16940821 ], [ 18.84672509, 49.16960935 ], [ 18.84644128, 49.16997668 ], [ 18.84571438, 49.17037499 ], [ 18.84515338, 49.17073294 ], [ 18.84497291, 49.17082595 ], [ 18.84442624, 49.17110769 ], [ 18.8442783, 49.17119327 ], [ 18.84424712, 49.17121133 ], [ 18.84410269, 49.17130322 ], [ 18.84379762, 49.1714995 ], [ 18.8435965, 49.1716306 ], [ 18.84311007, 49.17194222 ], [ 18.84289809, 49.17209161 ], [ 18.84324485, 49.17235325 ], [ 18.84337192, 49.17244908 ], [ 18.84367415, 49.17267704 ], [ 18.84417783, 49.17315195 ], [ 18.84426462, 49.17323381 ], [ 18.84472033, 49.17383966 ], [ 18.84508269, 49.1741609 ], [ 18.84473054, 49.17450451 ], [ 18.84395848, 49.17513024 ], [ 18.84347067, 49.17545081 ], [ 18.84272795, 49.17592524 ], [ 18.84174749, 49.17666409 ], [ 18.84104262, 49.17726809 ], [ 18.8411468, 49.17834314 ], [ 18.84122659, 49.17916545 ], [ 18.84117641, 49.17917776 ], [ 18.84093408, 49.17927462 ], [ 18.84062859, 49.1794854 ], [ 18.84048006, 49.1798125 ], [ 18.84031005, 49.17990406 ], [ 18.84000616, 49.18027963 ], [ 18.83999421, 49.18035758 ], [ 18.83993687, 49.1807333 ], [ 18.83977696, 49.18074618 ], [ 18.83958378, 49.1807634 ], [ 18.83856856, 49.18084991 ], [ 18.83839855, 49.18086434 ], [ 18.83836894, 49.18086688 ], [ 18.83833112, 49.18087016 ], [ 18.83829929, 49.18087286 ], [ 18.8382573, 49.18087764 ], [ 18.83821269, 49.18088022 ], [ 18.83841065, 49.18152424 ], [ 18.83845897, 49.1820379 ], [ 18.83836013, 49.18267965 ], [ 18.8382159, 49.18361546 ], [ 18.83718567, 49.18353386 ], [ 18.83679481, 49.18455603 ], [ 18.83650634, 49.18565264 ], [ 18.8364937, 49.18570079 ], [ 18.83648066, 49.18574991 ], [ 18.83647131, 49.18578542 ], [ 18.83646122, 49.18582378 ], [ 18.83627225, 49.18575966 ], [ 18.83588742, 49.18564542 ], [ 18.83579412, 49.18561554 ], [ 18.83578378, 49.18561221 ], [ 18.83572163, 49.18559233 ], [ 18.83559705, 49.18555245 ], [ 18.83548692, 49.1855172 ], [ 18.83512547, 49.18538124 ], [ 18.83478072, 49.18524489 ], [ 18.83470283, 49.18519893 ], [ 18.83448277, 49.18506935 ], [ 18.83423544, 49.18492619 ], [ 18.83395366, 49.18490627 ], [ 18.83381097, 49.18490741 ], [ 18.83378863, 49.18491347 ], [ 18.83375506, 49.18492266 ], [ 18.83402824, 49.18507518 ], [ 18.83419416, 49.18523057 ], [ 18.8344325, 49.18543497 ], [ 18.83460896, 49.1856931 ], [ 18.83475574, 49.18594618 ], [ 18.83464176, 49.18605451 ], [ 18.83447238, 49.18630827 ], [ 18.83456364, 49.18663544 ], [ 18.83476926, 49.1868764 ], [ 18.83474266, 49.18706057 ], [ 18.83463749, 49.18726416 ], [ 18.83463031, 49.18733793 ], [ 18.83434201, 49.18754923 ], [ 18.83438851, 49.18765391 ], [ 18.83458964, 49.18767743 ], [ 18.83486321, 49.18771081 ], [ 18.83490797, 49.1878633 ], [ 18.8349131, 49.18798705 ], [ 18.83489496, 49.1880581 ], [ 18.83488065, 49.1881316 ], [ 18.83487618, 49.18815392 ], [ 18.83485208, 49.18827698 ], [ 18.83484845, 49.18829582 ], [ 18.83490169, 49.18836721 ], [ 18.83487408, 49.18856441 ], [ 18.83499797, 49.18870996 ], [ 18.83503814, 49.18882496 ], [ 18.83494858, 49.18908555 ], [ 18.8350122, 49.18934481 ], [ 18.83525869, 49.18938609 ], [ 18.83560901, 49.18954285 ], [ 18.83566118, 49.18973116 ], [ 18.83571173, 49.18995828 ], [ 18.83563667, 49.19015177 ], [ 18.83552568, 49.19025918 ], [ 18.83543477, 49.19034713 ], [ 18.83556859, 49.1904398 ], [ 18.83565221, 49.19049768 ], [ 18.83564986, 49.19050812 ], [ 18.83560354, 49.19071446 ], [ 18.83576524, 49.19095008 ], [ 18.83595693, 49.19110301 ], [ 18.83626607, 49.19129923 ], [ 18.83630842, 49.19135011 ], [ 18.83631287, 49.19135548 ], [ 18.83636004, 49.19141203 ], [ 18.83636424, 49.19141721 ], [ 18.83638446, 49.19144143 ], [ 18.83641376, 49.19161044 ], [ 18.83642627, 49.19178752 ], [ 18.83648933, 49.19182639 ], [ 18.83725196, 49.1920628 ], [ 18.83727399, 49.19206962 ], [ 18.84023082, 49.19297739 ], [ 18.84024284, 49.19304484 ], [ 18.84026855, 49.19318994 ], [ 18.84034837, 49.19358209 ], [ 18.84100368, 49.19354145 ], [ 18.8416915, 49.1934959 ], [ 18.84198718, 49.1935139 ], [ 18.84238586, 49.19351301 ], [ 18.84271613, 49.19349499 ], [ 18.84315233, 49.19344966 ], [ 18.84329573, 49.19344513 ], [ 18.84332613, 49.19344416 ], [ 18.84347778, 49.19347306 ], [ 18.84377649, 49.19353008 ], [ 18.84418085, 49.19358072 ], [ 18.84448591, 49.19358701 ], [ 18.84484024, 49.19357031 ], [ 18.84539156, 49.19353828 ], [ 18.84590006, 49.19354438 ], [ 18.84640357, 49.19354156 ], [ 18.84700089, 49.19354499 ], [ 18.84744832, 49.1935392 ], [ 18.84781677, 49.19353791 ], [ 18.84814749, 49.19353334 ], [ 18.84920569, 49.19358541 ], [ 18.84990073, 49.19364517 ], [ 18.85046772, 49.19368239 ], [ 18.85109102, 49.19377013 ], [ 18.85161114, 49.19386095 ], [ 18.85212473, 49.19398923 ], [ 18.85280256, 49.19410789 ], [ 18.85337214, 49.19418916 ], [ 18.85382703, 49.19425461 ], [ 18.85436706, 49.19431479 ], [ 18.85450455, 49.19434015 ], [ 18.85493199, 49.1944189 ], [ 18.85553158, 49.19445289 ], [ 18.85582161, 49.1944352 ] ] ] ] } }
]
}
